"date.pretty","date.year","date.mon","date.mday","date.hour","date.min","date.tzname","utcdate.pretty","utcdate.year","utcdate.mon","utcdate.mday","utcdate.hour","utcdate.min","utcdate.tzname","tempm","tempi","dewptm","dewpti","hum","wspdm","wspdi","wgustm","wgusti","wdird","wdire","vism","visi","pressurem","pressurei","windchillm","windchilli","heatindexm","heatindexi","precipm","precipi","conds","icon","fog","rain","snow","hail","thunder","tornado","metar"
"12:00 AM EEST on October 01, 2016","2016","10","01","00","00","Europe/Kiev","9:00 PM GMT on September 30, 2016","2016","09","30","21","00","UTC","19","66","11","52","51","10.8","6.7","","","260","West","20","12","1016","30.02","-999","-999","-9999","-9999","","","Partly Cloudy","partlycloudy","0","0","0","0","0","0","AAXX 30211 33345 42998 52603 10188 20111 39968 40164 52005 83031 555 10014"
"12:00 AM EEST on October 01, 2016","2016","10","01","00","00","Europe/Kiev","9:00 PM GMT on September 30, 2016","2016","09","30","21","00","UTC","17.0","62.6","11.0","51.8","68","7.2","4.5","-9999.0","-9999.0","250","WSW","-9999.0","-9999.0","1016","30.01","-999","-999","-9999","-9999","-9999.00","-9999.00","Clear","clear","0","0","0","0","0","0","METAR UKKK 302100Z 25002MPS CAVOK 17/11 Q1016 R26/CLRD70 NOSIG"
"12:30 AM EEST on October 01, 2016","2016","10","01","00","30","Europe/Kiev","9:30 PM GMT on September 30, 2016","2016","09","30","21","30","UTC","16.0","60.8","11.0","51.8","72","7.2","4.5","-9999.0","-9999.0","250","WSW","-9999.0","-9999.0","1017","30.04","-999","-999","-9999","-9999","-9999.00","-9999.00","Clear","clear","0","0","0","0","0","0","METAR UKKK 302130Z 25002MPS 220V290 CAVOK 16/11 Q1017 R26/CLRD70 NOSIG"
"1:00 AM EEST on October 01, 2016","2016","10","01","01","00","Europe/Kiev","10:00 PM GMT on September 30, 2016","2016","09","30","22","00","UTC","15.0","59.0","11.0","51.8","77","7.2","4.5","-9999.0","-9999.0","250","WSW","-9999.0","-9999.0","1017","30.04","-999","-999","-9999","-9999","-9999.00","-9999.00","Clear","clear","0","0","0","0","0","0","METAR UKKK 302200Z 25002MPS CAVOK 15/11 Q1017 R26/CLRD70 NOSIG"
"1:30 AM EEST on October 01, 2016","2016","10","01","01","30","Europe/Kiev","10:30 PM GMT on September 30, 2016","2016","09","30","22","30","UTC","14.0","57.2","11.0","51.8","82","7.2","4.5","-9999.0","-9999.0","260","West","-9999.0","-9999.0","1017","30.04","-999","-999","-9999","-9999","-9999.00","-9999.00","Clear","clear","0","0","0","0","0","0","METAR UKKK 302230Z 26002MPS CAVOK 14/11 Q1017 R26/CLRD70 NOSIG"
"2:00 AM EEST on October 01, 2016","2016","10","01","02","00","Europe/Kiev","11:00 PM GMT on September 30, 2016","2016","09","30","23","00","UTC","14.0","57.2","11.0","51.8","82","7.2","4.5","-9999.0","-9999.0","240","WSW","-9999.0","-9999.0","1017","30.04","-999","-999","-9999","-9999","-9999.00","-9999.00","Clear","clear","0","0","0","0","0","0","METAR UKKK 302300Z 24002MPS CAVOK 14/11 Q1017 R26/CLRD70 NOSIG"
"2:30 AM EEST on October 01, 2016","2016","10","01","02","30","Europe/Kiev","11:30 PM GMT on September 30, 2016","2016","09","30","23","30","UTC","12.0","53.6","11.0","51.8","94","7.2","4.5","-9999.0","-9999.0","240","WSW","-9999.0","-9999.0","1017","30.04","-999","-999","-9999","-9999","-9999.00","-9999.00","Clear","clear","0","0","0","0","0","0","METAR UKKK 302330Z 24002MPS CAVOK 12/11 Q1017 R26/CLRD70 TEMPO 2000 BR"
"3:00 AM EEST on October 01, 2016","2016","10","01","03","00","Europe/Kiev","12:00 AM GMT on October 01, 2016","2016","10","01","00","00","UTC","17","63","10","51","55","7.2","4.5","","","310","NW","20","12","1016","30.02","-999","-999","-9999","-9999","","","","","0","0","0","0","0","0","AAXX 01001 33345 32998 03102 10171 20104 39968 40165 54000 555 10013"
"3:00 AM EEST on October 01, 2016","2016","10","01","03","00","Europe/Kiev","12:00 AM GMT on October 01, 2016","2016","10","01","00","00","UTC","11.0","51.8","10.0","50.0","94","7.2","4.5","-9999.0","-9999.0","240","WSW","-9999.0","-9999.0","1017","30.04","-999","-999","-9999","-9999","-9999.00","-9999.00","Clear","clear","0","0","0","0","0","0","METAR UKKK 010000Z 24002MPS CAVOK 11/10 Q1017 R26/CLRD70 TEMPO 2000 BR"
"3:30 AM EEST on October 01, 2016","2016","10","01","03","30","Europe/Kiev","12:30 AM GMT on October 01, 2016","2016","10","01","00","30","UTC","10.0","50.0","9.0","48.2","94","7.2","4.5","-9999.0","-9999.0","240","WSW","-9999.0","-9999.0","1016","30.01","-999","-999","-9999","-9999","-9999.00","-9999.00","Clear","clear","0","0","0","0","0","0","METAR UKKK 010030Z 24002MPS CAVOK 10/09 Q1016 R26/CLRD70 TEMPO 2000 BR"
"4:00 AM EEST on October 01, 2016","2016","10","01","04","00","Europe/Kiev","1:00 AM GMT on October 01, 2016","2016","10","01","01","00","UTC","11.0","51.8","9.0","48.2","88","3.6","2.2","-9999.0","-9999.0","200","SSW","-9999.0","-9999.0","1017","30.04","-999","-999","-9999","-9999","-9999.00","-9999.00","Clear","clear","0","0","0","0","0","0","METAR UKKK 010100Z 20001MPS CAVOK 11/09 Q1017 R08/CLRD70 TEMPO 2000 BR"
"4:30 AM EEST on October 01, 2016","2016","10","01","04","30","Europe/Kiev","1:30 AM GMT on October 01, 2016","2016","10","01","01","30","UTC","10.0","50.0","10.0","50.0","100","0.0","0.0","-9999.0","-9999.0","0","North","-9999.0","-9999.0","1017","30.04","-999","-999","-9999","-9999","-9999.00","-9999.00","Clear","clear","0","0","0","0","0","0","METAR UKKK 010130Z 00000MPS CAVOK 10/10 Q1017 R08/CLRD70 TEMPO 2000 BR"
"5:00 AM EEST on October 01, 2016","2016","10","01","05","00","Europe/Kiev","2:00 AM GMT on October 01, 2016","2016","10","01","02","00","UTC","9.0","48.2","9.0","48.2","100","0.0","0.0","-9999.0","-9999.0","0","North","-9999.0","-9999.0","1016","30.01","-999","-999","-9999","-9999","-9999.00","-9999.00","Clear","clear","0","0","0","0","0","0","METAR UKKK 010200Z 00000MPS CAVOK 09/09 Q1016 R08/CLRD70 TEMPO 2000 BR"
"5:30 AM EEST on October 01, 2016","2016","10","01","05","30","Europe/Kiev","2:30 AM GMT on October 01, 2016","2016","10","01","02","30","UTC","10.0","50.0","10.0","50.0","100","3.6","2.2","-9999.0","-9999.0","250","WSW","9.0","5.6","1017","30.04","-999","-999","-9999","-9999","-9999.00","-9999.00","Unknown","unknown","0","0","0","0","0","0","METAR UKKK 010230Z 25001MPS 9000 NSC 10/10 Q1017 R08/CLRD70 TEMPO 0400 FG VV001"
"6:00 AM EEST on October 01, 2016","2016","10","01","06","00","Europe/Kiev","3:00 AM GMT on October 01, 2016","2016","10","01","03","00","UTC","14","58","11","51","71","3.6","2.2","","","320","NW","20","12","1017","30.03","-999","-999","-9999","-9999","","","Clear","clear","0","0","0","0","0","0","AAXX 01031 33345 42998 23201 10142 20106 39969 40168 53001 80001 555 10010"
"6:00 AM EEST on October 01, 2016","2016","10","01","06","00","Europe/Kiev","3:00 AM GMT on October 01, 2016","2016","10","01","03","00","UTC","10.0","50.0","9.0","48.2","94","0.0","0.0","-9999.0","-9999.0","0","North","9.0","5.6","1017","30.04","-999","-999","-9999","-9999","-9999.00","-9999.00","Unknown","unknown","0","0","0","0","0","0","METAR UKKK 010300Z 00000MPS 9000 NSC 10/09 Q1017 R08/CLRD70 TEMPO 0400 FG VV001"
"6:30 AM EEST on October 01, 2016","2016","10","01","06","30","Europe/Kiev","3:30 AM GMT on October 01, 2016","2016","10","01","03","30","UTC","9.0","48.2","9.0","48.2","100","0.0","0.0","-9999.0","-9999.0","0","North","9.0","5.6","1016","30.01","-999","-999","-9999","-9999","-9999.00","-9999.00","Unknown","unknown","0","0","0","0","0","0","METAR UKKK 010330Z 00000MPS 9000 NSC 09/09 Q1016 R08/CLRD70 TEMPO 0400 FG VV001"
"7:00 AM EEST on October 01, 2016","2016","10","01","07","00","Europe/Kiev","4:00 AM GMT on October 01, 2016","2016","10","01","04","00","UTC","9.0","48.2","9.0","48.2","100","3.6","2.2","-9999.0","-9999.0","210","SSW","7.0","4.3","1016","30.01","-999","-999","-9999","-9999","-9999.00","-9999.00","Shallow Fog","fog","1","0","0","0","0","0","METAR UKKK 010400Z 21001MPS 7000 MIFG NSC 09/09 Q1016 R08/CLRD70 TEMPO 0400 FG VV001"
"7:30 AM EEST on October 01, 2016","2016","10","01","07","30","Europe/Kiev","4:30 AM GMT on October 01, 2016","2016","10","01","04","30","UTC","9.0","48.2","9.0","48.2","100","3.6","2.2","-9999.0","-9999.0","190","South","8.0","5.0","1017","30.04","-999","-999","-9999","-9999","-9999.00","-9999.00","Shallow Fog","fog","1","0","0","0","0","0","METAR UKKK 010430Z 19001MPS 8000 MIFG NSC 09/09 Q1017 R08/CLRD70 TEMPO 0400 FG VV001"
"8:00 AM EEST on October 01, 2016","2016","10","01","08","00","Europe/Kiev","5:00 AM GMT on October 01, 2016","2016","10","01","05","00","UTC","11.0","51.8","11.0","51.8","100","0.0","0.0","-9999.0","-9999.0","0","North","6.0","3.7","1017","30.04","-999","-999","-9999","-9999","-9999.00","-9999.00","Unknown","unknown","0","0","0","0","0","0","METAR UKKK 010500Z 00000MPS 6000 NSC 11/11 Q1017 R08/CLRD70 TEMPO 0400 FG VV001"
"8:30 AM EEST on October 01, 2016","2016","10","01","08","30","Europe/Kiev","5:30 AM GMT on October 01, 2016","2016","10","01","05","30","UTC","14.0","57.2","11.0","51.8","82","7.2","4.5","-9999.0","-9999.0","250","WSW","-9999.0","-9999.0","1017","30.04","-999","-999","-9999","-9999","-9999.00","-9999.00","Clear","clear","0","0","0","0","0","0","METAR UKKK 010530Z 25002MPS CAVOK 14/11 Q1017 R26/CLRD70 NOSIG"
"9:00 AM EEST on October 01, 2016","2016","10","01","09","00","Europe/Kiev","6:00 AM GMT on October 01, 2016","2016","10","01","06","00","UTC","16","61","11","52","65","3.6","2.2","","","320","NW","20","12","1017","30.04","-999","-999","-9999","-9999","","","Clear","clear","0","0","0","0","0","0","AAXX 01061 33345 32998 63201 10161 20113 39975 40173 52006 80001 333 20125 555 10017"
"9:00 AM EEST on October 01, 2016","2016","10","01","09","00","Europe/Kiev","6:00 AM GMT on October 01, 2016","2016","10","01","06","00","UTC","15.0","59.0","12.0","53.6","82","7.2","4.5","-9999.0","-9999.0","240","WSW","-9999.0","-9999.0","1017","30.04","-999","-999","-9999","-9999","-9999.00","-9999.00","Clear","clear","0","0","0","0","0","0","METAR UKKK 010600Z 24002MPS CAVOK 15/12 Q1017 R26/CLRD70 NOSIG"
"9:30 AM EEST on October 01, 2016","2016","10","01","09","30","Europe/Kiev","6:30 AM GMT on October 01, 2016","2016","10","01","06","30","UTC","16.0","60.8","11.0","51.8","72","7.2","4.5","-9999.0","-9999.0","240","WSW","-9999.0","-9999.0","1017","30.04","-999","-999","-9999","-9999","-9999.00","-9999.00","Clear","clear","0","0","0","0","0","0","METAR UKKK 010630Z 24002MPS CAVOK 16/11 Q1017 R26/CLRD70 NOSIG"
"10:00 AM EEST on October 01, 2016","2016","10","01","10","00","Europe/Kiev","7:00 AM GMT on October 01, 2016","2016","10","01","07","00","UTC","17.0","62.6","11.0","51.8","68","3.6","2.2","-9999.0","-9999.0","0","Variable","9.0","5.6","1017","30.04","-999","-999","-9999","-9999","-9999.00","-9999.00","Unknown","unknown","0","0","0","0","0","0","METAR UKKK 010700Z VRB01MPS 9000 NSC 17/11 Q1017 R26/CLRD70 NOSIG"
"10:30 AM EEST on October 01, 2016","2016","10","01","10","30","Europe/Kiev","7:30 AM GMT on October 01, 2016","2016","10","01","07","30","UTC","19.0","66.2","12.0","53.6","64","3.6","2.2","-9999.0","-9999.0","0","Variable","-9999.0","-9999.0","1017","30.04","-999","-999","-9999","-9999","-9999.00","-9999.00","Clear","clear","0","0","0","0","0","0","METAR UKKK 010730Z VRB01MPS CAVOK 19/12 Q1017 R26/CLRD70 NOSIG"
"11:00 AM EEST on October 01, 2016","2016","10","01","11","00","Europe/Kiev","8:00 AM GMT on October 01, 2016","2016","10","01","08","00","UTC","20.0","68.0","12.0","53.6","60","7.2","4.5","-9999.0","-9999.0","310","NW","-9999.0","-9999.0","1018","30.06","-999","-999","-9999","-9999","-9999.00","-9999.00","Clear","clear","0","0","0","0","0","0","METAR UKKK 010800Z 31002MPS 270V010 CAVOK 20/12 Q1018 R26/CLRD70 NOSIG"
"11:30 AM EEST on October 01, 2016","2016","10","01","11","30","Europe/Kiev","8:30 AM GMT on October 01, 2016","2016","10","01","08","30","UTC","21.0","69.8","12.0","53.6","56","7.2","4.5","-9999.0","-9999.0","270","West","-9999.0","-9999.0","1018","30.06","-999","-999","-9999","-9999","-9999.00","-9999.00","Clear","clear","0","0","0","0","0","0","METAR UKKK 010830Z 27002MPS 240V320 CAVOK 21/12 Q1018 R26/CLRD70 NOSIG"
"12:00 PM EEST on October 01, 2016","2016","10","01","12","00","Europe/Kiev","9:00 AM GMT on October 01, 2016","2016","10","01","09","00","UTC","23","73","12","53","40","7.2","4.5","","","240","WSW","20","12","1017","30.04","-999","-999","-9999","-9999","","","Scattered Clouds","partlycloudy","0","0","0","0","0","0","AAXX 01091 33345 42998 62402 10227 20119 39978 40171 52003 82089 555 10033"
"12:00 PM EEST on October 01, 2016","2016","10","01","12","00","Europe/Kiev","9:00 AM GMT on October 01, 2016","2016","10","01","09","00","UTC","22.0","71.6","13.0","55.4","57","10.8","6.7","-9999.0","-9999.0","240","WSW","9.0","5.6","1017","30.04","-999","-999","-9999","-9999","-9999.00","-9999.00","Unknown","unknown","0","0","0","0","0","0","METAR UKKK 010900Z 24003MPS 210V280 9000 NSC 22/13 Q1017 R26/CLRD70 NOSIG"
"12:30 PM EEST on October 01, 2016","2016","10","01","12","30","Europe/Kiev","9:30 AM GMT on October 01, 2016","2016","10","01","09","30","UTC","23.0","73.4","12.0","53.6","50","7.2","4.5","-9999.0","-9999.0","250","WSW","-9999.0","-9999.0","1017","30.04","-999","-999","-9999","-9999","-9999.00","-9999.00","Clear","clear","0","0","0","0","0","0","METAR UKKK 010930Z 25002MPS CAVOK 23/12 Q1017 R26/CLRD70 NOSIG"
"1:00 PM EEST on October 01, 2016","2016","10","01","13","00","Europe/Kiev","10:00 AM GMT on October 01, 2016","2016","10","01","10","00","UTC","24.0","75.2","12.0","53.6","47","10.8","6.7","-9999.0","-9999.0","200","SSW","9.0","5.6","1017","30.04","-999","-999","-9999","-9999","-9999.00","-9999.00","Unknown","unknown","0","0","0","0","0","0","METAR UKKK 011000Z 20003MPS 180V240 9000 NSC 24/12 Q1017 R26/CLRD70 NOSIG"
"1:30 PM EEST on October 01, 2016","2016","10","01","13","30","Europe/Kiev","10:30 AM GMT on October 01, 2016","2016","10","01","10","30","UTC","24.0","75.2","12.0","53.6","47","7.2","4.5","-9999.0","-9999.0","210","SSW","7.0","4.3","1017","30.04","-999","-999","-9999","-9999","-9999.00","-9999.00","Unknown","unknown","0","0","0","0","0","0","METAR UKKK 011030Z 21002MPS 140V280 7000 NSC 24/12 Q1017 R26/CLRD70 NOSIG"
"2:00 PM EEST on October 01, 2016","2016","10","01","14","00","Europe/Kiev","11:00 AM GMT on October 01, 2016","2016","10","01","11","00","UTC","25.0","77.0","12.0","53.6","44","7.2","4.5","-9999.0","-9999.0","240","WSW","8.0","5.0","1017","30.04","-999","-999","-9999","-9999","-9999.00","-9999.00","Unknown","unknown","0","0","0","0","0","0","METAR UKKK 011100Z 24002MPS 8000 NSC 25/12 Q1017 R26/CLRD70 NOSIG"
"2:30 PM EEST on October 01, 2016","2016","10","01","14","30","Europe/Kiev","11:30 AM GMT on October 01, 2016","2016","10","01","11","30","UTC","24.0","75.2","11.0","51.8","44","3.6","2.2","-9999.0","-9999.0","0","Variable","9.0","5.6","1017","30.04","-999","-999","-9999","-9999","-9999.00","-9999.00","Unknown","unknown","0","0","0","0","0","0","METAR UKKK 011130Z VRB01MPS 9000 NSC 24/11 Q1017 R26/CLRD70 NOSIG"
"3:00 PM EEST on October 01, 2016","2016","10","01","15","00","Europe/Kiev","12:00 PM GMT on October 01, 2016","2016","10","01","12","00","UTC","25","77","11","52","31","7.2","4.5","","","250","WSW","20","12","1016","30.01","-999","-999","-9999","-9999","","","Partly Cloudy","partlycloudy","0","0","0","0","0","0","AAXX 01121 33345 32998 72502 10251 20111 39970 40162 58008 84079 555 10031"
"3:00 PM EEST on October 01, 2016","2016","10","01","15","00","Europe/Kiev","12:00 PM GMT on October 01, 2016","2016","10","01","12","00","UTC","25.0","77.0","11.0","51.8","41","7.2","4.5","-9999.0","-9999.0","200","SSW","9.0","5.6","1016","30.01","-999","-999","-9999","-9999","-9999.00","-9999.00","Unknown","unknown","0","0","0","0","0","0","METAR UKKK 011200Z 20002MPS 150V250 9000 NSC 25/11 Q1016 R26/CLRD70 TEMPO 2000 FU"
"3:30 PM EEST on October 01, 2016","2016","10","01","15","30","Europe/Kiev","12:30 PM GMT on October 01, 2016","2016","10","01","12","30","UTC","25.0","77.0","11.0","51.8","41","7.2","4.5","-9999.0","-9999.0","200","SSW","8.0","5.0","1016","30.01","-999","-999","-9999","-9999","-9999.00","-9999.00","Unknown","unknown","0","0","0","0","0","0","METAR UKKK 011230Z 20002MPS 170V250 8000 NSC 25/11 Q1016 R26/CLRD70 TEMPO 2000 FU"
"4:00 PM EEST on October 01, 2016","2016","10","01","16","00","Europe/Kiev","1:00 PM GMT on October 01, 2016","2016","10","01","13","00","UTC","24.0","75.2","12.0","53.6","47","7.2","4.5","-9999.0","-9999.0","230","SW","-9999.0","-9999.0","1016","30.01","-999","-999","-9999","-9999","-9999.00","-9999.00","Clear","clear","0","0","0","0","0","0","METAR UKKK 011300Z 23002MPS 160V270 CAVOK 24/12 Q1016 R26/CLRD70 NOSIG"
"4:30 PM EEST on October 01, 2016","2016","10","01","16","30","Europe/Kiev","1:30 PM GMT on October 01, 2016","2016","10","01","13","30","UTC","24.0","75.2","12.0","53.6","47","0.0","0.0","-9999.0","-9999.0","0","North","-9999.0","-9999.0","1016","30.01","-999","-999","-9999","-9999","-9999.00","-9999.00","Clear","clear","0","0","0","0","0","0","METAR UKKK 011330Z 00000MPS CAVOK 24/12 Q1016 R26/CLRD70 NOSIG"
"5:00 PM EEST on October 01, 2016","2016","10","01","17","00","Europe/Kiev","2:00 PM GMT on October 01, 2016","2016","10","01","14","00","UTC","24.0","75.2","12.0","53.6","47","0.0","0.0","-9999.0","-9999.0","0","North","5.0","3.1","1016","30.01","-999","-999","-9999","-9999","-9999.00","-9999.00","Smoke","hazy","0","0","0","0","0","0","METAR UKKK 011400Z 00000MPS 5000 FU NSC 24/12 Q1016 R26/CLRD70 NOSIG"
"5:30 PM EEST on October 01, 2016","2016","10","01","17","30","Europe/Kiev","2:30 PM GMT on October 01, 2016","2016","10","01","14","30","UTC","23.0","73.4","14.0","57.2","57","3.6","2.2","-9999.0","-9999.0","330","NNW","9.0","5.6","1016","30.01","-999","-999","-9999","-9999","-9999.00","-9999.00","Unknown","unknown","0","0","0","0","0","0","METAR UKKK 011430Z 33001MPS 9000 NSC 23/14 Q1016 R26/CLRD70 NOSIG"
"6:00 PM EEST on October 01, 2016","2016","10","01","18","00","Europe/Kiev","3:00 PM GMT on October 01, 2016","2016","10","01","15","00","UTC","24","75","15","59","48","0.0","0.0","","","","","20","12","1016","29.99","-999","-999","-9999","-9999","","","Mostly Cloudy","mostlycloudy","0","0","0","0","0","0","AAXX 01151 33345 42998 70000 10238 20150 39964 40156 57006 85076 555 10022"
"6:00 PM EEST on October 01, 2016","2016","10","01","18","00","Europe/Kiev","3:00 PM GMT on October 01, 2016","2016","10","01","15","00","UTC","22.0","71.6","14.0","57.2","60","0.0","0.0","-9999.0","-9999.0","0","North","-9999.0","-9999.0","1016","30.01","-999","-999","-9999","-9999","-9999.00","-9999.00","Clear","clear","0","0","0","0","0","0","METAR UKKK 011500Z 00000MPS CAVOK 22/14 Q1016 R26/CLRD70 NOSIG"
"6:30 PM EEST on October 01, 2016","2016","10","01","18","30","Europe/Kiev","3:30 PM GMT on October 01, 2016","2016","10","01","15","30","UTC","19.0","66.2","14.0","57.2","73","7.2","4.5","-9999.0","-9999.0","120","ESE","8.0","5.0","1016","30.01","-999","-999","-9999","-9999","-9999.00","-9999.00","Unknown","unknown","0","0","0","0","0","0","METAR UKKK 011530Z 12002MPS 8000 NSC 19/14 Q1016 R08/CLRD70 NOSIG"
"7:00 PM EEST on October 01, 2016","2016","10","01","19","00","Europe/Kiev","4:00 PM GMT on October 01, 2016","2016","10","01","16","00","UTC","18.0","64.4","13.0","55.4","73","3.6","2.2","-9999.0","-9999.0","120","ESE","6.0","3.7","1016","30.01","-999","-999","-9999","-9999","-9999.00","-9999.00","Unknown","unknown","0","0","0","0","0","0","METAR UKKK 011600Z 12001MPS 6000 NSC 18/13 Q1016 R08/CLRD70 NOSIG"
"7:13 PM EEST on October 01, 2016","2016","10","01","19","13","Europe/Kiev","4:13 PM GMT on October 01, 2016","2016","10","01","16","13","UTC","20.0","68.0","13.0","55.4","64","7.2","4.5","-9999.0","-9999.0","160","SSE","1.3","0.8","1016","30.01","-999","-999","-9999","-9999","-9999.00","-9999.00","Smoke","hazy","0","0","0","0","0","0","SPECI UKKK 011613Z 16002MPS 1300 R08/1600VP2000D FU SCT049 BKN230 20/13 Q1016 R08/CLRD70 TEMPO 2000 FU"
"7:30 PM EEST on October 01, 2016","2016","10","01","19","30","Europe/Kiev","4:30 PM GMT on October 01, 2016","2016","10","01","16","30","UTC","19.0","66.2","13.0","55.4","68","7.2","4.5","-9999.0","-9999.0","160","SSE","-9999.0","-9999.0","1016","30.01","-999","-999","-9999","-9999","-9999.00","-9999.00","Smoke","hazy","0","0","0","0","0","0","METAR UKKK 011630Z 16002MPS 3100 FU NSC 19/13 Q1016 R08/CLRD70 TEMPO 1000 FU"
"8:00 PM EEST on October 01, 2016","2016","10","01","20","00","Europe/Kiev","5:00 PM GMT on October 01, 2016","2016","10","01","17","00","UTC","17.0","62.6","13.0","55.4","77","3.6","2.2","-9999.0","-9999.0","160","SSE","5.0","3.1","1016","30.01","-999","-999","-9999","-9999","-9999.00","-9999.00","Smoke","hazy","0","0","0","0","0","0","METAR UKKK 011700Z 16001MPS 5000 FU NSC 17/13 Q1016 R08/CLRD70 TEMPO 1000 FU"
"8:30 PM EEST on October 01, 2016","2016","10","01","20","30","Europe/Kiev","5:30 PM GMT on October 01, 2016","2016","10","01","17","30","UTC","20.0","68.0","12.0","53.6","60","7.2","4.5","-9999.0","-9999.0","180","South","-9999.0","-9999.0","1016","30.01","-999","-999","-9999","-9999","-9999.00","-9999.00","Clear","clear","0","0","0","0","0","0","METAR UKKK 011730Z 18002MPS 150V210 CAVOK 20/12 Q1016 R08/CLRD70 TEMPO 1000 FU"
"9:00 PM EEST on October 01, 2016","2016","10","01","21","00","Europe/Kiev","6:00 PM GMT on October 01, 2016","2016","10","01","18","00","UTC","20","68","12","53","50","7.2","4.5","","","220","SW","20","12","1016","30.02","-999","-999","-9999","-9999","","","Clear","clear","0","0","0","0","0","0","AAXX 01181 33345 32998 72202 10198 20119 39969 40164 53005 80005 333 10258 555 10016"
"9:00 PM EEST on October 01, 2016","2016","10","01","21","00","Europe/Kiev","6:00 PM GMT on October 01, 2016","2016","10","01","18","00","UTC","19.0","66.2","12.0","53.6","64","3.6","2.2","-9999.0","-9999.0","0","Variable","9.0","5.6","1016","30.01","-999","-999","-9999","-9999","-9999.00","-9999.00","Unknown","unknown","0","0","0","0","0","0","METAR UKKK 011800Z VRB01MPS 9000 NSC 19/12 Q1016 R08/CLRD70 NOSIG"
"9:30 PM EEST on October 01, 2016","2016","10","01","21","30","Europe/Kiev","6:30 PM GMT on October 01, 2016","2016","10","01","18","30","UTC","18.0","64.4","12.0","53.6","68","3.6","2.2","-9999.0","-9999.0","0","Variable","-9999.0","-9999.0","1017","30.04","-999","-999","-9999","-9999","-9999.00","-9999.00","Clear","clear","0","0","0","0","0","0","METAR UKKK 011830Z VRB01MPS CAVOK 18/12 Q1017 R08/CLRD70 NOSIG"
"10:00 PM EEST on October 01, 2016","2016","10","01","22","00","Europe/Kiev","7:00 PM GMT on October 01, 2016","2016","10","01","19","00","UTC","18.0","64.4","12.0","53.6","68","7.2","4.5","-9999.0","-9999.0","180","South","-9999.0","-9999.0","1017","30.04","-999","-999","-9999","-9999","-9999.00","-9999.00","Clear","clear","0","0","0","0","0","0","METAR UKKK 011900Z 18002MPS 150V220 CAVOK 18/12 Q1017 R08/CLRD70 NOSIG"
"10:30 PM EEST on October 01, 2016","2016","10","01","22","30","Europe/Kiev","7:30 PM GMT on October 01, 2016","2016","10","01","19","30","UTC","18.0","64.4","12.0","53.6","68","3.6","2.2","-9999.0","-9999.0","0","Variable","-9999.0","-9999.0","1017","30.04","-999","-999","-9999","-9999","-9999.00","-9999.00","Clear","clear","0","0","0","0","0","0","METAR UKKK 011930Z VRB01MPS CAVOK 18/12 Q1017 R08/CLRD70 NOSIG"
"11:00 PM EEST on October 01, 2016","2016","10","01","23","00","Europe/Kiev","8:00 PM GMT on October 01, 2016","2016","10","01","20","00","UTC","18.0","64.4","12.0","53.6","68","3.6","2.2","-9999.0","-9999.0","0","Variable","-9999.0","-9999.0","1017","30.04","-999","-999","-9999","-9999","-9999.00","-9999.00","Clear","clear","0","0","0","0","0","0","METAR UKKK 012000Z VRB01MPS CAVOK 18/12 Q1017 R08/CLRD70 NOSIG"
"11:30 PM EEST on October 01, 2016","2016","10","01","23","30","Europe/Kiev","8:30 PM GMT on October 01, 2016","2016","10","01","20","30","UTC","18.0","64.4","12.0","53.6","68","7.2","4.5","-9999.0","-9999.0","190","South","-9999.0","-9999.0","1017","30.04","-999","-999","-9999","-9999","-9999.00","-9999.00","Clear","clear","0","0","0","0","0","0","METAR UKKK 012030Z 19002MPS 150V230 CAVOK 18/12 Q1017 R08/CLRD70 NOSIG"
"12:00 AM EEST on October 02, 2016","2016","10","02","00","00","Europe/Kiev","9:00 PM GMT on October 01, 2016","2016","10","01","21","00","UTC","17","63","12","54","64","7.2","4.5","","","190","South","20","12","1017","30.03","-999","-999","-9999","-9999","","","Clear","clear","0","0","0","0","0","0","AAXX 01211 33345 42998 51902 10171 20122 39972 40169 52003 80002 555 10014"
"12:00 AM EEST on October 02, 2016","2016","10","02","00","00","Europe/Kiev","9:00 PM GMT on October 01, 2016","2016","10","01","21","00","UTC","18.0","64.4","12.0","53.6","68","3.6","2.2","-9999.0","-9999.0","0","Variable","-9999.0","-9999.0","1017","30.04","-999","-999","-9999","-9999","-9999.00","-9999.00","Clear","clear","0","0","0","0","0","0","METAR UKKK 012100Z VRB01MPS CAVOK 18/12 Q1017 R08/CLRD70 NOSIG"
"12:30 AM EEST on October 02, 2016","2016","10","02","00","30","Europe/Kiev","9:30 PM GMT on October 01, 2016","2016","10","01","21","30","UTC","17.0","62.6","12.0","53.6","72","7.2","4.5","-9999.0","-9999.0","190","South","-9999.0","-9999.0","1017","30.04","-999","-999","-9999","-9999","-9999.00","-9999.00","Clear","clear","0","0","0","0","0","0","METAR UKKK 012130Z 19002MPS 150V240 CAVOK 17/12 Q1017 R08/CLRD70 NOSIG"
"1:00 AM EEST on October 02, 2016","2016","10","02","01","00","Europe/Kiev","10:00 PM GMT on October 01, 2016","2016","10","01","22","00","UTC","17.0","62.6","12.0","53.6","72","7.2","4.5","-9999.0","-9999.0","180","South","-9999.0","-9999.0","1016","30.01","-999","-999","-9999","-9999","-9999.00","-9999.00","Clear","clear","0","0","0","0","0","0","METAR UKKK 012200Z 18002MPS 130V220 CAVOK 17/12 Q1016 R08/CLRD70 NOSIG"
"1:30 AM EEST on October 02, 2016","2016","10","02","01","30","Europe/Kiev","10:30 PM GMT on October 01, 2016","2016","10","01","22","30","UTC","17.0","62.6","12.0","53.6","72","7.2","4.5","-9999.0","-9999.0","190","South","-9999.0","-9999.0","1017","30.04","-999","-999","-9999","-9999","-9999.00","-9999.00","Clear","clear","0","0","0","0","0","0","METAR UKKK 012230Z 19002MPS 140V250 CAVOK 17/12 Q1017 R08/CLRD70 NOSIG"
"2:00 AM EEST on October 02, 2016","2016","10","02","02","00","Europe/Kiev","11:00 PM GMT on October 01, 2016","2016","10","01","23","00","UTC","17.0","62.6","12.0","53.6","72","7.2","4.5","-9999.0","-9999.0","180","South","-9999.0","-9999.0","1017","30.04","-999","-999","-9999","-9999","-9999.00","-9999.00","Clear","clear","0","0","0","0","0","0","METAR UKKK 012300Z 18002MPS 130V230 CAVOK 17/12 Q1017 R08/CLRD70 NOSIG"
"2:30 AM EEST on October 02, 2016","2016","10","02","02","30","Europe/Kiev","11:30 PM GMT on October 01, 2016","2016","10","01","23","30","UTC","17.0","62.6","11.0","51.8","68","7.2","4.5","-9999.0","-9999.0","190","South","-9999.0","-9999.0","1017","30.04","-999","-999","-9999","-9999","-9999.00","-9999.00","Clear","clear","0","0","0","0","0","0","METAR UKKK 012330Z 19002MPS 140V230 CAVOK 17/11 Q1017 R08/CLRD70 NOSIG"
"3:00 AM EEST on October 02, 2016","2016","10","02","03","00","Europe/Kiev","12:00 AM GMT on October 02, 2016","2016","10","02","00","00","UTC","15","59","12","54","79","3.6","2.2","","","170","South","10","6","1017","30.04","-999","-999","-9999","-9999","","","Clear","clear","0","0","0","0","0","0","AAXX 02001 33345 32997 31701 10149 20123 39972 40171 54000 80002 555 10013"
"3:00 AM EEST on October 02, 2016","2016","10","02","03","00","Europe/Kiev","12:00 AM GMT on October 02, 2016","2016","10","02","00","00","UTC","16.0","60.8","11.0","51.8","72","7.2","4.5","-9999.0","-9999.0","190","South","-9999.0","-9999.0","1017","30.04","-999","-999","-9999","-9999","-9999.00","-9999.00","Clear","clear","0","0","0","0","0","0","METAR UKKK 020000Z 19002MPS 140V260 CAVOK 16/11 Q1017 R08/CLRD70 NOSIG"
"3:30 AM EEST on October 02, 2016","2016","10","02","03","30","Europe/Kiev","12:30 AM GMT on October 02, 2016","2016","10","02","00","30","UTC","15.0","59.0","11.0","51.8","77","3.6","2.2","-9999.0","-9999.0","0","Variable","-9999.0","-9999.0","1017","30.04","-999","-999","-9999","-9999","-9999.00","-9999.00","Clear","clear","0","0","0","0","0","0","METAR UKKK 020030Z VRB01MPS CAVOK 15/11 Q1017 R08/CLRD70 NOSIG"
"4:00 AM EEST on October 02, 2016","2016","10","02","04","00","Europe/Kiev","1:00 AM GMT on October 02, 2016","2016","10","02","01","00","UTC","14.0","57.2","10.0","50.0","77","0.0","0.0","-9999.0","-9999.0","0","North","-9999.0","-9999.0","1017","30.04","-999","-999","-9999","-9999","-9999.00","-9999.00","Clear","clear","0","0","0","0","0","0","METAR UKKK 020100Z 00000MPS CAVOK 14/10 Q1017 R08/CLRD70 NOSIG"
"4:30 AM EEST on October 02, 2016","2016","10","02","04","30","Europe/Kiev","1:30 AM GMT on October 02, 2016","2016","10","02","01","30","UTC","14.0","57.2","10.0","50.0","77","3.6","2.2","-9999.0","-9999.0","0","Variable","9.0","5.6","1017","30.04","-999","-999","-9999","-9999","-9999.00","-9999.00","Unknown","unknown","0","0","0","0","0","0","METAR UKKK 020130Z VRB01MPS 9000 NSC 14/10 Q1017 R08/CLRD70 NOSIG"
"5:00 AM EEST on October 02, 2016","2016","10","02","05","00","Europe/Kiev","2:00 AM GMT on October 02, 2016","2016","10","02","02","00","UTC","13.0","55.4","10.0","50.0","82","3.6","2.2","-9999.0","-9999.0","0","Variable","-9999.0","-9999.0","1017","30.04","-999","-999","-9999","-9999","-9999.00","-9999.00","Clear","clear","0","0","0","0","0","0","METAR UKKK 020200Z VRB01MPS CAVOK 13/10 Q1017 R08/CLRD70 NOSIG"
"5:30 AM EEST on October 02, 2016","2016","10","02","05","30","Europe/Kiev","2:30 AM GMT on October 02, 2016","2016","10","02","02","30","UTC","13.0","55.4","10.0","50.0","82","3.6","2.2","-9999.0","-9999.0","0","Variable","-9999.0","-9999.0","1017","30.04","-999","-999","-9999","-9999","-9999.00","-9999.00","Clear","clear","0","0","0","0","0","0","METAR UKKK 020230Z VRB01MPS CAVOK 13/10 Q1017 R08/CLRD70 NOSIG"
"6:00 AM EEST on October 02, 2016","2016","10","02","06","00","Europe/Kiev","3:00 AM GMT on October 02, 2016","2016","10","02","03","00","UTC","13","55","10","51","81","10.8","6.7","","","210","SSW","10","6","1017","30.04","-999","-999","-9999","-9999","","","","","0","0","0","0","0","0","AAXX 02031 33345 42997 02103 10130 20105 39971 40171 58001 555 10010"
"6:00 AM EEST on October 02, 2016","2016","10","02","06","00","Europe/Kiev","3:00 AM GMT on October 02, 2016","2016","10","02","03","00","UTC","14.0","57.2","11.0","51.8","82","7.2","4.5","-9999.0","-9999.0","180","South","-9999.0","-9999.0","1017","30.04","-999","-999","-9999","-9999","-9999.00","-9999.00","Clear","clear","0","0","0","0","0","0","METAR UKKK 020300Z 18002MPS 120V250 CAVOK 14/11 Q1017 R08/CLRD70 NOSIG"
"6:30 AM EEST on October 02, 2016","2016","10","02","06","30","Europe/Kiev","3:30 AM GMT on October 02, 2016","2016","10","02","03","30","UTC","13.0","55.4","10.0","50.0","82","3.6","2.2","-9999.0","-9999.0","0","Variable","-9999.0","-9999.0","1017","30.04","-999","-999","-9999","-9999","-9999.00","-9999.00","Clear","clear","0","0","0","0","0","0","METAR UKKK 020330Z VRB01MPS CAVOK 13/10 Q1017 R08/CLRD70 NOSIG"
"7:00 AM EEST on October 02, 2016","2016","10","02","07","00","Europe/Kiev","4:00 AM GMT on October 02, 2016","2016","10","02","04","00","UTC","13.0","55.4","11.0","51.8","88","3.6","2.2","-9999.0","-9999.0","0","Variable","-9999.0","-9999.0","1017","30.04","-999","-999","-9999","-9999","-9999.00","-9999.00","Clear","clear","0","0","0","0","0","0","METAR UKKK 020400Z VRB01MPS CAVOK 13/11 Q1017 R08/CLRD70 NOSIG"
"7:30 AM EEST on October 02, 2016","2016","10","02","07","30","Europe/Kiev","4:30 AM GMT on October 02, 2016","2016","10","02","04","30","UTC","13.0","55.4","11.0","51.8","88","7.2","4.5","-9999.0","-9999.0","180","South","-9999.0","-9999.0","1017","30.04","-999","-999","-9999","-9999","-9999.00","-9999.00","Clear","clear","0","0","0","0","0","0","METAR UKKK 020430Z 18002MPS 150V240 CAVOK 13/11 Q1017 R08/CLRD70 NOSIG"
"8:00 AM EEST on October 02, 2016","2016","10","02","08","00","Europe/Kiev","5:00 AM GMT on October 02, 2016","2016","10","02","05","00","UTC","13.0","55.4","12.0","53.6","94","7.2","4.5","-9999.0","-9999.0","190","South","-9999.0","-9999.0","1017","30.04","-999","-999","-9999","-9999","-9999.00","-9999.00","Clear","clear","0","0","0","0","0","0","METAR UKKK 020500Z 19002MPS 150V260 CAVOK 13/12 Q1017 R08/CLRD70 NOSIG"
"8:30 AM EEST on October 02, 2016","2016","10","02","08","30","Europe/Kiev","5:30 AM GMT on October 02, 2016","2016","10","02","05","30","UTC","14.0","57.2","12.0","53.6","88","7.2","4.5","-9999.0","-9999.0","200","SSW","-9999.0","-9999.0","1017","30.04","-999","-999","-9999","-9999","-9999.00","-9999.00","Clear","clear","0","0","0","0","0","0","METAR UKKK 020530Z 20002MPS CAVOK 14/12 Q1017 R08/CLRD70 NOSIG"
"9:00 AM EEST on October 02, 2016","2016","10","02","09","00","Europe/Kiev","6:00 AM GMT on October 02, 2016","2016","10","02","06","00","UTC","14","58","11","53","76","10.8","6.7","","","210","SSW","10","6","1018","30.06","-999","-999","-9999","-9999","","","","","0","0","0","0","0","0","AAXX 02061 33345 32997 02103 10144 20114 39978 40177 53007 333 20117 555 10015"
"9:00 AM EEST on October 02, 2016","2016","10","02","09","00","Europe/Kiev","6:00 AM GMT on October 02, 2016","2016","10","02","06","00","UTC","15.0","59.0","12.0","53.6","82","7.2","4.5","-9999.0","-9999.0","190","South","-9999.0","-9999.0","1017","30.04","-999","-999","-9999","-9999","-9999.00","-9999.00","Clear","clear","0","0","0","0","0","0","METAR UKKK 020600Z 19002MPS 150V240 CAVOK 15/12 Q1017 R08/CLRD70 NOSIG"
"9:30 AM EEST on October 02, 2016","2016","10","02","09","30","Europe/Kiev","6:30 AM GMT on October 02, 2016","2016","10","02","06","30","UTC","16.0","60.8","13.0","55.4","82","10.8","6.7","-9999.0","-9999.0","200","SSW","-9999.0","-9999.0","1017","30.04","-999","-999","-9999","-9999","-9999.00","-9999.00","Clear","clear","0","0","0","0","0","0","METAR UKKK 020630Z 20003MPS 160V250 CAVOK 16/13 Q1017 R08/CLRD70 NOSIG"
"10:00 AM EEST on October 02, 2016","2016","10","02","10","00","Europe/Kiev","7:00 AM GMT on October 02, 2016","2016","10","02","07","00","UTC","16.0","60.8","13.0","55.4","82","10.8","6.7","-9999.0","-9999.0","200","SSW","-9999.0","-9999.0","1018","30.06","-999","-999","-9999","-9999","-9999.00","-9999.00","Clear","clear","0","0","0","0","0","0","METAR UKKK 020700Z 20003MPS 160V240 CAVOK 16/13 Q1018 R08/CLRD70 NOSIG"
"10:30 AM EEST on October 02, 2016","2016","10","02","10","30","Europe/Kiev","7:30 AM GMT on October 02, 2016","2016","10","02","07","30","UTC","15.0","59.0","13.0","55.4","88","18.0","11.2","-9999.0","-9999.0","210","SSW","9.0","5.6","1018","30.06","-999","-999","-9999","-9999","-9999.00","-9999.00","Scattered Clouds","partlycloudy","0","0","0","0","0","0","METAR UKKK 020730Z 21005MPS 180V250 9000 SCT009 15/13 Q1018 R26/CLRD70 NOSIG"
"11:00 AM EEST on October 02, 2016","2016","10","02","11","00","Europe/Kiev","8:00 AM GMT on October 02, 2016","2016","10","02","08","00","UTC","16.0","60.8","13.0","55.4","82","14.4","8.9","-9999.0","-9999.0","220","SW","8.0","5.0","1018","30.06","-999","-999","-9999","-9999","-9999.00","-9999.00","Scattered Clouds","partlycloudy","0","0","0","0","0","0","METAR UKKK 020800Z 22004MPS 180V240 8000 SCT010 16/13 Q1018 R26/CLRD70 NOSIG"
"11:30 AM EEST on October 02, 2016","2016","10","02","11","30","Europe/Kiev","8:30 AM GMT on October 02, 2016","2016","10","02","08","30","UTC","16.0","60.8","13.0","55.4","82","14.4","8.9","-9999.0","-9999.0","190","South","6.0","3.7","1018","30.06","-999","-999","-9999","-9999","-9999.00","-9999.00","Mostly Cloudy","mostlycloudy","0","0","0","0","0","0","METAR UKKK 020830Z 19004MPS 160V230 6000 BKN010 16/13 Q1018 R26/CLRD70 NOSIG"
"12:00 PM EEST on October 02, 2016","2016","10","02","12","00","Europe/Kiev","9:00 AM GMT on October 02, 2016","2016","10","02","09","00","UTC","16","61","13","56","78","14.4","8.9","","","210","SSW","10","6","1018","30.07","-999","-999","-9999","-9999","","","Mostly Cloudy","mostlycloudy","0","0","0","0","0","0","AAXX 02091 33345 42397 72104 10163 20133 39985 40183 52007 87600 333 87709 555 10021"
"12:00 PM EEST on October 02, 2016","2016","10","02","12","00","Europe/Kiev","9:00 AM GMT on October 02, 2016","2016","10","02","09","00","UTC","16.0","60.8","14.0","57.2","88","14.4","8.9","-9999.0","-9999.0","180","South","6.0","3.7","1018","30.06","-999","-999","-9999","-9999","-9999.00","-9999.00","Mostly Cloudy","mostlycloudy","0","0","0","0","0","0","METAR UKKK 020900Z 18004MPS 150V220 6000 BKN011 16/14 Q1018 R26/CLRD70 NOSIG"
"12:30 PM EEST on October 02, 2016","2016","10","02","12","30","Europe/Kiev","9:30 AM GMT on October 02, 2016","2016","10","02","09","30","UTC","17.0","62.6","14.0","57.2","82","14.4","8.9","-9999.0","-9999.0","180","South","8.0","5.0","1018","30.06","-999","-999","-9999","-9999","-9999.00","-9999.00","Mostly Cloudy","mostlycloudy","0","0","0","0","0","0","METAR UKKK 020930Z 18004MPS 150V210 8000 BKN012 17/14 Q1018 R26/CLRD70 NOSIG"
"1:00 PM EEST on October 02, 2016","2016","10","02","13","00","Europe/Kiev","10:00 AM GMT on October 02, 2016","2016","10","02","10","00","UTC","17.0","62.6","14.0","57.2","82","14.4","8.9","-9999.0","-9999.0","210","SSW","9.0","5.6","1018","30.06","-999","-999","-9999","-9999","-9999.00","-9999.00","Mostly Cloudy","mostlycloudy","0","0","0","0","0","0","METAR UKKK 021000Z 21004MPS 180V240 9000 BKN014 17/14 Q1018 R26/CLRD70 NOSIG"
"1:30 PM EEST on October 02, 2016","2016","10","02","13","30","Europe/Kiev","10:30 AM GMT on October 02, 2016","2016","10","02","10","30","UTC","18.0","64.4","14.0","57.2","77","14.4","8.9","-9999.0","-9999.0","200","SSW","9.0","5.6","1018","30.06","-999","-999","-9999","-9999","-9999.00","-9999.00","Mostly Cloudy","mostlycloudy","0","0","0","0","0","0","METAR UKKK 021030Z 20004MPS 150V240 9000 BKN015 18/14 Q1018 R26/CLRD70 NOSIG"
"2:00 PM EEST on October 02, 2016","2016","10","02","14","00","Europe/Kiev","11:00 AM GMT on October 02, 2016","2016","10","02","11","00","UTC","19.0","66.2","14.0","57.2","73","14.4","8.9","-9999.0","-9999.0","190","South","10.0","6.2","1017","30.04","-999","-999","-9999","-9999","-9999.00","-9999.00","Mostly Cloudy","mostlycloudy","0","0","0","0","0","0","METAR UKKK 021100Z 19004MPS 150V230 9999 BKN018 19/14 Q1017 R26/CLRD70 NOSIG"
"2:30 PM EEST on October 02, 2016","2016","10","02","14","30","Europe/Kiev","11:30 AM GMT on October 02, 2016","2016","10","02","11","30","UTC","19.0","66.2","14.0","57.2","73","14.4","8.9","-9999.0","-9999.0","190","South","10.0","6.2","1017","30.04","-999","-999","-9999","-9999","-9999.00","-9999.00","Mostly Cloudy","mostlycloudy","0","0","0","0","0","0","METAR UKKK 021130Z 19004MPS 160V230 9999 BKN018 19/14 Q1017 R26/CLRD70 NOSIG"
"3:00 PM EEST on October 02, 2016","2016","10","02","15","00","Europe/Kiev","12:00 PM GMT on October 02, 2016","2016","10","02","12","00","UTC","18","65","14","57","68","18.0","11.2","","","200","SSW","20","12","1018","30.05","-999","-999","-9999","-9999","","","Mostly Cloudy","mostlycloudy","0","0","0","0","0","0","AAXX 02121 33345 32498 62005 10184 20139 39980 40176 58005 86600 333 86716 555 10023"
"3:00 PM EEST on October 02, 2016","2016","10","02","15","00","Europe/Kiev","12:00 PM GMT on October 02, 2016","2016","10","02","12","00","UTC","19.0","66.2","14.0","57.2","73","14.4","8.9","-9999.0","-9999.0","190","South","10.0","6.2","1017","30.04","-999","-999","-9999","-9999","-9999.00","-9999.00","Mostly Cloudy","mostlycloudy","0","0","0","0","0","0","METAR UKKK 021200Z 19004MPS 140V250 9999 BKN018 19/14 Q1017 R26/CLRD70 NOSIG"
"3:30 PM EEST on October 02, 2016","2016","10","02","15","30","Europe/Kiev","12:30 PM GMT on October 02, 2016","2016","10","02","12","30","UTC","19.0","66.2","14.0","57.2","73","14.4","8.9","-9999.0","-9999.0","190","South","10.0","6.2","1018","30.06","-999","-999","-9999","-9999","-9999.00","-9999.00","Mostly Cloudy","mostlycloudy","0","0","0","0","0","0","METAR UKKK 021230Z 19004MPS 150V230 9999 BKN018 19/14 Q1018 R26/CLRD70 NOSIG"
"4:00 PM EEST on October 02, 2016","2016","10","02","16","00","Europe/Kiev","1:00 PM GMT on October 02, 2016","2016","10","02","13","00","UTC","19.0","66.2","14.0","57.2","73","14.4","8.9","-9999.0","-9999.0","190","South","10.0","6.2","1017","30.04","-999","-999","-9999","-9999","-9999.00","-9999.00","Mostly Cloudy","mostlycloudy","0","0","0","0","0","0","METAR UKKK 021300Z 19004MPS 160V220 9999 BKN021 19/14 Q1017 R26/CLRD70 NOSIG"
"4:30 PM EEST on October 02, 2016","2016","10","02","16","30","Europe/Kiev","1:30 PM GMT on October 02, 2016","2016","10","02","13","30","UTC","19.0","66.2","14.0","57.2","73","14.4","8.9","-9999.0","-9999.0","190","South","10.0","6.2","1017","30.04","-999","-999","-9999","-9999","-9999.00","-9999.00","Mostly Cloudy","mostlycloudy","0","0","0","0","0","0","METAR UKKK 021330Z 19004MPS 150V220 9999 BKN022 19/14 Q1017 R26/CLRD70 NOSIG"
"5:00 PM EEST on October 02, 2016","2016","10","02","17","00","Europe/Kiev","2:00 PM GMT on October 02, 2016","2016","10","02","14","00","UTC","19.0","66.2","14.0","57.2","73","14.4","8.9","-9999.0","-9999.0","190","South","10.0","6.2","1017","30.04","-999","-999","-9999","-9999","-9999.00","-9999.00","Scattered Clouds","partlycloudy","0","0","0","0","0","0","METAR UKKK 021400Z 19004MPS 160V220 9999 SCT023 19/14 Q1017 R26/CLRD70 NOSIG"
"5:30 PM EEST on October 02, 2016","2016","10","02","17","30","Europe/Kiev","2:30 PM GMT on October 02, 2016","2016","10","02","14","30","UTC","19.0","66.2","14.0","57.2","73","14.4","8.9","-9999.0","-9999.0","200","SSW","9.0","5.6","1017","30.04","-999","-999","-9999","-9999","-9999.00","-9999.00","Scattered Clouds","partlycloudy","0","0","0","0","0","0","METAR UKKK 021430Z 20004MPS 9000 SCT023 19/14 Q1017 R26/CLRD70 NOSIG"
"6:00 PM EEST on October 02, 2016","2016","10","02","18","00","Europe/Kiev","3:00 PM GMT on October 02, 2016","2016","10","02","15","00","UTC","18","65","14","56","66","10.8","6.7","","","230","SW","20","12","1017","30.05","-999","-999","-9999","-9999","","","Clear","clear","0","0","0","0","0","0","AAXX 02151 33345 42998 72303 10182 20136 39978 40174 56002 80005 555 10018"
"6:00 PM EEST on October 02, 2016","2016","10","02","18","00","Europe/Kiev","3:00 PM GMT on October 02, 2016","2016","10","02","15","00","UTC","18.0","64.4","14.0","57.2","77","10.8","6.7","-9999.0","-9999.0","200","SSW","9.0","5.6","1017","30.04","-999","-999","-9999","-9999","-9999.00","-9999.00","Unknown","unknown","0","0","0","0","0","0","METAR UKKK 021500Z 20003MPS 9000 NSC 18/14 Q1017 R26/CLRD70 NOSIG"
"6:30 PM EEST on October 02, 2016","2016","10","02","18","30","Europe/Kiev","3:30 PM GMT on October 02, 2016","2016","10","02","15","30","UTC","17.0","62.6","14.0","57.2","82","7.2","4.5","-9999.0","-9999.0","210","SSW","7.0","4.3","1018","30.06","-999","-999","-9999","-9999","-9999.00","-9999.00","Unknown","unknown","0","0","0","0","0","0","METAR UKKK 021530Z 21002MPS 180V260 7000 NSC 17/14 Q1018 R26/CLRD70 NOSIG"
"7:00 PM EEST on October 02, 2016","2016","10","02","19","00","Europe/Kiev","4:00 PM GMT on October 02, 2016","2016","10","02","16","00","UTC","16.0","60.8","14.0","57.2","88","7.2","4.5","-9999.0","-9999.0","230","SW","7.0","4.3","1018","30.06","-999","-999","-9999","-9999","-9999.00","-9999.00","Unknown","unknown","0","0","0","0","0","0","METAR UKKK 021600Z 23002MPS 7000 NSC 16/14 Q1018 R26/CLRD70 NOSIG"
"7:30 PM EEST on October 02, 2016","2016","10","02","19","30","Europe/Kiev","4:30 PM GMT on October 02, 2016","2016","10","02","16","30","UTC","16.0","60.8","14.0","57.2","88","7.2","4.5","-9999.0","-9999.0","220","SW","2.4","1.5","1018","30.06","-999","-999","-9999","-9999","-9999.00","-9999.00","Mist","hazy","0","0","0","0","0","0","METAR UKKK 021630Z 22002MPS 2400 BR NSC 16/14 Q1018 R26/CLRD70 NOSIG"
"8:00 PM EEST on October 02, 2016","2016","10","02","20","00","Europe/Kiev","5:00 PM GMT on October 02, 2016","2016","10","02","17","00","UTC","15.0","59.0","13.0","55.4","88","7.2","4.5","-9999.0","-9999.0","230","SW","4.5","2.8","1018","30.06","-999","-999","-9999","-9999","-9999.00","-9999.00","Mist","hazy","0","0","0","0","0","0","METAR UKKK 021700Z 23002MPS 4500 BR NSC 15/13 Q1018 R26/CLRD70 NOSIG"
"8:30 PM EEST on October 02, 2016","2016","10","02","20","30","Europe/Kiev","5:30 PM GMT on October 02, 2016","2016","10","02","17","30","UTC","15.0","59.0","13.0","55.4","88","10.8","6.7","-9999.0","-9999.0","220","SW","6.0","3.7","1018","30.06","-999","-999","-9999","-9999","-9999.00","-9999.00","Unknown","unknown","0","0","0","0","0","0","METAR UKKK 021730Z 22003MPS 6000 NSC 15/13 Q1018 R26/CLRD70 NOSIG"
"9:00 PM EEST on October 02, 2016","2016","10","02","21","00","Europe/Kiev","6:00 PM GMT on October 02, 2016","2016","10","02","18","00","UTC","16","60","13","56","82","7.2","4.5","","","250","WSW","10","6","1018","30.07","-999","-999","-9999","-9999","","","","","0","0","0","0","0","0","AAXX 02181 33345 32997 02502 10156 20133 39985 40183 53007 333 10192 555 10012"
"9:00 PM EEST on October 02, 2016","2016","10","02","21","00","Europe/Kiev","6:00 PM GMT on October 02, 2016","2016","10","02","18","00","UTC","14.0","57.2","13.0","55.4","94","7.2","4.5","-9999.0","-9999.0","230","SW","9.0","5.6","1018","30.06","-999","-999","-9999","-9999","-9999.00","-9999.00","Unknown","unknown","0","0","0","0","0","0","METAR UKKK 021800Z 23002MPS 9000 NSC 14/13 Q1018 R26/CLRD70 NOSIG"
"9:30 PM EEST on October 02, 2016","2016","10","02","21","30","Europe/Kiev","6:30 PM GMT on October 02, 2016","2016","10","02","18","30","UTC","14.0","57.2","13.0","55.4","94","7.2","4.5","-9999.0","-9999.0","230","SW","8.0","5.0","1018","30.06","-999","-999","-9999","-9999","-9999.00","-9999.00","Unknown","unknown","0","0","0","0","0","0","METAR UKKK 021830Z 23002MPS 8000 NSC 14/13 Q1018 R26/CLRD70 NOSIG"
"10:00 PM EEST on October 02, 2016","2016","10","02","22","00","Europe/Kiev","7:00 PM GMT on October 02, 2016","2016","10","02","19","00","UTC","13.0","55.4","13.0","55.4","100","7.2","4.5","-9999.0","-9999.0","220","SW","8.0","5.0","1018","30.06","-999","-999","-9999","-9999","-9999.00","-9999.00","Unknown","unknown","0","0","0","0","0","0","METAR UKKK 021900Z 22002MPS 8000 NSC 13/13 Q1018 R26/CLRD70 NOSIG"
"10:30 PM EEST on October 02, 2016","2016","10","02","22","30","Europe/Kiev","7:30 PM GMT on October 02, 2016","2016","10","02","19","30","UTC","13.0","55.4","13.0","55.4","100","7.2","4.5","-9999.0","-9999.0","230","SW","5.0","3.1","1018","30.06","-999","-999","-9999","-9999","-9999.00","-9999.00","Mist","hazy","0","0","0","0","0","0","METAR UKKK 021930Z 23002MPS 5000 BR NSC 13/13 Q1018 R26/CLRD70 NOSIG"
"11:00 PM EEST on October 02, 2016","2016","10","02","23","00","Europe/Kiev","8:00 PM GMT on October 02, 2016","2016","10","02","20","00","UTC","13.0","55.4","12.0","53.6","94","3.6","2.2","-9999.0","-9999.0","220","SW","5.0","3.1","1018","30.06","-999","-999","-9999","-9999","-9999.00","-9999.00","Mist","hazy","0","0","0","0","0","0","METAR UKKK 022000Z 22001MPS 5000 BR NSC 13/12 Q1018 R26/CLRD70 NOSIG"
"11:30 PM EEST on October 02, 2016","2016","10","02","23","30","Europe/Kiev","8:30 PM GMT on October 02, 2016","2016","10","02","20","30","UTC","12.0","53.6","11.0","51.8","94","7.2","4.5","-9999.0","-9999.0","220","SW","-9999.0","-9999.0","1018","30.06","-999","-999","-9999","-9999","-9999.00","-9999.00","Mist","hazy","0","0","0","0","0","0","METAR UKKK 022030Z 22002MPS 200V260 4700 BR NSC 12/11 Q1018 R26/CLRD70 NOSIG"
"12:00 AM EEST on October 03, 2016","2016","10","03","00","00","Europe/Kiev","9:00 PM GMT on October 02, 2016","2016","10","02","21","00","UTC","14","57","12","54","88","7.2","4.5","","","240","WSW","4","2","1019","30.09","-999","-999","-9999","-9999","","","Mist","hazy","0","0","0","0","0","0","AAXX 02211 33345 41996 02402 10138 20125 39987 40187 51002 71000 555 10010"
"12:00 AM EEST on October 03, 2016","2016","10","03","00","00","Europe/Kiev","9:00 PM GMT on October 02, 2016","2016","10","02","21","00","UTC","12.0","53.6","12.0","53.6","100","3.6","2.2","-9999.0","-9999.0","0","Variable","2.4","1.5","1018","30.06","-999","-999","-9999","-9999","-9999.00","-9999.00","Mist","hazy","0","0","0","0","0","0","METAR UKKK 022100Z VRB01MPS 2400 BR NSC 12/12 Q1018 R26/CLRD70 NOSIG"
"12:05 AM EEST on October 03, 2016","2016","10","03","00","05","Europe/Kiev","9:05 PM GMT on October 02, 2016","2016","10","02","21","05","UTC","12.0","53.6","11.0","51.8","94","7.2","4.5","-9999.0","-9999.0","210","SSW","0.3","0.2","1018","30.06","-999","-999","-9999","-9999","-9999.00","-9999.00","Fog","fog","1","0","0","0","0","0","SPECI UKKK 022105Z 21002MPS 190V250 0350 R26/P2000U FG NSC 12/11 Q1018 R26/CLRD70 NOSIG"
"12:21 AM EEST on October 03, 2016","2016","10","03","00","21","Europe/Kiev","9:21 PM GMT on October 02, 2016","2016","10","02","21","21","UTC","12.0","53.6","12.0","53.6","100","7.2","4.5","-9999.0","-9999.0","210","SSW","-9999.0","-9999.0","1018","30.06","-999","-999","-9999","-9999","-9999.00","-9999.00","Mist","hazy","0","0","0","0","0","0","SPECI UKKK 022121Z 21002MPS 190V250 4600 BR NSC 12/12 Q1018 R26/CLRD70 NOSIG"
"12:30 AM EEST on October 03, 2016","2016","10","03","00","30","Europe/Kiev","9:30 PM GMT on October 02, 2016","2016","10","02","21","30","UTC","10.0","50.0","10.0","50.0","100","7.2","4.5","-9999.0","-9999.0","240","WSW","-9999.0","-9999.0","1018","30.06","-999","-999","-9999","-9999","-9999.00","-9999.00","Mist","hazy","0","0","0","0","0","0","METAR UKKK 022130Z 24002MPS 210V270 4800 BR NSC 10/10 Q1018 R26/CLRD70 NOSIG"
"12:57 AM EEST on October 03, 2016","2016","10","03","00","57","Europe/Kiev","9:57 PM GMT on October 02, 2016","2016","10","02","21","57","UTC","11.0","51.8","11.0","51.8","100","7.2","4.5","-9999.0","-9999.0","250","WSW","0.8","0.5","1018","30.06","-999","-999","-9999","-9999","-9999.00","-9999.00","Fog","fog","1","0","0","0","0","0","SPECI UKKK 022157Z 25002MPS 0800 R26/P2000D FG NSC 11/11 Q1018 R26/CLRD70 NOSIG"
"1:00 AM EEST on October 03, 2016","2016","10","03","01","00","Europe/Kiev","10:00 PM GMT on October 02, 2016","2016","10","02","22","00","UTC","11.0","51.8","11.0","51.8","100","3.6","2.2","-9999.0","-9999.0","250","WSW","0.3","0.2","1018","30.06","-999","-999","-9999","-9999","-9999.00","-9999.00","Unknown","unknown","0","0","0","0","0","0","METAR UKKK 022200Z 25001MPS 0300 R26/P2000N PRFG NSC 11/11 Q1018 R26/CLRD70 NOSIG"
"1:30 AM EEST on October 03, 2016","2016","10","03","01","30","Europe/Kiev","10:30 PM GMT on October 02, 2016","2016","10","02","22","30","UTC","11.0","51.8","10.0","50.0","94","3.6","2.2","-9999.0","-9999.0","250","WSW","0.1","0.1","1018","30.06","-999","-999","-9999","-9999","-9999.00","-9999.00","Unknown","unknown","0","0","0","0","0","0","METAR UKKK 022230Z 25001MPS 0150 R26/P2000U PRFG NSC 11/10 Q1018 R26/CLRD70 NOSIG"
"2:00 AM EEST on October 03, 2016","2016","10","03","02","00","Europe/Kiev","11:00 PM GMT on October 02, 2016","2016","10","02","23","00","UTC","9.0","48.2","9.0","48.2","100","3.6","2.2","-9999.0","-9999.0","250","WSW","0.0","0.0","1018","30.06","-999","-999","-9999","-9999","-9999.00","-9999.00","Mostly Cloudy","mostlycloudy","0","0","0","0","0","0","METAR UKKK 022300Z 25001MPS 0050 R26/P2000D PRFG BKN007 09/09 Q1018 R26/CLRD70 NOSIG"
"2:22 AM EEST on October 03, 2016","2016","10","03","02","22","Europe/Kiev","11:22 PM GMT on October 02, 2016","2016","10","02","23","22","UTC","9.0","48.2","9.0","48.2","100","3.6","2.2","-9999.0","-9999.0","220","SW","0.4","0.2","1018","30.06","-999","-999","-9999","-9999","-9999.00","-9999.00","Fog","fog","1","0","0","0","0","0","SPECI UKKK 022322Z 22001MPS 0400 R26/0750VP2000N FG BKN005 09/09 Q1018 R26/CLRD70 NOSIG"
"2:30 AM EEST on October 03, 2016","2016","10","03","02","30","Europe/Kiev","11:30 PM GMT on October 02, 2016","2016","10","02","23","30","UTC","9.0","48.2","9.0","48.2","100","3.6","2.2","-9999.0","-9999.0","0","Variable","0.0","0.0","1018","30.06","-999","-999","-9999","-9999","-9999.00","-9999.00","Scattered Clouds","partlycloudy","0","0","0","0","0","0","METAR UKKK 022330Z VRB01MPS 0050 R26/0350VP2000U PRFG SCT009 09/09 Q1018 R26/CLRD70 NOSIG"
"2:43 AM EEST on October 03, 2016","2016","10","03","02","43","Europe/Kiev","11:43 PM GMT on October 02, 2016","2016","10","02","23","43","UTC","9.0","48.2","9.0","48.2","100","3.6","2.2","-9999.0","-9999.0","260","West","0.0","0.0","1018","30.06","-999","-999","-9999","-9999","-9999.00","-9999.00","Fog","fog","1","0","0","0","0","0","SPECI UKKK 022343Z 26001MPS 0050 R26/0350VP2000D FG SCT009 09/09 Q1018 R26/CLRD70 NOSIG"
"3:00 AM EEST on October 03, 2016","2016","10","03","03","00","Europe/Kiev","12:00 AM GMT on October 03, 2016","2016","10","03","00","00","UTC","13","55","12","54","93","7.2","4.5","","","260","West","0.5","0","1018","30.08","-999","-999","-9999","-9999","","","Partial Fog","fog","1","0","0","0","0","0","AAXX 03001 33345 31993 02602 10126 20120 39985 40185 58002 74640 555 10009"
"3:00 AM EEST on October 03, 2016","2016","10","03","03","00","Europe/Kiev","12:00 AM GMT on October 03, 2016","2016","10","03","00","00","UTC","10.0","50.0","10.0","50.0","100","3.6","2.2","-9999.0","-9999.0","300","WNW","0.0","0.0","1018","30.06","-999","-999","-9999","-9999","-9999.00","-9999.00","Fog","fog","1","0","0","0","0","0","METAR UKKK 030000Z 30001MPS 0050 R26/0300VP2000U FG SCT006 10/10 Q1018 R26/CLRD70 NOSIG"
"3:30 AM EEST on October 03, 2016","2016","10","03","03","30","Europe/Kiev","12:30 AM GMT on October 03, 2016","2016","10","03","00","30","UTC","8.0","46.4","8.0","46.4","100","3.6","2.2","-9999.0","-9999.0","210","SSW","0.0","0.0","1018","30.06","-999","-999","-9999","-9999","-9999.00","-9999.00","Fog","fog","1","0","0","0","0","0","METAR UKKK 030030Z 21001MPS 0050 R26/M0200U FG BKN005 08/08 Q1018 R26/CLRD70 NOSIG"
"4:00 AM EEST on October 03, 2016","2016","10","03","04","00","Europe/Kiev","1:00 AM GMT on October 03, 2016","2016","10","03","01","00","UTC","8.0","46.4","8.0","46.4","100","3.6","2.2","-9999.0","-9999.0","280","West","0.0","0.0","1018","30.06","-999","-999","-9999","-9999","-9999.00","-9999.00","Fog","fog","1","0","0","0","0","0","METAR UKKK 030100Z 28001MPS 0050 R26/M0200D FG SCT006 08/08 Q1018 R26/CLRD70 NOSIG"
"4:30 AM EEST on October 03, 2016","2016","10","03","04","30","Europe/Kiev","1:30 AM GMT on October 03, 2016","2016","10","03","01","30","UTC","8.0","46.4","8.0","46.4","100","3.6","2.2","-9999.0","-9999.0","270","West","0.0","0.0","1018","30.06","-999","-999","-9999","-9999","-9999.00","-9999.00","Fog","fog","1","0","0","0","0","0","METAR UKKK 030130Z 27001MPS 0050 R26/0200V0300N FG BKN005 08/08 Q1018 R26/CLRD70 NOSIG"
"4:40 AM EEST on October 03, 2016","2016","10","03","04","40","Europe/Kiev","1:40 AM GMT on October 03, 2016","2016","10","03","01","40","UTC","8.0","46.4","8.0","46.4","100","0.0","0.0","-9999.0","-9999.0","0","North","0.0","0.0","1018","30.06","-999","-999","-9999","-9999","-9999.00","-9999.00","Fog","fog","1","0","0","0","0","0","SPECI UKKK 030140Z 00000MPS 0050 R26/0200V0350N FG BKN004 08/08 Q1018 R26/CLRD70 NOSIG"
"5:00 AM EEST on October 03, 2016","2016","10","03","05","00","Europe/Kiev","2:00 AM GMT on October 03, 2016","2016","10","03","02","00","UTC","8.0","46.4","8.0","46.4","100","0.0","0.0","-9999.0","-9999.0","0","North","0.0","0.0","1018","30.06","-999","-999","-9999","-9999","-9999.00","-9999.00","Fog","fog","1","0","0","0","0","0","METAR UKKK 030200Z 00000MPS 0050 R26/M0200N FG BKN002 08/08 Q1018 R26/CLRD70 NOSIG"
"5:30 AM EEST on October 03, 2016","2016","10","03","05","30","Europe/Kiev","2:30 AM GMT on October 03, 2016","2016","10","03","02","30","UTC","8.0","46.4","8.0","46.4","100","0.0","0.0","-9999.0","-9999.0","0","North","0.0","0.0","1018","30.06","-999","-999","-9999","-9999","-9999.00","-9999.00","Fog","fog","1","0","0","0","0","0","METAR UKKK 030230Z 00000MPS 0050 R26/0200N FG BKN002 08/08 Q1018 R26/CLRD70 NOSIG"
"6:00 AM EEST on October 03, 2016","2016","10","03","06","00","Europe/Kiev","3:00 AM GMT on October 03, 2016","2016","10","03","03","00","UTC","11","52","11","51","96","3.6","2.2","","","170","South","0.2","0","1019","30.09","-999","-999","-9999","-9999","","","Partial Fog","fog","1","0","0","0","0","0","AAXX 03031 33345 41992 01701 10109 20107 39985 40187 54000 74640 555 10007"
"6:00 AM EEST on October 03, 2016","2016","10","03","06","00","Europe/Kiev","3:00 AM GMT on October 03, 2016","2016","10","03","03","00","UTC","7.0","44.6","7.0","44.6","100","0.0","0.0","-9999.0","-9999.0","0","North","0.0","0.0","1018","30.06","-999","-999","-9999","-9999","-9999.00","-9999.00","Fog","fog","1","0","0","0","0","0","METAR UKKK 030300Z 00000MPS 0050 R26/M0200N FG BKN002 07/07 Q1018 R26/CLRD70 NOSIG"
"6:30 AM EEST on October 03, 2016","2016","10","03","06","30","Europe/Kiev","3:30 AM GMT on October 03, 2016","2016","10","03","03","30","UTC","8.0","46.4","8.0","46.4","100","0.0","0.0","-9999.0","-9999.0","0","North","0.0","0.0","1018","30.06","-999","-999","-9999","-9999","-9999.00","-9999.00","Fog","fog","1","0","0","0","0","0","METAR UKKK 030330Z 00000MPS 0050 R26/0200V0800N FG SCT002 08/08 Q1018 R26/CLRD70 NOSIG"
"7:00 AM EEST on October 03, 2016","2016","10","03","07","00","Europe/Kiev","4:00 AM GMT on October 03, 2016","2016","10","03","04","00","UTC","7.0","44.6","7.0","44.6","100","0.0","0.0","-9999.0","-9999.0","0","North","0.0","0.0","1018","30.06","-999","-999","-9999","-9999","-9999.00","-9999.00","Fog","fog","1","0","0","0","0","0","METAR UKKK 030400Z 00000MPS 0050 R26/M0200U FG FEW002 BKN200 07/07 Q1018 R26/CLRD70 NOSIG"
"7:30 AM EEST on October 03, 2016","2016","10","03","07","30","Europe/Kiev","4:30 AM GMT on October 03, 2016","2016","10","03","04","30","UTC","8.0","46.4","8.0","46.4","100","0.0","0.0","-9999.0","-9999.0","0","North","0.0","0.0","1018","30.06","-999","-999","-9999","-9999","-9999.00","-9999.00","Fog","fog","1","0","0","0","0","0","METAR UKKK 030430Z 00000MPS 0050 R26/M0200N FG FEW002 BKN200 08/08 Q1018 R26/CLRD70 NOSIG"
"7:46 AM EEST on October 03, 2016","2016","10","03","07","46","Europe/Kiev","4:46 AM GMT on October 03, 2016","2016","10","03","04","46","UTC","7.0","44.6","7.0","44.6","100","7.2","4.5","-9999.0","-9999.0","90","East","0.0","0.0","1018","30.06","5.7","42.3","-9999","-9999","-9999.00","-9999.00","Fog","fog","1","0","0","0","0","0","SPECI UKKK 030446Z 09002MPS 0050 R26/M0200N FG BKN001 07/07 Q1018 R26/CLRD70 NOSIG"
"8:00 AM EEST on October 03, 2016","2016","10","03","08","00","Europe/Kiev","5:00 AM GMT on October 03, 2016","2016","10","03","05","00","UTC","8.0","46.4","8.0","46.4","100","3.6","2.2","-9999.0","-9999.0","90","East","0.0","0.0","1018","30.06","-999","-999","-9999","-9999","-9999.00","-9999.00","Fog","fog","1","0","0","0","0","0","METAR UKKK 030500Z 09001MPS 0050 R08/M0200N FG BKN001 08/08 Q1018 R08/CLRD70 NOSIG"
"8:30 AM EEST on October 03, 2016","2016","10","03","08","30","Europe/Kiev","5:30 AM GMT on October 03, 2016","2016","10","03","05","30","UTC","11.0","51.8","11.0","51.8","100","0.0","0.0","-9999.0","-9999.0","0","North","0.0","0.0","1018","30.06","-999","-999","-9999","-9999","-9999.00","-9999.00","Fog","fog","1","0","0","0","0","0","METAR UKKK 030530Z 00000MPS 0050 R08/M0200N FG VV001 11/11 Q1018 R08/CLRD70 NOSIG"
"9:00 AM EEST on October 03, 2016","2016","10","03","09","00","Europe/Kiev","6:00 AM GMT on October 03, 2016","2016","10","03","06","00","UTC","11","52","11","52","99","0.0","0.0","","","","","0.2","0","1019","30.10","-999","-999","-9999","-9999","","","Partial Fog","fog","1","0","0","0","0","0","AAXX 03061 33345 31992 20000 10112 20110 39990 40192 53005 74440 80001 333 20096 555 10013"
"9:00 AM EEST on October 03, 2016","2016","10","03","09","00","Europe/Kiev","6:00 AM GMT on October 03, 2016","2016","10","03","06","00","UTC","11.0","51.8","11.0","51.8","100","0.0","0.0","-9999.0","-9999.0","0","North","-9999.0","-9999.0","1019","30.09","-999","-999","-9999","-9999","-9999.00","-9999.00","Fog","fog","1","0","0","0","0","0","METAR UKKK 030600Z 00000MPS 0000 R08/M0200N FG VV001 11/11 Q1019 R08/CLRD70 NOSIG"
"9:30 AM EEST on October 03, 2016","2016","10","03","09","30","Europe/Kiev","6:30 AM GMT on October 03, 2016","2016","10","03","06","30","UTC","12.0","53.6","12.0","53.6","100","0.0","0.0","-9999.0","-9999.0","0","North","0.0","0.0","1019","30.09","-999","-999","-9999","-9999","-9999.00","-9999.00","Fog","fog","1","0","0","0","0","0","METAR UKKK 030630Z 00000MPS 0050 R08/M0200N FG VV001 12/12 Q1019 R08/CLRD70 NOSIG"
"9:45 AM EEST on October 03, 2016","2016","10","03","09","45","Europe/Kiev","6:45 AM GMT on October 03, 2016","2016","10","03","06","45","UTC","13.0","55.4","13.0","55.4","100","0.0","0.0","-9999.0","-9999.0","0","North","0.3","0.2","1019","30.09","-999","-999","-9999","-9999","-9999.00","-9999.00","Scattered Clouds","partlycloudy","0","0","0","0","0","0","SPECI UKKK 030645Z 00000MPS 0350 R08/0250V1700U PRFG SCT007 13/13 Q1019 R08/CLRD70 NOSIG"
"10:00 AM EEST on October 03, 2016","2016","10","03","10","00","Europe/Kiev","7:00 AM GMT on October 03, 2016","2016","10","03","07","00","UTC","14.0","57.2","14.0","57.2","100","0.0","0.0","-9999.0","-9999.0","0","North","2.0","1.2","1019","30.09","-999","-999","-9999","-9999","-9999.00","-9999.00","Clear","clear","0","0","0","0","0","0","METAR UKKK 030700Z 00000MPS 2000 BR SKC 14/14 Q1019 R08/CLRD70 TEMPO 1400 BR SCT006"
"10:30 AM EEST on October 03, 2016","2016","10","03","10","30","Europe/Kiev","7:30 AM GMT on October 03, 2016","2016","10","03","07","30","UTC","16.0","60.8","16.0","60.8","100","3.6","2.2","-9999.0","-9999.0","0","Variable","5.0","3.1","1018","30.06","-999","-999","-9999","-9999","-9999.00","-9999.00","Clear","clear","0","0","0","0","0","0","METAR UKKK 030730Z VRB01MPS 5000 BR SKC 16/16 Q1018 R08/CLRD70 NOSIG"
"11:00 AM EEST on October 03, 2016","2016","10","03","11","00","Europe/Kiev","8:00 AM GMT on October 03, 2016","2016","10","03","08","00","UTC","19.0","66.2","13.0","55.4","68","3.6","2.2","-9999.0","-9999.0","0","Variable","-9999.0","-9999.0","1018","30.06","-999","-999","-9999","-9999","-9999.00","-9999.00","Clear","clear","0","0","0","0","0","0","METAR UKKK 030800Z VRB01MPS CAVOK 19/13 Q1018 R08/CLRD70 NOSIG"
"11:30 AM EEST on October 03, 2016","2016","10","03","11","30","Europe/Kiev","8:30 AM GMT on October 03, 2016","2016","10","03","08","30","UTC","20.0","68.0","13.0","55.4","64","3.6","2.2","-9999.0","-9999.0","0","Variable","-9999.0","-9999.0","1018","30.06","-999","-999","-9999","-9999","-9999.00","-9999.00","Clear","clear","0","0","0","0","0","0","METAR UKKK 030830Z VRB01MPS CAVOK 20/13 Q1018 R08/CLRD70 NOSIG"
"12:00 PM EEST on October 03, 2016","2016","10","03","12","00","Europe/Kiev","9:00 AM GMT on October 03, 2016","2016","10","03","09","00","UTC","19","66","13","55","60","7.2","4.5","","","190","South","20","12","1018","30.07","-999","-999","-9999","-9999","","","Partly Cloudy","partlycloudy","0","0","0","0","0","0","AAXX 03091 33345 41998 61902 10191 20129 39986 40182 58004 70241 80001 555 10029"
"12:00 PM EEST on October 03, 2016","2016","10","03","12","00","Europe/Kiev","9:00 AM GMT on October 03, 2016","2016","10","03","09","00","UTC","20.0","68.0","13.0","55.4","64","7.2","4.5","-9999.0","-9999.0","130","SE","9.0","5.6","1018","30.06","-999","-999","-9999","-9999","-9999.00","-9999.00","Unknown","unknown","0","0","0","0","0","0","METAR UKKK 030900Z 13002MPS 080V190 9000 NSC 20/13 Q1018 R08/CLRD70 NOSIG"
"12:30 PM EEST on October 03, 2016","2016","10","03","12","30","Europe/Kiev","9:30 AM GMT on October 03, 2016","2016","10","03","09","30","UTC","21.0","69.8","13.0","55.4","60","10.8","6.7","-9999.0","-9999.0","140","SE","-9999.0","-9999.0","1018","30.06","-999","-999","-9999","-9999","-9999.00","-9999.00","Clear","clear","0","0","0","0","0","0","METAR UKKK 030930Z 14003MPS 100V200 CAVOK 21/13 Q1018 R08/CLRD70 NOSIG"
"1:00 PM EEST on October 03, 2016","2016","10","03","13","00","Europe/Kiev","10:00 AM GMT on October 03, 2016","2016","10","03","10","00","UTC","21.0","69.8","13.0","55.4","60","10.8","6.7","-9999.0","-9999.0","140","SE","-9999.0","-9999.0","1018","30.06","-999","-999","-9999","-9999","-9999.00","-9999.00","Clear","clear","0","0","0","0","0","0","METAR UKKK 031000Z 14003MPS 100V200 CAVOK 21/13 Q1018 R08/CLRD70 NOSIG"
"1:30 PM EEST on October 03, 2016","2016","10","03","13","30","Europe/Kiev","10:30 AM GMT on October 03, 2016","2016","10","03","10","30","UTC","22.0","71.6","13.0","55.4","57","7.2","4.5","-9999.0","-9999.0","150","SSE","9.0","5.6","1017","30.04","-999","-999","-9999","-9999","-9999.00","-9999.00","Scattered Clouds","partlycloudy","0","0","0","0","0","0","METAR UKKK 031030Z 15002MPS 9000 FEW037 SCT200 22/13 Q1017 R08/CLRD70 NOSIG"
"2:00 PM EEST on October 03, 2016","2016","10","03","14","00","Europe/Kiev","11:00 AM GMT on October 03, 2016","2016","10","03","11","00","UTC","22.0","71.6","11.0","51.8","50","7.2","4.5","-9999.0","-9999.0","170","South","10.0","6.2","1017","30.04","-999","-999","-9999","-9999","-9999.00","-9999.00","Scattered Clouds","partlycloudy","0","0","0","0","0","0","METAR UKKK 031100Z 17002MPS 110V220 9999 SCT037 22/11 Q1017 R08/CLRD70 NOSIG"
"2:30 PM EEST on October 03, 2016","2016","10","03","14","30","Europe/Kiev","11:30 AM GMT on October 03, 2016","2016","10","03","11","30","UTC","22.0","71.6","12.0","53.6","53","10.8","6.7","-9999.0","-9999.0","140","SE","9.0","5.6","1017","30.04","-999","-999","-9999","-9999","-9999.00","-9999.00","Scattered Clouds","partlycloudy","0","0","0","0","0","0","METAR UKKK 031130Z 14003MPS 110V190 9000 SCT046 22/12 Q1017 R08/CLRD70 NOSIG"
"3:00 PM EEST on October 03, 2016","2016","10","03","15","00","Europe/Kiev","12:00 PM GMT on October 03, 2016","2016","10","03","12","00","UTC","22","72","12","53","41","3.6","2.2","","","180","South","20","12","1017","30.03","-999","-999","-9999","-9999","","","Partly Cloudy","partlycloudy","0","0","0","0","0","0","AAXX 03121 33345 31698 31801 10225 20117 39975 40169 57011 70241 82501 555 10027"
"3:00 PM EEST on October 03, 2016","2016","10","03","15","00","Europe/Kiev","12:00 PM GMT on October 03, 2016","2016","10","03","12","00","UTC","22.0","71.6","11.0","51.8","50","3.6","2.2","-9999.0","-9999.0","0","Variable","10.0","6.2","1017","30.04","-999","-999","-9999","-9999","-9999.00","-9999.00","Scattered Clouds","partlycloudy","0","0","0","0","0","0","METAR UKKK 031200Z VRB01MPS 9999 SCT048 22/11 Q1017 R08/CLRD70 NOSIG"
"3:30 PM EEST on October 03, 2016","2016","10","03","15","30","Europe/Kiev","12:30 PM GMT on October 03, 2016","2016","10","03","12","30","UTC","21.0","69.8","12.0","53.6","56","10.8","6.7","-9999.0","-9999.0","100","East","-9999.0","-9999.0","1017","30.04","-999","-999","-9999","-9999","-9999.00","-9999.00","Clear","clear","0","0","0","0","0","0","METAR UKKK 031230Z 10003MPS 070V150 CAVOK 21/12 Q1017 R08/CLRD70 NOSIG"
"4:00 PM EEST on October 03, 2016","2016","10","03","16","00","Europe/Kiev","1:00 PM GMT on October 03, 2016","2016","10","03","13","00","UTC","22.0","71.6","12.0","53.6","53","10.8","6.7","-9999.0","-9999.0","100","East","-9999.0","-9999.0","1017","30.04","-999","-999","-9999","-9999","-9999.00","-9999.00","Clear","clear","0","0","0","0","0","0","METAR UKKK 031300Z 10003MPS 070V140 CAVOK 22/12 Q1017 R08/CLRD70 NOSIG"
"4:30 PM EEST on October 03, 2016","2016","10","03","16","30","Europe/Kiev","1:30 PM GMT on October 03, 2016","2016","10","03","13","30","UTC","22.0","71.6","11.0","51.8","50","7.2","4.5","-9999.0","-9999.0","120","ESE","9.0","5.6","1017","30.04","-999","-999","-9999","-9999","-9999.00","-9999.00","Unknown","unknown","0","0","0","0","0","0","METAR UKKK 031330Z 12002MPS 090V170 9000 NSC 22/11 Q1017 R08/CLRD70 NOSIG"
"5:00 PM EEST on October 03, 2016","2016","10","03","17","00","Europe/Kiev","2:00 PM GMT on October 03, 2016","2016","10","03","14","00","UTC","22.0","71.6","11.0","51.8","50","7.2","4.5","-9999.0","-9999.0","120","ESE","-9999.0","-9999.0","1016","30.01","-999","-999","-9999","-9999","-9999.00","-9999.00","Clear","clear","0","0","0","0","0","0","METAR UKKK 031400Z 12002MPS 080V140 CAVOK 22/11 Q1016 R08/CLRD70 NOSIG"
"5:30 PM EEST on October 03, 2016","2016","10","03","17","30","Europe/Kiev","2:30 PM GMT on October 03, 2016","2016","10","03","14","30","UTC","21.0","69.8","11.0","51.8","53","7.2","4.5","-9999.0","-9999.0","100","East","-9999.0","-9999.0","1016","30.01","-999","-999","-9999","-9999","-9999.00","-9999.00","Clear","clear","0","0","0","0","0","0","METAR UKKK 031430Z 10002MPS CAVOK 21/11 Q1016 R08/CLRD70 NOSIG"
"6:00 PM EEST on October 03, 2016","2016","10","03","18","00","Europe/Kiev","3:00 PM GMT on October 03, 2016","2016","10","03","15","00","UTC","22","72","11","53","40","0.0","0.0","","","","","20","12","1016","30.01","-999","-999","-9999","-9999","","","Clear","clear","0","0","0","0","0","0","AAXX 03151 33345 42998 60000 10221 20114 39968 40162 57007 80001 555 10019"
"6:00 PM EEST on October 03, 2016","2016","10","03","18","00","Europe/Kiev","3:00 PM GMT on October 03, 2016","2016","10","03","15","00","UTC","20.0","68.0","11.0","51.8","56","7.2","4.5","-9999.0","-9999.0","120","ESE","-9999.0","-9999.0","1016","30.01","-999","-999","-9999","-9999","-9999.00","-9999.00","Clear","clear","0","0","0","0","0","0","METAR UKKK 031500Z 12002MPS CAVOK 20/11 Q1016 R08/CLRD70 NOSIG"
"6:30 PM EEST on October 03, 2016","2016","10","03","18","30","Europe/Kiev","3:30 PM GMT on October 03, 2016","2016","10","03","15","30","UTC","17.0","62.6","11.0","51.8","68","3.6","2.2","-9999.0","-9999.0","120","ESE","-9999.0","-9999.0","1016","30.01","-999","-999","-9999","-9999","-9999.00","-9999.00","Clear","clear","0","0","0","0","0","0","METAR UKKK 031530Z 12001MPS CAVOK 17/11 Q1016 R08/CLRD70 NOSIG"
"7:00 PM EEST on October 03, 2016","2016","10","03","19","00","Europe/Kiev","4:00 PM GMT on October 03, 2016","2016","10","03","16","00","UTC","15.0","59.0","11.0","51.8","77","7.2","4.5","-9999.0","-9999.0","80","East","6.0","3.7","1016","30.01","-999","-999","-9999","-9999","-9999.00","-9999.00","Unknown","unknown","0","0","0","0","0","0","METAR UKKK 031600Z 08002MPS 6000 NSC 15/11 Q1016 R08/CLRD70 NOSIG"
"7:30 PM EEST on October 03, 2016","2016","10","03","19","30","Europe/Kiev","4:30 PM GMT on October 03, 2016","2016","10","03","16","30","UTC","15.0","59.0","10.0","50.0","72","7.2","4.5","-9999.0","-9999.0","110","ESE","5.0","3.1","1016","30.01","-999","-999","-9999","-9999","-9999.00","-9999.00","Smoke","hazy","0","0","0","0","0","0","METAR UKKK 031630Z 11002MPS 5000 FU NSC 15/10 Q1016 R08/CLRD70 NOSIG"
"8:00 PM EEST on October 03, 2016","2016","10","03","20","00","Europe/Kiev","5:00 PM GMT on October 03, 2016","2016","10","03","17","00","UTC","15.0","59.0","10.0","50.0","72","3.6","2.2","-9999.0","-9999.0","110","ESE","9.0","5.6","1016","30.01","-999","-999","-9999","-9999","-9999.00","-9999.00","Unknown","unknown","0","0","0","0","0","0","METAR UKKK 031700Z 11001MPS 9000 NSC 15/10 Q1016 R08/CLRD70 NOSIG"
"8:30 PM EEST on October 03, 2016","2016","10","03","20","30","Europe/Kiev","5:30 PM GMT on October 03, 2016","2016","10","03","17","30","UTC","14.0","57.2","9.0","48.2","72","7.2","4.5","-9999.0","-9999.0","70","ENE","9.0","5.6","1016","30.01","-999","-999","-9999","-9999","-9999.00","-9999.00","Unknown","unknown","0","0","0","0","0","0","METAR UKKK 031730Z 07002MPS 9000 NSC 14/09 Q1016 R08/CLRD70 NOSIG"
"9:00 PM EEST on October 03, 2016","2016","10","03","21","00","Europe/Kiev","6:00 PM GMT on October 03, 2016","2016","10","03","18","00","UTC","17","62","8","46","44","0.0","0.0","","","","","20","12","1016","30.02","-999","-999","-9999","-9999","","","Partly Cloudy","partlycloudy","0","0","0","0","0","0","AAXX 03181 33345 32998 30000 10167 20076 39967 40165 57001 83030 333 10235 555 10012"
"9:00 PM EEST on October 03, 2016","2016","10","03","21","00","Europe/Kiev","6:00 PM GMT on October 03, 2016","2016","10","03","18","00","UTC","15.0","59.0","9.0","48.2","67","7.2","4.5","-9999.0","-9999.0","90","East","-9999.0","-9999.0","1016","30.01","-999","-999","-9999","-9999","-9999.00","-9999.00","Clear","clear","0","0","0","0","0","0","METAR UKKK 031800Z 09002MPS CAVOK 15/09 Q1016 R08/CLRD70 NOSIG"
"9:30 PM EEST on October 03, 2016","2016","10","03","21","30","Europe/Kiev","6:30 PM GMT on October 03, 2016","2016","10","03","18","30","UTC","15.0","59.0","9.0","48.2","67","7.2","4.5","-9999.0","-9999.0","70","ENE","-9999.0","-9999.0","1016","30.01","-999","-999","-9999","-9999","-9999.00","-9999.00","Clear","clear","0","0","0","0","0","0","METAR UKKK 031830Z 07002MPS CAVOK 15/09 Q1016 R08/CLRD70 NOSIG"
"10:00 PM EEST on October 03, 2016","2016","10","03","22","00","Europe/Kiev","7:00 PM GMT on October 03, 2016","2016","10","03","19","00","UTC","15.0","59.0","9.0","48.2","67","7.2","4.5","-9999.0","-9999.0","80","East","-9999.0","-9999.0","1016","30.01","-999","-999","-9999","-9999","-9999.00","-9999.00","Clear","clear","0","0","0","0","0","0","METAR UKKK 031900Z 08002MPS CAVOK 15/09 Q1016 R08/CLRD70 NOSIG"
"10:30 PM EEST on October 03, 2016","2016","10","03","22","30","Europe/Kiev","7:30 PM GMT on October 03, 2016","2016","10","03","19","30","UTC","14.0","57.2","9.0","48.2","72","7.2","4.5","-9999.0","-9999.0","90","East","9.0","5.6","1016","30.01","-999","-999","-9999","-9999","-9999.00","-9999.00","Unknown","unknown","0","0","0","0","0","0","METAR UKKK 031930Z 09002MPS 9000 NSC 14/09 Q1016 R08/CLRD70 NOSIG"
"11:00 PM EEST on October 03, 2016","2016","10","03","23","00","Europe/Kiev","8:00 PM GMT on October 03, 2016","2016","10","03","20","00","UTC","13.0","55.4","9.0","48.2","77","0.0","0.0","-9999.0","-9999.0","0","North","9.0","5.6","1016","30.01","-999","-999","-9999","-9999","-9999.00","-9999.00","Unknown","unknown","0","0","0","0","0","0","METAR UKKK 032000Z 00000MPS 9000 NSC 13/09 Q1016 R08/CLRD70 NOSIG"
"11:30 PM EEST on October 03, 2016","2016","10","03","23","30","Europe/Kiev","8:30 PM GMT on October 03, 2016","2016","10","03","20","30","UTC","13.0","55.4","9.0","48.2","77","0.0","0.0","-9999.0","-9999.0","0","North","-9999.0","-9999.0","1016","30.01","-999","-999","-9999","-9999","-9999.00","-9999.00","Clear","clear","0","0","0","0","0","0","METAR UKKK 032030Z 00000MPS CAVOK 13/09 Q1016 R08/CLRD70 NOSIG"
"12:00 AM EEST on October 04, 2016","2016","10","04","00","00","Europe/Kiev","9:00 PM GMT on October 03, 2016","2016","10","03","21","00","UTC","15","60","8","47","52","0.0","0.0","","","","","20","12","1016","30.00","-999","-999","-9999","-9999","","","Partly Cloudy","partlycloudy","0","0","0","0","0","0","AAXX 03211 33345 42998 40000 10154 20083 39961 40159 57006 84030 555 10013"
"12:00 AM EEST on October 04, 2016","2016","10","04","00","00","Europe/Kiev","9:00 PM GMT on October 03, 2016","2016","10","03","21","00","UTC","13.0","55.4","9.0","48.2","77","0.0","0.0","-9999.0","-9999.0","0","North","-9999.0","-9999.0","1016","30.01","-999","-999","-9999","-9999","-9999.00","-9999.00","Clear","clear","0","0","0","0","0","0","METAR UKKK 032100Z 00000MPS CAVOK 13/09 Q1016 R08/CLRD70 NOSIG"
"12:30 AM EEST on October 04, 2016","2016","10","04","00","30","Europe/Kiev","9:30 PM GMT on October 03, 2016","2016","10","03","21","30","UTC","12.0","53.6","9.0","48.2","82","0.0","0.0","-9999.0","-9999.0","0","North","9.0","5.6","1015","29.98","-999","-999","-9999","-9999","-9999.00","-9999.00","Unknown","unknown","0","0","0","0","0","0","METAR UKKK 032130Z 00000MPS 9000 NSC 12/09 Q1015 R08/CLRD70 NOSIG"
"1:00 AM EEST on October 04, 2016","2016","10","04","01","00","Europe/Kiev","10:00 PM GMT on October 03, 2016","2016","10","03","22","00","UTC","12.0","53.6","10.0","50.0","88","0.0","0.0","-9999.0","-9999.0","0","North","9.0","5.6","1015","29.98","-999","-999","-9999","-9999","-9999.00","-9999.00","Unknown","unknown","0","0","0","0","0","0","METAR UKKK 032200Z 00000MPS 9000 NSC 12/10 Q1015 R08/CLRD70 NOSIG"
"1:30 AM EEST on October 04, 2016","2016","10","04","01","30","Europe/Kiev","10:30 PM GMT on October 03, 2016","2016","10","03","22","30","UTC","12.0","53.6","10.0","50.0","88","0.0","0.0","-9999.0","-9999.0","0","North","9.0","5.6","1015","29.98","-999","-999","-9999","-9999","-9999.00","-9999.00","Unknown","unknown","0","0","0","0","0","0","METAR UKKK 032230Z 00000MPS 9000 NSC 12/10 Q1015 R08/CLRD70 NOSIG"
"2:00 AM EEST on October 04, 2016","2016","10","04","02","00","Europe/Kiev","11:00 PM GMT on October 03, 2016","2016","10","03","23","00","UTC","12.0","53.6","9.0","48.2","82","3.6","2.2","-9999.0","-9999.0","90","East","-9999.0","-9999.0","1015","29.98","-999","-999","-9999","-9999","-9999.00","-9999.00","Clear","clear","0","0","0","0","0","0","METAR UKKK 032300Z 09001MPS CAVOK 12/09 Q1015 R08/CLRD70 NOSIG"
"2:30 AM EEST on October 04, 2016","2016","10","04","02","30","Europe/Kiev","11:30 PM GMT on October 03, 2016","2016","10","03","23","30","UTC","11.0","51.8","9.0","48.2","88","3.6","2.2","-9999.0","-9999.0","90","East","8.0","5.0","1015","29.98","-999","-999","-9999","-9999","-9999.00","-9999.00","Unknown","unknown","0","0","0","0","0","0","METAR UKKK 032330Z 09001MPS 8000 NSC 11/09 Q1015 R08/CLRD70 NOSIG"
"3:00 AM EEST on October 04, 2016","2016","10","04","03","00","Europe/Kiev","12:00 AM GMT on October 04, 2016","2016","10","04","00","00","UTC","14","58","9","48","61","0.0","0.0","","","","","20","12","1015","29.97","-999","-999","-9999","-9999","","","Partly Cloudy","partlycloudy","0","0","0","0","0","0","AAXX 04001 33345 32998 30000 10142 20089 39948 40147 57013 83030 555 10011"
"3:00 AM EEST on October 04, 2016","2016","10","04","03","00","Europe/Kiev","12:00 AM GMT on October 04, 2016","2016","10","04","00","00","UTC","11.0","51.8","9.0","48.2","88","0.0","0.0","-9999.0","-9999.0","0","North","-9999.0","-9999.0","1014","29.95","-999","-999","-9999","-9999","-9999.00","-9999.00","Clear","clear","0","0","0","0","0","0","METAR UKKK 040000Z 00000MPS CAVOK 11/09 Q1014 R08/CLRD70 NOSIG"
"3:30 AM EEST on October 04, 2016","2016","10","04","03","30","Europe/Kiev","12:30 AM GMT on October 04, 2016","2016","10","04","00","30","UTC","11.0","51.8","9.0","48.2","88","0.0","0.0","-9999.0","-9999.0","0","North","-9999.0","-9999.0","1014","29.95","-999","-999","-9999","-9999","-9999.00","-9999.00","Clear","clear","0","0","0","0","0","0","METAR UKKK 040030Z 00000MPS CAVOK 11/09 Q1014 R08/CLRD70 NOSIG"
"4:00 AM EEST on October 04, 2016","2016","10","04","04","00","Europe/Kiev","1:00 AM GMT on October 04, 2016","2016","10","04","01","00","UTC","11.0","51.8","10.0","50.0","94","0.0","0.0","-9999.0","-9999.0","0","North","-9999.0","-9999.0","1014","29.95","-999","-999","-9999","-9999","-9999.00","-9999.00","Clear","clear","0","0","0","0","0","0","METAR UKKK 040100Z 00000MPS CAVOK 11/10 Q1014 R08/CLRD70 NOSIG"
"4:30 AM EEST on October 04, 2016","2016","10","04","04","30","Europe/Kiev","1:30 AM GMT on October 04, 2016","2016","10","04","01","30","UTC","11.0","51.8","10.0","50.0","94","0.0","0.0","-9999.0","-9999.0","0","North","9.0","5.6","1014","29.95","-999","-999","-9999","-9999","-9999.00","-9999.00","Unknown","unknown","0","0","0","0","0","0","METAR UKKK 040130Z 00000MPS 9000 NSC 11/10 Q1014 R08/CLRD70 NOSIG"
"5:00 AM EEST on October 04, 2016","2016","10","04","05","00","Europe/Kiev","2:00 AM GMT on October 04, 2016","2016","10","04","02","00","UTC","12.0","53.6","11.0","51.8","94","0.0","0.0","-9999.0","-9999.0","0","North","9.0","5.6","1014","29.95","-999","-999","-9999","-9999","-9999.00","-9999.00","Unknown","unknown","0","0","0","0","0","0","METAR UKKK 040200Z 00000MPS 9000 NSC 12/11 Q1014 R08/CLRD70 NOSIG"
"5:30 AM EEST on October 04, 2016","2016","10","04","05","30","Europe/Kiev","2:30 AM GMT on October 04, 2016","2016","10","04","02","30","UTC","12.0","53.6","10.0","50.0","88","10.8","6.7","-9999.0","-9999.0","80","East","9.0","5.6","1013","29.92","-999","-999","-9999","-9999","-9999.00","-9999.00","Unknown","unknown","0","0","0","0","0","0","METAR UKKK 040230Z 08003MPS 9000 NSC 12/10 Q1013 R08/CLRD70 NOSIG"
"6:00 AM EEST on October 04, 2016","2016","10","04","06","00","Europe/Kiev","3:00 AM GMT on October 04, 2016","2016","10","04","03","00","UTC","14","57","10","50","69","0.0","0.0","","","","","20","12","1014","29.94","-999","-999","-9999","-9999","","","Partly Cloudy","partlycloudy","0","0","0","0","0","0","AAXX 04031 33345 42998 40000 10137 20098 39938 40137 57010 84030 555 10012"
"6:00 AM EEST on October 04, 2016","2016","10","04","06","00","Europe/Kiev","3:00 AM GMT on October 04, 2016","2016","10","04","03","00","UTC","12.0","53.6","10.0","50.0","88","7.2","4.5","-9999.0","-9999.0","70","ENE","-9999.0","-9999.0","1013","29.92","-999","-999","-9999","-9999","-9999.00","-9999.00","Clear","clear","0","0","0","0","0","0","METAR UKKK 040300Z 07002MPS CAVOK 12/10 Q1013 R08/CLRD70 NOSIG"
"6:30 AM EEST on October 04, 2016","2016","10","04","06","30","Europe/Kiev","3:30 AM GMT on October 04, 2016","2016","10","04","03","30","UTC","12.0","53.6","10.0","50.0","88","7.2","4.5","-9999.0","-9999.0","80","East","9.0","5.6","1013","29.92","-999","-999","-9999","-9999","-9999.00","-9999.00","Unknown","unknown","0","0","0","0","0","0","METAR UKKK 040330Z 08002MPS 9000 NSC 12/10 Q1013 R08/CLRD70 NOSIG"
"7:00 AM EEST on October 04, 2016","2016","10","04","07","00","Europe/Kiev","4:00 AM GMT on October 04, 2016","2016","10","04","04","00","UTC","13.0","55.4","10.0","50.0","82","3.6","2.2","-9999.0","-9999.0","70","ENE","9.0","5.6","1013","29.92","-999","-999","-9999","-9999","-9999.00","-9999.00","Unknown","unknown","0","0","0","0","0","0","METAR UKKK 040400Z 07001MPS 9000 NSC 13/10 Q1013 R08/CLRD70 NOSIG"
"7:30 AM EEST on October 04, 2016","2016","10","04","07","30","Europe/Kiev","4:30 AM GMT on October 04, 2016","2016","10","04","04","30","UTC","12.0","53.6","10.0","50.0","88","0.0","0.0","-9999.0","-9999.0","0","North","9.0","5.6","1013","29.92","-999","-999","-9999","-9999","-9999.00","-9999.00","Unknown","unknown","0","0","0","0","0","0","METAR UKKK 040430Z 00000MPS 9000 NSC 12/10 Q1013 R08/CLRD70 NOSIG"
"8:00 AM EEST on October 04, 2016","2016","10","04","08","00","Europe/Kiev","5:00 AM GMT on October 04, 2016","2016","10","04","05","00","UTC","13.0","55.4","11.0","51.8","88","3.6","2.2","-9999.0","-9999.0","0","Variable","9.0","5.6","1013","29.92","-999","-999","-9999","-9999","-9999.00","-9999.00","Unknown","unknown","0","0","0","0","0","0","METAR UKKK 040500Z VRB01MPS 9000 NSC 13/11 Q1013 R08/CLRD70 NOSIG"
"8:30 AM EEST on October 04, 2016","2016","10","04","08","30","Europe/Kiev","5:30 AM GMT on October 04, 2016","2016","10","04","05","30","UTC","13.0","55.4","12.0","53.6","94","0.0","0.0","-9999.0","-9999.0","0","North","9.0","5.6","1013","29.92","-999","-999","-9999","-9999","-9999.00","-9999.00","Unknown","unknown","0","0","0","0","0","0","METAR UKKK 040530Z 00000MPS 9000 NSC 13/12 Q1013 R08/CLRD70 NOSIG"
"9:00 AM EEST on October 04, 2016","2016","10","04","09","00","Europe/Kiev","6:00 AM GMT on October 04, 2016","2016","10","04","06","00","UTC","14","58","10","51","69","0.0","0.0","","","","","20","12","1013","29.92","-999","-999","-9999","-9999","","","Overcast","cloudy","0","0","0","0","0","0","AAXX 04061 33345 32698 80000 10145 20103 39934 40132 57004 86530 333 20131 555 10015"
"9:00 AM EEST on October 04, 2016","2016","10","04","09","00","Europe/Kiev","6:00 AM GMT on October 04, 2016","2016","10","04","06","00","UTC","14.0","57.2","11.0","51.8","82","7.2","4.5","-9999.0","-9999.0","80","East","9.0","5.6","1013","29.92","-999","-999","-9999","-9999","-9999.00","-9999.00","Unknown","unknown","0","0","0","0","0","0","METAR UKKK 040600Z 08002MPS 9000 NSC 14/11 Q1013 R08/CLRD70 NOSIG"
"9:30 AM EEST on October 04, 2016","2016","10","04","09","30","Europe/Kiev","6:30 AM GMT on October 04, 2016","2016","10","04","06","30","UTC","15.0","59.0","11.0","51.8","77","3.6","2.2","-9999.0","-9999.0","110","ESE","6.0","3.7","1013","29.92","-999","-999","-9999","-9999","-9999.00","-9999.00","Mostly Cloudy","mostlycloudy","0","0","0","0","0","0","METAR UKKK 040630Z 11001MPS 6000 BKN040 15/11 Q1013 R08/CLRD70 NOSIG"
"10:00 AM EEST on October 04, 2016","2016","10","04","10","00","Europe/Kiev","7:00 AM GMT on October 04, 2016","2016","10","04","07","00","UTC","15.0","59.0","11.0","51.8","77","7.2","4.5","-9999.0","-9999.0","100","East","5.0","3.1","1013","29.92","-999","-999","-9999","-9999","-9999.00","-9999.00","Smoke","hazy","0","0","0","0","0","0","METAR UKKK 040700Z 10002MPS 5000 FU NSC 15/11 Q1013 R08/CLRD70 NOSIG"
"10:30 AM EEST on October 04, 2016","2016","10","04","10","30","Europe/Kiev","7:30 AM GMT on October 04, 2016","2016","10","04","07","30","UTC","16.0","60.8","11.0","51.8","72","7.2","4.5","-9999.0","-9999.0","90","East","9.0","5.6","1013","29.92","-999","-999","-9999","-9999","-9999.00","-9999.00","Unknown","unknown","0","0","0","0","0","0","METAR UKKK 040730Z 09002MPS 9000 NSC 16/11 Q1013 R08/CLRD70 NOSIG"
"11:00 AM EEST on October 04, 2016","2016","10","04","11","00","Europe/Kiev","8:00 AM GMT on October 04, 2016","2016","10","04","08","00","UTC","16.0","60.8","10.0","50.0","68","10.8","6.7","-9999.0","-9999.0","70","ENE","9.0","5.6","1012","29.89","-999","-999","-9999","-9999","-9999.00","-9999.00","Unknown","unknown","0","0","0","0","0","0","METAR UKKK 040800Z 07003MPS 9000 NSC 16/10 Q1012 R08/CLRD70 NOSIG"
"11:30 AM EEST on October 04, 2016","2016","10","04","11","30","Europe/Kiev","8:30 AM GMT on October 04, 2016","2016","10","04","08","30","UTC","17.0","62.6","10.0","50.0","63","10.8","6.7","-9999.0","-9999.0","80","East","9.0","5.6","1012","29.89","-999","-999","-9999","-9999","-9999.00","-9999.00","Unknown","unknown","0","0","0","0","0","0","METAR UKKK 040830Z 08003MPS 9000 NSC 17/10 Q1012 R08/CLRD70 NOSIG"
"12:00 PM EEST on October 04, 2016","2016","10","04","12","00","Europe/Kiev","9:00 AM GMT on October 04, 2016","2016","10","04","09","00","UTC","18","64","10","49","48","3.6","2.2","","","40","NE","20","12","1012","29.89","-999","-999","-9999","-9999","","","Mostly Cloudy","mostlycloudy","0","0","0","0","0","0","AAXX 04091 33345 42998 60401 10180 20095 39924 40120 57010 86030 555 10023"
"12:00 PM EEST on October 04, 2016","2016","10","04","12","00","Europe/Kiev","9:00 AM GMT on October 04, 2016","2016","10","04","09","00","UTC","18.0","64.4","10.0","50.0","59","10.8","6.7","-9999.0","-9999.0","80","East","-9999.0","-9999.0","1012","29.89","-999","-999","-9999","-9999","-9999.00","-9999.00","Clear","clear","0","0","0","0","0","0","METAR UKKK 040900Z 08003MPS CAVOK 18/10 Q1012 R08/CLRD70 NOSIG"
"12:30 PM EEST on October 04, 2016","2016","10","04","12","30","Europe/Kiev","9:30 AM GMT on October 04, 2016","2016","10","04","09","30","UTC","20.0","68.0","9.0","48.2","49","10.8","6.7","-9999.0","-9999.0","70","ENE","-9999.0","-9999.0","1012","29.89","-999","-999","-9999","-9999","-9999.00","-9999.00","Clear","clear","0","0","0","0","0","0","METAR UKKK 040930Z 07003MPS 030V100 CAVOK 20/09 Q1012 R08/CLRD70 NOSIG"
"1:00 PM EEST on October 04, 2016","2016","10","04","13","00","Europe/Kiev","10:00 AM GMT on October 04, 2016","2016","10","04","10","00","UTC","20.0","68.0","10.0","50.0","52","10.8","6.7","-9999.0","-9999.0","60","ENE","-9999.0","-9999.0","1011","29.86","-999","-999","-9999","-9999","-9999.00","-9999.00","Clear","clear","0","0","0","0","0","0","METAR UKKK 041000Z 06003MPS CAVOK 20/10 Q1011 R08/CLRD70 NOSIG"
"1:30 PM EEST on October 04, 2016","2016","10","04","13","30","Europe/Kiev","10:30 AM GMT on October 04, 2016","2016","10","04","10","30","UTC","20.0","68.0","10.0","50.0","52","10.8","6.7","-9999.0","-9999.0","70","ENE","-9999.0","-9999.0","1011","29.86","-999","-999","-9999","-9999","-9999.00","-9999.00","Clear","clear","0","0","0","0","0","0","METAR UKKK 041030Z 07003MPS 030V100 CAVOK 20/10 Q1011 R08/CLRD70 NOSIG"
"2:00 PM EEST on October 04, 2016","2016","10","04","14","00","Europe/Kiev","11:00 AM GMT on October 04, 2016","2016","10","04","11","00","UTC","21.0","69.8","11.0","51.8","53","7.2","4.5","-9999.0","-9999.0","50","NE","-9999.0","-9999.0","1011","29.86","-999","-999","-9999","-9999","-9999.00","-9999.00","Clear","clear","0","0","0","0","0","0","METAR UKKK 041100Z 05002MPS 010V110 CAVOK 21/11 Q1011 R08/CLRD70 NOSIG"
"2:30 PM EEST on October 04, 2016","2016","10","04","14","30","Europe/Kiev","11:30 AM GMT on October 04, 2016","2016","10","04","11","30","UTC","20.0","68.0","11.0","51.8","56","14.4","8.9","-9999.0","-9999.0","50","NE","-9999.0","-9999.0","1011","29.86","-999","-999","-9999","-9999","-9999.00","-9999.00","Clear","clear","0","0","0","0","0","0","METAR UKKK 041130Z 05004MPS CAVOK 20/11 Q1011 R08/CLRD70 NOSIG"
"3:00 PM EEST on October 04, 2016","2016","10","04","15","00","Europe/Kiev","12:00 PM GMT on October 04, 2016","2016","10","04","12","00","UTC","20","67","11","51","47","10.8","6.7","","","50","NE","20","12","1011","29.85","-999","-999","-9999","-9999","","","Mostly Cloudy","mostlycloudy","0","0","0","0","0","0","AAXX 04121 33345 32998 70503 10196 20108 39912 40106 57012 87030 555 10032"
"3:00 PM EEST on October 04, 2016","2016","10","04","15","00","Europe/Kiev","12:00 PM GMT on October 04, 2016","2016","10","04","12","00","UTC","19.0","66.2","11.0","51.8","60","14.4","8.9","-9999.0","-9999.0","30","NNE","-9999.0","-9999.0","1011","29.86","-999","-999","-9999","-9999","-9999.00","-9999.00","Clear","clear","0","0","0","0","0","0","METAR UKKK 041200Z 03004MPS CAVOK 19/11 Q1011 R08/CLRD70 NOSIG"
"3:30 PM EEST on October 04, 2016","2016","10","04","15","30","Europe/Kiev","12:30 PM GMT on October 04, 2016","2016","10","04","12","30","UTC","19.0","66.2","11.0","51.8","60","14.4","8.9","-9999.0","-9999.0","40","NE","-9999.0","-9999.0","1010","29.83","-999","-999","-9999","-9999","-9999.00","-9999.00","Clear","clear","0","0","0","0","0","0","METAR UKKK 041230Z 04004MPS 010V070 CAVOK 19/11 Q1010 R08/CLRD70 NOSIG"
"4:00 PM EEST on October 04, 2016","2016","10","04","16","00","Europe/Kiev","1:00 PM GMT on October 04, 2016","2016","10","04","13","00","UTC","19.0","66.2","11.0","51.8","60","10.8","6.7","-9999.0","-9999.0","50","NE","-9999.0","-9999.0","1010","29.83","-999","-999","-9999","-9999","-9999.00","-9999.00","Clear","clear","0","0","0","0","0","0","METAR UKKK 041300Z 05003MPS CAVOK 19/11 Q1010 R08/CLRD70 NOSIG"
"4:30 PM EEST on October 04, 2016","2016","10","04","16","30","Europe/Kiev","1:30 PM GMT on October 04, 2016","2016","10","04","13","30","UTC","19.0","66.2","11.0","51.8","60","14.4","8.9","-9999.0","-9999.0","30","NNE","-9999.0","-9999.0","1010","29.83","-999","-999","-9999","-9999","-9999.00","-9999.00","Clear","clear","0","0","0","0","0","0","METAR UKKK 041330Z 03004MPS CAVOK 19/11 Q1010 R08/CLRD70 NOSIG"
"5:00 PM EEST on October 04, 2016","2016","10","04","17","00","Europe/Kiev","2:00 PM GMT on October 04, 2016","2016","10","04","14","00","UTC","18.0","64.4","11.0","51.8","64","14.4","8.9","-9999.0","-9999.0","20","NNE","-9999.0","-9999.0","1010","29.83","-999","-999","-9999","-9999","-9999.00","-9999.00","Clear","clear","0","0","0","0","0","0","METAR UKKK 041400Z 02004MPS CAVOK 18/11 Q1010 R08/CLRD70 NOSIG"
"5:30 PM EEST on October 04, 2016","2016","10","04","17","30","Europe/Kiev","2:30 PM GMT on October 04, 2016","2016","10","04","14","30","UTC","18.0","64.4","11.0","51.8","64","14.4","8.9","-9999.0","-9999.0","20","NNE","-9999.0","-9999.0","1009","29.80","-999","-999","-9999","-9999","-9999.00","-9999.00","Clear","clear","0","0","0","0","0","0","METAR UKKK 041430Z 02004MPS CAVOK 18/11 Q1009 R08/CLRD70 NOSIG"
"6:00 PM EEST on October 04, 2016","2016","10","04","18","00","Europe/Kiev","3:00 PM GMT on October 04, 2016","2016","10","04","15","00","UTC","18","65","12","53","56","7.2","4.5","","","30","NNE","20","12","1009","29.81","-999","-999","-9999","-9999","","","Mostly Cloudy","mostlycloudy","0","0","0","0","0","0","AAXX 04151 33345 42998 70302 10182 20117 39898 40093 57014 87070 555 10017"
"6:00 PM EEST on October 04, 2016","2016","10","04","18","00","Europe/Kiev","3:00 PM GMT on October 04, 2016","2016","10","04","15","00","UTC","17.0","62.6","12.0","53.6","72","14.4","8.9","-9999.0","-9999.0","20","NNE","-9999.0","-9999.0","1009","29.80","-999","-999","-9999","-9999","-9999.00","-9999.00","Clear","clear","0","0","0","0","0","0","METAR UKKK 041500Z 02004MPS CAVOK 17/12 Q1009 R08/CLRD70 NOSIG"
"6:30 PM EEST on October 04, 2016","2016","10","04","18","30","Europe/Kiev","3:30 PM GMT on October 04, 2016","2016","10","04","15","30","UTC","17.0","62.6","12.0","53.6","72","21.6","13.4","-9999.0","-9999.0","20","NNE","-9999.0","-9999.0","1009","29.80","-999","-999","-9999","-9999","-9999.00","-9999.00","Clear","clear","0","0","0","0","0","0","METAR UKKK 041530Z 02006MPS CAVOK 17/12 Q1009 R08/CLRD70 NOSIG"
"7:00 PM EEST on October 04, 2016","2016","10","04","19","00","Europe/Kiev","4:00 PM GMT on October 04, 2016","2016","10","04","16","00","UTC","17.0","62.6","12.0","53.6","72","21.6","13.4","-9999.0","-9999.0","30","NNE","-9999.0","-9999.0","1009","29.80","-999","-999","-9999","-9999","-9999.00","-9999.00","Clear","clear","0","0","0","0","0","0","METAR UKKK 041600Z 03006MPS CAVOK 17/12 Q1009 R08/CLRD70 NOSIG"
"7:30 PM EEST on October 04, 2016","2016","10","04","19","30","Europe/Kiev","4:30 PM GMT on October 04, 2016","2016","10","04","16","30","UTC","17.0","62.6","12.0","53.6","72","21.6","13.4","-9999.0","-9999.0","40","NE","-9999.0","-9999.0","1009","29.80","-999","-999","-9999","-9999","-9999.00","-9999.00","Clear","clear","0","0","0","0","0","0","METAR UKKK 041630Z 04006MPS CAVOK 17/12 Q1009 R08/CLRD70 NOSIG"
"8:00 PM EEST on October 04, 2016","2016","10","04","20","00","Europe/Kiev","5:00 PM GMT on October 04, 2016","2016","10","04","17","00","UTC","16.0","60.8","12.0","53.6","77","21.6","13.4","-9999.0","-9999.0","30","NNE","-9999.0","-9999.0","1009","29.80","-999","-999","-9999","-9999","-9999.00","-9999.00","Clear","clear","0","0","0","0","0","0","METAR UKKK 041700Z 03006MPS CAVOK 16/12 Q1009 R08/CLRD70 NOSIG"
"8:30 PM EEST on October 04, 2016","2016","10","04","20","30","Europe/Kiev","5:30 PM GMT on October 04, 2016","2016","10","04","17","30","UTC","16.0","60.8","13.0","55.4","82","25.2","15.7","-9999.0","-9999.0","30","NNE","-9999.0","-9999.0","1008","29.77","-999","-999","-9999","-9999","-9999.00","-9999.00","Clear","clear","0","0","0","0","0","0","METAR UKKK 041730Z 03007MPS CAVOK 16/13 Q1008 R08/CLRD70 NOSIG"
"9:00 PM EEST on October 04, 2016","2016","10","04","21","00","Europe/Kiev","6:00 PM GMT on October 04, 2016","2016","10","04","18","00","UTC","16","61","13","55","76","10.8","6.7","","","50","NE","20","12","1008","29.78","-999","-999","-9999","-9999","","","Overcast","cloudy","0","0","0","0","0","0","AAXX 04181 33345 32498 80503 10160 20130 39887 40083 57011 886// 333 10210 88715 555 10015"
"9:00 PM EEST on October 04, 2016","2016","10","04","21","00","Europe/Kiev","6:00 PM GMT on October 04, 2016","2016","10","04","18","00","UTC","15.0","59.0","13.0","55.4","88","18.0","11.2","-9999.0","-9999.0","40","NE","10.0","6.2","1008","29.77","-999","-999","-9999","-9999","-9999.00","-9999.00","Mostly Cloudy","mostlycloudy","0","0","0","0","0","0","METAR UKKK 041800Z 04005MPS 010V070 9999 FEW033CB BKN060 15/13 Q1008 R08/CLRD70 TEMPO 2000 -SHRA BR SCT020CB"
"9:30 PM EEST on October 04, 2016","2016","10","04","21","30","Europe/Kiev","6:30 PM GMT on October 04, 2016","2016","10","04","18","30","UTC","15.0","59.0","13.0","55.4","88","18.0","11.2","-9999.0","-9999.0","40","NE","10.0","6.2","1008","29.77","-999","-999","-9999","-9999","-9999.00","-9999.00","Light Rain Showers","rain","0","1","0","0","0","0","METAR UKKK 041830Z 04005MPS 9999 -SHRA SCT033CB BKN060 15/13 Q1008 R08/290158 TEMPO 2000 -SHRA BR SCT020CB"
"10:00 PM EEST on October 04, 2016","2016","10","04","22","00","Europe/Kiev","7:00 PM GMT on October 04, 2016","2016","10","04","19","00","UTC","14.0","57.2","13.0","55.4","94","14.4","8.9","-9999.0","-9999.0","50","NE","6.0","3.7","1008","29.77","-999","-999","-9999","-9999","-9999.00","-9999.00","Light Rain Showers","rain","0","1","0","0","0","0","METAR UKKK 041900Z 05004MPS 6000 -SHRA SCT030CB BKN050 14/13 Q1008 R08/290158 TEMPO 2000 -SHRA BR BKN020CB"
"10:30 PM EEST on October 04, 2016","2016","10","04","22","30","Europe/Kiev","7:30 PM GMT on October 04, 2016","2016","10","04","19","30","UTC","14.0","57.2","13.0","55.4","94","10.8","6.7","-9999.0","-9999.0","60","ENE","6.0","3.7","1008","29.77","-999","-999","-9999","-9999","-9999.00","-9999.00","Light Rain Showers","rain","0","1","0","0","0","0","METAR UKKK 041930Z 06003MPS 6000 -SHRA SCT030CB BKN046 14/13 Q1008 R08/290256 TEMPO 2000 -SHRA BR BKN020CB"
"11:00 PM EEST on October 04, 2016","2016","10","04","23","00","Europe/Kiev","8:00 PM GMT on October 04, 2016","2016","10","04","20","00","UTC","14.0","57.2","13.0","55.4","94","10.8","6.7","-9999.0","-9999.0","60","ENE","-9999.0","-9999.0","1008","29.77","-999","-999","-9999","-9999","-9999.00","-9999.00","Light Rain Showers","rain","0","1","0","0","0","0","METAR UKKK 042000Z 06003MPS 4700 -SHRA BR FEW009 SCT030CB BKN046 14/13 Q1008 R08/290256 TEMPO 1000 -SHRA BR BKN005 BKN020CB"
"11:30 PM EEST on October 04, 2016","2016","10","04","23","30","Europe/Kiev","8:30 PM GMT on October 04, 2016","2016","10","04","20","30","UTC","14.0","57.2","14.0","57.2","100","10.8","6.7","-9999.0","-9999.0","60","ENE","-9999.0","-9999.0","1007","29.74","-999","-999","-9999","-9999","-9999.00","-9999.00","Light Rain Showers","rain","0","1","0","0","0","0","METAR UKKK 042030Z 06003MPS 3900 -SHRA BR FEW009 SCT025CB BKN046 14/14 Q1007 R08/290256 TEMPO 1000 -SHRA BR BKN005 BKN020CB"
"12:00 AM EEST on October 05, 2016","2016","10","05","00","00","Europe/Kiev","9:00 PM GMT on October 04, 2016","2016","10","04","21","00","UTC","14","57","13","55","92","0.0","0.0","","","","","10","6","1007","29.75","-999","-999","-9999","-9999","","","Light Rain","rain","0","1","0","0","0","0","AAXX 04211 33345 41497 80000 10139 20130 39877 40074 57010 76162 8872/ 333 88712 555 11014"
"12:00 AM EEST on October 05, 2016","2016","10","05","00","00","Europe/Kiev","9:00 PM GMT on October 04, 2016","2016","10","04","21","00","UTC","14.0","57.2","13.0","55.4","94","10.8","6.7","-9999.0","-9999.0","80","East","2.9","1.8","1007","29.74","-999","-999","-9999","-9999","-9999.00","-9999.00","Light Rain Showers","rain","0","1","0","0","0","0","METAR UKKK 042100Z 08003MPS 2900 -SHRA BR FEW007 SCT026CB BKN050 14/13 Q1007 R08/290354 TEMPO 1000 -SHRA BR BKN005 BKN020CB"
"12:30 AM EEST on October 05, 2016","2016","10","05","00","30","Europe/Kiev","9:30 PM GMT on October 04, 2016","2016","10","04","21","30","UTC","14.0","57.2","13.0","55.4","94","10.8","6.7","-9999.0","-9999.0","70","ENE","2.9","1.8","1007","29.74","-999","-999","-9999","-9999","-9999.00","-9999.00","Light Rain Showers","rain","0","1","0","0","0","0","METAR UKKK 042130Z 07003MPS 2900 -SHRA BR SCT030CB BKN053 14/13 Q1007 R08/290354 TEMPO 1000 -SHRA BR BKN005 BKN020CB"
"1:00 AM EEST on October 05, 2016","2016","10","05","01","00","Europe/Kiev","10:00 PM GMT on October 04, 2016","2016","10","04","22","00","UTC","14.0","57.2","13.0","55.4","94","18.0","11.2","-9999.0","-9999.0","50","NE","-9999.0","-9999.0","1006","29.71","-999","-999","-9999","-9999","-9999.00","-9999.00","Light Rain Showers","rain","0","1","0","0","0","0","METAR UKKK 042200Z 05005MPS 3600 -SHRA BR SCT030CB BKN053 14/13 Q1006 R08/290354 TEMPO 1000 -SHRA BR BKN005 BKN020CB"
"1:30 AM EEST on October 05, 2016","2016","10","05","01","30","Europe/Kiev","10:30 PM GMT on October 04, 2016","2016","10","04","22","30","UTC","14.0","57.2","13.0","55.4","94","3.6","2.2","-9999.0","-9999.0","0","Variable","5.0","3.1","1006","29.71","-999","-999","-9999","-9999","-9999.00","-9999.00","Light Rain Showers","rain","0","1","0","0","0","0","METAR UKKK 042230Z VRB01MPS 5000 -SHRA BR FEW004 SCT033CB BKN053 14/13 Q1006 R08/290354 TEMPO 1000 -SHRA BR BKN002 BKN020CB"
"1:55 AM EEST on October 05, 2016","2016","10","05","01","55","Europe/Kiev","10:55 PM GMT on October 04, 2016","2016","10","04","22","55","UTC","13.0","55.4","13.0","55.4","100","7.2","4.5","-9999.0","-9999.0","60","ENE","3.5","2.2","1006","29.71","-999","-999","-9999","-9999","-9999.00","-9999.00","Mostly Cloudy","mostlycloudy","0","0","0","0","0","0","SPECI UKKK 042255Z 06002MPS 3500 BR BKN003 13/13 Q1006 R08/290354 TEMPO 0400 FG BKN001"
"2:00 AM EEST on October 05, 2016","2016","10","05","02","00","Europe/Kiev","11:00 PM GMT on October 04, 2016","2016","10","04","23","00","UTC","13.0","55.4","13.0","55.4","100","7.2","4.5","-9999.0","-9999.0","80","East","-9999.0","-9999.0","1006","29.71","-999","-999","-9999","-9999","-9999.00","-9999.00","Mostly Cloudy","mostlycloudy","0","0","0","0","0","0","METAR UKKK 042300Z 08002MPS 040V160 3800 BR BKN003 13/13 Q1006 R08/290354 TEMPO 0400 FG BKN001"
"2:30 AM EEST on October 05, 2016","2016","10","05","02","30","Europe/Kiev","11:30 PM GMT on October 04, 2016","2016","10","04","23","30","UTC","13.0","55.4","13.0","55.4","100","10.8","6.7","-9999.0","-9999.0","90","East","2.7","1.7","1006","29.71","-999","-999","-9999","-9999","-9999.00","-9999.00","Mostly Cloudy","mostlycloudy","0","0","0","0","0","0","METAR UKKK 042330Z 09003MPS 2700 BR BKN004 13/13 Q1006 R08/290354 TEMPO 0400 FG BKN001"
"3:00 AM EEST on October 05, 2016","2016","10","05","03","00","Europe/Kiev","12:00 AM GMT on October 05, 2016","2016","10","05","00","00","UTC","13","56","13","55","96","3.6","2.2","","","170","South","4","2","1006","29.72","-999","-999","-9999","-9999","","","Mist","hazy","0","0","0","0","0","0","AAXX 05001 33345 /1496 81701 10134 20129 39867 40064 57010 71062 887// 333 88710 555 11014 60061"
"3:00 AM EEST on October 05, 2016","2016","10","05","03","00","Europe/Kiev","12:00 AM GMT on October 05, 2016","2016","10","05","00","00","UTC","13.0","55.4","13.0","55.4","100","10.8","6.7","-9999.0","-9999.0","100","East","2.1","1.3","1006","29.71","-999","-999","-9999","-9999","-9999.00","-9999.00","Overcast","cloudy","0","0","0","0","0","0","METAR UKKK 050000Z 10003MPS 2100 BR OVC003 13/13 Q1006 R08/290354 BECMG 0400 FG VV001"
"3:30 AM EEST on October 05, 2016","2016","10","05","03","30","Europe/Kiev","12:30 AM GMT on October 05, 2016","2016","10","05","00","30","UTC","14.0","57.2","13.0","55.4","94","14.4","8.9","-9999.0","-9999.0","100","East","2.6","1.6","1005","29.68","-999","-999","-9999","-9999","-9999.00","-9999.00","Overcast","cloudy","0","0","0","0","0","0","METAR UKKK 050030Z 10004MPS 2600 BR OVC003 14/13 Q1005 R08/290256 BECMG 0400 FG VV001"
"4:00 AM EEST on October 05, 2016","2016","10","05","04","00","Europe/Kiev","1:00 AM GMT on October 05, 2016","2016","10","05","01","00","UTC","14.0","57.2","13.0","55.4","94","14.4","8.9","-9999.0","-9999.0","120","ESE","2.9","1.8","1006","29.71","-999","-999","-9999","-9999","-9999.00","-9999.00","Overcast","cloudy","0","0","0","0","0","0","METAR UKKK 050100Z 12004MPS 2900 BR OVC003 14/13 Q1006 R08/290256 BECMG 0400 FG VV001"
"4:30 AM EEST on October 05, 2016","2016","10","05","04","30","Europe/Kiev","1:30 AM GMT on October 05, 2016","2016","10","05","01","30","UTC","14.0","57.2","14.0","57.2","100","10.8","6.7","-9999.0","-9999.0","130","SE","2.2","1.4","1006","29.71","-999","-999","-9999","-9999","-9999.00","-9999.00","Overcast","cloudy","0","0","0","0","0","0","METAR UKKK 050130Z 13003MPS 100V160 2200 BR OVC002 14/14 Q1006 R08/290256 BECMG 0400 FG VV001"
"5:00 AM EEST on October 05, 2016","2016","10","05","05","00","Europe/Kiev","2:00 AM GMT on October 05, 2016","2016","10","05","02","00","UTC","14.0","57.2","14.0","57.2","100","7.2","4.5","-9999.0","-9999.0","160","SSE","2.6","1.6","1006","29.71","-999","-999","-9999","-9999","-9999.00","-9999.00","Overcast","cloudy","0","0","0","0","0","0","METAR UKKK 050200Z 16002MPS 110V200 2600 BR OVC003 14/14 Q1006 R08/290256 BECMG 0400 FG VV001"
"5:30 AM EEST on October 05, 2016","2016","10","05","05","30","Europe/Kiev","2:30 AM GMT on October 05, 2016","2016","10","05","02","30","UTC","14.0","57.2","14.0","57.2","100","7.2","4.5","-9999.0","-9999.0","150","SSE","-9999.0","-9999.0","1006","29.71","-999","-999","-9999","-9999","-9999.00","-9999.00","Overcast","cloudy","0","0","0","0","0","0","METAR UKKK 050230Z 15002MPS 090V220 3100 BR OVC004 14/14 Q1006 R08/290256 TEMPO 1500 BR BKN002"
"6:00 AM EEST on October 05, 2016","2016","10","05","06","00","Europe/Kiev","3:00 AM GMT on October 05, 2016","2016","10","05","03","00","UTC","14","57","14","57","100","7.2","4.5","","","190","South","0.5","0","1007","29.74","-999","-999","-9999","-9999","","","Heavy Fog","fog","1","0","0","0","0","0","AAXX 05031 33345 41/93 91902 10141 20141 39873 40070 53006 74542 555 11014"
"6:00 AM EEST on October 05, 2016","2016","10","05","06","00","Europe/Kiev","3:00 AM GMT on October 05, 2016","2016","10","05","03","00","UTC","14.0","57.2","13.0","55.4","94","7.2","4.5","-9999.0","-9999.0","170","South","7.0","4.3","1007","29.74","-999","-999","-9999","-9999","-9999.00","-9999.00","Overcast","cloudy","0","0","0","0","0","0","METAR UKKK 050300Z 17002MPS 110V220 7000 BKN007 OVC021 14/13 Q1007 R08/290256 TEMPO 1500 BR BKN003"
"6:30 AM EEST on October 05, 2016","2016","10","05","06","30","Europe/Kiev","3:30 AM GMT on October 05, 2016","2016","10","05","03","30","UTC","13.0","55.4","13.0","55.4","100","3.6","2.2","-9999.0","-9999.0","0","Variable","9.0","5.6","1007","29.74","-999","-999","-9999","-9999","-9999.00","-9999.00","Mostly Cloudy","mostlycloudy","0","0","0","0","0","0","METAR UKKK 050330Z VRB01MPS 9000 SCT007 BKN049 13/13 Q1007 R08/290158 TEMPO 2000 BR BKN005"
"7:00 AM EEST on October 05, 2016","2016","10","05","07","00","Europe/Kiev","4:00 AM GMT on October 05, 2016","2016","10","05","04","00","UTC","13.0","55.4","12.0","53.6","94","7.2","4.5","-9999.0","-9999.0","210","SSW","10.0","6.2","1007","29.74","-999","-999","-9999","-9999","-9999.00","-9999.00","Mostly Cloudy","mostlycloudy","0","0","0","0","0","0","METAR UKKK 050400Z 21002MPS 170V250 9999 FEW016 BKN036 13/12 Q1007 R08/290158 NOSIG"
"7:30 AM EEST on October 05, 2016","2016","10","05","07","30","Europe/Kiev","4:30 AM GMT on October 05, 2016","2016","10","05","04","30","UTC","13.0","55.4","12.0","53.6","94","7.2","4.5","-9999.0","-9999.0","210","SSW","10.0","6.2","1007","29.74","-999","-999","-9999","-9999","-9999.00","-9999.00","Mostly Cloudy","mostlycloudy","0","0","0","0","0","0","METAR UKKK 050430Z 21002MPS 170V260 9999 FEW011 SCT046 BKN100 13/12 Q1007 R08/290158 NOSIG"
"8:00 AM EEST on October 05, 2016","2016","10","05","08","00","Europe/Kiev","5:00 AM GMT on October 05, 2016","2016","10","05","05","00","UTC","13.0","55.4","12.0","53.6","94","3.6","2.2","-9999.0","-9999.0","0","Variable","10.0","6.2","1008","29.77","-999","-999","-9999","-9999","-9999.00","-9999.00","Mostly Cloudy","mostlycloudy","0","0","0","0","0","0","METAR UKKK 050500Z VRB01MPS 9999 FEW009 SCT046 BKN100 13/12 Q1008 R08/290158 NOSIG"
"8:30 AM EEST on October 05, 2016","2016","10","05","08","30","Europe/Kiev","5:30 AM GMT on October 05, 2016","2016","10","05","05","30","UTC","13.0","55.4","12.0","53.6","94","7.2","4.5","-9999.0","-9999.0","240","WSW","10.0","6.2","1008","29.77","-999","-999","-9999","-9999","-9999.00","-9999.00","Overcast","cloudy","0","0","0","0","0","0","METAR UKKK 050530Z 24002MPS 210V270 9999 BKN009 OVC050 13/12 Q1008 R26/290158 NOSIG"
"9:00 AM EEST on October 05, 2016","2016","10","05","09","00","Europe/Kiev","6:00 AM GMT on October 05, 2016","2016","10","05","06","00","UTC","13","55","12","53","92","3.6","2.2","","","250","WSW","4","2","1008","29.78","-999","-999","-9999","-9999","","","Mist","hazy","0","0","0","0","0","0","AAXX 05061 33345 11396 82501 10130 20119 39886 40084 52013 60062 71042 887// 333 20127 88706 555 11014"
"9:00 AM EEST on October 05, 2016","2016","10","05","09","00","Europe/Kiev","6:00 AM GMT on October 05, 2016","2016","10","05","06","00","UTC","13.0","55.4","12.0","53.6","94","7.2","4.5","-9999.0","-9999.0","250","WSW","10.0","6.2","1008","29.77","-999","-999","-9999","-9999","-9999.00","-9999.00","Overcast","cloudy","0","0","0","0","0","0","METAR UKKK 050600Z 25002MPS 9999 BKN009 OVC036 13/12 Q1008 R26/290158 NOSIG"
"9:30 AM EEST on October 05, 2016","2016","10","05","09","30","Europe/Kiev","6:30 AM GMT on October 05, 2016","2016","10","05","06","30","UTC","13.0","55.4","11.0","51.8","88","7.2","4.5","-9999.0","-9999.0","280","West","10.0","6.2","1008","29.77","-999","-999","-9999","-9999","-9999.00","-9999.00","Overcast","cloudy","0","0","0","0","0","0","METAR UKKK 050630Z 28002MPS 9999 BKN010 OVC036 13/11 Q1008 R26/290158 NOSIG"
"10:00 AM EEST on October 05, 2016","2016","10","05","10","00","Europe/Kiev","7:00 AM GMT on October 05, 2016","2016","10","05","07","00","UTC","12.0","53.6","12.0","53.6","100","0.0","0.0","-9999.0","-9999.0","0","North","7.0","4.3","1008","29.77","-999","-999","-9999","-9999","-9999.00","-9999.00","Light Rain Showers","rain","0","1","0","0","0","0","METAR UKKK 050700Z 00000MPS 7000 -SHRA SCT023CB OVC053 12/12 Q1008 R26/290158 NOSIG"
"10:30 AM EEST on October 05, 2016","2016","10","05","10","30","Europe/Kiev","7:30 AM GMT on October 05, 2016","2016","10","05","07","30","UTC","12.0","53.6","12.0","53.6","100","3.6","2.2","-9999.0","-9999.0","240","WSW","7.0","4.3","1008","29.77","-999","-999","-9999","-9999","-9999.00","-9999.00","Light Rain Showers","rain","0","1","0","0","0","0","METAR UKKK 050730Z 24001MPS 7000 -SHRA SCT023CB OVC053 12/12 Q1008 R26/290355 NOSIG"
"11:00 AM EEST on October 05, 2016","2016","10","05","11","00","Europe/Kiev","8:00 AM GMT on October 05, 2016","2016","10","05","08","00","UTC","12.0","53.6","12.0","53.6","100","0.0","0.0","-9999.0","-9999.0","0","North","4.0","2.5","1009","29.80","-999","-999","-9999","-9999","-9999.00","-9999.00","Light Rain Showers","rain","0","1","0","0","0","0","METAR UKKK 050800Z 00000MPS 4000 -SHRA BR SCT025CB OVC053 12/12 Q1009 R26/290355 NOSIG"
"11:30 AM EEST on October 05, 2016","2016","10","05","11","30","Europe/Kiev","8:30 AM GMT on October 05, 2016","2016","10","05","08","30","UTC","12.0","53.6","12.0","53.6","100","3.6","2.2","-9999.0","-9999.0","0","Variable","-9999.0","-9999.0","1009","29.80","-999","-999","-9999","-9999","-9999.00","-9999.00","Light Rain Showers","rain","0","1","0","0","0","0","METAR UKKK 050830Z VRB01MPS 4400 -SHRA BR SCT025CB OVC053 12/12 Q1009 R26/290355 NOSIG"
"12:00 PM EEST on October 05, 2016","2016","10","05","12","00","Europe/Kiev","9:00 AM GMT on October 05, 2016","2016","10","05","09","00","UTC","13","55","12","54","94","3.6","2.2","","","310","NW","1","1","1009","29.80","-999","-999","-9999","-9999","","","Rain","rain","0","1","0","0","0","0","AAXX 05091 33345 41394 83101 10127 20121 39892 40091 52006 76362 8872/ 555 11013"
"12:00 PM EEST on October 05, 2016","2016","10","05","12","00","Europe/Kiev","9:00 AM GMT on October 05, 2016","2016","10","05","09","00","UTC","12.0","53.6","12.0","53.6","100","10.8","6.7","-9999.0","-9999.0","270","West","-9999.0","-9999.0","1009","29.80","-999","-999","-9999","-9999","-9999.00","-9999.00","Light Rain Showers","rain","0","1","0","0","0","0","METAR UKKK 050900Z 27003MPS 4200 -SHRA BR FEW008 SCT022CB OVC046 12/12 Q1009 R26/290355 NOSIG"
"1:30 PM EEST on October 05, 2016","2016","10","05","13","30","Europe/Kiev","10:30 AM GMT on October 05, 2016","2016","10","05","10","30","UTC","13.0","55.4","12.0","53.6","94","7.2","4.5","-9999.0","-9999.0","260","West","5.0","3.1","1009","29.80","-999","-999","-9999","-9999","-9999.00","-9999.00","Light Rain","rain","0","1","0","0","0","0","METAR UKKK 051030Z 26002MPS 5000 -RA BR SCT005 OVC019 13/12 Q1009 R26/290355 TEMPO BKN003"
"2:00 PM EEST on October 05, 2016","2016","10","05","14","00","Europe/Kiev","11:00 AM GMT on October 05, 2016","2016","10","05","11","00","UTC","13.0","55.4","12.0","53.6","94","10.8","6.7","-9999.0","-9999.0","290","WNW","9.0","5.6","1010","29.83","-999","-999","-9999","-9999","-9999.00","-9999.00","Light Rain","rain","0","1","0","0","0","0","METAR UKKK 051100Z 29003MPS 9000 -RA SCT007 OVC043 13/12 Q1010 R26/290355 TEMPO BKN003"
"2:30 PM EEST on October 05, 2016","2016","10","05","14","30","Europe/Kiev","11:30 AM GMT on October 05, 2016","2016","10","05","11","30","UTC","13.0","55.4","12.0","53.6","94","10.8","6.7","-9999.0","-9999.0","280","West","10.0","6.2","1009","29.80","-999","-999","-9999","-9999","-9999.00","-9999.00","Light Rain","rain","0","1","0","0","0","0","METAR UKKK 051130Z 28003MPS 9999 -RA SCT007 OVC043 13/12 Q1009 R26/290355 TEMPO BKN005"
"3:00 PM EEST on October 05, 2016","2016","10","05","15","00","Europe/Kiev","12:00 PM GMT on October 05, 2016","2016","10","05","12","00","UTC","13","55","12","53","91","7.2","4.5","","","330","NNW","4","2","1010","29.81","-999","-999","-9999","-9999","","","Light Rain","rain","0","1","0","0","0","0","AAXX 05121 33345 /1496 83302 10126 20117 39896 40095 51004 76162 8652/ 555 11013 60111"
"3:00 PM EEST on October 05, 2016","2016","10","05","15","00","Europe/Kiev","12:00 PM GMT on October 05, 2016","2016","10","05","12","00","UTC","12.0","53.6","12.0","53.6","100","14.4","8.9","-9999.0","-9999.0","280","West","7.0","4.3","1009","29.80","-999","-999","-9999","-9999","-9999.00","-9999.00","Light Rain","rain","0","1","0","0","0","0","METAR UKKK 051200Z 28004MPS 7000 -RA SCT007 OVC043 12/12 Q1009 R26/290355 TEMPO BKN005"
"3:30 PM EEST on October 05, 2016","2016","10","05","15","30","Europe/Kiev","12:30 PM GMT on October 05, 2016","2016","10","05","12","30","UTC","12.0","53.6","11.0","51.8","94","10.8","6.7","-9999.0","-9999.0","300","WNW","9.0","5.6","1009","29.80","-999","-999","-9999","-9999","-9999.00","-9999.00","Light Rain Showers","rain","0","1","0","0","0","0","METAR UKKK 051230Z 30003MPS 9000 -SHRA SCT021CB OVC050 12/11 Q1009 R26/290355 NOSIG"
"4:00 PM EEST on October 05, 2016","2016","10","05","16","00","Europe/Kiev","1:00 PM GMT on October 05, 2016","2016","10","05","13","00","UTC","12.0","53.6","10.0","50.0","88","10.8","6.7","-9999.0","-9999.0","320","NW","10.0","6.2","1009","29.80","-999","-999","-9999","-9999","-9999.00","-9999.00","Light Rain Showers","rain","0","1","0","0","0","0","METAR UKKK 051300Z 32003MPS 9999 -SHRA SCT025CB OVC050 12/10 Q1009 R26/290355 NOSIG"
"4:30 PM EEST on October 05, 2016","2016","10","05","16","30","Europe/Kiev","1:30 PM GMT on October 05, 2016","2016","10","05","13","30","UTC","11.0","51.8","9.0","48.2","88","10.8","6.7","-9999.0","-9999.0","340","NNW","10.0","6.2","1009","29.80","-999","-999","-9999","-9999","-9999.00","-9999.00","Light Rain Showers","rain","0","1","0","0","0","0","METAR UKKK 051330Z 34003MPS 9999 -SHRA SCT025CB OVC056 11/09 Q1009 R26/290355 NOSIG"
"5:00 PM EEST on October 05, 2016","2016","10","05","17","00","Europe/Kiev","2:00 PM GMT on October 05, 2016","2016","10","05","14","00","UTC","11.0","51.8","10.0","50.0","94","10.8","6.7","-9999.0","-9999.0","320","NW","10.0","6.2","1009","29.80","-999","-999","-9999","-9999","-9999.00","-9999.00","Light Rain Showers","rain","0","1","0","0","0","0","METAR UKKK 051400Z 32003MPS 9999 -SHRA SCT025CB OVC052 11/10 Q1009 R26/290355 NOSIG"
"5:30 PM EEST on October 05, 2016","2016","10","05","17","30","Europe/Kiev","2:30 PM GMT on October 05, 2016","2016","10","05","14","30","UTC","11.0","51.8","10.0","50.0","94","10.8","6.7","-9999.0","-9999.0","300","WNW","10.0","6.2","1009","29.80","-999","-999","-9999","-9999","-9999.00","-9999.00","Light Rain Showers","rain","0","1","0","0","0","0","METAR UKKK 051430Z 30003MPS 9999 -SHRA SCT025CB OVC053 11/10 Q1009 R26/290355 NOSIG"
"6:00 PM EEST on October 05, 2016","2016","10","05","18","00","Europe/Kiev","3:00 PM GMT on October 05, 2016","2016","10","05","15","00","UTC","11","52","10","49","88","7.2","4.5","","","270","West","10","6","1010","29.84","-999","-999","-9999","-9999","","","Light Rain","rain","0","1","0","0","0","0","AAXX 05151 33345 41997 72702 10109 20097 39905 40105 53009 72162 87070 555 11012"
"6:00 PM EEST on October 05, 2016","2016","10","05","18","00","Europe/Kiev","3:00 PM GMT on October 05, 2016","2016","10","05","15","00","UTC","11.0","51.8","10.0","50.0","94","10.8","6.7","-9999.0","-9999.0","260","West","10.0","6.2","1010","29.83","-999","-999","-9999","-9999","-9999.00","-9999.00","Light Rain Showers","rain","0","1","0","0","0","0","METAR UKKK 051500Z 26003MPS 9999 -SHRA SCT022CB BKN100 11/10 Q1010 R26/290355 NOSIG"
"6:30 PM EEST on October 05, 2016","2016","10","05","18","30","Europe/Kiev","3:30 PM GMT on October 05, 2016","2016","10","05","15","30","UTC","11.0","51.8","10.0","50.0","94","7.2","4.5","-9999.0","-9999.0","260","West","10.0","6.2","1010","29.83","-999","-999","-9999","-9999","-9999.00","-9999.00","Light Rain Showers","rain","0","1","0","0","0","0","METAR UKKK 051530Z 26002MPS 9999 -SHRA SCT023CB BKN100 11/10 Q1010 R26/290355 NOSIG"
"7:00 PM EEST on October 05, 2016","2016","10","05","19","00","Europe/Kiev","4:00 PM GMT on October 05, 2016","2016","10","05","16","00","UTC","11.0","51.8","10.0","50.0","94","10.8","6.7","-9999.0","-9999.0","260","West","10.0","6.2","1010","29.83","-999","-999","-9999","-9999","-9999.00","-9999.00","Light Rain Showers","rain","0","1","0","0","0","0","METAR UKKK 051600Z 26003MPS 9999 -SHRA SCT026CB BKN066 11/10 Q1010 R26/290355 NOSIG"
"7:30 PM EEST on October 05, 2016","2016","10","05","19","30","Europe/Kiev","4:30 PM GMT on October 05, 2016","2016","10","05","16","30","UTC","11.0","51.8","10.0","50.0","94","10.8","6.7","-9999.0","-9999.0","270","West","10.0","6.2","1011","29.86","-999","-999","-9999","-9999","-9999.00","-9999.00","Mostly Cloudy","mostlycloudy","0","0","0","0","0","0","METAR UKKK 051630Z 27003MPS 9999 FEW030CB BKN100 11/10 Q1011 R26/290355 NOSIG"
"8:00 PM EEST on October 05, 2016","2016","10","05","20","00","Europe/Kiev","5:00 PM GMT on October 05, 2016","2016","10","05","17","00","UTC","10.0","50.0","10.0","50.0","100","7.2","4.5","-9999.0","-9999.0","230","SW","-9999.0","-9999.0","1011","29.86","-999","-999","-9999","-9999","-9999.00","-9999.00","Clear","clear","0","0","0","0","0","0","METAR UKKK 051700Z 23002MPS CAVOK 10/10 Q1011 R26/290355 NOSIG"
"8:30 PM EEST on October 05, 2016","2016","10","05","20","30","Europe/Kiev","5:30 PM GMT on October 05, 2016","2016","10","05","17","30","UTC","11.0","51.8","10.0","50.0","94","7.2","4.5","-9999.0","-9999.0","230","SW","10.0","6.2","1011","29.86","-999","-999","-9999","-9999","-9999.00","-9999.00","Mostly Cloudy","mostlycloudy","0","0","0","0","0","0","METAR UKKK 051730Z 23002MPS 9999 SCT011 BKN083 11/10 Q1011 R26/290355 NOSIG"
"9:00 PM EEST on October 05, 2016","2016","10","05","21","00","Europe/Kiev","6:00 PM GMT on October 05, 2016","2016","10","05","18","00","UTC","11","51","10","50","93","10.8","6.7","","","270","West","4","2","1012","29.89","-999","-999","-9999","-9999","","","Mist","hazy","0","0","0","0","0","0","AAXX 05181 33345 11596 72703 10108 20098 39920 40121 52015 60162 71062 84970 333 10132 555 11011"
"9:00 PM EEST on October 05, 2016","2016","10","05","21","00","Europe/Kiev","6:00 PM GMT on October 05, 2016","2016","10","05","18","00","UTC","11.0","51.8","10.0","50.0","94","21.6","13.4","-9999.0","-9999.0","260","West","9.0","5.6","1012","29.89","-999","-999","-9999","-9999","-9999.00","-9999.00","Mostly Cloudy","mostlycloudy","0","0","0","0","0","0","METAR UKKK 051800Z 26006MPS 9000 BKN007 11/10 Q1012 R26/290355 TEMPO BKN006"
"9:30 PM EEST on October 05, 2016","2016","10","05","21","30","Europe/Kiev","6:30 PM GMT on October 05, 2016","2016","10","05","18","30","UTC","10.0","50.0","8.0","46.4","87","25.2","15.7","-9999.0","-9999.0","250","WSW","10.0","6.2","1012","29.89","-999","-999","-9999","-9999","-9999.00","-9999.00","Mostly Cloudy","mostlycloudy","0","0","0","0","0","0","METAR UKKK 051830Z 25007MPS 9999 BKN010 10/08 Q1012 R26/290355 TEMPO BKN004"
"10:00 PM EEST on October 05, 2016","2016","10","05","22","00","Europe/Kiev","7:00 PM GMT on October 05, 2016","2016","10","05","19","00","UTC","9.0","48.2","7.0","44.6","87","21.6","13.4","-9999.0","-9999.0","260","West","10.0","6.2","1013","29.92","-999","-999","-9999","-9999","-9999.00","-9999.00","Mostly Cloudy","mostlycloudy","0","0","0","0","0","0","METAR UKKK 051900Z 26006MPS 9999 BKN010 09/07 Q1013 R26/290355 TEMPO BKN004"
"10:30 PM EEST on October 05, 2016","2016","10","05","22","30","Europe/Kiev","7:30 PM GMT on October 05, 2016","2016","10","05","19","30","UTC","8.0","46.4","7.0","44.6","93","14.4","8.9","-9999.0","-9999.0","250","WSW","10.0","6.2","1013","29.92","5.6","42.0","-9999","-9999","-9999.00","-9999.00","Mostly Cloudy","mostlycloudy","0","0","0","0","0","0","METAR UKKK 051930Z 25004MPS 9999 BKN030 08/07 Q1013 R26/290355 NOSIG"
"11:00 PM EEST on October 05, 2016","2016","10","05","23","00","Europe/Kiev","8:00 PM GMT on October 05, 2016","2016","10","05","20","00","UTC","8.0","46.4","7.0","44.6","93","14.4","8.9","-9999.0","-9999.0","260","West","10.0","6.2","1013","29.92","5.6","42.0","-9999","-9999","-9999.00","-9999.00","Mostly Cloudy","mostlycloudy","0","0","0","0","0","0","METAR UKKK 052000Z 26004MPS 9999 BKN030 08/07 Q1013 R26/290355 NOSIG"
"11:30 PM EEST on October 05, 2016","2016","10","05","23","30","Europe/Kiev","8:30 PM GMT on October 05, 2016","2016","10","05","20","30","UTC","8.0","46.4","6.0","42.8","87","14.4","8.9","-9999.0","-9999.0","250","WSW","10.0","6.2","1014","29.95","5.6","42.0","-9999","-9999","-9999.00","-9999.00","Mostly Cloudy","mostlycloudy","0","0","0","0","0","0","METAR UKKK 052030Z 25004MPS 9999 BKN023 08/06 Q1014 R26/290158 NOSIG"
"12:00 AM EEST on October 06, 2016","2016","10","06","00","00","Europe/Kiev","9:00 PM GMT on October 05, 2016","2016","10","05","21","00","UTC","8","46","6","43","84","3.6","2.2","","","280","West","10","6","1015","29.96","-999","-999","-9999","-9999","","","Overcast","cloudy","0","0","0","0","0","0","AAXX 05211 33345 42997 82801 10078 20060 39943 40146 52023 8807/ 555 11008"
"12:00 AM EEST on October 06, 2016","2016","10","06","00","00","Europe/Kiev","9:00 PM GMT on October 05, 2016","2016","10","05","21","00","UTC","8.0","46.4","6.0","42.8","87","10.8","6.7","-9999.0","-9999.0","250","WSW","10.0","6.2","1014","29.95","6.1","43.0","-9999","-9999","-9999.00","-9999.00","Mostly Cloudy","mostlycloudy","0","0","0","0","0","0","METAR UKKK 052100Z 25003MPS 9999 BKN023 08/06 Q1014 R26/290158 NOSIG"
"12:30 AM EEST on October 06, 2016","2016","10","06","00","30","Europe/Kiev","9:30 PM GMT on October 05, 2016","2016","10","05","21","30","UTC","8.0","46.4","6.0","42.8","87","10.8","6.7","-9999.0","-9999.0","240","WSW","10.0","6.2","1014","29.95","6.1","43.0","-9999","-9999","-9999.00","-9999.00","Mostly Cloudy","mostlycloudy","0","0","0","0","0","0","METAR UKKK 052130Z 24003MPS 9999 BKN022 08/06 Q1014 R26/290158 NOSIG"
"1:00 AM EEST on October 06, 2016","2016","10","06","01","00","Europe/Kiev","10:00 PM GMT on October 05, 2016","2016","10","05","22","00","UTC","7.0","44.6","6.0","42.8","93","10.8","6.7","-9999.0","-9999.0","250","WSW","10.0","6.2","1015","29.98","4.9","40.8","-9999","-9999","-9999.00","-9999.00","Scattered Clouds","partlycloudy","0","0","0","0","0","0","METAR UKKK 052200Z 25003MPS 9999 FEW010 SCT027 07/06 Q1015 R26/290158 NOSIG"
"1:30 AM EEST on October 06, 2016","2016","10","06","01","30","Europe/Kiev","10:30 PM GMT on October 05, 2016","2016","10","05","22","30","UTC","6.0","42.8","5.0","41.0","93","7.2","4.5","-9999.0","-9999.0","240","WSW","10.0","6.2","1015","29.98","4.5","40.2","-9999","-9999","-9999.00","-9999.00","Scattered Clouds","partlycloudy","0","0","0","0","0","0","METAR UKKK 052230Z 24002MPS 9999 SCT018 06/05 Q1015 R26/190060 NOSIG"
"2:00 AM EEST on October 06, 2016","2016","10","06","02","00","Europe/Kiev","11:00 PM GMT on October 05, 2016","2016","10","05","23","00","UTC","6.0","42.8","5.0","41.0","93","7.2","4.5","-9999.0","-9999.0","240","WSW","10.0","6.2","1015","29.98","4.5","40.2","-9999","-9999","-9999.00","-9999.00","Scattered Clouds","partlycloudy","0","0","0","0","0","0","METAR UKKK 052300Z 24002MPS 9999 SCT018 06/05 Q1015 R26/190060 NOSIG"
"2:30 AM EEST on October 06, 2016","2016","10","06","02","30","Europe/Kiev","11:30 PM GMT on October 05, 2016","2016","10","05","23","30","UTC","6.0","42.8","4.0","39.2","87","7.2","4.5","-9999.0","-9999.0","220","SW","10.0","6.2","1015","29.98","4.5","40.2","-9999","-9999","-9999.00","-9999.00","Partly Cloudy","partlycloudy","0","0","0","0","0","0","METAR UKKK 052330Z 22002MPS 190V250 9999 FEW016 06/04 Q1015 R26/190060 NOSIG"
"3:00 AM EEST on October 06, 2016","2016","10","06","03","00","Europe/Kiev","12:00 AM GMT on October 06, 2016","2016","10","06","00","00","UTC","5","42","4","40","89","7.2","4.5","","","270","West","4","2","1017","30.03","-999","-999","-9999","-9999","","","Mist","hazy","0","0","0","0","0","0","AAXX 06001 33345 31996 22702 10053 20044 39961 40167 52018 71011 80004 555 11005"
"3:00 AM EEST on October 06, 2016","2016","10","06","03","00","Europe/Kiev","12:00 AM GMT on October 06, 2016","2016","10","06","00","00","UTC","5.0","41.0","4.0","39.2","93","7.2","4.5","-9999.0","-9999.0","230","SW","10.0","6.2","1016","30.01","3.4","38.1","-9999","-9999","-9999.00","-9999.00","Partly Cloudy","partlycloudy","0","0","0","0","0","0","METAR UKKK 060000Z 23002MPS 9999 FEW016 05/04 Q1016 R26/190060 NOSIG"
"3:30 AM EEST on October 06, 2016","2016","10","06","03","30","Europe/Kiev","12:30 AM GMT on October 06, 2016","2016","10","06","00","30","UTC","4.0","39.2","4.0","39.2","100","3.6","2.2","-9999.0","-9999.0","260","West","10.0","6.2","1016","30.01","-999","-999","-9999","-9999","-9999.00","-9999.00","Partly Cloudy","partlycloudy","0","0","0","0","0","0","METAR UKKK 060030Z 26001MPS 9999 FEW016 04/04 Q1016 R26/190060 NOSIG"
"4:00 AM EEST on October 06, 2016","2016","10","06","04","00","Europe/Kiev","1:00 AM GMT on October 06, 2016","2016","10","06","01","00","UTC","4.0","39.2","4.0","39.2","100","3.6","2.2","-9999.0","-9999.0","230","SW","-9999.0","-9999.0","1016","30.01","-999","-999","-9999","-9999","-9999.00","-9999.00","Clear","clear","0","0","0","0","0","0","METAR UKKK 060100Z 23001MPS CAVOK 04/04 Q1016 R26/190060 NOSIG"
"4:30 AM EEST on October 06, 2016","2016","10","06","04","30","Europe/Kiev","1:30 AM GMT on October 06, 2016","2016","10","06","01","30","UTC","4.0","39.2","4.0","39.2","100","7.2","4.5","-9999.0","-9999.0","230","SW","-9999.0","-9999.0","1016","30.01","2.2","36.0","-9999","-9999","-9999.00","-9999.00","Clear","clear","0","0","0","0","0","0","METAR UKKK 060130Z 23002MPS CAVOK 04/04 Q1016 R26/190060 NOSIG"
"5:00 AM EEST on October 06, 2016","2016","10","06","05","00","Europe/Kiev","2:00 AM GMT on October 06, 2016","2016","10","06","02","00","UTC","3.0","37.4","3.0","37.4","100","7.2","4.5","-9999.0","-9999.0","230","SW","9.0","5.6","1017","30.04","1.0","33.9","-9999","-9999","-9999.00","-9999.00","Unknown","unknown","0","0","0","0","0","0","METAR UKKK 060200Z 23002MPS 9000 NSC 03/03 Q1017 R26/190060 NOSIG"
"5:30 AM EEST on October 06, 2016","2016","10","06","05","30","Europe/Kiev","2:30 AM GMT on October 06, 2016","2016","10","06","02","30","UTC","3.0","37.4","3.0","37.4","100","7.2","4.5","-9999.0","-9999.0","230","SW","-9999.0","-9999.0","1017","30.04","1.0","33.9","-9999","-9999","-9999.00","-9999.00","Clear","clear","0","0","0","0","0","0","METAR UKKK 060230Z 23002MPS CAVOK 03/03 Q1017 R26/190060 NOSIG"
"6:00 AM EEST on October 06, 2016","2016","10","06","06","00","Europe/Kiev","3:00 AM GMT on October 06, 2016","2016","10","06","03","00","UTC","4","39","3","37","91","3.6","2.2","","","310","NW","4","2","1018","30.08","-999","-999","-9999","-9999","","","Mist","hazy","0","0","0","0","0","0","AAXX 06031 33345 41996 03101 10041 20029 39978 40185 52017 71000 555 11003"
"6:00 AM EEST on October 06, 2016","2016","10","06","06","00","Europe/Kiev","3:00 AM GMT on October 06, 2016","2016","10","06","03","00","UTC","3.0","37.4","3.0","37.4","100","3.6","2.2","-9999.0","-9999.0","250","WSW","-9999.0","-9999.0","1017","30.04","-999","-999","-9999","-9999","-9999.00","-9999.00","Clear","clear","0","0","0","0","0","0","METAR UKKK 060300Z 25001MPS CAVOK 03/03 Q1017 R26/190060 NOSIG"
"6:30 AM EEST on October 06, 2016","2016","10","06","06","30","Europe/Kiev","3:30 AM GMT on October 06, 2016","2016","10","06","03","30","UTC","2.0","35.6","2.0","35.6","100","3.6","2.2","-9999.0","-9999.0","240","WSW","8.0","5.0","1017","30.04","-999","-999","-9999","-9999","-9999.00","-9999.00","Unknown","unknown","0","0","0","0","0","0","METAR UKKK 060330Z 24001MPS 8000 NSC 02/02 Q1017 R26/190060 NOSIG"
"6:56 AM EEST on October 06, 2016","2016","10","06","06","56","Europe/Kiev","3:56 AM GMT on October 06, 2016","2016","10","06","03","56","UTC","2.0","35.6","2.0","35.6","100","3.6","2.2","-9999.0","-9999.0","250","WSW","1.1","0.7","1018","30.06","-999","-999","-9999","-9999","-9999.00","-9999.00","Mist","hazy","0","0","0","0","0","0","SPECI UKKK 060356Z 25001MPS 1100 R26/P2000N BR NSC 02/02 Q1018 R26/190060 TEMPO 0400 FG"
"7:00 AM EEST on October 06, 2016","2016","10","06","07","00","Europe/Kiev","4:00 AM GMT on October 06, 2016","2016","10","06","04","00","UTC","2.0","35.6","2.0","35.6","100","3.6","2.2","-9999.0","-9999.0","250","WSW","2.4","1.5","1018","30.06","-999","-999","-9999","-9999","-9999.00","-9999.00","Mist","hazy","0","0","0","0","0","0","METAR UKKK 060400Z 25001MPS 2400 BR NSC 02/02 Q1018 R26/190060 TEMPO 0400 FG"
"7:30 AM EEST on October 06, 2016","2016","10","06","07","30","Europe/Kiev","4:30 AM GMT on October 06, 2016","2016","10","06","04","30","UTC","2.0","35.6","2.0","35.6","100","7.2","4.5","-9999.0","-9999.0","240","WSW","-9999.0","-9999.0","1018","30.06","-0.1","31.8","-9999","-9999","-9999.00","-9999.00","Clear","clear","0","0","0","0","0","0","METAR UKKK 060430Z 24002MPS CAVOK 02/02 Q1018 R26/190060 TEMPO 0400 FG"
"8:00 AM EEST on October 06, 2016","2016","10","06","08","00","Europe/Kiev","5:00 AM GMT on October 06, 2016","2016","10","06","05","00","UTC","4.0","39.2","4.0","39.2","100","7.2","4.5","-9999.0","-9999.0","270","West","-9999.0","-9999.0","1018","30.06","2.2","36.0","-9999","-9999","-9999.00","-9999.00","Clear","clear","0","0","0","0","0","0","METAR UKKK 060500Z 27002MPS CAVOK 04/04 Q1018 R26/190060 NOSIG"
"8:30 AM EEST on October 06, 2016","2016","10","06","08","30","Europe/Kiev","5:30 AM GMT on October 06, 2016","2016","10","06","05","30","UTC","5.0","41.0","4.0","39.2","93","7.2","4.5","-9999.0","-9999.0","270","West","-9999.0","-9999.0","1018","30.06","3.4","38.1","-9999","-9999","-9999.00","-9999.00","Clear","clear","0","0","0","0","0","0","METAR UKKK 060530Z 27002MPS CAVOK 05/04 Q1018 R26/190060 NOSIG"
"9:00 AM EEST on October 06, 2016","2016","10","06","09","00","Europe/Kiev","6:00 AM GMT on October 06, 2016","2016","10","06","06","00","UTC","6","43","4","38","77","3.6","2.2","","","330","NNW","20","12","1019","30.10","-999","-999","-9999","-9999","","","Scattered Clouds","partlycloudy","0","0","0","0","0","0","AAXX 06061 33345 32998 23301 10061 20035 39986 40192 52008 82040 333 20040 555 11005 31002 52001"
"9:00 AM EEST on October 06, 2016","2016","10","06","09","00","Europe/Kiev","6:00 AM GMT on October 06, 2016","2016","10","06","06","00","UTC","6.0","42.8","4.0","39.2","87","7.2","4.5","-9999.0","-9999.0","290","WNW","-9999.0","-9999.0","1018","30.06","4.5","40.2","-9999","-9999","-9999.00","-9999.00","Clear","clear","0","0","0","0","0","0","METAR UKKK 060600Z 29002MPS CAVOK 06/04 Q1018 R26/190060 NOSIG"
"9:30 AM EEST on October 06, 2016","2016","10","06","09","30","Europe/Kiev","6:30 AM GMT on October 06, 2016","2016","10","06","06","30","UTC","7.0","44.6","4.0","39.2","81","7.2","4.5","-9999.0","-9999.0","290","WNW","-9999.0","-9999.0","1019","30.09","5.7","42.3","-9999","-9999","-9999.00","-9999.00","Clear","clear","0","0","0","0","0","0","METAR UKKK 060630Z 29002MPS 250V320 CAVOK 07/04 Q1019 R26/CLRD70 NOSIG"
"10:00 AM EEST on October 06, 2016","2016","10","06","10","00","Europe/Kiev","7:00 AM GMT on October 06, 2016","2016","10","06","07","00","UTC","8.0","46.4","3.0","37.4","71","7.2","4.5","-9999.0","-9999.0","300","WNW","-9999.0","-9999.0","1019","30.09","6.9","44.4","-9999","-9999","-9999.00","-9999.00","Clear","clear","0","0","0","0","0","0","METAR UKKK 060700Z 30002MPS 260V010 CAVOK 08/03 Q1019 R26/CLRD70 NOSIG"
"10:30 AM EEST on October 06, 2016","2016","10","06","10","30","Europe/Kiev","7:30 AM GMT on October 06, 2016","2016","10","06","07","30","UTC","8.0","46.4","3.0","37.4","71","3.6","2.2","-9999.0","-9999.0","0","Variable","-9999.0","-9999.0","1019","30.09","-999","-999","-9999","-9999","-9999.00","-9999.00","Clear","clear","0","0","0","0","0","0","METAR UKKK 060730Z VRB01MPS CAVOK 08/03 Q1019 R26/CLRD70 NOSIG"
"11:00 AM EEST on October 06, 2016","2016","10","06","11","00","Europe/Kiev","8:00 AM GMT on October 06, 2016","2016","10","06","08","00","UTC","9.0","48.2","3.0","37.4","66","7.2","4.5","-9999.0","-9999.0","300","WNW","-9999.0","-9999.0","1019","30.09","-999","-999","-9999","-9999","-9999.00","-9999.00","Clear","clear","0","0","0","0","0","0","METAR UKKK 060800Z 30002MPS 260V360 CAVOK 09/03 Q1019 R26/CLRD70 NOSIG"
"11:30 AM EEST on October 06, 2016","2016","10","06","11","30","Europe/Kiev","8:30 AM GMT on October 06, 2016","2016","10","06","08","30","UTC","9.0","48.2","3.0","37.4","66","3.6","2.2","-9999.0","-9999.0","0","Variable","10.0","6.2","1019","30.09","-999","-999","-9999","-9999","-9999.00","-9999.00","Mostly Cloudy","mostlycloudy","0","0","0","0","0","0","METAR UKKK 060830Z VRB01MPS 9999 FEW025 BKN100 09/03 Q1019 R26/CLRD70 NOSIG"
"12:00 PM EEST on October 06, 2016","2016","10","06","12","00","Europe/Kiev","9:00 AM GMT on October 06, 2016","2016","10","06","09","00","UTC","9","49","4","40","61","7.2","4.5","","","70","ENE","20","12","1020","30.12","-999","-999","-9999","-9999","","","Partly Cloudy","partlycloudy","0","0","0","0","0","0","AAXX 06091 33345 42598 70702 10094 20042 39995 40198 52009 83830 555 10015"
"12:00 PM EEST on October 06, 2016","2016","10","06","12","00","Europe/Kiev","9:00 AM GMT on October 06, 2016","2016","10","06","09","00","UTC","9.0","48.2","3.0","37.4","66","3.6","2.2","-9999.0","-9999.0","0","Variable","10.0","6.2","1019","30.09","-999","-999","-9999","-9999","-9999.00","-9999.00","Mostly Cloudy","mostlycloudy","0","0","0","0","0","0","METAR UKKK 060900Z VRB01MPS 9999 FEW023 BKN100 09/03 Q1019 R26/CLRD70 NOSIG"
"12:30 PM EEST on October 06, 2016","2016","10","06","12","30","Europe/Kiev","9:30 AM GMT on October 06, 2016","2016","10","06","09","30","UTC","10.0","50.0","4.0","39.2","66","3.6","2.2","-9999.0","-9999.0","0","Variable","10.0","6.2","1019","30.09","-999","-999","-9999","-9999","-9999.00","-9999.00","Mostly Cloudy","mostlycloudy","0","0","0","0","0","0","METAR UKKK 060930Z VRB01MPS 9999 SCT025 BKN100 10/04 Q1019 R26/CLRD70 NOSIG"
"1:00 PM EEST on October 06, 2016","2016","10","06","13","00","Europe/Kiev","10:00 AM GMT on October 06, 2016","2016","10","06","10","00","UTC","10.0","50.0","4.0","39.2","66","3.6","2.2","-9999.0","-9999.0","0","Variable","10.0","6.2","1019","30.09","-999","-999","-9999","-9999","-9999.00","-9999.00","Mostly Cloudy","mostlycloudy","0","0","0","0","0","0","METAR UKKK 061000Z VRB01MPS 9999 SCT028 BKN200 10/04 Q1019 R26/CLRD70 NOSIG"
"1:30 PM EEST on October 06, 2016","2016","10","06","13","30","Europe/Kiev","10:30 AM GMT on October 06, 2016","2016","10","06","10","30","UTC","10.0","50.0","4.0","39.2","66","7.2","4.5","-9999.0","-9999.0","50","NE","10.0","6.2","1019","30.09","-999","-999","-9999","-9999","-9999.00","-9999.00","Mostly Cloudy","mostlycloudy","0","0","0","0","0","0","METAR UKKK 061030Z 05002MPS 350V090 9999 SCT028 BKN200 10/04 Q1019 R26/CLRD70 NOSIG"
"2:00 PM EEST on October 06, 2016","2016","10","06","14","00","Europe/Kiev","11:00 AM GMT on October 06, 2016","2016","10","06","11","00","UTC","10.0","50.0","4.0","39.2","66","3.6","2.2","-9999.0","-9999.0","0","Variable","10.0","6.2","1019","30.09","-999","-999","-9999","-9999","-9999.00","-9999.00","Mostly Cloudy","mostlycloudy","0","0","0","0","0","0","METAR UKKK 061100Z VRB01MPS 9999 SCT030 BKN200 10/04 Q1019 R26/CLRD70 NOSIG"
"2:30 PM EEST on October 06, 2016","2016","10","06","14","30","Europe/Kiev","11:30 AM GMT on October 06, 2016","2016","10","06","11","30","UTC","11.0","51.8","4.0","39.2","62","3.6","2.2","-9999.0","-9999.0","0","Variable","10.0","6.2","1019","30.09","-999","-999","-9999","-9999","-9999.00","-9999.00","Mostly Cloudy","mostlycloudy","0","0","0","0","0","0","METAR UKKK 061130Z VRB01MPS 9999 SCT031 BKN076 11/04 Q1019 R26/CLRD70 NOSIG"
"3:00 PM EEST on October 06, 2016","2016","10","06","15","00","Europe/Kiev","12:00 PM GMT on October 06, 2016","2016","10","06","12","00","UTC","12","54","4","39","46","7.2","4.5","","","30","NNE","20","12","1019","30.10","-999","-999","-9999","-9999","","","Scattered Clouds","partlycloudy","0","0","0","0","0","0","AAXX 06121 33345 32598 70302 10120 20040 39991 40192 58004 82131 555 11022"
"3:00 PM EEST on October 06, 2016","2016","10","06","15","00","Europe/Kiev","12:00 PM GMT on October 06, 2016","2016","10","06","12","00","UTC","11.0","51.8","4.0","39.2","62","7.2","4.5","-9999.0","-9999.0","50","NE","10.0","6.2","1019","30.09","-999","-999","-9999","-9999","-9999.00","-9999.00","Mostly Cloudy","mostlycloudy","0","0","0","0","0","0","METAR UKKK 061200Z 05002MPS 9999 SCT030 BKN076 11/04 Q1019 R26/CLRD70 NOSIG"
"3:30 PM EEST on October 06, 2016","2016","10","06","15","30","Europe/Kiev","12:30 PM GMT on October 06, 2016","2016","10","06","12","30","UTC","12.0","53.6","4.0","39.2","58","7.2","4.5","-9999.0","-9999.0","70","ENE","10.0","6.2","1018","30.06","-999","-999","-9999","-9999","-9999.00","-9999.00","Mostly Cloudy","mostlycloudy","0","0","0","0","0","0","METAR UKKK 061230Z 07002MPS 350V160 9999 FEW030 BKN076 12/04 Q1018 R26/CLRD70 NOSIG"
"4:00 PM EEST on October 06, 2016","2016","10","06","16","00","Europe/Kiev","1:00 PM GMT on October 06, 2016","2016","10","06","13","00","UTC","12.0","53.6","4.0","39.2","58","7.2","4.5","-9999.0","-9999.0","90","East","10.0","6.2","1018","30.06","-999","-999","-9999","-9999","-9999.00","-9999.00","Mostly Cloudy","mostlycloudy","0","0","0","0","0","0","METAR UKKK 061300Z 09002MPS 050V130 9999 FEW040 BKN100 12/04 Q1018 R08/CLRD70 NOSIG"
"4:30 PM EEST on October 06, 2016","2016","10","06","16","30","Europe/Kiev","1:30 PM GMT on October 06, 2016","2016","10","06","13","30","UTC","12.0","53.6","4.0","39.2","58","7.2","4.5","-9999.0","-9999.0","90","East","-9999.0","-9999.0","1018","30.06","-999","-999","-9999","-9999","-9999.00","-9999.00","Clear","clear","0","0","0","0","0","0","METAR UKKK 061330Z 09002MPS CAVOK 12/04 Q1018 R08/CLRD70 NOSIG"
"5:00 PM EEST on October 06, 2016","2016","10","06","17","00","Europe/Kiev","2:00 PM GMT on October 06, 2016","2016","10","06","14","00","UTC","11.0","51.8","4.0","39.2","62","7.2","4.5","-9999.0","-9999.0","60","ENE","-9999.0","-9999.0","1018","30.06","-999","-999","-9999","-9999","-9999.00","-9999.00","Clear","clear","0","0","0","0","0","0","METAR UKKK 061400Z 06002MPS 350V120 CAVOK 11/04 Q1018 R08/CLRD70 NOSIG"
"5:30 PM EEST on October 06, 2016","2016","10","06","17","30","Europe/Kiev","2:30 PM GMT on October 06, 2016","2016","10","06","14","30","UTC","10.0","50.0","5.0","41.0","71","3.6","2.2","-9999.0","-9999.0","80","East","9.0","5.6","1018","30.06","-999","-999","-9999","-9999","-9999.00","-9999.00","Unknown","unknown","0","0","0","0","0","0","METAR UKKK 061430Z 08001MPS 9000 NSC 10/05 Q1018 R08/CLRD70 NOSIG"
"6:00 PM EEST on October 06, 2016","2016","10","06","18","00","Europe/Kiev","3:00 PM GMT on October 06, 2016","2016","10","06","15","00","UTC","10","49","5","42","68","7.2","4.5","","","30","NNE","20","12","1019","30.09","-999","-999","-9999","-9999","","","Scattered Clouds","partlycloudy","0","0","0","0","0","0","AAXX 06151 33345 42998 70302 10096 20054 39987 40190 57004 82041 555 11010"
"6:00 PM EEST on October 06, 2016","2016","10","06","18","00","Europe/Kiev","3:00 PM GMT on October 06, 2016","2016","10","06","15","00","UTC","9.0","48.2","5.0","41.0","76","3.6","2.2","-9999.0","-9999.0","80","East","-9999.0","-9999.0","1018","30.06","-999","-999","-9999","-9999","-9999.00","-9999.00","Clear","clear","0","0","0","0","0","0","METAR UKKK 061500Z 08001MPS CAVOK 09/05 Q1018 R08/CLRD70 NOSIG"
"6:30 PM EEST on October 06, 2016","2016","10","06","18","30","Europe/Kiev","3:30 PM GMT on October 06, 2016","2016","10","06","15","30","UTC","8.0","46.4","5.0","41.0","81","0.0","0.0","-9999.0","-9999.0","0","North","-9999.0","-9999.0","1018","30.06","-999","-999","-9999","-9999","-9999.00","-9999.00","Clear","clear","0","0","0","0","0","0","METAR UKKK 061530Z 00000MPS CAVOK 08/05 Q1018 R08/CLRD70 NOSIG"
"7:00 PM EEST on October 06, 2016","2016","10","06","19","00","Europe/Kiev","4:00 PM GMT on October 06, 2016","2016","10","06","16","00","UTC","7.0","44.6","5.0","41.0","87","0.0","0.0","-9999.0","-9999.0","0","North","9.0","5.6","1018","30.06","-999","-999","-9999","-9999","-9999.00","-9999.00","Unknown","unknown","0","0","0","0","0","0","METAR UKKK 061600Z 00000MPS 9000 NSC 07/05 Q1018 R08/CLRD70 NOSIG"
"7:30 PM EEST on October 06, 2016","2016","10","06","19","30","Europe/Kiev","4:30 PM GMT on October 06, 2016","2016","10","06","16","30","UTC","7.0","44.6","5.0","41.0","87","0.0","0.0","-9999.0","-9999.0","0","North","9.0","5.6","1019","30.09","-999","-999","-9999","-9999","-9999.00","-9999.00","Unknown","unknown","0","0","0","0","0","0","METAR UKKK 061630Z 00000MPS 9000 NSC 07/05 Q1019 R08/CLRD70 NOSIG"
"8:00 PM EEST on October 06, 2016","2016","10","06","20","00","Europe/Kiev","5:00 PM GMT on October 06, 2016","2016","10","06","17","00","UTC","7.0","44.6","5.0","41.0","87","0.0","0.0","-9999.0","-9999.0","0","North","9.0","5.6","1019","30.09","-999","-999","-9999","-9999","-9999.00","-9999.00","Unknown","unknown","0","0","0","0","0","0","METAR UKKK 061700Z 00000MPS 9000 NSC 07/05 Q1019 R08/CLRD70 NOSIG"
"8:30 PM EEST on October 06, 2016","2016","10","06","20","30","Europe/Kiev","5:30 PM GMT on October 06, 2016","2016","10","06","17","30","UTC","7.0","44.6","6.0","42.8","93","3.6","2.2","-9999.0","-9999.0","320","NW","6.0","3.7","1019","30.09","-999","-999","-9999","-9999","-9999.00","-9999.00","Unknown","unknown","0","0","0","0","0","0","METAR UKKK 061730Z 32001MPS 6000 NSC 07/06 Q1019 R08/CLRD70 NOSIG"
"9:00 PM EEST on October 06, 2016","2016","10","06","21","00","Europe/Kiev","6:00 PM GMT on October 06, 2016","2016","10","06","18","00","UTC","8","47","6","43","82","0.0","0.0","","","","","10","6","1020","30.12","-999","-999","-9999","-9999","","","Mostly Cloudy","mostlycloudy","0","0","0","0","0","0","AAXX 06181 33345 32697 50000 10082 20062 39995 40199 53008 85500 333 10128 555 11008"
"9:00 PM EEST on October 06, 2016","2016","10","06","21","00","Europe/Kiev","6:00 PM GMT on October 06, 2016","2016","10","06","18","00","UTC","8.0","46.4","6.0","42.8","87","0.0","0.0","-9999.0","-9999.0","0","North","9.0","5.6","1019","30.09","-999","-999","-9999","-9999","-9999.00","-9999.00","Mostly Cloudy","mostlycloudy","0","0","0","0","0","0","METAR UKKK 061800Z 00000MPS 9000 SCT032 BKN100 08/06 Q1019 R08/CLRD70 NOSIG"
"9:30 PM EEST on October 06, 2016","2016","10","06","21","30","Europe/Kiev","6:30 PM GMT on October 06, 2016","2016","10","06","18","30","UTC","7.0","44.6","6.0","42.8","93","0.0","0.0","-9999.0","-9999.0","0","North","8.0","5.0","1019","30.09","-999","-999","-9999","-9999","-9999.00","-9999.00","Unknown","unknown","0","0","0","0","0","0","METAR UKKK 061830Z 00000MPS 8000 NSC 07/06 Q1019 R08/CLRD70 NOSIG"
"10:00 PM EEST on October 06, 2016","2016","10","06","22","00","Europe/Kiev","7:00 PM GMT on October 06, 2016","2016","10","06","19","00","UTC","7.0","44.6","6.0","42.8","93","0.0","0.0","-9999.0","-9999.0","0","North","8.0","5.0","1019","30.09","-999","-999","-9999","-9999","-9999.00","-9999.00","Unknown","unknown","0","0","0","0","0","0","METAR UKKK 061900Z 00000MPS 8000 NSC 07/06 Q1019 R08/CLRD70 NOSIG"
"10:30 PM EEST on October 06, 2016","2016","10","06","22","30","Europe/Kiev","7:30 PM GMT on October 06, 2016","2016","10","06","19","30","UTC","7.0","44.6","6.0","42.8","93","3.6","2.2","-9999.0","-9999.0","330","NNW","9.0","5.6","1019","30.09","-999","-999","-9999","-9999","-9999.00","-9999.00","Unknown","unknown","0","0","0","0","0","0","METAR UKKK 061930Z 33001MPS 9000 NSC 07/06 Q1019 R08/CLRD70 NOSIG"
"11:00 PM EEST on October 06, 2016","2016","10","06","23","00","Europe/Kiev","8:00 PM GMT on October 06, 2016","2016","10","06","20","00","UTC","7.0","44.6","6.0","42.8","93","3.6","2.2","-9999.0","-9999.0","0","Variable","5.0","3.1","1019","30.09","-999","-999","-9999","-9999","-9999.00","-9999.00","Mist","hazy","0","0","0","0","0","0","METAR UKKK 062000Z VRB01MPS 5000 BR NSC 07/06 Q1019 R08/CLRD70 NOSIG"
"11:30 PM EEST on October 06, 2016","2016","10","06","23","30","Europe/Kiev","8:30 PM GMT on October 06, 2016","2016","10","06","20","30","UTC","7.0","44.6","6.0","42.8","93","0.0","0.0","-9999.0","-9999.0","0","North","5.0","3.1","1019","30.09","-999","-999","-9999","-9999","-9999.00","-9999.00","Mist","hazy","0","0","0","0","0","0","METAR UKKK 062030Z 00000MPS 5000 BR NSC 07/06 Q1019 R08/CLRD70 NOSIG"
"12:00 AM EEST on October 07, 2016","2016","10","07","00","00","Europe/Kiev","9:00 PM GMT on October 06, 2016","2016","10","06","21","00","UTC","8","46","6","43","87","0.0","0.0","","","","","10","6","1019","30.09","-999","-999","-9999","-9999","","","Mostly Cloudy","mostlycloudy","0","0","0","0","0","0","AAXX 06211 33345 42997 60000 10078 20063 39986 40190 58009 86030 555 11007"
"12:00 AM EEST on October 07, 2016","2016","10","07","00","00","Europe/Kiev","9:00 PM GMT on October 06, 2016","2016","10","06","21","00","UTC","6.0","42.8","6.0","42.8","100","0.0","0.0","-9999.0","-9999.0","0","North","7.0","4.3","1018","30.06","-999","-999","-9999","-9999","-9999.00","-9999.00","Unknown","unknown","0","0","0","0","0","0","METAR UKKK 062100Z 00000MPS 7000 NSC 06/06 Q1018 R08/CLRD70 NOSIG"
"12:30 AM EEST on October 07, 2016","2016","10","07","00","30","Europe/Kiev","9:30 PM GMT on October 06, 2016","2016","10","06","21","30","UTC","6.0","42.8","6.0","42.8","100","0.0","0.0","-9999.0","-9999.0","0","North","4.0","2.5","1018","30.06","-999","-999","-9999","-9999","-9999.00","-9999.00","Mist","hazy","0","0","0","0","0","0","METAR UKKK 062130Z 00000MPS 4000 BR NSC 06/06 Q1018 R08/CLRD70 NOSIG"
"1:00 AM EEST on October 07, 2016","2016","10","07","01","00","Europe/Kiev","10:00 PM GMT on October 06, 2016","2016","10","06","22","00","UTC","7.0","44.6","7.0","44.6","100","0.0","0.0","-9999.0","-9999.0","0","North","5.0","3.1","1018","30.06","-999","-999","-9999","-9999","-9999.00","-9999.00","Mist","hazy","0","0","0","0","0","0","METAR UKKK 062200Z 00000MPS 5000 BR NSC 07/07 Q1018 R08/CLRD70 NOSIG"
"1:30 AM EEST on October 07, 2016","2016","10","07","01","30","Europe/Kiev","10:30 PM GMT on October 06, 2016","2016","10","06","22","30","UTC","7.0","44.6","7.0","44.6","100","0.0","0.0","-9999.0","-9999.0","0","North","5.0","3.1","1018","30.06","-999","-999","-9999","-9999","-9999.00","-9999.00","Mist","hazy","0","0","0","0","0","0","METAR UKKK 062230Z 00000MPS 5000 BR NSC 07/07 Q1018 R08/CLRD70 NOSIG"
"2:00 AM EEST on October 07, 2016","2016","10","07","02","00","Europe/Kiev","11:00 PM GMT on October 06, 2016","2016","10","06","23","00","UTC","7.0","44.6","7.0","44.6","100","0.0","0.0","-9999.0","-9999.0","0","North","5.0","3.1","1018","30.06","-999","-999","-9999","-9999","-9999.00","-9999.00","Mist","hazy","0","0","0","0","0","0","METAR UKKK 062300Z 00000MPS 5000 BR NSC 07/07 Q1018 R08/CLRD70 NOSIG"
"2:30 AM EEST on October 07, 2016","2016","10","07","02","30","Europe/Kiev","11:30 PM GMT on October 06, 2016","2016","10","06","23","30","UTC","7.0","44.6","7.0","44.6","100","0.0","0.0","-9999.0","-9999.0","0","North","5.0","3.1","1018","30.06","-999","-999","-9999","-9999","-9999.00","-9999.00","Mist","hazy","0","0","0","0","0","0","METAR UKKK 062330Z 00000MPS 5000 BR NSC 07/07 Q1018 R08/CLRD70 NOSIG"
"3:00 AM EEST on October 07, 2016","2016","10","07","03","00","Europe/Kiev","12:00 AM GMT on October 07, 2016","2016","10","07","00","00","UTC","8","47","7","44","86","0.0","0.0","","","","","4","2","1019","30.08","-999","-999","-9999","-9999","","","Mist","hazy","0","0","0","0","0","0","AAXX 07001 33345 31696 50000 10083 20068 39982 40186 56004 71022 85500 555 11007"
"3:00 AM EEST on October 07, 2016","2016","10","07","03","00","Europe/Kiev","12:00 AM GMT on October 07, 2016","2016","10","07","00","00","UTC","6.0","42.8","6.0","42.8","100","3.6","2.2","-9999.0","-9999.0","210","SSW","2.9","1.8","1018","30.06","-999","-999","-9999","-9999","-9999.00","-9999.00","Mist","hazy","0","0","0","0","0","0","METAR UKKK 070000Z 21001MPS 2900 BR NSC 06/06 Q1018 R08/CLRD70 TEMPO 2000 BR"
"3:30 AM EEST on October 07, 2016","2016","10","07","03","30","Europe/Kiev","12:30 AM GMT on October 07, 2016","2016","10","07","00","30","UTC","5.0","41.0","5.0","41.0","100","3.6","2.2","-9999.0","-9999.0","200","SSW","2.6","1.6","1018","30.06","-999","-999","-9999","-9999","-9999.00","-9999.00","Mist","hazy","0","0","0","0","0","0","METAR UKKK 070030Z 20001MPS 2600 BR NSC 05/05 Q1018 R08/CLRD70 TEMPO 1000 BR"
"3:46 AM EEST on October 07, 2016","2016","10","07","03","46","Europe/Kiev","12:46 AM GMT on October 07, 2016","2016","10","07","00","46","UTC","5.0","41.0","5.0","41.0","100","3.6","2.2","-9999.0","-9999.0","0","Variable","0.4","0.3","1018","30.06","-999","-999","-9999","-9999","-9999.00","-9999.00","Unknown","unknown","0","0","0","0","0","0","SPECI UKKK 070046Z VRB01MPS 0450 R08/1900VP2000U PRFG NSC 05/05 Q1018 R08/CLRD70 TEMPO 1000 BR"
"4:00 AM EEST on October 07, 2016","2016","10","07","04","00","Europe/Kiev","1:00 AM GMT on October 07, 2016","2016","10","07","01","00","UTC","5.0","41.0","5.0","41.0","100","0.0","0.0","-9999.0","-9999.0","0","North","-9999.0","-9999.0","1017","30.04","-999","-999","-9999","-9999","-9999.00","-9999.00","Mist","hazy","0","0","0","0","0","0","METAR UKKK 070100Z 00000MPS 4100 BR NSC 05/05 Q1017 R08/CLRD70 TEMPO 1000 BR"
"4:09 AM EEST on October 07, 2016","2016","10","07","04","09","Europe/Kiev","1:09 AM GMT on October 07, 2016","2016","10","07","01","09","UTC","5.0","41.0","5.0","41.0","100","0.0","0.0","-9999.0","-9999.0","0","North","1.2","0.7","1017","30.04","-999","-999","-9999","-9999","-9999.00","-9999.00","Mist","hazy","0","0","0","0","0","0","SPECI UKKK 070109Z 00000MPS 1200 R08/1500VP2000D BR NSC 05/05 Q1017 R08/CLRD70 TEMPO 0400 FG"
"4:12 AM EEST on October 07, 2016","2016","10","07","04","12","Europe/Kiev","1:12 AM GMT on October 07, 2016","2016","10","07","01","12","UTC","5.0","41.0","5.0","41.0","100","0.0","0.0","-9999.0","-9999.0","0","North","0.3","0.2","1017","30.04","-999","-999","-9999","-9999","-9999.00","-9999.00","Unknown","unknown","0","0","0","0","0","0","SPECI UKKK 070112Z 00000MPS 0300 R08/0700VP2000D PRFG NSC 05/05 Q1017 R08/CLRD70 NOSIG"
"4:30 AM EEST on October 07, 2016","2016","10","07","04","30","Europe/Kiev","1:30 AM GMT on October 07, 2016","2016","10","07","01","30","UTC","4.0","39.2","4.0","39.2","100","0.0","0.0","-9999.0","-9999.0","0","North","-9999.0","-9999.0","1017","30.04","-999","-999","-9999","-9999","-9999.00","-9999.00","Mist","hazy","0","0","0","0","0","0","METAR UKKK 070130Z 00000MPS 3300 BR NSC 04/04 Q1017 R08/CLRD70 TEMPO 1000 BR"
"4:38 AM EEST on October 07, 2016","2016","10","07","04","38","Europe/Kiev","1:38 AM GMT on October 07, 2016","2016","10","07","01","38","UTC","4.0","39.2","4.0","39.2","100","0.0","0.0","-9999.0","-9999.0","0","North","1.4","0.9","1017","30.04","-999","-999","-9999","-9999","-9999.00","-9999.00","Mist","hazy","0","0","0","0","0","0","SPECI UKKK 070138Z 00000MPS 1400 R08/1500VP2000D BR NSC 04/04 Q1017 R08/CLRD70 TEMPO 1000 BR"
"4:54 AM EEST on October 07, 2016","2016","10","07","04","54","Europe/Kiev","1:54 AM GMT on October 07, 2016","2016","10","07","01","54","UTC","4.0","39.2","4.0","39.2","100","3.6","2.2","-9999.0","-9999.0","200","SSW","1.8","1.1","1017","30.04","-999","-999","-9999","-9999","-9999.00","-9999.00","Mist","hazy","0","0","0","0","0","0","SPECI UKKK 070154Z 20001MPS 1800 BR NSC 04/04 Q1017 R08/CLRD70 TEMPO 1000 BR"
"5:00 AM EEST on October 07, 2016","2016","10","07","05","00","Europe/Kiev","2:00 AM GMT on October 07, 2016","2016","10","07","02","00","UTC","4.0","39.2","4.0","39.2","100","3.6","2.2","-9999.0","-9999.0","0","Variable","1.3","0.8","1017","30.04","-999","-999","-9999","-9999","-9999.00","-9999.00","Mist","hazy","0","0","0","0","0","0","METAR UKKK 070200Z VRB01MPS 1300 R08/P2000U BR NSC 04/04 Q1017 R08/CLRD70 TEMPO 0400 FG"
"5:19 AM EEST on October 07, 2016","2016","10","07","05","19","Europe/Kiev","2:19 AM GMT on October 07, 2016","2016","10","07","02","19","UTC","4.0","39.2","4.0","39.2","100","0.0","0.0","-9999.0","-9999.0","0","North","5.0","3.1","1017","30.04","-999","-999","-9999","-9999","-9999.00","-9999.00","Mist","hazy","0","0","0","0","0","0","SPECI UKKK 070219Z 00000MPS 5000 BR NSC 04/04 Q1017 R08/CLRD70 TEMPO 0400 FG"
"5:30 AM EEST on October 07, 2016","2016","10","07","05","30","Europe/Kiev","2:30 AM GMT on October 07, 2016","2016","10","07","02","30","UTC","4.0","39.2","4.0","39.2","100","0.0","0.0","-9999.0","-9999.0","0","North","5.0","3.1","1017","30.04","-999","-999","-9999","-9999","-9999.00","-9999.00","Mist","hazy","0","0","0","0","0","0","METAR UKKK 070230Z 00000MPS 5000 BR NSC 04/04 Q1017 R08/CLRD70 TEMPO 0400 FG"
"6:00 AM EEST on October 07, 2016","2016","10","07","06","00","Europe/Kiev","3:00 AM GMT on October 07, 2016","2016","10","07","03","00","UTC","7","44","6","43","94","0.0","0.0","","","","","4","2","1018","30.06","-999","-999","-9999","-9999","","","Mist","hazy","0","0","0","0","0","0","AAXX 07031 33345 41696 70000 10067 20060 39975 40180 57007 71022 83530 555 11005"
"6:00 AM EEST on October 07, 2016","2016","10","07","06","00","Europe/Kiev","3:00 AM GMT on October 07, 2016","2016","10","07","03","00","UTC","5.0","41.0","5.0","41.0","100","0.0","0.0","-9999.0","-9999.0","0","North","-9999.0","-9999.0","1017","30.04","-999","-999","-9999","-9999","-9999.00","-9999.00","Mist","hazy","0","0","0","0","0","0","METAR UKKK 070300Z 00000MPS 3900 BR NSC 05/05 Q1017 R08/CLRD70 TEMPO 1000 BR"
"6:30 AM EEST on October 07, 2016","2016","10","07","06","30","Europe/Kiev","3:30 AM GMT on October 07, 2016","2016","10","07","03","30","UTC","5.0","41.0","5.0","41.0","100","0.0","0.0","-9999.0","-9999.0","0","North","6.0","3.7","1017","30.04","-999","-999","-9999","-9999","-9999.00","-9999.00","Unknown","unknown","0","0","0","0","0","0","METAR UKKK 070330Z 00000MPS 6000 NSC 05/05 Q1017 R08/CLRD70 TEMPO 1000 BR"
"7:00 AM EEST on October 07, 2016","2016","10","07","07","00","Europe/Kiev","4:00 AM GMT on October 07, 2016","2016","10","07","04","00","UTC","5.0","41.0","5.0","41.0","100","0.0","0.0","-9999.0","-9999.0","0","North","7.0","4.3","1017","30.04","-999","-999","-9999","-9999","-9999.00","-9999.00","Unknown","unknown","0","0","0","0","0","0","METAR UKKK 070400Z 00000MPS 7000 NSC 05/05 Q1017 R08/CLRD70 TEMPO 2000 BR"
"7:30 AM EEST on October 07, 2016","2016","10","07","07","30","Europe/Kiev","4:30 AM GMT on October 07, 2016","2016","10","07","04","30","UTC","6.0","42.8","6.0","42.8","100","3.6","2.2","-9999.0","-9999.0","0","Variable","8.0","5.0","1016","30.01","-999","-999","-9999","-9999","-9999.00","-9999.00","Unknown","unknown","0","0","0","0","0","0","METAR UKKK 070430Z VRB01MPS 8000 NSC 06/06 Q1016 R08/CLRD70 TEMPO 2000 BR"
"8:00 AM EEST on October 07, 2016","2016","10","07","08","00","Europe/Kiev","5:00 AM GMT on October 07, 2016","2016","10","07","05","00","UTC","7.0","44.6","6.0","42.8","93","3.6","2.2","-9999.0","-9999.0","60","ENE","8.0","5.0","1016","30.01","-999","-999","-9999","-9999","-9999.00","-9999.00","Unknown","unknown","0","0","0","0","0","0","METAR UKKK 070500Z 06001MPS 8000 NSC 07/06 Q1016 R08/CLRD70 TEMPO 2000 BR"
"8:30 AM EEST on October 07, 2016","2016","10","07","08","30","Europe/Kiev","5:30 AM GMT on October 07, 2016","2016","10","07","05","30","UTC","7.0","44.6","7.0","44.6","100","3.6","2.2","-9999.0","-9999.0","0","Variable","8.0","5.0","1016","30.01","-999","-999","-9999","-9999","-9999.00","-9999.00","Mostly Cloudy","mostlycloudy","0","0","0","0","0","0","METAR UKKK 070530Z VRB01MPS 8000 SCT033CB BKN060 07/07 Q1016 R08/CLRD70 TEMPO 2000 BR"
"9:00 AM EEST on October 07, 2016","2016","10","07","09","00","Europe/Kiev","6:00 AM GMT on October 07, 2016","2016","10","07","06","00","UTC","8","46","7","45","94","0.0","0.0","","","","","4","2","1017","30.04","-999","-999","-9999","-9999","","","Mist","hazy","0","0","0","0","0","0","AAXX 07061 33345 31496 80000 10077 20071 39968 40172 56007 71022 8265/ 333 20061 555 11008 31004 52003"
"9:00 AM EEST on October 07, 2016","2016","10","07","09","00","Europe/Kiev","6:00 AM GMT on October 07, 2016","2016","10","07","06","00","UTC","8.0","46.4","7.0","44.6","93","3.6","2.2","-9999.0","-9999.0","0","Variable","7.0","4.3","1016","30.01","-999","-999","-9999","-9999","-9999.00","-9999.00","Mostly Cloudy","mostlycloudy","0","0","0","0","0","0","METAR UKKK 070600Z VRB01MPS 7000 FEW006 SCT033CB BKN053 08/07 Q1016 R08/CLRD70 TEMPO 1000 BR BKN005"
"9:30 AM EEST on October 07, 2016","2016","10","07","09","30","Europe/Kiev","6:30 AM GMT on October 07, 2016","2016","10","07","06","30","UTC","8.0","46.4","8.0","46.4","100","3.6","2.2","-9999.0","-9999.0","0","Variable","5.0","3.1","1016","30.01","-999","-999","-9999","-9999","-9999.00","-9999.00","Light Rain Showers","rain","0","1","0","0","0","0","METAR UKKK 070630Z VRB01MPS 5000 -SHRA BR SCT033CB BKN053 08/08 Q1016 R08/CLRD70 TEMPO 1000 BR BKN005"
"10:00 AM EEST on October 07, 2016","2016","10","07","10","00","Europe/Kiev","7:00 AM GMT on October 07, 2016","2016","10","07","07","00","UTC","8.0","46.4","8.0","46.4","100","0.0","0.0","-9999.0","-9999.0","0","North","5.0","3.1","1016","30.01","-999","-999","-9999","-9999","-9999.00","-9999.00","Light Rain Showers","rain","0","1","0","0","0","0","METAR UKKK 070700Z 00000MPS 5000 -SHRA BR FEW005 SCT026CB BKN053 08/08 Q1016 R08/290058 TEMPO 1000 -SHRA BR BKN005 SCT012CB"
"10:12 AM EEST on October 07, 2016","2016","10","07","10","12","Europe/Kiev","7:12 AM GMT on October 07, 2016","2016","10","07","07","12","UTC","9.0","48.2","8.0","46.4","93","7.2","4.5","-9999.0","-9999.0","140","SE","-9999.0","-9999.0","1016","30.01","-999","-999","-9999","-9999","-9999.00","-9999.00","Light Rain","rain","0","1","0","0","0","0","SPECI UKKK 070712Z 14002MPS 120V180 4400 -RA BR BKN004 BKN043 09/08 Q1016 R08/290058 TEMPO 1000 -SHRA BR BKN003 SCT012CB"
"10:30 AM EEST on October 07, 2016","2016","10","07","10","30","Europe/Kiev","7:30 AM GMT on October 07, 2016","2016","10","07","07","30","UTC","8.0","46.4","8.0","46.4","100","0.0","0.0","-9999.0","-9999.0","0","North","-9999.0","-9999.0","1016","30.01","-999","-999","-9999","-9999","-9999.00","-9999.00","Light Rain","rain","0","1","0","0","0","0","METAR UKKK 070730Z 00000MPS 3300 -RA BR BKN003 BKN043 08/08 Q1016 R08/290058 TEMPO 0400 -SHRA FG BKN002 SCT012CB"
"11:00 AM EEST on October 07, 2016","2016","10","07","11","00","Europe/Kiev","8:00 AM GMT on October 07, 2016","2016","10","07","08","00","UTC","8.0","46.4","8.0","46.4","100","3.6","2.2","-9999.0","-9999.0","0","Variable","4.0","2.5","1016","30.01","-999","-999","-9999","-9999","-9999.00","-9999.00","Light Rain","rain","0","1","0","0","0","0","METAR UKKK 070800Z VRB01MPS 4000 -RA BR SCT006 BKN040 08/08 Q1016 R08/290058 TEMPO 0400 -SHRA FG BKN001 SCT012CB"
"11:30 AM EEST on October 07, 2016","2016","10","07","11","30","Europe/Kiev","8:30 AM GMT on October 07, 2016","2016","10","07","08","30","UTC","9.0","48.2","8.0","46.4","93","0.0","0.0","-9999.0","-9999.0","0","North","-9999.0","-9999.0","1016","30.01","-999","-999","-9999","-9999","-9999.00","-9999.00","Light Rain Showers","rain","0","1","0","0","0","0","METAR UKKK 070830Z 00000MPS 4900 -SHRA BR SCT026CB BKN040 09/08 Q1016 R08/290058 TEMPO 1000 -SHRA BR BKN003 SCT012CB"
"12:00 PM EEST on October 07, 2016","2016","10","07","12","00","Europe/Kiev","9:00 AM GMT on October 07, 2016","2016","10","07","09","00","UTC","9","48","8","46","91","0.0","0.0","","","","","2","1","1017","30.02","-999","-999","-9999","-9999","","","Light Rain","rain","0","1","0","0","0","0","AAXX 07091 33345 41495 80000 10087 20079 39963 40166 58005 72162 8872/ 555 11010"
"12:00 PM EEST on October 07, 2016","2016","10","07","12","00","Europe/Kiev","9:00 AM GMT on October 07, 2016","2016","10","07","09","00","UTC","8.0","46.4","8.0","46.4","100","0.0","0.0","-9999.0","-9999.0","0","North","6.0","3.7","1016","30.01","-999","-999","-9999","-9999","-9999.00","-9999.00","Light Rain Showers","rain","0","1","0","0","0","0","METAR UKKK 070900Z 00000MPS 6000 -SHRA FEW006 SCT026CB BKN040 08/08 Q1016 R08/290157 TEMPO 2000 -SHRA BR BKN005 SCT012CB"
"12:30 PM EEST on October 07, 2016","2016","10","07","12","30","Europe/Kiev","9:30 AM GMT on October 07, 2016","2016","10","07","09","30","UTC","9.0","48.2","8.0","46.4","93","3.6","2.2","-9999.0","-9999.0","0","Variable","6.0","3.7","1016","30.01","-999","-999","-9999","-9999","-9999.00","-9999.00","Light Rain Showers","rain","0","1","0","0","0","0","METAR UKKK 070930Z VRB01MPS 6000 -SHRA FEW007 SCT026CB BKN040 09/08 Q1016 R08/290157 TEMPO 2000 -SHRA BR BKN005 SCT012CB"
"1:00 PM EEST on October 07, 2016","2016","10","07","13","00","Europe/Kiev","10:00 AM GMT on October 07, 2016","2016","10","07","10","00","UTC","9.0","48.2","8.0","46.4","93","10.8","6.7","-9999.0","-9999.0","140","SE","7.0","4.3","1016","30.01","-999","-999","-9999","-9999","-9999.00","-9999.00","Light Rain Showers","rain","0","1","0","0","0","0","METAR UKKK 071000Z 14003MPS 100V180 7000 -SHRA FEW010 SCT026CB BKN040 09/08 Q1016 R08/290157 TEMPO 2000 -SHRA BR BKN005 SCT012CB"
"1:30 PM EEST on October 07, 2016","2016","10","07","13","30","Europe/Kiev","10:30 AM GMT on October 07, 2016","2016","10","07","10","30","UTC","9.0","48.2","8.0","46.4","93","10.8","6.7","-9999.0","-9999.0","140","SE","6.0","3.7","1015","29.98","-999","-999","-9999","-9999","-9999.00","-9999.00","Light Rain Showers","rain","0","1","0","0","0","0","METAR UKKK 071030Z 14003MPS 100V170 6000 -SHRA FEW009 SCT026CB BKN040 09/08 Q1015 R08/290157 TEMPO 1400 -SHRA BR BKN005 SCT012CB"
"2:00 PM EEST on October 07, 2016","2016","10","07","14","00","Europe/Kiev","11:00 AM GMT on October 07, 2016","2016","10","07","11","00","UTC","9.0","48.2","7.0","44.6","87","14.4","8.9","-9999.0","-9999.0","130","SE","9.0","5.6","1015","29.98","-999","-999","-9999","-9999","-9999.00","-9999.00","Mostly Cloudy","mostlycloudy","0","0","0","0","0","0","METAR UKKK 071100Z 13004MPS 100V170 9000 FEW010 SCT026CB BKN040 09/07 Q1015 R08/290256 TEMPO 2000 -SHRA BR SCT005 SCT012CB"
"2:30 PM EEST on October 07, 2016","2016","10","07","14","30","Europe/Kiev","11:30 AM GMT on October 07, 2016","2016","10","07","11","30","UTC","9.0","48.2","8.0","46.4","93","10.8","6.7","-9999.0","-9999.0","130","SE","10.0","6.2","1015","29.98","-999","-999","-9999","-9999","-9999.00","-9999.00","Overcast","cloudy","0","0","0","0","0","0","METAR UKKK 071130Z 13003MPS 090V150 9999 FEW010 OVC033 09/08 Q1015 R08/290256 TEMPO 2000 -SHRA BR SCT005 SCT012CB"
"3:00 PM EEST on October 07, 2016","2016","10","07","15","00","Europe/Kiev","12:00 PM GMT on October 07, 2016","2016","10","07","12","00","UTC","9","48","8","46","88","3.6","2.2","","","190","South","4","2","1015","29.99","-999","-999","-9999","-9999","","","Mist","hazy","0","0","0","0","0","0","AAXX 07121 33345 /1596 71901 10090 20075 39951 40154 57012 71062 87500 555 11011 69961"
"3:00 PM EEST on October 07, 2016","2016","10","07","15","00","Europe/Kiev","12:00 PM GMT on October 07, 2016","2016","10","07","12","00","UTC","10.0","50.0","8.0","46.4","87","14.4","8.9","-9999.0","-9999.0","130","SE","10.0","6.2","1014","29.95","-999","-999","-9999","-9999","-9999.00","-9999.00","Mostly Cloudy","mostlycloudy","0","0","0","0","0","0","METAR UKKK 071200Z 13004MPS 110V170 9999 BKN033 10/08 Q1014 R08/290256 NOSIG"
"3:30 PM EEST on October 07, 2016","2016","10","07","15","30","Europe/Kiev","12:30 PM GMT on October 07, 2016","2016","10","07","12","30","UTC","10.0","50.0","8.0","46.4","87","14.4","8.9","-9999.0","-9999.0","150","SSE","10.0","6.2","1014","29.95","-999","-999","-9999","-9999","-9999.00","-9999.00","Mostly Cloudy","mostlycloudy","0","0","0","0","0","0","METAR UKKK 071230Z 15004MPS 110V180 9999 SCT015 BKN048 10/08 Q1014 R08/290158 NOSIG"
"4:00 PM EEST on October 07, 2016","2016","10","07","16","00","Europe/Kiev","1:00 PM GMT on October 07, 2016","2016","10","07","13","00","UTC","11.0","51.8","8.0","46.4","82","10.8","6.7","-9999.0","-9999.0","140","SE","10.0","6.2","1014","29.95","-999","-999","-9999","-9999","-9999.00","-9999.00","Mostly Cloudy","mostlycloudy","0","0","0","0","0","0","METAR UKKK 071300Z 14003MPS 110V180 9999 BKN040 11/08 Q1014 R08/290158 NOSIG"
"4:30 PM EEST on October 07, 2016","2016","10","07","16","30","Europe/Kiev","1:30 PM GMT on October 07, 2016","2016","10","07","13","30","UTC","10.0","50.0","8.0","46.4","87","10.8","6.7","-9999.0","-9999.0","140","SE","10.0","6.2","1014","29.95","-999","-999","-9999","-9999","-9999.00","-9999.00","Scattered Clouds","partlycloudy","0","0","0","0","0","0","METAR UKKK 071330Z 14003MPS 100V190 9999 FEW015 SCT030 10/08 Q1014 R08/290158 NOSIG"
"5:00 PM EEST on October 07, 2016","2016","10","07","17","00","Europe/Kiev","2:00 PM GMT on October 07, 2016","2016","10","07","14","00","UTC","11.0","51.8","8.0","46.4","82","10.8","6.7","-9999.0","-9999.0","130","SE","10.0","6.2","1014","29.95","-999","-999","-9999","-9999","-9999.00","-9999.00","Scattered Clouds","partlycloudy","0","0","0","0","0","0","METAR UKKK 071400Z 13003MPS 090V170 9999 FEW016 SCT030 11/08 Q1014 R08/150060 TEMPO VRB10G16MPS 2100 -TSRA SCT012CB"
"5:30 PM EEST on October 07, 2016","2016","10","07","17","30","Europe/Kiev","2:30 PM GMT on October 07, 2016","2016","10","07","14","30","UTC","10.0","50.0","7.0","44.6","82","7.2","4.5","-9999.0","-9999.0","150","SSE","10.0","6.2","1014","29.95","-999","-999","-9999","-9999","-9999.00","-9999.00","Mostly Cloudy","mostlycloudy","0","0","0","0","0","0","METAR UKKK 071430Z 15002MPS 9999 SCT026CB BKN040 10/07 Q1014 R08/150060 TEMPO VRB10G16MPS 2100 -TSRA SCT012CB"
"5:34 PM EEST on October 07, 2016","2016","10","07","17","34","Europe/Kiev","2:34 PM GMT on October 07, 2016","2016","10","07","14","34","UTC","9.0","48.2","5.0","41.0","76","10.8","6.7","28.8","17.9","240","WSW","9.0","5.6","1014","29.95","-999","-999","-9999","-9999","-9999.00","-9999.00","Mostly Cloudy","mostlycloudy","0","0","0","0","1","0","SPECI UKKK 071434Z 24003G08MPS 9000 VCTS SCT026CB BKN040 09/05 Q1014 R08/150060 TEMPO VRB10G16MPS 2100 -TSRA SCT012CB"
"5:53 PM EEST on October 07, 2016","2016","10","07","17","53","Europe/Kiev","2:53 PM GMT on October 07, 2016","2016","10","07","14","53","UTC","8.0","46.4","5.0","41.0","81","18.0","11.2","-9999.0","-9999.0","320","NW","10.0","6.2","1014","29.95","5.1","41.2","-9999","-9999","-9999.00","-9999.00","Light Thunderstorms and Rain","tstorms","0","1","0","0","1","0","SPECI UKKK 071453Z 32005MPS 9999 -TSRA SCT022CB BKN030 08/05 Q1014 R26/150060 TEMPO VRB10G16MPS 2100 -TSRA SCT012CB"
"6:00 PM EEST on October 07, 2016","2016","10","07","18","00","Europe/Kiev","3:00 PM GMT on October 07, 2016","2016","10","07","15","00","UTC","9","49","7","44","76","10.8","6.7","","","320","NW","10","6","1015","29.97","-999","-999","-9999","-9999","","","Mostly Cloudy","mostlycloudy","0","0","0","0","0","0","AAXX 07151 33345 42597 63203 10094 20066 39945 40147 57006 86300 555 11009"
"6:00 PM EEST on October 07, 2016","2016","10","07","18","00","Europe/Kiev","3:00 PM GMT on October 07, 2016","2016","10","07","15","00","UTC","7.0","44.6","4.0","39.2","81","21.6","13.4","-9999.0","-9999.0","310","NW","8.0","5.0","1014","29.95","3.4","38.2","-9999","-9999","-9999.00","-9999.00","Light Thunderstorms and Rain","tstorms","0","1","0","0","1","0","METAR UKKK 071500Z 31006MPS 8000 -TSRA SCT022CB BKN030 07/04 Q1014 R26/150060 TEMPO VRB10G16MPS 2100 -TSRA SCT012CB"
"6:30 PM EEST on October 07, 2016","2016","10","07","18","30","Europe/Kiev","3:30 PM GMT on October 07, 2016","2016","10","07","15","30","UTC","6.0","42.8","5.0","41.0","93","3.6","2.2","-9999.0","-9999.0","0","Variable","10.0","6.2","1014","29.95","-999","-999","-9999","-9999","-9999.00","-9999.00","Light Rain Showers","rain","0","1","0","0","1","0","METAR UKKK 071530Z VRB01MPS 9999 VCTS -SHRA SCT026CB BKN046 06/05 Q1014 RETS R26/290354 TEMPO VRB10G16MPS 2100 -TSRA SCT012CB"
"6:45 PM EEST on October 07, 2016","2016","10","07","18","45","Europe/Kiev","3:45 PM GMT on October 07, 2016","2016","10","07","15","45","UTC","6.0","42.8","5.0","41.0","93","3.6","2.2","-9999.0","-9999.0","120","ESE","9.0","5.6","1014","29.95","-999","-999","-9999","-9999","-9999.00","-9999.00","Mostly Cloudy","mostlycloudy","0","0","0","0","0","0","SPECI UKKK 071545Z 12001MPS 9000 SCT026CB BKN046 06/05 Q1014 R08/290354 TEMPO VRB10G16MPS 2100 -TSRA SCT012CB"
"7:00 PM EEST on October 07, 2016","2016","10","07","19","00","Europe/Kiev","4:00 PM GMT on October 07, 2016","2016","10","07","16","00","UTC","6.0","42.8","5.0","41.0","93","7.2","4.5","-9999.0","-9999.0","120","ESE","8.0","5.0","1015","29.98","4.5","40.2","-9999","-9999","-9999.00","-9999.00","Scattered Clouds","partlycloudy","0","0","0","0","0","0","METAR UKKK 071600Z 12002MPS 8000 FEW030CB SCT046 06/05 Q1015 R08/290256 NOSIG"
"7:30 PM EEST on October 07, 2016","2016","10","07","19","30","Europe/Kiev","4:30 PM GMT on October 07, 2016","2016","10","07","16","30","UTC","6.0","42.8","5.0","41.0","93","7.2","4.5","-9999.0","-9999.0","230","SW","9.0","5.6","1015","29.98","4.5","40.2","-9999","-9999","-9999.00","-9999.00","Unknown","unknown","0","0","0","0","0","0","METAR UKKK 071630Z 23002MPS 9000 NSC 06/05 Q1015 R08/290256 TEMPO 1000 BR"
"8:00 PM EEST on October 07, 2016","2016","10","07","20","00","Europe/Kiev","5:00 PM GMT on October 07, 2016","2016","10","07","17","00","UTC","6.0","42.8","5.0","41.0","93","7.2","4.5","-9999.0","-9999.0","210","SSW","-9999.0","-9999.0","1015","29.98","4.5","40.2","-9999","-9999","-9999.00","-9999.00","Clear","clear","0","0","0","0","0","0","METAR UKKK 071700Z 21002MPS CAVOK 06/05 Q1015 R26/290256 TEMPO 1000 BR"
"8:30 PM EEST on October 07, 2016","2016","10","07","20","30","Europe/Kiev","5:30 PM GMT on October 07, 2016","2016","10","07","17","30","UTC","6.0","42.8","5.0","41.0","93","10.8","6.7","-9999.0","-9999.0","230","SW","10.0","6.2","1016","30.01","3.7","38.7","-9999","-9999","-9999.00","-9999.00","Scattered Clouds","partlycloudy","0","0","0","0","0","0","METAR UKKK 071730Z 23003MPS 9999 FEW015 SCT100 06/05 Q1016 R26/290256 TEMPO 1000 BR"
"9:00 PM EEST on October 07, 2016","2016","10","07","21","00","Europe/Kiev","6:00 PM GMT on October 07, 2016","2016","10","07","18","00","UTC","6","44","5","42","89","3.6","2.2","","","280","West","4","2","1016","30.02","-999","-999","-9999","-9999","","","Mist","hazy","0","0","0","0","0","0","AAXX 07181 33345 11996 02801 10065 20054 39960 40165 53015 60072 71098 333 10107 555 11004"
"9:00 PM EEST on October 07, 2016","2016","10","07","21","00","Europe/Kiev","6:00 PM GMT on October 07, 2016","2016","10","07","18","00","UTC","6.0","42.8","5.0","41.0","93","7.2","4.5","-9999.0","-9999.0","250","WSW","9.0","5.6","1016","30.01","4.5","40.2","-9999","-9999","-9999.00","-9999.00","Unknown","unknown","0","0","0","0","0","0","METAR UKKK 071800Z 25002MPS 9000 NSC 06/05 Q1016 R26/290158 NOSIG"
"9:30 PM EEST on October 07, 2016","2016","10","07","21","30","Europe/Kiev","6:30 PM GMT on October 07, 2016","2016","10","07","18","30","UTC","5.0","41.0","5.0","41.0","100","10.8","6.7","-9999.0","-9999.0","280","West","-9999.0","-9999.0","1015","29.98","2.5","36.5","-9999","-9999","-9999.00","-9999.00","Clear","clear","0","0","0","0","0","0","METAR UKKK 071830Z 28003MPS 4900 BR SKC 05/05 Q1015 R26/290158 NOSIG"
"10:00 PM EEST on October 07, 2016","2016","10","07","22","00","Europe/Kiev","7:00 PM GMT on October 07, 2016","2016","10","07","19","00","UTC","5.0","41.0","4.0","39.2","93","7.2","4.5","-9999.0","-9999.0","270","West","9.0","5.6","1016","30.01","3.4","38.1","-9999","-9999","-9999.00","-9999.00","Clear","clear","0","0","0","0","0","0","METAR UKKK 071900Z 27002MPS 9000 SKC 05/04 Q1016 R26/290158 TEMPO 1200 BR"
"10:30 PM EEST on October 07, 2016","2016","10","07","22","30","Europe/Kiev","7:30 PM GMT on October 07, 2016","2016","10","07","19","30","UTC","4.0","39.2","4.0","39.2","100","3.6","2.2","-9999.0","-9999.0","270","West","6.0","3.7","1016","30.01","-999","-999","-9999","-9999","-9999.00","-9999.00","Clear","clear","0","0","0","0","0","0","METAR UKKK 071930Z 27001MPS 6000 SKC 04/04 Q1016 R26/290158 TEMPO 1200 BR"
"10:44 PM EEST on October 07, 2016","2016","10","07","22","44","Europe/Kiev","7:44 PM GMT on October 07, 2016","2016","10","07","19","44","UTC","4.0","39.2","3.0","37.4","93","3.6","2.2","-9999.0","-9999.0","230","SW","1.4","0.9","1016","30.01","-999","-999","-9999","-9999","-9999.00","-9999.00","Clear","clear","0","0","0","0","0","0","SPECI UKKK 071944Z 23001MPS 1400 R26/P2000U BR SKC 04/03 Q1016 R26/290158 TEMPO 1200 BR"
"10:55 PM EEST on October 07, 2016","2016","10","07","22","55","Europe/Kiev","7:55 PM GMT on October 07, 2016","2016","10","07","19","55","UTC","3.0","37.4","3.0","37.4","100","7.2","4.5","-9999.0","-9999.0","260","West","0.4","0.3","1016","30.01","1.0","33.9","-9999","-9999","-9999.00","-9999.00","Clear","clear","0","0","0","0","0","0","SPECI UKKK 071955Z 26002MPS 0450 R26/1200VP2000D PRFG SKC 03/03 Q1016 R26/290158 TEMPO 0400 FG VV001"
"11:00 PM EEST on October 07, 2016","2016","10","07","23","00","Europe/Kiev","8:00 PM GMT on October 07, 2016","2016","10","07","20","00","UTC","3.0","37.4","3.0","37.4","100","3.6","2.2","-9999.0","-9999.0","260","West","0.7","0.4","1016","30.01","-999","-999","-9999","-9999","-9999.00","-9999.00","Fog","fog","1","0","0","0","0","0","METAR UKKK 072000Z 26001MPS 0700 R26/0400VP2000D FG SKC 03/03 Q1016 R26/290158 TEMPO 0400 FG VV001"
"11:20 PM EEST on October 07, 2016","2016","10","07","23","20","Europe/Kiev","8:20 PM GMT on October 07, 2016","2016","10","07","20","20","UTC","3.0","37.4","3.0","37.4","100","3.6","2.2","-9999.0","-9999.0","250","WSW","0.3","0.2","1016","30.01","-999","-999","-9999","-9999","-9999.00","-9999.00","Clear","clear","0","0","0","0","0","0","SPECI UKKK 072020Z 25001MPS 0300 R26/0650VP2000D PRFG SKC 03/03 Q1016 R26/290158 TEMPO 0400 FG VV001"
"11:30 PM EEST on October 07, 2016","2016","10","07","23","30","Europe/Kiev","8:30 PM GMT on October 07, 2016","2016","10","07","20","30","UTC","3.0","37.4","3.0","37.4","100","3.6","2.2","-9999.0","-9999.0","240","WSW","0.4","0.3","1016","30.01","-999","-999","-9999","-9999","-9999.00","-9999.00","Clear","clear","0","0","0","0","0","0","METAR UKKK 072030Z 24001MPS 0450 R26/1700VP2000U PRFG SKC 03/03 Q1016 R26/290158 TEMPO 0400 FG VV001"
"11:39 PM EEST on October 07, 2016","2016","10","07","23","39","Europe/Kiev","8:39 PM GMT on October 07, 2016","2016","10","07","20","39","UTC","3.0","37.4","3.0","37.4","100","3.6","2.2","-9999.0","-9999.0","260","West","0.3","0.2","1016","30.01","-999","-999","-9999","-9999","-9999.00","-9999.00","Clear","clear","0","0","0","0","0","0","SPECI UKKK 072039Z 26001MPS 0300 R26/0550VP2000D PRFG SKC 03/03 Q1016 R26/290158 TEMPO 0400 FG VV001"
"12:00 AM EEST on October 08, 2016","2016","10","08","00","00","Europe/Kiev","9:00 PM GMT on October 07, 2016","2016","10","07","21","00","UTC","5","41","4","40","92","3.6","2.2","","","220","SW","4","2","1017","30.04","-999","-999","-9999","-9999","","","Mist","hazy","0","0","0","0","0","0","AAXX 07211 33345 41996 02201 10051 20042 39966 40172 52006 71000 555 11002"
"12:00 AM EEST on October 08, 2016","2016","10","08","00","00","Europe/Kiev","9:00 PM GMT on October 07, 2016","2016","10","07","21","00","UTC","3.0","37.4","3.0","37.4","100","7.2","4.5","-9999.0","-9999.0","230","SW","-9999.0","-9999.0","1016","30.01","1.0","33.9","-9999","-9999","-9999.00","-9999.00","Partly Cloudy","partlycloudy","0","0","0","0","0","0","METAR UKKK 072100Z 23002MPS 4200 BR FEW003 03/03 Q1016 R26/290158 TEMPO 0400 FG VV001"
"12:18 AM EEST on October 08, 2016","2016","10","08","00","18","Europe/Kiev","9:18 PM GMT on October 07, 2016","2016","10","07","21","18","UTC","3.0","37.4","3.0","37.4","100","3.6","2.2","-9999.0","-9999.0","210","SSW","1.3","0.8","1016","30.01","-999","-999","-9999","-9999","-9999.00","-9999.00","Fog","fog","1","0","0","0","0","0","SPECI UKKK 072118Z 21001MPS 1300 R08/1800VP2000D FG SKC 03/03 Q1016 R08/290158 TEMPO 0400 FG VV001"
"12:21 AM EEST on October 08, 2016","2016","10","08","00","21","Europe/Kiev","9:21 PM GMT on October 07, 2016","2016","10","07","21","21","UTC","3.0","37.4","3.0","37.4","100","3.6","2.2","-9999.0","-9999.0","210","SSW","0.3","0.2","1016","30.01","-999","-999","-9999","-9999","-9999.00","-9999.00","Clear","clear","0","0","0","0","0","0","SPECI UKKK 072121Z 21001MPS 0350 R08/0800VP2000D PRFG SKC 03/03 Q1016 R08/290158 TEMPO 0400 FG VV001"
"12:28 AM EEST on October 08, 2016","2016","10","08","00","28","Europe/Kiev","9:28 PM GMT on October 07, 2016","2016","10","07","21","28","UTC","2.0","35.6","2.0","35.6","100","0.0","0.0","-9999.0","-9999.0","0","North","0.3","0.2","1016","30.01","-999","-999","-9999","-9999","-9999.00","-9999.00","Clear","clear","0","0","0","0","0","0","SPECI UKKK 072128Z 00000MPS 0350 R08/0650V1300D PRFG SKC 02/02 Q1016 R08/290158 TEMPO 0400 FG VV001"
"12:30 AM EEST on October 08, 2016","2016","10","08","00","30","Europe/Kiev","9:30 PM GMT on October 07, 2016","2016","10","07","21","30","UTC","2.0","35.6","2.0","35.6","100","0.0","0.0","-9999.0","-9999.0","0","North","0.3","0.2","1016","30.01","-999","-999","-9999","-9999","-9999.00","-9999.00","Clear","clear","0","0","0","0","0","0","METAR UKKK 072130Z 00000MPS 0300 R08/0500V1300D PRFG SKC 02/02 Q1016 R08/290158 TEMPO 0400 FG VV001"
"1:00 AM EEST on October 08, 2016","2016","10","08","01","00","Europe/Kiev","10:00 PM GMT on October 07, 2016","2016","10","07","22","00","UTC","2.0","35.6","2.0","35.6","100","0.0","0.0","-9999.0","-9999.0","0","North","0.3","0.2","1016","30.01","-999","-999","-9999","-9999","-9999.00","-9999.00","Partly Cloudy","partlycloudy","0","0","0","0","0","0","METAR UKKK 072200Z 00000MPS 0300 R08/0500VP2000U PRFG FEW003 02/02 Q1016 R08/290158 TEMPO 0400 FG VV001"
"1:30 AM EEST on October 08, 2016","2016","10","08","01","30","Europe/Kiev","10:30 PM GMT on October 07, 2016","2016","10","07","22","30","UTC","2.0","35.6","2.0","35.6","100","3.6","2.2","-9999.0","-9999.0","0","Variable","0.1","0.1","1016","30.01","-999","-999","-9999","-9999","-9999.00","-9999.00","Mostly Cloudy","mostlycloudy","0","0","0","0","0","0","METAR UKKK 072230Z VRB01MPS 0150 R08/0550VP2000U PRFG FEW003 BKN240 02/02 Q1016 R08/290158 TEMPO 0200 FG VV001"
"1:43 AM EEST on October 08, 2016","2016","10","08","01","43","Europe/Kiev","10:43 PM GMT on October 07, 2016","2016","10","07","22","43","UTC","2.0","35.6","2.0","35.6","100","3.6","2.2","-9999.0","-9999.0","240","WSW","1.6","1.0","1016","30.01","-999","-999","-9999","-9999","-9999.00","-9999.00","Mist","hazy","0","0","0","0","0","0","SPECI UKKK 072243Z 24001MPS 1600 BR NSC 02/02 Q1016 R26/290158 TEMPO 0200 FG VV001"
"2:00 AM EEST on October 08, 2016","2016","10","08","02","00","Europe/Kiev","11:00 PM GMT on October 07, 2016","2016","10","07","23","00","UTC","2.0","35.6","2.0","35.6","100","7.2","4.5","-9999.0","-9999.0","260","West","0.7","0.4","1016","30.01","-0.1","31.8","-9999","-9999","-9999.00","-9999.00","Partly Cloudy","partlycloudy","0","0","0","0","0","0","METAR UKKK 072300Z 26002MPS 0700 R26/P2000U PRFG FEW003 02/02 Q1016 R26/290158 TEMPO 0200 FG VV001"
"2:15 AM EEST on October 08, 2016","2016","10","08","02","15","Europe/Kiev","11:15 PM GMT on October 07, 2016","2016","10","07","23","15","UTC","2.0","35.6","2.0","35.6","100","7.2","4.5","-9999.0","-9999.0","240","WSW","-9999.0","-9999.0","1016","30.01","-0.1","31.8","-9999","-9999","-9999.00","-9999.00","Clear","clear","0","0","0","0","0","0","SPECI UKKK 072315Z 24002MPS 3800 BR SKC 02/02 Q1016 R26/290158 TEMPO 0200 FG VV001"
"2:30 AM EEST on October 08, 2016","2016","10","08","02","30","Europe/Kiev","11:30 PM GMT on October 07, 2016","2016","10","07","23","30","UTC","3.0","37.4","3.0","37.4","100","7.2","4.5","-9999.0","-9999.0","240","WSW","5.0","3.1","1016","30.01","1.0","33.9","-9999","-9999","-9999.00","-9999.00","Shallow Fog","fog","1","0","0","0","0","0","METAR UKKK 072330Z 24002MPS 5000 MIFG BR SKC 03/03 Q1016 R26/290158 TEMPO 0200 FG VV001"
"2:42 AM EEST on October 08, 2016","2016","10","08","02","42","Europe/Kiev","11:42 PM GMT on October 07, 2016","2016","10","07","23","42","UTC","2.0","35.6","2.0","35.6","100","7.2","4.5","-9999.0","-9999.0","260","West","0.8","0.5","1016","30.01","-0.1","31.8","-9999","-9999","-9999.00","-9999.00","Clear","clear","0","0","0","0","0","0","SPECI UKKK 072342Z 26002MPS 0800 R26/P2000D PRFG SKC 02/02 Q1016 R26/290158 TEMPO 0200 FG VV001"
"2:45 AM EEST on October 08, 2016","2016","10","08","02","45","Europe/Kiev","11:45 PM GMT on October 07, 2016","2016","10","07","23","45","UTC","2.0","35.6","2.0","35.6","100","7.2","4.5","-9999.0","-9999.0","250","WSW","0.6","0.4","1016","30.01","-0.1","31.8","-9999","-9999","-9999.00","-9999.00","Clear","clear","0","0","0","0","0","0","SPECI UKKK 072345Z 25002MPS 0600 R26/P2000D PRFG SKC 02/02 Q1016 R26/290158 TEMPO 0200 FG VV001"
"2:51 AM EEST on October 08, 2016","2016","10","08","02","51","Europe/Kiev","11:51 PM GMT on October 07, 2016","2016","10","07","23","51","UTC","2.0","35.6","2.0","35.6","100","3.6","2.2","-9999.0","-9999.0","0","Variable","-9999.0","-9999.0","1017","30.04","-999","-999","-9999","-9999","-9999.00","-9999.00","Clear","clear","0","0","0","0","0","0","SPECI UKKK 072351Z VRB01MPS 0750 R26/1300VP2000D PRFG SKC 02/02 Q1017 R26/290158 TEMPO 0200 FG VV001"
"3:00 AM EEST on October 08, 2016","2016","10","08","03","00","Europe/Kiev","12:00 AM GMT on October 08, 2016","2016","10","08","00","00","UTC","4","39","3","38","94","3.6","2.2","","","320","NW","4","2","1018","30.06","-999","-999","-9999","-9999","","","Mist","hazy","0","0","0","0","0","0","AAXX 08001 33345 31996 03201 10040 20033 39970 40177 52004 71000 555 11001"
"3:00 AM EEST on October 08, 2016","2016","10","08","03","00","Europe/Kiev","12:00 AM GMT on October 08, 2016","2016","10","08","00","00","UTC","2.0","35.6","2.0","35.6","100","3.6","2.2","-9999.0","-9999.0","0","Variable","1.2","0.7","1016","30.01","-999","-999","-9999","-9999","-9999.00","-9999.00","Partly Cloudy","partlycloudy","0","0","0","0","0","0","METAR UKKK 080000Z VRB01MPS 1200 R26/0900VP2000U BR FEW002 02/02 Q1016 R26/290158 TEMPO 0200 FG VV001"
"3:06 AM EEST on October 08, 2016","2016","10","08","03","06","Europe/Kiev","12:06 AM GMT on October 08, 2016","2016","10","08","00","06","UTC","1.0","33.8","1.0","33.8","100","3.6","2.2","-9999.0","-9999.0","250","WSW","-9999.0","-9999.0","1017","30.04","-999","-999","-9999","-9999","-9999.00","-9999.00","Partly Cloudy","partlycloudy","0","0","0","0","0","0","SPECI UKKK 080006Z 25001MPS 0550 R26/P2000U PRFG FEW003 01/01 Q1017 R26/290158 TEMPO 0200 FG VV001"
"3:30 AM EEST on October 08, 2016","2016","10","08","03","30","Europe/Kiev","12:30 AM GMT on October 08, 2016","2016","10","08","00","30","UTC","1.0","33.8","1.0","33.8","100","3.6","2.2","-9999.0","-9999.0","0","Variable","0.2","0.1","1017","30.04","-999","-999","-9999","-9999","-9999.00","-9999.00","Fog","fog","1","0","0","0","0","0","METAR UKKK 080030Z VRB01MPS 0200 R26/1400VP2000D FG FEW004 SCT200 01/01 Q1017 R26/290158 TEMPO 0200 FG VV001"
"3:39 AM EEST on October 08, 2016","2016","10","08","03","39","Europe/Kiev","12:39 AM GMT on October 08, 2016","2016","10","08","00","39","UTC","1.0","33.8","1.0","33.8","100","0.0","0.0","-9999.0","-9999.0","0","North","0.2","0.2","1017","30.04","-999","-999","-9999","-9999","-9999.00","-9999.00","Fog","fog","1","0","0","0","0","0","SPECI UKKK 080039Z 00000MPS 0250 R26/0700VP2000U FG FEW004 SCT200 01/01 Q1017 R26/290158 TEMPO 0200 FG VV001"
"4:00 AM EEST on October 08, 2016","2016","10","08","04","00","Europe/Kiev","1:00 AM GMT on October 08, 2016","2016","10","08","01","00","UTC","1.0","33.8","1.0","33.8","100","0.0","0.0","-9999.0","-9999.0","0","North","0.5","0.3","1016","30.01","-999","-999","-9999","-9999","-9999.00","-9999.00","Fog","fog","1","0","0","0","0","0","METAR UKKK 080100Z 00000MPS 0500 R26/0650VP2000D FG NSC 01/01 Q1016 R26/290158 TEMPO 0200 FG VV001"
"4:30 AM EEST on October 08, 2016","2016","10","08","04","30","Europe/Kiev","1:30 AM GMT on October 08, 2016","2016","10","08","01","30","UTC","1.0","33.8","1.0","33.8","100","0.0","0.0","-9999.0","-9999.0","0","North","-9999.0","-9999.0","1016","30.01","-999","-999","-9999","-9999","-9999.00","-9999.00","Mostly Cloudy","mostlycloudy","0","0","0","0","0","0","METAR UKKK 080130Z 00000MPS 0550 R26/P2000U PRFG FEW003 BKN200 01/01 Q1016 R26/290158 TEMPO 0200 FG VV001"
"4:54 AM EEST on October 08, 2016","2016","10","08","04","54","Europe/Kiev","1:54 AM GMT on October 08, 2016","2016","10","08","01","54","UTC","1.0","33.8","1.0","33.8","100","0.0","0.0","-9999.0","-9999.0","0","North","0.4","0.3","1017","30.04","-999","-999","-9999","-9999","-9999.00","-9999.00","Fog","fog","1","0","0","0","0","0","SPECI UKKK 080154Z 00000MPS 0450 R26/0600VP2000D FG FEW006 BKN180 01/01 Q1017 R26/290158 TEMPO 0200 FG VV001"
"5:00 AM EEST on October 08, 2016","2016","10","08","05","00","Europe/Kiev","2:00 AM GMT on October 08, 2016","2016","10","08","02","00","UTC","1.0","33.8","1.0","33.8","100","0.0","0.0","-9999.0","-9999.0","0","North","0.1","0.1","1017","30.04","-999","-999","-9999","-9999","-9999.00","-9999.00","Unknown","unknown","0","0","0","0","0","0","METAR UKKK 080200Z 00000MPS 0150 R26/0650D PRFG NSC 01/01 Q1017 R26/290158 TEMPO 0200 FG VV001"
"5:30 AM EEST on October 08, 2016","2016","10","08","05","30","Europe/Kiev","2:30 AM GMT on October 08, 2016","2016","10","08","02","30","UTC","1.0","33.8","1.0","33.8","100","0.0","0.0","-9999.0","-9999.0","0","North","0.4","0.2","1017","30.04","-999","-999","-9999","-9999","-9999.00","-9999.00","Mostly Cloudy","mostlycloudy","0","0","0","0","0","0","METAR UKKK 080230Z 00000MPS 0400 R26/0800V1400N PRFG FEW005 BKN180 01/01 Q1017 R26/290158 TEMPO 0200 FG VV001"
"6:00 AM EEST on October 08, 2016","2016","10","08","06","00","Europe/Kiev","3:00 AM GMT on October 08, 2016","2016","10","08","03","00","UTC","4","38","3","37","97","0.0","0.0","","","","","4","2","1018","30.06","-999","-999","-9999","-9999","","","Mist","hazy","0","0","0","0","0","0","AAXX 08031 33345 41996 40000 10035 20030 39972 40179 52002 71000 84030 555 11002"
"6:00 AM EEST on October 08, 2016","2016","10","08","06","00","Europe/Kiev","3:00 AM GMT on October 08, 2016","2016","10","08","03","00","UTC","1.0","33.8","1.0","33.8","100","0.0","0.0","-9999.0","-9999.0","0","North","0.3","0.2","1017","30.04","-999","-999","-9999","-9999","-9999.00","-9999.00","Unknown","unknown","0","0","0","0","0","0","METAR UKKK 080300Z 00000MPS 0350 R26/P2000D PRFG NSC 01/01 Q1017 R26/290158 TEMPO 0200 FG VV001"
"6:30 AM EEST on October 08, 2016","2016","10","08","06","30","Europe/Kiev","3:30 AM GMT on October 08, 2016","2016","10","08","03","30","UTC","2.0","35.6","2.0","35.6","100","3.6","2.2","-9999.0","-9999.0","0","Variable","1.2","0.7","1017","30.04","-999","-999","-9999","-9999","-9999.00","-9999.00","Mist","hazy","0","0","0","0","0","0","METAR UKKK 080330Z VRB01MPS 1200 R26/P2000N BR NSC 02/02 Q1017 R26/290058 TEMPO 0200 FG VV001"
"7:00 AM EEST on October 08, 2016","2016","10","08","07","00","Europe/Kiev","4:00 AM GMT on October 08, 2016","2016","10","08","04","00","UTC","2.0","35.6","2.0","35.6","100","3.6","2.2","-9999.0","-9999.0","290","WNW","2.0","1.2","1017","30.04","-999","-999","-9999","-9999","-9999.00","-9999.00","Mist","hazy","0","0","0","0","0","0","METAR UKKK 080400Z 29001MPS 2000 BR NSC 02/02 Q1017 R26/290058 TEMPO 0500 FG VV002"
"7:30 AM EEST on October 08, 2016","2016","10","08","07","30","Europe/Kiev","4:30 AM GMT on October 08, 2016","2016","10","08","04","30","UTC","3.0","37.4","3.0","37.4","100","0.0","0.0","-9999.0","-9999.0","0","North","-9999.0","-9999.0","1017","30.04","-999","-999","-9999","-9999","-9999.00","-9999.00","Mist","hazy","0","0","0","0","0","0","METAR UKKK 080430Z 00000MPS 3600 BR NSC 03/03 Q1017 R26/290058 TEMPO 1000 BR BKN003"
"8:00 AM EEST on October 08, 2016","2016","10","08","08","00","Europe/Kiev","5:00 AM GMT on October 08, 2016","2016","10","08","05","00","UTC","3.0","37.4","3.0","37.4","100","0.0","0.0","-9999.0","-9999.0","0","North","-9999.0","-9999.0","1017","30.04","-999","-999","-9999","-9999","-9999.00","-9999.00","Mist","hazy","0","0","0","0","0","0","METAR UKKK 080500Z 00000MPS 3700 BR NSC 03/03 Q1017 R26/290058 TEMPO 1000 BR BKN003"
"8:09 AM EEST on October 08, 2016","2016","10","08","08","09","Europe/Kiev","5:09 AM GMT on October 08, 2016","2016","10","08","05","09","UTC","3.0","37.4","3.0","37.4","100","0.0","0.0","-9999.0","-9999.0","0","North","1.3","0.8","1017","30.04","-999","-999","-9999","-9999","-9999.00","-9999.00","Mist","hazy","0","0","0","0","0","0","SPECI UKKK 080509Z 00000MPS 1300 R08/1400VP2000D BR NSC 03/03 Q1017 R08/290058 TEMPO 1000 BR BKN003"
"8:21 AM EEST on October 08, 2016","2016","10","08","08","21","Europe/Kiev","5:21 AM GMT on October 08, 2016","2016","10","08","05","21","UTC","4.0","39.2","4.0","39.2","100","0.0","0.0","-9999.0","-9999.0","0","North","-9999.0","-9999.0","1016","30.01","-999","-999","-9999","-9999","-9999.00","-9999.00","Mist","hazy","0","0","0","0","0","0","SPECI UKKK 080521Z 00000MPS 3600 BR NSC 04/04 Q1016 R08/290058 TEMPO 0400 FG"
"8:30 AM EEST on October 08, 2016","2016","10","08","08","30","Europe/Kiev","5:30 AM GMT on October 08, 2016","2016","10","08","05","30","UTC","4.0","39.2","4.0","39.2","100","3.6","2.2","-9999.0","-9999.0","0","Variable","6.0","3.7","1017","30.04","-999","-999","-9999","-9999","-9999.00","-9999.00","Unknown","unknown","0","0","0","0","0","0","METAR UKKK 080530Z VRB01MPS 6000 NSC 04/04 Q1017 R08/290058 TEMPO 1000 BR"
"9:00 AM EEST on October 08, 2016","2016","10","08","09","00","Europe/Kiev","6:00 AM GMT on October 08, 2016","2016","10","08","06","00","UTC","6","42","5","41","95","3.6","2.2","","","60","ENE","4","2","1018","30.06","-999","-999","-9999","-9999","","","Mist","hazy","0","0","0","0","0","0","AAXX 08061 33345 31496 80601 10055 20050 39972 40178 54000 71011 886// 333 20030 555 11006 31001 52000"
"9:00 AM EEST on October 08, 2016","2016","10","08","09","00","Europe/Kiev","6:00 AM GMT on October 08, 2016","2016","10","08","06","00","UTC","6.0","42.8","6.0","42.8","100","7.2","4.5","-9999.0","-9999.0","30","NNE","6.0","3.7","1017","30.04","4.5","40.2","-9999","-9999","-9999.00","-9999.00","Unknown","unknown","0","0","0","0","0","0","METAR UKKK 080600Z 03002MPS 320V060 6000 NSC 06/06 Q1017 R08/290058 TEMPO 1000 BR"
"9:30 AM EEST on October 08, 2016","2016","10","08","09","30","Europe/Kiev","6:30 AM GMT on October 08, 2016","2016","10","08","06","30","UTC","7.0","44.6","7.0","44.6","100","10.8","6.7","-9999.0","-9999.0","60","ENE","8.0","5.0","1017","30.04","4.9","40.8","-9999","-9999","-9999.00","-9999.00","Unknown","unknown","0","0","0","0","0","0","METAR UKKK 080630Z 06003MPS 8000 NSC 07/07 Q1017 R08/290058 NOSIG"
"10:00 AM EEST on October 08, 2016","2016","10","08","10","00","Europe/Kiev","7:00 AM GMT on October 08, 2016","2016","10","08","07","00","UTC","7.0","44.6","7.0","44.6","100","10.8","6.7","-9999.0","-9999.0","80","East","10.0","6.2","1017","30.04","4.9","40.8","-9999","-9999","-9999.00","-9999.00","Mostly Cloudy","mostlycloudy","0","0","0","0","0","0","METAR UKKK 080700Z 08003MPS 9999 FEW007 BKN100 07/07 Q1017 R08/290058 NOSIG"
"10:30 AM EEST on October 08, 2016","2016","10","08","10","30","Europe/Kiev","7:30 AM GMT on October 08, 2016","2016","10","08","07","30","UTC","7.0","44.6","6.0","42.8","93","10.8","6.7","-9999.0","-9999.0","60","ENE","10.0","6.2","1017","30.04","4.9","40.8","-9999","-9999","-9999.00","-9999.00","Mostly Cloudy","mostlycloudy","0","0","0","0","0","0","METAR UKKK 080730Z 06003MPS 030V100 9999 FEW008 BKN100 07/06 Q1017 R08/290058 NOSIG"
"11:00 AM EEST on October 08, 2016","2016","10","08","11","00","Europe/Kiev","8:00 AM GMT on October 08, 2016","2016","10","08","08","00","UTC","8.0","46.4","5.0","41.0","81","14.4","8.9","-9999.0","-9999.0","60","ENE","10.0","6.2","1017","30.04","5.6","42.0","-9999","-9999","-9999.00","-9999.00","Mostly Cloudy","mostlycloudy","0","0","0","0","0","0","METAR UKKK 080800Z 06004MPS 9999 FEW008 BKN100 08/05 Q1017 R08/290058 NOSIG"
"11:30 AM EEST on October 08, 2016","2016","10","08","11","30","Europe/Kiev","8:30 AM GMT on October 08, 2016","2016","10","08","08","30","UTC","8.0","46.4","5.0","41.0","81","14.4","8.9","-9999.0","-9999.0","60","ENE","10.0","6.2","1017","30.04","5.6","42.0","-9999","-9999","-9999.00","-9999.00","Mostly Cloudy","mostlycloudy","0","0","0","0","0","0","METAR UKKK 080830Z 06004MPS 9999 FEW008 BKN100 08/05 Q1017 R08/290058 NOSIG"
"12:00 PM EEST on October 08, 2016","2016","10","08","12","00","Europe/Kiev","9:00 AM GMT on October 08, 2016","2016","10","08","09","00","UTC","8","47","6","42","76","7.2","4.5","","","70","ENE","10","6","1018","30.05","-999","-999","-9999","-9999","","","Overcast","cloudy","0","0","0","0","0","0","AAXX 08091 33345 42997 80702 10082 20055 39972 40176 54000 8807/ 555 11012"
"12:00 PM EEST on October 08, 2016","2016","10","08","12","00","Europe/Kiev","9:00 AM GMT on October 08, 2016","2016","10","08","09","00","UTC","9.0","48.2","5.0","41.0","76","14.4","8.9","-9999.0","-9999.0","60","ENE","-9999.0","-9999.0","1017","30.04","-999","-999","-9999","-9999","-9999.00","-9999.00","Clear","clear","0","0","0","0","0","0","METAR UKKK 080900Z 06004MPS CAVOK 09/05 Q1017 R08/290058 NOSIG"
"12:30 PM EEST on October 08, 2016","2016","10","08","12","30","Europe/Kiev","9:30 AM GMT on October 08, 2016","2016","10","08","09","30","UTC","9.0","48.2","5.0","41.0","76","10.8","6.7","-9999.0","-9999.0","40","NE","10.0","6.2","1017","30.04","-999","-999","-9999","-9999","-9999.00","-9999.00","Mostly Cloudy","mostlycloudy","0","0","0","0","0","0","METAR UKKK 080930Z 04003MPS 9999 SCT014 BKN100 09/05 Q1017 R08/190060 NOSIG"
"1:00 PM EEST on October 08, 2016","2016","10","08","13","00","Europe/Kiev","10:00 AM GMT on October 08, 2016","2016","10","08","10","00","UTC","9.0","48.2","6.0","42.8","82","14.4","8.9","-9999.0","-9999.0","20","NNE","10.0","6.2","1017","30.04","-999","-999","-9999","-9999","-9999.00","-9999.00","Mostly Cloudy","mostlycloudy","0","0","0","0","0","0","METAR UKKK 081000Z 02004MPS 350V060 9999 SCT012 BKN076 09/06 Q1017 R08/190060 NOSIG"
"1:30 PM EEST on October 08, 2016","2016","10","08","13","30","Europe/Kiev","10:30 AM GMT on October 08, 2016","2016","10","08","10","30","UTC","9.0","48.2","6.0","42.8","82","14.4","8.9","-9999.0","-9999.0","10","North","10.0","6.2","1017","30.04","-999","-999","-9999","-9999","-9999.00","-9999.00","Mostly Cloudy","mostlycloudy","0","0","0","0","0","0","METAR UKKK 081030Z 01004MPS 9999 SCT014 BKN060 09/06 Q1017 R08/190060 NOSIG"
"2:00 PM EEST on October 08, 2016","2016","10","08","14","00","Europe/Kiev","11:00 AM GMT on October 08, 2016","2016","10","08","11","00","UTC","8.0","46.4","5.0","41.0","81","14.4","8.9","-9999.0","-9999.0","40","NE","10.0","6.2","1017","30.04","5.6","42.0","-9999","-9999","-9999.00","-9999.00","Mostly Cloudy","mostlycloudy","0","0","0","0","0","0","METAR UKKK 081100Z 04004MPS 9999 SCT012 BKN053 08/05 Q1017 R08/CLRD70 NOSIG"
"2:30 PM EEST on October 08, 2016","2016","10","08","14","30","Europe/Kiev","11:30 AM GMT on October 08, 2016","2016","10","08","11","30","UTC","8.0","46.4","6.0","42.8","87","14.4","8.9","-9999.0","-9999.0","30","NNE","10.0","6.2","1016","30.01","5.6","42.0","-9999","-9999","-9999.00","-9999.00","Mostly Cloudy","mostlycloudy","0","0","0","0","0","0","METAR UKKK 081130Z 03004MPS 9999 SCT015 BKN056 08/06 Q1016 R08/CLRD70 NOSIG"
"3:00 PM EEST on October 08, 2016","2016","10","08","15","00","Europe/Kiev","12:00 PM GMT on October 08, 2016","2016","10","08","12","00","UTC","8","46","5","41","78","10.8","6.7","","","50","NE","10","6","1017","30.04","-999","-999","-9999","-9999","","","Overcast","cloudy","0","0","0","0","0","0","AAXX 08121 33345 32997 80503 10079 20052 39968 40172 58004 8807/ 555 11011"
"3:00 PM EEST on October 08, 2016","2016","10","08","15","00","Europe/Kiev","12:00 PM GMT on October 08, 2016","2016","10","08","12","00","UTC","8.0","46.4","5.0","41.0","81","18.0","11.2","-9999.0","-9999.0","20","NNE","10.0","6.2","1016","30.01","5.1","41.2","-9999","-9999","-9999.00","-9999.00","Mostly Cloudy","mostlycloudy","0","0","0","0","0","0","METAR UKKK 081200Z 02005MPS 9999 SCT011 BKN056 08/05 Q1016 R08/CLRD70 NOSIG"
"3:30 PM EEST on October 08, 2016","2016","10","08","15","30","Europe/Kiev","12:30 PM GMT on October 08, 2016","2016","10","08","12","30","UTC","8.0","46.4","5.0","41.0","81","21.6","13.4","-9999.0","-9999.0","30","NNE","10.0","6.2","1016","30.01","4.7","40.5","-9999","-9999","-9999.00","-9999.00","Mostly Cloudy","mostlycloudy","0","0","0","0","0","0","METAR UKKK 081230Z 03006MPS 9999 SCT011 BKN046 08/05 Q1016 R08/CLRD70 NOSIG"
"4:00 PM EEST on October 08, 2016","2016","10","08","16","00","Europe/Kiev","1:00 PM GMT on October 08, 2016","2016","10","08","13","00","UTC","8.0","46.4","6.0","42.8","87","18.0","11.2","-9999.0","-9999.0","20","NNE","10.0","6.2","1016","30.01","5.1","41.2","-9999","-9999","-9999.00","-9999.00","Light Rain","rain","0","1","0","0","0","0","METAR UKKK 081300Z 02005MPS 9999 -RA SCT011 OVC048 08/06 Q1016 R08/CLRD70 NOSIG"
"4:30 PM EEST on October 08, 2016","2016","10","08","16","30","Europe/Kiev","1:30 PM GMT on October 08, 2016","2016","10","08","13","30","UTC","7.0","44.6","6.0","42.8","93","14.4","8.9","-9999.0","-9999.0","20","NNE","9.0","5.6","1016","30.01","4.3","39.8","-9999","-9999","-9999.00","-9999.00","Light Rain","rain","0","1","0","0","0","0","METAR UKKK 081330Z 02004MPS 9000 -RA SCT010 OVC046 07/06 Q1016 R08/290058 NOSIG"
"5:00 PM EEST on October 08, 2016","2016","10","08","17","00","Europe/Kiev","2:00 PM GMT on October 08, 2016","2016","10","08","14","00","UTC","7.0","44.6","6.0","42.8","93","18.0","11.2","-9999.0","-9999.0","20","NNE","8.0","5.0","1016","30.01","3.8","38.9","-9999","-9999","-9999.00","-9999.00","Light Rain","rain","0","1","0","0","0","0","METAR UKKK 081400Z 02005MPS 350V050 8000 -RA SCT010 OVC046 07/06 Q1016 R08/290058 NOSIG"
"5:30 PM EEST on October 08, 2016","2016","10","08","17","30","Europe/Kiev","2:30 PM GMT on October 08, 2016","2016","10","08","14","30","UTC","7.0","44.6","6.0","42.8","93","18.0","11.2","-9999.0","-9999.0","10","North","9.0","5.6","1015","29.98","3.8","38.9","-9999","-9999","-9999.00","-9999.00","Light Rain","rain","0","1","0","0","0","0","METAR UKKK 081430Z 01005MPS 9000 -RA SCT010 OVC041 07/06 Q1015 R08/290058 NOSIG"
"6:00 PM EEST on October 08, 2016","2016","10","08","18","00","Europe/Kiev","3:00 PM GMT on October 08, 2016","2016","10","08","15","00","UTC","7","45","6","43","89","14.4","8.9","","","40","NE","4","2","1016","30.01","-999","-999","-9999","-9999","","","Light Rain","rain","0","1","0","0","0","0","AAXX 08151 33345 41496 80404 10073 20060 39957 40161 57011 76162 8552/ 555 11008"
"6:00 PM EEST on October 08, 2016","2016","10","08","18","00","Europe/Kiev","3:00 PM GMT on October 08, 2016","2016","10","08","15","00","UTC","7.0","44.6","7.0","44.6","100","14.4","8.9","-9999.0","-9999.0","10","North","9.0","5.6","1015","29.98","4.3","39.8","-9999","-9999","-9999.00","-9999.00","Light Rain","rain","0","1","0","0","0","0","METAR UKKK 081500Z 01004MPS 340V040 9000 -RA SCT008 OVC038 07/07 Q1015 R08/290256 NOSIG"
"6:30 PM EEST on October 08, 2016","2016","10","08","18","30","Europe/Kiev","3:30 PM GMT on October 08, 2016","2016","10","08","15","30","UTC","7.0","44.6","7.0","44.6","100","18.0","11.2","-9999.0","-9999.0","20","NNE","9.0","5.6","1015","29.98","3.8","38.9","-9999","-9999","-9999.00","-9999.00","Light Rain","rain","0","1","0","0","0","0","METAR UKKK 081530Z 02005MPS 9000 -RA SCT007 OVC034 07/07 Q1015 R08/290256 NOSIG"
"7:00 PM EEST on October 08, 2016","2016","10","08","19","00","Europe/Kiev","4:00 PM GMT on October 08, 2016","2016","10","08","16","00","UTC","7.0","44.6","6.0","42.8","93","21.6","13.4","-9999.0","-9999.0","20","NNE","9.0","5.6","1015","29.98","3.4","38.2","-9999","-9999","-9999.00","-9999.00","Light Rain","rain","0","1","0","0","0","0","METAR UKKK 081600Z 02006MPS 9000 -RA SCT008 OVC043 07/06 Q1015 R08/290256 NOSIG"
"7:30 PM EEST on October 08, 2016","2016","10","08","19","30","Europe/Kiev","4:30 PM GMT on October 08, 2016","2016","10","08","16","30","UTC","7.0","44.6","6.0","42.8","93","21.6","13.4","-9999.0","-9999.0","10","North","8.0","5.0","1015","29.98","3.4","38.2","-9999","-9999","-9999.00","-9999.00","Light Rain","rain","0","1","0","0","0","0","METAR UKKK 081630Z 01006MPS 8000 -RA SCT007 OVC039 07/06 Q1015 R08/290354 NOSIG"
"8:00 PM EEST on October 08, 2016","2016","10","08","20","00","Europe/Kiev","5:00 PM GMT on October 08, 2016","2016","10","08","17","00","UTC","7.0","44.6","6.0","42.8","93","28.8","17.9","-9999.0","-9999.0","10","North","8.0","5.0","1015","29.98","2.8","37.0","-9999","-9999","-9999.00","-9999.00","Light Rain","rain","0","1","0","0","0","0","METAR UKKK 081700Z 01008MPS 8000 -RA SCT007 OVC030 07/06 Q1015 R08/290354 NOSIG"
"8:30 PM EEST on October 08, 2016","2016","10","08","20","30","Europe/Kiev","5:30 PM GMT on October 08, 2016","2016","10","08","17","30","UTC","7.0","44.6","6.0","42.8","93","25.2","15.7","-9999.0","-9999.0","20","NNE","8.0","5.0","1014","29.95","3.1","37.6","-9999","-9999","-9999.00","-9999.00","Light Rain","rain","0","1","0","0","0","0","METAR UKKK 081730Z 02007MPS 8000 -RA SCT008 OVC030 07/06 Q1014 R08/290354 NOSIG"
"8:56 PM EEST on October 08, 2016","2016","10","08","20","56","Europe/Kiev","5:56 PM GMT on October 08, 2016","2016","10","08","17","56","UTC","7.0","44.6","6.0","42.8","93","28.8","17.9","50.4","31.3","10","North","8.0","5.0","1014","29.95","2.8","37.0","-9999","-9999","-9999.00","-9999.00","Light Rain","rain","0","1","0","0","0","0","SPECI UKKK 081756Z 01008G14MPS 8000 -RA SCT008 OVC030 07/06 Q1014 R08/290354 NOSIG"
"9:00 PM EEST on October 08, 2016","2016","10","08","21","00","Europe/Kiev","6:00 PM GMT on October 08, 2016","2016","10","08","18","00","UTC","6","44","5","42","89","21.6","13.4","","","30","NNE","4","2","1014","29.95","-999","-999","-9999","-9999","","","Light Rain","rain","0","1","0","0","0","0","AAXX 08181 33345 11496 80306 10065 20054 39937 40141 57020 60062 76162 8872/ 333 10085 555 11007"
"9:00 PM EEST on October 08, 2016","2016","10","08","21","00","Europe/Kiev","6:00 PM GMT on October 08, 2016","2016","10","08","18","00","UTC","7.0","44.6","6.0","42.8","93","32.4","20.1","50.4","31.3","360","North","8.0","5.0","1013","29.92","2.5","36.5","-9999","-9999","-9999.00","-9999.00","Light Rain","rain","0","1","0","0","0","0","METAR UKKK 081800Z 36009G14MPS 8000 -RA SCT007 OVC030 07/06 Q1013 R08/290354 TEMPO 34011G17MPS 2100 -SHRA BKN005 BKN012CB"
"9:30 PM EEST on October 08, 2016","2016","10","08","21","30","Europe/Kiev","6:30 PM GMT on October 08, 2016","2016","10","08","18","30","UTC","7.0","44.6","6.0","42.8","93","32.4","20.1","-9999.0","-9999.0","10","North","10.0","6.2","1013","29.92","2.5","36.5","-9999","-9999","-9999.00","-9999.00","Light Rain","rain","0","1","0","0","0","0","METAR UKKK 081830Z 01009MPS 9999 -RA BKN009 OVC030 07/06 Q1013 R08/290354 TEMPO 34011G17MPS"
"10:00 PM EEST on October 08, 2016","2016","10","08","22","00","Europe/Kiev","7:00 PM GMT on October 08, 2016","2016","10","08","19","00","UTC","7.0","44.6","6.0","42.8","93","28.8","17.9","-9999.0","-9999.0","360","North","9.0","5.6","1012","29.89","2.8","37.0","-9999","-9999","-9999.00","-9999.00","Light Rain","rain","0","1","0","0","0","0","METAR UKKK 081900Z 36008MPS 9000 -RA BKN009 OVC026 07/06 Q1012 R08/290354 TEMPO 34011G17MPS"
"10:30 PM EEST on October 08, 2016","2016","10","08","22","30","Europe/Kiev","7:30 PM GMT on October 08, 2016","2016","10","08","19","30","UTC","7.0","44.6","6.0","42.8","93","28.8","17.9","-9999.0","-9999.0","10","North","9.0","5.6","1012","29.89","2.8","37.0","-9999","-9999","-9999.00","-9999.00","Light Rain","rain","0","1","0","0","0","0","METAR UKKK 081930Z 01008MPS 9000 -RA BKN007 OVC016 07/06 Q1012 R08/290354 TEMPO 34011G17MPS"
"11:00 PM EEST on October 08, 2016","2016","10","08","23","00","Europe/Kiev","8:00 PM GMT on October 08, 2016","2016","10","08","20","00","UTC","7.0","44.6","6.0","42.8","93","25.2","15.7","-9999.0","-9999.0","350","North","8.0","5.0","1012","29.89","3.1","37.6","-9999","-9999","-9999.00","-9999.00","Light Rain","rain","0","1","0","0","0","0","METAR UKKK 082000Z 35007MPS 8000 -RA BKN006 OVC016 07/06 Q1012 R08/290354 TEMPO 34011G17MPS"
"11:30 PM EEST on October 08, 2016","2016","10","08","23","30","Europe/Kiev","8:30 PM GMT on October 08, 2016","2016","10","08","20","30","UTC","7.0","44.6","6.0","42.8","93","25.2","15.7","-9999.0","-9999.0","350","North","8.0","5.0","1011","29.86","3.1","37.6","-9999","-9999","-9999.00","-9999.00","Light Rain","rain","0","1","0","0","0","0","METAR UKKK 082030Z 35007MPS 8000 -RA BKN006 OVC015 07/06 Q1011 R08/290354 TEMPO 34011G17MPS"
"12:00 AM EEST on October 09, 2016","2016","10","09","00","00","Europe/Kiev","9:00 PM GMT on October 08, 2016","2016","10","08","21","00","UTC","7","45","6","43","92","21.6","13.4","","","20","NNE","4","2","1011","29.85","-999","-999","-9999","-9999","","","Rain","rain","0","1","0","0","0","0","AAXX 08211 33345 41496 80206 10070 20063 39905 40108 57032 76366 8872/ 555 11007"
"12:00 AM EEST on October 09, 2016","2016","10","09","00","00","Europe/Kiev","9:00 PM GMT on October 08, 2016","2016","10","08","21","00","UTC","6.0","42.8","6.0","42.8","100","28.8","17.9","-9999.0","-9999.0","340","NNW","9.0","5.6","1010","29.83","1.5","34.7","-9999","-9999","-9999.00","-9999.00","Light Rain","rain","0","1","0","0","0","0","METAR UKKK 082100Z 34008MPS 9000 -RA BKN006 OVC015 06/06 Q1010 R08/290354 TEMPO 34011G17MPS"
"12:30 AM EEST on October 09, 2016","2016","10","09","00","30","Europe/Kiev","9:30 PM GMT on October 08, 2016","2016","10","08","21","30","UTC","6.0","42.8","6.0","42.8","100","25.2","15.7","-9999.0","-9999.0","340","NNW","8.0","5.0","1010","29.83","1.8","35.2","-9999","-9999","-9999.00","-9999.00","Light Rain","rain","0","1","0","0","0","0","METAR UKKK 082130Z 34007MPS 8000 -RA BKN006 OVC018 06/06 Q1010 R08/290354 TEMPO 34011G17MPS"
"12:39 AM EEST on October 09, 2016","2016","10","09","00","39","Europe/Kiev","9:39 PM GMT on October 08, 2016","2016","10","08","21","39","UTC","6.0","42.8","6.0","42.8","100","28.8","17.9","46.8","29.1","340","NNW","7.0","4.3","1010","29.83","1.5","34.7","-9999","-9999","-9999.00","-9999.00","Light Rain","rain","0","1","0","0","0","0","SPECI UKKK 082139Z 34008G13MPS 7000 -RA BKN007 OVC018 06/06 Q1010 R08/290354 TEMPO 34011G17MPS"
"1:00 AM EEST on October 09, 2016","2016","10","09","01","00","Europe/Kiev","10:00 PM GMT on October 08, 2016","2016","10","08","22","00","UTC","6.0","42.8","6.0","42.8","100","28.8","17.9","46.8","29.1","340","NNW","7.0","4.3","1009","29.80","1.5","34.7","-9999","-9999","-9999.00","-9999.00","Light Rain","rain","0","1","0","0","0","0","METAR UKKK 082200Z 34008G13MPS 7000 -RA BKN006 OVC018 06/06 Q1009 R08/290354 TEMPO 34011G17MPS"
"1:30 AM EEST on October 09, 2016","2016","10","09","01","30","Europe/Kiev","10:30 PM GMT on October 08, 2016","2016","10","08","22","30","UTC","6.0","42.8","6.0","42.8","100","28.8","17.9","-9999.0","-9999.0","340","NNW","9.0","5.6","1009","29.80","1.5","34.7","-9999","-9999","-9999.00","-9999.00","Light Rain","rain","0","1","0","0","0","0","METAR UKKK 082230Z 34008MPS 9000 -RA BKN006 OVC015 06/06 Q1009 R26/290354 TEMPO 34011G17MPS"
"2:00 AM EEST on October 09, 2016","2016","10","09","02","00","Europe/Kiev","11:00 PM GMT on October 08, 2016","2016","10","08","23","00","UTC","6.0","42.8","6.0","42.8","100","28.8","17.9","46.8","29.1","340","NNW","9.0","5.6","1008","29.77","1.5","34.7","-9999","-9999","-9999.00","-9999.00","Light Rain Showers","rain","0","1","0","0","0","0","METAR UKKK 082300Z 34008G13MPS 9000 -SHRA BKN006 BKN022CB 06/06 Q1008 R26/290354 TEMPO 34011G17MPS"
"2:30 AM EEST on October 09, 2016","2016","10","09","02","30","Europe/Kiev","11:30 PM GMT on October 08, 2016","2016","10","08","23","30","UTC","6.0","42.8","5.0","41.0","93","28.8","17.9","50.4","31.3","330","NNW","9.0","5.6","1008","29.77","1.5","34.7","-9999","-9999","-9999.00","-9999.00","Light Rain Showers","rain","0","1","0","0","0","0","METAR UKKK 082330Z 33008G14MPS 9000 -SHRA BKN006 BKN020CB 06/05 Q1008 R26/290354 TEMPO 32011G17MPS"
"3:00 AM EEST on October 09, 2016","2016","10","09","03","00","Europe/Kiev","12:00 AM GMT on October 09, 2016","2016","10","09","00","00","UTC","6","43","6","42","96","18.0","11.2","","","0","North","4","2","1008","29.77","-999","-999","-9999","-9999","","","Rain","rain","0","1","0","0","0","0","AAXX 09001 33345 /1496 83605 10061 20057 39878 40081 57027 76366 8872/ 555 11006 60221"
"3:00 AM EEST on October 09, 2016","2016","10","09","03","00","Europe/Kiev","12:00 AM GMT on October 09, 2016","2016","10","09","00","00","UTC","6.0","42.8","5.0","41.0","93","28.8","17.9","-9999.0","-9999.0","330","NNW","9.0","5.6","1008","29.77","1.5","34.7","-9999","-9999","-9999.00","-9999.00","Light Rain","rain","0","1","0","0","0","0","METAR UKKK 090000Z 33008MPS 9000 -RA BKN006 OVC020 06/05 Q1008 R26/290354 TEMPO 32012G18MPS"
"3:19 AM EEST on October 09, 2016","2016","10","09","03","19","Europe/Kiev","12:19 AM GMT on October 09, 2016","2016","10","09","00","19","UTC","6.0","42.8","5.0","41.0","93","28.8","17.9","46.8","29.1","330","NNW","10.0","6.2","1008","29.77","1.5","34.7","-9999","-9999","-9999.00","-9999.00","Light Rain","rain","0","1","0","0","0","0","SPECI UKKK 090019Z 33008G13MPS 9999 -RA BKN006 OVC020 06/05 Q1008 R26/290354 TEMPO 32012G18MPS"
"3:30 AM EEST on October 09, 2016","2016","10","09","03","30","Europe/Kiev","12:30 AM GMT on October 09, 2016","2016","10","09","00","30","UTC","6.0","42.8","5.0","41.0","93","28.8","17.9","-9999.0","-9999.0","330","NNW","9.0","5.6","1008","29.77","1.5","34.7","-9999","-9999","-9999.00","-9999.00","Light Rain","rain","0","1","0","0","0","0","METAR UKKK 090030Z 33008MPS 9000 -RA BKN006 OVC020 06/05 Q1008 R26/290354 TEMPO 32012G18MPS"
"3:50 AM EEST on October 09, 2016","2016","10","09","03","50","Europe/Kiev","12:50 AM GMT on October 09, 2016","2016","10","09","00","50","UTC","6.0","42.8","5.0","41.0","93","28.8","17.9","46.8","29.1","330","NNW","8.0","5.0","1008","29.77","1.5","34.7","-9999","-9999","-9999.00","-9999.00","Light Rain","rain","0","1","0","0","0","0","SPECI UKKK 090050Z 33008G13MPS 8000 -RA BKN006 OVC020 06/05 Q1008 R26/290354 TEMPO 32012G18MPS"
"4:00 AM EEST on October 09, 2016","2016","10","09","04","00","Europe/Kiev","1:00 AM GMT on October 09, 2016","2016","10","09","01","00","UTC","6.0","42.8","6.0","42.8","100","28.8","17.9","-9999.0","-9999.0","320","NW","5.0","3.1","1008","29.77","1.5","34.7","-9999","-9999","-9999.00","-9999.00","Light Rain","rain","0","1","0","0","0","0","METAR UKKK 090100Z 32008MPS 5000 -RA BR BKN005 OVC020 06/06 Q1008 R26/290354 TEMPO 32012G18MPS"
"4:30 AM EEST on October 09, 2016","2016","10","09","04","30","Europe/Kiev","1:30 AM GMT on October 09, 2016","2016","10","09","01","30","UTC","6.0","42.8","6.0","42.8","100","32.4","20.1","-9999.0","-9999.0","320","NW","6.0","3.7","1008","29.77","1.2","34.1","-9999","-9999","-9999.00","-9999.00","Light Rain Showers","rain","0","1","0","0","0","0","METAR UKKK 090130Z 32009MPS 6000 -SHRA BKN005 BKN023CB 06/06 Q1008 R26/290354 TEMPO 32012G18MPS"
"5:00 AM EEST on October 09, 2016","2016","10","09","05","00","Europe/Kiev","2:00 AM GMT on October 09, 2016","2016","10","09","02","00","UTC","6.0","42.8","6.0","42.8","100","28.8","17.9","-9999.0","-9999.0","320","NW","-9999.0","-9999.0","1008","29.77","1.5","34.7","-9999","-9999","-9999.00","-9999.00","Light Rain Showers","rain","0","1","0","0","0","0","METAR UKKK 090200Z 32008MPS 4600 -SHRA BR BKN006 BKN023CB 06/06 Q1008 R26/290354 TEMPO 32012G18MPS"
"5:30 AM EEST on October 09, 2016","2016","10","09","05","30","Europe/Kiev","2:30 AM GMT on October 09, 2016","2016","10","09","02","30","UTC","6.0","42.8","6.0","42.8","100","28.8","17.9","-9999.0","-9999.0","320","NW","2.8","1.7","1008","29.77","1.5","34.7","-9999","-9999","-9999.00","-9999.00","Light Rain Showers","rain","0","1","0","0","0","0","METAR UKKK 090230Z 32008MPS 2800 -SHRA BR BKN006 BKN023CB 06/06 Q1008 R26/290354 TEMPO 32012G18MPS 1000 BR BKN004"
"6:00 AM EEST on October 09, 2016","2016","10","09","06","00","Europe/Kiev","3:00 AM GMT on October 09, 2016","2016","10","09","03","00","UTC","6","43","6","42","96","14.4","8.9","","","350","North","4","2","1009","29.79","-999","-999","-9999","-9999","","","Light Rain","rain","0","1","0","0","0","0","AAXX 09031 33345 41496 83504 10061 20057 39883 40086 53005 76166 8872/ 555 11006"
"6:00 AM EEST on October 09, 2016","2016","10","09","06","00","Europe/Kiev","3:00 AM GMT on October 09, 2016","2016","10","09","03","00","UTC","6.0","42.8","6.0","42.8","100","28.8","17.9","-9999.0","-9999.0","320","NW","-9999.0","-9999.0","1008","29.77","1.5","34.7","-9999","-9999","-9999.00","-9999.00","Light Rain Showers","rain","0","1","0","0","0","0","METAR UKKK 090300Z 32008MPS 3300 -SHRA BR BKN006 BKN023CB 06/06 Q1008 R26/290354 TEMPO 32012G18MPS 1000 BR BKN004"
"6:30 AM EEST on October 09, 2016","2016","10","09","06","30","Europe/Kiev","3:30 AM GMT on October 09, 2016","2016","10","09","03","30","UTC","6.0","42.8","6.0","42.8","100","25.2","15.7","43.2","26.8","320","NW","5.0","3.1","1008","29.77","1.8","35.2","-9999","-9999","-9999.00","-9999.00","Light Rain Showers","rain","0","1","0","0","0","0","METAR UKKK 090330Z 32007G12MPS 5000 -SHRA BR BKN005 BKN023CB 06/06 Q1008 R26/290354 TEMPO 32012G18MPS 1000 BR BKN004"
"7:00 AM EEST on October 09, 2016","2016","10","09","07","00","Europe/Kiev","4:00 AM GMT on October 09, 2016","2016","10","09","04","00","UTC","6.0","42.8","6.0","42.8","100","28.8","17.9","-9999.0","-9999.0","310","NW","5.0","3.1","1008","29.77","1.5","34.7","-9999","-9999","-9999.00","-9999.00","Light Rain Showers","rain","0","1","0","0","0","0","METAR UKKK 090400Z 31008MPS 5000 -SHRA BR BKN006 BKN023CB 06/06 Q1008 R26/290354 TEMPO 32012G18MPS BKN004"
"7:30 AM EEST on October 09, 2016","2016","10","09","07","30","Europe/Kiev","4:30 AM GMT on October 09, 2016","2016","10","09","04","30","UTC","6.0","42.8","6.0","42.8","100","28.8","17.9","-9999.0","-9999.0","310","NW","9.0","5.6","1009","29.80","1.5","34.7","-9999","-9999","-9999.00","-9999.00","Light Rain","rain","0","1","0","0","0","0","METAR UKKK 090430Z 31008MPS 9000 -RA BKN006 BKN020 06/06 Q1009 R26/290354 TEMPO 32012G18MPS BKN004"
"8:00 AM EEST on October 09, 2016","2016","10","09","08","00","Europe/Kiev","5:00 AM GMT on October 09, 2016","2016","10","09","05","00","UTC","6.0","42.8","6.0","42.8","100","28.8","17.9","46.8","29.1","300","WNW","9.0","5.6","1009","29.80","1.5","34.7","-9999","-9999","-9999.00","-9999.00","Light Rain","rain","0","1","0","0","0","0","METAR UKKK 090500Z 30008G13MPS 9000 -RA BKN006 OVC020 06/06 Q1009 R26/290354 TEMPO 29012G18MPS BKN004"
"8:30 AM EEST on October 09, 2016","2016","10","09","08","30","Europe/Kiev","5:30 AM GMT on October 09, 2016","2016","10","09","05","30","UTC","6.0","42.8","6.0","42.8","100","28.8","17.9","46.8","29.1","310","NW","2.8","1.7","1009","29.80","1.5","34.7","-9999","-9999","-9999.00","-9999.00","Light Rain Showers","rain","0","1","0","0","0","0","METAR UKKK 090530Z 31008G13MPS 2800 -SHRA BKN005 BKN020CB 06/06 Q1009 R26/290354 TEMPO 29012G18MPS BKN004"
"8:43 AM EEST on October 09, 2016","2016","10","09","08","43","Europe/Kiev","5:43 AM GMT on October 09, 2016","2016","10","09","05","43","UTC","6.0","42.8","6.0","42.8","100","32.4","20.1","-9999.0","-9999.0","300","WNW","2.5","1.6","1009","29.80","1.2","34.1","-9999","-9999","-9999.00","-9999.00","Light Rain Showers","rain","0","1","0","0","0","0","SPECI UKKK 090543Z 30009MPS 2500 -SHRA BR BKN004 BKN020CB 06/06 Q1009 R26/290354 TEMPO 29012G18MPS BKN004"
"9:00 AM EEST on October 09, 2016","2016","10","09","09","00","Europe/Kiev","6:00 AM GMT on October 09, 2016","2016","10","09","06","00","UTC","6","43","6","42","96","14.4","8.9","","","340","NNW","4","2","1010","29.82","-999","-999","-9999","-9999","","","Light Rain","rain","0","1","0","0","0","0","AAXX 09061 33345 11496 83404 10061 20057 39894 40098 52011 60292 76166 8872/ 333 20059 555 12007"
"9:00 AM EEST on October 09, 2016","2016","10","09","09","00","Europe/Kiev","6:00 AM GMT on October 09, 2016","2016","10","09","06","00","UTC","6.0","42.8","6.0","42.8","100","28.8","17.9","-9999.0","-9999.0","310","NW","4.5","2.8","1009","29.80","1.5","34.7","-9999","-9999","-9999.00","-9999.00","Light Rain Showers","rain","0","1","0","0","0","0","METAR UKKK 090600Z 31008MPS 4500 -SHRA BR BKN005 BKN020CB 06/06 Q1009 R26/290354 TEMPO 29011G17MPS BKN004"
"9:30 AM EEST on October 09, 2016","2016","10","09","09","30","Europe/Kiev","6:30 AM GMT on October 09, 2016","2016","10","09","06","30","UTC","6.0","42.8","6.0","42.8","100","28.8","17.9","-9999.0","-9999.0","300","WNW","9.0","5.6","1010","29.83","1.5","34.7","-9999","-9999","-9999.00","-9999.00","Light Rain","rain","0","1","0","0","0","0","METAR UKKK 090630Z 30008MPS 9000 -RA BKN005 OVC018 06/06 Q1010 R26/290354 TEMPO 29011G17MPS BKN004"
"10:00 AM EEST on October 09, 2016","2016","10","09","10","00","Europe/Kiev","7:00 AM GMT on October 09, 2016","2016","10","09","07","00","UTC","6.0","42.8","6.0","42.8","100","25.2","15.7","-9999.0","-9999.0","300","WNW","10.0","6.2","1010","29.83","1.8","35.2","-9999","-9999","-9999.00","-9999.00","Light Rain","rain","0","1","0","0","0","0","METAR UKKK 090700Z 30007MPS 9999 -RA BKN006 OVC018 06/06 Q1010 R26/290354 TEMPO 29011G17MPS BKN004"
"10:30 AM EEST on October 09, 2016","2016","10","09","10","30","Europe/Kiev","7:30 AM GMT on October 09, 2016","2016","10","09","07","30","UTC","6.0","42.8","6.0","42.8","100","25.2","15.7","-9999.0","-9999.0","290","WNW","7.0","4.3","1010","29.83","1.8","35.2","-9999","-9999","-9999.00","-9999.00","Light Rain Showers","rain","0","1","0","0","0","0","METAR UKKK 090730Z 29007MPS 7000 -SHRA BKN005 BKN021CB 06/06 Q1010 R26/290354 TEMPO 29011G17MPS BKN004"
"11:00 AM EEST on October 09, 2016","2016","10","09","11","00","Europe/Kiev","8:00 AM GMT on October 09, 2016","2016","10","09","08","00","UTC","6.0","42.8","6.0","42.8","100","25.2","15.7","-9999.0","-9999.0","290","WNW","7.0","4.3","1011","29.86","1.8","35.2","-9999","-9999","-9999.00","-9999.00","Light Rain Showers","rain","0","1","0","0","0","0","METAR UKKK 090800Z 29007MPS 7000 -SHRA BKN005 BKN021CB 06/06 Q1011 R26/290354 TEMPO 29011G17MPS BKN004"
"11:30 AM EEST on October 09, 2016","2016","10","09","11","30","Europe/Kiev","8:30 AM GMT on October 09, 2016","2016","10","09","08","30","UTC","6.0","42.8","6.0","42.8","100","25.2","15.7","-9999.0","-9999.0","290","WNW","9.0","5.6","1010","29.83","1.8","35.2","-9999","-9999","-9999.00","-9999.00","Light Rain","rain","0","1","0","0","0","0","METAR UKKK 090830Z 29007MPS 9000 -RA BKN006 OVC021 06/06 Q1010 R26/290354 TEMPO 29011G17MPS BKN004"
"12:00 PM EEST on October 09, 2016","2016","10","09","12","00","Europe/Kiev","9:00 AM GMT on October 09, 2016","2016","10","09","09","00","UTC","6","44","6","42","91","14.4","8.9","","","330","NNW","4","2","1011","29.86","-999","-999","-9999","-9999","","","Light Rain","rain","0","1","0","0","0","0","AAXX 09091 33345 41396 83304 10064 20057 39908 40112 52014 72162 887// 555 11008"
"12:00 PM EEST on October 09, 2016","2016","10","09","12","00","Europe/Kiev","9:00 AM GMT on October 09, 2016","2016","10","09","09","00","UTC","6.0","42.8","6.0","42.8","100","28.8","17.9","-9999.0","-9999.0","290","WNW","9.0","5.6","1011","29.86","1.5","34.7","-9999","-9999","-9999.00","-9999.00","Light Rain","rain","0","1","0","0","0","0","METAR UKKK 090900Z 29008MPS 9000 -RA BKN005 OVC020 06/06 Q1011 R26/290354 TEMPO 29011G17MPS BKN004"
"12:30 PM EEST on October 09, 2016","2016","10","09","12","30","Europe/Kiev","9:30 AM GMT on October 09, 2016","2016","10","09","09","30","UTC","7.0","44.6","6.0","42.8","93","28.8","17.9","-9999.0","-9999.0","290","WNW","10.0","6.2","1011","29.86","2.8","37.0","-9999","-9999","-9999.00","-9999.00","Light Rain","rain","0","1","0","0","0","0","METAR UKKK 090930Z 29008MPS 9999 -RA BKN006 OVC020 07/06 Q1011 R26/290354 TEMPO 29011G17MPS BKN004"
"1:00 PM EEST on October 09, 2016","2016","10","09","13","00","Europe/Kiev","10:00 AM GMT on October 09, 2016","2016","10","09","10","00","UTC","7.0","44.6","6.0","42.8","93","28.8","17.9","-9999.0","-9999.0","290","WNW","8.0","5.0","1011","29.86","2.8","37.0","-9999","-9999","-9999.00","-9999.00","Light Rain","rain","0","1","0","0","0","0","METAR UKKK 091000Z 29008MPS 8000 -RA BKN006 OVC016 07/06 Q1011 R26/290354 TEMPO 29011G17MPS BKN005"
"1:30 PM EEST on October 09, 2016","2016","10","09","13","30","Europe/Kiev","10:30 AM GMT on October 09, 2016","2016","10","09","10","30","UTC","7.0","44.6","6.0","42.8","93","28.8","17.9","-9999.0","-9999.0","290","WNW","4.0","2.5","1011","29.86","2.8","37.0","-9999","-9999","-9999.00","-9999.00","Light Rain","rain","0","1","0","0","0","0","METAR UKKK 091030Z 29008MPS 4000 -RA BKN006 OVC016 07/06 Q1011 R26/290354 TEMPO 29011G17MPS BKN005"
"2:00 PM EEST on October 09, 2016","2016","10","09","14","00","Europe/Kiev","11:00 AM GMT on October 09, 2016","2016","10","09","11","00","UTC","7.0","44.6","6.0","42.8","93","28.8","17.9","-9999.0","-9999.0","290","WNW","-9999.0","-9999.0","1011","29.86","2.8","37.0","-9999","-9999","-9999.00","-9999.00","Light Rain","rain","0","1","0","0","0","0","METAR UKKK 091100Z 29008MPS 4800 -RA BR BKN006 OVC016 07/06 Q1011 R26/290354 TEMPO 29011G17MPS BKN005"
"2:18 PM EEST on October 09, 2016","2016","10","09","14","18","Europe/Kiev","11:18 AM GMT on October 09, 2016","2016","10","09","11","18","UTC","7.0","44.6","6.0","42.8","93","28.8","17.9","50.4","31.3","290","WNW","5.0","3.1","1012","29.89","2.8","37.0","-9999","-9999","-9999.00","-9999.00","Light Rain","rain","0","1","0","0","0","0","SPECI UKKK 091118Z 29008G14MPS 5000 -RA BR BKN006 OVC016 07/06 Q1012 R26/290354 TEMPO 29011G17MPS BKN005"
"2:30 PM EEST on October 09, 2016","2016","10","09","14","30","Europe/Kiev","11:30 AM GMT on October 09, 2016","2016","10","09","11","30","UTC","7.0","44.6","6.0","42.8","93","28.8","17.9","-9999.0","-9999.0","290","WNW","5.0","3.1","1012","29.89","2.8","37.0","-9999","-9999","-9999.00","-9999.00","Light Rain","rain","0","1","0","0","0","0","METAR UKKK 091130Z 29008MPS 5000 -RA BR BKN007 OVC016 07/06 Q1012 R26/290354 TEMPO 29011G17MPS BKN005"
"3:00 PM EEST on October 09, 2016","2016","10","09","15","00","Europe/Kiev","12:00 PM GMT on October 09, 2016","2016","10","09","12","00","UTC","6","44","6","42","90","14.4","8.9","","","320","NW","10","6","1013","29.91","-999","-999","-9999","-9999","","","Light Rain","rain","0","1","0","0","0","0","AAXX 09121 33345 /1397 83204 10065 20056 39922 40126 52014 76162 8872/ 555 11008 60051"
"3:00 PM EEST on October 09, 2016","2016","10","09","15","00","Europe/Kiev","12:00 PM GMT on October 09, 2016","2016","10","09","12","00","UTC","7.0","44.6","6.0","42.8","93","28.8","17.9","-9999.0","-9999.0","290","WNW","9.0","5.6","1012","29.89","2.8","37.0","-9999","-9999","-9999.00","-9999.00","Light Rain","rain","0","1","0","0","0","0","METAR UKKK 091200Z 29008MPS 9000 -RA BKN007 OVC016 07/06 Q1012 R26/290354 NOSIG"
"3:30 PM EEST on October 09, 2016","2016","10","09","15","30","Europe/Kiev","12:30 PM GMT on October 09, 2016","2016","10","09","12","30","UTC","7.0","44.6","6.0","42.8","93","28.8","17.9","-9999.0","-9999.0","290","WNW","6.0","3.7","1012","29.89","2.8","37.0","-9999","-9999","-9999.00","-9999.00","Light Rain","rain","0","1","0","0","0","0","METAR UKKK 091230Z 29008MPS 6000 -RA BKN006 OVC015 07/06 Q1012 R26/290354 NOSIG"
"3:36 PM EEST on October 09, 2016","2016","10","09","15","36","Europe/Kiev","12:36 PM GMT on October 09, 2016","2016","10","09","12","36","UTC","7.0","44.6","6.0","42.8","93","28.8","17.9","50.4","31.3","280","West","5.0","3.1","1012","29.89","2.8","37.0","-9999","-9999","-9999.00","-9999.00","Light Rain","rain","0","1","0","0","0","0","SPECI UKKK 091236Z 28008G14MPS 5000 -RA BKN006 OVC015 07/06 Q1012 R26/290354 TEMPO 31009G14MPS BKN005"
"4:00 PM EEST on October 09, 2016","2016","10","09","16","00","Europe/Kiev","1:00 PM GMT on October 09, 2016","2016","10","09","13","00","UTC","7.0","44.6","6.0","42.8","93","28.8","17.9","-9999.0","-9999.0","290","WNW","6.0","3.7","1012","29.89","2.8","37.0","-9999","-9999","-9999.00","-9999.00","Light Rain","rain","0","1","0","0","0","0","METAR UKKK 091300Z 29008MPS 6000 -RA BKN006 OVC015 07/06 Q1012 R26/290354 TEMPO 31009G14MPS BKN004"
"4:30 PM EEST on October 09, 2016","2016","10","09","16","30","Europe/Kiev","1:30 PM GMT on October 09, 2016","2016","10","09","13","30","UTC","7.0","44.6","6.0","42.8","93","28.8","17.9","-9999.0","-9999.0","280","West","8.0","5.0","1013","29.92","2.8","37.0","-9999","-9999","-9999.00","-9999.00","Light Rain","rain","0","1","0","0","0","0","METAR UKKK 091330Z 28008MPS 8000 -RA BKN006 OVC015 07/06 Q1013 R26/290354 TEMPO BKN005"
"5:00 PM EEST on October 09, 2016","2016","10","09","17","00","Europe/Kiev","2:00 PM GMT on October 09, 2016","2016","10","09","14","00","UTC","7.0","44.6","6.0","42.8","93","28.8","17.9","-9999.0","-9999.0","280","West","10.0","6.2","1013","29.92","2.8","37.0","-9999","-9999","-9999.00","-9999.00","Light Rain","rain","0","1","0","0","0","0","METAR UKKK 091400Z 28008MPS 9999 -RA BKN007 OVC015 07/06 Q1013 R26/290354 TEMPO BKN005"
"5:30 PM EEST on October 09, 2016","2016","10","09","17","30","Europe/Kiev","2:30 PM GMT on October 09, 2016","2016","10","09","14","30","UTC","7.0","44.6","6.0","42.8","93","32.4","20.1","-9999.0","-9999.0","280","West","10.0","6.2","1013","29.92","2.5","36.5","-9999","-9999","-9999.00","-9999.00","Light Rain","rain","0","1","0","0","0","0","METAR UKKK 091430Z 28009MPS 9999 -RA BKN007 OVC014 07/06 Q1013 R26/290354 NOSIG"
"6:00 PM EEST on October 09, 2016","2016","10","09","18","00","Europe/Kiev","3:00 PM GMT on October 09, 2016","2016","10","09","15","00","UTC","6","44","5","42","89","18.0","11.2","","","320","NW","10","6","1013","29.92","-999","-999","-9999","-9999","","","Light Rain","rain","0","1","0","0","0","0","AAXX 09151 33345 41497 83205 10065 20054 39928 40132 51006 76162 8672/ 555 11007"
"6:00 PM EEST on October 09, 2016","2016","10","09","18","00","Europe/Kiev","3:00 PM GMT on October 09, 2016","2016","10","09","15","00","UTC","7.0","44.6","6.0","42.8","93","28.8","17.9","-9999.0","-9999.0","280","West","10.0","6.2","1013","29.92","2.8","37.0","-9999","-9999","-9999.00","-9999.00","Light Rain","rain","0","1","0","0","0","0","METAR UKKK 091500Z 28008MPS 9999 -RA BKN008 OVC014 07/06 Q1013 R26/290354 NOSIG"
"6:30 PM EEST on October 09, 2016","2016","10","09","18","30","Europe/Kiev","3:30 PM GMT on October 09, 2016","2016","10","09","15","30","UTC","7.0","44.6","6.0","42.8","93","28.8","17.9","-9999.0","-9999.0","280","West","10.0","6.2","1013","29.92","2.8","37.0","-9999","-9999","-9999.00","-9999.00","Light Rain","rain","0","1","0","0","0","0","METAR UKKK 091530Z 28008MPS 9999 -RA OVC008 07/06 Q1013 R26/290354 NOSIG"
"7:00 PM EEST on October 09, 2016","2016","10","09","19","00","Europe/Kiev","4:00 PM GMT on October 09, 2016","2016","10","09","16","00","UTC","7.0","44.6","6.0","42.8","93","28.8","17.9","-9999.0","-9999.0","290","WNW","10.0","6.2","1013","29.92","2.8","37.0","-9999","-9999","-9999.00","-9999.00","Light Rain","rain","0","1","0","0","0","0","METAR UKKK 091600Z 29008MPS 9999 -RA OVC008 07/06 Q1013 R26/290354 NOSIG"
"7:30 PM EEST on October 09, 2016","2016","10","09","19","30","Europe/Kiev","4:30 PM GMT on October 09, 2016","2016","10","09","16","30","UTC","7.0","44.6","6.0","42.8","93","28.8","17.9","-9999.0","-9999.0","280","West","9.0","5.6","1013","29.92","2.8","37.0","-9999","-9999","-9999.00","-9999.00","Light Rain","rain","0","1","0","0","0","0","METAR UKKK 091630Z 28008MPS 9000 -RA OVC007 07/06 Q1013 R26/290354 NOSIG"
"8:00 PM EEST on October 09, 2016","2016","10","09","20","00","Europe/Kiev","5:00 PM GMT on October 09, 2016","2016","10","09","17","00","UTC","7.0","44.6","6.0","42.8","93","28.8","17.9","-9999.0","-9999.0","280","West","9.0","5.6","1013","29.92","2.8","37.0","-9999","-9999","-9999.00","-9999.00","Light Rain","rain","0","1","0","0","0","0","METAR UKKK 091700Z 28008MPS 9000 -RA OVC008 07/06 Q1013 R26/290354 NOSIG"
"8:30 PM EEST on October 09, 2016","2016","10","09","20","30","Europe/Kiev","5:30 PM GMT on October 09, 2016","2016","10","09","17","30","UTC","7.0","44.6","6.0","42.8","93","32.4","20.1","-9999.0","-9999.0","280","West","9.0","5.6","1013","29.92","2.5","36.5","-9999","-9999","-9999.00","-9999.00","Light Rain","rain","0","1","0","0","0","0","METAR UKKK 091730Z 28009MPS 9000 -RA OVC008 07/06 Q1013 R26/290354 NOSIG"
"9:00 PM EEST on October 09, 2016","2016","10","09","21","00","Europe/Kiev","6:00 PM GMT on October 09, 2016","2016","10","09","18","00","UTC","7","44","6","43","93","18.0","11.2","","","310","NW","10","6","1014","29.93","-999","-999","-9999","-9999","","","Light Rain","rain","0","1","0","0","0","0","AAXX 09181 33345 11497 83105 10068 20059 39931 40135 51003 60112 76162 8672/ 333 10068 555 11007"
"9:00 PM EEST on October 09, 2016","2016","10","09","21","00","Europe/Kiev","6:00 PM GMT on October 09, 2016","2016","10","09","18","00","UTC","7.0","44.6","6.0","42.8","93","28.8","17.9","-9999.0","-9999.0","280","West","10.0","6.2","1013","29.92","2.8","37.0","-9999","-9999","-9999.00","-9999.00","Light Rain","rain","0","1","0","0","0","0","METAR UKKK 091800Z 28008MPS 9999 -RA OVC007 07/06 Q1013 R26/290354 NOSIG"
"9:30 PM EEST on October 09, 2016","2016","10","09","21","30","Europe/Kiev","6:30 PM GMT on October 09, 2016","2016","10","09","18","30","UTC","7.0","44.6","6.0","42.8","93","28.8","17.9","-9999.0","-9999.0","280","West","10.0","6.2","1013","29.92","2.8","37.0","-9999","-9999","-9999.00","-9999.00","Light Rain","rain","0","1","0","0","0","0","METAR UKKK 091830Z 28008MPS 9999 -RA OVC007 07/06 Q1013 R26/290354 NOSIG"
"10:00 PM EEST on October 09, 2016","2016","10","09","22","00","Europe/Kiev","7:00 PM GMT on October 09, 2016","2016","10","09","19","00","UTC","7.0","44.6","6.0","42.8","93","28.8","17.9","-9999.0","-9999.0","280","West","10.0","6.2","1013","29.92","2.8","37.0","-9999","-9999","-9999.00","-9999.00","Light Rain","rain","0","1","0","0","0","0","METAR UKKK 091900Z 28008MPS 9999 -RA OVC007 07/06 Q1013 R26/290354 NOSIG"
"10:30 PM EEST on October 09, 2016","2016","10","09","22","30","Europe/Kiev","7:30 PM GMT on October 09, 2016","2016","10","09","19","30","UTC","7.0","44.6","6.0","42.8","93","28.8","17.9","-9999.0","-9999.0","280","West","10.0","6.2","1013","29.92","2.8","37.0","-9999","-9999","-9999.00","-9999.00","Light Rain","rain","0","1","0","0","0","0","METAR UKKK 091930Z 28008MPS 9999 -RA OVC007 07/06 Q1013 R26/290354 NOSIG"
"11:00 PM EEST on October 09, 2016","2016","10","09","23","00","Europe/Kiev","8:00 PM GMT on October 09, 2016","2016","10","09","20","00","UTC","7.0","44.6","6.0","42.8","93","28.8","17.9","-9999.0","-9999.0","280","West","10.0","6.2","1013","29.92","2.8","37.0","-9999","-9999","-9999.00","-9999.00","Light Rain","rain","0","1","0","0","0","0","METAR UKKK 092000Z 28008MPS 9999 -RA OVC007 07/06 Q1013 R26/290354 NOSIG"
"11:30 PM EEST on October 09, 2016","2016","10","09","23","30","Europe/Kiev","8:30 PM GMT on October 09, 2016","2016","10","09","20","30","UTC","7.0","44.6","6.0","42.8","93","28.8","17.9","-9999.0","-9999.0","280","West","10.0","6.2","1013","29.92","2.8","37.0","-9999","-9999","-9999.00","-9999.00","Light Rain","rain","0","1","0","0","0","0","METAR UKKK 092030Z 28008MPS 9999 -RA OVC008 07/06 Q1013 R26/290354 NOSIG"
"12:00 AM EEST on October 10, 2016","2016","10","10","00","00","Europe/Kiev","9:00 PM GMT on October 09, 2016","2016","10","09","21","00","UTC","7","44","6","43","94","14.4","8.9","","","310","NW","4","2","1013","29.93","-999","-999","-9999","-9999","","","Light Rain","rain","0","1","0","0","0","0","AAXX 09211 33345 41496 83104 10067 20060 39929 40133 58002 76166 8872/ 555 11007"
"12:00 AM EEST on October 10, 2016","2016","10","10","00","00","Europe/Kiev","9:00 PM GMT on October 09, 2016","2016","10","09","21","00","UTC","7.0","44.6","6.0","42.8","93","28.8","17.9","-9999.0","-9999.0","280","West","9.0","5.6","1013","29.92","2.8","37.0","-9999","-9999","-9999.00","-9999.00","Light Rain","rain","0","1","0","0","0","0","METAR UKKK 092100Z 28008MPS 9000 -RA OVC007 07/06 Q1013 R26/290354 NOSIG"
"12:30 AM EEST on October 10, 2016","2016","10","10","00","30","Europe/Kiev","9:30 PM GMT on October 09, 2016","2016","10","09","21","30","UTC","7.0","44.6","6.0","42.8","93","25.2","15.7","-9999.0","-9999.0","280","West","10.0","6.2","1013","29.92","3.1","37.6","-9999","-9999","-9999.00","-9999.00","Light Rain","rain","0","1","0","0","0","0","METAR UKKK 092130Z 28007MPS 9999 -RA OVC007 07/06 Q1013 R26/290354 NOSIG"
"1:00 AM EEST on October 10, 2016","2016","10","10","01","00","Europe/Kiev","10:00 PM GMT on October 09, 2016","2016","10","09","22","00","UTC","7.0","44.6","6.0","42.8","93","28.8","17.9","-9999.0","-9999.0","280","West","10.0","6.2","1013","29.92","2.8","37.0","-9999","-9999","-9999.00","-9999.00","Light Rain","rain","0","1","0","0","0","0","METAR UKKK 092200Z 28008MPS 9999 -RA OVC007 07/06 Q1013 R26/290354 NOSIG"
"1:30 AM EEST on October 10, 2016","2016","10","10","01","30","Europe/Kiev","10:30 PM GMT on October 09, 2016","2016","10","09","22","30","UTC","7.0","44.6","6.0","42.8","93","21.6","13.4","-9999.0","-9999.0","270","West","9.0","5.6","1013","29.92","3.4","38.2","-9999","-9999","-9999.00","-9999.00","Light Rain","rain","0","1","0","0","0","0","METAR UKKK 092230Z 27006MPS 9000 -RA OVC007 07/06 Q1013 R26/290354 NOSIG"
"2:00 AM EEST on October 10, 2016","2016","10","10","02","00","Europe/Kiev","11:00 PM GMT on October 09, 2016","2016","10","09","23","00","UTC","7.0","44.6","6.0","42.8","93","28.8","17.9","-9999.0","-9999.0","270","West","10.0","6.2","1012","29.89","2.8","37.0","-9999","-9999","-9999.00","-9999.00","Light Rain","rain","0","1","0","0","0","0","METAR UKKK 092300Z 27008MPS 9999 -RA OVC007 07/06 Q1012 R26/290354 NOSIG"
"2:30 AM EEST on October 10, 2016","2016","10","10","02","30","Europe/Kiev","11:30 PM GMT on October 09, 2016","2016","10","09","23","30","UTC","7.0","44.6","6.0","42.8","93","28.8","17.9","-9999.0","-9999.0","270","West","10.0","6.2","1012","29.89","2.8","37.0","-9999","-9999","-9999.00","-9999.00","Light Rain","rain","0","1","0","0","0","0","METAR UKKK 092330Z 27008MPS 9999 -RA OVC007 07/06 Q1012 R26/290354 NOSIG"
"3:00 AM EEST on October 10, 2016","2016","10","10","03","00","Europe/Kiev","12:00 AM GMT on October 10, 2016","2016","10","10","00","00","UTC","6","44","6","42","89","18.0","11.2","","","300","WNW","4","2","1013","29.93","-999","-999","-9999","-9999","","","Mist","hazy","0","0","0","0","0","0","AAXX 10001 33345 /1596 83005 10064 20055 39929 40133 54000 71062 8597/ 555 11006 60051"
"3:00 AM EEST on October 10, 2016","2016","10","10","03","00","Europe/Kiev","12:00 AM GMT on October 10, 2016","2016","10","10","00","00","UTC","7.0","44.6","6.0","42.8","93","25.2","15.7","-9999.0","-9999.0","270","West","10.0","6.2","1012","29.89","3.1","37.6","-9999","-9999","-9999.00","-9999.00","Light Rain","rain","0","1","0","0","0","0","METAR UKKK 100000Z 27007MPS 9999 -RA OVC007 07/06 Q1012 R26/290354 NOSIG"
"3:30 AM EEST on October 10, 2016","2016","10","10","03","30","Europe/Kiev","12:30 AM GMT on October 10, 2016","2016","10","10","00","30","UTC","6.0","42.8","6.0","42.8","100","25.2","15.7","-9999.0","-9999.0","270","West","10.0","6.2","1012","29.89","1.8","35.2","-9999","-9999","-9999.00","-9999.00","Light Rain","rain","0","1","0","0","0","0","METAR UKKK 100030Z 27007MPS 9999 -RA OVC007 06/06 Q1012 R26/290354 NOSIG"
"4:00 AM EEST on October 10, 2016","2016","10","10","04","00","Europe/Kiev","1:00 AM GMT on October 10, 2016","2016","10","10","01","00","UTC","6.0","42.8","6.0","42.8","100","25.2","15.7","-9999.0","-9999.0","270","West","10.0","6.2","1012","29.89","1.8","35.2","-9999","-9999","-9999.00","-9999.00","Light Rain","rain","0","1","0","0","0","0","METAR UKKK 100100Z 27007MPS 9999 -RA OVC006 06/06 Q1012 R26/290354 NOSIG"
"4:30 AM EEST on October 10, 2016","2016","10","10","04","30","Europe/Kiev","1:30 AM GMT on October 10, 2016","2016","10","10","01","30","UTC","6.0","42.8","6.0","42.8","100","25.2","15.7","-9999.0","-9999.0","270","West","10.0","6.2","1012","29.89","1.8","35.2","-9999","-9999","-9999.00","-9999.00","Light Rain","rain","0","1","0","0","0","0","METAR UKKK 100130Z 27007MPS 9999 -RA OVC007 06/06 Q1012 R26/290354 NOSIG"
"5:00 AM EEST on October 10, 2016","2016","10","10","05","00","Europe/Kiev","2:00 AM GMT on October 10, 2016","2016","10","10","02","00","UTC","6.0","42.8","6.0","42.8","100","25.2","15.7","-9999.0","-9999.0","270","West","10.0","6.2","1012","29.89","1.8","35.2","-9999","-9999","-9999.00","-9999.00","Light Rain","rain","0","1","0","0","0","0","METAR UKKK 100200Z 27007MPS 9999 -RA OVC006 06/06 Q1012 R26/290354 NOSIG"
"5:30 AM EEST on October 10, 2016","2016","10","10","05","30","Europe/Kiev","2:30 AM GMT on October 10, 2016","2016","10","10","02","30","UTC","6.0","42.8","6.0","42.8","100","25.2","15.7","-9999.0","-9999.0","270","West","10.0","6.2","1012","29.89","1.8","35.2","-9999","-9999","-9999.00","-9999.00","Light Rain","rain","0","1","0","0","0","0","METAR UKKK 100230Z 27007MPS 9999 -RA OVC007 06/06 Q1012 R26/290354 NOSIG"
"6:00 AM EEST on October 10, 2016","2016","10","10","06","00","Europe/Kiev","3:00 AM GMT on October 10, 2016","2016","10","10","03","00","UTC","6","43","5","42","93","14.4","8.9","","","290","WNW","4","2","1013","29.91","-999","-999","-9999","-9999","","","Light Rain","rain","0","1","0","0","0","0","AAXX 10031 33345 41496 82904 10061 20054 39922 40126 58007 76186 8372/ 555 11006"
"6:00 AM EEST on October 10, 2016","2016","10","10","06","00","Europe/Kiev","3:00 AM GMT on October 10, 2016","2016","10","10","03","00","UTC","6.0","42.8","6.0","42.8","100","25.2","15.7","-9999.0","-9999.0","270","West","9.0","5.6","1012","29.89","1.8","35.2","-9999","-9999","-9999.00","-9999.00","Light Rain","rain","0","1","0","0","0","0","METAR UKKK 100300Z 27007MPS 9000 -RA OVC006 06/06 Q1012 R26/290354 NOSIG"
"6:30 AM EEST on October 10, 2016","2016","10","10","06","30","Europe/Kiev","3:30 AM GMT on October 10, 2016","2016","10","10","03","30","UTC","6.0","42.8","6.0","42.8","100","21.6","13.4","-9999.0","-9999.0","270","West","10.0","6.2","1012","29.89","2.2","35.9","-9999","-9999","-9999.00","-9999.00","Light Rain","rain","0","1","0","0","0","0","METAR UKKK 100330Z 27006MPS 9999 -RA OVC006 06/06 Q1012 R26/290354 NOSIG"
"7:00 AM EEST on October 10, 2016","2016","10","10","07","00","Europe/Kiev","4:00 AM GMT on October 10, 2016","2016","10","10","04","00","UTC","6.0","42.8","6.0","42.8","100","25.2","15.7","-9999.0","-9999.0","270","West","10.0","6.2","1012","29.89","1.8","35.2","-9999","-9999","-9999.00","-9999.00","Light Rain","rain","0","1","0","0","0","0","METAR UKKK 100400Z 27007MPS 9999 -RA OVC006 06/06 Q1012 R26/290354 NOSIG"
"7:30 AM EEST on October 10, 2016","2016","10","10","07","30","Europe/Kiev","4:30 AM GMT on October 10, 2016","2016","10","10","04","30","UTC","6.0","42.8","6.0","42.8","100","25.2","15.7","-9999.0","-9999.0","270","West","10.0","6.2","1012","29.89","1.8","35.2","-9999","-9999","-9999.00","-9999.00","Light Rain","rain","0","1","0","0","0","0","METAR UKKK 100430Z 27007MPS 9999 -RA OVC006 06/06 Q1012 R26/290354 NOSIG"
"8:00 AM EEST on October 10, 2016","2016","10","10","08","00","Europe/Kiev","5:00 AM GMT on October 10, 2016","2016","10","10","05","00","UTC","6.0","42.8","6.0","42.8","100","21.6","13.4","-9999.0","-9999.0","270","West","10.0","6.2","1012","29.89","2.2","35.9","-9999","-9999","-9999.00","-9999.00","Light Rain","rain","0","1","0","0","0","0","METAR UKKK 100500Z 27006MPS 9999 -RA OVC006 06/06 Q1012 R26/290354 NOSIG"
"8:30 AM EEST on October 10, 2016","2016","10","10","08","30","Europe/Kiev","5:30 AM GMT on October 10, 2016","2016","10","10","05","30","UTC","7.0","44.6","6.0","42.8","93","21.6","13.4","-9999.0","-9999.0","270","West","10.0","6.2","1012","29.89","3.4","38.2","-9999","-9999","-9999.00","-9999.00","Light Rain","rain","0","1","0","0","0","0","METAR UKKK 100530Z 27006MPS 9999 -RA OVC006 07/06 Q1012 R26/290354 NOSIG"
"9:00 AM EEST on October 10, 2016","2016","10","10","09","00","Europe/Kiev","6:00 AM GMT on October 10, 2016","2016","10","10","06","00","UTC","7","44","6","43","93","14.4","8.9","","","290","WNW","4","2","1013","29.91","-999","-999","-9999","-9999","","","Light Rain","rain","0","1","0","0","0","0","AAXX 10061 33345 11496 82904 10066 20059 39922 40126 54000 60082 76186 8872/ 333 20060 555 11007"
"9:00 AM EEST on October 10, 2016","2016","10","10","09","00","Europe/Kiev","6:00 AM GMT on October 10, 2016","2016","10","10","06","00","UTC","7.0","44.6","6.0","42.8","93","21.6","13.4","-9999.0","-9999.0","270","West","10.0","6.2","1012","29.89","3.4","38.2","-9999","-9999","-9999.00","-9999.00","Light Rain","rain","0","1","0","0","0","0","METAR UKKK 100600Z 27006MPS 9999 -RA OVC006 07/06 Q1012 R26/290354 NOSIG"
"9:30 AM EEST on October 10, 2016","2016","10","10","09","30","Europe/Kiev","6:30 AM GMT on October 10, 2016","2016","10","10","06","30","UTC","7.0","44.6","6.0","42.8","93","21.6","13.4","-9999.0","-9999.0","270","West","10.0","6.2","1012","29.89","3.4","38.2","-9999","-9999","-9999.00","-9999.00","Light Rain","rain","0","1","0","0","0","0","METAR UKKK 100630Z 27006MPS 9999 -RA OVC006 07/06 Q1012 R26/290354 NOSIG"
"10:00 AM EEST on October 10, 2016","2016","10","10","10","00","Europe/Kiev","7:00 AM GMT on October 10, 2016","2016","10","10","07","00","UTC","7.0","44.6","6.0","42.8","93","25.2","15.7","-9999.0","-9999.0","260","West","10.0","6.2","1012","29.89","3.1","37.6","-9999","-9999","-9999.00","-9999.00","Light Rain","rain","0","1","0","0","0","0","METAR UKKK 100700Z 26007MPS 9999 -RA OVC006 07/06 Q1012 R26/290354 NOSIG"
"10:30 AM EEST on October 10, 2016","2016","10","10","10","30","Europe/Kiev","7:30 AM GMT on October 10, 2016","2016","10","10","07","30","UTC","7.0","44.6","7.0","44.6","100","25.2","15.7","-9999.0","-9999.0","270","West","10.0","6.2","1012","29.89","3.1","37.6","-9999","-9999","-9999.00","-9999.00","Light Rain","rain","0","1","0","0","0","0","METAR UKKK 100730Z 27007MPS 9999 -RA OVC006 07/07 Q1012 R26/290354 NOSIG"
"11:00 AM EEST on October 10, 2016","2016","10","10","11","00","Europe/Kiev","8:00 AM GMT on October 10, 2016","2016","10","10","08","00","UTC","7.0","44.6","7.0","44.6","100","25.2","15.7","-9999.0","-9999.0","270","West","-9999.0","-9999.0","1012","29.89","3.1","37.6","-9999","-9999","-9999.00","-9999.00","Light Rain","rain","0","1","0","0","0","0","METAR UKKK 100800Z 27007MPS 4200 -RA BR OVC005 07/07 Q1012 R26/290354 TEMPO BKN004"
"11:30 AM EEST on October 10, 2016","2016","10","10","11","30","Europe/Kiev","8:30 AM GMT on October 10, 2016","2016","10","10","08","30","UTC","8.0","46.4","7.0","44.6","93","25.2","15.7","-9999.0","-9999.0","270","West","6.0","3.7","1012","29.89","4.4","39.9","-9999","-9999","-9999.00","-9999.00","Light Rain","rain","0","1","0","0","0","0","METAR UKKK 100830Z 27007MPS 6000 -RA OVC005 08/07 Q1012 R26/290354 TEMPO BKN004"
"12:00 PM EEST on October 10, 2016","2016","10","10","12","00","Europe/Kiev","9:00 AM GMT on October 10, 2016","2016","10","10","09","00","UTC","8","46","7","45","93","14.4","8.9","","","300","WNW","4","2","1013","29.93","-999","-999","-9999","-9999","","","Light Rain","rain","0","1","0","0","0","0","AAXX 10091 33345 41396 83004 10076 20070 39930 40133 53008 76166 8872/ 555 11009"
"12:00 PM EEST on October 10, 2016","2016","10","10","12","00","Europe/Kiev","9:00 AM GMT on October 10, 2016","2016","10","10","09","00","UTC","8.0","46.4","7.0","44.6","93","25.2","15.7","-9999.0","-9999.0","270","West","2.7","1.7","1013","29.92","4.4","39.9","-9999","-9999","-9999.00","-9999.00","Light Rain","rain","0","1","0","0","0","0","METAR UKKK 100900Z 27007MPS 2700 -RA BR OVC004 08/07 Q1013 R26/290354 TEMPO BKN004"
"12:30 PM EEST on October 10, 2016","2016","10","10","12","30","Europe/Kiev","9:30 AM GMT on October 10, 2016","2016","10","10","09","30","UTC","8.0","46.4","8.0","46.4","100","25.2","15.7","-9999.0","-9999.0","280","West","-9999.0","-9999.0","1013","29.92","4.4","39.9","-9999","-9999","-9999.00","-9999.00","Light Rain","rain","0","1","0","0","0","0","METAR UKKK 100930Z 28007MPS 4600 -RA BR OVC005 08/08 Q1013 R26/290354 TEMPO 1000 BR BKN003"
"1:00 PM EEST on October 10, 2016","2016","10","10","13","00","Europe/Kiev","10:00 AM GMT on October 10, 2016","2016","10","10","10","00","UTC","8.0","46.4","8.0","46.4","100","25.2","15.7","-9999.0","-9999.0","280","West","7.0","4.3","1013","29.92","4.4","39.9","-9999","-9999","-9999.00","-9999.00","Light Rain","rain","0","1","0","0","0","0","METAR UKKK 101000Z 28007MPS 7000 -RA OVC005 08/08 Q1013 R26/290354 TEMPO BKN005"
"1:14 PM EEST on October 10, 2016","2016","10","10","13","14","Europe/Kiev","10:14 AM GMT on October 10, 2016","2016","10","10","10","14","UTC","8.0","46.4","8.0","46.4","100","21.6","13.4","-9999.0","-9999.0","280","West","7.0","4.3","1013","29.92","4.7","40.5","-9999","-9999","-9999.00","-9999.00","Light Rain","rain","0","1","0","0","0","0","SPECI UKKK 101014Z 28006MPS 7000 -RA OVC004 08/08 Q1013 R26/290354 TEMPO BKN005"
"1:30 PM EEST on October 10, 2016","2016","10","10","13","30","Europe/Kiev","10:30 AM GMT on October 10, 2016","2016","10","10","10","30","UTC","8.0","46.4","8.0","46.4","100","21.6","13.4","-9999.0","-9999.0","270","West","2.3","1.4","1013","29.92","4.7","40.5","-9999","-9999","-9999.00","-9999.00","Light Rain","rain","0","1","0","0","0","0","METAR UKKK 101030Z 27006MPS 2300 -RA BR OVC004 08/08 Q1013 R26/290354 TEMPO 1000 BR BKN003"
"2:00 PM EEST on October 10, 2016","2016","10","10","14","00","Europe/Kiev","11:00 AM GMT on October 10, 2016","2016","10","10","11","00","UTC","8.0","46.4","8.0","46.4","100","21.6","13.4","-9999.0","-9999.0","270","West","2.3","1.4","1013","29.92","4.7","40.5","-9999","-9999","-9999.00","-9999.00","Light Rain","rain","0","1","0","0","0","0","METAR UKKK 101100Z 27006MPS 2300 -RA BR OVC005 08/08 Q1013 R26/290354 TEMPO 0400 FG BKN002"
"2:01 PM EEST on October 10, 2016","2016","10","10","14","01","Europe/Kiev","11:01 AM GMT on October 10, 2016","2016","10","10","11","01","UTC","8.0","46.4","8.0","46.4","100","21.6","13.4","-9999.0","-9999.0","270","West","2.3","1.4","1013","29.92","4.7","40.5","-9999","-9999","-9999.00","-9999.00","Light Rain","rain","0","1","0","0","0","0","SPECI UKKK 101101Z 27006MPS 2300 -RA BR OVC004 08/08 Q1013 R26/290354 TEMPO 0400 FG BKN002"
"2:30 PM EEST on October 10, 2016","2016","10","10","14","30","Europe/Kiev","11:30 AM GMT on October 10, 2016","2016","10","10","11","30","UTC","8.0","46.4","8.0","46.4","100","21.6","13.4","-9999.0","-9999.0","270","West","-9999.0","-9999.0","1013","29.92","4.7","40.5","-9999","-9999","-9999.00","-9999.00","Light Rain","rain","0","1","0","0","0","0","METAR UKKK 101130Z 27006MPS 3300 -RA BR OVC004 08/08 Q1013 R26/290354 TEMPO 1000 BR BKN003"
"3:00 PM EEST on October 10, 2016","2016","10","10","15","00","Europe/Kiev","12:00 PM GMT on October 10, 2016","2016","10","10","12","00","UTC","8","47","8","46","93","14.4","8.9","","","280","West","4","2","1014","29.96","-999","-999","-9999","-9999","","","Light Rain","rain","0","1","0","0","0","0","AAXX 10121 33345 /1396 82804 10082 20076 39940 40143 52010 76165 8872/ 555 11009 60021"
"3:00 PM EEST on October 10, 2016","2016","10","10","15","00","Europe/Kiev","12:00 PM GMT on October 10, 2016","2016","10","10","12","00","UTC","8.0","46.4","8.0","46.4","100","21.6","13.4","-9999.0","-9999.0","270","West","-9999.0","-9999.0","1014","29.95","4.7","40.5","-9999","-9999","-9999.00","-9999.00","Light Rain","rain","0","1","0","0","0","0","METAR UKKK 101200Z 27006MPS 3300 -RA BR OVC004 08/08 Q1014 R26/290354 TEMPO 1000 BR BKN003"
"3:18 PM EEST on October 10, 2016","2016","10","10","15","18","Europe/Kiev","12:18 PM GMT on October 10, 2016","2016","10","10","12","18","UTC","8.0","46.4","8.0","46.4","100","25.2","15.7","-9999.0","-9999.0","260","West","5.0","3.1","1014","29.95","4.4","39.9","-9999","-9999","-9999.00","-9999.00","Light Rain","rain","0","1","0","0","0","0","SPECI UKKK 101218Z 26007MPS 5000 -RA BR OVC005 08/08 Q1014 R26/290354 NOSIG"
"3:19 PM EEST on October 10, 2016","2016","10","10","15","19","Europe/Kiev","12:19 PM GMT on October 10, 2016","2016","10","10","12","19","UTC","8.0","46.4","8.0","46.4","100","25.2","15.7","-9999.0","-9999.0","260","West","5.0","3.1","1014","29.95","4.4","39.9","-9999","-9999","-9999.00","-9999.00","Light Rain","rain","0","1","0","0","0","0","SPECI UKKK 101219Z 26007MPS 5000 -RA BR OVC004 08/08 Q1014 R26/290354 NOSIG"
"3:30 PM EEST on October 10, 2016","2016","10","10","15","30","Europe/Kiev","12:30 PM GMT on October 10, 2016","2016","10","10","12","30","UTC","8.0","46.4","8.0","46.4","100","21.6","13.4","-9999.0","-9999.0","270","West","4.5","2.8","1014","29.95","4.7","40.5","-9999","-9999","-9999.00","-9999.00","Light Rain","rain","0","1","0","0","0","0","METAR UKKK 101230Z 27006MPS 4500 -RA BR OVC005 08/08 Q1014 R26/290354 NOSIG"
"3:32 PM EEST on October 10, 2016","2016","10","10","15","32","Europe/Kiev","12:32 PM GMT on October 10, 2016","2016","10","10","12","32","UTC","8.0","46.4","8.0","46.4","100","21.6","13.4","-9999.0","-9999.0","270","West","-9999.0","-9999.0","1014","29.95","4.7","40.5","-9999","-9999","-9999.00","-9999.00","Light Rain","rain","0","1","0","0","0","0","SPECI UKKK 101232Z 27006MPS 4400 -RA BR OVC004 08/08 Q1014 R26/290354 NOSIG"
"3:52 PM EEST on October 10, 2016","2016","10","10","15","52","Europe/Kiev","12:52 PM GMT on October 10, 2016","2016","10","10","12","52","UTC","9.0","48.2","8.0","46.4","93","21.6","13.4","-9999.0","-9999.0","270","West","9.0","5.6","1014","29.95","-999","-999","-9999","-9999","-9999.00","-9999.00","Light Rain","rain","0","1","0","0","0","0","SPECI UKKK 101252Z 27006MPS 9000 -RA BKN006 OVC009 09/08 Q1014 R26/290354 NOSIG"
"4:00 PM EEST on October 10, 2016","2016","10","10","16","00","Europe/Kiev","1:00 PM GMT on October 10, 2016","2016","10","10","13","00","UTC","9.0","48.2","8.0","46.4","93","21.6","13.4","-9999.0","-9999.0","270","West","7.0","4.3","1014","29.95","-999","-999","-9999","-9999","-9999.00","-9999.00","Light Rain","rain","0","1","0","0","0","0","METAR UKKK 101300Z 27006MPS 7000 -RA BKN005 OVC009 09/08 Q1014 R26/290354 NOSIG"
"4:30 PM EEST on October 10, 2016","2016","10","10","16","30","Europe/Kiev","1:30 PM GMT on October 10, 2016","2016","10","10","13","30","UTC","9.0","48.2","8.0","46.4","93","18.0","11.2","-9999.0","-9999.0","270","West","6.0","3.7","1014","29.95","-999","-999","-9999","-9999","-9999.00","-9999.00","Light Rain","rain","0","1","0","0","0","0","METAR UKKK 101330Z 27005MPS 6000 -RA BKN005 OVC010 09/08 Q1014 R26/290354 NOSIG"
"4:36 PM EEST on October 10, 2016","2016","10","10","16","36","Europe/Kiev","1:36 PM GMT on October 10, 2016","2016","10","10","13","36","UTC","9.0","48.2","8.0","46.4","93","18.0","11.2","-9999.0","-9999.0","270","West","5.0","3.1","1014","29.95","-999","-999","-9999","-9999","-9999.00","-9999.00","Light Rain","rain","0","1","0","0","0","0","SPECI UKKK 101336Z 27005MPS 5000 -RA BR BKN004 OVC010 09/08 Q1014 R26/290354 TEMPO BKN003"
"5:00 PM EEST on October 10, 2016","2016","10","10","17","00","Europe/Kiev","2:00 PM GMT on October 10, 2016","2016","10","10","14","00","UTC","9.0","48.2","8.0","46.4","93","18.0","11.2","-9999.0","-9999.0","280","West","9.0","5.6","1014","29.95","-999","-999","-9999","-9999","-9999.00","-9999.00","Light Drizzle","rain","0","0","0","0","0","0","METAR UKKK 101400Z 28005MPS 9000 -DZ BKN004 OVC008 09/08 Q1014 R26/290354 TEMPO BKN003"
"5:30 PM EEST on October 10, 2016","2016","10","10","17","30","Europe/Kiev","2:30 PM GMT on October 10, 2016","2016","10","10","14","30","UTC","9.0","48.2","8.0","46.4","93","14.4","8.9","-9999.0","-9999.0","270","West","10.0","6.2","1014","29.95","-999","-999","-9999","-9999","-9999.00","-9999.00","Light Drizzle","rain","0","0","0","0","0","0","METAR UKKK 101430Z 27004MPS 9999 -DZ BKN006 OVC010 09/08 Q1014 R26/290158 TEMPO BKN003"
"6:00 PM EEST on October 10, 2016","2016","10","10","18","00","Europe/Kiev","3:00 PM GMT on October 10, 2016","2016","10","10","15","00","UTC","8","47","8","46","96","3.6","2.2","","","290","WNW","10","6","1015","29.99","-999","-999","-9999","-9999","","","Light Rain","rain","0","1","0","0","0","0","AAXX 10151 33345 41397 82901 10085 20079 39951 40154 52011 76162 8772/ 555 11009"
"6:00 PM EEST on October 10, 2016","2016","10","10","18","00","Europe/Kiev","3:00 PM GMT on October 10, 2016","2016","10","10","15","00","UTC","9.0","48.2","8.0","46.4","93","14.4","8.9","-9999.0","-9999.0","280","West","10.0","6.2","1015","29.98","-999","-999","-9999","-9999","-9999.00","-9999.00","Light Drizzle","rain","0","0","0","0","0","0","METAR UKKK 101500Z 28004MPS 9999 -DZ BKN005 OVC010 09/08 Q1015 R26/290158 TEMPO BKN003"
"6:30 PM EEST on October 10, 2016","2016","10","10","18","30","Europe/Kiev","3:30 PM GMT on October 10, 2016","2016","10","10","15","30","UTC","9.0","48.2","8.0","46.4","93","10.8","6.7","-9999.0","-9999.0","280","West","10.0","6.2","1015","29.98","-999","-999","-9999","-9999","-9999.00","-9999.00","Mostly Cloudy","mostlycloudy","0","0","0","0","0","0","METAR UKKK 101530Z 28003MPS 9999 BKN007 BKN024 09/08 Q1015 R26/290158 NOSIG"
"6:51 PM EEST on October 10, 2016","2016","10","10","18","51","Europe/Kiev","3:51 PM GMT on October 10, 2016","2016","10","10","15","51","UTC","8.0","46.4","8.0","46.4","100","10.8","6.7","-9999.0","-9999.0","270","West","8.0","5.0","1015","29.98","6.1","43.0","-9999","-9999","-9999.00","-9999.00","Light Rain","rain","0","1","0","0","0","0","SPECI UKKK 101551Z 27003MPS 8000 -RA BKN004 OVC012 08/08 Q1015 R26/290158 TEMPO 1000 -SHRA BR BKN003 SCT015CB"
"7:00 PM EEST on October 10, 2016","2016","10","10","19","00","Europe/Kiev","4:00 PM GMT on October 10, 2016","2016","10","10","16","00","UTC","8.0","46.4","8.0","46.4","100","10.8","6.7","-9999.0","-9999.0","300","WNW","2.9","1.8","1015","29.98","6.1","43.0","-9999","-9999","-9999.00","-9999.00","Light Rain","rain","0","1","0","0","0","0","METAR UKKK 101600Z 30003MPS 2900 -RA BKN005 OVC012 08/08 Q1015 R26/290158 TEMPO 1000 -SHRA BR BKN003 SCT015CB"
"7:30 PM EEST on October 10, 2016","2016","10","10","19","30","Europe/Kiev","4:30 PM GMT on October 10, 2016","2016","10","10","16","30","UTC","8.0","46.4","7.0","44.6","93","7.2","4.5","-9999.0","-9999.0","290","WNW","9.0","5.6","1016","30.01","6.9","44.4","-9999","-9999","-9999.00","-9999.00","Light Rain","rain","0","1","0","0","0","0","METAR UKKK 101630Z 29002MPS 9000 -RA SCT007 OVC015 08/07 Q1016 R26/290158 TEMPO 1000 -SHRA BR BKN003 SCT015CB"
"8:00 PM EEST on October 10, 2016","2016","10","10","20","00","Europe/Kiev","5:00 PM GMT on October 10, 2016","2016","10","10","17","00","UTC","8.0","46.4","8.0","46.4","100","10.8","6.7","-9999.0","-9999.0","290","WNW","10.0","6.2","1016","30.01","6.1","43.0","-9999","-9999","-9999.00","-9999.00","Overcast","cloudy","0","0","0","0","0","0","METAR UKKK 101700Z 29003MPS 9999 SCT006 OVC025 08/08 Q1016 R26/290158 TEMPO 1000 -SHRA BR BKN003 SCT015CB"
"8:30 PM EEST on October 10, 2016","2016","10","10","20","30","Europe/Kiev","5:30 PM GMT on October 10, 2016","2016","10","10","17","30","UTC","8.0","46.4","8.0","46.4","100","10.8","6.7","-9999.0","-9999.0","290","WNW","10.0","6.2","1016","30.01","6.1","43.0","-9999","-9999","-9999.00","-9999.00","Overcast","cloudy","0","0","0","0","0","0","METAR UKKK 101730Z 29003MPS 9999 SCT006 OVC020 08/08 Q1016 R26/290158 TEMPO BKN005"
"9:00 PM EEST on October 10, 2016","2016","10","10","21","00","Europe/Kiev","6:00 PM GMT on October 10, 2016","2016","10","10","18","00","UTC","8","46","7","45","95","3.6","2.2","","","320","NW","10","6","1017","30.03","-999","-999","-9999","-9999","","","Partly Cloudy","partlycloudy","0","0","0","0","0","0","AAXX 10181 33345 11497 83201 10078 20072 39965 40169 52014 60032 70262 8662/ 333 10087 555 11008"
"9:00 PM EEST on October 10, 2016","2016","10","10","21","00","Europe/Kiev","6:00 PM GMT on October 10, 2016","2016","10","10","18","00","UTC","8.0","46.4","7.0","44.6","93","7.2","4.5","-9999.0","-9999.0","280","West","10.0","6.2","1016","30.01","6.9","44.4","-9999","-9999","-9999.00","-9999.00","Overcast","cloudy","0","0","0","0","0","0","METAR UKKK 101800Z 28002MPS 9999 SCT006 OVC020 08/07 Q1016 R26/290158 TEMPO BKN005"
"9:30 PM EEST on October 10, 2016","2016","10","10","21","30","Europe/Kiev","6:30 PM GMT on October 10, 2016","2016","10","10","18","30","UTC","8.0","46.4","7.0","44.6","93","10.8","6.7","-9999.0","-9999.0","290","WNW","10.0","6.2","1016","30.01","6.1","43.0","-9999","-9999","-9999.00","-9999.00","Overcast","cloudy","0","0","0","0","0","0","METAR UKKK 101830Z 29003MPS 9999 SCT005 OVC033 08/07 Q1016 R26/290158 TEMPO BKN005"
"10:00 PM EEST on October 10, 2016","2016","10","10","22","00","Europe/Kiev","7:00 PM GMT on October 10, 2016","2016","10","10","19","00","UTC","7.0","44.6","7.0","44.6","100","10.8","6.7","-9999.0","-9999.0","290","WNW","10.0","6.2","1016","30.01","4.9","40.8","-9999","-9999","-9999.00","-9999.00","Overcast","cloudy","0","0","0","0","0","0","METAR UKKK 101900Z 29003MPS 9999 SCT006 OVC033 07/07 Q1016 R26/290158 TEMPO BKN005"
"10:30 PM EEST on October 10, 2016","2016","10","10","22","30","Europe/Kiev","7:30 PM GMT on October 10, 2016","2016","10","10","19","30","UTC","7.0","44.6","7.0","44.6","100","7.2","4.5","-9999.0","-9999.0","270","West","10.0","6.2","1017","30.04","5.7","42.3","-9999","-9999","-9999.00","-9999.00","Mostly Cloudy","mostlycloudy","0","0","0","0","0","0","METAR UKKK 101930Z 27002MPS 9999 SCT005 BKN100 07/07 Q1017 R26/290158 TEMPO BKN005"
"11:00 PM EEST on October 10, 2016","2016","10","10","23","00","Europe/Kiev","8:00 PM GMT on October 10, 2016","2016","10","10","20","00","UTC","7.0","44.6","7.0","44.6","100","10.8","6.7","-9999.0","-9999.0","280","West","10.0","6.2","1017","30.04","4.9","40.8","-9999","-9999","-9999.00","-9999.00","Mostly Cloudy","mostlycloudy","0","0","0","0","0","0","METAR UKKK 102000Z 28003MPS 9999 SCT006 BKN040 07/07 Q1017 R26/290158 TEMPO BKN004"
"11:30 PM EEST on October 10, 2016","2016","10","10","23","30","Europe/Kiev","8:30 PM GMT on October 10, 2016","2016","10","10","20","30","UTC","7.0","44.6","6.0","42.8","93","10.8","6.7","-9999.0","-9999.0","270","West","10.0","6.2","1017","30.04","4.9","40.8","-9999","-9999","-9999.00","-9999.00","Mostly Cloudy","mostlycloudy","0","0","0","0","0","0","METAR UKKK 102030Z 27003MPS 9999 SCT007 BKN033 07/06 Q1017 R26/290158 TEMPO BKN005"
"12:00 AM EEST on October 11, 2016","2016","10","11","00","00","Europe/Kiev","9:00 PM GMT on October 10, 2016","2016","10","10","21","00","UTC","7","45","6","43","92","3.6","2.2","","","300","WNW","10","6","1018","30.06","-999","-999","-9999","-9999","","","Mostly Cloudy","mostlycloudy","0","0","0","0","0","0","AAXX 10211 33345 42497 73001 10070 20063 39974 40179 52009 86530 555 11007"
"12:00 AM EEST on October 11, 2016","2016","10","11","00","00","Europe/Kiev","9:00 PM GMT on October 10, 2016","2016","10","10","21","00","UTC","7.0","44.6","6.0","42.8","93","10.8","6.7","-9999.0","-9999.0","280","West","10.0","6.2","1017","30.04","4.9","40.8","-9999","-9999","-9999.00","-9999.00","Mostly Cloudy","mostlycloudy","0","0","0","0","0","0","METAR UKKK 102100Z 28003MPS 9999 SCT010 BKN033 07/06 Q1017 R26/290158 TEMPO BKN005"
"12:30 AM EEST on October 11, 2016","2016","10","11","00","30","Europe/Kiev","9:30 PM GMT on October 10, 2016","2016","10","10","21","30","UTC","7.0","44.6","6.0","42.8","93","10.8","6.7","-9999.0","-9999.0","270","West","10.0","6.2","1017","30.04","4.9","40.8","-9999","-9999","-9999.00","-9999.00","Mostly Cloudy","mostlycloudy","0","0","0","0","0","0","METAR UKKK 102130Z 27003MPS 9999 SCT006 BKN033 07/06 Q1017 R26/290158 NOSIG"
"1:00 AM EEST on October 11, 2016","2016","10","11","01","00","Europe/Kiev","10:00 PM GMT on October 10, 2016","2016","10","10","22","00","UTC","7.0","44.6","6.0","42.8","93","10.8","6.7","-9999.0","-9999.0","270","West","10.0","6.2","1017","30.04","4.9","40.8","-9999","-9999","-9999.00","-9999.00","Mostly Cloudy","mostlycloudy","0","0","0","0","0","0","METAR UKKK 102200Z 27003MPS 9999 SCT007 BKN033 07/06 Q1017 R26/290158 NOSIG"
"1:30 AM EEST on October 11, 2016","2016","10","11","01","30","Europe/Kiev","10:30 PM GMT on October 10, 2016","2016","10","10","22","30","UTC","6.0","42.8","6.0","42.8","100","7.2","4.5","-9999.0","-9999.0","250","WSW","10.0","6.2","1017","30.04","4.5","40.2","-9999","-9999","-9999.00","-9999.00","Mostly Cloudy","mostlycloudy","0","0","0","0","0","0","METAR UKKK 102230Z 25002MPS 9999 SCT007 BKN100 06/06 Q1017 R26/290158 NOSIG"
"2:00 AM EEST on October 11, 2016","2016","10","11","02","00","Europe/Kiev","11:00 PM GMT on October 10, 2016","2016","10","10","23","00","UTC","6.0","42.8","6.0","42.8","100","7.2","4.5","-9999.0","-9999.0","220","SW","10.0","6.2","1018","30.06","4.5","40.2","-9999","-9999","-9999.00","-9999.00","Mostly Cloudy","mostlycloudy","0","0","0","0","0","0","METAR UKKK 102300Z 22002MPS 9999 BKN005 06/06 Q1018 R26/290158 TEMPO BKN004"
"2:30 AM EEST on October 11, 2016","2016","10","11","02","30","Europe/Kiev","11:30 PM GMT on October 10, 2016","2016","10","10","23","30","UTC","6.0","42.8","6.0","42.8","100","10.8","6.7","-9999.0","-9999.0","250","WSW","10.0","6.2","1017","30.04","3.7","38.7","-9999","-9999","-9999.00","-9999.00","Mostly Cloudy","mostlycloudy","0","0","0","0","0","0","METAR UKKK 102330Z 25003MPS 9999 BKN005 BKN050 06/06 Q1017 R26/290158 TEMPO BKN004"
"3:00 AM EEST on October 11, 2016","2016","10","11","03","00","Europe/Kiev","12:00 AM GMT on October 11, 2016","2016","10","11","00","00","UTC","6","44","6","42","91","3.6","2.2","","","280","West","4","2","1018","30.07","-999","-999","-9999","-9999","","","Mist","hazy","0","0","0","0","0","0","AAXX 11001 33345 /1496 82801 10064 20057 39978 40183 52004 71062 885// 555 11006 69901"
"3:00 AM EEST on October 11, 2016","2016","10","11","03","00","Europe/Kiev","12:00 AM GMT on October 11, 2016","2016","10","11","00","00","UTC","6.0","42.8","6.0","42.8","100","7.2","4.5","-9999.0","-9999.0","260","West","10.0","6.2","1017","30.04","4.5","40.2","-9999","-9999","-9999.00","-9999.00","Mostly Cloudy","mostlycloudy","0","0","0","0","0","0","METAR UKKK 110000Z 26002MPS 9999 BKN020 06/06 Q1017 R26/290158 NOSIG"
"3:30 AM EEST on October 11, 2016","2016","10","11","03","30","Europe/Kiev","12:30 AM GMT on October 11, 2016","2016","10","11","00","30","UTC","6.0","42.8","6.0","42.8","100","7.2","4.5","-9999.0","-9999.0","260","West","10.0","6.2","1017","30.04","4.5","40.2","-9999","-9999","-9999.00","-9999.00","Mostly Cloudy","mostlycloudy","0","0","0","0","0","0","METAR UKKK 110030Z 26002MPS 9999 BKN013 06/06 Q1017 R26/290158 NOSIG"
"4:00 AM EEST on October 11, 2016","2016","10","11","04","00","Europe/Kiev","1:00 AM GMT on October 11, 2016","2016","10","11","01","00","UTC","6.0","42.8","6.0","42.8","100","7.2","4.5","-9999.0","-9999.0","250","WSW","10.0","6.2","1017","30.04","4.5","40.2","-9999","-9999","-9999.00","-9999.00","Mostly Cloudy","mostlycloudy","0","0","0","0","0","0","METAR UKKK 110100Z 25002MPS 9999 BKN018 06/06 Q1017 R26/290158 NOSIG"
"4:30 AM EEST on October 11, 2016","2016","10","11","04","30","Europe/Kiev","1:30 AM GMT on October 11, 2016","2016","10","11","01","30","UTC","6.0","42.8","6.0","42.8","100","7.2","4.5","-9999.0","-9999.0","250","WSW","10.0","6.2","1018","30.06","4.5","40.2","-9999","-9999","-9999.00","-9999.00","Mostly Cloudy","mostlycloudy","0","0","0","0","0","0","METAR UKKK 110130Z 25002MPS 9999 BKN018 06/06 Q1018 R26/290158 NOSIG"
"5:00 AM EEST on October 11, 2016","2016","10","11","05","00","Europe/Kiev","2:00 AM GMT on October 11, 2016","2016","10","11","02","00","UTC","6.0","42.8","6.0","42.8","100","3.6","2.2","-9999.0","-9999.0","240","WSW","10.0","6.2","1018","30.06","-999","-999","-9999","-9999","-9999.00","-9999.00","Mostly Cloudy","mostlycloudy","0","0","0","0","0","0","METAR UKKK 110200Z 24001MPS 9999 BKN018 06/06 Q1018 R26/290158 NOSIG"
"5:30 AM EEST on October 11, 2016","2016","10","11","05","30","Europe/Kiev","2:30 AM GMT on October 11, 2016","2016","10","11","02","30","UTC","6.0","42.8","6.0","42.8","100","3.6","2.2","-9999.0","-9999.0","220","SW","10.0","6.2","1018","30.06","-999","-999","-9999","-9999","-9999.00","-9999.00","Mostly Cloudy","mostlycloudy","0","0","0","0","0","0","METAR UKKK 110230Z 22001MPS 9999 BKN015 06/06 Q1018 R26/290158 NOSIG"
"6:00 AM EEST on October 11, 2016","2016","10","11","06","00","Europe/Kiev","3:00 AM GMT on October 11, 2016","2016","10","11","03","00","UTC","6","43","6","43","98","0.0","0.0","","","","","4","2","1019","30.09","-999","-999","-9999","-9999","","","Mist","hazy","0","0","0","0","0","0","AAXX 11031 33345 41496 80000 10063 20059 39983 40188 51005 71022 886// 555 11007"
"6:00 AM EEST on October 11, 2016","2016","10","11","06","00","Europe/Kiev","3:00 AM GMT on October 11, 2016","2016","10","11","03","00","UTC","6.0","42.8","6.0","42.8","100","7.2","4.5","-9999.0","-9999.0","220","SW","10.0","6.2","1018","30.06","4.5","40.2","-9999","-9999","-9999.00","-9999.00","Mostly Cloudy","mostlycloudy","0","0","0","0","0","0","METAR UKKK 110300Z 22002MPS 9999 BKN009 BKN100 06/06 Q1018 R26/290058 NOSIG"
"6:30 AM EEST on October 11, 2016","2016","10","11","06","30","Europe/Kiev","3:30 AM GMT on October 11, 2016","2016","10","11","03","30","UTC","6.0","42.8","6.0","42.8","100","3.6","2.2","-9999.0","-9999.0","0","Variable","10.0","6.2","1018","30.06","-999","-999","-9999","-9999","-9999.00","-9999.00","Mostly Cloudy","mostlycloudy","0","0","0","0","0","0","METAR UKKK 110330Z VRB01MPS 9999 BKN009 BKN100 06/06 Q1018 R26/290058 NOSIG"
"7:00 AM EEST on October 11, 2016","2016","10","11","07","00","Europe/Kiev","4:00 AM GMT on October 11, 2016","2016","10","11","04","00","UTC","7.0","44.6","6.0","42.8","93","3.6","2.2","-9999.0","-9999.0","230","SW","10.0","6.2","1018","30.06","-999","-999","-9999","-9999","-9999.00","-9999.00","Mostly Cloudy","mostlycloudy","0","0","0","0","0","0","METAR UKKK 110400Z 23001MPS 9999 BKN009 BKN100 07/06 Q1018 R26/290058 NOSIG"
"7:30 AM EEST on October 11, 2016","2016","10","11","07","30","Europe/Kiev","4:30 AM GMT on October 11, 2016","2016","10","11","04","30","UTC","7.0","44.6","6.0","42.8","93","0.0","0.0","-9999.0","-9999.0","0","North","10.0","6.2","1018","30.06","-999","-999","-9999","-9999","-9999.00","-9999.00","Overcast","cloudy","0","0","0","0","0","0","METAR UKKK 110430Z 00000MPS 9999 BKN010 OVC025 07/06 Q1018 R26/290058 NOSIG"
"8:00 AM EEST on October 11, 2016","2016","10","11","08","00","Europe/Kiev","5:00 AM GMT on October 11, 2016","2016","10","11","05","00","UTC","7.0","44.6","6.0","42.8","93","0.0","0.0","-9999.0","-9999.0","0","North","10.0","6.2","1018","30.06","-999","-999","-9999","-9999","-9999.00","-9999.00","Overcast","cloudy","0","0","0","0","0","0","METAR UKKK 110500Z 00000MPS 9999 BKN011 OVC027 07/06 Q1018 R26/290058 NOSIG"
"8:30 AM EEST on October 11, 2016","2016","10","11","08","30","Europe/Kiev","5:30 AM GMT on October 11, 2016","2016","10","11","05","30","UTC","7.0","44.6","6.0","42.8","93","0.0","0.0","-9999.0","-9999.0","0","North","10.0","6.2","1019","30.09","-999","-999","-9999","-9999","-9999.00","-9999.00","Overcast","cloudy","0","0","0","0","0","0","METAR UKKK 110530Z 00000MPS 9999 BKN009 OVC027 07/06 Q1019 R26/290058 NOSIG"
"9:00 AM EEST on October 11, 2016","2016","10","11","09","00","Europe/Kiev","6:00 AM GMT on October 11, 2016","2016","10","11","06","00","UTC","7","44","6","44","97","7.2","4.5","","","210","SSW","4","2","1020","30.12","-999","-999","-9999","-9999","","","Mist","hazy","0","0","0","0","0","0","AAXX 11061 33345 11496 82102 10068 20064 39994 40199 52011 69902 71022 885// 333 20061 555 11008"
"9:00 AM EEST on October 11, 2016","2016","10","11","09","00","Europe/Kiev","6:00 AM GMT on October 11, 2016","2016","10","11","06","00","UTC","7.0","44.6","6.0","42.8","93","3.6","2.2","-9999.0","-9999.0","150","SSE","10.0","6.2","1019","30.09","-999","-999","-9999","-9999","-9999.00","-9999.00","Overcast","cloudy","0","0","0","0","0","0","METAR UKKK 110600Z 15001MPS 9999 BKN009 OVC027 07/06 Q1019 R26/290058 NOSIG"
"9:30 AM EEST on October 11, 2016","2016","10","11","09","30","Europe/Kiev","6:30 AM GMT on October 11, 2016","2016","10","11","06","30","UTC","7.0","44.6","6.0","42.8","93","7.2","4.5","-9999.0","-9999.0","160","SSE","10.0","6.2","1019","30.09","5.7","42.3","-9999","-9999","-9999.00","-9999.00","Overcast","cloudy","0","0","0","0","0","0","METAR UKKK 110630Z 16002MPS 9999 OVC005 07/06 Q1019 R26/290058 TEMPO BKN004"
"10:00 AM EEST on October 11, 2016","2016","10","11","10","00","Europe/Kiev","7:00 AM GMT on October 11, 2016","2016","10","11","07","00","UTC","7.0","44.6","6.0","42.8","93","3.6","2.2","-9999.0","-9999.0","0","Variable","10.0","6.2","1019","30.09","-999","-999","-9999","-9999","-9999.00","-9999.00","Mostly Cloudy","mostlycloudy","0","0","0","0","0","0","METAR UKKK 110700Z VRB01MPS 9999 BKN013 07/06 Q1019 R08/290058 TEMPO BKN004"
"10:30 AM EEST on October 11, 2016","2016","10","11","10","30","Europe/Kiev","7:30 AM GMT on October 11, 2016","2016","10","11","07","30","UTC","8.0","46.4","6.0","42.8","87","3.6","2.2","-9999.0","-9999.0","0","Variable","10.0","6.2","1020","30.12","-999","-999","-9999","-9999","-9999.00","-9999.00","Mostly Cloudy","mostlycloudy","0","0","0","0","0","0","METAR UKKK 110730Z VRB01MPS 9999 SCT017 BKN076 08/06 Q1020 R08/290058 NOSIG"
"11:00 AM EEST on October 11, 2016","2016","10","11","11","00","Europe/Kiev","8:00 AM GMT on October 11, 2016","2016","10","11","08","00","UTC","8.0","46.4","6.0","42.8","87","7.2","4.5","-9999.0","-9999.0","130","SE","10.0","6.2","1020","30.12","6.9","44.4","-9999","-9999","-9999.00","-9999.00","Mostly Cloudy","mostlycloudy","0","0","0","0","0","0","METAR UKKK 110800Z 13002MPS 090V180 9999 SCT012 BKN076 08/06 Q1020 R08/290058 NOSIG"
"11:30 AM EEST on October 11, 2016","2016","10","11","11","30","Europe/Kiev","8:30 AM GMT on October 11, 2016","2016","10","11","08","30","UTC","8.0","46.4","6.0","42.8","87","7.2","4.5","-9999.0","-9999.0","140","SE","10.0","6.2","1020","30.12","6.9","44.4","-9999","-9999","-9999.00","-9999.00","Mostly Cloudy","mostlycloudy","0","0","0","0","0","0","METAR UKKK 110830Z 14002MPS 080V180 9999 SCT011 BKN033 08/06 Q1020 R08/290058 NOSIG"
"12:00 PM EEST on October 11, 2016","2016","10","11","12","00","Europe/Kiev","9:00 AM GMT on October 11, 2016","2016","10","11","09","00","UTC","8","47","7","44","85","3.6","2.2","","","200","SSW","4","2","1021","30.15","-999","-999","-9999","-9999","","","Mist","hazy","0","0","0","0","0","0","AAXX 11091 33345 41496 82001 10081 20066 30004 40208 52010 71022 885// 555 11011"
"12:00 PM EEST on October 11, 2016","2016","10","11","12","00","Europe/Kiev","9:00 AM GMT on October 11, 2016","2016","10","11","09","00","UTC","8.0","46.4","6.0","42.8","87","7.2","4.5","-9999.0","-9999.0","120","ESE","10.0","6.2","1020","30.12","6.9","44.4","-9999","-9999","-9999.00","-9999.00","Mostly Cloudy","mostlycloudy","0","0","0","0","0","0","METAR UKKK 110900Z 12002MPS 9999 SCT010 BKN033 08/06 Q1020 R08/190060 NOSIG"
"12:30 PM EEST on October 11, 2016","2016","10","11","12","30","Europe/Kiev","9:30 AM GMT on October 11, 2016","2016","10","11","09","30","UTC","8.0","46.4","6.0","42.8","87","7.2","4.5","-9999.0","-9999.0","130","SE","10.0","6.2","1020","30.12","6.9","44.4","-9999","-9999","-9999.00","-9999.00","Mostly Cloudy","mostlycloudy","0","0","0","0","0","0","METAR UKKK 110930Z 13002MPS 090V180 9999 SCT015 BKN040 08/06 Q1020 R08/190060 NOSIG"
"1:00 PM EEST on October 11, 2016","2016","10","11","13","00","Europe/Kiev","10:00 AM GMT on October 11, 2016","2016","10","11","10","00","UTC","8.0","46.4","7.0","44.6","93","3.6","2.2","-9999.0","-9999.0","0","Variable","10.0","6.2","1020","30.12","-999","-999","-9999","-9999","-9999.00","-9999.00","Mostly Cloudy","mostlycloudy","0","0","0","0","0","0","METAR UKKK 111000Z VRB01MPS 9999 SCT018 BKN034 08/07 Q1020 R08/190060 NOSIG"
"1:30 PM EEST on October 11, 2016","2016","10","11","13","30","Europe/Kiev","10:30 AM GMT on October 11, 2016","2016","10","11","10","30","UTC","8.0","46.4","6.0","42.8","87","7.2","4.5","-9999.0","-9999.0","130","SE","10.0","6.2","1020","30.12","6.9","44.4","-9999","-9999","-9999.00","-9999.00","Mostly Cloudy","mostlycloudy","0","0","0","0","0","0","METAR UKKK 111030Z 13002MPS 9999 SCT015 BKN034 08/06 Q1020 R08/190060 NOSIG"
"2:00 PM EEST on October 11, 2016","2016","10","11","14","00","Europe/Kiev","11:00 AM GMT on October 11, 2016","2016","10","11","11","00","UTC","8.0","46.4","7.0","44.6","93","7.2","4.5","-9999.0","-9999.0","100","East","9.0","5.6","1020","30.12","6.9","44.4","-9999","-9999","-9999.00","-9999.00","Light Drizzle","rain","0","0","0","0","0","0","METAR UKKK 111100Z 10002MPS 9000 -DZ OVC009 08/07 Q1020 R08/190060 NOSIG"
"2:30 PM EEST on October 11, 2016","2016","10","11","14","30","Europe/Kiev","11:30 AM GMT on October 11, 2016","2016","10","11","11","30","UTC","8.0","46.4","7.0","44.6","93","7.2","4.5","-9999.0","-9999.0","90","East","9.0","5.6","1020","30.12","6.9","44.4","-9999","-9999","-9999.00","-9999.00","Light Drizzle","rain","0","0","0","0","0","0","METAR UKKK 111130Z 09002MPS 9000 -DZ OVC009 08/07 Q1020 R08/190060 NOSIG"
"3:00 PM EEST on October 11, 2016","2016","10","11","15","00","Europe/Kiev","12:00 PM GMT on October 11, 2016","2016","10","11","12","00","UTC","9","47","8","46","92","3.6","2.2","","","140","SE","4","2","1021","30.16","-999","-999","-9999","-9999","","","Light Drizzle","rain","0","1","0","0","0","0","AAXX 11121 33345 /1496 81401 10086 20075 30009 40213 52005 75152 885// 555 11011 69901"
"3:00 PM EEST on October 11, 2016","2016","10","11","15","00","Europe/Kiev","12:00 PM GMT on October 11, 2016","2016","10","11","12","00","UTC","8.0","46.4","7.0","44.6","93","10.8","6.7","-9999.0","-9999.0","90","East","9.0","5.6","1021","30.15","6.1","43.0","-9999","-9999","-9999.00","-9999.00","Light Drizzle","rain","0","0","0","0","0","0","METAR UKKK 111200Z 09003MPS 9000 -DZ OVC008 08/07 Q1021 R08/190060 TEMPO BKN005"
"3:19 PM EEST on October 11, 2016","2016","10","11","15","19","Europe/Kiev","12:19 PM GMT on October 11, 2016","2016","10","11","12","19","UTC","8.0","46.4","8.0","46.4","100","10.8","6.7","-9999.0","-9999.0","80","East","2.4","1.5","1021","30.15","6.1","43.0","-9999","-9999","-9999.00","-9999.00","Light Drizzle","rain","0","0","0","0","0","0","SPECI UKKK 111219Z 08003MPS 2400 -DZ BR OVC004 08/08 Q1021 R08/290058 TEMPO 1000 BR BKN003"
"3:30 PM EEST on October 11, 2016","2016","10","11","15","30","Europe/Kiev","12:30 PM GMT on October 11, 2016","2016","10","11","12","30","UTC","8.0","46.4","8.0","46.4","100","7.2","4.5","-9999.0","-9999.0","80","East","-9999.0","-9999.0","1021","30.15","6.9","44.4","-9999","-9999","-9999.00","-9999.00","Light Drizzle","rain","0","0","0","0","0","0","METAR UKKK 111230Z 08002MPS 4700 -DZ BR OVC007 08/08 Q1021 R08/290058 TEMPO 1000 BR BKN003"
"3:36 PM EEST on October 11, 2016","2016","10","11","15","36","Europe/Kiev","12:36 PM GMT on October 11, 2016","2016","10","11","12","36","UTC","8.0","46.4","8.0","46.4","100","10.8","6.7","-9999.0","-9999.0","80","East","6.0","3.7","1021","30.15","6.1","43.0","-9999","-9999","-9999.00","-9999.00","Light Drizzle","rain","0","0","0","0","0","0","SPECI UKKK 111236Z 08003MPS 6000 -DZ OVC004 08/08 Q1021 R08/290058 TEMPO 1000 BR BKN003"
"4:00 PM EEST on October 11, 2016","2016","10","11","16","00","Europe/Kiev","1:00 PM GMT on October 11, 2016","2016","10","11","13","00","UTC","9.0","48.2","8.0","46.4","93","7.2","4.5","-9999.0","-9999.0","80","East","10.0","6.2","1021","30.15","-999","-999","-9999","-9999","-9999.00","-9999.00","Light Drizzle","rain","0","0","0","0","0","0","METAR UKKK 111300Z 08002MPS 050V110 9999 -DZ OVC006 09/08 Q1021 R08/290058 TEMPO 1000 BR BKN003"
"4:30 PM EEST on October 11, 2016","2016","10","11","16","30","Europe/Kiev","1:30 PM GMT on October 11, 2016","2016","10","11","13","30","UTC","9.0","48.2","8.0","46.4","93","10.8","6.7","-9999.0","-9999.0","70","ENE","8.0","5.0","1021","30.15","-999","-999","-9999","-9999","-9999.00","-9999.00","Light Drizzle","rain","0","0","0","0","0","0","METAR UKKK 111330Z 07003MPS 8000 -DZ OVC008 09/08 Q1021 R08/290058 TEMPO 1000 BR BKN003"
"5:00 PM EEST on October 11, 2016","2016","10","11","17","00","Europe/Kiev","2:00 PM GMT on October 11, 2016","2016","10","11","14","00","UTC","9.0","48.2","8.0","46.4","93","10.8","6.7","-9999.0","-9999.0","70","ENE","7.0","4.3","1021","30.15","-999","-999","-9999","-9999","-9999.00","-9999.00","Light Drizzle","rain","0","0","0","0","0","0","METAR UKKK 111400Z 07003MPS 7000 -DZ OVC016 09/08 Q1021 R08/290058 NOSIG"
"5:30 PM EEST on October 11, 2016","2016","10","11","17","30","Europe/Kiev","2:30 PM GMT on October 11, 2016","2016","10","11","14","30","UTC","9.0","48.2","8.0","46.4","93","10.8","6.7","-9999.0","-9999.0","70","ENE","9.0","5.6","1021","30.15","-999","-999","-9999","-9999","-9999.00","-9999.00","Mostly Cloudy","mostlycloudy","0","0","0","0","0","0","METAR UKKK 111430Z 07003MPS 9000 BKN008 BKN033 09/08 Q1021 R08/190060 NOSIG"
"6:00 PM EEST on October 11, 2016","2016","10","11","18","00","Europe/Kiev","3:00 PM GMT on October 11, 2016","2016","10","11","15","00","UTC","8","47","8","46","94","3.6","2.2","","","80","East","4","2","1022","30.19","-999","-999","-9999","-9999","","","Light Drizzle","rain","0","1","0","0","0","0","AAXX 11151 33345 41396 80801 10085 20077 30018 40222 52009 75152 887// 555 11009"
"6:00 PM EEST on October 11, 2016","2016","10","11","18","00","Europe/Kiev","3:00 PM GMT on October 11, 2016","2016","10","11","15","00","UTC","9.0","48.2","8.0","46.4","93","10.8","6.7","-9999.0","-9999.0","70","ENE","10.0","6.2","1021","30.15","-999","-999","-9999","-9999","-9999.00","-9999.00","Mostly Cloudy","mostlycloudy","0","0","0","0","0","0","METAR UKKK 111500Z 07003MPS 9999 BKN009 BKN028 09/08 Q1021 R08/190060 NOSIG"
"6:30 PM EEST on October 11, 2016","2016","10","11","18","30","Europe/Kiev","3:30 PM GMT on October 11, 2016","2016","10","11","15","30","UTC","8.0","46.4","8.0","46.4","100","10.8","6.7","-9999.0","-9999.0","80","East","6.0","3.7","1022","30.18","6.1","43.0","-9999","-9999","-9999.00","-9999.00","Light Drizzle","rain","0","0","0","0","0","0","METAR UKKK 111530Z 08003MPS 6000 -DZ OVC019 08/08 Q1022 R08/190060 NOSIG"
"7:00 PM EEST on October 11, 2016","2016","10","11","19","00","Europe/Kiev","4:00 PM GMT on October 11, 2016","2016","10","11","16","00","UTC","8.0","46.4","8.0","46.4","100","7.2","4.5","-9999.0","-9999.0","80","East","8.0","5.0","1022","30.18","6.9","44.4","-9999","-9999","-9999.00","-9999.00","Light Drizzle","rain","0","0","0","0","0","0","METAR UKKK 111600Z 08002MPS 8000 -DZ OVC013 08/08 Q1022 R08/290058 NOSIG"
"7:30 PM EEST on October 11, 2016","2016","10","11","19","30","Europe/Kiev","4:30 PM GMT on October 11, 2016","2016","10","11","16","30","UTC","9.0","48.2","8.0","46.4","93","10.8","6.7","-9999.0","-9999.0","80","East","10.0","6.2","1021","30.15","-999","-999","-9999","-9999","-9999.00","-9999.00","Overcast","cloudy","0","0","0","0","0","0","METAR UKKK 111630Z 08003MPS 9999 SCT010 OVC045 09/08 Q1021 R08/290058 NOSIG"
"8:00 PM EEST on October 11, 2016","2016","10","11","20","00","Europe/Kiev","5:00 PM GMT on October 11, 2016","2016","10","11","17","00","UTC","9.0","48.2","8.0","46.4","93","14.4","8.9","-9999.0","-9999.0","80","East","10.0","6.2","1022","30.18","-999","-999","-9999","-9999","-9999.00","-9999.00","Overcast","cloudy","0","0","0","0","0","0","METAR UKKK 111700Z 08004MPS 9999 SCT008 OVC050 09/08 Q1022 R08/290058 NOSIG"
"8:30 PM EEST on October 11, 2016","2016","10","11","20","30","Europe/Kiev","5:30 PM GMT on October 11, 2016","2016","10","11","17","30","UTC","9.0","48.2","8.0","46.4","93","14.4","8.9","-9999.0","-9999.0","70","ENE","10.0","6.2","1022","30.18","-999","-999","-9999","-9999","-9999.00","-9999.00","Overcast","cloudy","0","0","0","0","0","0","METAR UKKK 111730Z 07004MPS 9999 SCT008 OVC047 09/08 Q1022 R08/290058 NOSIG"
"9:00 PM EEST on October 11, 2016","2016","10","11","21","00","Europe/Kiev","6:00 PM GMT on October 11, 2016","2016","10","11","18","00","UTC","9","47","8","46","92","7.2","4.5","","","100","East","4","2","1023","30.20","-999","-999","-9999","-9999","","","Mist","hazy","0","0","0","0","0","0","AAXX 11181 33345 11496 81002 10086 20075 30022 40226 52004 69902 71052 886// 333 10087 555 11008"
"9:00 PM EEST on October 11, 2016","2016","10","11","21","00","Europe/Kiev","6:00 PM GMT on October 11, 2016","2016","10","11","18","00","UTC","9.0","48.2","8.0","46.4","93","14.4","8.9","-9999.0","-9999.0","80","East","10.0","6.2","1022","30.18","-999","-999","-9999","-9999","-9999.00","-9999.00","Overcast","cloudy","0","0","0","0","0","0","METAR UKKK 111800Z 08004MPS 9999 SCT009 OVC050 09/08 Q1022 R08/290058 NOSIG"
"9:30 PM EEST on October 11, 2016","2016","10","11","21","30","Europe/Kiev","6:30 PM GMT on October 11, 2016","2016","10","11","18","30","UTC","9.0","48.2","8.0","46.4","93","14.4","8.9","-9999.0","-9999.0","80","East","10.0","6.2","1022","30.18","-999","-999","-9999","-9999","-9999.00","-9999.00","Overcast","cloudy","0","0","0","0","0","0","METAR UKKK 111830Z 08004MPS 9999 SCT008 OVC049 09/08 Q1022 R08/290058 NOSIG"
"10:00 PM EEST on October 11, 2016","2016","10","11","22","00","Europe/Kiev","7:00 PM GMT on October 11, 2016","2016","10","11","19","00","UTC","9.0","48.2","8.0","46.4","93","14.4","8.9","-9999.0","-9999.0","90","East","10.0","6.2","1022","30.18","-999","-999","-9999","-9999","-9999.00","-9999.00","Overcast","cloudy","0","0","0","0","0","0","METAR UKKK 111900Z 09004MPS 9999 SCT007 OVC048 09/08 Q1022 R08/290058 NOSIG"
"10:30 PM EEST on October 11, 2016","2016","10","11","22","30","Europe/Kiev","7:30 PM GMT on October 11, 2016","2016","10","11","19","30","UTC","9.0","48.2","8.0","46.4","93","10.8","6.7","-9999.0","-9999.0","90","East","10.0","6.2","1022","30.18","-999","-999","-9999","-9999","-9999.00","-9999.00","Overcast","cloudy","0","0","0","0","0","0","METAR UKKK 111930Z 09003MPS 9999 SCT009 OVC030 09/08 Q1022 R08/290058 NOSIG"
"11:00 PM EEST on October 11, 2016","2016","10","11","23","00","Europe/Kiev","8:00 PM GMT on October 11, 2016","2016","10","11","20","00","UTC","9.0","48.2","8.0","46.4","93","10.8","6.7","-9999.0","-9999.0","90","East","9.0","5.6","1022","30.18","-999","-999","-9999","-9999","-9999.00","-9999.00","Overcast","cloudy","0","0","0","0","0","0","METAR UKKK 112000Z 09003MPS 9000 SCT008 OVC040 09/08 Q1022 R08/290058 NOSIG"
"11:30 PM EEST on October 11, 2016","2016","10","11","23","30","Europe/Kiev","8:30 PM GMT on October 11, 2016","2016","10","11","20","30","UTC","9.0","48.2","8.0","46.4","93","14.4","8.9","-9999.0","-9999.0","90","East","9.0","5.6","1022","30.18","-999","-999","-9999","-9999","-9999.00","-9999.00","Overcast","cloudy","0","0","0","0","0","0","METAR UKKK 112030Z 09004MPS 9000 SCT006 OVC040 09/08 Q1022 R08/190060 NOSIG"
"12:00 AM EEST on October 12, 2016","2016","10","12","00","00","Europe/Kiev","9:00 PM GMT on October 11, 2016","2016","10","11","21","00","UTC","9","48","8","47","93","10.8","6.7","","","110","ESE","4","2","1023","30.22","-999","-999","-9999","-9999","","","Mist","hazy","0","0","0","0","0","0","AAXX 11211 33345 41496 81103 10087 20081 30029 40233 52007 71022 886// 555 11008"
"12:00 AM EEST on October 12, 2016","2016","10","12","00","00","Europe/Kiev","9:00 PM GMT on October 11, 2016","2016","10","11","21","00","UTC","9.0","48.2","8.0","46.4","93","14.4","8.9","-9999.0","-9999.0","90","East","9.0","5.6","1022","30.18","-999","-999","-9999","-9999","-9999.00","-9999.00","Overcast","cloudy","0","0","0","0","0","0","METAR UKKK 112100Z 09004MPS 9000 SCT005 OVC040 09/08 Q1022 R08/190060 TEMPO BKN003"
"12:30 AM EEST on October 12, 2016","2016","10","12","00","30","Europe/Kiev","9:30 PM GMT on October 11, 2016","2016","10","11","21","30","UTC","9.0","48.2","8.0","46.4","93","18.0","11.2","-9999.0","-9999.0","90","East","10.0","6.2","1023","30.21","-999","-999","-9999","-9999","-9999.00","-9999.00","Mostly Cloudy","mostlycloudy","0","0","0","0","0","0","METAR UKKK 112130Z 09005MPS 9999 BKN006 09/08 Q1023 R08/190060 TEMPO BKN003"
"1:00 AM EEST on October 12, 2016","2016","10","12","01","00","Europe/Kiev","10:00 PM GMT on October 11, 2016","2016","10","11","22","00","UTC","9.0","48.2","8.0","46.4","93","18.0","11.2","-9999.0","-9999.0","80","East","10.0","6.2","1022","30.18","-999","-999","-9999","-9999","-9999.00","-9999.00","Mostly Cloudy","mostlycloudy","0","0","0","0","0","0","METAR UKKK 112200Z 08005MPS 9999 BKN006 09/08 Q1022 R08/190060 TEMPO BKN003"
"1:30 AM EEST on October 12, 2016","2016","10","12","01","30","Europe/Kiev","10:30 PM GMT on October 11, 2016","2016","10","11","22","30","UTC","9.0","48.2","8.0","46.4","93","14.4","8.9","-9999.0","-9999.0","90","East","10.0","6.2","1023","30.21","-999","-999","-9999","-9999","-9999.00","-9999.00","Overcast","cloudy","0","0","0","0","0","0","METAR UKKK 112230Z 09004MPS 9999 OVC006 09/08 Q1023 R08/190060 TEMPO BKN003"
"2:00 AM EEST on October 12, 2016","2016","10","12","02","00","Europe/Kiev","11:00 PM GMT on October 11, 2016","2016","10","11","23","00","UTC","9.0","48.2","8.0","46.4","93","18.0","11.2","-9999.0","-9999.0","90","East","10.0","6.2","1023","30.21","-999","-999","-9999","-9999","-9999.00","-9999.00","Overcast","cloudy","0","0","0","0","0","0","METAR UKKK 112300Z 09005MPS 9999 OVC007 09/08 Q1023 R08/190060 NOSIG"
"2:30 AM EEST on October 12, 2016","2016","10","12","02","30","Europe/Kiev","11:30 PM GMT on October 11, 2016","2016","10","11","23","30","UTC","9.0","48.2","8.0","46.4","93","18.0","11.2","-9999.0","-9999.0","90","East","9.0","5.6","1023","30.21","-999","-999","-9999","-9999","-9999.00","-9999.00","Overcast","cloudy","0","0","0","0","0","0","METAR UKKK 112330Z 09005MPS 9000 OVC007 09/08 Q1023 R08/190060 NOSIG"
"3:00 AM EEST on October 12, 2016","2016","10","12","03","00","Europe/Kiev","12:00 AM GMT on October 12, 2016","2016","10","12","00","00","UTC","9","48","8","46","92","10.8","6.7","","","110","ESE","4","2","1023","30.22","-999","-999","-9999","-9999","","","Mist","hazy","0","0","0","0","0","0","AAXX 12001 33345 31496 81103 10088 20080 30029 40233 54000 71022 886// 555 11008"
"3:00 AM EEST on October 12, 2016","2016","10","12","03","00","Europe/Kiev","12:00 AM GMT on October 12, 2016","2016","10","12","00","00","UTC","9.0","48.2","8.0","46.4","93","18.0","11.2","-9999.0","-9999.0","90","East","9.0","5.6","1022","30.18","-999","-999","-9999","-9999","-9999.00","-9999.00","Overcast","cloudy","0","0","0","0","0","0","METAR UKKK 120000Z 09005MPS 9000 OVC007 09/08 Q1022 R08/190060 NOSIG"
"3:30 AM EEST on October 12, 2016","2016","10","12","03","30","Europe/Kiev","12:30 AM GMT on October 12, 2016","2016","10","12","00","30","UTC","9.0","48.2","8.0","46.4","93","21.6","13.4","-9999.0","-9999.0","90","East","9.0","5.6","1022","30.18","-999","-999","-9999","-9999","-9999.00","-9999.00","Overcast","cloudy","0","0","0","0","0","0","METAR UKKK 120030Z 09006MPS 9000 OVC008 09/08 Q1022 R08/190060 NOSIG"
"4:00 AM EEST on October 12, 2016","2016","10","12","04","00","Europe/Kiev","1:00 AM GMT on October 12, 2016","2016","10","12","01","00","UTC","9.0","48.2","8.0","46.4","93","18.0","11.2","-9999.0","-9999.0","90","East","8.0","5.0","1022","30.18","-999","-999","-9999","-9999","-9999.00","-9999.00","Overcast","cloudy","0","0","0","0","0","0","METAR UKKK 120100Z 09005MPS 8000 OVC008 09/08 Q1022 R08/190060 NOSIG"
"4:30 AM EEST on October 12, 2016","2016","10","12","04","30","Europe/Kiev","1:30 AM GMT on October 12, 2016","2016","10","12","01","30","UTC","9.0","48.2","8.0","46.4","93","21.6","13.4","-9999.0","-9999.0","80","East","9.0","5.6","1022","30.18","-999","-999","-9999","-9999","-9999.00","-9999.00","Overcast","cloudy","0","0","0","0","0","0","METAR UKKK 120130Z 08006MPS 9000 OVC008 09/08 Q1022 R08/190060 NOSIG"
"5:00 AM EEST on October 12, 2016","2016","10","12","05","00","Europe/Kiev","2:00 AM GMT on October 12, 2016","2016","10","12","02","00","UTC","9.0","48.2","8.0","46.4","93","21.6","13.4","-9999.0","-9999.0","80","East","9.0","5.6","1022","30.18","-999","-999","-9999","-9999","-9999.00","-9999.00","Overcast","cloudy","0","0","0","0","0","0","METAR UKKK 120200Z 08006MPS 9000 OVC009 09/08 Q1022 R08/190060 NOSIG"
"5:30 AM EEST on October 12, 2016","2016","10","12","05","30","Europe/Kiev","2:30 AM GMT on October 12, 2016","2016","10","12","02","30","UTC","9.0","48.2","8.0","46.4","93","21.6","13.4","-9999.0","-9999.0","90","East","9.0","5.6","1022","30.18","-999","-999","-9999","-9999","-9999.00","-9999.00","Overcast","cloudy","0","0","0","0","0","0","METAR UKKK 120230Z 09006MPS 9000 OVC009 09/08 Q1022 R08/190060 NOSIG"
"6:00 AM EEST on October 12, 2016","2016","10","12","06","00","Europe/Kiev","3:00 AM GMT on October 12, 2016","2016","10","12","03","00","UTC","9","48","7","45","87","14.4","8.9","","","110","ESE","4","2","1023","30.22","-999","-999","-9999","-9999","","","Mist","hazy","0","0","0","0","0","0","AAXX 12031 33345 41496 81104 10087 20074 30030 40234 53001 71022 886// 555 11008"
"6:00 AM EEST on October 12, 2016","2016","10","12","06","00","Europe/Kiev","3:00 AM GMT on October 12, 2016","2016","10","12","03","00","UTC","9.0","48.2","8.0","46.4","93","21.6","13.4","-9999.0","-9999.0","80","East","9.0","5.6","1023","30.21","-999","-999","-9999","-9999","-9999.00","-9999.00","Overcast","cloudy","0","0","0","0","0","0","METAR UKKK 120300Z 08006MPS 9000 OVC008 09/08 Q1023 R08/CLRD70 NOSIG"
"6:30 AM EEST on October 12, 2016","2016","10","12","06","30","Europe/Kiev","3:30 AM GMT on October 12, 2016","2016","10","12","03","30","UTC","9.0","48.2","7.0","44.6","87","21.6","13.4","-9999.0","-9999.0","90","East","9.0","5.6","1023","30.21","-999","-999","-9999","-9999","-9999.00","-9999.00","Overcast","cloudy","0","0","0","0","0","0","METAR UKKK 120330Z 09006MPS 9000 OVC010 09/07 Q1023 R08/CLRD70 NOSIG"
"7:00 AM EEST on October 12, 2016","2016","10","12","07","00","Europe/Kiev","4:00 AM GMT on October 12, 2016","2016","10","12","04","00","UTC","9.0","48.2","7.0","44.6","87","25.2","15.7","-9999.0","-9999.0","90","East","9.0","5.6","1023","30.21","-999","-999","-9999","-9999","-9999.00","-9999.00","Overcast","cloudy","0","0","0","0","0","0","METAR UKKK 120400Z 09007MPS 9000 OVC011 09/07 Q1023 R08/CLRD70 NOSIG"
"7:30 AM EEST on October 12, 2016","2016","10","12","07","30","Europe/Kiev","4:30 AM GMT on October 12, 2016","2016","10","12","04","30","UTC","8.0","46.4","7.0","44.6","93","18.0","11.2","-9999.0","-9999.0","100","East","10.0","6.2","1023","30.21","5.1","41.2","-9999","-9999","-9999.00","-9999.00","Overcast","cloudy","0","0","0","0","0","0","METAR UKKK 120430Z 10005MPS 050V130 9999 OVC011 08/07 Q1023 R08/CLRD70 NOSIG"
"8:00 AM EEST on October 12, 2016","2016","10","12","08","00","Europe/Kiev","5:00 AM GMT on October 12, 2016","2016","10","12","05","00","UTC","8.0","46.4","7.0","44.6","93","21.6","13.4","-9999.0","-9999.0","90","East","10.0","6.2","1023","30.21","4.7","40.5","-9999","-9999","-9999.00","-9999.00","Overcast","cloudy","0","0","0","0","0","0","METAR UKKK 120500Z 09006MPS 9999 OVC011 08/07 Q1023 R08/CLRD70 NOSIG"
"8:30 AM EEST on October 12, 2016","2016","10","12","08","30","Europe/Kiev","5:30 AM GMT on October 12, 2016","2016","10","12","05","30","UTC","8.0","46.4","7.0","44.6","93","25.2","15.7","-9999.0","-9999.0","90","East","10.0","6.2","1023","30.21","4.4","39.9","-9999","-9999","-9999.00","-9999.00","Overcast","cloudy","0","0","0","0","0","0","METAR UKKK 120530Z 09007MPS 9999 OVC011 08/07 Q1023 R08/CLRD70 NOSIG"
"9:00 AM EEST on October 12, 2016","2016","10","12","09","00","Europe/Kiev","6:00 AM GMT on October 12, 2016","2016","10","12","06","00","UTC","8","47","7","44","86","14.4","8.9","","","110","ESE","4","2","1024","30.24","-999","-999","-9999","-9999","","","Mist","hazy","0","0","0","0","0","0","AAXX 12061 33345 31496 81104 10082 20067 30034 40239 52004 71022 886// 333 20081 555 11008"
"9:00 AM EEST on October 12, 2016","2016","10","12","09","00","Europe/Kiev","6:00 AM GMT on October 12, 2016","2016","10","12","06","00","UTC","8.0","46.4","7.0","44.6","93","28.8","17.9","46.8","29.1","80","East","9.0","5.6","1023","30.21","4.1","39.3","-9999","-9999","-9999.00","-9999.00","Overcast","cloudy","0","0","0","0","0","0","METAR UKKK 120600Z 08008G13MPS 9000 OVC010 08/07 Q1023 R08/CLRD70 NOSIG"
"9:30 AM EEST on October 12, 2016","2016","10","12","09","30","Europe/Kiev","6:30 AM GMT on October 12, 2016","2016","10","12","06","30","UTC","8.0","46.4","7.0","44.6","93","25.2","15.7","-9999.0","-9999.0","90","East","9.0","5.6","1024","30.24","4.4","39.9","-9999","-9999","-9999.00","-9999.00","Overcast","cloudy","0","0","0","0","0","0","METAR UKKK 120630Z 09007MPS 070V150 9000 OVC010 08/07 Q1024 R08/CLRD70 NOSIG"
"10:00 AM EEST on October 12, 2016","2016","10","12","10","00","Europe/Kiev","7:00 AM GMT on October 12, 2016","2016","10","12","07","00","UTC","8.0","46.4","7.0","44.6","93","25.2","15.7","-9999.0","-9999.0","90","East","8.0","5.0","1024","30.24","4.4","39.9","-9999","-9999","-9999.00","-9999.00","Overcast","cloudy","0","0","0","0","0","0","METAR UKKK 120700Z 09007MPS 8000 OVC008 08/07 Q1024 R08/CLRD70 NOSIG"
"10:30 AM EEST on October 12, 2016","2016","10","12","10","30","Europe/Kiev","7:30 AM GMT on October 12, 2016","2016","10","12","07","30","UTC","8.0","46.4","6.0","42.8","87","32.4","20.1","-9999.0","-9999.0","80","East","10.0","6.2","1024","30.24","3.8","38.9","-9999","-9999","-9999.00","-9999.00","Overcast","cloudy","0","0","0","0","0","0","METAR UKKK 120730Z 08009MPS 9999 OVC010 08/06 Q1024 R08/CLRD70 NOSIG"
"11:00 AM EEST on October 12, 2016","2016","10","12","11","00","Europe/Kiev","8:00 AM GMT on October 12, 2016","2016","10","12","08","00","UTC","8.0","46.4","6.0","42.8","87","25.2","15.7","-9999.0","-9999.0","90","East","6.0","3.7","1024","30.24","4.4","39.9","-9999","-9999","-9999.00","-9999.00","Overcast","cloudy","0","0","0","0","0","0","METAR UKKK 120800Z 09007MPS 060V120 6000 OVC010 08/06 Q1024 R08/CLRD70 NOSIG"
"11:30 AM EEST on October 12, 2016","2016","10","12","11","30","Europe/Kiev","8:30 AM GMT on October 12, 2016","2016","10","12","08","30","UTC","8.0","46.4","6.0","42.8","87","32.4","20.1","-9999.0","-9999.0","70","ENE","6.0","3.7","1024","30.24","3.8","38.9","-9999","-9999","-9999.00","-9999.00","Overcast","cloudy","0","0","0","0","0","0","METAR UKKK 120830Z 07009MPS 6000 OVC016 08/06 Q1024 R08/CLRD70 NOSIG"
"12:00 PM EEST on October 12, 2016","2016","10","12","12","00","Europe/Kiev","9:00 AM GMT on October 12, 2016","2016","10","12","09","00","UTC","8","47","5","42","75","10.8","6.7","","","110","ESE","10","6","1025","30.27","-999","-999","-9999","-9999","","","Overcast","cloudy","0","0","0","0","0","0","AAXX 12091 33345 42497 81103 10082 20053 30044 40249 52010 886// 555 11009"
"12:00 PM EEST on October 12, 2016","2016","10","12","12","00","Europe/Kiev","9:00 AM GMT on October 12, 2016","2016","10","12","09","00","UTC","8.0","46.4","6.0","42.8","87","25.2","15.7","-9999.0","-9999.0","80","East","10.0","6.2","1024","30.24","4.4","39.9","-9999","-9999","-9999.00","-9999.00","Overcast","cloudy","0","0","0","0","0","0","METAR UKKK 120900Z 08007MPS 9999 OVC015 08/06 Q1024 R08/CLRD70 NOSIG"
"12:30 PM EEST on October 12, 2016","2016","10","12","12","30","Europe/Kiev","9:30 AM GMT on October 12, 2016","2016","10","12","09","30","UTC","8.0","46.4","6.0","42.8","87","21.6","13.4","-9999.0","-9999.0","90","East","10.0","6.2","1024","30.24","4.7","40.5","-9999","-9999","-9999.00","-9999.00","Overcast","cloudy","0","0","0","0","0","0","METAR UKKK 120930Z 09006MPS 9999 OVC015 08/06 Q1024 R08/CLRD70 NOSIG"
"1:00 PM EEST on October 12, 2016","2016","10","12","13","00","Europe/Kiev","10:00 AM GMT on October 12, 2016","2016","10","12","10","00","UTC","8.0","46.4","6.0","42.8","87","25.2","15.7","-9999.0","-9999.0","80","East","10.0","6.2","1024","30.24","4.4","39.9","-9999","-9999","-9999.00","-9999.00","Overcast","cloudy","0","0","0","0","0","0","METAR UKKK 121000Z 08007MPS 9999 OVC016 08/06 Q1024 R08/CLRD70 NOSIG"
"1:30 PM EEST on October 12, 2016","2016","10","12","13","30","Europe/Kiev","10:30 AM GMT on October 12, 2016","2016","10","12","10","30","UTC","8.0","46.4","5.0","41.0","81","28.8","17.9","-9999.0","-9999.0","80","East","10.0","6.2","1023","30.21","4.1","39.3","-9999","-9999","-9999.00","-9999.00","Overcast","cloudy","0","0","0","0","0","0","METAR UKKK 121030Z 08008MPS 9999 OVC016 08/05 Q1023 R08/CLRD70 NOSIG"
"2:00 PM EEST on October 12, 2016","2016","10","12","14","00","Europe/Kiev","11:00 AM GMT on October 12, 2016","2016","10","12","11","00","UTC","8.0","46.4","5.0","41.0","81","28.8","17.9","-9999.0","-9999.0","80","East","10.0","6.2","1023","30.21","4.1","39.3","-9999","-9999","-9999.00","-9999.00","Overcast","cloudy","0","0","0","0","0","0","METAR UKKK 121100Z 08008MPS 9999 OVC014 08/05 Q1023 R08/CLRD70 NOSIG"
"2:30 PM EEST on October 12, 2016","2016","10","12","14","30","Europe/Kiev","11:30 AM GMT on October 12, 2016","2016","10","12","11","30","UTC","8.0","46.4","5.0","41.0","81","32.4","20.1","50.4","31.3","80","East","10.0","6.2","1023","30.21","3.8","38.9","-9999","-9999","-9999.00","-9999.00","Overcast","cloudy","0","0","0","0","0","0","METAR UKKK 121130Z 08009G14MPS 9999 OVC011 08/05 Q1023 R08/CLRD70 NOSIG"
"3:00 PM EEST on October 12, 2016","2016","10","12","15","00","Europe/Kiev","12:00 PM GMT on October 12, 2016","2016","10","12","12","00","UTC","8","46","4","40","73","14.4","8.9","","","100","East","10","6","1024","30.25","-999","-999","-9999","-9999","","","Overcast","cloudy","0","0","0","0","0","0","AAXX 12121 33345 32497 81004 10075 20045 30037 40243 58007 886// 555 11008"
"3:00 PM EEST on October 12, 2016","2016","10","12","15","00","Europe/Kiev","12:00 PM GMT on October 12, 2016","2016","10","12","12","00","UTC","8.0","46.4","5.0","41.0","81","25.2","15.7","-9999.0","-9999.0","80","East","10.0","6.2","1023","30.21","4.4","39.9","-9999","-9999","-9999.00","-9999.00","Overcast","cloudy","0","0","0","0","0","0","METAR UKKK 121200Z 08007MPS 9999 OVC015 08/05 Q1023 R08/CLRD70 TEMPO 09011G17MPS"
"3:30 PM EEST on October 12, 2016","2016","10","12","15","30","Europe/Kiev","12:30 PM GMT on October 12, 2016","2016","10","12","12","30","UTC","8.0","46.4","5.0","41.0","81","28.8","17.9","-9999.0","-9999.0","80","East","10.0","6.2","1023","30.21","4.1","39.3","-9999","-9999","-9999.00","-9999.00","Overcast","cloudy","0","0","0","0","0","0","METAR UKKK 121230Z 08008MPS 050V110 9999 OVC018 08/05 Q1023 R08/CLRD70 TEMPO 09011G17MPS"
"4:00 PM EEST on October 12, 2016","2016","10","12","16","00","Europe/Kiev","1:00 PM GMT on October 12, 2016","2016","10","12","13","00","UTC","8.0","46.4","4.0","39.2","76","32.4","20.1","-9999.0","-9999.0","70","ENE","10.0","6.2","1023","30.21","3.8","38.9","-9999","-9999","-9999.00","-9999.00","Overcast","cloudy","0","0","0","0","0","0","METAR UKKK 121300Z 07009MPS 9999 OVC018 08/04 Q1023 R08/CLRD70 TEMPO 09011G17MPS"
"4:10 PM EEST on October 12, 2016","2016","10","12","16","10","Europe/Kiev","1:10 PM GMT on October 12, 2016","2016","10","12","13","10","UTC","8.0","46.4","4.0","39.2","76","36.0","22.4","54.0","33.6","80","East","10.0","6.2","1022","30.18","3.6","38.4","-9999","-9999","-9999.00","-9999.00","Overcast","cloudy","0","0","0","0","0","0","SPECI UKKK 121310Z 08010G15MPS 9999 OVC019 08/04 Q1022 R08/CLRD70 TEMPO 09011G17MPS"
"4:30 PM EEST on October 12, 2016","2016","10","12","16","30","Europe/Kiev","1:30 PM GMT on October 12, 2016","2016","10","12","13","30","UTC","8.0","46.4","4.0","39.2","76","28.8","17.9","-9999.0","-9999.0","90","East","10.0","6.2","1022","30.18","4.1","39.3","-9999","-9999","-9999.00","-9999.00","Overcast","cloudy","0","0","0","0","0","0","METAR UKKK 121330Z 09008MPS 9999 OVC020 08/04 Q1022 R08/CLRD70 TEMPO 09011G17MPS"
"5:00 PM EEST on October 12, 2016","2016","10","12","17","00","Europe/Kiev","2:00 PM GMT on October 12, 2016","2016","10","12","14","00","UTC","8.0","46.4","4.0","39.2","76","28.8","17.9","-9999.0","-9999.0","80","East","10.0","6.2","1022","30.18","4.1","39.3","-9999","-9999","-9999.00","-9999.00","Overcast","cloudy","0","0","0","0","0","0","METAR UKKK 121400Z 08008MPS 9999 OVC018 08/04 Q1022 R08/CLRD70 TEMPO 09011G17MPS"
"5:30 PM EEST on October 12, 2016","2016","10","12","17","30","Europe/Kiev","2:30 PM GMT on October 12, 2016","2016","10","12","14","30","UTC","7.0","44.6","4.0","39.2","81","25.2","15.7","-9999.0","-9999.0","90","East","10.0","6.2","1022","30.18","3.1","37.6","-9999","-9999","-9999.00","-9999.00","Mostly Cloudy","mostlycloudy","0","0","0","0","0","0","METAR UKKK 121430Z 09007MPS 9999 BKN016 BKN030 07/04 Q1022 R08/CLRD70 TEMPO 09011G17MPS"
"6:00 PM EEST on October 12, 2016","2016","10","12","18","00","Europe/Kiev","3:00 PM GMT on October 12, 2016","2016","10","12","15","00","UTC","7","45","4","39","71","14.4","8.9","","","110","ESE","10","6","1023","30.22","-999","-999","-9999","-9999","","","Overcast","cloudy","0","0","0","0","0","0","AAXX 12151 33345 42497 81104 10074 20037 30028 40234 57009 886// 555 11007"
"6:00 PM EEST on October 12, 2016","2016","10","12","18","00","Europe/Kiev","3:00 PM GMT on October 12, 2016","2016","10","12","15","00","UTC","7.0","44.6","4.0","39.2","81","28.8","17.9","-9999.0","-9999.0","80","East","10.0","6.2","1022","30.18","2.8","37.0","-9999","-9999","-9999.00","-9999.00","Mostly Cloudy","mostlycloudy","0","0","0","0","0","0","METAR UKKK 121500Z 08008MPS 9999 BKN018 BKN031 07/04 Q1022 R08/CLRD70 TEMPO 09011G17MPS"
"6:30 PM EEST on October 12, 2016","2016","10","12","18","30","Europe/Kiev","3:30 PM GMT on October 12, 2016","2016","10","12","15","30","UTC","7.0","44.6","4.0","39.2","81","32.4","20.1","-9999.0","-9999.0","80","East","10.0","6.2","1022","30.18","2.5","36.5","-9999","-9999","-9999.00","-9999.00","Overcast","cloudy","0","0","0","0","0","0","METAR UKKK 121530Z 08009MPS 9999 OVC021 07/04 Q1022 R08/CLRD70 TEMPO 09011G17MPS"
"7:00 PM EEST on October 12, 2016","2016","10","12","19","00","Europe/Kiev","4:00 PM GMT on October 12, 2016","2016","10","12","16","00","UTC","7.0","44.6","3.0","37.4","76","28.8","17.9","-9999.0","-9999.0","80","East","10.0","6.2","1022","30.18","2.8","37.0","-9999","-9999","-9999.00","-9999.00","Overcast","cloudy","0","0","0","0","0","0","METAR UKKK 121600Z 08008MPS 9999 OVC023 07/03 Q1022 R08/CLRD70 TEMPO 09011G17MPS"
"7:30 PM EEST on October 12, 2016","2016","10","12","19","30","Europe/Kiev","4:30 PM GMT on October 12, 2016","2016","10","12","16","30","UTC","7.0","44.6","3.0","37.4","76","39.6","24.6","-9999.0","-9999.0","80","East","10.0","6.2","1022","30.18","2.0","35.6","-9999","-9999","-9999.00","-9999.00","Overcast","cloudy","0","0","0","0","0","0","METAR UKKK 121630Z 08011MPS 9999 OVC023 07/03 Q1022 R08/CLRD70 TEMPO 09011G17MPS"
"8:00 PM EEST on October 12, 2016","2016","10","12","20","00","Europe/Kiev","5:00 PM GMT on October 12, 2016","2016","10","12","17","00","UTC","6.0","42.8","2.0","35.6","76","36.0","22.4","-9999.0","-9999.0","90","East","10.0","6.2","1022","30.18","0.9","33.7","-9999","-9999","-9999.00","-9999.00","Overcast","cloudy","0","0","0","0","0","0","METAR UKKK 121700Z 09010MPS 9999 OVC021 06/02 Q1022 R08/CLRD70 TEMPO 09011G17MPS"
"8:30 PM EEST on October 12, 2016","2016","10","12","20","30","Europe/Kiev","5:30 PM GMT on October 12, 2016","2016","10","12","17","30","UTC","6.0","42.8","2.0","35.6","76","32.4","20.1","54.0","33.6","90","East","10.0","6.2","1022","30.18","1.2","34.1","-9999","-9999","-9999.00","-9999.00","Overcast","cloudy","0","0","0","0","0","0","METAR UKKK 121730Z 09009G15MPS 9999 OVC021 06/02 Q1022 R08/CLRD70 TEMPO 09011G17MPS"
"9:00 PM EEST on October 12, 2016","2016","10","12","21","00","Europe/Kiev","6:00 PM GMT on October 12, 2016","2016","10","12","18","00","UTC","6","43","1","34","61","18.0","11.2","","","110","ESE","20","12","1024","30.23","-999","-999","-9999","-9999","","","Scattered Clouds","partlycloudy","0","0","0","0","0","0","AAXX 12181 33345 32498 61105 10062 20012 30028 40235 55000 82605 333 10083 555 11005"
"9:00 PM EEST on October 12, 2016","2016","10","12","21","00","Europe/Kiev","6:00 PM GMT on October 12, 2016","2016","10","12","18","00","UTC","6.0","42.8","2.0","35.6","76","36.0","22.4","54.0","33.6","90","East","10.0","6.2","1022","30.18","0.9","33.7","-9999","-9999","-9999.00","-9999.00","Overcast","cloudy","0","0","0","0","0","0","METAR UKKK 121800Z 09010G15MPS 060V120 9999 OVC022 06/02 Q1022 R08/CLRD70 TEMPO 09011G17MPS"
"9:30 PM EEST on October 12, 2016","2016","10","12","21","30","Europe/Kiev","6:30 PM GMT on October 12, 2016","2016","10","12","18","30","UTC","6.0","42.8","1.0","33.8","70","32.4","20.1","50.4","31.3","90","East","10.0","6.2","1022","30.18","1.2","34.1","-9999","-9999","-9999.00","-9999.00","Overcast","cloudy","0","0","0","0","0","0","METAR UKKK 121830Z 09009G14MPS 9999 BKN025 OVC240 06/01 Q1022 R08/CLRD70 TEMPO 09011G17MPS"
"10:00 PM EEST on October 12, 2016","2016","10","12","22","00","Europe/Kiev","7:00 PM GMT on October 12, 2016","2016","10","12","19","00","UTC","5.0","41.0","1.0","33.8","76","32.4","20.1","-9999.0","-9999.0","80","East","-9999.0","-9999.0","1022","30.18","-0.1","31.8","-9999","-9999","-9999.00","-9999.00","Clear","clear","0","0","0","0","0","0","METAR UKKK 121900Z 08009MPS CAVOK 05/01 Q1022 R08/CLRD70 TEMPO 09011G17MPS"
"10:30 PM EEST on October 12, 2016","2016","10","12","22","30","Europe/Kiev","7:30 PM GMT on October 12, 2016","2016","10","12","19","30","UTC","5.0","41.0","1.0","33.8","76","32.4","20.1","-9999.0","-9999.0","80","East","-9999.0","-9999.0","1021","30.15","-0.1","31.8","-9999","-9999","-9999.00","-9999.00","Clear","clear","0","0","0","0","0","0","METAR UKKK 121930Z 08009MPS CAVOK 05/01 Q1021 R08/CLRD70 TEMPO 09011G17MPS"
"11:00 PM EEST on October 12, 2016","2016","10","12","23","00","Europe/Kiev","8:00 PM GMT on October 12, 2016","2016","10","12","20","00","UTC","5.0","41.0","1.0","33.8","76","32.4","20.1","-9999.0","-9999.0","80","East","-9999.0","-9999.0","1021","30.15","-0.1","31.8","-9999","-9999","-9999.00","-9999.00","Clear","clear","0","0","0","0","0","0","METAR UKKK 122000Z 08009MPS CAVOK 05/01 Q1021 R08/CLRD70 TEMPO 09011G17MPS"
"11:30 PM EEST on October 12, 2016","2016","10","12","23","30","Europe/Kiev","8:30 PM GMT on October 12, 2016","2016","10","12","20","30","UTC","5.0","41.0","1.0","33.8","76","32.4","20.1","-9999.0","-9999.0","80","East","-9999.0","-9999.0","1021","30.15","-0.1","31.8","-9999","-9999","-9999.00","-9999.00","Clear","clear","0","0","0","0","0","0","METAR UKKK 122030Z 08009MPS CAVOK 05/01 Q1021 R08/CLRD70 TEMPO 07011G17MPS"
"12:00 AM EEST on October 13, 2016","2016","10","13","00","00","Europe/Kiev","9:00 PM GMT on October 12, 2016","2016","10","12","21","00","UTC","4","40","0","33","67","14.4","8.9","","","100","East","20","12","1022","30.17","-999","-999","-9999","-9999","","","Overcast","cloudy","0","0","0","0","0","0","AAXX 12211 33345 42998 81004 10044 20005 30009 40217 58019 8807/ 555 11003"
"12:00 AM EEST on October 13, 2016","2016","10","13","00","00","Europe/Kiev","9:00 PM GMT on October 12, 2016","2016","10","12","21","00","UTC","5.0","41.0","1.0","33.8","76","32.4","20.1","-9999.0","-9999.0","80","East","-9999.0","-9999.0","1020","30.12","-0.1","31.8","-9999","-9999","-9999.00","-9999.00","Clear","clear","0","0","0","0","0","0","METAR UKKK 122100Z 08009MPS CAVOK 05/01 Q1020 R08/CLRD70 TEMPO 07011G17MPS"
"12:30 AM EEST on October 13, 2016","2016","10","13","00","30","Europe/Kiev","9:30 PM GMT on October 12, 2016","2016","10","12","21","30","UTC","4.0","39.2","1.0","33.8","81","32.4","20.1","-9999.0","-9999.0","80","East","-9999.0","-9999.0","1020","30.12","-1.4","29.4","-9999","-9999","-9999.00","-9999.00","Clear","clear","0","0","0","0","0","0","METAR UKKK 122130Z 08009MPS CAVOK 04/01 Q1020 R08/CLRD70 TEMPO 07011G17MPS"
"1:00 AM EEST on October 13, 2016","2016","10","13","01","00","Europe/Kiev","10:00 PM GMT on October 12, 2016","2016","10","12","22","00","UTC","4.0","39.2","1.0","33.8","81","32.4","20.1","-9999.0","-9999.0","80","East","-9999.0","-9999.0","1020","30.12","-1.4","29.4","-9999","-9999","-9999.00","-9999.00","Clear","clear","0","0","0","0","0","0","METAR UKKK 122200Z 08009MPS CAVOK 04/01 Q1020 R08/CLRD70 TEMPO 07011G17MPS"
"1:30 AM EEST on October 13, 2016","2016","10","13","01","30","Europe/Kiev","10:30 PM GMT on October 12, 2016","2016","10","12","22","30","UTC","4.0","39.2","0.0","32.0","75","32.4","20.1","-9999.0","-9999.0","80","East","-9999.0","-9999.0","1019","30.09","-1.4","29.4","-9999","-9999","-9999.00","-9999.00","Clear","clear","0","0","0","0","0","0","METAR UKKK 122230Z 08009MPS CAVOK 04/00 Q1019 R08/CLRD70 TEMPO 07011G17MPS"
"1:39 AM EEST on October 13, 2016","2016","10","13","01","39","Europe/Kiev","10:39 PM GMT on October 12, 2016","2016","10","12","22","39","UTC","4.0","39.2","0.0","32.0","75","32.4","20.1","50.4","31.3","80","East","-9999.0","-9999.0","1019","30.09","-1.4","29.4","-9999","-9999","-9999.00","-9999.00","Clear","clear","0","0","0","0","0","0","SPECI UKKK 122239Z 08009G14MPS CAVOK 04/00 Q1019 R08/CLRD70 TEMPO 07011G17MPS"
"2:00 AM EEST on October 13, 2016","2016","10","13","02","00","Europe/Kiev","11:00 PM GMT on October 12, 2016","2016","10","12","23","00","UTC","4.0","39.2","0.0","32.0","75","36.0","22.4","-9999.0","-9999.0","80","East","-9999.0","-9999.0","1019","30.09","-1.7","28.9","-9999","-9999","-9999.00","-9999.00","Clear","clear","0","0","0","0","0","0","METAR UKKK 122300Z 08010MPS CAVOK 04/00 Q1019 R08/CLRD70 TEMPO 07011G17MPS"
"2:30 AM EEST on October 13, 2016","2016","10","13","02","30","Europe/Kiev","11:30 PM GMT on October 12, 2016","2016","10","12","23","30","UTC","4.0","39.2","0.0","32.0","75","32.4","20.1","-9999.0","-9999.0","70","ENE","-9999.0","-9999.0","1018","30.06","-1.4","29.4","-9999","-9999","-9999.00","-9999.00","Clear","clear","0","0","0","0","0","0","METAR UKKK 122330Z 07009MPS CAVOK 04/00 Q1018 R08/CLRD70 TEMPO 07011G17MPS"
"3:00 AM EEST on October 13, 2016","2016","10","13","03","00","Europe/Kiev","12:00 AM GMT on October 13, 2016","2016","10","13","00","00","UTC","4","39","-0","31","65","18.0","11.2","","","90","East","20","12","1020","30.11","-999","-999","-9999","-9999","","","Overcast","cloudy","0","0","0","0","0","0","AAXX 13001 33345 32998 80905 10040 21003 39988 40195 57021 8807/ 555 11003"
"3:00 AM EEST on October 13, 2016","2016","10","13","03","00","Europe/Kiev","12:00 AM GMT on October 13, 2016","2016","10","13","00","00","UTC","4.0","39.2","0.0","32.0","75","32.4","20.1","-9999.0","-9999.0","70","ENE","-9999.0","-9999.0","1018","30.06","-1.4","29.4","-9999","-9999","-9999.00","-9999.00","Clear","clear","0","0","0","0","0","0","METAR UKKK 130000Z 07009MPS CAVOK 04/00 Q1018 R08/CLRD70 TEMPO 07012G18MPS"
"3:30 AM EEST on October 13, 2016","2016","10","13","03","30","Europe/Kiev","12:30 AM GMT on October 13, 2016","2016","10","13","00","30","UTC","4.0","39.2","0.0","32.0","75","32.4","20.1","-9999.0","-9999.0","80","East","-9999.0","-9999.0","1018","30.06","-1.4","29.4","-9999","-9999","-9999.00","-9999.00","Clear","clear","0","0","0","0","0","0","METAR UKKK 130030Z 08009MPS CAVOK 04/M00 Q1018 R08/CLRD70 TEMPO 07012G18MPS"
"4:00 AM EEST on October 13, 2016","2016","10","13","04","00","Europe/Kiev","1:00 AM GMT on October 13, 2016","2016","10","13","01","00","UTC","4.0","39.2","0.0","32.0","75","32.4","20.1","50.4","31.3","80","East","-9999.0","-9999.0","1018","30.06","-1.4","29.4","-9999","-9999","-9999.00","-9999.00","Clear","clear","0","0","0","0","0","0","METAR UKKK 130100Z 08009G14MPS CAVOK 04/M00 Q1018 R08/CLRD70 TEMPO 07012G18MPS"
"4:30 AM EEST on October 13, 2016","2016","10","13","04","30","Europe/Kiev","1:30 AM GMT on October 13, 2016","2016","10","13","01","30","UTC","3.0","37.4","0.0","32.0","81","32.4","20.1","-9999.0","-9999.0","80","East","-9999.0","-9999.0","1018","30.06","-2.8","27.0","-9999","-9999","-9999.00","-9999.00","Clear","clear","0","0","0","0","0","0","METAR UKKK 130130Z 08009MPS CAVOK 03/M00 Q1018 R08/CLRD70 TEMPO 07012G18MPS"
"5:00 AM EEST on October 13, 2016","2016","10","13","05","00","Europe/Kiev","2:00 AM GMT on October 13, 2016","2016","10","13","02","00","UTC","3.0","37.4","-1.0","30.2","75","36.0","22.4","-9999.0","-9999.0","70","ENE","-9999.0","-9999.0","1018","30.06","-3.1","26.5","-9999","-9999","-9999.00","-9999.00","Clear","clear","0","0","0","0","0","0","METAR UKKK 130200Z 07010MPS CAVOK 03/M01 Q1018 R08/CLRD70 TEMPO 07012G18MPS"
"5:30 AM EEST on October 13, 2016","2016","10","13","05","30","Europe/Kiev","2:30 AM GMT on October 13, 2016","2016","10","13","02","30","UTC","3.0","37.4","-1.0","30.2","75","32.4","20.1","-9999.0","-9999.0","70","ENE","-9999.0","-9999.0","1017","30.04","-2.8","27.0","-9999","-9999","-9999.00","-9999.00","Clear","clear","0","0","0","0","0","0","METAR UKKK 130230Z 07009MPS CAVOK 03/M01 Q1017 R08/CLRD70 TEMPO 07012G18MPS"
"6:00 AM EEST on October 13, 2016","2016","10","13","06","00","Europe/Kiev","3:00 AM GMT on October 13, 2016","2016","10","13","03","00","UTC","3","37","-1","29","65","14.4","8.9","","","90","East","20","12","1019","30.09","-999","-999","-9999","-9999","","","Mostly Cloudy","mostlycloudy","0","0","0","0","0","0","AAXX 13031 33345 42998 60904 10028 21014 39981 40189 57007 86030 555 11002"
"6:00 AM EEST on October 13, 2016","2016","10","13","06","00","Europe/Kiev","3:00 AM GMT on October 13, 2016","2016","10","13","03","00","UTC","3.0","37.4","-1.0","30.2","75","36.0","22.4","-9999.0","-9999.0","70","ENE","-9999.0","-9999.0","1017","30.04","-3.1","26.5","-9999","-9999","-9999.00","-9999.00","Clear","clear","0","0","0","0","0","0","METAR UKKK 130300Z 07010MPS CAVOK 03/M01 Q1017 R08/CLRD70 TEMPO 07012G18MPS"
"6:30 AM EEST on October 13, 2016","2016","10","13","06","30","Europe/Kiev","3:30 AM GMT on October 13, 2016","2016","10","13","03","30","UTC","3.0","37.4","-1.0","30.2","75","32.4","20.1","-9999.0","-9999.0","70","ENE","-9999.0","-9999.0","1017","30.04","-2.8","27.0","-9999","-9999","-9999.00","-9999.00","Clear","clear","0","0","0","0","0","0","METAR UKKK 130330Z 07009MPS CAVOK 03/M01 Q1017 R08/CLRD70 TEMPO 07012G18MPS"
"7:00 AM EEST on October 13, 2016","2016","10","13","07","00","Europe/Kiev","4:00 AM GMT on October 13, 2016","2016","10","13","04","00","UTC","3.0","37.4","-1.0","30.2","75","32.4","20.1","-9999.0","-9999.0","70","ENE","-9999.0","-9999.0","1017","30.04","-2.8","27.0","-9999","-9999","-9999.00","-9999.00","Clear","clear","0","0","0","0","0","0","METAR UKKK 130400Z 07009MPS CAVOK 03/M01 Q1017 R08/CLRD70 TEMPO 07012G18MPS"
"7:30 AM EEST on October 13, 2016","2016","10","13","07","30","Europe/Kiev","4:30 AM GMT on October 13, 2016","2016","10","13","04","30","UTC","2.0","35.6","-2.0","28.4","75","32.4","20.1","-9999.0","-9999.0","70","ENE","-9999.0","-9999.0","1017","30.04","-4.1","24.7","-9999","-9999","-9999.00","-9999.00","Clear","clear","0","0","0","0","0","0","METAR UKKK 130430Z 07009MPS CAVOK 02/M02 Q1017 R08/CLRD70 TEMPO 07012G18MPS"
"8:00 AM EEST on October 13, 2016","2016","10","13","08","00","Europe/Kiev","5:00 AM GMT on October 13, 2016","2016","10","13","05","00","UTC","2.0","35.6","-2.0","28.4","75","32.4","20.1","-9999.0","-9999.0","70","ENE","-9999.0","-9999.0","1017","30.04","-4.1","24.7","-9999","-9999","-9999.00","-9999.00","Clear","clear","0","0","0","0","0","0","METAR UKKK 130500Z 07009MPS CAVOK 02/M02 Q1017 R08/CLRD70 TEMPO 07012G18MPS"
"8:30 AM EEST on October 13, 2016","2016","10","13","08","30","Europe/Kiev","5:30 AM GMT on October 13, 2016","2016","10","13","05","30","UTC","2.0","35.6","-2.0","28.4","75","32.4","20.1","-9999.0","-9999.0","70","ENE","10.0","6.2","1017","30.04","-4.1","24.7","-9999","-9999","-9999.00","-9999.00","Mostly Cloudy","mostlycloudy","0","0","0","0","0","0","METAR UKKK 130530Z 07009MPS 9999 SCT021 BKN200 02/M02 Q1017 R08/CLRD70 TEMPO 07012G18MPS"
"9:00 AM EEST on October 13, 2016","2016","10","13","09","00","Europe/Kiev","6:00 AM GMT on October 13, 2016","2016","10","13","06","00","UTC","2","36","-2","28","65","14.4","8.9","","","80","East","20","12","1019","30.09","-999","-999","-9999","-9999","","","Mostly Cloudy","mostlycloudy","0","0","0","0","0","0","AAXX 13061 33345 32998 70804 10020 21020 39978 40187 56003 86041 333 20018 555 11002 31001 52002"
"9:00 AM EEST on October 13, 2016","2016","10","13","09","00","Europe/Kiev","6:00 AM GMT on October 13, 2016","2016","10","13","06","00","UTC","2.0","35.6","-2.0","28.4","75","32.4","20.1","-9999.0","-9999.0","70","ENE","10.0","6.2","1017","30.04","-4.1","24.7","-9999","-9999","-9999.00","-9999.00","Mostly Cloudy","mostlycloudy","0","0","0","0","0","0","METAR UKKK 130600Z 07009MPS 9999 SCT021 BKN200 02/M02 Q1017 R08/CLRD70 TEMPO 07012G18MPS"
"9:30 AM EEST on October 13, 2016","2016","10","13","09","30","Europe/Kiev","6:30 AM GMT on October 13, 2016","2016","10","13","06","30","UTC","3.0","37.4","-2.0","28.4","70","28.8","17.9","50.4","31.3","60","ENE","-9999.0","-9999.0","1017","30.04","-2.4","27.6","-9999","-9999","-9999.00","-9999.00","Clear","clear","0","0","0","0","0","0","METAR UKKK 130630Z 06008G14MPS CAVOK 03/M02 Q1017 R08/CLRD70 TEMPO 06013G18MPS"
"10:00 AM EEST on October 13, 2016","2016","10","13","10","00","Europe/Kiev","7:00 AM GMT on October 13, 2016","2016","10","13","07","00","UTC","3.0","37.4","-2.0","28.4","70","28.8","17.9","-9999.0","-9999.0","60","ENE","-9999.0","-9999.0","1017","30.04","-2.4","27.6","-9999","-9999","-9999.00","-9999.00","Clear","clear","0","0","0","0","0","0","METAR UKKK 130700Z 06008MPS CAVOK 03/M02 Q1017 R08/CLRD70 TEMPO 06013G18MPS"
"10:30 AM EEST on October 13, 2016","2016","10","13","10","30","Europe/Kiev","7:30 AM GMT on October 13, 2016","2016","10","13","07","30","UTC","3.0","37.4","-2.0","28.4","70","28.8","17.9","-9999.0","-9999.0","70","ENE","-9999.0","-9999.0","1017","30.04","-2.4","27.6","-9999","-9999","-9999.00","-9999.00","Clear","clear","0","0","0","0","0","0","METAR UKKK 130730Z 07008MPS CAVOK 03/M02 Q1017 R08/CLRD70 TEMPO 06013G18MPS"
"11:00 AM EEST on October 13, 2016","2016","10","13","11","00","Europe/Kiev","8:00 AM GMT on October 13, 2016","2016","10","13","08","00","UTC","4.0","39.2","-2.0","28.4","65","28.8","17.9","-9999.0","-9999.0","60","ENE","10.0","6.2","1017","30.04","-1.1","30.0","-9999","-9999","-9999.00","-9999.00","Mostly Cloudy","mostlycloudy","0","0","0","0","0","0","METAR UKKK 130800Z 06008MPS 9999 SCT029 BKN100 04/M02 Q1017 R08/CLRD70 TEMPO 06013G18MPS"
"11:30 AM EEST on October 13, 2016","2016","10","13","11","30","Europe/Kiev","8:30 AM GMT on October 13, 2016","2016","10","13","08","30","UTC","4.0","39.2","-2.0","28.4","65","28.8","17.9","-9999.0","-9999.0","70","ENE","10.0","6.2","1018","30.06","-1.1","30.0","-9999","-9999","-9999.00","-9999.00","Mostly Cloudy","mostlycloudy","0","0","0","0","0","0","METAR UKKK 130830Z 07008MPS 9999 SCT031 BKN100 04/M02 Q1018 R08/CLRD70 TEMPO 06013G18MPS"
"12:00 PM EEST on October 13, 2016","2016","10","13","12","00","Europe/Kiev","9:00 AM GMT on October 13, 2016","2016","10","13","09","00","UTC","4","39","-2","29","58","14.4","8.9","","","80","East","20","12","1019","30.09","-999","-999","-9999","-9999","","","Overcast","cloudy","0","0","0","0","0","0","AAXX 13091 33345 42598 80804 10040 21015 39983 40190 53005 8355/ 555 11005"
"12:00 PM EEST on October 13, 2016","2016","10","13","12","00","Europe/Kiev","9:00 AM GMT on October 13, 2016","2016","10","13","09","00","UTC","4.0","39.2","-2.0","28.4","65","25.2","15.7","-9999.0","-9999.0","60","ENE","10.0","6.2","1018","30.06","-0.8","30.6","-9999","-9999","-9999.00","-9999.00","Mostly Cloudy","mostlycloudy","0","0","0","0","0","0","METAR UKKK 130900Z 06007MPS 9999 SCT033 BKN100 04/M02 Q1018 R08/CLRD70 TEMPO 06013G18MPS"
"12:30 PM EEST on October 13, 2016","2016","10","13","12","30","Europe/Kiev","9:30 AM GMT on October 13, 2016","2016","10","13","09","30","UTC","5.0","41.0","-2.0","28.4","61","25.2","15.7","-9999.0","-9999.0","60","ENE","10.0","6.2","1018","30.06","0.5","32.9","-9999","-9999","-9999.00","-9999.00","Mostly Cloudy","mostlycloudy","0","0","0","0","0","0","METAR UKKK 130930Z 06007MPS 9999 SCT034 BKN100 05/M02 Q1018 R08/CLRD70 TEMPO 06013G18MPS"
"1:00 PM EEST on October 13, 2016","2016","10","13","13","00","Europe/Kiev","10:00 AM GMT on October 13, 2016","2016","10","13","10","00","UTC","5.0","41.0","-2.0","28.4","61","25.2","15.7","-9999.0","-9999.0","60","ENE","10.0","6.2","1018","30.06","0.5","32.9","-9999","-9999","-9999.00","-9999.00","Mostly Cloudy","mostlycloudy","0","0","0","0","0","0","METAR UKKK 131000Z 06007MPS 9999 BKN033 05/M02 Q1018 R08/CLRD70 TEMPO 06013G18MPS"
"1:30 PM EEST on October 13, 2016","2016","10","13","13","30","Europe/Kiev","10:30 AM GMT on October 13, 2016","2016","10","13","10","30","UTC","6.0","42.8","-2.0","28.4","57","28.8","17.9","-9999.0","-9999.0","70","ENE","10.0","6.2","1018","30.06","1.5","34.7","-9999","-9999","-9999.00","-9999.00","Mostly Cloudy","mostlycloudy","0","0","0","0","0","0","METAR UKKK 131030Z 07008MPS 9999 BKN034 06/M02 Q1018 R08/CLRD70 NOSIG"
"2:00 PM EEST on October 13, 2016","2016","10","13","14","00","Europe/Kiev","11:00 AM GMT on October 13, 2016","2016","10","13","11","00","UTC","6.0","42.8","-2.0","28.4","57","28.8","17.9","-9999.0","-9999.0","60","ENE","10.0","6.2","1018","30.06","1.5","34.7","-9999","-9999","-9999.00","-9999.00","Overcast","cloudy","0","0","0","0","0","0","METAR UKKK 131100Z 06008MPS 9999 OVC034 06/M02 Q1018 R08/CLRD70 NOSIG"
"2:30 PM EEST on October 13, 2016","2016","10","13","14","30","Europe/Kiev","11:30 AM GMT on October 13, 2016","2016","10","13","11","30","UTC","6.0","42.8","-1.0","30.2","61","25.2","15.7","-9999.0","-9999.0","60","ENE","10.0","6.2","1018","30.06","1.8","35.2","-9999","-9999","-9999.00","-9999.00","Overcast","cloudy","0","0","0","0","0","0","METAR UKKK 131130Z 06007MPS 9999 OVC034 06/M01 Q1018 R08/CLRD70 NOSIG"
"3:00 PM EEST on October 13, 2016","2016","10","13","15","00","Europe/Kiev","12:00 PM GMT on October 13, 2016","2016","10","13","12","00","UTC","6","43","-1","29","47","14.4","8.9","","","90","East","20","12","1019","30.09","-999","-999","-9999","-9999","","","Overcast","cloudy","0","0","0","0","0","0","AAXX 13121 33345 32698 80904 10061 21014 39981 40187 58002 885// 555 11006"
"3:00 PM EEST on October 13, 2016","2016","10","13","15","00","Europe/Kiev","12:00 PM GMT on October 13, 2016","2016","10","13","12","00","UTC","6.0","42.8","-1.0","30.2","61","28.8","17.9","46.8","29.1","60","ENE","10.0","6.2","1017","30.04","1.5","34.7","-9999","-9999","-9999.00","-9999.00","Overcast","cloudy","0","0","0","0","0","0","METAR UKKK 131200Z 06008G13MPS 9999 OVC035 06/M01 Q1017 R08/CLRD70 NOSIG"
"3:30 PM EEST on October 13, 2016","2016","10","13","15","30","Europe/Kiev","12:30 PM GMT on October 13, 2016","2016","10","13","12","30","UTC","6.0","42.8","-1.0","30.2","61","21.6","13.4","-9999.0","-9999.0","60","ENE","10.0","6.2","1018","30.06","2.2","35.9","-9999","-9999","-9999.00","-9999.00","Overcast","cloudy","0","0","0","0","0","0","METAR UKKK 131230Z 06006MPS 9999 OVC036 06/M01 Q1018 R08/CLRD70 NOSIG"
"4:00 PM EEST on October 13, 2016","2016","10","13","16","00","Europe/Kiev","1:00 PM GMT on October 13, 2016","2016","10","13","13","00","UTC","6.0","42.8","0.0","32.0","66","25.2","15.7","-9999.0","-9999.0","70","ENE","10.0","6.2","1018","30.06","1.8","35.2","-9999","-9999","-9999.00","-9999.00","Light Rain","rain","0","1","0","0","0","0","METAR UKKK 131300Z 07007MPS 9999 -RA OVC036 06/M00 Q1018 R08/CLRD70 TEMPO 06010G16MPS"
"4:30 PM EEST on October 13, 2016","2016","10","13","16","30","Europe/Kiev","1:30 PM GMT on October 13, 2016","2016","10","13","13","30","UTC","6.0","42.8","-1.0","30.2","61","25.2","15.7","-9999.0","-9999.0","70","ENE","10.0","6.2","1018","30.06","1.8","35.2","-9999","-9999","-9999.00","-9999.00","Overcast","cloudy","0","0","0","0","0","0","METAR UKKK 131330Z 07007MPS 9999 OVC039 06/M01 Q1018 R08/CLRD70 TEMPO 06010G16MPS"
"5:00 PM EEST on October 13, 2016","2016","10","13","17","00","Europe/Kiev","2:00 PM GMT on October 13, 2016","2016","10","13","14","00","UTC","6.0","42.8","-1.0","30.2","61","21.6","13.4","-9999.0","-9999.0","60","ENE","10.0","6.2","1019","30.09","2.2","35.9","-9999","-9999","-9999.00","-9999.00","Overcast","cloudy","0","0","0","0","0","0","METAR UKKK 131400Z 06006MPS 9999 OVC037 06/M01 Q1019 R08/CLRD70 TEMPO 06010G16MPS"
"5:30 PM EEST on October 13, 2016","2016","10","13","17","30","Europe/Kiev","2:30 PM GMT on October 13, 2016","2016","10","13","14","30","UTC","6.0","42.8","-1.0","30.2","61","21.6","13.4","-9999.0","-9999.0","60","ENE","10.0","6.2","1019","30.09","2.2","35.9","-9999","-9999","-9999.00","-9999.00","Overcast","cloudy","0","0","0","0","0","0","METAR UKKK 131430Z 06006MPS 9999 OVC036 06/M01 Q1019 R08/CLRD70 TEMPO 06010G16MPS"
"6:00 PM EEST on October 13, 2016","2016","10","13","18","00","Europe/Kiev","3:00 PM GMT on October 13, 2016","2016","10","13","15","00","UTC","6","43","-0","31","52","10.8","6.7","","","80","East","20","12","1020","30.13","-999","-999","-9999","-9999","","","Partly Cloudy","partlycloudy","0","0","0","0","0","0","AAXX 13151 33345 41698 80803 10061 21005 39997 40203 53016 70262 885// 333 88633 555 11004"
"6:00 PM EEST on October 13, 2016","2016","10","13","18","00","Europe/Kiev","3:00 PM GMT on October 13, 2016","2016","10","13","15","00","UTC","6.0","42.8","-1.0","30.2","61","21.6","13.4","-9999.0","-9999.0","60","ENE","10.0","6.2","1019","30.09","2.2","35.9","-9999","-9999","-9999.00","-9999.00","Overcast","cloudy","0","0","0","0","0","0","METAR UKKK 131500Z 06006MPS 9999 OVC034 06/M01 Q1019 R08/CLRD70 TEMPO 06010G16MPS"
"6:30 PM EEST on October 13, 2016","2016","10","13","18","30","Europe/Kiev","3:30 PM GMT on October 13, 2016","2016","10","13","15","30","UTC","6.0","42.8","-1.0","30.2","61","18.0","11.2","-9999.0","-9999.0","60","ENE","10.0","6.2","1019","30.09","2.6","36.7","-9999","-9999","-9999.00","-9999.00","Overcast","cloudy","0","0","0","0","0","0","METAR UKKK 131530Z 06005MPS 9999 OVC038 06/M01 Q1019 R08/CLRD70 TEMPO 06010G16MPS"
"7:00 PM EEST on October 13, 2016","2016","10","13","19","00","Europe/Kiev","4:00 PM GMT on October 13, 2016","2016","10","13","16","00","UTC","6.0","42.8","-1.0","30.2","61","18.0","11.2","-9999.0","-9999.0","60","ENE","10.0","6.2","1020","30.12","2.6","36.7","-9999","-9999","-9999.00","-9999.00","Overcast","cloudy","0","0","0","0","0","0","METAR UKKK 131600Z 06005MPS 9999 OVC038 06/M01 Q1020 R08/CLRD70 NOSIG"
"7:30 PM EEST on October 13, 2016","2016","10","13","19","30","Europe/Kiev","4:30 PM GMT on October 13, 2016","2016","10","13","16","30","UTC","6.0","42.8","-1.0","30.2","61","18.0","11.2","-9999.0","-9999.0","60","ENE","10.0","6.2","1020","30.12","2.6","36.7","-9999","-9999","-9999.00","-9999.00","Overcast","cloudy","0","0","0","0","0","0","METAR UKKK 131630Z 06005MPS 9999 OVC036 06/M01 Q1020 R08/CLRD70 NOSIG"
"8:00 PM EEST on October 13, 2016","2016","10","13","20","00","Europe/Kiev","5:00 PM GMT on October 13, 2016","2016","10","13","17","00","UTC","6.0","42.8","-1.0","30.2","61","14.4","8.9","-9999.0","-9999.0","50","NE","10.0","6.2","1020","30.12","3.1","37.6","-9999","-9999","-9999.00","-9999.00","Overcast","cloudy","0","0","0","0","0","0","METAR UKKK 131700Z 05004MPS 9999 OVC040 06/M01 Q1020 R08/CLRD70 NOSIG"
"8:30 PM EEST on October 13, 2016","2016","10","13","20","30","Europe/Kiev","5:30 PM GMT on October 13, 2016","2016","10","13","17","30","UTC","6.0","42.8","-1.0","30.2","61","14.4","8.9","-9999.0","-9999.0","60","ENE","10.0","6.2","1020","30.12","3.1","37.6","-9999","-9999","-9999.00","-9999.00","Overcast","cloudy","0","0","0","0","0","0","METAR UKKK 131730Z 06004MPS 9999 OVC037 06/M01 Q1020 R08/CLRD70 NOSIG"
"9:00 PM EEST on October 13, 2016","2016","10","13","21","00","Europe/Kiev","6:00 PM GMT on October 13, 2016","2016","10","13","18","00","UTC","6","43","-1","31","51","10.8","6.7","","","70","ENE","20","12","1021","30.17","-999","-999","-9999","-9999","","","Partly Cloudy","partlycloudy","0","0","0","0","0","0","AAXX 13181 33345 11698 80703 10062 21006 30008 40214 52011 69902 70262 885// 333 10063 88638 555 11004"
"9:00 PM EEST on October 13, 2016","2016","10","13","21","00","Europe/Kiev","6:00 PM GMT on October 13, 2016","2016","10","13","18","00","UTC","6.0","42.8","-1.0","30.2","61","18.0","11.2","-9999.0","-9999.0","60","ENE","10.0","6.2","1020","30.12","2.6","36.7","-9999","-9999","-9999.00","-9999.00","Overcast","cloudy","0","0","0","0","0","0","METAR UKKK 131800Z 06005MPS 9999 OVC036 06/M01 Q1020 R08/CLRD70 NOSIG"
"9:30 PM EEST on October 13, 2016","2016","10","13","21","30","Europe/Kiev","6:30 PM GMT on October 13, 2016","2016","10","13","18","30","UTC","6.0","42.8","-1.0","30.2","61","18.0","11.2","-9999.0","-9999.0","60","ENE","10.0","6.2","1021","30.15","2.6","36.7","-9999","-9999","-9999.00","-9999.00","Overcast","cloudy","0","0","0","0","0","0","METAR UKKK 131830Z 06005MPS 9999 OVC035 06/M01 Q1021 R08/CLRD70 NOSIG"
"10:00 PM EEST on October 13, 2016","2016","10","13","22","00","Europe/Kiev","7:00 PM GMT on October 13, 2016","2016","10","13","19","00","UTC","6.0","42.8","-1.0","30.2","61","18.0","11.2","-9999.0","-9999.0","50","NE","10.0","6.2","1021","30.15","2.6","36.7","-9999","-9999","-9999.00","-9999.00","Overcast","cloudy","0","0","0","0","0","0","METAR UKKK 131900Z 05005MPS 9999 OVC035 06/M01 Q1021 R08/CLRD70 NOSIG"
"10:30 PM EEST on October 13, 2016","2016","10","13","22","30","Europe/Kiev","7:30 PM GMT on October 13, 2016","2016","10","13","19","30","UTC","6.0","42.8","-1.0","30.2","61","18.0","11.2","-9999.0","-9999.0","50","NE","10.0","6.2","1021","30.15","2.6","36.7","-9999","-9999","-9999.00","-9999.00","Overcast","cloudy","0","0","0","0","0","0","METAR UKKK 131930Z 05005MPS 9999 OVC039 06/M01 Q1021 R08/CLRD70 NOSIG"
"11:00 PM EEST on October 13, 2016","2016","10","13","23","00","Europe/Kiev","8:00 PM GMT on October 13, 2016","2016","10","13","20","00","UTC","6.0","42.8","-1.0","30.2","61","18.0","11.2","-9999.0","-9999.0","50","NE","10.0","6.2","1021","30.15","2.6","36.7","-9999","-9999","-9999.00","-9999.00","Overcast","cloudy","0","0","0","0","0","0","METAR UKKK 132000Z 05005MPS 9999 OVC039 06/M01 Q1021 R08/CLRD70 NOSIG"
"11:30 PM EEST on October 13, 2016","2016","10","13","23","30","Europe/Kiev","8:30 PM GMT on October 13, 2016","2016","10","13","20","30","UTC","5.0","41.0","-1.0","30.2","65","14.4","8.9","-9999.0","-9999.0","40","NE","10.0","6.2","1021","30.15","1.9","35.4","-9999","-9999","-9999.00","-9999.00","Mostly Cloudy","mostlycloudy","0","0","0","0","0","0","METAR UKKK 132030Z 04004MPS 9999 BKN032 05/M01 Q1021 R08/CLRD70 NOSIG"
"12:00 AM EEST on October 14, 2016","2016","10","14","00","00","Europe/Kiev","9:00 PM GMT on October 13, 2016","2016","10","13","21","00","UTC","5","41","-0","32","59","7.2","4.5","","","60","ENE","20","12","1022","30.18","-999","-999","-9999","-9999","","","Mostly Cloudy","mostlycloudy","0","0","0","0","0","0","AAXX 13211 33345 42598 60602 10051 21002 30013 40220 52005 86500 333 86632 555 11003"
"12:00 AM EEST on October 14, 2016","2016","10","14","00","00","Europe/Kiev","9:00 PM GMT on October 13, 2016","2016","10","13","21","00","UTC","4.0","39.2","-1.0","30.2","70","14.4","8.9","-9999.0","-9999.0","30","NNE","10.0","6.2","1021","30.15","0.6","33.1","-9999","-9999","-9999.00","-9999.00","Mostly Cloudy","mostlycloudy","0","0","0","0","0","0","METAR UKKK 132100Z 03004MPS 9999 BKN029 04/M01 Q1021 R08/CLRD70 NOSIG"
"12:30 AM EEST on October 14, 2016","2016","10","14","00","30","Europe/Kiev","9:30 PM GMT on October 13, 2016","2016","10","13","21","30","UTC","4.0","39.2","0.0","32.0","75","14.4","8.9","-9999.0","-9999.0","20","NNE","10.0","6.2","1021","30.15","0.6","33.1","-9999","-9999","-9999.00","-9999.00","Mostly Cloudy","mostlycloudy","0","0","0","0","0","0","METAR UKKK 132130Z 02004MPS 9999 BKN031 04/M00 Q1021 R08/CLRD70 NOSIG"
"1:00 AM EEST on October 14, 2016","2016","10","14","01","00","Europe/Kiev","10:00 PM GMT on October 13, 2016","2016","10","13","22","00","UTC","4.0","39.2","0.0","32.0","75","14.4","8.9","-9999.0","-9999.0","20","NNE","10.0","6.2","1021","30.15","0.6","33.1","-9999","-9999","-9999.00","-9999.00","Partly Cloudy","partlycloudy","0","0","0","0","0","0","METAR UKKK 132200Z 02004MPS 9999 FEW031 04/M00 Q1021 R08/CLRD70 NOSIG"
"1:30 AM EEST on October 14, 2016","2016","10","14","01","30","Europe/Kiev","10:30 PM GMT on October 13, 2016","2016","10","13","22","30","UTC","3.0","37.4","-1.0","30.2","75","10.8","6.7","-9999.0","-9999.0","30","NNE","-9999.0","-9999.0","1021","30.15","0.1","32.2","-9999","-9999","-9999.00","-9999.00","Clear","clear","0","0","0","0","0","0","METAR UKKK 132230Z 03003MPS CAVOK 03/M01 Q1021 R08/CLRD70 NOSIG"
"2:00 AM EEST on October 14, 2016","2016","10","14","02","00","Europe/Kiev","11:00 PM GMT on October 13, 2016","2016","10","13","23","00","UTC","2.0","35.6","-1.0","30.2","81","10.8","6.7","-9999.0","-9999.0","20","NNE","-9999.0","-9999.0","1021","30.15","-1.1","30.0","-9999","-9999","-9999.00","-9999.00","Clear","clear","0","0","0","0","0","0","METAR UKKK 132300Z 02003MPS CAVOK 02/M01 Q1021 R08/CLRD70 NOSIG"
"2:30 AM EEST on October 14, 2016","2016","10","14","02","30","Europe/Kiev","11:30 PM GMT on October 13, 2016","2016","10","13","23","30","UTC","2.0","35.6","-1.0","30.2","81","14.4","8.9","-9999.0","-9999.0","20","NNE","-9999.0","-9999.0","1021","30.15","-1.8","28.7","-9999","-9999","-9999.00","-9999.00","Clear","clear","0","0","0","0","0","0","METAR UKKK 132330Z 02004MPS CAVOK 02/M01 Q1021 R08/CLRD70 NOSIG"
"3:00 AM EEST on October 14, 2016","2016","10","14","03","00","Europe/Kiev","12:00 AM GMT on October 14, 2016","2016","10","14","00","00","UTC","2","36","-1","30","70","7.2","4.5","","","40","NE","20","12","1023","30.21","-999","-999","-9999","-9999","","","","","0","0","0","0","0","0","AAXX 14001 33345 32998 00402 10024 21012 30019 40228 52006 555 11101"
"3:00 AM EEST on October 14, 2016","2016","10","14","03","00","Europe/Kiev","12:00 AM GMT on October 14, 2016","2016","10","14","00","00","UTC","1.0","33.8","-1.0","30.2","87","10.8","6.7","-9999.0","-9999.0","10","North","-9999.0","-9999.0","1022","30.18","-2.3","27.9","-9999","-9999","-9999.00","-9999.00","Clear","clear","0","0","0","0","0","0","METAR UKKK 140000Z 01003MPS CAVOK 01/M01 Q1022 R08/CLRD70 NOSIG"
"3:30 AM EEST on October 14, 2016","2016","10","14","03","30","Europe/Kiev","12:30 AM GMT on October 14, 2016","2016","10","14","00","30","UTC","1.0","33.8","-1.0","30.2","87","10.8","6.7","-9999.0","-9999.0","20","NNE","-9999.0","-9999.0","1022","30.18","-2.3","27.9","-9999","-9999","-9999.00","-9999.00","Clear","clear","0","0","0","0","0","0","METAR UKKK 140030Z 02003MPS CAVOK 01/M01 Q1022 R08/CLRD70 NOSIG"
"4:00 AM EEST on October 14, 2016","2016","10","14","04","00","Europe/Kiev","1:00 AM GMT on October 14, 2016","2016","10","14","01","00","UTC","1.0","33.8","-1.0","30.2","87","10.8","6.7","-9999.0","-9999.0","360","North","-9999.0","-9999.0","1022","30.18","-2.3","27.9","-9999","-9999","-9999.00","-9999.00","Clear","clear","0","0","0","0","0","0","METAR UKKK 140100Z 36003MPS CAVOK 01/M01 Q1022 R08/CLRD70 NOSIG"
"4:30 AM EEST on October 14, 2016","2016","10","14","04","30","Europe/Kiev","1:30 AM GMT on October 14, 2016","2016","10","14","01","30","UTC","0.0","32.0","-2.0","28.4","87","7.2","4.5","-9999.0","-9999.0","320","NW","-9999.0","-9999.0","1022","30.18","-2.5","27.6","-9999","-9999","-9999.00","-9999.00","Clear","clear","0","0","0","0","0","0","METAR UKKK 140130Z 32002MPS 290V360 CAVOK 00/M02 Q1022 R08/CLRD70 NOSIG"
"5:00 AM EEST on October 14, 2016","2016","10","14","05","00","Europe/Kiev","2:00 AM GMT on October 14, 2016","2016","10","14","02","00","UTC","0.0","32.0","-2.0","28.4","87","10.8","6.7","-9999.0","-9999.0","330","NNW","-9999.0","-9999.0","1022","30.18","-3.5","25.7","-9999","-9999","-9999.00","-9999.00","Clear","clear","0","0","0","0","0","0","METAR UKKK 140200Z 33003MPS CAVOK 00/M02 Q1022 R08/CLRD70 NOSIG"
"5:30 AM EEST on October 14, 2016","2016","10","14","05","30","Europe/Kiev","2:30 AM GMT on October 14, 2016","2016","10","14","02","30","UTC","0.0","32.0","-2.0","28.4","87","7.2","4.5","-9999.0","-9999.0","330","NNW","-9999.0","-9999.0","1023","30.21","-2.5","27.6","-9999","-9999","-9999.00","-9999.00","Clear","clear","0","0","0","0","0","0","METAR UKKK 140230Z 33002MPS CAVOK 00/M02 Q1023 R08/CLRD70 NOSIG"
"6:00 AM EEST on October 14, 2016","2016","10","14","06","00","Europe/Kiev","3:00 AM GMT on October 14, 2016","2016","10","14","03","00","UTC","1","33","-1","30","82","3.6","2.2","","","0","North","10","6","1024","30.24","-999","-999","-9999","-9999","","","","","0","0","0","0","0","0","AAXX 14031 33345 42997 03601 10006 21013 30029 40240 51010 555 11101"
"6:00 AM EEST on October 14, 2016","2016","10","14","06","00","Europe/Kiev","3:00 AM GMT on October 14, 2016","2016","10","14","03","00","UTC","0.0","32.0","-2.0","28.4","87","7.2","4.5","-9999.0","-9999.0","350","North","-9999.0","-9999.0","1023","30.21","-2.5","27.6","-9999","-9999","-9999.00","-9999.00","Clear","clear","0","0","0","0","0","0","METAR UKKK 140300Z 35002MPS CAVOK M00/M02 Q1023 R08/CLRD70 NOSIG"
"6:30 AM EEST on October 14, 2016","2016","10","14","06","30","Europe/Kiev","3:30 AM GMT on October 14, 2016","2016","10","14","03","30","UTC","0.0","32.0","-2.0","28.4","87","7.2","4.5","-9999.0","-9999.0","340","NNW","-9999.0","-9999.0","1023","30.21","-2.5","27.6","-9999","-9999","-9999.00","-9999.00","Clear","clear","0","0","0","0","0","0","METAR UKKK 140330Z 34002MPS CAVOK 00/M02 Q1023 R08/CLRD70 NOSIG"
"7:00 AM EEST on October 14, 2016","2016","10","14","07","00","Europe/Kiev","4:00 AM GMT on October 14, 2016","2016","10","14","04","00","UTC","0.0","32.0","-2.0","28.4","87","7.2","4.5","-9999.0","-9999.0","330","NNW","-9999.0","-9999.0","1023","30.21","-2.5","27.6","-9999","-9999","-9999.00","-9999.00","Clear","clear","0","0","0","0","0","0","METAR UKKK 140400Z 33002MPS CAVOK M00/M02 Q1023 R08/CLRD70 NOSIG"
"7:30 AM EEST on October 14, 2016","2016","10","14","07","30","Europe/Kiev","4:30 AM GMT on October 14, 2016","2016","10","14","04","30","UTC","0.0","32.0","-2.0","28.4","87","10.8","6.7","-9999.0","-9999.0","360","North","-9999.0","-9999.0","1024","30.24","-3.5","25.7","-9999","-9999","-9999.00","-9999.00","Clear","clear","0","0","0","0","0","0","METAR UKKK 140430Z 36003MPS CAVOK M00/M02 Q1024 R08/CLRD70 NOSIG"
"8:00 AM EEST on October 14, 2016","2016","10","14","08","00","Europe/Kiev","5:00 AM GMT on October 14, 2016","2016","10","14","05","00","UTC","1.0","33.8","-1.0","30.2","87","7.2","4.5","-9999.0","-9999.0","350","North","-9999.0","-9999.0","1024","30.24","-1.3","29.7","-9999","-9999","-9999.00","-9999.00","Clear","clear","0","0","0","0","0","0","METAR UKKK 140500Z 35002MPS 320V030 CAVOK 01/M01 Q1024 R08/CLRD70 NOSIG"
"8:30 AM EEST on October 14, 2016","2016","10","14","08","30","Europe/Kiev","5:30 AM GMT on October 14, 2016","2016","10","14","05","30","UTC","2.0","35.6","0.0","32.0","87","10.8","6.7","-9999.0","-9999.0","360","North","-9999.0","-9999.0","1025","30.27","-1.1","30.0","-9999","-9999","-9999.00","-9999.00","Clear","clear","0","0","0","0","0","0","METAR UKKK 140530Z 36003MPS CAVOK 02/M00 Q1025 R08/CLRD70 NOSIG"
"9:00 AM EEST on October 14, 2016","2016","10","14","09","00","Europe/Kiev","6:00 AM GMT on October 14, 2016","2016","10","14","06","00","UTC","2","35","-1","30","76","7.2","4.5","","","10","North","10","6","1026","30.30","-999","-999","-9999","-9999","","","","","0","0","0","0","0","0","AAXX 14061 33345 32997 00102 10018 21010 30050 40260 53021 333 20003 555 11101 31101 52102"
"9:00 AM EEST on October 14, 2016","2016","10","14","09","00","Europe/Kiev","6:00 AM GMT on October 14, 2016","2016","10","14","06","00","UTC","3.0","37.4","0.0","32.0","81","14.4","8.9","-9999.0","-9999.0","10","North","-9999.0","-9999.0","1025","30.27","-0.6","30.9","-9999","-9999","-9999.00","-9999.00","Clear","clear","0","0","0","0","0","0","METAR UKKK 140600Z 01004MPS CAVOK 03/M00 Q1025 R08/CLRD70 NOSIG"
"9:30 AM EEST on October 14, 2016","2016","10","14","09","30","Europe/Kiev","6:30 AM GMT on October 14, 2016","2016","10","14","06","30","UTC","3.0","37.4","0.0","32.0","81","14.4","8.9","-9999.0","-9999.0","360","North","-9999.0","-9999.0","1025","30.27","-0.6","30.9","-9999","-9999","-9999.00","-9999.00","Clear","clear","0","0","0","0","0","0","METAR UKKK 140630Z 36004MPS CAVOK 03/00 Q1025 R08/CLRD70 NOSIG"
"10:00 AM EEST on October 14, 2016","2016","10","14","10","00","Europe/Kiev","7:00 AM GMT on October 14, 2016","2016","10","14","07","00","UTC","4.0","39.2","0.0","32.0","75","14.4","8.9","-9999.0","-9999.0","10","North","-9999.0","-9999.0","1025","30.27","0.6","33.1","-9999","-9999","-9999.00","-9999.00","Clear","clear","0","0","0","0","0","0","METAR UKKK 140700Z 01004MPS CAVOK 04/00 Q1025 R08/CLRD70 NOSIG"
"10:30 AM EEST on October 14, 2016","2016","10","14","10","30","Europe/Kiev","7:30 AM GMT on October 14, 2016","2016","10","14","07","30","UTC","5.0","41.0","-1.0","30.2","65","14.4","8.9","-9999.0","-9999.0","30","NNE","-9999.0","-9999.0","1025","30.27","1.9","35.4","-9999","-9999","-9999.00","-9999.00","Clear","clear","0","0","0","0","0","0","METAR UKKK 140730Z 03004MPS CAVOK 05/M01 Q1025 R08/CLRD70 NOSIG"
"11:00 AM EEST on October 14, 2016","2016","10","14","11","00","Europe/Kiev","8:00 AM GMT on October 14, 2016","2016","10","14","08","00","UTC","6.0","42.8","-1.0","30.2","61","14.4","8.9","-9999.0","-9999.0","50","NE","-9999.0","-9999.0","1026","30.30","3.1","37.6","-9999","-9999","-9999.00","-9999.00","Clear","clear","0","0","0","0","0","0","METAR UKKK 140800Z 05004MPS 010V070 CAVOK 06/M01 Q1026 R08/CLRD70 NOSIG"
"11:30 AM EEST on October 14, 2016","2016","10","14","11","30","Europe/Kiev","8:30 AM GMT on October 14, 2016","2016","10","14","08","30","UTC","6.0","42.8","-1.0","30.2","61","18.0","11.2","-9999.0","-9999.0","30","NNE","-9999.0","-9999.0","1026","30.30","2.6","36.7","-9999","-9999","-9999.00","-9999.00","Clear","clear","0","0","0","0","0","0","METAR UKKK 140830Z 03005MPS 360V070 CAVOK 06/M01 Q1026 R08/CLRD70 NOSIG"
"12:00 PM EEST on October 14, 2016","2016","10","14","12","00","Europe/Kiev","9:00 AM GMT on October 14, 2016","2016","10","14","09","00","UTC","7","44","0","32","52","10.8","6.7","","","70","ENE","20","12","1027","30.32","-999","-999","-9999","-9999","","","Clear","clear","0","0","0","0","0","0","AAXX 14091 33345 42998 20703 10067 21000 30060 40267 52010 80001 555 11014"
"12:00 PM EEST on October 14, 2016","2016","10","14","12","00","Europe/Kiev","9:00 AM GMT on October 14, 2016","2016","10","14","09","00","UTC","7.0","44.6","-1.0","30.2","57","21.6","13.4","-9999.0","-9999.0","30","NNE","-9999.0","-9999.0","1026","30.30","3.4","38.2","-9999","-9999","-9999.00","-9999.00","Clear","clear","0","0","0","0","0","0","METAR UKKK 140900Z 03006MPS 360V070 CAVOK 07/M01 Q1026 R08/CLRD70 NOSIG"
"12:30 PM EEST on October 14, 2016","2016","10","14","12","30","Europe/Kiev","9:30 AM GMT on October 14, 2016","2016","10","14","09","30","UTC","7.0","44.6","0.0","32.0","61","18.0","11.2","-9999.0","-9999.0","50","NE","-9999.0","-9999.0","1026","30.30","3.8","38.9","-9999","-9999","-9999.00","-9999.00","Clear","clear","0","0","0","0","0","0","METAR UKKK 140930Z 05005MPS 360V080 CAVOK 07/M00 Q1026 R08/CLRD70 NOSIG"
"1:00 PM EEST on October 14, 2016","2016","10","14","13","00","Europe/Kiev","10:00 AM GMT on October 14, 2016","2016","10","14","10","00","UTC","8.0","46.4","0.0","32.0","57","14.4","8.9","-9999.0","-9999.0","40","NE","-9999.0","-9999.0","1026","30.30","5.6","42.0","-9999","-9999","-9999.00","-9999.00","Clear","clear","0","0","0","0","0","0","METAR UKKK 141000Z 04004MPS 360V080 CAVOK 08/M00 Q1026 R08/CLRD70 NOSIG"
"1:30 PM EEST on October 14, 2016","2016","10","14","13","30","Europe/Kiev","10:30 AM GMT on October 14, 2016","2016","10","14","10","30","UTC","8.0","46.4","0.0","32.0","57","18.0","11.2","-9999.0","-9999.0","20","NNE","-9999.0","-9999.0","1026","30.30","5.1","41.2","-9999","-9999","-9999.00","-9999.00","Clear","clear","0","0","0","0","0","0","METAR UKKK 141030Z 02005MPS 340V040 CAVOK 08/M00 Q1026 R08/CLRD70 NOSIG"
"2:00 PM EEST on October 14, 2016","2016","10","14","14","00","Europe/Kiev","11:00 AM GMT on October 14, 2016","2016","10","14","11","00","UTC","8.0","46.4","1.0","33.8","62","18.0","11.2","-9999.0","-9999.0","360","North","10.0","6.2","1026","30.30","5.1","41.2","-9999","-9999","-9999.00","-9999.00","Partly Cloudy","partlycloudy","0","0","0","0","0","0","METAR UKKK 141100Z 36005MPS 9999 FEW031 08/01 Q1026 R08/CLRD70 NOSIG"
"2:30 PM EEST on October 14, 2016","2016","10","14","14","30","Europe/Kiev","11:30 AM GMT on October 14, 2016","2016","10","14","11","30","UTC","8.0","46.4","0.0","32.0","57","14.4","8.9","-9999.0","-9999.0","20","NNE","10.0","6.2","1026","30.30","5.6","42.0","-9999","-9999","-9999.00","-9999.00","Partly Cloudy","partlycloudy","0","0","0","0","0","0","METAR UKKK 141130Z 02004MPS 350V050 9999 FEW029 08/00 Q1026 R08/CLRD70 NOSIG"
"3:00 PM EEST on October 14, 2016","2016","10","14","15","00","Europe/Kiev","12:00 PM GMT on October 14, 2016","2016","10","14","12","00","UTC","7","45","1","33","52","14.4","8.9","","","50","NE","20","12","1027","30.33","-999","-999","-9999","-9999","","","Scattered Clouds","partlycloudy","0","0","0","0","0","0","AAXX 14121 33345 32698 50504 10074 20006 30064 40270 52004 82881 555 11015"
"3:00 PM EEST on October 14, 2016","2016","10","14","15","00","Europe/Kiev","12:00 PM GMT on October 14, 2016","2016","10","14","12","00","UTC","8.0","46.4","1.0","33.8","62","14.4","8.9","-9999.0","-9999.0","30","NNE","10.0","6.2","1026","30.30","5.6","42.0","-9999","-9999","-9999.00","-9999.00","Partly Cloudy","partlycloudy","0","0","0","0","0","0","METAR UKKK 141200Z 03004MPS 350V080 9999 FEW029 08/01 Q1026 R08/CLRD70 NOSIG"
"3:30 PM EEST on October 14, 2016","2016","10","14","15","30","Europe/Kiev","12:30 PM GMT on October 14, 2016","2016","10","14","12","30","UTC","7.0","44.6","1.0","33.8","66","21.6","13.4","-9999.0","-9999.0","40","NE","10.0","6.2","1026","30.30","3.4","38.2","-9999","-9999","-9999.00","-9999.00","Scattered Clouds","partlycloudy","0","0","0","0","0","0","METAR UKKK 141230Z 04006MPS 360V070 9999 SCT026 07/01 Q1026 R08/CLRD70 NOSIG"
"4:00 PM EEST on October 14, 2016","2016","10","14","16","00","Europe/Kiev","1:00 PM GMT on October 14, 2016","2016","10","14","13","00","UTC","6.0","42.8","0.0","32.0","66","18.0","11.2","-9999.0","-9999.0","40","NE","10.0","6.2","1027","30.33","2.6","36.7","-9999","-9999","-9999.00","-9999.00","Scattered Clouds","partlycloudy","0","0","0","0","0","0","METAR UKKK 141300Z 04005MPS 9999 SCT023 06/00 Q1027 R08/CLRD70 NOSIG"
"4:30 PM EEST on October 14, 2016","2016","10","14","16","30","Europe/Kiev","1:30 PM GMT on October 14, 2016","2016","10","14","13","30","UTC","6.0","42.8","0.0","32.0","66","18.0","11.2","-9999.0","-9999.0","30","NNE","10.0","6.2","1027","30.33","2.6","36.7","-9999","-9999","-9999.00","-9999.00","Scattered Clouds","partlycloudy","0","0","0","0","0","0","METAR UKKK 141330Z 03005MPS 360V060 9999 SCT022 06/M00 Q1027 R08/CLRD70 NOSIG"
"5:00 PM EEST on October 14, 2016","2016","10","14","17","00","Europe/Kiev","2:00 PM GMT on October 14, 2016","2016","10","14","14","00","UTC","5.0","41.0","0.0","32.0","70","14.4","8.9","-9999.0","-9999.0","40","NE","10.0","6.2","1027","30.33","1.9","35.4","-9999","-9999","-9999.00","-9999.00","Mostly Cloudy","mostlycloudy","0","0","0","0","0","0","METAR UKKK 141400Z 04004MPS 010V080 9999 BKN021 05/00 Q1027 R08/CLRD70 NOSIG"
"5:30 PM EEST on October 14, 2016","2016","10","14","17","30","Europe/Kiev","2:30 PM GMT on October 14, 2016","2016","10","14","14","30","UTC","4.0","39.2","0.0","32.0","75","18.0","11.2","-9999.0","-9999.0","30","NNE","10.0","6.2","1027","30.33","0.1","32.2","-9999","-9999","-9999.00","-9999.00","Mostly Cloudy","mostlycloudy","0","0","0","0","0","0","METAR UKKK 141430Z 03005MPS 9999 BKN020 04/M00 Q1027 R08/CLRD70 NOSIG"
"6:00 PM EEST on October 14, 2016","2016","10","14","18","00","Europe/Kiev","3:00 PM GMT on October 14, 2016","2016","10","14","15","00","UTC","4","39","-1","31","62","10.8","6.7","","","60","ENE","20","12","1029","30.38","-999","-999","-9999","-9999","","","Mostly Cloudy","mostlycloudy","0","0","0","0","0","0","AAXX 14151 33345 42598 70603 10038 21008 30078 40287 53014 87500 555 10005"
"6:00 PM EEST on October 14, 2016","2016","10","14","18","00","Europe/Kiev","3:00 PM GMT on October 14, 2016","2016","10","14","15","00","UTC","4.0","39.2","-1.0","30.2","70","18.0","11.2","-9999.0","-9999.0","30","NNE","10.0","6.2","1028","30.36","0.1","32.2","-9999","-9999","-9999.00","-9999.00","Mostly Cloudy","mostlycloudy","0","0","0","0","0","0","METAR UKKK 141500Z 03005MPS 350V060 9999 BKN021 04/M01 Q1028 R08/CLRD70 NOSIG"
"6:30 PM EEST on October 14, 2016","2016","10","14","18","30","Europe/Kiev","3:30 PM GMT on October 14, 2016","2016","10","14","15","30","UTC","4.0","39.2","-1.0","30.2","70","18.0","11.2","-9999.0","-9999.0","40","NE","10.0","6.2","1028","30.36","0.1","32.2","-9999","-9999","-9999.00","-9999.00","Mostly Cloudy","mostlycloudy","0","0","0","0","0","0","METAR UKKK 141530Z 04005MPS 9999 BKN021 04/M01 Q1028 R08/CLRD70 NOSIG"
"7:00 PM EEST on October 14, 2016","2016","10","14","19","00","Europe/Kiev","4:00 PM GMT on October 14, 2016","2016","10","14","16","00","UTC","3.0","37.4","-2.0","28.4","70","14.4","8.9","-9999.0","-9999.0","70","ENE","10.0","6.2","1028","30.36","-0.6","30.9","-9999","-9999","-9999.00","-9999.00","Mostly Cloudy","mostlycloudy","0","0","0","0","0","0","METAR UKKK 141600Z 07004MPS 9999 BKN023 03/M02 Q1028 R08/CLRD70 NOSIG"
"7:30 PM EEST on October 14, 2016","2016","10","14","19","30","Europe/Kiev","4:30 PM GMT on October 14, 2016","2016","10","14","16","30","UTC","3.0","37.4","-2.0","28.4","70","10.8","6.7","-9999.0","-9999.0","70","ENE","10.0","6.2","1028","30.36","0.1","32.2","-9999","-9999","-9999.00","-9999.00","Mostly Cloudy","mostlycloudy","0","0","0","0","0","0","METAR UKKK 141630Z 07003MPS 9999 BKN024 03/M02 Q1028 R08/CLRD70 NOSIG"
"8:00 PM EEST on October 14, 2016","2016","10","14","20","00","Europe/Kiev","5:00 PM GMT on October 14, 2016","2016","10","14","17","00","UTC","2.0","35.6","-2.0","28.4","75","10.8","6.7","-9999.0","-9999.0","80","East","10.0","6.2","1029","30.39","-1.1","30.0","-9999","-9999","-9999.00","-9999.00","Mostly Cloudy","mostlycloudy","0","0","0","0","0","0","METAR UKKK 141700Z 08003MPS 9999 BKN025 02/M02 Q1029 R08/CLRD70 NOSIG"
"8:30 PM EEST on October 14, 2016","2016","10","14","20","30","Europe/Kiev","5:30 PM GMT on October 14, 2016","2016","10","14","17","30","UTC","2.0","35.6","-1.0","30.2","81","7.2","4.5","-9999.0","-9999.0","90","East","10.0","6.2","1029","30.39","-0.1","31.8","-9999","-9999","-9999.00","-9999.00","Mostly Cloudy","mostlycloudy","0","0","0","0","0","0","METAR UKKK 141730Z 09002MPS 9999 BKN025 02/M01 Q1029 R08/CLRD70 NOSIG"
"9:00 PM EEST on October 14, 2016","2016","10","14","21","00","Europe/Kiev","6:00 PM GMT on October 14, 2016","2016","10","14","18","00","UTC","3","37","-1","30","68","3.6","2.2","","","100","East","10","6","1030","30.43","-999","-999","-9999","-9999","","","Mostly Cloudy","mostlycloudy","0","0","0","0","0","0","AAXX 14181 33345 32597 71001 10026 21010 30091 40302 52013 87500 333 10082 87624 555 10003"
"9:00 PM EEST on October 14, 2016","2016","10","14","21","00","Europe/Kiev","6:00 PM GMT on October 14, 2016","2016","10","14","18","00","UTC","3.0","37.4","-1.0","30.2","75","10.8","6.7","-9999.0","-9999.0","90","East","10.0","6.2","1029","30.39","0.1","32.2","-9999","-9999","-9999.00","-9999.00","Overcast","cloudy","0","0","0","0","0","0","METAR UKKK 141800Z 09003MPS 9999 OVC024 03/M01 Q1029 R08/CLRD70 NOSIG"
"9:30 PM EEST on October 14, 2016","2016","10","14","21","30","Europe/Kiev","6:30 PM GMT on October 14, 2016","2016","10","14","18","30","UTC","3.0","37.4","-1.0","30.2","75","14.4","8.9","-9999.0","-9999.0","70","ENE","10.0","6.2","1029","30.39","-0.6","30.9","-9999","-9999","-9999.00","-9999.00","Overcast","cloudy","0","0","0","0","0","0","METAR UKKK 141830Z 07004MPS 9999 OVC022 03/M01 Q1029 R08/CLRD70 NOSIG"
"10:00 PM EEST on October 14, 2016","2016","10","14","22","00","Europe/Kiev","7:00 PM GMT on October 14, 2016","2016","10","14","19","00","UTC","3.0","37.4","-1.0","30.2","75","18.0","11.2","-9999.0","-9999.0","70","ENE","10.0","6.2","1029","30.39","-1.2","29.9","-9999","-9999","-9999.00","-9999.00","Overcast","cloudy","0","0","0","0","0","0","METAR UKKK 141900Z 07005MPS 9999 OVC020 03/M01 Q1029 R08/CLRD70 NOSIG"
"10:30 PM EEST on October 14, 2016","2016","10","14","22","30","Europe/Kiev","7:30 PM GMT on October 14, 2016","2016","10","14","19","30","UTC","3.0","37.4","-1.0","30.2","75","14.4","8.9","-9999.0","-9999.0","50","NE","10.0","6.2","1029","30.39","-0.6","30.9","-9999","-9999","-9999.00","-9999.00","Overcast","cloudy","0","0","0","0","0","0","METAR UKKK 141930Z 05004MPS 9999 OVC018 03/M01 Q1029 R08/CLRD70 NOSIG"
"11:00 PM EEST on October 14, 2016","2016","10","14","23","00","Europe/Kiev","8:00 PM GMT on October 14, 2016","2016","10","14","20","00","UTC","3.0","37.4","-1.0","30.2","75","14.4","8.9","-9999.0","-9999.0","60","ENE","10.0","6.2","1029","30.39","-0.6","30.9","-9999","-9999","-9999.00","-9999.00","Overcast","cloudy","0","0","0","0","0","0","METAR UKKK 142000Z 06004MPS 9999 OVC017 03/M01 Q1029 R08/CLRD70 NOSIG"
"11:30 PM EEST on October 14, 2016","2016","10","14","23","30","Europe/Kiev","8:30 PM GMT on October 14, 2016","2016","10","14","20","30","UTC","3.0","37.4","-1.0","30.2","75","14.4","8.9","-9999.0","-9999.0","60","ENE","10.0","6.2","1029","30.39","-0.6","30.9","-9999","-9999","-9999.00","-9999.00","Overcast","cloudy","0","0","0","0","0","0","METAR UKKK 142030Z 06004MPS 9999 OVC016 03/M01 Q1029 R08/CLRD70 NOSIG"
"12:00 AM EEST on October 15, 2016","2016","10","15","00","00","Europe/Kiev","9:00 PM GMT on October 14, 2016","2016","10","14","21","00","UTC","2","36","-0","31","76","7.2","4.5","","","80","East","10","6","1030","30.43","-999","-999","-9999","-9999","","","Overcast","cloudy","0","0","0","0","0","0","AAXX 14211 33345 42597 80802 10023 21005 30093 40304 51002 885// 555 10003"
"12:00 AM EEST on October 15, 2016","2016","10","15","00","00","Europe/Kiev","9:00 PM GMT on October 14, 2016","2016","10","14","21","00","UTC","2.0","35.6","0.0","32.0","87","14.4","8.9","-9999.0","-9999.0","70","ENE","10.0","6.2","1029","30.39","-1.8","28.7","-9999","-9999","-9999.00","-9999.00","Overcast","cloudy","0","0","0","0","0","0","METAR UKKK 142100Z 07004MPS 9999 OVC014 02/M00 Q1029 R08/CLRD70 NOSIG"
"12:30 AM EEST on October 15, 2016","2016","10","15","00","30","Europe/Kiev","9:30 PM GMT on October 14, 2016","2016","10","14","21","30","UTC","2.0","35.6","-1.0","30.2","81","14.4","8.9","-9999.0","-9999.0","80","East","10.0","6.2","1029","30.39","-1.8","28.7","-9999","-9999","-9999.00","-9999.00","Overcast","cloudy","0","0","0","0","0","0","METAR UKKK 142130Z 08004MPS 040V110 9999 OVC012 02/M01 Q1029 R08/CLRD70 NOSIG"
"1:00 AM EEST on October 15, 2016","2016","10","15","01","00","Europe/Kiev","10:00 PM GMT on October 14, 2016","2016","10","14","22","00","UTC","2.0","35.6","0.0","32.0","87","14.4","8.9","-9999.0","-9999.0","50","NE","10.0","6.2","1029","30.39","-1.8","28.7","-9999","-9999","-9999.00","-9999.00","Overcast","cloudy","0","0","0","0","0","0","METAR UKKK 142200Z 05004MPS 9999 OVC011 02/M00 Q1029 R08/CLRD70 NOSIG"
"1:30 AM EEST on October 15, 2016","2016","10","15","01","30","Europe/Kiev","10:30 PM GMT on October 14, 2016","2016","10","14","22","30","UTC","2.0","35.6","0.0","32.0","87","10.8","6.7","-9999.0","-9999.0","60","ENE","10.0","6.2","1029","30.39","-1.1","30.0","-9999","-9999","-9999.00","-9999.00","Overcast","cloudy","0","0","0","0","0","0","METAR UKKK 142230Z 06003MPS 9999 OVC011 02/M00 Q1029 R08/CLRD70 NOSIG"
"2:00 AM EEST on October 15, 2016","2016","10","15","02","00","Europe/Kiev","11:00 PM GMT on October 14, 2016","2016","10","14","23","00","UTC","2.0","35.6","0.0","32.0","87","7.2","4.5","-9999.0","-9999.0","100","East","10.0","6.2","1029","30.39","-0.1","31.8","-9999","-9999","-9999.00","-9999.00","Overcast","cloudy","0","0","0","0","0","0","METAR UKKK 142300Z 10002MPS 9999 OVC011 02/M00 Q1029 R08/CLRD70 NOSIG"
"2:30 AM EEST on October 15, 2016","2016","10","15","02","30","Europe/Kiev","11:30 PM GMT on October 14, 2016","2016","10","14","23","30","UTC","2.0","35.6","0.0","32.0","87","14.4","8.9","-9999.0","-9999.0","70","ENE","10.0","6.2","1030","30.42","-1.8","28.7","-9999","-9999","-9999.00","-9999.00","Overcast","cloudy","0","0","0","0","0","0","METAR UKKK 142330Z 07004MPS 9999 OVC012 02/M00 Q1030 R08/CLRD70 NOSIG"
"3:00 AM EEST on October 15, 2016","2016","10","15","03","00","Europe/Kiev","12:00 AM GMT on October 15, 2016","2016","10","15","00","00","UTC","2","35","-2","29","71","7.2","4.5","","","150","SSE","10","6","1031","30.45","-999","-999","-9999","-9999","","","Overcast","cloudy","0","0","0","0","0","0","AAXX 15001 33345 32597 81502 10016 21016 30098 40310 52005 885// 555 10003"
"3:00 AM EEST on October 15, 2016","2016","10","15","03","00","Europe/Kiev","12:00 AM GMT on October 15, 2016","2016","10","15","00","00","UTC","2.0","35.6","-1.0","30.2","81","10.8","6.7","-9999.0","-9999.0","50","NE","10.0","6.2","1030","30.42","-1.1","30.0","-9999","-9999","-9999.00","-9999.00","Overcast","cloudy","0","0","0","0","0","0","METAR UKKK 150000Z 05003MPS 9999 OVC015 02/M01 Q1030 R08/CLRD70 NOSIG"
"3:30 AM EEST on October 15, 2016","2016","10","15","03","30","Europe/Kiev","12:30 AM GMT on October 15, 2016","2016","10","15","00","30","UTC","1.0","33.8","-2.0","28.4","81","7.2","4.5","-9999.0","-9999.0","100","East","10.0","6.2","1029","30.39","-1.3","29.7","-9999","-9999","-9999.00","-9999.00","Mostly Cloudy","mostlycloudy","0","0","0","0","0","0","METAR UKKK 150030Z 10002MPS 9999 BKN015 01/M02 Q1029 R08/CLRD70 NOSIG"
"4:00 AM EEST on October 15, 2016","2016","10","15","04","00","Europe/Kiev","1:00 AM GMT on October 15, 2016","2016","10","15","01","00","UTC","0.0","32.0","-2.0","28.4","87","7.2","4.5","-9999.0","-9999.0","110","ESE","10.0","6.2","1029","30.39","-2.5","27.6","-9999","-9999","-9999.00","-9999.00","Mostly Cloudy","mostlycloudy","0","0","0","0","0","0","METAR UKKK 150100Z 11002MPS 9999 BKN017 00/M02 Q1029 R08/CLRD70 NOSIG"
"4:30 AM EEST on October 15, 2016","2016","10","15","04","30","Europe/Kiev","1:30 AM GMT on October 15, 2016","2016","10","15","01","30","UTC","0.0","32.0","-2.0","28.4","87","7.2","4.5","-9999.0","-9999.0","100","East","10.0","6.2","1029","30.39","-2.5","27.6","-9999","-9999","-9999.00","-9999.00","Mostly Cloudy","mostlycloudy","0","0","0","0","0","0","METAR UKKK 150130Z 10002MPS 9999 BKN026 00/M02 Q1029 R08/CLRD70 NOSIG"
"5:00 AM EEST on October 15, 2016","2016","10","15","05","00","Europe/Kiev","2:00 AM GMT on October 15, 2016","2016","10","15","02","00","UTC","1.0","33.8","-2.0","28.4","81","7.2","4.5","-9999.0","-9999.0","110","ESE","10.0","6.2","1030","30.42","-1.3","29.7","-9999","-9999","-9999.00","-9999.00","Mostly Cloudy","mostlycloudy","0","0","0","0","0","0","METAR UKKK 150200Z 11002MPS 9999 BKN024 01/M02 Q1030 R08/CLRD70 NOSIG"
"5:30 AM EEST on October 15, 2016","2016","10","15","05","30","Europe/Kiev","2:30 AM GMT on October 15, 2016","2016","10","15","02","30","UTC","1.0","33.8","-2.0","28.4","81","10.8","6.7","-9999.0","-9999.0","100","East","10.0","6.2","1030","30.42","-2.3","27.9","-9999","-9999","-9999.00","-9999.00","Mostly Cloudy","mostlycloudy","0","0","0","0","0","0","METAR UKKK 150230Z 10003MPS 9999 BKN024 01/M02 Q1030 R08/CLRD70 NOSIG"
"6:00 AM EEST on October 15, 2016","2016","10","15","06","00","Europe/Kiev","3:00 AM GMT on October 15, 2016","2016","10","15","03","00","UTC","1","33","-2","29","80","7.2","4.5","","","70","ENE","10","6","1031","30.45","-999","-999","-9999","-9999","","","Mostly Cloudy","mostlycloudy","0","0","0","0","0","0","AAXX 15031 33345 42997 70702 10007 21016 30099 40311 51001 87070 555 10001"
"6:00 AM EEST on October 15, 2016","2016","10","15","06","00","Europe/Kiev","3:00 AM GMT on October 15, 2016","2016","10","15","03","00","UTC","1.0","33.8","-2.0","28.4","81","7.2","4.5","-9999.0","-9999.0","90","East","10.0","6.2","1030","30.42","-1.3","29.7","-9999","-9999","-9999.00","-9999.00","Overcast","cloudy","0","0","0","0","0","0","METAR UKKK 150300Z 09002MPS 9999 OVC028 01/M02 Q1030 R08/CLRD70 NOSIG"
"6:30 AM EEST on October 15, 2016","2016","10","15","06","30","Europe/Kiev","3:30 AM GMT on October 15, 2016","2016","10","15","03","30","UTC","1.0","33.8","-1.0","30.2","87","7.2","4.5","-9999.0","-9999.0","50","NE","10.0","6.2","1030","30.42","-1.3","29.7","-9999","-9999","-9999.00","-9999.00","Overcast","cloudy","0","0","0","0","0","0","METAR UKKK 150330Z 05002MPS 9999 OVC030 01/M01 Q1030 R08/CLRD70 NOSIG"
"7:00 AM EEST on October 15, 2016","2016","10","15","07","00","Europe/Kiev","4:00 AM GMT on October 15, 2016","2016","10","15","04","00","UTC","1.0","33.8","-1.0","30.2","87","7.2","4.5","-9999.0","-9999.0","70","ENE","10.0","6.2","1030","30.42","-1.3","29.7","-9999","-9999","-9999.00","-9999.00","Overcast","cloudy","0","0","0","0","0","0","METAR UKKK 150400Z 07002MPS 9999 OVC030 01/M01 Q1030 R08/CLRD70 NOSIG"
"7:30 AM EEST on October 15, 2016","2016","10","15","07","30","Europe/Kiev","4:30 AM GMT on October 15, 2016","2016","10","15","04","30","UTC","1.0","33.8","-1.0","30.2","87","3.6","2.2","-9999.0","-9999.0","90","East","10.0","6.2","1030","30.42","-999","-999","-9999","-9999","-9999.00","-9999.00","Overcast","cloudy","0","0","0","0","0","0","METAR UKKK 150430Z 09001MPS 9999 OVC031 01/M01 Q1030 R08/CLRD70 NOSIG"
"8:00 AM EEST on October 15, 2016","2016","10","15","08","00","Europe/Kiev","5:00 AM GMT on October 15, 2016","2016","10","15","05","00","UTC","1.0","33.8","-1.0","30.2","87","7.2","4.5","-9999.0","-9999.0","70","ENE","10.0","6.2","1030","30.42","-1.3","29.7","-9999","-9999","-9999.00","-9999.00","Mostly Cloudy","mostlycloudy","0","0","0","0","0","0","METAR UKKK 150500Z 07002MPS 9999 BKN032 01/M01 Q1030 R08/CLRD70 NOSIG"
"8:30 AM EEST on October 15, 2016","2016","10","15","08","30","Europe/Kiev","5:30 AM GMT on October 15, 2016","2016","10","15","05","30","UTC","1.0","33.8","-1.0","30.2","87","7.2","4.5","-9999.0","-9999.0","60","ENE","10.0","6.2","1030","30.42","-1.3","29.7","-9999","-9999","-9999.00","-9999.00","Mostly Cloudy","mostlycloudy","0","0","0","0","0","0","METAR UKKK 150530Z 06002MPS 9999 BKN032 01/M01 Q1030 R08/CLRD70 NOSIG"
"9:00 AM EEST on October 15, 2016","2016","10","15","09","00","Europe/Kiev","6:00 AM GMT on October 15, 2016","2016","10","15","06","00","UTC","2","35","-1","29","73","3.6","2.2","","","60","ENE","10","6","1031","30.46","-999","-999","-9999","-9999","","","Mostly Cloudy","mostlycloudy","0","0","0","0","0","0","AAXX 15061 33345 32697 70601 10015 21014 30101 40313 52002 87500 333 20003 87634 555 10003 30101 52102"
"9:00 AM EEST on October 15, 2016","2016","10","15","09","00","Europe/Kiev","6:00 AM GMT on October 15, 2016","2016","10","15","06","00","UTC","2.0","35.6","-1.0","30.2","81","10.8","6.7","-9999.0","-9999.0","60","ENE","10.0","6.2","1030","30.42","-1.1","30.0","-9999","-9999","-9999.00","-9999.00","Mostly Cloudy","mostlycloudy","0","0","0","0","0","0","METAR UKKK 150600Z 06003MPS 9999 BKN033 02/M01 Q1030 R08/CLRD70 NOSIG"
"9:30 AM EEST on October 15, 2016","2016","10","15","09","30","Europe/Kiev","6:30 AM GMT on October 15, 2016","2016","10","15","06","30","UTC","2.0","35.6","-2.0","28.4","75","10.8","6.7","-9999.0","-9999.0","60","ENE","10.0","6.2","1030","30.42","-1.1","30.0","-9999","-9999","-9999.00","-9999.00","Mostly Cloudy","mostlycloudy","0","0","0","0","0","0","METAR UKKK 150630Z 06003MPS 030V090 9999 BKN032 02/M02 Q1030 R08/CLRD70 NOSIG"
"10:00 AM EEST on October 15, 2016","2016","10","15","10","00","Europe/Kiev","7:00 AM GMT on October 15, 2016","2016","10","15","07","00","UTC","3.0","37.4","-1.0","30.2","75","10.8","6.7","-9999.0","-9999.0","70","ENE","10.0","6.2","1030","30.42","0.1","32.2","-9999","-9999","-9999.00","-9999.00","Mostly Cloudy","mostlycloudy","0","0","0","0","0","0","METAR UKKK 150700Z 07003MPS 040V100 9999 BKN033 03/M01 Q1030 R08/CLRD70 NOSIG"
"10:30 AM EEST on October 15, 2016","2016","10","15","10","30","Europe/Kiev","7:30 AM GMT on October 15, 2016","2016","10","15","07","30","UTC","3.0","37.4","-1.0","30.2","75","10.8","6.7","-9999.0","-9999.0","90","East","10.0","6.2","1030","30.42","0.1","32.2","-9999","-9999","-9999.00","-9999.00","Mostly Cloudy","mostlycloudy","0","0","0","0","0","0","METAR UKKK 150730Z 09003MPS 050V110 9999 BKN033 03/M01 Q1030 R08/CLRD70 NOSIG"
"11:00 AM EEST on October 15, 2016","2016","10","15","11","00","Europe/Kiev","8:00 AM GMT on October 15, 2016","2016","10","15","08","00","UTC","4.0","39.2","-1.0","30.2","70","10.8","6.7","-9999.0","-9999.0","70","ENE","9.0","5.6","1030","30.42","1.3","34.4","-9999","-9999","-9999.00","-9999.00","Mostly Cloudy","mostlycloudy","0","0","0","0","0","0","METAR UKKK 150800Z 07003MPS 9000 BKN035 04/M01 Q1030 R08/CLRD70 NOSIG"
"11:30 AM EEST on October 15, 2016","2016","10","15","11","30","Europe/Kiev","8:30 AM GMT on October 15, 2016","2016","10","15","08","30","UTC","5.0","41.0","-1.0","30.2","65","10.8","6.7","-9999.0","-9999.0","80","East","10.0","6.2","1030","30.42","2.5","36.5","-9999","-9999","-9999.00","-9999.00","Mostly Cloudy","mostlycloudy","0","0","0","0","0","0","METAR UKKK 150830Z 08003MPS 060V120 9999 BKN035 05/M01 Q1030 R08/CLRD70 NOSIG"
"12:00 PM EEST on October 15, 2016","2016","10","15","12","00","Europe/Kiev","9:00 AM GMT on October 15, 2016","2016","10","15","09","00","UTC","5","41","-1","30","53","7.2","4.5","","","90","East","20","12","1031","30.45","-999","-999","-9999","-9999","","","Mostly Cloudy","mostlycloudy","0","0","0","0","0","0","AAXX 15091 33345 42598 70902 10050 21013 30103 40312 52002 87500 333 87632 555 10010"
"12:00 PM EEST on October 15, 2016","2016","10","15","12","00","Europe/Kiev","9:00 AM GMT on October 15, 2016","2016","10","15","09","00","UTC","5.0","41.0","-2.0","28.4","61","14.4","8.9","-9999.0","-9999.0","90","East","10.0","6.2","1030","30.42","1.9","35.4","-9999","-9999","-9999.00","-9999.00","Mostly Cloudy","mostlycloudy","0","0","0","0","0","0","METAR UKKK 150900Z 09004MPS 060V130 9999 BKN035 05/M02 Q1030 R08/CLRD70 NOSIG"
"12:30 PM EEST on October 15, 2016","2016","10","15","12","30","Europe/Kiev","9:30 AM GMT on October 15, 2016","2016","10","15","09","30","UTC","5.0","41.0","-2.0","28.4","61","14.4","8.9","-9999.0","-9999.0","100","East","10.0","6.2","1030","30.42","1.9","35.4","-9999","-9999","-9999.00","-9999.00","Mostly Cloudy","mostlycloudy","0","0","0","0","0","0","METAR UKKK 150930Z 10004MPS 070V150 9999 BKN035 05/M02 Q1030 R08/CLRD70 NOSIG"
"1:00 PM EEST on October 15, 2016","2016","10","15","13","00","Europe/Kiev","10:00 AM GMT on October 15, 2016","2016","10","15","10","00","UTC","5.0","41.0","-1.0","30.2","65","10.8","6.7","-9999.0","-9999.0","90","East","10.0","6.2","1030","30.42","2.5","36.5","-9999","-9999","-9999.00","-9999.00","Overcast","cloudy","0","0","0","0","0","0","METAR UKKK 151000Z 09003MPS 050V130 9999 OVC033 05/M01 Q1030 R08/CLRD70 NOSIG"
"1:30 PM EEST on October 15, 2016","2016","10","15","13","30","Europe/Kiev","10:30 AM GMT on October 15, 2016","2016","10","15","10","30","UTC","5.0","41.0","-1.0","30.2","65","14.4","8.9","-9999.0","-9999.0","90","East","10.0","6.2","1030","30.42","1.9","35.4","-9999","-9999","-9999.00","-9999.00","Overcast","cloudy","0","0","0","0","0","0","METAR UKKK 151030Z 09004MPS 9999 OVC030 05/M01 Q1030 R08/CLRD70 NOSIG"
"2:00 PM EEST on October 15, 2016","2016","10","15","14","00","Europe/Kiev","11:00 AM GMT on October 15, 2016","2016","10","15","11","00","UTC","5.0","41.0","-2.0","28.4","61","14.4","8.9","-9999.0","-9999.0","90","East","10.0","6.2","1030","30.42","1.9","35.4","-9999","-9999","-9999.00","-9999.00","Overcast","cloudy","0","0","0","0","0","0","METAR UKKK 151100Z 09004MPS 9999 OVC030 05/M02 Q1030 R08/CLRD70 NOSIG"
"2:30 PM EEST on October 15, 2016","2016","10","15","14","30","Europe/Kiev","11:30 AM GMT on October 15, 2016","2016","10","15","11","30","UTC","5.0","41.0","-2.0","28.4","61","10.8","6.7","-9999.0","-9999.0","120","ESE","10.0","6.2","1030","30.42","2.5","36.5","-9999","-9999","-9999.00","-9999.00","Overcast","cloudy","0","0","0","0","0","0","METAR UKKK 151130Z 12003MPS 080V160 9999 OVC032 05/M02 Q1030 R08/CLRD70 NOSIG"
"3:00 PM EEST on October 15, 2016","2016","10","15","15","00","Europe/Kiev","12:00 PM GMT on October 15, 2016","2016","10","15","12","00","UTC","5","42","-1","31","53","3.6","2.2","","","170","South","20","12","1031","30.45","-999","-999","-9999","-9999","","","Overcast","cloudy","0","0","0","0","0","0","AAXX 15121 33345 32598 81701 10054 21008 30102 40311 58001 885// 333 88628 555 10008"
"3:00 PM EEST on October 15, 2016","2016","10","15","15","00","Europe/Kiev","12:00 PM GMT on October 15, 2016","2016","10","15","12","00","UTC","5.0","41.0","-2.0","28.4","61","10.8","6.7","-9999.0","-9999.0","120","ESE","10.0","6.2","1030","30.42","2.5","36.5","-9999","-9999","-9999.00","-9999.00","Overcast","cloudy","0","0","0","0","0","0","METAR UKKK 151200Z 12003MPS 080V150 9999 OVC033 05/M02 Q1030 R08/CLRD70 NOSIG"
"3:30 PM EEST on October 15, 2016","2016","10","15","15","30","Europe/Kiev","12:30 PM GMT on October 15, 2016","2016","10","15","12","30","UTC","5.0","41.0","-1.0","30.2","65","10.8","6.7","-9999.0","-9999.0","90","East","10.0","6.2","1030","30.42","2.5","36.5","-9999","-9999","-9999.00","-9999.00","Overcast","cloudy","0","0","0","0","0","0","METAR UKKK 151230Z 09003MPS 9999 OVC032 05/M01 Q1030 R08/CLRD70 NOSIG"
"4:00 PM EEST on October 15, 2016","2016","10","15","16","00","Europe/Kiev","1:00 PM GMT on October 15, 2016","2016","10","15","13","00","UTC","5.0","41.0","-1.0","30.2","65","10.8","6.7","-9999.0","-9999.0","90","East","10.0","6.2","1030","30.42","2.5","36.5","-9999","-9999","-9999.00","-9999.00","Overcast","cloudy","0","0","0","0","0","0","METAR UKKK 151300Z 09003MPS 9999 OVC031 05/M01 Q1030 R08/CLRD70 NOSIG"
"4:30 PM EEST on October 15, 2016","2016","10","15","16","30","Europe/Kiev","1:30 PM GMT on October 15, 2016","2016","10","15","13","30","UTC","5.0","41.0","-1.0","30.2","65","10.8","6.7","-9999.0","-9999.0","100","East","10.0","6.2","1030","30.42","2.5","36.5","-9999","-9999","-9999.00","-9999.00","Overcast","cloudy","0","0","0","0","0","0","METAR UKKK 151330Z 10003MPS 9999 OVC032 05/M01 Q1030 R08/CLRD70 NOSIG"
"5:00 PM EEST on October 15, 2016","2016","10","15","17","00","Europe/Kiev","2:00 PM GMT on October 15, 2016","2016","10","15","14","00","UTC","5.0","41.0","-1.0","30.2","65","10.8","6.7","-9999.0","-9999.0","120","ESE","10.0","6.2","1030","30.42","2.5","36.5","-9999","-9999","-9999.00","-9999.00","Overcast","cloudy","0","0","0","0","0","0","METAR UKKK 151400Z 12003MPS 080V160 9999 OVC032 05/M01 Q1030 R08/CLRD70 NOSIG"
"5:30 PM EEST on October 15, 2016","2016","10","15","17","30","Europe/Kiev","2:30 PM GMT on October 15, 2016","2016","10","15","14","30","UTC","5.0","41.0","-2.0","28.4","61","10.8","6.7","-9999.0","-9999.0","100","East","10.0","6.2","1030","30.42","2.5","36.5","-9999","-9999","-9999.00","-9999.00","Overcast","cloudy","0","0","0","0","0","0","METAR UKKK 151430Z 10003MPS 070V140 9999 OVC032 05/M02 Q1030 R08/CLRD70 NOSIG"
"6:00 PM EEST on October 15, 2016","2016","10","15","18","00","Europe/Kiev","3:00 PM GMT on October 15, 2016","2016","10","15","15","00","UTC","5","41","-1","30","53","3.6","2.2","","","130","SE","20","12","1031","30.45","-999","-999","-9999","-9999","","","Overcast","cloudy","0","0","0","0","0","0","AAXX 15151 33345 42598 81301 10048 21012 30102 40311 54000 885// 333 88630 555 10005"
"6:00 PM EEST on October 15, 2016","2016","10","15","18","00","Europe/Kiev","3:00 PM GMT on October 15, 2016","2016","10","15","15","00","UTC","5.0","41.0","-1.0","30.2","65","10.8","6.7","-9999.0","-9999.0","100","East","10.0","6.2","1030","30.42","2.5","36.5","-9999","-9999","-9999.00","-9999.00","Overcast","cloudy","0","0","0","0","0","0","METAR UKKK 151500Z 10003MPS 9999 OVC032 05/M01 Q1030 R08/CLRD70 NOSIG"
"6:30 PM EEST on October 15, 2016","2016","10","15","18","30","Europe/Kiev","3:30 PM GMT on October 15, 2016","2016","10","15","15","30","UTC","5.0","41.0","-1.0","30.2","65","10.8","6.7","-9999.0","-9999.0","100","East","10.0","6.2","1030","30.42","2.5","36.5","-9999","-9999","-9999.00","-9999.00","Overcast","cloudy","0","0","0","0","0","0","METAR UKKK 151530Z 10003MPS 9999 OVC032 05/M01 Q1030 R08/CLRD70 NOSIG"
"7:00 PM EEST on October 15, 2016","2016","10","15","19","00","Europe/Kiev","4:00 PM GMT on October 15, 2016","2016","10","15","16","00","UTC","5.0","41.0","-2.0","28.4","61","10.8","6.7","-9999.0","-9999.0","100","East","10.0","6.2","1030","30.42","2.5","36.5","-9999","-9999","-9999.00","-9999.00","Overcast","cloudy","0","0","0","0","0","0","METAR UKKK 151600Z 10003MPS 9999 OVC032 05/M02 Q1030 R08/CLRD70 NOSIG"
"7:30 PM EEST on October 15, 2016","2016","10","15","19","30","Europe/Kiev","4:30 PM GMT on October 15, 2016","2016","10","15","16","30","UTC","5.0","41.0","-1.0","30.2","65","10.8","6.7","-9999.0","-9999.0","100","East","10.0","6.2","1030","30.42","2.5","36.5","-9999","-9999","-9999.00","-9999.00","Overcast","cloudy","0","0","0","0","0","0","METAR UKKK 151630Z 10003MPS 080V140 9999 OVC032 05/M01 Q1030 R08/CLRD70 NOSIG"
"8:00 PM EEST on October 15, 2016","2016","10","15","20","00","Europe/Kiev","5:00 PM GMT on October 15, 2016","2016","10","15","17","00","UTC","5.0","41.0","-1.0","30.2","65","10.8","6.7","-9999.0","-9999.0","90","East","10.0","6.2","1030","30.42","2.5","36.5","-9999","-9999","-9999.00","-9999.00","Overcast","cloudy","0","0","0","0","0","0","METAR UKKK 151700Z 09003MPS 9999 OVC032 05/M01 Q1030 R08/CLRD70 NOSIG"
"8:30 PM EEST on October 15, 2016","2016","10","15","20","30","Europe/Kiev","5:30 PM GMT on October 15, 2016","2016","10","15","17","30","UTC","4.0","39.2","-1.0","30.2","70","7.2","4.5","-9999.0","-9999.0","100","East","10.0","6.2","1030","30.42","2.2","36.0","-9999","-9999","-9999.00","-9999.00","Overcast","cloudy","0","0","0","0","0","0","METAR UKKK 151730Z 10002MPS 070V130 9999 OVC030 04/M01 Q1030 R08/CLRD70 NOSIG"
"9:00 PM EEST on October 15, 2016","2016","10","15","21","00","Europe/Kiev","6:00 PM GMT on October 15, 2016","2016","10","15","18","00","UTC","4","40","-1","31","60","3.6","2.2","","","120","ESE","20","12","1032","30.47","-999","-999","-9999","-9999","","","Overcast","cloudy","0","0","0","0","0","0","AAXX 15181 33345 32598 81201 10045 21006 30107 40317 53005 885// 333 10057 88625 555 10004"
"9:00 PM EEST on October 15, 2016","2016","10","15","21","00","Europe/Kiev","6:00 PM GMT on October 15, 2016","2016","10","15","18","00","UTC","4.0","39.2","-1.0","30.2","70","10.8","6.7","-9999.0","-9999.0","90","East","10.0","6.2","1031","30.45","1.3","34.4","-9999","-9999","-9999.00","-9999.00","Overcast","cloudy","0","0","0","0","0","0","METAR UKKK 151800Z 09003MPS 9999 OVC029 04/M01 Q1031 R08/CLRD70 NOSIG"
"9:30 PM EEST on October 15, 2016","2016","10","15","21","30","Europe/Kiev","6:30 PM GMT on October 15, 2016","2016","10","15","18","30","UTC","4.0","39.2","-1.0","30.2","70","14.4","8.9","-9999.0","-9999.0","90","East","10.0","6.2","1031","30.45","0.6","33.1","-9999","-9999","-9999.00","-9999.00","Overcast","cloudy","0","0","0","0","0","0","METAR UKKK 151830Z 09004MPS 9999 OVC031 04/M01 Q1031 R08/CLRD70 NOSIG"
"10:00 PM EEST on October 15, 2016","2016","10","15","22","00","Europe/Kiev","7:00 PM GMT on October 15, 2016","2016","10","15","19","00","UTC","4.0","39.2","-1.0","30.2","70","7.2","4.5","-9999.0","-9999.0","100","East","10.0","6.2","1031","30.45","2.2","36.0","-9999","-9999","-9999.00","-9999.00","Overcast","cloudy","0","0","0","0","0","0","METAR UKKK 151900Z 10002MPS 9999 OVC031 04/M01 Q1031 R08/CLRD70 NOSIG"
"10:30 PM EEST on October 15, 2016","2016","10","15","22","30","Europe/Kiev","7:30 PM GMT on October 15, 2016","2016","10","15","19","30","UTC","4.0","39.2","-1.0","30.2","70","10.8","6.7","-9999.0","-9999.0","80","East","10.0","6.2","1031","30.45","1.3","34.4","-9999","-9999","-9999.00","-9999.00","Overcast","cloudy","0","0","0","0","0","0","METAR UKKK 151930Z 08003MPS 9999 OVC036 04/M01 Q1031 R08/CLRD70 NOSIG"
"11:00 PM EEST on October 15, 2016","2016","10","15","23","00","Europe/Kiev","8:00 PM GMT on October 15, 2016","2016","10","15","20","00","UTC","4.0","39.2","-1.0","30.2","70","10.8","6.7","-9999.0","-9999.0","80","East","10.0","6.2","1031","30.45","1.3","34.4","-9999","-9999","-9999.00","-9999.00","Overcast","cloudy","0","0","0","0","0","0","METAR UKKK 152000Z 08003MPS 9999 OVC037 04/M01 Q1031 R08/CLRD70 NOSIG"
"11:30 PM EEST on October 15, 2016","2016","10","15","23","30","Europe/Kiev","8:30 PM GMT on October 15, 2016","2016","10","15","20","30","UTC","4.0","39.2","-1.0","30.2","70","10.8","6.7","-9999.0","-9999.0","80","East","10.0","6.2","1031","30.45","1.3","34.4","-9999","-9999","-9999.00","-9999.00","Overcast","cloudy","0","0","0","0","0","0","METAR UKKK 152030Z 08003MPS 9999 OVC037 04/M01 Q1031 R08/CLRD70 NOSIG"
"12:00 AM EEST on October 16, 2016","2016","10","16","00","00","Europe/Kiev","9:00 PM GMT on October 15, 2016","2016","10","15","21","00","UTC","4","40","-1","30","56","0.0","0.0","","","","","20","12","1032","30.49","-999","-999","-9999","-9999","","","Overcast","cloudy","0","0","0","0","0","0","AAXX 15211 33345 42598 80000 10042 21013 30114 40324 52007 885// 333 88628 555 10004"
"12:00 AM EEST on October 16, 2016","2016","10","16","00","00","Europe/Kiev","9:00 PM GMT on October 15, 2016","2016","10","15","21","00","UTC","4.0","39.2","-1.0","30.2","70","7.2","4.5","-9999.0","-9999.0","80","East","10.0","6.2","1031","30.45","2.2","36.0","-9999","-9999","-9999.00","-9999.00","Overcast","cloudy","0","0","0","0","0","0","METAR UKKK 152100Z 08002MPS 9999 OVC037 04/M01 Q1031 R08/CLRD70 NOSIG"
"12:30 AM EEST on October 16, 2016","2016","10","16","00","30","Europe/Kiev","9:30 PM GMT on October 15, 2016","2016","10","15","21","30","UTC","4.0","39.2","-1.0","30.2","70","7.2","4.5","-9999.0","-9999.0","60","ENE","10.0","6.2","1031","30.45","2.2","36.0","-9999","-9999","-9999.00","-9999.00","Overcast","cloudy","0","0","0","0","0","0","METAR UKKK 152130Z 06002MPS 9999 OVC037 04/M01 Q1031 R08/CLRD70 NOSIG"
"1:00 AM EEST on October 16, 2016","2016","10","16","01","00","Europe/Kiev","10:00 PM GMT on October 15, 2016","2016","10","15","22","00","UTC","4.0","39.2","-1.0","30.2","70","14.4","8.9","-9999.0","-9999.0","70","ENE","10.0","6.2","1031","30.45","0.6","33.1","-9999","-9999","-9999.00","-9999.00","Overcast","cloudy","0","0","0","0","0","0","METAR UKKK 152200Z 07004MPS 9999 OVC040 04/M01 Q1031 R08/CLRD70 NOSIG"
"1:30 AM EEST on October 16, 2016","2016","10","16","01","30","Europe/Kiev","10:30 PM GMT on October 15, 2016","2016","10","15","22","30","UTC","4.0","39.2","-1.0","30.2","70","14.4","8.9","-9999.0","-9999.0","80","East","10.0","6.2","1031","30.45","0.6","33.1","-9999","-9999","-9999.00","-9999.00","Overcast","cloudy","0","0","0","0","0","0","METAR UKKK 152230Z 08004MPS 9999 OVC040 04/M01 Q1031 R08/CLRD70 NOSIG"
"2:00 AM EEST on October 16, 2016","2016","10","16","02","00","Europe/Kiev","11:00 PM GMT on October 15, 2016","2016","10","15","23","00","UTC","4.0","39.2","-1.0","30.2","70","14.4","8.9","-9999.0","-9999.0","80","East","10.0","6.2","1031","30.45","0.6","33.1","-9999","-9999","-9999.00","-9999.00","Overcast","cloudy","0","0","0","0","0","0","METAR UKKK 152300Z 08004MPS 9999 OVC040 04/M01 Q1031 R08/CLRD70 NOSIG"
"2:30 AM EEST on October 16, 2016","2016","10","16","02","30","Europe/Kiev","11:30 PM GMT on October 15, 2016","2016","10","15","23","30","UTC","4.0","39.2","-1.0","30.2","70","10.8","6.7","-9999.0","-9999.0","90","East","10.0","6.2","1032","30.48","1.3","34.4","-9999","-9999","-9999.00","-9999.00","Overcast","cloudy","0","0","0","0","0","0","METAR UKKK 152330Z 09003MPS 9999 OVC040 04/M01 Q1032 R08/CLRD70 NOSIG"
"3:00 AM EEST on October 16, 2016","2016","10","16","03","00","Europe/Kiev","12:00 AM GMT on October 16, 2016","2016","10","16","00","00","UTC","4","39","-2","29","57","10.8","6.7","","","90","East","20","12","1033","30.50","-999","-999","-9999","-9999","","","Overcast","cloudy","0","0","0","0","0","0","AAXX 16001 33345 32598 80903 10040 21016 30117 40327 52003 885// 333 88627 555 10003"
"3:00 AM EEST on October 16, 2016","2016","10","16","03","00","Europe/Kiev","12:00 AM GMT on October 16, 2016","2016","10","16","00","00","UTC","4.0","39.2","-1.0","30.2","70","10.8","6.7","-9999.0","-9999.0","80","East","10.0","6.2","1032","30.48","1.3","34.4","-9999","-9999","-9999.00","-9999.00","Overcast","cloudy","0","0","0","0","0","0","METAR UKKK 160000Z 08003MPS 9999 OVC042 04/M01 Q1032 R08/CLRD70 NOSIG"
"3:30 AM EEST on October 16, 2016","2016","10","16","03","30","Europe/Kiev","12:30 AM GMT on October 16, 2016","2016","10","16","00","30","UTC","4.0","39.2","-1.0","30.2","70","14.4","8.9","-9999.0","-9999.0","80","East","10.0","6.2","1032","30.48","0.6","33.1","-9999","-9999","-9999.00","-9999.00","Overcast","cloudy","0","0","0","0","0","0","METAR UKKK 160030Z 08004MPS 9999 OVC040 04/M01 Q1032 R08/CLRD70 NOSIG"
"4:00 AM EEST on October 16, 2016","2016","10","16","04","00","Europe/Kiev","1:00 AM GMT on October 16, 2016","2016","10","16","01","00","UTC","4.0","39.2","-1.0","30.2","70","14.4","8.9","-9999.0","-9999.0","80","East","10.0","6.2","1032","30.48","0.6","33.1","-9999","-9999","-9999.00","-9999.00","Overcast","cloudy","0","0","0","0","0","0","METAR UKKK 160100Z 08004MPS 9999 OVC040 04/M01 Q1032 R08/CLRD70 NOSIG"
"4:30 AM EEST on October 16, 2016","2016","10","16","04","30","Europe/Kiev","1:30 AM GMT on October 16, 2016","2016","10","16","01","30","UTC","4.0","39.2","-1.0","30.2","70","14.4","8.9","-9999.0","-9999.0","80","East","10.0","6.2","1032","30.48","0.6","33.1","-9999","-9999","-9999.00","-9999.00","Overcast","cloudy","0","0","0","0","0","0","METAR UKKK 160130Z 08004MPS 9999 OVC030 04/M01 Q1032 R08/CLRD70 NOSIG"
"5:00 AM EEST on October 16, 2016","2016","10","16","05","00","Europe/Kiev","2:00 AM GMT on October 16, 2016","2016","10","16","02","00","UTC","4.0","39.2","-1.0","30.2","70","14.4","8.9","-9999.0","-9999.0","80","East","10.0","6.2","1032","30.48","0.6","33.1","-9999","-9999","-9999.00","-9999.00","Overcast","cloudy","0","0","0","0","0","0","METAR UKKK 160200Z 08004MPS 9999 OVC031 04/M01 Q1032 R08/CLRD70 NOSIG"
"5:30 AM EEST on October 16, 2016","2016","10","16","05","30","Europe/Kiev","2:30 AM GMT on October 16, 2016","2016","10","16","02","30","UTC","3.0","37.4","-1.0","30.2","75","10.8","6.7","-9999.0","-9999.0","90","East","10.0","6.2","1032","30.48","0.1","32.2","-9999","-9999","-9999.00","-9999.00","Overcast","cloudy","0","0","0","0","0","0","METAR UKKK 160230Z 09003MPS 9999 OVC031 03/M01 Q1032 R08/CLRD70 NOSIG"
"6:00 AM EEST on October 16, 2016","2016","10","16","06","00","Europe/Kiev","3:00 AM GMT on October 16, 2016","2016","10","16","03","00","UTC","4","39","-1","30","61","7.2","4.5","","","120","ESE","20","12","1033","30.51","-999","-999","-9999","-9999","","","Overcast","cloudy","0","0","0","0","0","0","AAXX 16031 33345 42598 81202 10037 21010 30122 40332 52005 885// 333 88628 555 10003"
"6:00 AM EEST on October 16, 2016","2016","10","16","06","00","Europe/Kiev","3:00 AM GMT on October 16, 2016","2016","10","16","03","00","UTC","3.0","37.4","0.0","32.0","81","10.8","6.7","-9999.0","-9999.0","90","East","10.0","6.2","1032","30.48","0.1","32.2","-9999","-9999","-9999.00","-9999.00","Overcast","cloudy","0","0","0","0","0","0","METAR UKKK 160300Z 09003MPS 9999 OVC032 03/M00 Q1032 R08/CLRD70 NOSIG"
"6:30 AM EEST on October 16, 2016","2016","10","16","06","30","Europe/Kiev","3:30 AM GMT on October 16, 2016","2016","10","16","03","30","UTC","3.0","37.4","-1.0","30.2","75","10.8","6.7","-9999.0","-9999.0","90","East","10.0","6.2","1032","30.48","0.1","32.2","-9999","-9999","-9999.00","-9999.00","Overcast","cloudy","0","0","0","0","0","0","METAR UKKK 160330Z 09003MPS 9999 OVC042 03/M01 Q1032 R08/CLRD70 NOSIG"
"7:00 AM EEST on October 16, 2016","2016","10","16","07","00","Europe/Kiev","4:00 AM GMT on October 16, 2016","2016","10","16","04","00","UTC","3.0","37.4","-1.0","30.2","75","10.8","6.7","-9999.0","-9999.0","80","East","10.0","6.2","1032","30.48","0.1","32.2","-9999","-9999","-9999.00","-9999.00","Overcast","cloudy","0","0","0","0","0","0","METAR UKKK 160400Z 08003MPS 9999 OVC043 03/M01 Q1032 R08/CLRD70 NOSIG"
"7:30 AM EEST on October 16, 2016","2016","10","16","07","30","Europe/Kiev","4:30 AM GMT on October 16, 2016","2016","10","16","04","30","UTC","3.0","37.4","-1.0","30.2","75","10.8","6.7","-9999.0","-9999.0","70","ENE","10.0","6.2","1032","30.48","0.1","32.2","-9999","-9999","-9999.00","-9999.00","Overcast","cloudy","0","0","0","0","0","0","METAR UKKK 160430Z 07003MPS 9999 OVC044 03/M01 Q1032 R08/CLRD70 NOSIG"
"8:00 AM EEST on October 16, 2016","2016","10","16","08","00","Europe/Kiev","5:00 AM GMT on October 16, 2016","2016","10","16","05","00","UTC","2.0","35.6","-1.0","30.2","81","10.8","6.7","-9999.0","-9999.0","70","ENE","10.0","6.2","1033","30.51","-1.1","30.0","-9999","-9999","-9999.00","-9999.00","Mostly Cloudy","mostlycloudy","0","0","0","0","0","0","METAR UKKK 160500Z 07003MPS 9999 BKN046 02/M01 Q1033 R08/CLRD70 NOSIG"
"8:30 AM EEST on October 16, 2016","2016","10","16","08","30","Europe/Kiev","5:30 AM GMT on October 16, 2016","2016","10","16","05","30","UTC","3.0","37.4","0.0","32.0","81","10.8","6.7","-9999.0","-9999.0","80","East","-9999.0","-9999.0","1033","30.51","0.1","32.2","-9999","-9999","-9999.00","-9999.00","Clear","clear","0","0","0","0","0","0","METAR UKKK 160530Z 08003MPS CAVOK 03/M00 Q1033 R08/CLRD70 NOSIG"
"9:00 AM EEST on October 16, 2016","2016","10","16","09","00","Europe/Kiev","6:00 AM GMT on October 16, 2016","2016","10","16","06","00","UTC","3","37","-1","31","71","7.2","4.5","","","60","ENE","20","12","1034","30.55","-999","-999","-9999","-9999","","","","","0","0","0","0","0","0","AAXX 16061 33345 32998 00602 10030 21006 30133 40344 52011 333 20019 555 10001 30001 52000"
"9:00 AM EEST on October 16, 2016","2016","10","16","09","00","Europe/Kiev","6:00 AM GMT on October 16, 2016","2016","10","16","06","00","UTC","4.0","39.2","-1.0","30.2","70","10.8","6.7","-9999.0","-9999.0","90","East","-9999.0","-9999.0","1033","30.51","1.3","34.4","-9999","-9999","-9999.00","-9999.00","Clear","clear","0","0","0","0","0","0","METAR UKKK 160600Z 09003MPS CAVOK 04/M01 Q1033 R08/CLRD70 NOSIG"
"9:30 AM EEST on October 16, 2016","2016","10","16","09","30","Europe/Kiev","6:30 AM GMT on October 16, 2016","2016","10","16","06","30","UTC","5.0","41.0","-1.0","30.2","65","10.8","6.7","-9999.0","-9999.0","80","East","-9999.0","-9999.0","1033","30.51","2.5","36.5","-9999","-9999","-9999.00","-9999.00","Clear","clear","0","0","0","0","0","0","METAR UKKK 160630Z 08003MPS 050V120 CAVOK 05/M01 Q1033 R08/CLRD70 NOSIG"
"10:00 AM EEST on October 16, 2016","2016","10","16","10","00","Europe/Kiev","7:00 AM GMT on October 16, 2016","2016","10","16","07","00","UTC","5.0","41.0","-1.0","30.2","65","14.4","8.9","-9999.0","-9999.0","80","East","-9999.0","-9999.0","1034","30.54","1.9","35.4","-9999","-9999","-9999.00","-9999.00","Clear","clear","0","0","0","0","0","0","METAR UKKK 160700Z 08004MPS CAVOK 05/M01 Q1034 R08/CLRD70 NOSIG"
"10:30 AM EEST on October 16, 2016","2016","10","16","10","30","Europe/Kiev","7:30 AM GMT on October 16, 2016","2016","10","16","07","30","UTC","6.0","42.8","-1.0","30.2","61","18.0","11.2","-9999.0","-9999.0","80","East","-9999.0","-9999.0","1034","30.54","2.6","36.7","-9999","-9999","-9999.00","-9999.00","Clear","clear","0","0","0","0","0","0","METAR UKKK 160730Z 08005MPS CAVOK 06/M01 Q1034 R08/CLRD70 NOSIG"
"11:00 AM EEST on October 16, 2016","2016","10","16","11","00","Europe/Kiev","8:00 AM GMT on October 16, 2016","2016","10","16","08","00","UTC","7.0","44.6","-1.0","30.2","57","18.0","11.2","-9999.0","-9999.0","80","East","-9999.0","-9999.0","1034","30.54","3.8","38.9","-9999","-9999","-9999.00","-9999.00","Clear","clear","0","0","0","0","0","0","METAR UKKK 160800Z 08005MPS CAVOK 07/M01 Q1034 R08/CLRD70 NOSIG"
"11:30 AM EEST on October 16, 2016","2016","10","16","11","30","Europe/Kiev","8:30 AM GMT on October 16, 2016","2016","10","16","08","30","UTC","7.0","44.6","-2.0","28.4","53","18.0","11.2","-9999.0","-9999.0","70","ENE","-9999.0","-9999.0","1034","30.54","3.8","38.9","-9999","-9999","-9999.00","-9999.00","Clear","clear","0","0","0","0","0","0","METAR UKKK 160830Z 07005MPS 040V110 CAVOK 07/M02 Q1034 R08/CLRD70 NOSIG"
"12:00 PM EEST on October 16, 2016","2016","10","16","12","00","Europe/Kiev","9:00 AM GMT on October 16, 2016","2016","10","16","09","00","UTC","7","45","-2","29","41","10.8","6.7","","","90","East","20","12","1035","30.57","-999","-999","-9999","-9999","","","Scattered Clouds","partlycloudy","0","0","0","0","0","0","AAXX 16091 33345 42698 10903 10072 21017 30143 40351 52010 81100 555 10016"
"12:00 PM EEST on October 16, 2016","2016","10","16","12","00","Europe/Kiev","9:00 AM GMT on October 16, 2016","2016","10","16","09","00","UTC","7.0","44.6","-2.0","28.4","53","18.0","11.2","-9999.0","-9999.0","80","East","-9999.0","-9999.0","1034","30.54","3.8","38.9","-9999","-9999","-9999.00","-9999.00","Clear","clear","0","0","0","0","0","0","METAR UKKK 160900Z 08005MPS 050V110 CAVOK 07/M02 Q1034 R08/CLRD70 NOSIG"
"12:30 PM EEST on October 16, 2016","2016","10","16","12","30","Europe/Kiev","9:30 AM GMT on October 16, 2016","2016","10","16","09","30","UTC","7.0","44.6","-2.0","28.4","53","18.0","11.2","-9999.0","-9999.0","80","East","-9999.0","-9999.0","1034","30.54","3.8","38.9","-9999","-9999","-9999.00","-9999.00","Clear","clear","0","0","0","0","0","0","METAR UKKK 160930Z 08005MPS 050V120 CAVOK 07/M02 Q1034 R08/CLRD70 NOSIG"
"1:00 PM EEST on October 16, 2016","2016","10","16","13","00","Europe/Kiev","10:00 AM GMT on October 16, 2016","2016","10","16","10","00","UTC","8.0","46.4","-1.0","30.2","53","14.4","8.9","-9999.0","-9999.0","80","East","10.0","6.2","1034","30.54","5.6","42.0","-9999","-9999","-9999.00","-9999.00","Scattered Clouds","partlycloudy","0","0","0","0","0","0","METAR UKKK 161000Z 08004MPS 030V120 9999 SCT036 08/M01 Q1034 R08/CLRD70 NOSIG"
"1:30 PM EEST on October 16, 2016","2016","10","16","13","30","Europe/Kiev","10:30 AM GMT on October 16, 2016","2016","10","16","10","30","UTC","8.0","46.4","-1.0","30.2","53","21.6","13.4","-9999.0","-9999.0","60","ENE","10.0","6.2","1034","30.54","4.7","40.5","-9999","-9999","-9999.00","-9999.00","Mostly Cloudy","mostlycloudy","0","0","0","0","0","0","METAR UKKK 161030Z 06006MPS 9999 BKN038 08/M01 Q1034 R08/CLRD70 NOSIG"
"2:00 PM EEST on October 16, 2016","2016","10","16","14","00","Europe/Kiev","11:00 AM GMT on October 16, 2016","2016","10","16","11","00","UTC","8.0","46.4","-1.0","30.2","53","14.4","8.9","-9999.0","-9999.0","90","East","10.0","6.2","1034","30.54","5.6","42.0","-9999","-9999","-9999.00","-9999.00","Mostly Cloudy","mostlycloudy","0","0","0","0","0","0","METAR UKKK 161100Z 09004MPS 050V130 9999 BKN038 08/M01 Q1034 R08/CLRD70 NOSIG"
"2:30 PM EEST on October 16, 2016","2016","10","16","14","30","Europe/Kiev","11:30 AM GMT on October 16, 2016","2016","10","16","11","30","UTC","8.0","46.4","-1.0","30.2","53","18.0","11.2","-9999.0","-9999.0","60","ENE","10.0","6.2","1034","30.54","5.1","41.2","-9999","-9999","-9999.00","-9999.00","Mostly Cloudy","mostlycloudy","0","0","0","0","0","0","METAR UKKK 161130Z 06005MPS 9999 BKN038 08/M01 Q1034 R08/CLRD70 NOSIG"
"3:00 PM EEST on October 16, 2016","2016","10","16","15","00","Europe/Kiev","12:00 PM GMT on October 16, 2016","2016","10","16","12","00","UTC","7","45","-1","30","44","7.2","4.5","","","80","East","20","12","1035","30.57","-999","-999","-9999","-9999","","","Partly Cloudy","partlycloudy","0","0","0","0","0","0","AAXX 16121 33345 32598 30802 10074 21011 30143 40351 54000 83200 555 10010"
"3:00 PM EEST on October 16, 2016","2016","10","16","15","00","Europe/Kiev","12:00 PM GMT on October 16, 2016","2016","10","16","12","00","UTC","8.0","46.4","0.0","32.0","57","14.4","8.9","-9999.0","-9999.0","80","East","10.0","6.2","1034","30.54","5.6","42.0","-9999","-9999","-9999.00","-9999.00","Mostly Cloudy","mostlycloudy","0","0","0","0","0","0","METAR UKKK 161200Z 08004MPS 9999 BKN038 08/M00 Q1034 R08/CLRD70 NOSIG"
"3:30 PM EEST on October 16, 2016","2016","10","16","15","30","Europe/Kiev","12:30 PM GMT on October 16, 2016","2016","10","16","12","30","UTC","8.0","46.4","-1.0","30.2","53","14.4","8.9","-9999.0","-9999.0","50","NE","10.0","6.2","1034","30.54","5.6","42.0","-9999","-9999","-9999.00","-9999.00","Mostly Cloudy","mostlycloudy","0","0","0","0","0","0","METAR UKKK 161230Z 05004MPS 9999 BKN038 08/M01 Q1034 R08/CLRD70 NOSIG"
"4:00 PM EEST on October 16, 2016","2016","10","16","16","00","Europe/Kiev","1:00 PM GMT on October 16, 2016","2016","10","16","13","00","UTC","8.0","46.4","-1.0","30.2","53","14.4","8.9","-9999.0","-9999.0","90","East","-9999.0","-9999.0","1034","30.54","5.6","42.0","-9999","-9999","-9999.00","-9999.00","Clear","clear","0","0","0","0","0","0","METAR UKKK 161300Z 09004MPS CAVOK 08/M01 Q1034 R08/CLRD70 NOSIG"
"4:30 PM EEST on October 16, 2016","2016","10","16","16","30","Europe/Kiev","1:30 PM GMT on October 16, 2016","2016","10","16","13","30","UTC","7.0","44.6","-1.0","30.2","57","18.0","11.2","-9999.0","-9999.0","70","ENE","-9999.0","-9999.0","1034","30.54","3.8","38.9","-9999","-9999","-9999.00","-9999.00","Clear","clear","0","0","0","0","0","0","METAR UKKK 161330Z 07005MPS CAVOK 07/M01 Q1034 R08/CLRD70 NOSIG"
"5:00 PM EEST on October 16, 2016","2016","10","16","17","00","Europe/Kiev","2:00 PM GMT on October 16, 2016","2016","10","16","14","00","UTC","8.0","46.4","-1.0","30.2","53","10.8","6.7","-9999.0","-9999.0","60","ENE","10.0","6.2","1034","30.54","6.1","43.0","-9999","-9999","-9999.00","-9999.00","Mostly Cloudy","mostlycloudy","0","0","0","0","0","0","METAR UKKK 161400Z 06003MPS 9999 BKN041 08/M01 Q1034 R08/CLRD70 NOSIG"
"5:30 PM EEST on October 16, 2016","2016","10","16","17","30","Europe/Kiev","2:30 PM GMT on October 16, 2016","2016","10","16","14","30","UTC","8.0","46.4","-1.0","30.2","53","14.4","8.9","-9999.0","-9999.0","80","East","-9999.0","-9999.0","1035","30.57","5.6","42.0","-9999","-9999","-9999.00","-9999.00","Clear","clear","0","0","0","0","0","0","METAR UKKK 161430Z 08004MPS CAVOK 08/M01 Q1035 R08/CLRD70 NOSIG"
"6:00 PM EEST on October 16, 2016","2016","10","16","18","00","Europe/Kiev","3:00 PM GMT on October 16, 2016","2016","10","16","15","00","UTC","7","44","-1","30","45","10.8","6.7","","","90","East","20","12","1036","30.59","-999","-999","-9999","-9999","","","Scattered Clouds","partlycloudy","0","0","0","0","0","0","AAXX 16151 33345 42798 20903 10066 21012 30149 40358 53006 82400 555 10005"
"6:00 PM EEST on October 16, 2016","2016","10","16","18","00","Europe/Kiev","3:00 PM GMT on October 16, 2016","2016","10","16","15","00","UTC","6.0","42.8","0.0","32.0","66","14.4","8.9","-9999.0","-9999.0","70","ENE","10.0","6.2","1035","30.57","3.1","37.6","-9999","-9999","-9999.00","-9999.00","Mostly Cloudy","mostlycloudy","0","0","0","0","0","0","METAR UKKK 161500Z 07004MPS 9999 BKN049 06/M00 Q1035 R08/CLRD70 NOSIG"
"6:30 PM EEST on October 16, 2016","2016","10","16","18","30","Europe/Kiev","3:30 PM GMT on October 16, 2016","2016","10","16","15","30","UTC","5.0","41.0","0.0","32.0","70","14.4","8.9","-9999.0","-9999.0","80","East","10.0","6.2","1035","30.57","1.9","35.4","-9999","-9999","-9999.00","-9999.00","Mostly Cloudy","mostlycloudy","0","0","0","0","0","0","METAR UKKK 161530Z 08004MPS 9999 BKN048 05/00 Q1035 R08/CLRD70 NOSIG"
"7:00 PM EEST on October 16, 2016","2016","10","16","19","00","Europe/Kiev","4:00 PM GMT on October 16, 2016","2016","10","16","16","00","UTC","5.0","41.0","1.0","33.8","76","10.8","6.7","-9999.0","-9999.0","70","ENE","10.0","6.2","1035","30.57","2.5","36.5","-9999","-9999","-9999.00","-9999.00","Mostly Cloudy","mostlycloudy","0","0","0","0","0","0","METAR UKKK 161600Z 07003MPS 9999 BKN042 05/01 Q1035 R08/CLRD70 NOSIG"
"7:30 PM EEST on October 16, 2016","2016","10","16","19","30","Europe/Kiev","4:30 PM GMT on October 16, 2016","2016","10","16","16","30","UTC","4.0","39.2","1.0","33.8","81","14.4","8.9","-9999.0","-9999.0","70","ENE","10.0","6.2","1036","30.60","0.6","33.1","-9999","-9999","-9999.00","-9999.00","Scattered Clouds","partlycloudy","0","0","0","0","0","0","METAR UKKK 161630Z 07004MPS 9999 SCT045 04/01 Q1036 R08/CLRD70 NOSIG"
"8:00 PM EEST on October 16, 2016","2016","10","16","20","00","Europe/Kiev","5:00 PM GMT on October 16, 2016","2016","10","16","17","00","UTC","3.0","37.4","1.0","33.8","87","14.4","8.9","-9999.0","-9999.0","80","East","10.0","6.2","1036","30.60","-0.6","30.9","-9999","-9999","-9999.00","-9999.00","Scattered Clouds","partlycloudy","0","0","0","0","0","0","METAR UKKK 161700Z 08004MPS 9999 SCT045 03/01 Q1036 R08/CLRD70 NOSIG"
"8:30 PM EEST on October 16, 2016","2016","10","16","20","30","Europe/Kiev","5:30 PM GMT on October 16, 2016","2016","10","16","17","30","UTC","2.0","35.6","0.0","32.0","87","10.8","6.7","-9999.0","-9999.0","90","East","-9999.0","-9999.0","1036","30.60","-1.1","30.0","-9999","-9999","-9999.00","-9999.00","Clear","clear","0","0","0","0","0","0","METAR UKKK 161730Z 09003MPS CAVOK 02/00 Q1036 R08/CLRD70 NOSIG"
"9:00 PM EEST on October 16, 2016","2016","10","16","21","00","Europe/Kiev","6:00 PM GMT on October 16, 2016","2016","10","16","18","00","UTC","3","37","1","33","80","0.0","0.0","","","","","20","12","1038","30.64","-999","-999","-9999","-9999","","","","","0","0","0","0","0","0","AAXX 16181 33345 32998 00000 10027 20006 30163 40375 52014 333 10092 555 10000"
"9:00 PM EEST on October 16, 2016","2016","10","16","21","00","Europe/Kiev","6:00 PM GMT on October 16, 2016","2016","10","16","18","00","UTC","2.0","35.6","1.0","33.8","93","7.2","4.5","-9999.0","-9999.0","90","East","9.0","5.6","1036","30.60","-0.1","31.8","-9999","-9999","-9999.00","-9999.00","Unknown","unknown","0","0","0","0","0","0","METAR UKKK 161800Z 09002MPS 9000 NSC 02/01 Q1036 R08/CLRD70 NOSIG"
"9:30 PM EEST on October 16, 2016","2016","10","16","21","30","Europe/Kiev","6:30 PM GMT on October 16, 2016","2016","10","16","18","30","UTC","2.0","35.6","0.0","32.0","87","7.2","4.5","-9999.0","-9999.0","90","East","-9999.0","-9999.0","1036","30.60","-0.1","31.8","-9999","-9999","-9999.00","-9999.00","Clear","clear","0","0","0","0","0","0","METAR UKKK 161830Z 09002MPS CAVOK 02/00 Q1036 R08/CLRD70 NOSIG"
"10:00 PM EEST on October 16, 2016","2016","10","16","22","00","Europe/Kiev","7:00 PM GMT on October 16, 2016","2016","10","16","19","00","UTC","2.0","35.6","1.0","33.8","93","7.2","4.5","-9999.0","-9999.0","90","East","-9999.0","-9999.0","1037","30.63","-0.1","31.8","-9999","-9999","-9999.00","-9999.00","Clear","clear","0","0","0","0","0","0","METAR UKKK 161900Z 09002MPS CAVOK 02/01 Q1037 R08/CLRD70 NOSIG"
"10:30 PM EEST on October 16, 2016","2016","10","16","22","30","Europe/Kiev","7:30 PM GMT on October 16, 2016","2016","10","16","19","30","UTC","1.0","33.8","0.0","32.0","93","7.2","4.5","-9999.0","-9999.0","70","ENE","-9999.0","-9999.0","1037","30.63","-1.3","29.7","-9999","-9999","-9999.00","-9999.00","Clear","clear","0","0","0","0","0","0","METAR UKKK 161930Z 07002MPS CAVOK 01/00 Q1037 R08/CLRD70 NOSIG"
"11:00 PM EEST on October 16, 2016","2016","10","16","23","00","Europe/Kiev","8:00 PM GMT on October 16, 2016","2016","10","16","20","00","UTC","1.0","33.8","0.0","32.0","93","7.2","4.5","-9999.0","-9999.0","80","East","-9999.0","-9999.0","1037","30.63","-1.3","29.7","-9999","-9999","-9999.00","-9999.00","Clear","clear","0","0","0","0","0","0","METAR UKKK 162000Z 08002MPS CAVOK 01/M00 Q1037 R08/CLRD70 TEMPO 1000 BR"
"11:30 PM EEST on October 16, 2016","2016","10","16","23","30","Europe/Kiev","8:30 PM GMT on October 16, 2016","2016","10","16","20","30","UTC","0.0","32.0","-1.0","30.2","93","3.6","2.2","-9999.0","-9999.0","0","Variable","5.0","3.1","1037","30.63","-999","-999","-9999","-9999","-9999.00","-9999.00","Mist","hazy","0","0","0","0","0","0","METAR UKKK 162030Z VRB01MPS 5000 BR NSC M00/M01 Q1037 R08/CLRD70 BECMG 0400 FZFG VV001"
"12:00 AM EEST on October 17, 2016","2016","10","17","00","00","Europe/Kiev","9:00 PM GMT on October 16, 2016","2016","10","16","21","00","UTC","2","36","0","32","81","0.0","0.0","","","","","10","6","1039","30.68","-999","-999","-9999","-9999","","","","","0","0","0","0","0","0","AAXX 16211 33345 42997 00000 10020 20001 30175 40388 52012 555 11101"
"12:00 AM EEST on October 17, 2016","2016","10","17","00","00","Europe/Kiev","9:00 PM GMT on October 16, 2016","2016","10","16","21","00","UTC","-2.0","28.4","-2.0","28.4","100","3.6","2.2","-9999.0","-9999.0","100","East","-9999.0","-9999.0","1038","30.66","-999","-999","-9999","-9999","-9999.00","-9999.00","Clear","clear","0","0","0","0","0","0","METAR UKKK 162100Z 10001MPS 4600 BR SKC M02/M02 Q1038 R08/CLRD70 BECMG 0400 FZFG VV001"
"12:30 AM EEST on October 17, 2016","2016","10","17","00","30","Europe/Kiev","9:30 PM GMT on October 16, 2016","2016","10","16","21","30","UTC","-1.0","30.2","-2.0","28.4","93","0.0","0.0","-9999.0","-9999.0","0","North","7.0","4.3","1038","30.66","-999","-999","-9999","-9999","-9999.00","-9999.00","Clear","clear","0","0","0","0","0","0","METAR UKKK 162130Z 00000MPS 7000 SKC M01/M02 Q1038 R08/CLRD70 BECMG 0400 FZFG VV001"
"1:00 AM EEST on October 17, 2016","2016","10","17","01","00","Europe/Kiev","10:00 PM GMT on October 16, 2016","2016","10","16","22","00","UTC","-1.0","30.2","-2.0","28.4","93","0.0","0.0","-9999.0","-9999.0","0","North","2.2","1.4","1038","30.66","-999","-999","-9999","-9999","-9999.00","-9999.00","Clear","clear","0","0","0","0","0","0","METAR UKKK 162200Z 00000MPS 2200 BR SKC M01/M02 Q1038 R08/CLRD70 BECMG 0400 FZFG VV001"
"1:30 AM EEST on October 17, 2016","2016","10","17","01","30","Europe/Kiev","10:30 PM GMT on October 16, 2016","2016","10","16","22","30","UTC","-1.0","30.2","-2.0","28.4","93","0.0","0.0","-9999.0","-9999.0","0","North","1.2","0.7","1038","30.66","-999","-999","-9999","-9999","-9999.00","-9999.00","Clear","clear","0","0","0","0","0","0","METAR UKKK 162230Z 00000MPS 1200 R08/1200VP2000D BR SKC M01/M02 Q1038 R08/CLRD70 BECMG 0400 FZFG VV001"
"1:34 AM EEST on October 17, 2016","2016","10","17","01","34","Europe/Kiev","10:34 PM GMT on October 16, 2016","2016","10","16","22","34","UTC","-1.0","30.2","-1.0","30.2","100","0.0","0.0","-9999.0","-9999.0","0","North","1.2","0.7","1038","30.66","-999","-999","-9999","-9999","-9999.00","-9999.00","Clear","clear","0","0","0","0","0","0","SPECI UKKK 162234Z 00000MPS 1200 R08/0900VP2000D BR SKC M01/M01 Q1038 R08/CLRD70 BECMG 0400 FZFG VV001"
"1:35 AM EEST on October 17, 2016","2016","10","17","01","35","Europe/Kiev","10:35 PM GMT on October 16, 2016","2016","10","16","22","35","UTC","-1.0","30.2","-1.0","30.2","100","0.0","0.0","-9999.0","-9999.0","0","North","0.4","0.3","1038","30.66","-999","-999","-9999","-9999","-9999.00","-9999.00","Light Freezing Fog","fog","1","0","0","0","0","0","SPECI UKKK 162235Z 00000MPS 0450 R08/1000VP2000D FZFG SKC M01/M01 Q1038 R08/CLRD70 BECMG 0400 FZFG VV001"
"1:49 AM EEST on October 17, 2016","2016","10","17","01","49","Europe/Kiev","10:49 PM GMT on October 16, 2016","2016","10","16","22","49","UTC","-1.0","30.2","-2.0","28.4","93","3.6","2.2","-9999.0","-9999.0","80","East","-9999.0","-9999.0","1038","30.66","-999","-999","-9999","-9999","-9999.00","-9999.00","Clear","clear","0","0","0","0","0","0","SPECI UKKK 162249Z 08001MPS 4300 BR SKC M01/M02 Q1038 REFZFG R08/CLRD70 BECMG 0400 FZFG VV001"
"2:00 AM EEST on October 17, 2016","2016","10","17","02","00","Europe/Kiev","11:00 PM GMT on October 16, 2016","2016","10","16","23","00","UTC","-2.0","28.4","-2.0","28.4","100","3.6","2.2","-9999.0","-9999.0","90","East","3.5","2.2","1038","30.66","-999","-999","-9999","-9999","-9999.00","-9999.00","Clear","clear","0","0","0","0","0","0","METAR UKKK 162300Z 09001MPS 3500 BR SKC M02/M02 Q1038 R08/CLRD70 BECMG 0400 FZFG VV001"
"2:30 AM EEST on October 17, 2016","2016","10","17","02","30","Europe/Kiev","11:30 PM GMT on October 16, 2016","2016","10","16","23","30","UTC","-1.0","30.2","-1.0","30.2","100","7.2","4.5","-9999.0","-9999.0","80","East","9.0","5.6","1038","30.66","-3.6","25.5","-9999","-9999","-9999.00","-9999.00","Clear","clear","0","0","0","0","0","0","METAR UKKK 162330Z 08002MPS 9000 SKC M01/M01 Q1038 R08/CLRD70 BECMG 0400 FZFG VV001"
"3:00 AM EEST on October 17, 2016","2016","10","17","03","00","Europe/Kiev","12:00 AM GMT on October 17, 2016","2016","10","17","00","00","UTC","1","34","-0","31","86","0.0","0.0","","","","","10","6","1040","30.71","-999","-999","-9999","-9999","","","","","0","0","0","0","0","0","AAXX 17001 33345 32997 00000 10010 21004 30183 40397 52008 555 11102"
"3:00 AM EEST on October 17, 2016","2016","10","17","03","00","Europe/Kiev","12:00 AM GMT on October 17, 2016","2016","10","17","00","00","UTC","-3.0","26.6","-3.0","26.6","100","7.2","4.5","-9999.0","-9999.0","100","East","9.0","5.6","1038","30.66","-5.9","21.3","-9999","-9999","-9999.00","-9999.00","Clear","clear","0","0","0","0","0","0","METAR UKKK 170000Z 10002MPS 9000 SKC M03/M03 Q1038 R08/CLRD70 BECMG 0400 FZFG VV001"
"3:30 AM EEST on October 17, 2016","2016","10","17","03","30","Europe/Kiev","12:30 AM GMT on October 17, 2016","2016","10","17","00","30","UTC","-2.0","28.4","-2.0","28.4","100","10.8","6.7","-9999.0","-9999.0","80","East","8.0","5.0","1038","30.66","-5.9","21.4","-9999","-9999","-9999.00","-9999.00","Clear","clear","0","0","0","0","0","0","METAR UKKK 170030Z 08003MPS 8000 SKC M02/M02 Q1038 R08/CLRD70 BECMG 0400 FZFG VV001"
"4:00 AM EEST on October 17, 2016","2016","10","17","04","00","Europe/Kiev","1:00 AM GMT on October 17, 2016","2016","10","17","01","00","UTC","-2.0","28.4","-3.0","26.6","93","7.2","4.5","-9999.0","-9999.0","90","East","9.0","5.6","1038","30.66","-4.8","23.4","-9999","-9999","-9999.00","-9999.00","Clear","clear","0","0","0","0","0","0","METAR UKKK 170100Z 09002MPS 9000 SKC M02/M03 Q1038 R08/CLRD70 BECMG 0400 FZFG VV001"
"4:30 AM EEST on October 17, 2016","2016","10","17","04","30","Europe/Kiev","1:30 AM GMT on October 17, 2016","2016","10","17","01","30","UTC","-1.0","30.2","-1.0","30.2","100","3.6","2.2","-9999.0","-9999.0","0","Variable","5.0","3.1","1038","30.66","-999","-999","-9999","-9999","-9999.00","-9999.00","Clear","clear","0","0","0","0","0","0","METAR UKKK 170130Z VRB01MPS 5000 BR SKC M01/M01 Q1038 R08/CLRD70 BECMG 0400 FZFG VV001"
"5:00 AM EEST on October 17, 2016","2016","10","17","05","00","Europe/Kiev","2:00 AM GMT on October 17, 2016","2016","10","17","02","00","UTC","-2.0","28.4","-2.0","28.4","100","0.0","0.0","-9999.0","-9999.0","0","North","6.0","3.7","1038","30.66","-999","-999","-9999","-9999","-9999.00","-9999.00","Clear","clear","0","0","0","0","0","0","METAR UKKK 170200Z 00000MPS 6000 SKC M02/M02 Q1038 R08/CLRD70 TEMPO 1500 BR"
"5:30 AM EEST on October 17, 2016","2016","10","17","05","30","Europe/Kiev","2:30 AM GMT on October 17, 2016","2016","10","17","02","30","UTC","-3.0","26.6","-3.0","26.6","100","0.0","0.0","-9999.0","-9999.0","0","North","4.0","2.5","1038","30.66","-999","-999","-9999","-9999","-9999.00","-9999.00","Clear","clear","0","0","0","0","0","0","METAR UKKK 170230Z 00000MPS 4000 BR SKC M03/M03 Q1038 R08/CLRD70 TEMPO 1500 BR"
"6:00 AM EEST on October 17, 2016","2016","10","17","06","00","Europe/Kiev","3:00 AM GMT on October 17, 2016","2016","10","17","03","00","UTC","0","32","-1","30","91","0.0","0.0","","","","","4","2","1040","30.71","-999","-999","-9999","-9999","","","Mist","hazy","0","0","0","0","0","0","AAXX 17031 33345 41996 00000 10000 21009 30185 40400 52002 71000 555 11102"
"6:00 AM EEST on October 17, 2016","2016","10","17","06","00","Europe/Kiev","3:00 AM GMT on October 17, 2016","2016","10","17","03","00","UTC","-3.0","26.6","-3.0","26.6","100","0.0","0.0","-9999.0","-9999.0","0","North","-9999.0","-9999.0","1039","30.69","-999","-999","-9999","-9999","-9999.00","-9999.00","Clear","clear","0","0","0","0","0","0","METAR UKKK 170300Z 00000MPS 4800 BR SKC M03/M03 Q1039 R08/CLRD70 TEMPO 1500 BR"
"6:23 AM EEST on October 17, 2016","2016","10","17","06","23","Europe/Kiev","3:23 AM GMT on October 17, 2016","2016","10","17","03","23","UTC","-3.0","26.6","-3.0","26.6","100","0.0","0.0","-9999.0","-9999.0","0","North","1.1","0.7","1039","30.69","-999","-999","-9999","-9999","-9999.00","-9999.00","Clear","clear","0","0","0","0","0","0","SPECI UKKK 170323Z 00000MPS 1100 R08/P2000D BR SKC M03/M03 Q1039 R08/CLRD70 TEMPO 1500 BR"
"6:25 AM EEST on October 17, 2016","2016","10","17","06","25","Europe/Kiev","3:25 AM GMT on October 17, 2016","2016","10","17","03","25","UTC","-3.0","26.6","-3.0","26.6","100","0.0","0.0","-9999.0","-9999.0","0","North","0.1","0.1","1039","30.69","-999","-999","-9999","-9999","-9999.00","-9999.00","Light Freezing Fog","fog","1","0","0","0","0","0","SPECI UKKK 170325Z 00000MPS 0150 R08/P2000D FZFG SKC M03/M03 Q1039 R08/CLRD70 BECMG 0400 FZFG VV001"
"6:30 AM EEST on October 17, 2016","2016","10","17","06","30","Europe/Kiev","3:30 AM GMT on October 17, 2016","2016","10","17","03","30","UTC","-3.0","26.6","-4.0","24.8","93","0.0","0.0","-9999.0","-9999.0","0","North","-9999.0","-9999.0","1039","30.69","-999","-999","-9999","-9999","-9999.00","-9999.00","Light Freezing Fog","fog","1","0","0","0","0","0","METAR UKKK 170330Z 00000MPS 0650 R08/P2000D FZFG SKC M03/M04 Q1039 R08/CLRD70 NOSIG"
"6:47 AM EEST on October 17, 2016","2016","10","17","06","47","Europe/Kiev","3:47 AM GMT on October 17, 2016","2016","10","17","03","47","UTC","-2.0","28.4","-3.0","26.6","93","0.0","0.0","-9999.0","-9999.0","0","North","-9999.0","-9999.0","1039","30.69","-999","-999","-9999","-9999","-9999.00","-9999.00","Clear","clear","0","0","0","0","0","0","SPECI UKKK 170347Z 00000MPS 4400 BR SKC M02/M03 Q1039 REFZFG R08/CLRD70 NOSIG"
"7:00 AM EEST on October 17, 2016","2016","10","17","07","00","Europe/Kiev","4:00 AM GMT on October 17, 2016","2016","10","17","04","00","UTC","-2.0","28.4","-3.0","26.6","93","0.0","0.0","-9999.0","-9999.0","0","North","1.6","1.0","1039","30.69","-999","-999","-9999","-9999","-9999.00","-9999.00","Clear","clear","0","0","0","0","0","0","METAR UKKK 170400Z 00000MPS 1600 BR SKC M02/M03 Q1039 R08/CLRD70 BECMG 0400 FZFG"
"7:03 AM EEST on October 17, 2016","2016","10","17","07","03","Europe/Kiev","4:03 AM GMT on October 17, 2016","2016","10","17","04","03","UTC","-3.0","26.6","-3.0","26.6","100","0.0","0.0","-9999.0","-9999.0","0","North","1.3","0.8","1039","30.69","-999","-999","-9999","-9999","-9999.00","-9999.00","Clear","clear","0","0","0","0","0","0","SPECI UKKK 170403Z 00000MPS 1300 R08/P2000D BR SKC M03/M03 Q1039 R08/CLRD70 BECMG 0400 FZFG"
"7:05 AM EEST on October 17, 2016","2016","10","17","07","05","Europe/Kiev","4:05 AM GMT on October 17, 2016","2016","10","17","04","05","UTC","-3.0","26.6","-4.0","24.8","93","0.0","0.0","-9999.0","-9999.0","0","North","0.6","0.4","1039","30.69","-999","-999","-9999","-9999","-9999.00","-9999.00","Light Freezing Fog","fog","1","0","0","0","0","0","SPECI UKKK 170405Z 00000MPS 0600 R08/P2000D FZFG SKC M03/M04 Q1039 R08/CLRD70 BECMG 0400 FZFG"
"7:30 AM EEST on October 17, 2016","2016","10","17","07","30","Europe/Kiev","4:30 AM GMT on October 17, 2016","2016","10","17","04","30","UTC","-3.0","26.6","-4.0","24.8","93","0.0","0.0","-9999.0","-9999.0","0","North","2.8","1.7","1039","30.69","-999","-999","-9999","-9999","-9999.00","-9999.00","Clear","clear","0","0","0","0","0","0","METAR UKKK 170430Z 00000MPS 2800 BR SKC M03/M04 Q1039 REFZFG R08/CLRD70 BECMG 0400 FZFG"
"7:34 AM EEST on October 17, 2016","2016","10","17","07","34","Europe/Kiev","4:34 AM GMT on October 17, 2016","2016","10","17","04","34","UTC","-3.0","26.6","-4.0","24.8","93","0.0","0.0","-9999.0","-9999.0","0","North","1.2","0.7","1039","30.69","-999","-999","-9999","-9999","-9999.00","-9999.00","Clear","clear","0","0","0","0","0","0","SPECI UKKK 170434Z 00000MPS 1200 R08/P2000D BR SKC M03/M04 Q1039 R08/CLRD70 BECMG 0400 FZFG"
"7:35 AM EEST on October 17, 2016","2016","10","17","07","35","Europe/Kiev","4:35 AM GMT on October 17, 2016","2016","10","17","04","35","UTC","-3.0","26.6","-4.0","24.8","93","0.0","0.0","-9999.0","-9999.0","0","North","0.3","0.2","1039","30.69","-999","-999","-9999","-9999","-9999.00","-9999.00","Light Freezing Fog","fog","1","0","0","0","0","0","SPECI UKKK 170435Z 00000MPS 0350 R08/P2000D FZFG SKC M03/M04 Q1039 R08/CLRD70 BECMG 0400 FZFG"
"7:50 AM EEST on October 17, 2016","2016","10","17","07","50","Europe/Kiev","4:50 AM GMT on October 17, 2016","2016","10","17","04","50","UTC","-3.0","26.6","-3.0","26.6","100","0.0","0.0","-9999.0","-9999.0","0","North","2.4","1.5","1039","30.69","-999","-999","-9999","-9999","-9999.00","-9999.00","Clear","clear","0","0","0","0","0","0","SPECI UKKK 170450Z 00000MPS 2400 BR SKC M03/M03 Q1039 REFZFG R08/CLRD70 BECMG 0400 FZFG"
"8:00 AM EEST on October 17, 2016","2016","10","17","08","00","Europe/Kiev","5:00 AM GMT on October 17, 2016","2016","10","17","05","00","UTC","-3.0","26.6","-3.0","26.6","100","0.0","0.0","-9999.0","-9999.0","0","North","4.0","2.5","1039","30.69","-999","-999","-9999","-9999","-9999.00","-9999.00","Clear","clear","0","0","0","0","0","0","METAR UKKK 170500Z 00000MPS 4000 BR SKC M03/M03 Q1039 R08/CLRD70 BECMG 0400 FZFG"
"8:30 AM EEST on October 17, 2016","2016","10","17","08","30","Europe/Kiev","5:30 AM GMT on October 17, 2016","2016","10","17","05","30","UTC","-1.0","30.2","-1.0","30.2","100","0.0","0.0","-9999.0","-9999.0","0","North","5.0","3.1","1039","30.69","-999","-999","-9999","-9999","-9999.00","-9999.00","Clear","clear","0","0","0","0","0","0","METAR UKKK 170530Z 00000MPS 5000 BR SKC M01/M01 Q1039 R08/CLRD70 NOSIG"
"9:00 AM EEST on October 17, 2016","2016","10","17","09","00","Europe/Kiev","6:00 AM GMT on October 17, 2016","2016","10","17","06","00","UTC","1","34","-1","31","84","3.6","2.2","","","80","East","4","2","1041","30.74","-999","-999","-9999","-9999","","","Mist","hazy","0","0","0","0","0","0","AAXX 17061 33345 31996 00801 10011 21006 30196 40410 52011 71000 333 21007 555 14101 34102 52105"
"9:00 AM EEST on October 17, 2016","2016","10","17","09","00","Europe/Kiev","6:00 AM GMT on October 17, 2016","2016","10","17","06","00","UTC","2.0","35.6","0.0","32.0","87","3.6","2.2","-9999.0","-9999.0","0","Variable","6.0","3.7","1040","30.71","-999","-999","-9999","-9999","-9999.00","-9999.00","Clear","clear","0","0","0","0","0","0","METAR UKKK 170600Z VRB01MPS 6000 SKC 02/00 Q1040 R08/CLRD70 NOSIG"
"9:30 AM EEST on October 17, 2016","2016","10","17","09","30","Europe/Kiev","6:30 AM GMT on October 17, 2016","2016","10","17","06","30","UTC","3.0","37.4","1.0","33.8","87","3.6","2.2","-9999.0","-9999.0","0","Variable","-9999.0","-9999.0","1040","30.71","-999","-999","-9999","-9999","-9999.00","-9999.00","Clear","clear","0","0","0","0","0","0","METAR UKKK 170630Z VRB01MPS CAVOK 03/01 Q1040 R08/CLRD70 NOSIG"
"10:00 AM EEST on October 17, 2016","2016","10","17","10","00","Europe/Kiev","7:00 AM GMT on October 17, 2016","2016","10","17","07","00","UTC","4.0","39.2","1.0","33.8","81","3.6","2.2","-9999.0","-9999.0","0","Variable","-9999.0","-9999.0","1040","30.71","-999","-999","-9999","-9999","-9999.00","-9999.00","Clear","clear","0","0","0","0","0","0","METAR UKKK 170700Z VRB01MPS CAVOK 04/01 Q1040 R08/CLRD70 NOSIG"
"10:30 AM EEST on October 17, 2016","2016","10","17","10","30","Europe/Kiev","7:30 AM GMT on October 17, 2016","2016","10","17","07","30","UTC","5.0","41.0","1.0","33.8","76","7.2","4.5","-9999.0","-9999.0","80","East","-9999.0","-9999.0","1040","30.71","3.4","38.1","-9999","-9999","-9999.00","-9999.00","Clear","clear","0","0","0","0","0","0","METAR UKKK 170730Z 08002MPS 050V120 CAVOK 05/01 Q1040 R08/CLRD70 NOSIG"
"11:00 AM EEST on October 17, 2016","2016","10","17","11","00","Europe/Kiev","8:00 AM GMT on October 17, 2016","2016","10","17","08","00","UTC","6.0","42.8","1.0","33.8","70","7.2","4.5","-9999.0","-9999.0","80","East","-9999.0","-9999.0","1040","30.71","4.5","40.2","-9999","-9999","-9999.00","-9999.00","Clear","clear","0","0","0","0","0","0","METAR UKKK 170800Z 08002MPS 040V120 CAVOK 06/01 Q1040 R08/CLRD70 NOSIG"
"11:30 AM EEST on October 17, 2016","2016","10","17","11","30","Europe/Kiev","8:30 AM GMT on October 17, 2016","2016","10","17","08","30","UTC","7.0","44.6","0.0","32.0","61","7.2","4.5","-9999.0","-9999.0","80","East","-9999.0","-9999.0","1040","30.71","5.7","42.3","-9999","-9999","-9999.00","-9999.00","Clear","clear","0","0","0","0","0","0","METAR UKKK 170830Z 08002MPS 040V130 CAVOK 07/00 Q1040 R08/CLRD70 NOSIG"
"12:00 PM EEST on October 17, 2016","2016","10","17","12","00","Europe/Kiev","9:00 AM GMT on October 17, 2016","2016","10","17","09","00","UTC","8","46","1","34","52","7.2","4.5","","","80","East","20","12","1041","30.75","-999","-999","-9999","-9999","","","Partly Cloudy","partlycloudy","0","0","0","0","0","0","AAXX 17091 33345 42598 40802 10076 20011 30202 40411 52006 83801 555 10015"
"12:00 PM EEST on October 17, 2016","2016","10","17","12","00","Europe/Kiev","9:00 AM GMT on October 17, 2016","2016","10","17","09","00","UTC","6.0","42.8","-1.0","30.2","61","7.2","4.5","-9999.0","-9999.0","90","East","-9999.0","-9999.0","1040","30.71","4.5","40.2","-9999","-9999","-9999.00","-9999.00","Clear","clear","0","0","0","0","0","0","METAR UKKK 170900Z 09002MPS CAVOK 06/M01 Q1040 R08/CLRD70 NOSIG"
"12:30 PM EEST on October 17, 2016","2016","10","17","12","30","Europe/Kiev","9:30 AM GMT on October 17, 2016","2016","10","17","09","30","UTC","6.0","42.8","0.0","32.0","66","14.4","8.9","-9999.0","-9999.0","100","East","-9999.0","-9999.0","1040","30.71","3.1","37.6","-9999","-9999","-9999.00","-9999.00","Clear","clear","0","0","0","0","0","0","METAR UKKK 170930Z 10004MPS 060V140 CAVOK 06/M00 Q1040 R26/CLRD70 NOSIG"
"1:00 PM EEST on October 17, 2016","2016","10","17","13","00","Europe/Kiev","10:00 AM GMT on October 17, 2016","2016","10","17","10","00","UTC","7.0","44.6","0.0","32.0","61","14.4","8.9","-9999.0","-9999.0","90","East","10.0","6.2","1040","30.71","4.3","39.8","-9999","-9999","-9999.00","-9999.00","Scattered Clouds","partlycloudy","0","0","0","0","0","0","METAR UKKK 171000Z 09004MPS 060V130 9999 SCT036 07/M00 Q1040 R26/CLRD70 NOSIG"
"1:30 PM EEST on October 17, 2016","2016","10","17","13","30","Europe/Kiev","10:30 AM GMT on October 17, 2016","2016","10","17","10","30","UTC","7.0","44.6","-1.0","30.2","57","10.8","6.7","-9999.0","-9999.0","70","ENE","10.0","6.2","1040","30.71","4.9","40.8","-9999","-9999","-9999.00","-9999.00","Mostly Cloudy","mostlycloudy","0","0","0","0","0","0","METAR UKKK 171030Z 07003MPS 9999 BKN033 07/M01 Q1040 R08/CLRD70 NOSIG"
"2:00 PM EEST on October 17, 2016","2016","10","17","14","00","Europe/Kiev","11:00 AM GMT on October 17, 2016","2016","10","17","11","00","UTC","7.0","44.6","-1.0","30.2","57","10.8","6.7","-9999.0","-9999.0","70","ENE","10.0","6.2","1039","30.69","4.9","40.8","-9999","-9999","-9999.00","-9999.00","Mostly Cloudy","mostlycloudy","0","0","0","0","0","0","METAR UKKK 171100Z 07003MPS 040V100 9999 BKN040 07/M01 Q1039 R08/CLRD70 NOSIG"
"2:30 PM EEST on October 17, 2016","2016","10","17","14","30","Europe/Kiev","11:30 AM GMT on October 17, 2016","2016","10","17","11","30","UTC","7.0","44.6","-1.0","30.2","57","7.2","4.5","-9999.0","-9999.0","120","ESE","10.0","6.2","1039","30.69","5.7","42.3","-9999","-9999","-9999.00","-9999.00","Mostly Cloudy","mostlycloudy","0","0","0","0","0","0","METAR UKKK 171130Z 12002MPS 9999 BKN043 07/M01 Q1039 R08/CLRD70 NOSIG"
"3:00 PM EEST on October 17, 2016","2016","10","17","15","00","Europe/Kiev","12:00 PM GMT on October 17, 2016","2016","10","17","12","00","UTC","8","47","-2","29","37","7.2","4.5","","","170","South","20","12","1040","30.71","-999","-999","-9999","-9999","","","Mostly Cloudy","mostlycloudy","0","0","0","0","0","0","AAXX 17121 33345 32598 61702 10085 21016 30192 40400 58010 86900 555 10016"
"3:00 PM EEST on October 17, 2016","2016","10","17","15","00","Europe/Kiev","12:00 PM GMT on October 17, 2016","2016","10","17","12","00","UTC","7.0","44.6","-1.0","30.2","57","7.2","4.5","-9999.0","-9999.0","130","SE","10.0","6.2","1039","30.69","5.7","42.3","-9999","-9999","-9999.00","-9999.00","Mostly Cloudy","mostlycloudy","0","0","0","0","0","0","METAR UKKK 171200Z 13002MPS 100V180 9999 BKN041 07/M01 Q1039 R08/CLRD70 NOSIG"
"3:30 PM EEST on October 17, 2016","2016","10","17","15","30","Europe/Kiev","12:30 PM GMT on October 17, 2016","2016","10","17","12","30","UTC","7.0","44.6","-1.0","30.2","57","7.2","4.5","-9999.0","-9999.0","150","SSE","10.0","6.2","1039","30.69","5.7","42.3","-9999","-9999","-9999.00","-9999.00","Mostly Cloudy","mostlycloudy","0","0","0","0","0","0","METAR UKKK 171230Z 15002MPS 080V200 9999 BKN042 07/M01 Q1039 R26/CLRD70 NOSIG"
"4:00 PM EEST on October 17, 2016","2016","10","17","16","00","Europe/Kiev","1:00 PM GMT on October 17, 2016","2016","10","17","13","00","UTC","7.0","44.6","-2.0","28.4","53","7.2","4.5","-9999.0","-9999.0","90","East","10.0","6.2","1039","30.69","5.7","42.3","-9999","-9999","-9999.00","-9999.00","Mostly Cloudy","mostlycloudy","0","0","0","0","0","0","METAR UKKK 171300Z 09002MPS 060V120 9999 BKN043 07/M02 Q1039 R08/CLRD70 NOSIG"
"4:30 PM EEST on October 17, 2016","2016","10","17","16","30","Europe/Kiev","1:30 PM GMT on October 17, 2016","2016","10","17","13","30","UTC","7.0","44.6","-1.0","30.2","57","7.2","4.5","-9999.0","-9999.0","110","ESE","10.0","6.2","1039","30.69","5.7","42.3","-9999","-9999","-9999.00","-9999.00","Mostly Cloudy","mostlycloudy","0","0","0","0","0","0","METAR UKKK 171330Z 11002MPS 080V140 9999 BKN045 07/M01 Q1039 R08/CLRD70 NOSIG"
"5:00 PM EEST on October 17, 2016","2016","10","17","17","00","Europe/Kiev","2:00 PM GMT on October 17, 2016","2016","10","17","14","00","UTC","7.0","44.6","-1.0","30.2","57","7.2","4.5","-9999.0","-9999.0","90","East","10.0","6.2","1039","30.69","5.7","42.3","-9999","-9999","-9999.00","-9999.00","Mostly Cloudy","mostlycloudy","0","0","0","0","0","0","METAR UKKK 171400Z 09002MPS 9999 BKN043 07/M01 Q1039 R08/CLRD70 NOSIG"
"5:30 PM EEST on October 17, 2016","2016","10","17","17","30","Europe/Kiev","2:30 PM GMT on October 17, 2016","2016","10","17","14","30","UTC","6.0","42.8","0.0","32.0","66","10.8","6.7","-9999.0","-9999.0","90","East","10.0","6.2","1038","30.66","3.7","38.7","-9999","-9999","-9999.00","-9999.00","Mostly Cloudy","mostlycloudy","0","0","0","0","0","0","METAR UKKK 171430Z 09003MPS 9999 BKN044 06/M00 Q1038 R08/CLRD70 NOSIG"
"6:00 PM EEST on October 17, 2016","2016","10","17","18","00","Europe/Kiev","3:00 PM GMT on October 17, 2016","2016","10","17","15","00","UTC","6","43","-0","31","52","3.6","2.2","","","100","East","20","12","1040","30.70","-999","-999","-9999","-9999","","","Mostly Cloudy","mostlycloudy","0","0","0","0","0","0","AAXX 17151 33345 42698 71001 10060 21004 30185 40395 57007 86530 555 10006"
"6:00 PM EEST on October 17, 2016","2016","10","17","18","00","Europe/Kiev","3:00 PM GMT on October 17, 2016","2016","10","17","15","00","UTC","6.0","42.8","0.0","32.0","66","10.8","6.7","-9999.0","-9999.0","100","East","10.0","6.2","1038","30.66","3.7","38.7","-9999","-9999","-9999.00","-9999.00","Mostly Cloudy","mostlycloudy","0","0","0","0","0","0","METAR UKKK 171500Z 10003MPS 9999 BKN041 06/M00 Q1038 R08/CLRD70 NOSIG"
"6:30 PM EEST on October 17, 2016","2016","10","17","18","30","Europe/Kiev","3:30 PM GMT on October 17, 2016","2016","10","17","15","30","UTC","6.0","42.8","0.0","32.0","66","10.8","6.7","-9999.0","-9999.0","100","East","10.0","6.2","1039","30.69","3.7","38.7","-9999","-9999","-9999.00","-9999.00","Overcast","cloudy","0","0","0","0","0","0","METAR UKKK 171530Z 10003MPS 9999 OVC041 06/M00 Q1039 R08/CLRD70 NOSIG"
"7:00 PM EEST on October 17, 2016","2016","10","17","19","00","Europe/Kiev","4:00 PM GMT on October 17, 2016","2016","10","17","16","00","UTC","5.0","41.0","0.0","32.0","70","7.2","4.5","-9999.0","-9999.0","110","ESE","8.0","5.0","1039","30.69","3.4","38.1","-9999","-9999","-9999.00","-9999.00","Overcast","cloudy","0","0","0","0","0","0","METAR UKKK 171600Z 11002MPS 8000 OVC042 05/M00 Q1039 R08/CLRD70 NOSIG"
"7:30 PM EEST on October 17, 2016","2016","10","17","19","30","Europe/Kiev","4:30 PM GMT on October 17, 2016","2016","10","17","16","30","UTC","5.0","41.0","0.0","32.0","70","10.8","6.7","-9999.0","-9999.0","100","East","10.0","6.2","1039","30.69","2.5","36.5","-9999","-9999","-9999.00","-9999.00","Overcast","cloudy","0","0","0","0","0","0","METAR UKKK 171630Z 10003MPS 9999 OVC041 05/M00 Q1039 R08/CLRD70 NOSIG"
"8:00 PM EEST on October 17, 2016","2016","10","17","20","00","Europe/Kiev","5:00 PM GMT on October 17, 2016","2016","10","17","17","00","UTC","5.0","41.0","0.0","32.0","70","7.2","4.5","-9999.0","-9999.0","110","ESE","10.0","6.2","1039","30.69","3.4","38.1","-9999","-9999","-9999.00","-9999.00","Overcast","cloudy","0","0","0","0","0","0","METAR UKKK 171700Z 11002MPS 9999 OVC040 05/M00 Q1039 R08/CLRD70 NOSIG"
"8:30 PM EEST on October 17, 2016","2016","10","17","20","30","Europe/Kiev","5:30 PM GMT on October 17, 2016","2016","10","17","17","30","UTC","5.0","41.0","0.0","32.0","70","7.2","4.5","-9999.0","-9999.0","110","ESE","10.0","6.2","1039","30.69","3.4","38.1","-9999","-9999","-9999.00","-9999.00","Overcast","cloudy","0","0","0","0","0","0","METAR UKKK 171730Z 11002MPS 9999 OVC041 05/M00 Q1039 R08/CLRD70 NOSIG"
"9:00 PM EEST on October 17, 2016","2016","10","17","21","00","Europe/Kiev","6:00 PM GMT on October 17, 2016","2016","10","17","18","00","UTC","5","41","0","32","61","0.0","0.0","","","","","10","6","1040","30.71","-999","-999","-9999","-9999","","","Mostly Cloudy","mostlycloudy","0","0","0","0","0","0","AAXX 17181 33345 32697 70000 10048 20000 30186 40397 53001 87500 333 10095 87641 555 10004"
"9:00 PM EEST on October 17, 2016","2016","10","17","21","00","Europe/Kiev","6:00 PM GMT on October 17, 2016","2016","10","17","18","00","UTC","5.0","41.0","0.0","32.0","70","10.8","6.7","-9999.0","-9999.0","120","ESE","10.0","6.2","1039","30.69","2.5","36.5","-9999","-9999","-9999.00","-9999.00","Overcast","cloudy","0","0","0","0","0","0","METAR UKKK 171800Z 12003MPS 9999 OVC040 05/M00 Q1039 R08/CLRD70 NOSIG"
"9:30 PM EEST on October 17, 2016","2016","10","17","21","30","Europe/Kiev","6:30 PM GMT on October 17, 2016","2016","10","17","18","30","UTC","5.0","41.0","0.0","32.0","70","7.2","4.5","-9999.0","-9999.0","120","ESE","10.0","6.2","1039","30.69","3.4","38.1","-9999","-9999","-9999.00","-9999.00","Overcast","cloudy","0","0","0","0","0","0","METAR UKKK 171830Z 12002MPS 9999 OVC041 05/M00 Q1039 R08/CLRD70 NOSIG"
"10:00 PM EEST on October 17, 2016","2016","10","17","22","00","Europe/Kiev","7:00 PM GMT on October 17, 2016","2016","10","17","19","00","UTC","5.0","41.0","0.0","32.0","70","7.2","4.5","-9999.0","-9999.0","120","ESE","10.0","6.2","1039","30.69","3.4","38.1","-9999","-9999","-9999.00","-9999.00","Overcast","cloudy","0","0","0","0","0","0","METAR UKKK 171900Z 12002MPS 9999 OVC040 05/M00 Q1039 R08/CLRD70 NOSIG"
"10:30 PM EEST on October 17, 2016","2016","10","17","22","30","Europe/Kiev","7:30 PM GMT on October 17, 2016","2016","10","17","19","30","UTC","4.0","39.2","0.0","32.0","75","7.2","4.5","-9999.0","-9999.0","120","ESE","10.0","6.2","1039","30.69","2.2","36.0","-9999","-9999","-9999.00","-9999.00","Overcast","cloudy","0","0","0","0","0","0","METAR UKKK 171930Z 12002MPS 9999 OVC041 04/M00 Q1039 R08/CLRD70 NOSIG"
"11:00 PM EEST on October 17, 2016","2016","10","17","23","00","Europe/Kiev","8:00 PM GMT on October 17, 2016","2016","10","17","20","00","UTC","5.0","41.0","0.0","32.0","70","7.2","4.5","-9999.0","-9999.0","130","SE","10.0","6.2","1039","30.69","3.4","38.1","-9999","-9999","-9999.00","-9999.00","Overcast","cloudy","0","0","0","0","0","0","METAR UKKK 172000Z 13002MPS 110V170 9999 OVC041 05/M00 Q1039 R08/CLRD70 NOSIG"
"11:30 PM EEST on October 17, 2016","2016","10","17","23","30","Europe/Kiev","8:30 PM GMT on October 17, 2016","2016","10","17","20","30","UTC","4.0","39.2","0.0","32.0","75","7.2","4.5","-9999.0","-9999.0","130","SE","10.0","6.2","1039","30.69","2.2","36.0","-9999","-9999","-9999.00","-9999.00","Overcast","cloudy","0","0","0","0","0","0","METAR UKKK 172030Z 13002MPS 9999 OVC042 04/M00 Q1039 R08/CLRD70 NOSIG"
"12:00 AM EEST on October 18, 2016","2016","10","18","00","00","Europe/Kiev","9:00 PM GMT on October 17, 2016","2016","10","17","21","00","UTC","4","39","0","33","70","3.6","2.2","","","190","South","10","6","1040","30.71","-999","-999","-9999","-9999","","","Mostly Cloudy","mostlycloudy","0","0","0","0","0","0","AAXX 17211 33345 42697 71901 10038 20003 30185 40397 58001 87500 333 87642 555 10003"
"12:00 AM EEST on October 18, 2016","2016","10","18","00","00","Europe/Kiev","9:00 PM GMT on October 17, 2016","2016","10","17","21","00","UTC","4.0","39.2","0.0","32.0","75","7.2","4.5","-9999.0","-9999.0","130","SE","10.0","6.2","1038","30.66","2.2","36.0","-9999","-9999","-9999.00","-9999.00","Overcast","cloudy","0","0","0","0","0","0","METAR UKKK 172100Z 13002MPS 9999 OVC042 04/M00 Q1038 R08/CLRD70 NOSIG"
"12:30 AM EEST on October 18, 2016","2016","10","18","00","30","Europe/Kiev","9:30 PM GMT on October 17, 2016","2016","10","17","21","30","UTC","4.0","39.2","0.0","32.0","75","7.2","4.5","-9999.0","-9999.0","130","SE","10.0","6.2","1038","30.66","2.2","36.0","-9999","-9999","-9999.00","-9999.00","Overcast","cloudy","0","0","0","0","0","0","METAR UKKK 172130Z 13002MPS 9999 OVC042 04/M00 Q1038 R08/CLRD70 NOSIG"
"1:00 AM EEST on October 18, 2016","2016","10","18","01","00","Europe/Kiev","10:00 PM GMT on October 17, 2016","2016","10","17","22","00","UTC","4.0","39.2","0.0","32.0","75","7.2","4.5","-9999.0","-9999.0","120","ESE","10.0","6.2","1038","30.66","2.2","36.0","-9999","-9999","-9999.00","-9999.00","Overcast","cloudy","0","0","0","0","0","0","METAR UKKK 172200Z 12002MPS 9999 OVC042 04/M00 Q1038 R08/CLRD70 NOSIG"
"1:30 AM EEST on October 18, 2016","2016","10","18","01","30","Europe/Kiev","10:30 PM GMT on October 17, 2016","2016","10","17","22","30","UTC","4.0","39.2","-1.0","30.2","70","3.6","2.2","-9999.0","-9999.0","0","Variable","10.0","6.2","1038","30.66","-999","-999","-9999","-9999","-9999.00","-9999.00","Overcast","cloudy","0","0","0","0","0","0","METAR UKKK 172230Z VRB01MPS 9999 OVC042 04/M01 Q1038 R08/CLRD70 NOSIG"
"2:00 AM EEST on October 18, 2016","2016","10","18","02","00","Europe/Kiev","11:00 PM GMT on October 17, 2016","2016","10","17","23","00","UTC","4.0","39.2","0.0","32.0","75","3.6","2.2","-9999.0","-9999.0","0","Variable","10.0","6.2","1038","30.66","-999","-999","-9999","-9999","-9999.00","-9999.00","Overcast","cloudy","0","0","0","0","0","0","METAR UKKK 172300Z VRB01MPS 9999 OVC042 04/00 Q1038 R08/CLRD70 NOSIG"
"2:30 AM EEST on October 18, 2016","2016","10","18","02","30","Europe/Kiev","11:30 PM GMT on October 17, 2016","2016","10","17","23","30","UTC","4.0","39.2","0.0","32.0","75","3.6","2.2","-9999.0","-9999.0","0","Variable","10.0","6.2","1038","30.66","-999","-999","-9999","-9999","-9999.00","-9999.00","Overcast","cloudy","0","0","0","0","0","0","METAR UKKK 172330Z VRB01MPS 9999 OVC043 04/00 Q1038 R08/CLRD70 NOSIG"
"3:00 AM EEST on October 18, 2016","2016","10","18","03","00","Europe/Kiev","12:00 AM GMT on October 18, 2016","2016","10","18","00","00","UTC","3","38","0","33","74","0.0","0.0","","","","","10","6","1039","30.68","-999","-999","-9999","-9999","","","Mostly Cloudy","mostlycloudy","0","0","0","0","0","0","AAXX 18001 33345 32697 70000 10031 20004 30177 40389 57008 87500 333 87641 555 10003"
"3:00 AM EEST on October 18, 2016","2016","10","18","03","00","Europe/Kiev","12:00 AM GMT on October 18, 2016","2016","10","18","00","00","UTC","3.0","37.4","1.0","33.8","87","3.6","2.2","-9999.0","-9999.0","0","Variable","10.0","6.2","1038","30.66","-999","-999","-9999","-9999","-9999.00","-9999.00","Overcast","cloudy","0","0","0","0","0","0","METAR UKKK 180000Z VRB01MPS 9999 OVC043 03/01 Q1038 R08/CLRD70 NOSIG"
"3:30 AM EEST on October 18, 2016","2016","10","18","03","30","Europe/Kiev","12:30 AM GMT on October 18, 2016","2016","10","18","00","30","UTC","3.0","37.4","1.0","33.8","87","3.6","2.2","-9999.0","-9999.0","0","Variable","10.0","6.2","1038","30.66","-999","-999","-9999","-9999","-9999.00","-9999.00","Overcast","cloudy","0","0","0","0","0","0","METAR UKKK 180030Z VRB01MPS 9999 OVC042 03/01 Q1038 R08/CLRD70 NOSIG"
"4:00 AM EEST on October 18, 2016","2016","10","18","04","00","Europe/Kiev","1:00 AM GMT on October 18, 2016","2016","10","18","01","00","UTC","3.0","37.4","0.0","32.0","81","3.6","2.2","-9999.0","-9999.0","0","Variable","10.0","6.2","1037","30.63","-999","-999","-9999","-9999","-9999.00","-9999.00","Overcast","cloudy","0","0","0","0","0","0","METAR UKKK 180100Z VRB01MPS 9999 OVC042 03/00 Q1037 R08/CLRD70 NOSIG"
"4:30 AM EEST on October 18, 2016","2016","10","18","04","30","Europe/Kiev","1:30 AM GMT on October 18, 2016","2016","10","18","01","30","UTC","2.0","35.6","0.0","32.0","87","3.6","2.2","-9999.0","-9999.0","80","East","10.0","6.2","1037","30.63","-999","-999","-9999","-9999","-9999.00","-9999.00","Overcast","cloudy","0","0","0","0","0","0","METAR UKKK 180130Z 08001MPS 9999 OVC042 02/00 Q1037 R08/CLRD70 NOSIG"
"5:00 AM EEST on October 18, 2016","2016","10","18","05","00","Europe/Kiev","2:00 AM GMT on October 18, 2016","2016","10","18","02","00","UTC","2.0","35.6","0.0","32.0","87","0.0","0.0","-9999.0","-9999.0","0","North","10.0","6.2","1037","30.63","-999","-999","-9999","-9999","-9999.00","-9999.00","Overcast","cloudy","0","0","0","0","0","0","METAR UKKK 180200Z 00000MPS 9999 OVC042 02/00 Q1037 R08/CLRD70 NOSIG"
"5:30 AM EEST on October 18, 2016","2016","10","18","05","30","Europe/Kiev","2:30 AM GMT on October 18, 2016","2016","10","18","02","30","UTC","2.0","35.6","0.0","32.0","87","3.6","2.2","-9999.0","-9999.0","90","East","10.0","6.2","1037","30.63","-999","-999","-9999","-9999","-9999.00","-9999.00","Overcast","cloudy","0","0","0","0","0","0","METAR UKKK 180230Z 09001MPS 9999 OVC042 02/00 Q1037 R08/CLRD70 NOSIG"
"6:00 AM EEST on October 18, 2016","2016","10","18","06","00","Europe/Kiev","3:00 AM GMT on October 18, 2016","2016","10","18","03","00","UTC","2","36","-0","32","78","0.0","0.0","","","","","10","6","1038","30.66","-999","-999","-9999","-9999","","","Partly Cloudy","partlycloudy","0","0","0","0","0","0","AAXX 18031 33345 42997 50000 10023 21002 30168 40380 57009 83074 555 10001"
"6:00 AM EEST on October 18, 2016","2016","10","18","06","00","Europe/Kiev","3:00 AM GMT on October 18, 2016","2016","10","18","03","00","UTC","1.0","33.8","0.0","32.0","93","7.2","4.5","-9999.0","-9999.0","80","East","10.0","6.2","1037","30.63","-1.3","29.7","-9999","-9999","-9999.00","-9999.00","Mostly Cloudy","mostlycloudy","0","0","0","0","0","0","METAR UKKK 180300Z 08002MPS 9999 BKN043 01/M00 Q1037 R08/CLRD70 NOSIG"
"6:30 AM EEST on October 18, 2016","2016","10","18","06","30","Europe/Kiev","3:30 AM GMT on October 18, 2016","2016","10","18","03","30","UTC","0.0","32.0","-1.0","30.2","93","7.2","4.5","-9999.0","-9999.0","90","East","-9999.0","-9999.0","1037","30.63","-2.5","27.6","-9999","-9999","-9999.00","-9999.00","Clear","clear","0","0","0","0","0","0","METAR UKKK 180330Z 09002MPS CAVOK 00/M01 Q1037 R08/CLRD70 NOSIG"
"7:00 AM EEST on October 18, 2016","2016","10","18","07","00","Europe/Kiev","4:00 AM GMT on October 18, 2016","2016","10","18","04","00","UTC","0.0","32.0","-1.0","30.2","93","7.2","4.5","-9999.0","-9999.0","110","ESE","-9999.0","-9999.0","1036","30.60","-2.5","27.6","-9999","-9999","-9999.00","-9999.00","Clear","clear","0","0","0","0","0","0","METAR UKKK 180400Z 11002MPS CAVOK 00/M01 Q1036 R08/CLRD70 NOSIG"
"7:30 AM EEST on October 18, 2016","2016","10","18","07","30","Europe/Kiev","4:30 AM GMT on October 18, 2016","2016","10","18","04","30","UTC","-1.0","30.2","-2.0","28.4","93","3.6","2.2","-9999.0","-9999.0","110","ESE","8.0","5.0","1036","30.60","-999","-999","-9999","-9999","-9999.00","-9999.00","Clear","clear","0","0","0","0","0","0","METAR UKKK 180430Z 11001MPS 8000 SKC M01/M02 Q1036 R08/CLRD70 NOSIG"
"8:00 AM EEST on October 18, 2016","2016","10","18","08","00","Europe/Kiev","5:00 AM GMT on October 18, 2016","2016","10","18","05","00","UTC","-1.0","30.2","-1.0","30.2","100","3.6","2.2","-9999.0","-9999.0","100","East","7.0","4.3","1036","30.60","-999","-999","-9999","-9999","-9999.00","-9999.00","Clear","clear","0","0","0","0","0","0","METAR UKKK 180500Z 10001MPS 7000 SKC M01/M01 Q1036 R08/CLRD70 NOSIG"
"8:30 AM EEST on October 18, 2016","2016","10","18","08","30","Europe/Kiev","5:30 AM GMT on October 18, 2016","2016","10","18","05","30","UTC","0.0","32.0","0.0","32.0","100","7.2","4.5","-9999.0","-9999.0","90","East","7.0","4.3","1036","30.60","-2.5","27.6","-9999","-9999","-9999.00","-9999.00","Clear","clear","0","0","0","0","0","0","METAR UKKK 180530Z 09002MPS 7000 SKC 00/M00 Q1036 R08/CLRD70 NOSIG"
"9:00 AM EEST on October 18, 2016","2016","10","18","09","00","Europe/Kiev","6:00 AM GMT on October 18, 2016","2016","10","18","06","00","UTC","2","35","0","32","84","3.6","2.2","","","160","SSE","4","2","1038","30.66","-999","-999","-9999","-9999","","","Mist","hazy","0","0","0","0","0","0","AAXX 18061 33345 31996 31601 10019 21000 30167 40380 56001 71011 80005 333 20003 555 10100 30102 52104"
"9:00 AM EEST on October 18, 2016","2016","10","18","09","00","Europe/Kiev","6:00 AM GMT on October 18, 2016","2016","10","18","06","00","UTC","3.0","37.4","2.0","35.6","93","7.2","4.5","-9999.0","-9999.0","80","East","9.0","5.6","1036","30.60","1.0","33.9","-9999","-9999","-9999.00","-9999.00","Clear","clear","0","0","0","0","0","0","METAR UKKK 180600Z 08002MPS 9000 SKC 03/02 Q1036 R08/CLRD70 NOSIG"
"9:30 AM EEST on October 18, 2016","2016","10","18","09","30","Europe/Kiev","6:30 AM GMT on October 18, 2016","2016","10","18","06","30","UTC","4.0","39.2","0.0","32.0","75","10.8","6.7","-9999.0","-9999.0","130","SE","10.0","6.2","1036","30.60","1.3","34.4","-9999","-9999","-9999.00","-9999.00","Partly Cloudy","partlycloudy","0","0","0","0","0","0","METAR UKKK 180630Z 13003MPS 110V170 9999 FEW015 04/00 Q1036 R08/CLRD70 NOSIG"
"10:00 AM EEST on October 18, 2016","2016","10","18","10","00","Europe/Kiev","7:00 AM GMT on October 18, 2016","2016","10","18","07","00","UTC","5.0","41.0","0.0","32.0","70","10.8","6.7","-9999.0","-9999.0","140","SE","-9999.0","-9999.0","1036","30.60","2.5","36.5","-9999","-9999","-9999.00","-9999.00","Clear","clear","0","0","0","0","0","0","METAR UKKK 180700Z 14003MPS 090V170 CAVOK 05/M00 Q1036 R08/CLRD70 NOSIG"
"10:30 AM EEST on October 18, 2016","2016","10","18","10","30","Europe/Kiev","7:30 AM GMT on October 18, 2016","2016","10","18","07","30","UTC","6.0","42.8","-1.0","30.2","61","10.8","6.7","-9999.0","-9999.0","140","SE","-9999.0","-9999.0","1036","30.60","3.7","38.7","-9999","-9999","-9999.00","-9999.00","Clear","clear","0","0","0","0","0","0","METAR UKKK 180730Z 14003MPS 100V190 CAVOK 06/M01 Q1036 R08/CLRD70 NOSIG"
"11:00 AM EEST on October 18, 2016","2016","10","18","11","00","Europe/Kiev","8:00 AM GMT on October 18, 2016","2016","10","18","08","00","UTC","6.0","42.8","-1.0","30.2","61","10.8","6.7","-9999.0","-9999.0","140","SE","-9999.0","-9999.0","1036","30.60","3.7","38.7","-9999","-9999","-9999.00","-9999.00","Clear","clear","0","0","0","0","0","0","METAR UKKK 180800Z 14003MPS 100V180 CAVOK 06/M01 Q1036 R08/CLRD70 NOSIG"
"11:30 AM EEST on October 18, 2016","2016","10","18","11","30","Europe/Kiev","8:30 AM GMT on October 18, 2016","2016","10","18","08","30","UTC","7.0","44.6","-2.0","28.4","53","14.4","8.9","-9999.0","-9999.0","140","SE","10.0","6.2","1036","30.60","4.3","39.8","-9999","-9999","-9999.00","-9999.00","Partly Cloudy","partlycloudy","0","0","0","0","0","0","METAR UKKK 180830Z 14004MPS 110V190 9999 FEW041 07/M02 Q1036 R08/CLRD70 NOSIG"
"12:00 PM EEST on October 18, 2016","2016","10","18","12","00","Europe/Kiev","9:00 AM GMT on October 18, 2016","2016","10","18","09","00","UTC","7","44","-1","30","46","14.4","8.9","","","180","South","20","12","1037","30.62","-999","-999","-9999","-9999","","","Partly Cloudy","partlycloudy","0","0","0","0","0","0","AAXX 18091 33345 42598 41804 10069 21011 30160 40369 57007 84200 555 10012"
"12:00 PM EEST on October 18, 2016","2016","10","18","12","00","Europe/Kiev","9:00 AM GMT on October 18, 2016","2016","10","18","09","00","UTC","7.0","44.6","-2.0","28.4","53","14.4","8.9","-9999.0","-9999.0","160","SSE","10.0","6.2","1036","30.60","4.3","39.8","-9999","-9999","-9999.00","-9999.00","Scattered Clouds","partlycloudy","0","0","0","0","0","0","METAR UKKK 180900Z 16004MPS 110V240 9999 SCT040 07/M02 Q1036 R08/CLRD70 NOSIG"
"12:30 PM EEST on October 18, 2016","2016","10","18","12","30","Europe/Kiev","9:30 AM GMT on October 18, 2016","2016","10","18","09","30","UTC","7.0","44.6","-2.0","28.4","53","10.8","6.7","-9999.0","-9999.0","140","SE","10.0","6.2","1036","30.60","4.9","40.8","-9999","-9999","-9999.00","-9999.00","Scattered Clouds","partlycloudy","0","0","0","0","0","0","METAR UKKK 180930Z 14003MPS 100V190 9999 SCT036 07/M02 Q1036 R08/CLRD70 NOSIG"
"1:00 PM EEST on October 18, 2016","2016","10","18","13","00","Europe/Kiev","10:00 AM GMT on October 18, 2016","2016","10","18","10","00","UTC","8.0","46.4","-2.0","28.4","50","10.8","6.7","-9999.0","-9999.0","180","South","10.0","6.2","1035","30.57","6.1","43.0","-9999","-9999","-9999.00","-9999.00","Mostly Cloudy","mostlycloudy","0","0","0","0","0","0","METAR UKKK 181000Z 18003MPS 9999 BKN036 08/M02 Q1035 R08/CLRD70 NOSIG"
"1:30 PM EEST on October 18, 2016","2016","10","18","13","30","Europe/Kiev","10:30 AM GMT on October 18, 2016","2016","10","18","10","30","UTC","7.0","44.6","-2.0","28.4","53","10.8","6.7","-9999.0","-9999.0","120","ESE","10.0","6.2","1035","30.57","4.9","40.8","-9999","-9999","-9999.00","-9999.00","Mostly Cloudy","mostlycloudy","0","0","0","0","0","0","METAR UKKK 181030Z 12003MPS 060V180 9999 BKN042 07/M02 Q1035 R08/CLRD70 NOSIG"
"2:00 PM EEST on October 18, 2016","2016","10","18","14","00","Europe/Kiev","11:00 AM GMT on October 18, 2016","2016","10","18","11","00","UTC","7.0","44.6","-2.0","28.4","53","10.8","6.7","-9999.0","-9999.0","180","South","10.0","6.2","1035","30.57","4.9","40.8","-9999","-9999","-9999.00","-9999.00","Mostly Cloudy","mostlycloudy","0","0","0","0","0","0","METAR UKKK 181100Z 18003MPS 120V230 9999 BKN042 07/M02 Q1035 R08/CLRD70 NOSIG"
"2:30 PM EEST on October 18, 2016","2016","10","18","14","30","Europe/Kiev","11:30 AM GMT on October 18, 2016","2016","10","18","11","30","UTC","8.0","46.4","-2.0","28.4","50","10.8","6.7","-9999.0","-9999.0","200","SSW","10.0","6.2","1034","30.54","6.1","43.0","-9999","-9999","-9999.00","-9999.00","Mostly Cloudy","mostlycloudy","0","0","0","0","0","0","METAR UKKK 181130Z 20003MPS 080V250 9999 BKN042 08/M02 Q1034 R08/CLRD70 NOSIG"
"3:00 PM EEST on October 18, 2016","2016","10","18","15","00","Europe/Kiev","12:00 PM GMT on October 18, 2016","2016","10","18","12","00","UTC","8","47","-3","27","33","10.8","6.7","","","190","South","20","12","1035","30.57","-999","-999","-9999","-9999","","","Partly Cloudy","partlycloudy","0","0","0","0","0","0","AAXX 18121 33345 32698 31903 10084 21028 30143 40350 57017 83100 555 10016"
"3:00 PM EEST on October 18, 2016","2016","10","18","15","00","Europe/Kiev","12:00 PM GMT on October 18, 2016","2016","10","18","12","00","UTC","8.0","46.4","-2.0","28.4","50","10.8","6.7","-9999.0","-9999.0","180","South","10.0","6.2","1034","30.54","6.1","43.0","-9999","-9999","-9999.00","-9999.00","Mostly Cloudy","mostlycloudy","0","0","0","0","0","0","METAR UKKK 181200Z 18003MPS 130V230 9999 BKN042 08/M02 Q1034 R08/CLRD70 NOSIG"
"3:30 PM EEST on October 18, 2016","2016","10","18","15","30","Europe/Kiev","12:30 PM GMT on October 18, 2016","2016","10","18","12","30","UTC","8.0","46.4","-3.0","26.6","46","10.8","6.7","-9999.0","-9999.0","180","South","10.0","6.2","1034","30.54","6.1","43.0","-9999","-9999","-9999.00","-9999.00","Scattered Clouds","partlycloudy","0","0","0","0","0","0","METAR UKKK 181230Z 18003MPS 130V230 9999 SCT043 08/M03 Q1034 R08/CLRD70 NOSIG"
"4:00 PM EEST on October 18, 2016","2016","10","18","16","00","Europe/Kiev","1:00 PM GMT on October 18, 2016","2016","10","18","13","00","UTC","8.0","46.4","-2.0","28.4","50","10.8","6.7","-9999.0","-9999.0","140","SE","10.0","6.2","1034","30.54","6.1","43.0","-9999","-9999","-9999.00","-9999.00","Scattered Clouds","partlycloudy","0","0","0","0","0","0","METAR UKKK 181300Z 14003MPS 090V180 9999 SCT043 08/M02 Q1034 R08/CLRD70 NOSIG"
"4:30 PM EEST on October 18, 2016","2016","10","18","16","30","Europe/Kiev","1:30 PM GMT on October 18, 2016","2016","10","18","13","30","UTC","7.0","44.6","-2.0","28.4","53","10.8","6.7","-9999.0","-9999.0","140","SE","10.0","6.2","1033","30.51","4.9","40.8","-9999","-9999","-9999.00","-9999.00","Scattered Clouds","partlycloudy","0","0","0","0","0","0","METAR UKKK 181330Z 14003MPS 090V190 9999 SCT043 07/M02 Q1033 R08/CLRD70 NOSIG"
"5:00 PM EEST on October 18, 2016","2016","10","18","17","00","Europe/Kiev","2:00 PM GMT on October 18, 2016","2016","10","18","14","00","UTC","7.0","44.6","-2.0","28.4","53","10.8","6.7","-9999.0","-9999.0","160","SSE","10.0","6.2","1033","30.51","4.9","40.8","-9999","-9999","-9999.00","-9999.00","Scattered Clouds","partlycloudy","0","0","0","0","0","0","METAR UKKK 181400Z 16003MPS 120V230 9999 SCT043 07/M02 Q1033 R08/CLRD70 NOSIG"
"5:30 PM EEST on October 18, 2016","2016","10","18","17","30","Europe/Kiev","2:30 PM GMT on October 18, 2016","2016","10","18","14","30","UTC","7.0","44.6","-2.0","28.4","53","7.2","4.5","-9999.0","-9999.0","170","South","10.0","6.2","1033","30.51","5.7","42.3","-9999","-9999","-9999.00","-9999.00","Scattered Clouds","partlycloudy","0","0","0","0","0","0","METAR UKKK 181430Z 17002MPS 110V240 9999 SCT041 07/M02 Q1033 R08/CLRD70 NOSIG"
"6:00 PM EEST on October 18, 2016","2016","10","18","18","00","Europe/Kiev","3:00 PM GMT on October 18, 2016","2016","10","18","15","00","UTC","6","42","-1","31","53","7.2","4.5","","","190","South","20","12","1034","30.52","-999","-999","-9999","-9999","","","","","0","0","0","0","0","0","AAXX 18151 33345 42998 01902 10056 21008 30126 40335 57017 555 10004"
"6:00 PM EEST on October 18, 2016","2016","10","18","18","00","Europe/Kiev","3:00 PM GMT on October 18, 2016","2016","10","18","15","00","UTC","6.0","42.8","-2.0","28.4","57","7.2","4.5","-9999.0","-9999.0","150","SSE","7.0","4.3","1033","30.51","4.5","40.2","-9999","-9999","-9999.00","-9999.00","Unknown","unknown","0","0","0","0","0","0","METAR UKKK 181500Z 15002MPS 120V180 7000 NSC 06/M02 Q1033 R08/CLRD70 NOSIG"
"6:30 PM EEST on October 18, 2016","2016","10","18","18","30","Europe/Kiev","3:30 PM GMT on October 18, 2016","2016","10","18","15","30","UTC","5.0","41.0","-2.0","28.4","61","7.2","4.5","-9999.0","-9999.0","140","SE","5.0","3.1","1033","30.51","3.4","38.1","-9999","-9999","-9999.00","-9999.00","Smoke","hazy","0","0","0","0","0","0","METAR UKKK 181530Z 14002MPS 5000 FU NSC 05/M02 Q1033 R08/CLRD70 NOSIG"
"7:00 PM EEST on October 18, 2016","2016","10","18","19","00","Europe/Kiev","4:00 PM GMT on October 18, 2016","2016","10","18","16","00","UTC","4.0","39.2","-2.0","28.4","65","7.2","4.5","-9999.0","-9999.0","140","SE","6.0","3.7","1032","30.48","2.2","36.0","-9999","-9999","-9999.00","-9999.00","Unknown","unknown","0","0","0","0","0","0","METAR UKKK 181600Z 14002MPS 6000 NSC 04/M02 Q1032 R08/CLRD70 NOSIG"
"7:30 PM EEST on October 18, 2016","2016","10","18","19","30","Europe/Kiev","4:30 PM GMT on October 18, 2016","2016","10","18","16","30","UTC","4.0","39.2","-2.0","28.4","65","7.2","4.5","-9999.0","-9999.0","140","SE","9.0","5.6","1032","30.48","2.2","36.0","-9999","-9999","-9999.00","-9999.00","Unknown","unknown","0","0","0","0","0","0","METAR UKKK 181630Z 14002MPS 9000 NSC 04/M02 Q1032 R08/CLRD70 NOSIG"
"8:00 PM EEST on October 18, 2016","2016","10","18","20","00","Europe/Kiev","5:00 PM GMT on October 18, 2016","2016","10","18","17","00","UTC","3.0","37.4","-2.0","28.4","70","7.2","4.5","-9999.0","-9999.0","120","ESE","-9999.0","-9999.0","1032","30.48","1.0","33.9","-9999","-9999","-9999.00","-9999.00","Clear","clear","0","0","0","0","0","0","METAR UKKK 181700Z 12002MPS CAVOK 03/M02 Q1032 R08/CLRD70 NOSIG"
"8:30 PM EEST on October 18, 2016","2016","10","18","20","30","Europe/Kiev","5:30 PM GMT on October 18, 2016","2016","10","18","17","30","UTC","3.0","37.4","-1.0","30.2","75","10.8","6.7","-9999.0","-9999.0","130","SE","9.0","5.6","1032","30.48","0.1","32.2","-9999","-9999","-9999.00","-9999.00","Unknown","unknown","0","0","0","0","0","0","METAR UKKK 181730Z 13003MPS 9000 NSC 03/M01 Q1032 R08/CLRD70 NOSIG"
"9:00 PM EEST on October 18, 2016","2016","10","18","21","00","Europe/Kiev","6:00 PM GMT on October 18, 2016","2016","10","18","18","00","UTC","2","35","-1","30","74","0.0","0.0","","","","","20","12","1034","30.53","-999","-999","-9999","-9999","","","","","0","0","0","0","0","0","AAXX 18181 33345 32998 00000 10016 21013 30124 40336 56002 333 10090 555 10101"
"9:00 PM EEST on October 18, 2016","2016","10","18","21","00","Europe/Kiev","6:00 PM GMT on October 18, 2016","2016","10","18","18","00","UTC","3.0","37.4","-1.0","30.2","75","10.8","6.7","-9999.0","-9999.0","130","SE","-9999.0","-9999.0","1032","30.48","0.1","32.2","-9999","-9999","-9999.00","-9999.00","Clear","clear","0","0","0","0","0","0","METAR UKKK 181800Z 13003MPS CAVOK 03/M01 Q1032 R08/CLRD70 NOSIG"
"9:30 PM EEST on October 18, 2016","2016","10","18","21","30","Europe/Kiev","6:30 PM GMT on October 18, 2016","2016","10","18","18","30","UTC","3.0","37.4","-1.0","30.2","75","10.8","6.7","-9999.0","-9999.0","130","SE","-9999.0","-9999.0","1032","30.48","0.1","32.2","-9999","-9999","-9999.00","-9999.00","Clear","clear","0","0","0","0","0","0","METAR UKKK 181830Z 13003MPS CAVOK 03/M01 Q1032 R08/CLRD70 NOSIG"
"10:00 PM EEST on October 18, 2016","2016","10","18","22","00","Europe/Kiev","7:00 PM GMT on October 18, 2016","2016","10","18","19","00","UTC","2.0","35.6","-1.0","30.2","81","10.8","6.7","-9999.0","-9999.0","130","SE","-9999.0","-9999.0","1032","30.48","-1.1","30.0","-9999","-9999","-9999.00","-9999.00","Clear","clear","0","0","0","0","0","0","METAR UKKK 181900Z 13003MPS CAVOK 02/M01 Q1032 R08/CLRD70 NOSIG"
"10:30 PM EEST on October 18, 2016","2016","10","18","22","30","Europe/Kiev","7:30 PM GMT on October 18, 2016","2016","10","18","19","30","UTC","2.0","35.6","-1.0","30.2","81","7.2","4.5","-9999.0","-9999.0","140","SE","-9999.0","-9999.0","1032","30.48","-0.1","31.8","-9999","-9999","-9999.00","-9999.00","Clear","clear","0","0","0","0","0","0","METAR UKKK 181930Z 14002MPS 110V170 CAVOK 02/M01 Q1032 R08/CLRD70 NOSIG"
"11:00 PM EEST on October 18, 2016","2016","10","18","23","00","Europe/Kiev","8:00 PM GMT on October 18, 2016","2016","10","18","20","00","UTC","1.0","33.8","-2.0","28.4","81","7.2","4.5","-9999.0","-9999.0","140","SE","-9999.0","-9999.0","1032","30.48","-1.3","29.7","-9999","-9999","-9999.00","-9999.00","Clear","clear","0","0","0","0","0","0","METAR UKKK 182000Z 14002MPS 110V190 CAVOK 01/M02 Q1032 R08/CLRD70 NOSIG"
"11:30 PM EEST on October 18, 2016","2016","10","18","23","30","Europe/Kiev","8:30 PM GMT on October 18, 2016","2016","10","18","20","30","UTC","1.0","33.8","-2.0","28.4","81","7.2","4.5","-9999.0","-9999.0","140","SE","-9999.0","-9999.0","1032","30.48","-1.3","29.7","-9999","-9999","-9999.00","-9999.00","Clear","clear","0","0","0","0","0","0","METAR UKKK 182030Z 14002MPS 110V180 CAVOK 01/M02 Q1032 R08/CLRD70 NOSIG"
"12:00 AM EEST on October 19, 2016","2016","10","19","00","00","Europe/Kiev","9:00 PM GMT on October 18, 2016","2016","10","18","21","00","UTC","2","36","-2","28","62","10.8","6.7","","","190","South","20","12","1033","30.51","-999","-999","-9999","-9999","","","","","0","0","0","0","0","0","AAXX 18211 33345 42998 01903 10020 21024 30120 40332 58004 555 10101"
"12:00 AM EEST on October 19, 2016","2016","10","19","00","00","Europe/Kiev","9:00 PM GMT on October 18, 2016","2016","10","18","21","00","UTC","1.0","33.8","-2.0","28.4","81","3.6","2.2","-9999.0","-9999.0","0","Variable","9.0","5.6","1032","30.48","-999","-999","-9999","-9999","-9999.00","-9999.00","Clear","clear","0","0","0","0","0","0","METAR UKKK 182100Z VRB01MPS 9000 SKC 01/M02 Q1032 R08/CLRD70 NOSIG"
"12:30 AM EEST on October 19, 2016","2016","10","19","00","30","Europe/Kiev","9:30 PM GMT on October 18, 2016","2016","10","18","21","30","UTC","1.0","33.8","-2.0","28.4","81","7.2","4.5","-9999.0","-9999.0","150","SSE","-9999.0","-9999.0","1032","30.48","-1.3","29.7","-9999","-9999","-9999.00","-9999.00","Clear","clear","0","0","0","0","0","0","METAR UKKK 182130Z 15002MPS 110V190 CAVOK 01/M02 Q1032 R08/CLRD70 NOSIG"
"1:00 AM EEST on October 19, 2016","2016","10","19","01","00","Europe/Kiev","10:00 PM GMT on October 18, 2016","2016","10","18","22","00","UTC","1.0","33.8","-3.0","26.6","75","7.2","4.5","-9999.0","-9999.0","140","SE","-9999.0","-9999.0","1032","30.48","-1.3","29.7","-9999","-9999","-9999.00","-9999.00","Clear","clear","0","0","0","0","0","0","METAR UKKK 182200Z 14002MPS 110V180 CAVOK 01/M03 Q1032 R08/CLRD70 NOSIG"
"1:30 AM EEST on October 19, 2016","2016","10","19","01","30","Europe/Kiev","10:30 PM GMT on October 18, 2016","2016","10","18","22","30","UTC","1.0","33.8","-3.0","26.6","75","7.2","4.5","-9999.0","-9999.0","140","SE","-9999.0","-9999.0","1031","30.45","-1.3","29.7","-9999","-9999","-9999.00","-9999.00","Clear","clear","0","0","0","0","0","0","METAR UKKK 182230Z 14002MPS 090V190 CAVOK 01/M03 Q1031 R08/CLRD70 NOSIG"
"2:00 AM EEST on October 19, 2016","2016","10","19","02","00","Europe/Kiev","11:00 PM GMT on October 18, 2016","2016","10","18","23","00","UTC","-1.0","30.2","-4.0","24.8","80","3.6","2.2","-9999.0","-9999.0","110","ESE","-9999.0","-9999.0","1031","30.45","-999","-999","-9999","-9999","-9999.00","-9999.00","Clear","clear","0","0","0","0","0","0","METAR UKKK 182300Z 11001MPS CAVOK M01/M04 Q1031 R08/CLRD70 NOSIG"
"2:30 AM EEST on October 19, 2016","2016","10","19","02","30","Europe/Kiev","11:30 PM GMT on October 18, 2016","2016","10","18","23","30","UTC","-1.0","30.2","-4.0","24.8","80","3.6","2.2","-9999.0","-9999.0","0","Variable","-9999.0","-9999.0","1031","30.45","-999","-999","-9999","-9999","-9999.00","-9999.00","Clear","clear","0","0","0","0","0","0","METAR UKKK 182330Z VRB01MPS CAVOK M01/M04 Q1031 R08/CLRD70 NOSIG"
"3:00 AM EEST on October 19, 2016","2016","10","19","03","00","Europe/Kiev","12:00 AM GMT on October 19, 2016","2016","10","19","00","00","UTC","-1","31","-2","28","85","3.6","2.2","","","180","South","4","2","1033","30.50","-999","-999","-9999","-9999","","","Mist","hazy","0","0","0","0","0","0","AAXX 19001 33345 31996 01801 11006 21021 30112 40326 57008 71000 555 11102"
"3:00 AM EEST on October 19, 2016","2016","10","19","03","00","Europe/Kiev","12:00 AM GMT on October 19, 2016","2016","10","19","00","00","UTC","0.0","32.0","-3.0","26.6","80","3.6","2.2","-9999.0","-9999.0","0","Variable","-9999.0","-9999.0","1031","30.45","-999","-999","-9999","-9999","-9999.00","-9999.00","Clear","clear","0","0","0","0","0","0","METAR UKKK 190000Z VRB01MPS CAVOK 00/M03 Q1031 R08/CLRD70 NOSIG"
"3:30 AM EEST on October 19, 2016","2016","10","19","03","30","Europe/Kiev","12:30 AM GMT on October 19, 2016","2016","10","19","00","30","UTC","1.0","33.8","-3.0","26.6","75","7.2","4.5","-9999.0","-9999.0","150","SSE","-9999.0","-9999.0","1031","30.45","-1.3","29.7","-9999","-9999","-9999.00","-9999.00","Clear","clear","0","0","0","0","0","0","METAR UKKK 190030Z 15002MPS 120V180 CAVOK 01/M03 Q1031 R08/CLRD70 NOSIG"
"4:00 AM EEST on October 19, 2016","2016","10","19","04","00","Europe/Kiev","1:00 AM GMT on October 19, 2016","2016","10","19","01","00","UTC","1.0","33.8","-3.0","26.6","75","7.2","4.5","-9999.0","-9999.0","150","SSE","-9999.0","-9999.0","1031","30.45","-1.3","29.7","-9999","-9999","-9999.00","-9999.00","Clear","clear","0","0","0","0","0","0","METAR UKKK 190100Z 15002MPS 120V190 CAVOK 01/M03 Q1031 R08/CLRD70 NOSIG"
"4:30 AM EEST on October 19, 2016","2016","10","19","04","30","Europe/Kiev","1:30 AM GMT on October 19, 2016","2016","10","19","01","30","UTC","1.0","33.8","-3.0","26.6","75","7.2","4.5","-9999.0","-9999.0","150","SSE","-9999.0","-9999.0","1031","30.45","-1.3","29.7","-9999","-9999","-9999.00","-9999.00","Clear","clear","0","0","0","0","0","0","METAR UKKK 190130Z 15002MPS 120V220 CAVOK 01/M03 Q1031 R08/CLRD70 NOSIG"
"5:00 AM EEST on October 19, 2016","2016","10","19","05","00","Europe/Kiev","2:00 AM GMT on October 19, 2016","2016","10","19","02","00","UTC","1.0","33.8","-3.0","26.6","75","3.6","2.2","-9999.0","-9999.0","0","Variable","-9999.0","-9999.0","1031","30.45","-999","-999","-9999","-9999","-9999.00","-9999.00","Clear","clear","0","0","0","0","0","0","METAR UKKK 190200Z VRB01MPS CAVOK 01/M03 Q1031 R08/CLRD70 NOSIG"
"5:30 AM EEST on October 19, 2016","2016","10","19","05","30","Europe/Kiev","2:30 AM GMT on October 19, 2016","2016","10","19","02","30","UTC","-2.0","28.4","-4.0","24.8","86","7.2","4.5","-9999.0","-9999.0","70","ENE","10.0","6.2","1031","30.45","-4.8","23.4","-9999","-9999","-9999.00","-9999.00","Scattered Clouds","partlycloudy","0","0","0","0","0","0","METAR UKKK 190230Z 07002MPS 9999 SCT041 M02/M04 Q1031 R08/CLRD70 NOSIG"
"6:00 AM EEST on October 19, 2016","2016","10","19","06","00","Europe/Kiev","3:00 AM GMT on October 19, 2016","2016","10","19","03","00","UTC","-2","29","-3","27","91","0.0","0.0","","","","","4","2","1032","30.48","-999","-999","-9999","-9999","","","Mist","hazy","0","0","0","0","0","0","AAXX 19031 33345 41996 00000 11017 21026 30107 40321 57005 71000 555 14103"
"6:00 AM EEST on October 19, 2016","2016","10","19","06","00","Europe/Kiev","3:00 AM GMT on October 19, 2016","2016","10","19","03","00","UTC","-3.0","26.6","-4.0","24.8","93","7.2","4.5","-9999.0","-9999.0","80","East","9.0","5.6","1030","30.42","-5.9","21.3","-9999","-9999","-9999.00","-9999.00","Partly Cloudy","partlycloudy","0","0","0","0","0","0","METAR UKKK 190300Z 08002MPS 9000 FEW041 M03/M04 Q1030 R08/CLRD70 NOSIG"
"6:30 AM EEST on October 19, 2016","2016","10","19","06","30","Europe/Kiev","3:30 AM GMT on October 19, 2016","2016","10","19","03","30","UTC","-4.0","24.8","-5.0","23.0","93","7.2","4.5","-9999.0","-9999.0","100","East","-9999.0","-9999.0","1030","30.42","-7.1","19.2","-9999","-9999","-9999.00","-9999.00","Partly Cloudy","partlycloudy","0","0","0","0","0","0","METAR UKKK 190330Z 10002MPS 4900 BR FEW046 M04/M05 Q1030 R08/CLRD70 NOSIG"
"7:00 AM EEST on October 19, 2016","2016","10","19","07","00","Europe/Kiev","4:00 AM GMT on October 19, 2016","2016","10","19","04","00","UTC","-3.0","26.6","-4.0","24.8","93","7.2","4.5","-9999.0","-9999.0","90","East","5.0","3.1","1030","30.42","-5.9","21.3","-9999","-9999","-9999.00","-9999.00","Mist","hazy","0","0","0","0","0","0","METAR UKKK 190400Z 09002MPS 5000 BR NSC M03/M04 Q1030 R08/CLRD70 NOSIG"
"7:30 AM EEST on October 19, 2016","2016","10","19","07","30","Europe/Kiev","4:30 AM GMT on October 19, 2016","2016","10","19","04","30","UTC","-3.0","26.6","-4.0","24.8","93","10.8","6.7","-9999.0","-9999.0","90","East","7.0","4.3","1030","30.42","-7.1","19.2","-9999","-9999","-9999.00","-9999.00","Unknown","unknown","0","0","0","0","0","0","METAR UKKK 190430Z 09003MPS 7000 NSC M03/M04 Q1030 R08/CLRD70 NOSIG"
"8:00 AM EEST on October 19, 2016","2016","10","19","08","00","Europe/Kiev","5:00 AM GMT on October 19, 2016","2016","10","19","05","00","UTC","-2.0","28.4","-3.0","26.6","93","7.2","4.5","-9999.0","-9999.0","100","East","9.0","5.6","1030","30.42","-4.8","23.4","-9999","-9999","-9999.00","-9999.00","Unknown","unknown","0","0","0","0","0","0","METAR UKKK 190500Z 10002MPS 9000 NSC M02/M03 Q1030 R08/CLRD70 NOSIG"
"8:30 AM EEST on October 19, 2016","2016","10","19","08","30","Europe/Kiev","5:30 AM GMT on October 19, 2016","2016","10","19","05","30","UTC","0.0","32.0","-2.0","28.4","87","10.8","6.7","-9999.0","-9999.0","100","East","9.0","5.6","1030","30.42","-3.5","25.7","-9999","-9999","-9999.00","-9999.00","Unknown","unknown","0","0","0","0","0","0","METAR UKKK 190530Z 10003MPS 9000 NSC M00/M02 Q1030 R08/CLRD70 NOSIG"
"9:00 AM EEST on October 19, 2016","2016","10","19","09","00","Europe/Kiev","6:00 AM GMT on October 19, 2016","2016","10","19","06","00","UTC","-1","31","-2","29","90","0.0","0.0","","","","","4","2","1032","30.48","-999","-999","-9999","-9999","","","Mist","hazy","0","0","0","0","0","0","AAXX 19061 33345 31996 70000 11007 21016 30106 40320 56001 71011 80001 333 21022 555 14101 34101 52106"
"9:00 AM EEST on October 19, 2016","2016","10","19","09","00","Europe/Kiev","6:00 AM GMT on October 19, 2016","2016","10","19","06","00","UTC","1.0","33.8","-1.0","30.2","87","10.8","6.7","-9999.0","-9999.0","110","ESE","-9999.0","-9999.0","1030","30.42","-2.3","27.9","-9999","-9999","-9999.00","-9999.00","Clear","clear","0","0","0","0","0","0","METAR UKKK 190600Z 11003MPS CAVOK 01/M01 Q1030 R08/CLRD70 NOSIG"
"9:30 AM EEST on October 19, 2016","2016","10","19","09","30","Europe/Kiev","6:30 AM GMT on October 19, 2016","2016","10","19","06","30","UTC","2.0","35.6","-1.0","30.2","81","7.2","4.5","-9999.0","-9999.0","130","SE","-9999.0","-9999.0","1030","30.42","-0.1","31.8","-9999","-9999","-9999.00","-9999.00","Clear","clear","0","0","0","0","0","0","METAR UKKK 190630Z 13002MPS 090V160 CAVOK 02/M01 Q1030 R08/CLRD70 NOSIG"
"10:00 AM EEST on October 19, 2016","2016","10","19","10","00","Europe/Kiev","7:00 AM GMT on October 19, 2016","2016","10","19","07","00","UTC","3.0","37.4","-1.0","30.2","75","10.8","6.7","-9999.0","-9999.0","130","SE","-9999.0","-9999.0","1030","30.42","0.1","32.2","-9999","-9999","-9999.00","-9999.00","Clear","clear","0","0","0","0","0","0","METAR UKKK 190700Z 13003MPS 100V170 CAVOK 03/M01 Q1030 R08/CLRD70 NOSIG"
"10:30 AM EEST on October 19, 2016","2016","10","19","10","30","Europe/Kiev","7:30 AM GMT on October 19, 2016","2016","10","19","07","30","UTC","4.0","39.2","-1.0","30.2","70","10.8","6.7","-9999.0","-9999.0","130","SE","-9999.0","-9999.0","1030","30.42","1.3","34.4","-9999","-9999","-9999.00","-9999.00","Clear","clear","0","0","0","0","0","0","METAR UKKK 190730Z 13003MPS 100V180 CAVOK 04/M01 Q1030 R08/CLRD70 NOSIG"
"11:00 AM EEST on October 19, 2016","2016","10","19","11","00","Europe/Kiev","8:00 AM GMT on October 19, 2016","2016","10","19","08","00","UTC","4.0","39.2","-1.0","30.2","70","10.8","6.7","-9999.0","-9999.0","140","SE","-9999.0","-9999.0","1031","30.45","1.3","34.4","-9999","-9999","-9999.00","-9999.00","Clear","clear","0","0","0","0","0","0","METAR UKKK 190800Z 14003MPS 110V200 CAVOK 04/M01 Q1031 R08/CLRD70 NOSIG"
"11:30 AM EEST on October 19, 2016","2016","10","19","11","30","Europe/Kiev","8:30 AM GMT on October 19, 2016","2016","10","19","08","30","UTC","5.0","41.0","-1.0","30.2","65","10.8","6.7","-9999.0","-9999.0","140","SE","-9999.0","-9999.0","1031","30.45","2.5","36.5","-9999","-9999","-9999.00","-9999.00","Clear","clear","0","0","0","0","0","0","METAR UKKK 190830Z 14003MPS 080V200 CAVOK 05/M01 Q1031 R08/CLRD70 NOSIG"
"12:00 PM EEST on October 19, 2016","2016","10","19","12","00","Europe/Kiev","9:00 AM GMT on October 19, 2016","2016","10","19","09","00","UTC","5","42","-0","31","56","7.2","4.5","","","170","South","20","12","1032","30.46","-999","-999","-9999","-9999","","","Partly Cloudy","partlycloudy","0","0","0","0","0","0","AAXX 19091 33345 42998 61702 10053 21003 30106 40315 54000 83031 555 10009"
"12:00 PM EEST on October 19, 2016","2016","10","19","12","00","Europe/Kiev","9:00 AM GMT on October 19, 2016","2016","10","19","09","00","UTC","5.0","41.0","-2.0","28.4","61","14.4","8.9","-9999.0","-9999.0","140","SE","-9999.0","-9999.0","1030","30.42","1.9","35.4","-9999","-9999","-9999.00","-9999.00","Clear","clear","0","0","0","0","0","0","METAR UKKK 190900Z 14004MPS 110V180 CAVOK 05/M02 Q1030 R08/CLRD70 NOSIG"
"12:30 PM EEST on October 19, 2016","2016","10","19","12","30","Europe/Kiev","9:30 AM GMT on October 19, 2016","2016","10","19","09","30","UTC","6.0","42.8","-2.0","28.4","57","14.4","8.9","-9999.0","-9999.0","140","SE","10.0","6.2","1030","30.42","3.1","37.6","-9999","-9999","-9999.00","-9999.00","Mostly Cloudy","mostlycloudy","0","0","0","0","0","0","METAR UKKK 190930Z 14004MPS 110V180 9999 FEW034 SCT160 BKN200 06/M02 Q1030 R08/CLRD70 NOSIG"
"1:00 PM EEST on October 19, 2016","2016","10","19","13","00","Europe/Kiev","10:00 AM GMT on October 19, 2016","2016","10","19","10","00","UTC","6.0","42.8","-2.0","28.4","57","14.4","8.9","-9999.0","-9999.0","130","SE","10.0","6.2","1030","30.42","3.1","37.6","-9999","-9999","-9999.00","-9999.00","Mostly Cloudy","mostlycloudy","0","0","0","0","0","0","METAR UKKK 191000Z 13004MPS 080V210 9999 SCT037 BKN150 06/M02 Q1030 R08/CLRD70 NOSIG"
"1:30 PM EEST on October 19, 2016","2016","10","19","13","30","Europe/Kiev","10:30 AM GMT on October 19, 2016","2016","10","19","10","30","UTC","7.0","44.6","-2.0","28.4","53","10.8","6.7","-9999.0","-9999.0","140","SE","10.0","6.2","1029","30.39","4.9","40.8","-9999","-9999","-9999.00","-9999.00","Mostly Cloudy","mostlycloudy","0","0","0","0","0","0","METAR UKKK 191030Z 14003MPS 080V220 9999 BKN036 BKN150 07/M02 Q1029 R08/CLRD70 NOSIG"
"2:00 PM EEST on October 19, 2016","2016","10","19","14","00","Europe/Kiev","11:00 AM GMT on October 19, 2016","2016","10","19","11","00","UTC","6.0","42.8","-3.0","26.6","53","14.4","8.9","-9999.0","-9999.0","130","SE","10.0","6.2","1029","30.39","3.1","37.6","-9999","-9999","-9999.00","-9999.00","Mostly Cloudy","mostlycloudy","0","0","0","0","0","0","METAR UKKK 191100Z 13004MPS 100V160 9999 SCT039 BKN150 06/M03 Q1029 R08/CLRD70 NOSIG"
"2:30 PM EEST on October 19, 2016","2016","10","19","14","30","Europe/Kiev","11:30 AM GMT on October 19, 2016","2016","10","19","11","30","UTC","6.0","42.8","-3.0","26.6","53","14.4","8.9","-9999.0","-9999.0","110","ESE","10.0","6.2","1029","30.39","3.1","37.6","-9999","-9999","-9999.00","-9999.00","Mostly Cloudy","mostlycloudy","0","0","0","0","0","0","METAR UKKK 191130Z 11004MPS 080V150 9999 SCT038 BKN150 06/M03 Q1029 R08/CLRD70 NOSIG"
"3:00 PM EEST on October 19, 2016","2016","10","19","15","00","Europe/Kiev","12:00 PM GMT on October 19, 2016","2016","10","19","12","00","UTC","6","44","-1","30","47","7.2","4.5","","","160","SSE","20","12","1030","30.42","-999","-999","-9999","-9999","","","Scattered Clouds","partlycloudy","0","0","0","0","0","0","AAXX 19121 33345 32598 61602 10065 21009 30091 40299 58015 82501 555 10011"
"3:00 PM EEST on October 19, 2016","2016","10","19","15","00","Europe/Kiev","12:00 PM GMT on October 19, 2016","2016","10","19","12","00","UTC","7.0","44.6","-1.0","30.2","57","18.0","11.2","-9999.0","-9999.0","100","East","10.0","6.2","1029","30.39","3.8","38.9","-9999","-9999","-9999.00","-9999.00","Mostly Cloudy","mostlycloudy","0","0","0","0","0","0","METAR UKKK 191200Z 10005MPS 080V140 9999 BKN038 BKN150 07/M01 Q1029 R08/CLRD70 NOSIG"
"3:30 PM EEST on October 19, 2016","2016","10","19","15","30","Europe/Kiev","12:30 PM GMT on October 19, 2016","2016","10","19","12","30","UTC","7.0","44.6","-1.0","30.2","57","21.6","13.4","-9999.0","-9999.0","90","East","10.0","6.2","1028","30.36","3.4","38.2","-9999","-9999","-9999.00","-9999.00","Mostly Cloudy","mostlycloudy","0","0","0","0","0","0","METAR UKKK 191230Z 09006MPS 070V140 9999 SCT036 BKN150 07/M01 Q1028 R08/CLRD70 NOSIG"
"4:00 PM EEST on October 19, 2016","2016","10","19","16","00","Europe/Kiev","1:00 PM GMT on October 19, 2016","2016","10","19","13","00","UTC","7.0","44.6","-3.0","26.6","49","10.8","6.7","-9999.0","-9999.0","130","SE","10.0","6.2","1028","30.36","4.9","40.8","-9999","-9999","-9999.00","-9999.00","Mostly Cloudy","mostlycloudy","0","0","0","0","0","0","METAR UKKK 191300Z 13003MPS 090V190 9999 SCT040 BKN150 07/M03 Q1028 R08/CLRD70 NOSIG"
"4:30 PM EEST on October 19, 2016","2016","10","19","16","30","Europe/Kiev","1:30 PM GMT on October 19, 2016","2016","10","19","13","30","UTC","6.0","42.8","-2.0","28.4","57","14.4","8.9","-9999.0","-9999.0","100","East","10.0","6.2","1028","30.36","3.1","37.6","-9999","-9999","-9999.00","-9999.00","Scattered Clouds","partlycloudy","0","0","0","0","0","0","METAR UKKK 191330Z 10004MPS 070V140 9999 FEW040 SCT150 06/M02 Q1028 R08/CLRD70 NOSIG"
"5:00 PM EEST on October 19, 2016","2016","10","19","17","00","Europe/Kiev","2:00 PM GMT on October 19, 2016","2016","10","19","14","00","UTC","5.0","41.0","-2.0","28.4","61","10.8","6.7","-9999.0","-9999.0","120","ESE","10.0","6.2","1028","30.36","2.5","36.5","-9999","-9999","-9999.00","-9999.00","Scattered Clouds","partlycloudy","0","0","0","0","0","0","METAR UKKK 191400Z 12003MPS 090V150 9999 FEW040 SCT150 05/M02 Q1028 R08/CLRD70 NOSIG"
"5:30 PM EEST on October 19, 2016","2016","10","19","17","30","Europe/Kiev","2:30 PM GMT on October 19, 2016","2016","10","19","14","30","UTC","5.0","41.0","-2.0","28.4","61","14.4","8.9","-9999.0","-9999.0","110","ESE","10.0","6.2","1028","30.36","1.9","35.4","-9999","-9999","-9999.00","-9999.00","Scattered Clouds","partlycloudy","0","0","0","0","0","0","METAR UKKK 191430Z 11004MPS 9999 FEW040 SCT170 05/M02 Q1028 R08/CLRD70 NOSIG"
"6:00 PM EEST on October 19, 2016","2016","10","19","18","00","Europe/Kiev","3:00 PM GMT on October 19, 2016","2016","10","19","15","00","UTC","4","40","-2","29","53","3.6","2.2","","","140","SE","20","12","1030","30.41","-999","-999","-9999","-9999","","","Scattered Clouds","partlycloudy","0","0","0","0","0","0","AAXX 19151 33345 42998 61401 10043 21018 30087 40296 57004 82031 555 10002"
"6:00 PM EEST on October 19, 2016","2016","10","19","18","00","Europe/Kiev","3:00 PM GMT on October 19, 2016","2016","10","19","15","00","UTC","4.0","39.2","-2.0","28.4","65","10.8","6.7","-9999.0","-9999.0","110","ESE","-9999.0","-9999.0","1028","30.36","1.3","34.4","-9999","-9999","-9999.00","-9999.00","Clear","clear","0","0","0","0","0","0","METAR UKKK 191500Z 11003MPS CAVOK 04/M02 Q1028 R08/CLRD70 NOSIG"
"6:30 PM EEST on October 19, 2016","2016","10","19","18","30","Europe/Kiev","3:30 PM GMT on October 19, 2016","2016","10","19","15","30","UTC","4.0","39.2","-2.0","28.4","65","10.8","6.7","-9999.0","-9999.0","100","East","-9999.0","-9999.0","1029","30.39","1.3","34.4","-9999","-9999","-9999.00","-9999.00","Clear","clear","0","0","0","0","0","0","METAR UKKK 191530Z 10003MPS CAVOK 04/M02 Q1029 R08/CLRD70 NOSIG"
"7:00 PM EEST on October 19, 2016","2016","10","19","19","00","Europe/Kiev","4:00 PM GMT on October 19, 2016","2016","10","19","16","00","UTC","4.0","39.2","-2.0","28.4","65","14.4","8.9","-9999.0","-9999.0","110","ESE","-9999.0","-9999.0","1028","30.36","0.6","33.1","-9999","-9999","-9999.00","-9999.00","Clear","clear","0","0","0","0","0","0","METAR UKKK 191600Z 11004MPS CAVOK 04/M02 Q1028 R08/CLRD70 NOSIG"
"7:30 PM EEST on October 19, 2016","2016","10","19","19","30","Europe/Kiev","4:30 PM GMT on October 19, 2016","2016","10","19","16","30","UTC","3.0","37.4","-2.0","28.4","70","10.8","6.7","-9999.0","-9999.0","110","ESE","-9999.0","-9999.0","1028","30.36","0.1","32.2","-9999","-9999","-9999.00","-9999.00","Clear","clear","0","0","0","0","0","0","METAR UKKK 191630Z 11003MPS CAVOK 03/M02 Q1028 R08/CLRD70 NOSIG"
"8:00 PM EEST on October 19, 2016","2016","10","19","20","00","Europe/Kiev","5:00 PM GMT on October 19, 2016","2016","10","19","17","00","UTC","3.0","37.4","-2.0","28.4","70","10.8","6.7","-9999.0","-9999.0","110","ESE","-9999.0","-9999.0","1028","30.36","0.1","32.2","-9999","-9999","-9999.00","-9999.00","Clear","clear","0","0","0","0","0","0","METAR UKKK 191700Z 11003MPS 080V140 CAVOK 03/M02 Q1028 R08/CLRD70 NOSIG"
"8:30 PM EEST on October 19, 2016","2016","10","19","20","30","Europe/Kiev","5:30 PM GMT on October 19, 2016","2016","10","19","17","30","UTC","3.0","37.4","-2.0","28.4","70","14.4","8.9","-9999.0","-9999.0","110","ESE","-9999.0","-9999.0","1028","30.36","-0.6","30.9","-9999","-9999","-9999.00","-9999.00","Clear","clear","0","0","0","0","0","0","METAR UKKK 191730Z 11004MPS CAVOK 03/M02 Q1028 R08/CLRD70 NOSIG"
"9:00 PM EEST on October 19, 2016","2016","10","19","21","00","Europe/Kiev","6:00 PM GMT on October 19, 2016","2016","10","19","18","00","UTC","2","35","-2","28","68","7.2","4.5","","","180","South","20","12","1030","30.42","-999","-999","-9999","-9999","","","","","0","0","0","0","0","0","AAXX 19181 33345 32998 01802 10017 21021 30088 40299 53001 333 10073 555 10101"
"9:00 PM EEST on October 19, 2016","2016","10","19","21","00","Europe/Kiev","6:00 PM GMT on October 19, 2016","2016","10","19","18","00","UTC","2.0","35.6","-2.0","28.4","75","14.4","8.9","-9999.0","-9999.0","110","ESE","-9999.0","-9999.0","1028","30.36","-1.8","28.7","-9999","-9999","-9999.00","-9999.00","Clear","clear","0","0","0","0","0","0","METAR UKKK 191800Z 11004MPS CAVOK 02/M02 Q1028 R08/CLRD70 NOSIG"
"9:30 PM EEST on October 19, 2016","2016","10","19","21","30","Europe/Kiev","6:30 PM GMT on October 19, 2016","2016","10","19","18","30","UTC","2.0","35.6","-2.0","28.4","75","14.4","8.9","-9999.0","-9999.0","110","ESE","-9999.0","-9999.0","1029","30.39","-1.8","28.7","-9999","-9999","-9999.00","-9999.00","Clear","clear","0","0","0","0","0","0","METAR UKKK 191830Z 11004MPS 090V150 CAVOK 02/M02 Q1029 R08/CLRD70 NOSIG"
"10:00 PM EEST on October 19, 2016","2016","10","19","22","00","Europe/Kiev","7:00 PM GMT on October 19, 2016","2016","10","19","19","00","UTC","2.0","35.6","-2.0","28.4","75","14.4","8.9","-9999.0","-9999.0","110","ESE","-9999.0","-9999.0","1029","30.39","-1.8","28.7","-9999","-9999","-9999.00","-9999.00","Clear","clear","0","0","0","0","0","0","METAR UKKK 191900Z 11004MPS CAVOK 02/M02 Q1029 R08/CLRD70 NOSIG"
"10:30 PM EEST on October 19, 2016","2016","10","19","22","30","Europe/Kiev","7:30 PM GMT on October 19, 2016","2016","10","19","19","30","UTC","2.0","35.6","-3.0","26.6","70","14.4","8.9","-9999.0","-9999.0","110","ESE","-9999.0","-9999.0","1029","30.39","-1.8","28.7","-9999","-9999","-9999.00","-9999.00","Clear","clear","0","0","0","0","0","0","METAR UKKK 191930Z 11004MPS CAVOK 02/M03 Q1029 R08/CLRD70 NOSIG"
"11:00 PM EEST on October 19, 2016","2016","10","19","23","00","Europe/Kiev","8:00 PM GMT on October 19, 2016","2016","10","19","20","00","UTC","1.0","33.8","-3.0","26.6","75","14.4","8.9","-9999.0","-9999.0","110","ESE","-9999.0","-9999.0","1029","30.39","-3.0","26.5","-9999","-9999","-9999.00","-9999.00","Clear","clear","0","0","0","0","0","0","METAR UKKK 192000Z 11004MPS CAVOK 01/M03 Q1029 R08/CLRD70 NOSIG"
"11:30 PM EEST on October 19, 2016","2016","10","19","23","30","Europe/Kiev","8:30 PM GMT on October 19, 2016","2016","10","19","20","30","UTC","1.0","33.8","-3.0","26.6","75","14.4","8.9","-9999.0","-9999.0","110","ESE","-9999.0","-9999.0","1029","30.39","-3.0","26.5","-9999","-9999","-9999.00","-9999.00","Clear","clear","0","0","0","0","0","0","METAR UKKK 192030Z 11004MPS CAVOK 01/M03 Q1029 R08/CLRD70 NOSIG"
"12:00 AM EEST on October 20, 2016","2016","10","20","00","00","Europe/Kiev","9:00 PM GMT on October 19, 2016","2016","10","19","21","00","UTC","-0","32","-3","26","71","3.6","2.2","","","30","NNE","20","12","1030","30.43","-999","-999","-9999","-9999","","","","","0","0","0","0","0","0","AAXX 19211 33345 42998 00301 11001 21032 30090 40303 52002 555 11101"
"12:00 AM EEST on October 20, 2016","2016","10","20","00","00","Europe/Kiev","9:00 PM GMT on October 19, 2016","2016","10","19","21","00","UTC","0.0","32.0","-3.0","26.6","80","10.8","6.7","-9999.0","-9999.0","100","East","-9999.0","-9999.0","1029","30.39","-3.5","25.7","-9999","-9999","-9999.00","-9999.00","Clear","clear","0","0","0","0","0","0","METAR UKKK 192100Z 10003MPS CAVOK 00/M03 Q1029 R08/CLRD70 NOSIG"
"12:30 AM EEST on October 20, 2016","2016","10","20","00","30","Europe/Kiev","9:30 PM GMT on October 19, 2016","2016","10","19","21","30","UTC","0.0","32.0","-3.0","26.6","80","10.8","6.7","-9999.0","-9999.0","100","East","-9999.0","-9999.0","1029","30.39","-3.5","25.7","-9999","-9999","-9999.00","-9999.00","Clear","clear","0","0","0","0","0","0","METAR UKKK 192130Z 10003MPS CAVOK M00/M03 Q1029 R08/CLRD70 NOSIG"
"1:00 AM EEST on October 20, 2016","2016","10","20","01","00","Europe/Kiev","10:00 PM GMT on October 19, 2016","2016","10","19","22","00","UTC","0.0","32.0","-3.0","26.6","80","10.8","6.7","-9999.0","-9999.0","100","East","-9999.0","-9999.0","1029","30.39","-3.5","25.7","-9999","-9999","-9999.00","-9999.00","Clear","clear","0","0","0","0","0","0","METAR UKKK 192200Z 10003MPS CAVOK M00/M03 Q1029 R08/CLRD70 NOSIG"
"1:30 AM EEST on October 20, 2016","2016","10","20","01","30","Europe/Kiev","10:30 PM GMT on October 19, 2016","2016","10","19","22","30","UTC","-2.0","28.4","-3.0","26.6","93","10.8","6.7","-9999.0","-9999.0","90","East","9.0","5.6","1029","30.39","-5.9","21.4","-9999","-9999","-9999.00","-9999.00","Clear","clear","0","0","0","0","0","0","METAR UKKK 192230Z 09003MPS 9000 SKC M02/M03 Q1029 R08/CLRD70 NOSIG"
"2:00 AM EEST on October 20, 2016","2016","10","20","02","00","Europe/Kiev","11:00 PM GMT on October 19, 2016","2016","10","19","23","00","UTC","-1.0","30.2","-2.0","28.4","93","10.8","6.7","-9999.0","-9999.0","100","East","-9999.0","-9999.0","1029","30.39","-4.7","23.5","-9999","-9999","-9999.00","-9999.00","Clear","clear","0","0","0","0","0","0","METAR UKKK 192300Z 10003MPS CAVOK M01/M02 Q1029 R08/CLRD70 NOSIG"
"2:30 AM EEST on October 20, 2016","2016","10","20","02","30","Europe/Kiev","11:30 PM GMT on October 19, 2016","2016","10","19","23","30","UTC","-2.0","28.4","-3.0","26.6","93","10.8","6.7","-9999.0","-9999.0","90","East","9.0","5.6","1029","30.39","-5.9","21.4","-9999","-9999","-9999.00","-9999.00","Unknown","unknown","0","0","0","0","0","0","METAR UKKK 192330Z 09003MPS 9000 NSC M02/M03 Q1029 R08/CLRD70 NOSIG"
"3:00 AM EEST on October 20, 2016","2016","10","20","03","00","Europe/Kiev","12:00 AM GMT on October 20, 2016","2016","10","20","00","00","UTC","-2","29","-3","26","86","0.0","0.0","","","","","4","2","1030","30.43","-999","-999","-9999","-9999","","","Mist","hazy","0","0","0","0","0","0","AAXX 20001 33345 31996 60000 11017 21031 30089 40303 58001 71011 80009 555 14102"
"3:00 AM EEST on October 20, 2016","2016","10","20","03","00","Europe/Kiev","12:00 AM GMT on October 20, 2016","2016","10","20","00","00","UTC","-1.0","30.2","-3.0","26.6","86","10.8","6.7","-9999.0","-9999.0","90","East","9.0","5.6","1029","30.39","-4.7","23.5","-9999","-9999","-9999.00","-9999.00","Unknown","unknown","0","0","0","0","0","0","METAR UKKK 200000Z 09003MPS 9000 NSC M01/M03 Q1029 R08/CLRD70 NOSIG"
"3:30 AM EEST on October 20, 2016","2016","10","20","03","30","Europe/Kiev","12:30 AM GMT on October 20, 2016","2016","10","20","00","30","UTC","-1.0","30.2","-3.0","26.6","86","10.8","6.7","-9999.0","-9999.0","90","East","-9999.0","-9999.0","1029","30.39","-4.7","23.5","-9999","-9999","-9999.00","-9999.00","Clear","clear","0","0","0","0","0","0","METAR UKKK 200030Z 09003MPS CAVOK M01/M03 Q1029 R08/CLRD70 NOSIG"
"4:00 AM EEST on October 20, 2016","2016","10","20","04","00","Europe/Kiev","1:00 AM GMT on October 20, 2016","2016","10","20","01","00","UTC","-1.0","30.2","-3.0","26.6","86","10.8","6.7","-9999.0","-9999.0","90","East","-9999.0","-9999.0","1029","30.39","-4.7","23.5","-9999","-9999","-9999.00","-9999.00","Clear","clear","0","0","0","0","0","0","METAR UKKK 200100Z 09003MPS CAVOK M01/M03 Q1029 R08/CLRD70 NOSIG"
"4:30 AM EEST on October 20, 2016","2016","10","20","04","30","Europe/Kiev","1:30 AM GMT on October 20, 2016","2016","10","20","01","30","UTC","-1.0","30.2","-3.0","26.6","86","7.2","4.5","-9999.0","-9999.0","90","East","-9999.0","-9999.0","1029","30.39","-3.6","25.5","-9999","-9999","-9999.00","-9999.00","Clear","clear","0","0","0","0","0","0","METAR UKKK 200130Z 09002MPS CAVOK M01/M03 Q1029 R08/CLRD70 NOSIG"
"5:00 AM EEST on October 20, 2016","2016","10","20","05","00","Europe/Kiev","2:00 AM GMT on October 20, 2016","2016","10","20","02","00","UTC","-1.0","30.2","-3.0","26.6","86","10.8","6.7","-9999.0","-9999.0","90","East","-9999.0","-9999.0","1028","30.36","-4.7","23.5","-9999","-9999","-9999.00","-9999.00","Clear","clear","0","0","0","0","0","0","METAR UKKK 200200Z 09003MPS CAVOK M01/M03 Q1028 R08/CLRD70 NOSIG"
"5:30 AM EEST on October 20, 2016","2016","10","20","05","30","Europe/Kiev","2:30 AM GMT on October 20, 2016","2016","10","20","02","30","UTC","-1.0","30.2","-2.0","28.4","93","10.8","6.7","-9999.0","-9999.0","90","East","-9999.0","-9999.0","1028","30.36","-4.7","23.5","-9999","-9999","-9999.00","-9999.00","Clear","clear","0","0","0","0","0","0","METAR UKKK 200230Z 09003MPS CAVOK M01/M02 Q1028 R08/CLRD70 NOSIG"
"6:00 AM EEST on October 20, 2016","2016","10","20","06","00","Europe/Kiev","3:00 AM GMT on October 20, 2016","2016","10","20","03","00","UTC","-1","30","-2","28","86","3.6","2.2","","","140","SE","4","2","1030","30.42","-999","-999","-9999","-9999","","","Mist","hazy","0","0","0","0","0","0","AAXX 20031 33345 41596 61401 11012 21025 30087 40301 57002 71022 86500 555 14101"
"6:00 AM EEST on October 20, 2016","2016","10","20","06","00","Europe/Kiev","3:00 AM GMT on October 20, 2016","2016","10","20","03","00","UTC","-1.0","30.2","-2.0","28.4","93","10.8","6.7","-9999.0","-9999.0","90","East","-9999.0","-9999.0","1028","30.36","-4.7","23.5","-9999","-9999","-9999.00","-9999.00","Clear","clear","0","0","0","0","0","0","METAR UKKK 200300Z 09003MPS CAVOK M01/M02 Q1028 R08/CLRD70 NOSIG"
"6:30 AM EEST on October 20, 2016","2016","10","20","06","30","Europe/Kiev","3:30 AM GMT on October 20, 2016","2016","10","20","03","30","UTC","-1.0","30.2","-2.0","28.4","93","10.8","6.7","-9999.0","-9999.0","90","East","-9999.0","-9999.0","1028","30.36","-4.7","23.5","-9999","-9999","-9999.00","-9999.00","Clear","clear","0","0","0","0","0","0","METAR UKKK 200330Z 09003MPS CAVOK M01/M02 Q1028 R08/CLRD70 NOSIG"
"7:00 AM EEST on October 20, 2016","2016","10","20","07","00","Europe/Kiev","4:00 AM GMT on October 20, 2016","2016","10","20","04","00","UTC","-1.0","30.2","-2.0","28.4","93","10.8","6.7","-9999.0","-9999.0","90","East","-9999.0","-9999.0","1028","30.36","-4.7","23.5","-9999","-9999","-9999.00","-9999.00","Clear","clear","0","0","0","0","0","0","METAR UKKK 200400Z 09003MPS CAVOK M01/M02 Q1028 R08/CLRD70 NOSIG"
"7:30 AM EEST on October 20, 2016","2016","10","20","07","30","Europe/Kiev","4:30 AM GMT on October 20, 2016","2016","10","20","04","30","UTC","-1.0","30.2","-3.0","26.6","86","10.8","6.7","-9999.0","-9999.0","90","East","9.0","5.6","1029","30.39","-4.7","23.5","-9999","-9999","-9999.00","-9999.00","Unknown","unknown","0","0","0","0","0","0","METAR UKKK 200430Z 09003MPS 9000 NSC M01/M03 Q1029 R08/CLRD70 NOSIG"
"8:00 AM EEST on October 20, 2016","2016","10","20","08","00","Europe/Kiev","5:00 AM GMT on October 20, 2016","2016","10","20","05","00","UTC","-2.0","28.4","-3.0","26.6","93","10.8","6.7","-9999.0","-9999.0","90","East","8.0","5.0","1029","30.39","-5.9","21.4","-9999","-9999","-9999.00","-9999.00","Scattered Clouds","partlycloudy","0","0","0","0","0","0","METAR UKKK 200500Z 09003MPS 8000 FEW035 SCT100 M02/M03 Q1029 R08/CLRD70 NOSIG"
"8:30 AM EEST on October 20, 2016","2016","10","20","08","30","Europe/Kiev","5:30 AM GMT on October 20, 2016","2016","10","20","05","30","UTC","-1.0","30.2","-2.0","28.4","93","10.8","6.7","-9999.0","-9999.0","100","East","9.0","5.6","1029","30.39","-4.7","23.5","-9999","-9999","-9999.00","-9999.00","Scattered Clouds","partlycloudy","0","0","0","0","0","0","METAR UKKK 200530Z 10003MPS 9000 FEW035 SCT100 M01/M02 Q1029 R08/CLRD70 NOSIG"
"9:00 AM EEST on October 20, 2016","2016","10","20","09","00","Europe/Kiev","6:00 AM GMT on October 20, 2016","2016","10","20","06","00","UTC","-0","31","-2","29","88","3.6","2.2","","","130","SE","4","2","1031","30.45","-999","-999","-9999","-9999","","","Mist","hazy","0","0","0","0","0","0","AAXX 20061 33345 31596 71301 11003 21018 30099 40312 53012 71022 87500 333 21017 87626 555 14100 34102 52104"
"9:00 AM EEST on October 20, 2016","2016","10","20","09","00","Europe/Kiev","6:00 AM GMT on October 20, 2016","2016","10","20","06","00","UTC","0.0","32.0","-2.0","28.4","87","10.8","6.7","-9999.0","-9999.0","90","East","9.0","5.6","1030","30.42","-3.5","25.7","-9999","-9999","-9999.00","-9999.00","Mostly Cloudy","mostlycloudy","0","0","0","0","0","0","METAR UKKK 200600Z 09003MPS 9000 BKN034 00/M02 Q1030 R08/CLRD70 NOSIG"
"9:30 AM EEST on October 20, 2016","2016","10","20","09","30","Europe/Kiev","6:30 AM GMT on October 20, 2016","2016","10","20","06","30","UTC","1.0","33.8","-1.0","30.2","87","14.4","8.9","-9999.0","-9999.0","90","East","10.0","6.2","1030","30.42","-3.0","26.5","-9999","-9999","-9999.00","-9999.00","Mostly Cloudy","mostlycloudy","0","0","0","0","0","0","METAR UKKK 200630Z 09004MPS 9999 BKN033 01/M01 Q1030 R08/CLRD70 NOSIG"
"10:00 AM EEST on October 20, 2016","2016","10","20","10","00","Europe/Kiev","7:00 AM GMT on October 20, 2016","2016","10","20","07","00","UTC","2.0","35.6","-1.0","30.2","81","14.4","8.9","-9999.0","-9999.0","110","ESE","10.0","6.2","1030","30.42","-1.8","28.7","-9999","-9999","-9999.00","-9999.00","Mostly Cloudy","mostlycloudy","0","0","0","0","0","0","METAR UKKK 200700Z 11004MPS 080V140 9999 BKN033 02/M01 Q1030 R08/CLRD70 NOSIG"
"10:30 AM EEST on October 20, 2016","2016","10","20","10","30","Europe/Kiev","7:30 AM GMT on October 20, 2016","2016","10","20","07","30","UTC","2.0","35.6","-1.0","30.2","81","14.4","8.9","-9999.0","-9999.0","110","ESE","10.0","6.2","1030","30.42","-1.8","28.7","-9999","-9999","-9999.00","-9999.00","Mostly Cloudy","mostlycloudy","0","0","0","0","0","0","METAR UKKK 200730Z 11004MPS 9999 BKN033 02/M01 Q1030 R08/CLRD70 NOSIG"
"11:00 AM EEST on October 20, 2016","2016","10","20","11","00","Europe/Kiev","8:00 AM GMT on October 20, 2016","2016","10","20","08","00","UTC","3.0","37.4","-1.0","30.2","75","10.8","6.7","-9999.0","-9999.0","110","ESE","10.0","6.2","1030","30.42","0.1","32.2","-9999","-9999","-9999.00","-9999.00","Mostly Cloudy","mostlycloudy","0","0","0","0","0","0","METAR UKKK 200800Z 11003MPS 080V140 9999 BKN033 03/M01 Q1030 R08/CLRD70 NOSIG"
"11:30 AM EEST on October 20, 2016","2016","10","20","11","30","Europe/Kiev","8:30 AM GMT on October 20, 2016","2016","10","20","08","30","UTC","4.0","39.2","-1.0","30.2","70","14.4","8.9","-9999.0","-9999.0","110","ESE","-9999.0","-9999.0","1030","30.42","0.6","33.1","-9999","-9999","-9999.00","-9999.00","Clear","clear","0","0","0","0","0","0","METAR UKKK 200830Z 11004MPS 080V140 CAVOK 04/M01 Q1030 R08/CLRD70 NOSIG"
"12:00 PM EEST on October 20, 2016","2016","10","20","12","00","Europe/Kiev","9:00 AM GMT on October 20, 2016","2016","10","20","09","00","UTC","5","41","-2","28","48","10.8","6.7","","","180","South","20","12","1031","30.45","-999","-999","-9999","-9999","","","Scattered Clouds","partlycloudy","0","0","0","0","0","0","AAXX 20091 33345 42698 61803 10048 21022 30101 40310 52002 81101 555 10012"
"12:00 PM EEST on October 20, 2016","2016","10","20","12","00","Europe/Kiev","9:00 AM GMT on October 20, 2016","2016","10","20","09","00","UTC","4.0","39.2","-2.0","28.4","65","18.0","11.2","-9999.0","-9999.0","130","SE","10.0","6.2","1030","30.42","0.1","32.2","-9999","-9999","-9999.00","-9999.00","Mostly Cloudy","mostlycloudy","0","0","0","0","0","0","METAR UKKK 200900Z 13005MPS 100V160 9999 FEW033 BKN200 04/M02 Q1030 R08/CLRD70 NOSIG"
"12:30 PM EEST on October 20, 2016","2016","10","20","12","30","Europe/Kiev","9:30 AM GMT on October 20, 2016","2016","10","20","09","30","UTC","5.0","41.0","-2.0","28.4","61","18.0","11.2","-9999.0","-9999.0","100","East","10.0","6.2","1030","30.42","1.3","34.4","-9999","-9999","-9999.00","-9999.00","Mostly Cloudy","mostlycloudy","0","0","0","0","0","0","METAR UKKK 200930Z 10005MPS 070V130 9999 FEW026 BKN200 05/M02 Q1030 R08/CLRD70 NOSIG"
"1:00 PM EEST on October 20, 2016","2016","10","20","13","00","Europe/Kiev","10:00 AM GMT on October 20, 2016","2016","10","20","10","00","UTC","5.0","41.0","-2.0","28.4","61","21.6","13.4","-9999.0","-9999.0","90","East","10.0","6.2","1030","30.42","0.9","33.6","-9999","-9999","-9999.00","-9999.00","Mostly Cloudy","mostlycloudy","0","0","0","0","0","0","METAR UKKK 201000Z 09006MPS 9999 FEW028 BKN200 05/M02 Q1030 R08/CLRD70 NOSIG"
"1:30 PM EEST on October 20, 2016","2016","10","20","13","30","Europe/Kiev","10:30 AM GMT on October 20, 2016","2016","10","20","10","30","UTC","4.0","39.2","-3.0","26.6","61","14.4","8.9","-9999.0","-9999.0","130","SE","9.0","5.6","1030","30.42","0.6","33.1","-9999","-9999","-9999.00","-9999.00","Mostly Cloudy","mostlycloudy","0","0","0","0","0","0","METAR UKKK 201030Z 13004MPS 9000 FEW030 BKN200 04/M03 Q1030 R08/CLRD70 NOSIG"
"2:00 PM EEST on October 20, 2016","2016","10","20","14","00","Europe/Kiev","11:00 AM GMT on October 20, 2016","2016","10","20","11","00","UTC","5.0","41.0","-2.0","28.4","61","21.6","13.4","-9999.0","-9999.0","90","East","10.0","6.2","1029","30.39","0.9","33.6","-9999","-9999","-9999.00","-9999.00","Mostly Cloudy","mostlycloudy","0","0","0","0","0","0","METAR UKKK 201100Z 09006MPS 070V130 9999 FEW033 BKN200 05/M02 Q1029 R08/CLRD70 NOSIG"
"2:30 PM EEST on October 20, 2016","2016","10","20","14","30","Europe/Kiev","11:30 AM GMT on October 20, 2016","2016","10","20","11","30","UTC","5.0","41.0","-2.0","28.4","61","14.4","8.9","-9999.0","-9999.0","90","East","10.0","6.2","1029","30.39","1.9","35.4","-9999","-9999","-9999.00","-9999.00","Mostly Cloudy","mostlycloudy","0","0","0","0","0","0","METAR UKKK 201130Z 09004MPS 9999 FEW032 BKN200 05/M02 Q1029 R08/CLRD70 NOSIG"
"3:00 PM EEST on October 20, 2016","2016","10","20","15","00","Europe/Kiev","12:00 PM GMT on October 20, 2016","2016","10","20","12","00","UTC","6","42","-2","28","45","10.8","6.7","","","130","SE","20","12","1030","30.43","-999","-999","-9999","-9999","","","Clear","clear","0","0","0","0","0","0","AAXX 20121 33345 32998 71303 10055 21023 30094 40303 58007 80005 555 10011"
"3:00 PM EEST on October 20, 2016","2016","10","20","15","00","Europe/Kiev","12:00 PM GMT on October 20, 2016","2016","10","20","12","00","UTC","5.0","41.0","-3.0","26.6","57","14.4","8.9","-9999.0","-9999.0","110","ESE","10.0","6.2","1029","30.39","1.9","35.4","-9999","-9999","-9999.00","-9999.00","Mostly Cloudy","mostlycloudy","0","0","0","0","0","0","METAR UKKK 201200Z 11004MPS 080V150 9999 FEW032 BKN200 05/M03 Q1029 R08/CLRD70 NOSIG"
"3:30 PM EEST on October 20, 2016","2016","10","20","15","30","Europe/Kiev","12:30 PM GMT on October 20, 2016","2016","10","20","12","30","UTC","5.0","41.0","-2.0","28.4","61","14.4","8.9","-9999.0","-9999.0","110","ESE","10.0","6.2","1029","30.39","1.9","35.4","-9999","-9999","-9999.00","-9999.00","Mostly Cloudy","mostlycloudy","0","0","0","0","0","0","METAR UKKK 201230Z 11004MPS 060V150 9999 FEW032 BKN200 05/M02 Q1029 R08/CLRD70 NOSIG"
"4:00 PM EEST on October 20, 2016","2016","10","20","16","00","Europe/Kiev","1:00 PM GMT on October 20, 2016","2016","10","20","13","00","UTC","5.0","41.0","-2.0","28.4","61","14.4","8.9","-9999.0","-9999.0","100","East","10.0","6.2","1029","30.39","1.9","35.4","-9999","-9999","-9999.00","-9999.00","Mostly Cloudy","mostlycloudy","0","0","0","0","0","0","METAR UKKK 201300Z 10004MPS 9999 FEW032 BKN200 05/M02 Q1029 R08/CLRD70 NOSIG"
"4:30 PM EEST on October 20, 2016","2016","10","20","16","30","Europe/Kiev","1:30 PM GMT on October 20, 2016","2016","10","20","13","30","UTC","5.0","41.0","-2.0","28.4","61","18.0","11.2","-9999.0","-9999.0","100","East","10.0","6.2","1029","30.39","1.3","34.4","-9999","-9999","-9999.00","-9999.00","Mostly Cloudy","mostlycloudy","0","0","0","0","0","0","METAR UKKK 201330Z 10005MPS 070V140 9999 FEW032 BKN200 05/M02 Q1029 R08/CLRD70 NOSIG"
"5:00 PM EEST on October 20, 2016","2016","10","20","17","00","Europe/Kiev","2:00 PM GMT on October 20, 2016","2016","10","20","14","00","UTC","4.0","39.2","-2.0","28.4","65","14.4","8.9","-9999.0","-9999.0","100","East","7.0","4.3","1029","30.39","0.6","33.1","-9999","-9999","-9999.00","-9999.00","Mostly Cloudy","mostlycloudy","0","0","0","0","0","0","METAR UKKK 201400Z 10004MPS 7000 FEW031 BKN200 04/M02 Q1029 R08/CLRD70 NOSIG"
"5:30 PM EEST on October 20, 2016","2016","10","20","17","30","Europe/Kiev","2:30 PM GMT on October 20, 2016","2016","10","20","14","30","UTC","4.0","39.2","-2.0","28.4","65","18.0","11.2","-9999.0","-9999.0","100","East","10.0","6.2","1029","30.39","0.1","32.2","-9999","-9999","-9999.00","-9999.00","Mostly Cloudy","mostlycloudy","0","0","0","0","0","0","METAR UKKK 201430Z 10005MPS 9999 BKN029 04/M02 Q1029 R08/CLRD70 NOSIG"
"6:00 PM EEST on October 20, 2016","2016","10","20","18","00","Europe/Kiev","3:00 PM GMT on October 20, 2016","2016","10","20","15","00","UTC","4","38","-3","27","54","10.8","6.7","","","130","SE","20","12","1031","30.44","-999","-999","-9999","-9999","","","Mostly Cloudy","mostlycloudy","0","0","0","0","0","0","AAXX 20151 33345 42598 61303 10036 21027 30096 40306 53002 86500 333 86630 555 10003"
"6:00 PM EEST on October 20, 2016","2016","10","20","18","00","Europe/Kiev","3:00 PM GMT on October 20, 2016","2016","10","20","15","00","UTC","4.0","39.2","-2.0","28.4","65","14.4","8.9","-9999.0","-9999.0","100","East","10.0","6.2","1029","30.39","0.6","33.1","-9999","-9999","-9999.00","-9999.00","Mostly Cloudy","mostlycloudy","0","0","0","0","0","0","METAR UKKK 201500Z 10004MPS 070V130 9999 BKN030 04/M02 Q1029 R08/CLRD70 NOSIG"
"6:30 PM EEST on October 20, 2016","2016","10","20","18","30","Europe/Kiev","3:30 PM GMT on October 20, 2016","2016","10","20","15","30","UTC","3.0","37.4","-3.0","26.6","65","18.0","11.2","-9999.0","-9999.0","100","East","10.0","6.2","1029","30.39","-1.2","29.9","-9999","-9999","-9999.00","-9999.00","Mostly Cloudy","mostlycloudy","0","0","0","0","0","0","METAR UKKK 201530Z 10005MPS 9999 SCT030 BKN180 03/M03 Q1029 R08/CLRD70 NOSIG"
"7:00 PM EEST on October 20, 2016","2016","10","20","19","00","Europe/Kiev","4:00 PM GMT on October 20, 2016","2016","10","20","16","00","UTC","3.0","37.4","-3.0","26.6","65","14.4","8.9","-9999.0","-9999.0","110","ESE","10.0","6.2","1029","30.39","-0.6","30.9","-9999","-9999","-9999.00","-9999.00","Mostly Cloudy","mostlycloudy","0","0","0","0","0","0","METAR UKKK 201600Z 11004MPS 080V140 9999 SCT030 BKN180 03/M03 Q1029 R08/CLRD70 NOSIG"
"7:30 PM EEST on October 20, 2016","2016","10","20","19","30","Europe/Kiev","4:30 PM GMT on October 20, 2016","2016","10","20","16","30","UTC","3.0","37.4","-3.0","26.6","65","14.4","8.9","-9999.0","-9999.0","110","ESE","-9999.0","-9999.0","1029","30.39","-0.6","30.9","-9999","-9999","-9999.00","-9999.00","Clear","clear","0","0","0","0","0","0","METAR UKKK 201630Z 11004MPS CAVOK 03/M03 Q1029 R08/CLRD70 NOSIG"
"8:00 PM EEST on October 20, 2016","2016","10","20","20","00","Europe/Kiev","5:00 PM GMT on October 20, 2016","2016","10","20","17","00","UTC","2.0","35.6","-3.0","26.6","70","10.8","6.7","-9999.0","-9999.0","100","East","-9999.0","-9999.0","1029","30.39","-1.1","30.0","-9999","-9999","-9999.00","-9999.00","Clear","clear","0","0","0","0","0","0","METAR UKKK 201700Z 10003MPS CAVOK 02/M03 Q1029 R08/CLRD70 NOSIG"
"8:30 PM EEST on October 20, 2016","2016","10","20","20","30","Europe/Kiev","5:30 PM GMT on October 20, 2016","2016","10","20","17","30","UTC","2.0","35.6","-3.0","26.6","70","10.8","6.7","-9999.0","-9999.0","110","ESE","-9999.0","-9999.0","1029","30.39","-1.1","30.0","-9999","-9999","-9999.00","-9999.00","Clear","clear","0","0","0","0","0","0","METAR UKKK 201730Z 11003MPS CAVOK 02/M03 Q1029 R08/CLRD70 NOSIG"
"9:00 PM EEST on October 20, 2016","2016","10","20","21","00","Europe/Kiev","6:00 PM GMT on October 20, 2016","2016","10","20","18","00","UTC","1","34","-2","28","69","3.6","2.2","","","130","SE","20","12","1031","30.44","-999","-999","-9999","-9999","","","Mostly Cloudy","mostlycloudy","0","0","0","0","0","0","AAXX 20181 33345 32998 71301 10009 21024 30096 40308 54000 87050 333 10059 555 14102"
"9:00 PM EEST on October 20, 2016","2016","10","20","21","00","Europe/Kiev","6:00 PM GMT on October 20, 2016","2016","10","20","18","00","UTC","2.0","35.6","-3.0","26.6","70","10.8","6.7","-9999.0","-9999.0","110","ESE","-9999.0","-9999.0","1029","30.39","-1.1","30.0","-9999","-9999","-9999.00","-9999.00","Clear","clear","0","0","0","0","0","0","METAR UKKK 201800Z 11003MPS CAVOK 02/M03 Q1029 R08/CLRD70 NOSIG"
"9:30 PM EEST on October 20, 2016","2016","10","20","21","30","Europe/Kiev","6:30 PM GMT on October 20, 2016","2016","10","20","18","30","UTC","2.0","35.6","-3.0","26.6","70","18.0","11.2","-9999.0","-9999.0","110","ESE","10.0","6.2","1029","30.39","-2.4","27.7","-9999","-9999","-9999.00","-9999.00","Scattered Clouds","partlycloudy","0","0","0","0","0","0","METAR UKKK 201830Z 11005MPS 9999 FEW031 SCT100 02/M03 Q1029 R08/CLRD70 NOSIG"
"10:00 PM EEST on October 20, 2016","2016","10","20","22","00","Europe/Kiev","7:00 PM GMT on October 20, 2016","2016","10","20","19","00","UTC","1.0","33.8","-3.0","26.6","75","18.0","11.2","-9999.0","-9999.0","110","ESE","-9999.0","-9999.0","1029","30.39","-3.7","25.4","-9999","-9999","-9999.00","-9999.00","Clear","clear","0","0","0","0","0","0","METAR UKKK 201900Z 11005MPS CAVOK 01/M03 Q1029 R08/CLRD70 NOSIG"
"10:30 PM EEST on October 20, 2016","2016","10","20","22","30","Europe/Kiev","7:30 PM GMT on October 20, 2016","2016","10","20","19","30","UTC","1.0","33.8","-3.0","26.6","75","14.4","8.9","-9999.0","-9999.0","110","ESE","-9999.0","-9999.0","1029","30.39","-3.0","26.5","-9999","-9999","-9999.00","-9999.00","Clear","clear","0","0","0","0","0","0","METAR UKKK 201930Z 11004MPS CAVOK 01/M03 Q1029 R08/CLRD70 NOSIG"
"11:00 PM EEST on October 20, 2016","2016","10","20","23","00","Europe/Kiev","8:00 PM GMT on October 20, 2016","2016","10","20","20","00","UTC","1.0","33.8","-3.0","26.6","75","18.0","11.2","-9999.0","-9999.0","110","ESE","10.0","6.2","1029","30.39","-3.7","25.4","-9999","-9999","-9999.00","-9999.00","Scattered Clouds","partlycloudy","0","0","0","0","0","0","METAR UKKK 202000Z 11005MPS 9999 SCT030 01/M03 Q1029 R08/CLRD70 NOSIG"
"11:30 PM EEST on October 20, 2016","2016","10","20","23","30","Europe/Kiev","8:30 PM GMT on October 20, 2016","2016","10","20","20","30","UTC","2.0","35.6","-3.0","26.6","70","14.4","8.9","-9999.0","-9999.0","120","ESE","10.0","6.2","1030","30.42","-1.8","28.7","-9999","-9999","-9999.00","-9999.00","Mostly Cloudy","mostlycloudy","0","0","0","0","0","0","METAR UKKK 202030Z 12004MPS 9999 BKN032 02/M03 Q1030 R08/CLRD70 NOSIG"
"12:00 AM EEST on October 21, 2016","2016","10","21","00","00","Europe/Kiev","9:00 PM GMT on October 20, 2016","2016","10","20","21","00","UTC","1","34","-3","27","66","3.6","2.2","","","150","SSE","20","12","1031","30.45","-999","-999","-9999","-9999","","","Mostly Cloudy","mostlycloudy","0","0","0","0","0","0","AAXX 20211 33345 42698 71501 10011 21028 30100 40312 53004 87500 333 87633 555 10001"
"12:00 AM EEST on October 21, 2016","2016","10","21","00","00","Europe/Kiev","9:00 PM GMT on October 20, 2016","2016","10","20","21","00","UTC","2.0","35.6","-3.0","26.6","70","14.4","8.9","-9999.0","-9999.0","110","ESE","10.0","6.2","1030","30.42","-1.8","28.7","-9999","-9999","-9999.00","-9999.00","Mostly Cloudy","mostlycloudy","0","0","0","0","0","0","METAR UKKK 202100Z 11004MPS 9999 BKN033 02/M03 Q1030 R08/CLRD70 NOSIG"
"12:30 AM EEST on October 21, 2016","2016","10","21","00","30","Europe/Kiev","9:30 PM GMT on October 20, 2016","2016","10","20","21","30","UTC","1.0","33.8","-3.0","26.6","75","14.4","8.9","-9999.0","-9999.0","110","ESE","10.0","6.2","1030","30.42","-3.0","26.5","-9999","-9999","-9999.00","-9999.00","Mostly Cloudy","mostlycloudy","0","0","0","0","0","0","METAR UKKK 202130Z 11004MPS 9999 BKN033 01/M03 Q1030 R08/CLRD70 NOSIG"
"1:00 AM EEST on October 21, 2016","2016","10","21","01","00","Europe/Kiev","10:00 PM GMT on October 20, 2016","2016","10","20","22","00","UTC","2.0","35.6","-2.0","28.4","75","14.4","8.9","-9999.0","-9999.0","110","ESE","10.0","6.2","1030","30.42","-1.8","28.7","-9999","-9999","-9999.00","-9999.00","Mostly Cloudy","mostlycloudy","0","0","0","0","0","0","METAR UKKK 202200Z 11004MPS 9999 BKN031 02/M02 Q1030 R08/CLRD70 NOSIG"
"1:30 AM EEST on October 21, 2016","2016","10","21","01","30","Europe/Kiev","10:30 PM GMT on October 20, 2016","2016","10","20","22","30","UTC","1.0","33.8","-2.0","28.4","81","14.4","8.9","-9999.0","-9999.0","110","ESE","10.0","6.2","1030","30.42","-3.0","26.5","-9999","-9999","-9999.00","-9999.00","Mostly Cloudy","mostlycloudy","0","0","0","0","0","0","METAR UKKK 202230Z 11004MPS 9999 BKN031 01/M02 Q1030 R08/CLRD70 NOSIG"
"2:00 AM EEST on October 21, 2016","2016","10","21","02","00","Europe/Kiev","11:00 PM GMT on October 20, 2016","2016","10","20","23","00","UTC","1.0","33.8","-2.0","28.4","81","14.4","8.9","-9999.0","-9999.0","110","ESE","10.0","6.2","1030","30.42","-3.0","26.5","-9999","-9999","-9999.00","-9999.00","Mostly Cloudy","mostlycloudy","0","0","0","0","0","0","METAR UKKK 202300Z 11004MPS 9999 BKN030 01/M02 Q1030 R08/CLRD70 NOSIG"
"2:30 AM EEST on October 21, 2016","2016","10","21","02","30","Europe/Kiev","11:30 PM GMT on October 20, 2016","2016","10","20","23","30","UTC","1.0","33.8","-2.0","28.4","81","10.8","6.7","-9999.0","-9999.0","110","ESE","10.0","6.2","1029","30.39","-2.3","27.9","-9999","-9999","-9999.00","-9999.00","Mostly Cloudy","mostlycloudy","0","0","0","0","0","0","METAR UKKK 202330Z 11003MPS 9999 BKN029 01/M02 Q1029 R08/CLRD70 NOSIG"
"3:00 AM EEST on October 21, 2016","2016","10","21","03","00","Europe/Kiev","12:00 AM GMT on October 21, 2016","2016","10","21","00","00","UTC","1","34","-2","28","71","3.6","2.2","","","160","SSE","20","12","1031","30.44","-999","-999","-9999","-9999","","","Overcast","cloudy","0","0","0","0","0","0","AAXX 21001 33345 32598 81601 10010 21022 30096 40308 58004 885// 333 88629 555 10001"
"3:00 AM EEST on October 21, 2016","2016","10","21","03","00","Europe/Kiev","12:00 AM GMT on October 21, 2016","2016","10","21","00","00","UTC","1.0","33.8","-2.0","28.4","81","14.4","8.9","-9999.0","-9999.0","110","ESE","10.0","6.2","1029","30.39","-3.0","26.5","-9999","-9999","-9999.00","-9999.00","Mostly Cloudy","mostlycloudy","0","0","0","0","0","0","METAR UKKK 210000Z 11004MPS 9999 BKN028 01/M02 Q1029 R08/CLRD70 NOSIG"
"3:30 AM EEST on October 21, 2016","2016","10","21","03","30","Europe/Kiev","12:30 AM GMT on October 21, 2016","2016","10","21","00","30","UTC","1.0","33.8","-2.0","28.4","81","14.4","8.9","-9999.0","-9999.0","100","East","10.0","6.2","1029","30.39","-3.0","26.5","-9999","-9999","-9999.00","-9999.00","Mostly Cloudy","mostlycloudy","0","0","0","0","0","0","METAR UKKK 210030Z 10004MPS 9999 BKN029 01/M02 Q1029 R08/CLRD70 NOSIG"
"4:00 AM EEST on October 21, 2016","2016","10","21","04","00","Europe/Kiev","1:00 AM GMT on October 21, 2016","2016","10","21","01","00","UTC","1.0","33.8","-2.0","28.4","81","14.4","8.9","-9999.0","-9999.0","90","East","10.0","6.2","1029","30.39","-3.0","26.5","-9999","-9999","-9999.00","-9999.00","Overcast","cloudy","0","0","0","0","0","0","METAR UKKK 210100Z 09004MPS 9999 OVC028 01/M02 Q1029 R08/CLRD70 NOSIG"
"4:30 AM EEST on October 21, 2016","2016","10","21","04","30","Europe/Kiev","1:30 AM GMT on October 21, 2016","2016","10","21","01","30","UTC","1.0","33.8","-2.0","28.4","81","14.4","8.9","-9999.0","-9999.0","100","East","10.0","6.2","1029","30.39","-3.0","26.5","-9999","-9999","-9999.00","-9999.00","Overcast","cloudy","0","0","0","0","0","0","METAR UKKK 210130Z 10004MPS 9999 OVC029 01/M02 Q1029 R08/CLRD70 NOSIG"
"5:00 AM EEST on October 21, 2016","2016","10","21","05","00","Europe/Kiev","2:00 AM GMT on October 21, 2016","2016","10","21","02","00","UTC","1.0","33.8","-2.0","28.4","81","14.4","8.9","-9999.0","-9999.0","100","East","10.0","6.2","1029","30.39","-3.0","26.5","-9999","-9999","-9999.00","-9999.00","Overcast","cloudy","0","0","0","0","0","0","METAR UKKK 210200Z 10004MPS 9999 OVC029 01/M02 Q1029 R08/CLRD70 NOSIG"
"5:30 AM EEST on October 21, 2016","2016","10","21","05","30","Europe/Kiev","2:30 AM GMT on October 21, 2016","2016","10","21","02","30","UTC","1.0","33.8","-2.0","28.4","81","14.4","8.9","-9999.0","-9999.0","90","East","10.0","6.2","1029","30.39","-3.0","26.5","-9999","-9999","-9999.00","-9999.00","Overcast","cloudy","0","0","0","0","0","0","METAR UKKK 210230Z 09004MPS 9999 OVC029 01/M02 Q1029 R08/CLRD70 NOSIG"
"6:00 AM EEST on October 21, 2016","2016","10","21","06","00","Europe/Kiev","3:00 AM GMT on October 21, 2016","2016","10","21","03","00","UTC","1","34","-2","29","73","3.6","2.2","","","150","SSE","20","12","1030","30.43","-999","-999","-9999","-9999","","","Overcast","cloudy","0","0","0","0","0","0","AAXX 21031 33345 42598 81501 10010 21019 30093 40305 56003 885// 333 88630 555 10001"
"6:00 AM EEST on October 21, 2016","2016","10","21","06","00","Europe/Kiev","3:00 AM GMT on October 21, 2016","2016","10","21","03","00","UTC","1.0","33.8","-2.0","28.4","81","14.4","8.9","-9999.0","-9999.0","100","East","10.0","6.2","1029","30.39","-3.0","26.5","-9999","-9999","-9999.00","-9999.00","Overcast","cloudy","0","0","0","0","0","0","METAR UKKK 210300Z 10004MPS 9999 OVC028 01/M02 Q1029 R08/CLRD70 NOSIG"
"6:30 AM EEST on October 21, 2016","2016","10","21","06","30","Europe/Kiev","3:30 AM GMT on October 21, 2016","2016","10","21","03","30","UTC","1.0","33.8","-2.0","28.4","81","18.0","11.2","-9999.0","-9999.0","90","East","10.0","6.2","1029","30.39","-3.7","25.4","-9999","-9999","-9999.00","-9999.00","Overcast","cloudy","0","0","0","0","0","0","METAR UKKK 210330Z 09005MPS 9999 OVC029 01/M02 Q1029 R08/CLRD70 NOSIG"
"7:00 AM EEST on October 21, 2016","2016","10","21","07","00","Europe/Kiev","4:00 AM GMT on October 21, 2016","2016","10","21","04","00","UTC","1.0","33.8","-2.0","28.4","81","18.0","11.2","-9999.0","-9999.0","100","East","10.0","6.2","1029","30.39","-3.7","25.4","-9999","-9999","-9999.00","-9999.00","Overcast","cloudy","0","0","0","0","0","0","METAR UKKK 210400Z 10005MPS 9999 OVC028 01/M02 Q1029 R08/CLRD70 NOSIG"
"7:30 AM EEST on October 21, 2016","2016","10","21","07","30","Europe/Kiev","4:30 AM GMT on October 21, 2016","2016","10","21","04","30","UTC","1.0","33.8","-2.0","28.4","81","14.4","8.9","-9999.0","-9999.0","100","East","10.0","6.2","1029","30.39","-3.0","26.5","-9999","-9999","-9999.00","-9999.00","Overcast","cloudy","0","0","0","0","0","0","METAR UKKK 210430Z 10004MPS 9999 OVC028 01/M02 Q1029 R08/CLRD70 NOSIG"
"8:00 AM EEST on October 21, 2016","2016","10","21","08","00","Europe/Kiev","5:00 AM GMT on October 21, 2016","2016","10","21","05","00","UTC","1.0","33.8","-1.0","30.2","87","14.4","8.9","-9999.0","-9999.0","100","East","10.0","6.2","1029","30.39","-3.0","26.5","-9999","-9999","-9999.00","-9999.00","Overcast","cloudy","0","0","0","0","0","0","METAR UKKK 210500Z 10004MPS 9999 OVC028 01/M01 Q1029 R08/CLRD70 NOSIG"
"8:30 AM EEST on October 21, 2016","2016","10","21","08","30","Europe/Kiev","5:30 AM GMT on October 21, 2016","2016","10","21","05","30","UTC","1.0","33.8","-1.0","30.2","87","14.4","8.9","-9999.0","-9999.0","100","East","10.0","6.2","1029","30.39","-3.0","26.5","-9999","-9999","-9999.00","-9999.00","Overcast","cloudy","0","0","0","0","0","0","METAR UKKK 210530Z 10004MPS 9999 OVC028 01/M01 Q1029 R08/CLRD70 NOSIG"
"9:00 AM EEST on October 21, 2016","2016","10","21","09","00","Europe/Kiev","6:00 AM GMT on October 21, 2016","2016","10","21","06","00","UTC","1","35","-1","30","74","7.2","4.5","","","150","SSE","10","6","1031","30.44","-999","-999","-9999","-9999","","","Overcast","cloudy","0","0","0","0","0","0","AAXX 21061 33345 32597 81502 10014 21012 30096 40308 53003 885// 333 20006 88628 555 10100 30102 52100"
"9:00 AM EEST on October 21, 2016","2016","10","21","09","00","Europe/Kiev","6:00 AM GMT on October 21, 2016","2016","10","21","06","00","UTC","2.0","35.6","-1.0","30.2","81","14.4","8.9","-9999.0","-9999.0","100","East","10.0","6.2","1029","30.39","-1.8","28.7","-9999","-9999","-9999.00","-9999.00","Overcast","cloudy","0","0","0","0","0","0","METAR UKKK 210600Z 10004MPS 9999 OVC027 02/M01 Q1029 R08/CLRD70 NOSIG"
"9:30 AM EEST on October 21, 2016","2016","10","21","09","30","Europe/Kiev","6:30 AM GMT on October 21, 2016","2016","10","21","06","30","UTC","2.0","35.6","-1.0","30.2","81","14.4","8.9","-9999.0","-9999.0","110","ESE","10.0","6.2","1029","30.39","-1.8","28.7","-9999","-9999","-9999.00","-9999.00","Overcast","cloudy","0","0","0","0","0","0","METAR UKKK 210630Z 11004MPS 9999 OVC027 02/M01 Q1029 R08/CLRD70 NOSIG"
"10:00 AM EEST on October 21, 2016","2016","10","21","10","00","Europe/Kiev","7:00 AM GMT on October 21, 2016","2016","10","21","07","00","UTC","2.0","35.6","-1.0","30.2","81","18.0","11.2","-9999.0","-9999.0","110","ESE","10.0","6.2","1029","30.39","-2.4","27.7","-9999","-9999","-9999.00","-9999.00","Overcast","cloudy","0","0","0","0","0","0","METAR UKKK 210700Z 11005MPS 080V140 9999 OVC025 02/M01 Q1029 R08/CLRD70 NOSIG"
"10:30 AM EEST on October 21, 2016","2016","10","21","10","30","Europe/Kiev","7:30 AM GMT on October 21, 2016","2016","10","21","07","30","UTC","2.0","35.6","-1.0","30.2","81","14.4","8.9","-9999.0","-9999.0","110","ESE","10.0","6.2","1029","30.39","-1.8","28.7","-9999","-9999","-9999.00","-9999.00","Overcast","cloudy","0","0","0","0","0","0","METAR UKKK 210730Z 11004MPS 9999 OVC025 02/M01 Q1029 R08/CLRD70 NOSIG"
"11:00 AM EEST on October 21, 2016","2016","10","21","11","00","Europe/Kiev","8:00 AM GMT on October 21, 2016","2016","10","21","08","00","UTC","2.0","35.6","-1.0","30.2","81","14.4","8.9","-9999.0","-9999.0","110","ESE","10.0","6.2","1030","30.42","-1.8","28.7","-9999","-9999","-9999.00","-9999.00","Overcast","cloudy","0","0","0","0","0","0","METAR UKKK 210800Z 11004MPS 9999 OVC025 02/M01 Q1030 R08/CLRD70 NOSIG"
"11:30 AM EEST on October 21, 2016","2016","10","21","11","30","Europe/Kiev","8:30 AM GMT on October 21, 2016","2016","10","21","08","30","UTC","3.0","37.4","0.0","32.0","81","18.0","11.2","-9999.0","-9999.0","110","ESE","10.0","6.2","1030","30.42","-1.2","29.9","-9999","-9999","-9999.00","-9999.00","Overcast","cloudy","0","0","0","0","0","0","METAR UKKK 210830Z 11005MPS 9999 OVC026 03/M00 Q1030 R08/CLRD70 NOSIG"
"12:00 PM EEST on October 21, 2016","2016","10","21","12","00","Europe/Kiev","9:00 AM GMT on October 21, 2016","2016","10","21","09","00","UTC","3","38","0","32","72","3.6","2.2","","","150","SSE","10","6","1031","30.44","-999","-999","-9999","-9999","","","Overcast","cloudy","0","0","0","0","0","0","AAXX 21091 33345 42597 81501 10031 20001 30097 40307 51001 885// 333 88628 555 10005"
"12:00 PM EEST on October 21, 2016","2016","10","21","12","00","Europe/Kiev","9:00 AM GMT on October 21, 2016","2016","10","21","09","00","UTC","3.0","37.4","0.0","32.0","81","18.0","11.2","-9999.0","-9999.0","110","ESE","10.0","6.2","1029","30.39","-1.2","29.9","-9999","-9999","-9999.00","-9999.00","Overcast","cloudy","0","0","0","0","0","0","METAR UKKK 210900Z 11005MPS 9999 OVC027 03/M00 Q1029 R08/CLRD70 NOSIG"
"12:30 PM EEST on October 21, 2016","2016","10","21","12","30","Europe/Kiev","9:30 AM GMT on October 21, 2016","2016","10","21","09","30","UTC","3.0","37.4","0.0","32.0","81","18.0","11.2","-9999.0","-9999.0","110","ESE","10.0","6.2","1029","30.39","-1.2","29.9","-9999","-9999","-9999.00","-9999.00","Overcast","cloudy","0","0","0","0","0","0","METAR UKKK 210930Z 11005MPS 070V140 9999 OVC027 03/M00 Q1029 R08/CLRD70 NOSIG"
"1:00 PM EEST on October 21, 2016","2016","10","21","13","00","Europe/Kiev","10:00 AM GMT on October 21, 2016","2016","10","21","10","00","UTC","4.0","39.2","0.0","32.0","75","18.0","11.2","-9999.0","-9999.0","100","East","10.0","6.2","1029","30.39","0.1","32.2","-9999","-9999","-9999.00","-9999.00","Overcast","cloudy","0","0","0","0","0","0","METAR UKKK 211000Z 10005MPS 9999 OVC027 04/M00 Q1029 R08/CLRD70 NOSIG"
"1:30 PM EEST on October 21, 2016","2016","10","21","13","30","Europe/Kiev","10:30 AM GMT on October 21, 2016","2016","10","21","10","30","UTC","4.0","39.2","0.0","32.0","75","14.4","8.9","-9999.0","-9999.0","110","ESE","10.0","6.2","1029","30.39","0.6","33.1","-9999","-9999","-9999.00","-9999.00","Overcast","cloudy","0","0","0","0","0","0","METAR UKKK 211030Z 11004MPS 080V140 9999 OVC029 04/M00 Q1029 R08/CLRD70 NOSIG"
"2:00 PM EEST on October 21, 2016","2016","10","21","14","00","Europe/Kiev","11:00 AM GMT on October 21, 2016","2016","10","21","11","00","UTC","4.0","39.2","0.0","32.0","75","14.4","8.9","-9999.0","-9999.0","110","ESE","10.0","6.2","1029","30.39","0.6","33.1","-9999","-9999","-9999.00","-9999.00","Overcast","cloudy","0","0","0","0","0","0","METAR UKKK 211100Z 11004MPS 080V140 9999 OVC029 04/00 Q1029 R08/CLRD70 NOSIG"
"2:30 PM EEST on October 21, 2016","2016","10","21","14","30","Europe/Kiev","11:30 AM GMT on October 21, 2016","2016","10","21","11","30","UTC","4.0","39.2","0.0","32.0","75","18.0","11.2","-9999.0","-9999.0","110","ESE","10.0","6.2","1029","30.39","0.1","32.2","-9999","-9999","-9999.00","-9999.00","Overcast","cloudy","0","0","0","0","0","0","METAR UKKK 211130Z 11005MPS 9999 OVC029 04/M00 Q1029 R08/CLRD70 NOSIG"
"3:00 PM EEST on October 21, 2016","2016","10","21","15","00","Europe/Kiev","12:00 PM GMT on October 21, 2016","2016","10","21","12","00","UTC","5","41","0","32","61","7.2","4.5","","","170","South","10","6","1030","30.41","-999","-999","-9999","-9999","","","Overcast","cloudy","0","0","0","0","0","0","AAXX 21121 33345 32597 81702 10048 20000 30089 40298 58008 885// 333 88630 555 10007"
"3:00 PM EEST on October 21, 2016","2016","10","21","15","00","Europe/Kiev","12:00 PM GMT on October 21, 2016","2016","10","21","12","00","UTC","5.0","41.0","0.0","32.0","70","18.0","11.2","-9999.0","-9999.0","110","ESE","10.0","6.2","1029","30.39","1.3","34.4","-9999","-9999","-9999.00","-9999.00","Overcast","cloudy","0","0","0","0","0","0","METAR UKKK 211200Z 11005MPS 9999 OVC025 05/M00 Q1029 R08/CLRD70 NOSIG"
"3:30 PM EEST on October 21, 2016","2016","10","21","15","30","Europe/Kiev","12:30 PM GMT on October 21, 2016","2016","10","21","12","30","UTC","4.0","39.2","0.0","32.0","75","18.0","11.2","-9999.0","-9999.0","110","ESE","9.0","5.6","1028","30.36","0.1","32.2","-9999","-9999","-9999.00","-9999.00","Overcast","cloudy","0","0","0","0","0","0","METAR UKKK 211230Z 11005MPS 9000 OVC027 04/00 Q1028 R08/CLRD70 NOSIG"
"4:00 PM EEST on October 21, 2016","2016","10","21","16","00","Europe/Kiev","1:00 PM GMT on October 21, 2016","2016","10","21","13","00","UTC","5.0","41.0","0.0","32.0","70","14.4","8.9","-9999.0","-9999.0","100","East","10.0","6.2","1028","30.36","1.9","35.4","-9999","-9999","-9999.00","-9999.00","Overcast","cloudy","0","0","0","0","0","0","METAR UKKK 211300Z 10004MPS 9999 OVC029 05/00 Q1028 R08/CLRD70 NOSIG"
"4:30 PM EEST on October 21, 2016","2016","10","21","16","30","Europe/Kiev","1:30 PM GMT on October 21, 2016","2016","10","21","13","30","UTC","5.0","41.0","0.0","32.0","70","14.4","8.9","-9999.0","-9999.0","100","East","10.0","6.2","1028","30.36","1.9","35.4","-9999","-9999","-9999.00","-9999.00","Overcast","cloudy","0","0","0","0","0","0","METAR UKKK 211330Z 10004MPS 080V140 9999 OVC027 05/00 Q1028 R08/CLRD70 NOSIG"
"5:00 PM EEST on October 21, 2016","2016","10","21","17","00","Europe/Kiev","2:00 PM GMT on October 21, 2016","2016","10","21","14","00","UTC","5.0","41.0","0.0","32.0","70","18.0","11.2","-9999.0","-9999.0","100","East","10.0","6.2","1028","30.36","1.3","34.4","-9999","-9999","-9999.00","-9999.00","Overcast","cloudy","0","0","0","0","0","0","METAR UKKK 211400Z 10005MPS 9999 OVC028 05/00 Q1028 R08/CLRD70 NOSIG"
"5:30 PM EEST on October 21, 2016","2016","10","21","17","30","Europe/Kiev","2:30 PM GMT on October 21, 2016","2016","10","21","14","30","UTC","5.0","41.0","0.0","32.0","70","18.0","11.2","-9999.0","-9999.0","100","East","10.0","6.2","1028","30.36","1.3","34.4","-9999","-9999","-9999.00","-9999.00","Overcast","cloudy","0","0","0","0","0","0","METAR UKKK 211430Z 10005MPS 9999 OVC029 05/00 Q1028 R08/CLRD70 NOSIG"
"6:00 PM EEST on October 21, 2016","2016","10","21","18","00","Europe/Kiev","3:00 PM GMT on October 21, 2016","2016","10","21","15","00","UTC","5","40","0","33","67","10.8","6.7","","","130","SE","10","6","1029","30.39","-999","-999","-9999","-9999","","","Overcast","cloudy","0","0","0","0","0","0","AAXX 21151 33345 42597 81303 10047 20005 30082 40291 57007 885// 333 88631 555 10004"
"6:00 PM EEST on October 21, 2016","2016","10","21","18","00","Europe/Kiev","3:00 PM GMT on October 21, 2016","2016","10","21","15","00","UTC","5.0","41.0","0.0","32.0","70","14.4","8.9","-9999.0","-9999.0","100","East","10.0","6.2","1028","30.36","1.9","35.4","-9999","-9999","-9999.00","-9999.00","Overcast","cloudy","0","0","0","0","0","0","METAR UKKK 211500Z 10004MPS 9999 OVC028 05/00 Q1028 R08/CLRD70 NOSIG"
"6:30 PM EEST on October 21, 2016","2016","10","21","18","30","Europe/Kiev","3:30 PM GMT on October 21, 2016","2016","10","21","15","30","UTC","5.0","41.0","1.0","33.8","76","14.4","8.9","-9999.0","-9999.0","100","East","10.0","6.2","1028","30.36","1.9","35.4","-9999","-9999","-9999.00","-9999.00","Overcast","cloudy","0","0","0","0","0","0","METAR UKKK 211530Z 10004MPS 9999 OVC027 05/01 Q1028 R08/CLRD70 NOSIG"
"7:00 PM EEST on October 21, 2016","2016","10","21","19","00","Europe/Kiev","4:00 PM GMT on October 21, 2016","2016","10","21","16","00","UTC","5.0","41.0","1.0","33.8","76","14.4","8.9","-9999.0","-9999.0","110","ESE","10.0","6.2","1028","30.36","1.9","35.4","-9999","-9999","-9999.00","-9999.00","Overcast","cloudy","0","0","0","0","0","0","METAR UKKK 211600Z 11004MPS 080V140 9999 OVC028 05/01 Q1028 R08/CLRD70 NOSIG"
"7:30 PM EEST on October 21, 2016","2016","10","21","19","30","Europe/Kiev","4:30 PM GMT on October 21, 2016","2016","10","21","16","30","UTC","5.0","41.0","1.0","33.8","76","18.0","11.2","-9999.0","-9999.0","100","East","10.0","6.2","1028","30.36","1.3","34.4","-9999","-9999","-9999.00","-9999.00","Overcast","cloudy","0","0","0","0","0","0","METAR UKKK 211630Z 10005MPS 9999 OVC028 05/01 Q1028 R08/CLRD70 NOSIG"
"8:00 PM EEST on October 21, 2016","2016","10","21","20","00","Europe/Kiev","5:00 PM GMT on October 21, 2016","2016","10","21","17","00","UTC","5.0","41.0","0.0","32.0","70","18.0","11.2","-9999.0","-9999.0","100","East","10.0","6.2","1027","30.33","1.3","34.4","-9999","-9999","-9999.00","-9999.00","Overcast","cloudy","0","0","0","0","0","0","METAR UKKK 211700Z 10005MPS 9999 OVC030 05/00 Q1027 R08/CLRD70 NOSIG"
"8:30 PM EEST on October 21, 2016","2016","10","21","20","30","Europe/Kiev","5:30 PM GMT on October 21, 2016","2016","10","21","17","30","UTC","5.0","41.0","0.0","32.0","70","14.4","8.9","-9999.0","-9999.0","110","ESE","10.0","6.2","1028","30.36","1.9","35.4","-9999","-9999","-9999.00","-9999.00","Overcast","cloudy","0","0","0","0","0","0","METAR UKKK 211730Z 11004MPS 9999 OVC031 05/00 Q1028 R08/CLRD70 NOSIG"
"9:00 PM EEST on October 21, 2016","2016","10","21","21","00","Europe/Kiev","6:00 PM GMT on October 21, 2016","2016","10","21","18","00","UTC","4","40","0","33","66","7.2","4.5","","","150","SSE","10","6","1029","30.39","-999","-999","-9999","-9999","","","Overcast","cloudy","0","0","0","0","0","0","AAXX 21181 33345 32597 81502 10045 20003 30081 40290 56001 885// 333 10050 88632 555 10004"
"9:00 PM EEST on October 21, 2016","2016","10","21","21","00","Europe/Kiev","6:00 PM GMT on October 21, 2016","2016","10","21","18","00","UTC","5.0","41.0","0.0","32.0","70","18.0","11.2","-9999.0","-9999.0","110","ESE","10.0","6.2","1028","30.36","1.3","34.4","-9999","-9999","-9999.00","-9999.00","Overcast","cloudy","0","0","0","0","0","0","METAR UKKK 211800Z 11005MPS 9999 OVC031 05/M00 Q1028 R08/CLRD70 NOSIG"
"9:30 PM EEST on October 21, 2016","2016","10","21","21","30","Europe/Kiev","6:30 PM GMT on October 21, 2016","2016","10","21","18","30","UTC","5.0","41.0","0.0","32.0","70","18.0","11.2","-9999.0","-9999.0","100","East","10.0","6.2","1028","30.36","1.3","34.4","-9999","-9999","-9999.00","-9999.00","Overcast","cloudy","0","0","0","0","0","0","METAR UKKK 211830Z 10005MPS 9999 OVC029 05/M00 Q1028 R08/CLRD70 NOSIG"
"10:00 PM EEST on October 21, 2016","2016","10","21","22","00","Europe/Kiev","7:00 PM GMT on October 21, 2016","2016","10","21","19","00","UTC","5.0","41.0","0.0","32.0","70","18.0","11.2","-9999.0","-9999.0","110","ESE","10.0","6.2","1028","30.36","1.3","34.4","-9999","-9999","-9999.00","-9999.00","Overcast","cloudy","0","0","0","0","0","0","METAR UKKK 211900Z 11005MPS 9999 OVC028 05/M00 Q1028 R08/CLRD70 NOSIG"
"10:30 PM EEST on October 21, 2016","2016","10","21","22","30","Europe/Kiev","7:30 PM GMT on October 21, 2016","2016","10","21","19","30","UTC","5.0","41.0","0.0","32.0","70","18.0","11.2","-9999.0","-9999.0","110","ESE","10.0","6.2","1028","30.36","1.3","34.4","-9999","-9999","-9999.00","-9999.00","Overcast","cloudy","0","0","0","0","0","0","METAR UKKK 211930Z 11005MPS 9999 OVC028 05/M00 Q1028 R08/CLRD70 NOSIG"
"11:00 PM EEST on October 21, 2016","2016","10","21","23","00","Europe/Kiev","8:00 PM GMT on October 21, 2016","2016","10","21","20","00","UTC","5.0","41.0","0.0","32.0","70","18.0","11.2","-9999.0","-9999.0","110","ESE","10.0","6.2","1028","30.36","1.3","34.4","-9999","-9999","-9999.00","-9999.00","Overcast","cloudy","0","0","0","0","0","0","METAR UKKK 212000Z 11005MPS 080V140 9999 OVC027 05/M00 Q1028 R08/CLRD70 NOSIG"
"11:30 PM EEST on October 21, 2016","2016","10","21","23","30","Europe/Kiev","8:30 PM GMT on October 21, 2016","2016","10","21","20","30","UTC","4.0","39.2","0.0","32.0","75","18.0","11.2","-9999.0","-9999.0","110","ESE","10.0","6.2","1027","30.33","0.1","32.2","-9999","-9999","-9999.00","-9999.00","Overcast","cloudy","0","0","0","0","0","0","METAR UKKK 212030Z 11005MPS 070V130 9999 OVC026 04/M00 Q1027 R08/CLRD70 NOSIG"
"12:00 AM EEST on October 22, 2016","2016","10","22","00","00","Europe/Kiev","9:00 PM GMT on October 21, 2016","2016","10","21","21","00","UTC","4","40","-0","32","63","7.2","4.5","","","150","SSE","10","6","1029","30.38","-999","-999","-9999","-9999","","","Overcast","cloudy","0","0","0","0","0","0","AAXX 21211 33345 42597 81502 10042 21001 30078 40287 57003 885// 333 88625 555 10003"
"12:00 AM EEST on October 22, 2016","2016","10","22","00","00","Europe/Kiev","9:00 PM GMT on October 21, 2016","2016","10","21","21","00","UTC","4.0","39.2","0.0","32.0","75","18.0","11.2","-9999.0","-9999.0","110","ESE","10.0","6.2","1027","30.33","0.1","32.2","-9999","-9999","-9999.00","-9999.00","Overcast","cloudy","0","0","0","0","0","0","METAR UKKK 212100Z 11005MPS 9999 OVC025 04/M00 Q1027 R08/CLRD70 NOSIG"
"12:30 AM EEST on October 22, 2016","2016","10","22","00","30","Europe/Kiev","9:30 PM GMT on October 21, 2016","2016","10","21","21","30","UTC","4.0","39.2","0.0","32.0","75","18.0","11.2","-9999.0","-9999.0","110","ESE","10.0","6.2","1027","30.33","0.1","32.2","-9999","-9999","-9999.00","-9999.00","Overcast","cloudy","0","0","0","0","0","0","METAR UKKK 212130Z 11005MPS 9999 OVC025 04/00 Q1027 R08/CLRD70 NOSIG"
"1:00 AM EEST on October 22, 2016","2016","10","22","01","00","Europe/Kiev","10:00 PM GMT on October 21, 2016","2016","10","21","22","00","UTC","4.0","39.2","0.0","32.0","75","18.0","11.2","-9999.0","-9999.0","110","ESE","10.0","6.2","1027","30.33","0.1","32.2","-9999","-9999","-9999.00","-9999.00","Overcast","cloudy","0","0","0","0","0","0","METAR UKKK 212200Z 11005MPS 9999 OVC023 04/00 Q1027 R08/CLRD70 NOSIG"
"1:30 AM EEST on October 22, 2016","2016","10","22","01","30","Europe/Kiev","10:30 PM GMT on October 21, 2016","2016","10","21","22","30","UTC","4.0","39.2","1.0","33.8","81","18.0","11.2","-9999.0","-9999.0","110","ESE","10.0","6.2","1027","30.33","0.1","32.2","-9999","-9999","-9999.00","-9999.00","Overcast","cloudy","0","0","0","0","0","0","METAR UKKK 212230Z 11005MPS 9999 OVC021 04/01 Q1027 R08/CLRD70 NOSIG"
"2:00 AM EEST on October 22, 2016","2016","10","22","02","00","Europe/Kiev","11:00 PM GMT on October 21, 2016","2016","10","21","23","00","UTC","4.0","39.2","1.0","33.8","81","18.0","11.2","-9999.0","-9999.0","110","ESE","10.0","6.2","1027","30.33","0.1","32.2","-9999","-9999","-9999.00","-9999.00","Overcast","cloudy","0","0","0","0","0","0","METAR UKKK 212300Z 11005MPS 9999 OVC020 04/01 Q1027 R08/CLRD70 NOSIG"
"2:30 AM EEST on October 22, 2016","2016","10","22","02","30","Europe/Kiev","11:30 PM GMT on October 21, 2016","2016","10","21","23","30","UTC","4.0","39.2","2.0","35.6","87","18.0","11.2","-9999.0","-9999.0","110","ESE","10.0","6.2","1027","30.33","0.1","32.2","-9999","-9999","-9999.00","-9999.00","Overcast","cloudy","0","0","0","0","0","0","METAR UKKK 212330Z 11005MPS 9999 OVC012 04/02 Q1027 R08/CLRD70 NOSIG"
"3:00 AM EEST on October 22, 2016","2016","10","22","03","00","Europe/Kiev","12:00 AM GMT on October 22, 2016","2016","10","22","00","00","UTC","4","39","2","35","79","7.2","4.5","","","170","South","10","6","1028","30.35","-999","-999","-9999","-9999","","","Light Drizzle","rain","0","1","0","0","0","0","AAXX 22001 33345 /1497 81702 10041 20015 30069 40278 57009 75152 886// 333 88712 555 10004 69901"
"3:00 AM EEST on October 22, 2016","2016","10","22","03","00","Europe/Kiev","12:00 AM GMT on October 22, 2016","2016","10","22","00","00","UTC","4.0","39.2","2.0","35.6","87","14.4","8.9","-9999.0","-9999.0","110","ESE","9.0","5.6","1027","30.33","0.6","33.1","-9999","-9999","-9999.00","-9999.00","Overcast","cloudy","0","0","0","0","0","0","METAR UKKK 220000Z 11004MPS 9000 OVC010 04/02 Q1027 R08/CLRD70 NOSIG"
"3:30 AM EEST on October 22, 2016","2016","10","22","03","30","Europe/Kiev","12:30 AM GMT on October 22, 2016","2016","10","22","00","30","UTC","4.0","39.2","2.0","35.6","87","18.0","11.2","-9999.0","-9999.0","100","East","8.0","5.0","1026","30.30","0.1","32.2","-9999","-9999","-9999.00","-9999.00","Overcast","cloudy","0","0","0","0","0","0","METAR UKKK 220030Z 10005MPS 8000 OVC010 04/02 Q1026 R08/CLRD70 NOSIG"
"4:00 AM EEST on October 22, 2016","2016","10","22","04","00","Europe/Kiev","1:00 AM GMT on October 22, 2016","2016","10","22","01","00","UTC","4.0","39.2","3.0","37.4","93","14.4","8.9","-9999.0","-9999.0","100","East","8.0","5.0","1026","30.30","0.6","33.1","-9999","-9999","-9999.00","-9999.00","Overcast","cloudy","0","0","0","0","0","0","METAR UKKK 220100Z 10004MPS 080V140 8000 OVC009 04/03 Q1026 R08/CLRD70 NOSIG"
"4:30 AM EEST on October 22, 2016","2016","10","22","04","30","Europe/Kiev","1:30 AM GMT on October 22, 2016","2016","10","22","01","30","UTC","4.0","39.2","3.0","37.4","93","18.0","11.2","-9999.0","-9999.0","110","ESE","9.0","5.6","1026","30.30","0.1","32.2","-9999","-9999","-9999.00","-9999.00","Overcast","cloudy","0","0","0","0","0","0","METAR UKKK 220130Z 11005MPS 9000 OVC009 04/03 Q1026 R08/CLRD70 NOSIG"
"5:00 AM EEST on October 22, 2016","2016","10","22","05","00","Europe/Kiev","2:00 AM GMT on October 22, 2016","2016","10","22","02","00","UTC","4.0","39.2","3.0","37.4","93","14.4","8.9","-9999.0","-9999.0","110","ESE","7.0","4.3","1026","30.30","0.6","33.1","-9999","-9999","-9999.00","-9999.00","Overcast","cloudy","0","0","0","0","0","0","METAR UKKK 220200Z 11004MPS 7000 OVC008 04/03 Q1026 R08/CLRD70 NOSIG"
"5:30 AM EEST on October 22, 2016","2016","10","22","05","30","Europe/Kiev","2:30 AM GMT on October 22, 2016","2016","10","22","02","30","UTC","4.0","39.2","3.0","37.4","93","14.4","8.9","-9999.0","-9999.0","110","ESE","5.0","3.1","1026","30.30","0.6","33.1","-9999","-9999","-9999.00","-9999.00","Light Drizzle","rain","0","0","0","0","0","0","METAR UKKK 220230Z 11004MPS 5000 -DZ BR OVC008 04/03 Q1026 R08/CLRD70 NOSIG"
"6:00 AM EEST on October 22, 2016","2016","10","22","06","00","Europe/Kiev","3:00 AM GMT on October 22, 2016","2016","10","22","03","00","UTC","4","40","3","37","84","7.2","4.5","","","170","South","4","2","1027","30.32","-999","-999","-9999","-9999","","","Mist","hazy","0","0","0","0","0","0","AAXX 22031 33345 41496 81702 10044 20027 30059 40267 57010 71052 886// 333 88711 555 10004"
"6:00 AM EEST on October 22, 2016","2016","10","22","06","00","Europe/Kiev","3:00 AM GMT on October 22, 2016","2016","10","22","03","00","UTC","4.0","39.2","3.0","37.4","93","14.4","8.9","-9999.0","-9999.0","110","ESE","6.0","3.7","1026","30.30","0.6","33.1","-9999","-9999","-9999.00","-9999.00","Light Drizzle","rain","0","0","0","0","0","0","METAR UKKK 220300Z 11004MPS 6000 -DZ OVC008 04/03 Q1026 R08/CLRD70 NOSIG"
"6:30 AM EEST on October 22, 2016","2016","10","22","06","30","Europe/Kiev","3:30 AM GMT on October 22, 2016","2016","10","22","03","30","UTC","4.0","39.2","3.0","37.4","93","18.0","11.2","-9999.0","-9999.0","110","ESE","5.0","3.1","1025","30.27","0.1","32.2","-9999","-9999","-9999.00","-9999.00","Light Drizzle","rain","0","0","0","0","0","0","METAR UKKK 220330Z 11005MPS 5000 -DZ BR OVC007 04/03 Q1025 R08/190060 NOSIG"
"7:00 AM EEST on October 22, 2016","2016","10","22","07","00","Europe/Kiev","4:00 AM GMT on October 22, 2016","2016","10","22","04","00","UTC","5.0","41.0","4.0","39.2","93","18.0","11.2","-9999.0","-9999.0","110","ESE","-9999.0","-9999.0","1025","30.27","1.3","34.4","-9999","-9999","-9999.00","-9999.00","Light Drizzle","rain","0","0","0","0","0","0","METAR UKKK 220400Z 11005MPS 080V150 4300 -DZ BR OVC006 05/04 Q1025 R08/190060 TEMPO 2000 BR OVC005"
"7:30 AM EEST on October 22, 2016","2016","10","22","07","30","Europe/Kiev","4:30 AM GMT on October 22, 2016","2016","10","22","04","30","UTC","5.0","41.0","4.0","39.2","93","21.6","13.4","-9999.0","-9999.0","110","ESE","6.0","3.7","1025","30.27","0.9","33.6","-9999","-9999","-9999.00","-9999.00","Overcast","cloudy","0","0","0","0","0","0","METAR UKKK 220430Z 11006MPS 6000 OVC008 05/04 Q1025 R08/190060 TEMPO 2000 BR OVC005"
"8:00 AM EEST on October 22, 2016","2016","10","22","08","00","Europe/Kiev","5:00 AM GMT on October 22, 2016","2016","10","22","05","00","UTC","5.0","41.0","4.0","39.2","93","21.6","13.4","-9999.0","-9999.0","110","ESE","6.0","3.7","1025","30.27","0.9","33.6","-9999","-9999","-9999.00","-9999.00","Overcast","cloudy","0","0","0","0","0","0","METAR UKKK 220500Z 11006MPS 6000 OVC008 05/04 Q1025 R08/190060 NOSIG"
"8:30 AM EEST on October 22, 2016","2016","10","22","08","30","Europe/Kiev","5:30 AM GMT on October 22, 2016","2016","10","22","05","30","UTC","5.0","41.0","4.0","39.2","93","25.2","15.7","-9999.0","-9999.0","110","ESE","9.0","5.6","1025","30.27","0.5","32.9","-9999","-9999","-9999.00","-9999.00","Light Drizzle","rain","0","0","0","0","0","0","METAR UKKK 220530Z 11007MPS 9000 -DZ OVC009 05/04 Q1025 R08/190060 NOSIG"
"9:00 AM EEST on October 22, 2016","2016","10","22","09","00","Europe/Kiev","6:00 AM GMT on October 22, 2016","2016","10","22","06","00","UTC","5","41","3","38","85","7.2","4.5","","","160","SSE","4","2","1027","30.32","-999","-999","-9999","-9999","","","Mist","hazy","0","0","0","0","0","0","AAXX 22061 33345 11596 81602 10051 20034 30058 40266 56001 69902 71052 885// 333 20040 88624 555 10005 30003 52004"
"9:00 AM EEST on October 22, 2016","2016","10","22","09","00","Europe/Kiev","6:00 AM GMT on October 22, 2016","2016","10","22","06","00","UTC","5.0","41.0","4.0","39.2","93","21.6","13.4","-9999.0","-9999.0","110","ESE","10.0","6.2","1025","30.27","0.9","33.6","-9999","-9999","-9999.00","-9999.00","Light Drizzle","rain","0","0","0","0","0","0","METAR UKKK 220600Z 11006MPS 9999 -DZ OVC010 05/04 Q1025 R08/190060 NOSIG"
"9:30 AM EEST on October 22, 2016","2016","10","22","09","30","Europe/Kiev","6:30 AM GMT on October 22, 2016","2016","10","22","06","30","UTC","6.0","42.8","4.0","39.2","87","18.0","11.2","-9999.0","-9999.0","110","ESE","10.0","6.2","1026","30.30","2.6","36.7","-9999","-9999","-9999.00","-9999.00","Overcast","cloudy","0","0","0","0","0","0","METAR UKKK 220630Z 11005MPS 9999 OVC011 06/04 Q1026 R08/190060 NOSIG"
"10:00 AM EEST on October 22, 2016","2016","10","22","10","00","Europe/Kiev","7:00 AM GMT on October 22, 2016","2016","10","22","07","00","UTC","6.0","42.8","3.0","37.4","81","21.6","13.4","-9999.0","-9999.0","110","ESE","10.0","6.2","1026","30.30","2.2","35.9","-9999","-9999","-9999.00","-9999.00","Mostly Cloudy","mostlycloudy","0","0","0","0","0","0","METAR UKKK 220700Z 11006MPS 9999 BKN011 BKN025 06/03 Q1026 R08/190060 NOSIG"
"10:30 AM EEST on October 22, 2016","2016","10","22","10","30","Europe/Kiev","7:30 AM GMT on October 22, 2016","2016","10","22","07","30","UTC","6.0","42.8","3.0","37.4","81","21.6","13.4","-9999.0","-9999.0","110","ESE","10.0","6.2","1026","30.30","2.2","35.9","-9999","-9999","-9999.00","-9999.00","Mostly Cloudy","mostlycloudy","0","0","0","0","0","0","METAR UKKK 220730Z 11006MPS 9999 BKN012 BKN025 06/03 Q1026 R08/CLRD70 NOSIG"
"11:00 AM EEST on October 22, 2016","2016","10","22","11","00","Europe/Kiev","8:00 AM GMT on October 22, 2016","2016","10","22","08","00","UTC","6.0","42.8","3.0","37.4","81","25.2","15.7","-9999.0","-9999.0","110","ESE","10.0","6.2","1025","30.27","1.8","35.2","-9999","-9999","-9999.00","-9999.00","Mostly Cloudy","mostlycloudy","0","0","0","0","0","0","METAR UKKK 220800Z 11007MPS 9999 BKN014 BKN029 06/03 Q1025 R08/CLRD70 NOSIG"
"11:30 AM EEST on October 22, 2016","2016","10","22","11","30","Europe/Kiev","8:30 AM GMT on October 22, 2016","2016","10","22","08","30","UTC","6.0","42.8","3.0","37.4","81","25.2","15.7","-9999.0","-9999.0","110","ESE","10.0","6.2","1025","30.27","1.8","35.2","-9999","-9999","-9999.00","-9999.00","Mostly Cloudy","mostlycloudy","0","0","0","0","0","0","METAR UKKK 220830Z 11007MPS 9999 BKN014 BKN029 06/03 Q1025 R08/CLRD70 NOSIG"
"12:00 PM EEST on October 22, 2016","2016","10","22","12","00","Europe/Kiev","9:00 AM GMT on October 22, 2016","2016","10","22","09","00","UTC","7","45","3","38","67","10.8","6.7","","","140","SE","20","12","1026","30.30","-999","-999","-9999","-9999","","","Overcast","cloudy","0","0","0","0","0","0","AAXX 22091 33345 42498 81403 10074 20031 30055 40261 57003 8261/ 555 10010"
"12:00 PM EEST on October 22, 2016","2016","10","22","12","00","Europe/Kiev","9:00 AM GMT on October 22, 2016","2016","10","22","09","00","UTC","7.0","44.6","3.0","37.4","76","21.6","13.4","-9999.0","-9999.0","120","ESE","10.0","6.2","1025","30.27","3.4","38.2","-9999","-9999","-9999.00","-9999.00","Mostly Cloudy","mostlycloudy","0","0","0","0","0","0","METAR UKKK 220900Z 12006MPS 9999 BKN020 BKN100 07/03 Q1025 R08/CLRD70 NOSIG"
"12:30 PM EEST on October 22, 2016","2016","10","22","12","30","Europe/Kiev","9:30 AM GMT on October 22, 2016","2016","10","22","09","30","UTC","8.0","46.4","3.0","37.4","71","21.6","13.4","-9999.0","-9999.0","120","ESE","10.0","6.2","1025","30.27","4.7","40.5","-9999","-9999","-9999.00","-9999.00","Mostly Cloudy","mostlycloudy","0","0","0","0","0","0","METAR UKKK 220930Z 12006MPS 9999 SCT023 BKN100 08/03 Q1025 R08/CLRD70 NOSIG"
"1:00 PM EEST on October 22, 2016","2016","10","22","13","00","Europe/Kiev","10:00 AM GMT on October 22, 2016","2016","10","22","10","00","UTC","8.0","46.4","3.0","37.4","71","18.0","11.2","36.0","22.4","120","ESE","10.0","6.2","1025","30.27","5.1","41.2","-9999","-9999","-9999.00","-9999.00","Mostly Cloudy","mostlycloudy","0","0","0","0","0","0","METAR UKKK 221000Z 12005G10MPS 9999 FEW030 BKN100 08/03 Q1025 R08/CLRD70 NOSIG"
"1:30 PM EEST on October 22, 2016","2016","10","22","13","30","Europe/Kiev","10:30 AM GMT on October 22, 2016","2016","10","22","10","30","UTC","9.0","48.2","2.0","35.6","62","21.6","13.4","-9999.0","-9999.0","130","SE","10.0","6.2","1025","30.27","-999","-999","-9999","-9999","-9999.00","-9999.00","Mostly Cloudy","mostlycloudy","0","0","0","0","0","0","METAR UKKK 221030Z 13006MPS 9999 FEW030 BKN100 09/02 Q1025 R08/CLRD70 NOSIG"
"2:00 PM EEST on October 22, 2016","2016","10","22","14","00","Europe/Kiev","11:00 AM GMT on October 22, 2016","2016","10","22","11","00","UTC","9.0","48.2","2.0","35.6","62","18.0","11.2","36.0","22.4","120","ESE","10.0","6.2","1025","30.27","-999","-999","-9999","-9999","-9999.00","-9999.00","Mostly Cloudy","mostlycloudy","0","0","0","0","0","0","METAR UKKK 221100Z 12005G10MPS 9999 FEW030 BKN100 09/02 Q1025 R08/CLRD70 NOSIG"
"2:30 PM EEST on October 22, 2016","2016","10","22","14","30","Europe/Kiev","11:30 AM GMT on October 22, 2016","2016","10","22","11","30","UTC","9.0","48.2","1.0","33.8","58","21.6","13.4","-9999.0","-9999.0","120","ESE","10.0","6.2","1025","30.27","-999","-999","-9999","-9999","-9999.00","-9999.00","Mostly Cloudy","mostlycloudy","0","0","0","0","0","0","METAR UKKK 221130Z 12006MPS 090V150 9999 FEW030 BKN100 09/01 Q1025 R08/CLRD70 NOSIG"
"3:00 PM EEST on October 22, 2016","2016","10","22","15","00","Europe/Kiev","12:00 PM GMT on October 22, 2016","2016","10","22","12","00","UTC","9","48","2","35","49","14.4","8.9","","","150","SSE","20","12","1026","30.30","-999","-999","-9999","-9999","","","Overcast","cloudy","0","0","0","0","0","0","AAXX 22121 33345 32998 81504 10091 20016 30053 40258 56002 85035 555 10011"
"3:00 PM EEST on October 22, 2016","2016","10","22","15","00","Europe/Kiev","12:00 PM GMT on October 22, 2016","2016","10","22","12","00","UTC","9.0","48.2","1.0","33.8","58","25.2","15.7","-9999.0","-9999.0","110","ESE","10.0","6.2","1025","30.27","-999","-999","-9999","-9999","-9999.00","-9999.00","Mostly Cloudy","mostlycloudy","0","0","0","0","0","0","METAR UKKK 221200Z 11007MPS 9999 FEW030 BKN100 09/01 Q1025 R08/CLRD70 NOSIG"
"3:30 PM EEST on October 22, 2016","2016","10","22","15","30","Europe/Kiev","12:30 PM GMT on October 22, 2016","2016","10","22","12","30","UTC","9.0","48.2","1.0","33.8","58","28.8","17.9","-9999.0","-9999.0","120","ESE","-9999.0","-9999.0","1025","30.27","-999","-999","-9999","-9999","-9999.00","-9999.00","Clear","clear","0","0","0","0","0","0","METAR UKKK 221230Z 12008MPS 090V150 CAVOK 09/01 Q1025 R08/CLRD70 NOSIG"
"4:00 PM EEST on October 22, 2016","2016","10","22","16","00","Europe/Kiev","1:00 PM GMT on October 22, 2016","2016","10","22","13","00","UTC","9.0","48.2","0.0","32.0","54","25.2","15.7","-9999.0","-9999.0","120","ESE","-9999.0","-9999.0","1025","30.27","-999","-999","-9999","-9999","-9999.00","-9999.00","Clear","clear","0","0","0","0","0","0","METAR UKKK 221300Z 12007MPS 090V160 CAVOK 09/00 Q1025 R08/CLRD70 NOSIG"
"4:30 PM EEST on October 22, 2016","2016","10","22","16","30","Europe/Kiev","1:30 PM GMT on October 22, 2016","2016","10","22","13","30","UTC","9.0","48.2","0.0","32.0","54","21.6","13.4","39.6","24.6","120","ESE","-9999.0","-9999.0","1024","30.24","-999","-999","-9999","-9999","-9999.00","-9999.00","Clear","clear","0","0","0","0","0","0","METAR UKKK 221330Z 12006G11MPS CAVOK 09/00 Q1024 R08/CLRD70 NOSIG"
"5:00 PM EEST on October 22, 2016","2016","10","22","17","00","Europe/Kiev","2:00 PM GMT on October 22, 2016","2016","10","22","14","00","UTC","9.0","48.2","0.0","32.0","54","21.6","13.4","-9999.0","-9999.0","110","ESE","-9999.0","-9999.0","1024","30.24","-999","-999","-9999","-9999","-9999.00","-9999.00","Clear","clear","0","0","0","0","0","0","METAR UKKK 221400Z 11006MPS 090V150 CAVOK 09/00 Q1024 R08/CLRD70 NOSIG"
"5:30 PM EEST on October 22, 2016","2016","10","22","17","30","Europe/Kiev","2:30 PM GMT on October 22, 2016","2016","10","22","14","30","UTC","9.0","48.2","0.0","32.0","54","28.8","17.9","46.8","29.1","110","ESE","-9999.0","-9999.0","1024","30.24","-999","-999","-9999","-9999","-9999.00","-9999.00","Clear","clear","0","0","0","0","0","0","METAR UKKK 221430Z 11008G13MPS CAVOK 09/M00 Q1024 R08/CLRD70 NOSIG"
"6:00 PM EEST on October 22, 2016","2016","10","22","18","00","Europe/Kiev","3:00 PM GMT on October 22, 2016","2016","10","22","15","00","UTC","8","46","0","32","47","10.8","6.7","","","140","SE","20","12","1026","30.29","-999","-999","-9999","-9999","","","Clear","clear","0","0","0","0","0","0","AAXX 22151 33345 42998 71403 10080 20001 30050 40256 58003 80009 555 10006"
"6:00 PM EEST on October 22, 2016","2016","10","22","18","00","Europe/Kiev","3:00 PM GMT on October 22, 2016","2016","10","22","15","00","UTC","8.0","46.4","-1.0","30.2","53","28.8","17.9","46.8","29.1","110","ESE","-9999.0","-9999.0","1025","30.27","4.1","39.3","-9999","-9999","-9999.00","-9999.00","Clear","clear","0","0","0","0","0","0","METAR UKKK 221500Z 11008G13MPS CAVOK 08/M01 Q1025 R08/CLRD70 NOSIG"
"6:30 PM EEST on October 22, 2016","2016","10","22","18","30","Europe/Kiev","3:30 PM GMT on October 22, 2016","2016","10","22","15","30","UTC","8.0","46.4","-1.0","30.2","53","25.2","15.7","43.2","26.8","120","ESE","9.0","5.6","1025","30.27","4.4","39.9","-9999","-9999","-9999.00","-9999.00","Unknown","unknown","0","0","0","0","0","0","METAR UKKK 221530Z 12007G12MPS 9000 NSC 08/M01 Q1025 R08/CLRD70 NOSIG"
"7:00 PM EEST on October 22, 2016","2016","10","22","19","00","Europe/Kiev","4:00 PM GMT on October 22, 2016","2016","10","22","16","00","UTC","8.0","46.4","-1.0","30.2","53","25.2","15.7","-9999.0","-9999.0","110","ESE","-9999.0","-9999.0","1025","30.27","4.4","39.9","-9999","-9999","-9999.00","-9999.00","Clear","clear","0","0","0","0","0","0","METAR UKKK 221600Z 11007MPS CAVOK 08/M01 Q1025 R08/CLRD70 NOSIG"
"7:30 PM EEST on October 22, 2016","2016","10","22","19","30","Europe/Kiev","4:30 PM GMT on October 22, 2016","2016","10","22","16","30","UTC","8.0","46.4","-1.0","30.2","53","28.8","17.9","-9999.0","-9999.0","110","ESE","-9999.0","-9999.0","1025","30.27","4.1","39.3","-9999","-9999","-9999.00","-9999.00","Clear","clear","0","0","0","0","0","0","METAR UKKK 221630Z 11008MPS CAVOK 08/M01 Q1025 R08/CLRD70 NOSIG"
"8:00 PM EEST on October 22, 2016","2016","10","22","20","00","Europe/Kiev","5:00 PM GMT on October 22, 2016","2016","10","22","17","00","UTC","7.0","44.6","-1.0","30.2","57","21.6","13.4","-9999.0","-9999.0","110","ESE","-9999.0","-9999.0","1025","30.27","3.4","38.2","-9999","-9999","-9999.00","-9999.00","Clear","clear","0","0","0","0","0","0","METAR UKKK 221700Z 11006MPS 080V140 CAVOK 07/M01 Q1025 R08/CLRD70 NOSIG"
"8:30 PM EEST on October 22, 2016","2016","10","22","20","30","Europe/Kiev","5:30 PM GMT on October 22, 2016","2016","10","22","17","30","UTC","7.0","44.6","-1.0","30.2","57","21.6","13.4","-9999.0","-9999.0","110","ESE","-9999.0","-9999.0","1026","30.30","3.4","38.2","-9999","-9999","-9999.00","-9999.00","Clear","clear","0","0","0","0","0","0","METAR UKKK 221730Z 11006MPS CAVOK 07/M01 Q1026 R08/CLRD70 NOSIG"
"9:00 PM EEST on October 22, 2016","2016","10","22","21","00","Europe/Kiev","6:00 PM GMT on October 22, 2016","2016","10","22","18","00","UTC","7","44","-1","31","48","10.8","6.7","","","160","SSE","20","12","1027","30.32","-999","-999","-9999","-9999","","","Overcast","cloudy","0","0","0","0","0","0","AAXX 22181 33345 32998 81603 10067 21007 30061 40268 53011 8805/ 333 10093 555 10005"
"9:00 PM EEST on October 22, 2016","2016","10","22","21","00","Europe/Kiev","6:00 PM GMT on October 22, 2016","2016","10","22","18","00","UTC","7.0","44.6","-1.0","30.2","57","21.6","13.4","-9999.0","-9999.0","120","ESE","-9999.0","-9999.0","1026","30.30","3.4","38.2","-9999","-9999","-9999.00","-9999.00","Clear","clear","0","0","0","0","0","0","METAR UKKK 221800Z 12006MPS CAVOK 07/M01 Q1026 R08/CLRD70 NOSIG"
"9:30 PM EEST on October 22, 2016","2016","10","22","21","30","Europe/Kiev","6:30 PM GMT on October 22, 2016","2016","10","22","18","30","UTC","7.0","44.6","-1.0","30.2","57","21.6","13.4","-9999.0","-9999.0","110","ESE","-9999.0","-9999.0","1026","30.30","3.4","38.2","-9999","-9999","-9999.00","-9999.00","Clear","clear","0","0","0","0","0","0","METAR UKKK 221830Z 11006MPS 080V140 CAVOK 07/M01 Q1026 R08/CLRD70 NOSIG"
"10:00 PM EEST on October 22, 2016","2016","10","22","22","00","Europe/Kiev","7:00 PM GMT on October 22, 2016","2016","10","22","19","00","UTC","7.0","44.6","-1.0","30.2","57","18.0","11.2","-9999.0","-9999.0","110","ESE","-9999.0","-9999.0","1026","30.30","3.8","38.9","-9999","-9999","-9999.00","-9999.00","Clear","clear","0","0","0","0","0","0","METAR UKKK 221900Z 11005MPS CAVOK 07/M01 Q1026 R08/CLRD70 NOSIG"
"10:30 PM EEST on October 22, 2016","2016","10","22","22","30","Europe/Kiev","7:30 PM GMT on October 22, 2016","2016","10","22","19","30","UTC","6.0","42.8","-1.0","30.2","61","18.0","11.2","-9999.0","-9999.0","110","ESE","-9999.0","-9999.0","1026","30.30","2.6","36.7","-9999","-9999","-9999.00","-9999.00","Clear","clear","0","0","0","0","0","0","METAR UKKK 221930Z 11005MPS CAVOK 06/M01 Q1026 R08/CLRD70 NOSIG"
"11:00 PM EEST on October 22, 2016","2016","10","22","23","00","Europe/Kiev","8:00 PM GMT on October 22, 2016","2016","10","22","20","00","UTC","6.0","42.8","-1.0","30.2","61","18.0","11.2","-9999.0","-9999.0","110","ESE","10.0","6.2","1026","30.30","2.6","36.7","-9999","-9999","-9999.00","-9999.00","Mostly Cloudy","mostlycloudy","0","0","0","0","0","0","METAR UKKK 222000Z 11005MPS 9999 FEW046 BKN100 06/M01 Q1026 R08/CLRD70 NOSIG"
"11:30 PM EEST on October 22, 2016","2016","10","22","23","30","Europe/Kiev","8:30 PM GMT on October 22, 2016","2016","10","22","20","30","UTC","6.0","42.8","-1.0","30.2","61","21.6","13.4","-9999.0","-9999.0","110","ESE","10.0","6.2","1026","30.30","2.2","35.9","-9999","-9999","-9999.00","-9999.00","Mostly Cloudy","mostlycloudy","0","0","0","0","0","0","METAR UKKK 222030Z 11006MPS 9999 FEW043 BKN100 06/M01 Q1026 R08/CLRD70 NOSIG"
"12:00 AM EEST on October 23, 2016","2016","10","23","00","00","Europe/Kiev","9:00 PM GMT on October 22, 2016","2016","10","22","21","00","UTC","6","42","-1","30","51","7.2","4.5","","","160","SSE","20","12","1027","30.34","-999","-999","-9999","-9999","","","Overcast","cloudy","0","0","0","0","0","0","AAXX 22211 33345 42698 81602 10058 21012 30066 40274 51005 8655/ 333 86642 555 10004"
"12:00 AM EEST on October 23, 2016","2016","10","23","00","00","Europe/Kiev","9:00 PM GMT on October 22, 2016","2016","10","22","21","00","UTC","6.0","42.8","-1.0","30.2","61","21.6","13.4","-9999.0","-9999.0","110","ESE","10.0","6.2","1026","30.30","2.2","35.9","-9999","-9999","-9999.00","-9999.00","Mostly Cloudy","mostlycloudy","0","0","0","0","0","0","METAR UKKK 222100Z 11006MPS 9999 SCT043 BKN100 06/M01 Q1026 R08/CLRD70 NOSIG"
"12:30 AM EEST on October 23, 2016","2016","10","23","00","30","Europe/Kiev","9:30 PM GMT on October 22, 2016","2016","10","22","21","30","UTC","6.0","42.8","-1.0","30.2","61","21.6","13.4","-9999.0","-9999.0","110","ESE","10.0","6.2","1026","30.30","2.2","35.9","-9999","-9999","-9999.00","-9999.00","Mostly Cloudy","mostlycloudy","0","0","0","0","0","0","METAR UKKK 222130Z 11006MPS 9999 BKN042 06/M01 Q1026 R08/CLRD70 NOSIG"
"1:00 AM EEST on October 23, 2016","2016","10","23","01","00","Europe/Kiev","10:00 PM GMT on October 22, 2016","2016","10","22","22","00","UTC","6.0","42.8","-1.0","30.2","61","21.6","13.4","-9999.0","-9999.0","110","ESE","10.0","6.2","1026","30.30","2.2","35.9","-9999","-9999","-9999.00","-9999.00","Mostly Cloudy","mostlycloudy","0","0","0","0","0","0","METAR UKKK 222200Z 11006MPS 9999 BKN039 06/M01 Q1026 R08/CLRD70 NOSIG"
"1:30 AM EEST on October 23, 2016","2016","10","23","01","30","Europe/Kiev","10:30 PM GMT on October 22, 2016","2016","10","22","22","30","UTC","6.0","42.8","-1.0","30.2","61","18.0","11.2","-9999.0","-9999.0","110","ESE","10.0","6.2","1026","30.30","2.6","36.7","-9999","-9999","-9999.00","-9999.00","Mostly Cloudy","mostlycloudy","0","0","0","0","0","0","METAR UKKK 222230Z 11005MPS 9999 BKN039 06/M01 Q1026 R08/CLRD70 NOSIG"
"2:00 AM EEST on October 23, 2016","2016","10","23","02","00","Europe/Kiev","11:00 PM GMT on October 22, 2016","2016","10","22","23","00","UTC","5.0","41.0","-1.0","30.2","65","21.6","13.4","-9999.0","-9999.0","110","ESE","10.0","6.2","1026","30.30","0.9","33.6","-9999","-9999","-9999.00","-9999.00","Mostly Cloudy","mostlycloudy","0","0","0","0","0","0","METAR UKKK 222300Z 11006MPS 9999 BKN039 05/M01 Q1026 R08/CLRD70 NOSIG"
"2:30 AM EEST on October 23, 2016","2016","10","23","02","30","Europe/Kiev","11:30 PM GMT on October 22, 2016","2016","10","22","23","30","UTC","5.0","41.0","-1.0","30.2","65","21.6","13.4","-9999.0","-9999.0","110","ESE","10.0","6.2","1026","30.30","0.9","33.6","-9999","-9999","-9999.00","-9999.00","Overcast","cloudy","0","0","0","0","0","0","METAR UKKK 222330Z 11006MPS 9999 OVC039 05/M01 Q1026 R08/CLRD70 NOSIG"
"3:00 AM EEST on October 23, 2016","2016","10","23","03","00","Europe/Kiev","12:00 AM GMT on October 23, 2016","2016","10","23","00","00","UTC","5","41","-1","31","57","7.2","4.5","","","150","SSE","20","12","1028","30.36","-999","-999","-9999","-9999","","","Overcast","cloudy","0","0","0","0","0","0","AAXX 23001 33345 32698 81502 10050 21006 30071 40279 53005 885// 333 88641 555 10004"
"3:00 AM EEST on October 23, 2016","2016","10","23","03","00","Europe/Kiev","12:00 AM GMT on October 23, 2016","2016","10","23","00","00","UTC","5.0","41.0","-1.0","30.2","65","21.6","13.4","-9999.0","-9999.0","110","ESE","10.0","6.2","1027","30.33","0.9","33.6","-9999","-9999","-9999.00","-9999.00","Overcast","cloudy","0","0","0","0","0","0","METAR UKKK 230000Z 11006MPS 9999 OVC040 05/M01 Q1027 R08/CLRD70 NOSIG"
"3:30 AM EEST on October 23, 2016","2016","10","23","03","30","Europe/Kiev","12:30 AM GMT on October 23, 2016","2016","10","23","00","30","UTC","5.0","41.0","-1.0","30.2","65","18.0","11.2","-9999.0","-9999.0","110","ESE","10.0","6.2","1027","30.33","1.3","34.4","-9999","-9999","-9999.00","-9999.00","Overcast","cloudy","0","0","0","0","0","0","METAR UKKK 230030Z 11005MPS 9999 OVC040 05/M01 Q1027 R08/CLRD70 NOSIG"
"4:00 AM EEST on October 23, 2016","2016","10","23","04","00","Europe/Kiev","1:00 AM GMT on October 23, 2016","2016","10","23","01","00","UTC","5.0","41.0","-1.0","30.2","65","21.6","13.4","-9999.0","-9999.0","110","ESE","10.0","6.2","1027","30.33","0.9","33.6","-9999","-9999","-9999.00","-9999.00","Overcast","cloudy","0","0","0","0","0","0","METAR UKKK 230100Z 11006MPS 9999 OVC040 05/M01 Q1027 R08/CLRD70 NOSIG"
"4:30 AM EEST on October 23, 2016","2016","10","23","04","30","Europe/Kiev","1:30 AM GMT on October 23, 2016","2016","10","23","01","30","UTC","5.0","41.0","-1.0","30.2","65","21.6","13.4","-9999.0","-9999.0","110","ESE","10.0","6.2","1027","30.33","0.9","33.6","-9999","-9999","-9999.00","-9999.00","Overcast","cloudy","0","0","0","0","0","0","METAR UKKK 230130Z 11006MPS 9999 OVC040 05/M01 Q1027 R08/CLRD70 NOSIG"
"5:00 AM EEST on October 23, 2016","2016","10","23","05","00","Europe/Kiev","2:00 AM GMT on October 23, 2016","2016","10","23","02","00","UTC","4.0","39.2","-1.0","30.2","70","21.6","13.4","-9999.0","-9999.0","110","ESE","10.0","6.2","1027","30.33","-0.4","31.3","-9999","-9999","-9999.00","-9999.00","Overcast","cloudy","0","0","0","0","0","0","METAR UKKK 230200Z 11006MPS 9999 OVC040 04/M01 Q1027 R08/CLRD70 NOSIG"
"5:30 AM EEST on October 23, 2016","2016","10","23","05","30","Europe/Kiev","2:30 AM GMT on October 23, 2016","2016","10","23","02","30","UTC","4.0","39.2","-1.0","30.2","70","21.6","13.4","-9999.0","-9999.0","110","ESE","10.0","6.2","1027","30.33","-0.4","31.3","-9999","-9999","-9999.00","-9999.00","Overcast","cloudy","0","0","0","0","0","0","METAR UKKK 230230Z 11006MPS 9999 OVC046 04/M01 Q1027 R08/CLRD70 NOSIG"
"6:00 AM EEST on October 23, 2016","2016","10","23","06","00","Europe/Kiev","3:00 AM GMT on October 23, 2016","2016","10","23","03","00","UTC","4","39","-1","30","60","7.2","4.5","","","160","SSE","20","12","1028","30.38","-999","-999","-9999","-9999","","","Overcast","cloudy","0","0","0","0","0","0","AAXX 23031 33345 42698 81602 10040 21012 30076 40285 52005 8355/ 555 10003"
"6:00 AM EEST on October 23, 2016","2016","10","23","06","00","Europe/Kiev","3:00 AM GMT on October 23, 2016","2016","10","23","03","00","UTC","4.0","39.2","-1.0","30.2","70","21.6","13.4","-9999.0","-9999.0","110","ESE","-9999.0","-9999.0","1027","30.33","-0.4","31.3","-9999","-9999","-9999.00","-9999.00","Clear","clear","0","0","0","0","0","0","METAR UKKK 230300Z 11006MPS CAVOK 04/M01 Q1027 R08/CLRD70 NOSIG"
"6:30 AM EEST on October 23, 2016","2016","10","23","06","30","Europe/Kiev","3:30 AM GMT on October 23, 2016","2016","10","23","03","30","UTC","4.0","39.2","-1.0","30.2","70","18.0","11.2","-9999.0","-9999.0","110","ESE","-9999.0","-9999.0","1027","30.33","0.1","32.2","-9999","-9999","-9999.00","-9999.00","Clear","clear","0","0","0","0","0","0","METAR UKKK 230330Z 11005MPS CAVOK 04/M01 Q1027 R08/CLRD70 NOSIG"
"7:00 AM EEST on October 23, 2016","2016","10","23","07","00","Europe/Kiev","4:00 AM GMT on October 23, 2016","2016","10","23","04","00","UTC","4.0","39.2","-2.0","28.4","65","18.0","11.2","-9999.0","-9999.0","110","ESE","10.0","6.2","1027","30.33","0.1","32.2","-9999","-9999","-9999.00","-9999.00","Mostly Cloudy","mostlycloudy","0","0","0","0","0","0","METAR UKKK 230400Z 11005MPS 080V150 9999 BKN028 04/M02 Q1027 R08/CLRD70 NOSIG"
"7:30 AM EEST on October 23, 2016","2016","10","23","07","30","Europe/Kiev","4:30 AM GMT on October 23, 2016","2016","10","23","04","30","UTC","4.0","39.2","-2.0","28.4","65","18.0","11.2","-9999.0","-9999.0","100","East","10.0","6.2","1028","30.36","0.1","32.2","-9999","-9999","-9999.00","-9999.00","Mostly Cloudy","mostlycloudy","0","0","0","0","0","0","METAR UKKK 230430Z 10005MPS 9999 BKN024 04/M02 Q1028 R08/CLRD70 NOSIG"
"8:00 AM EEST on October 23, 2016","2016","10","23","08","00","Europe/Kiev","5:00 AM GMT on October 23, 2016","2016","10","23","05","00","UTC","4.0","39.2","-2.0","28.4","65","18.0","11.2","-9999.0","-9999.0","100","East","10.0","6.2","1028","30.36","0.1","32.2","-9999","-9999","-9999.00","-9999.00","Mostly Cloudy","mostlycloudy","0","0","0","0","0","0","METAR UKKK 230500Z 10005MPS 9999 BKN023 04/M02 Q1028 R08/CLRD70 NOSIG"
"8:30 AM EEST on October 23, 2016","2016","10","23","08","30","Europe/Kiev","5:30 AM GMT on October 23, 2016","2016","10","23","05","30","UTC","4.0","39.2","-2.0","28.4","65","18.0","11.2","-9999.0","-9999.0","110","ESE","10.0","6.2","1028","30.36","0.1","32.2","-9999","-9999","-9999.00","-9999.00","Mostly Cloudy","mostlycloudy","0","0","0","0","0","0","METAR UKKK 230530Z 11005MPS 080V140 9999 BKN023 04/M02 Q1028 R08/CLRD70 NOSIG"
"9:00 AM EEST on October 23, 2016","2016","10","23","09","00","Europe/Kiev","6:00 AM GMT on October 23, 2016","2016","10","23","06","00","UTC","4","38","-2","29","60","7.2","4.5","","","150","SSE","20","12","1030","30.41","-999","-999","-9999","-9999","","","Overcast","cloudy","0","0","0","0","0","0","AAXX 23061 33345 32598 81502 10036 21017 30087 40297 52011 885// 333 20036 88625 555 10004 30003 52004"
"9:00 AM EEST on October 23, 2016","2016","10","23","09","00","Europe/Kiev","6:00 AM GMT on October 23, 2016","2016","10","23","06","00","UTC","4.0","39.2","-2.0","28.4","65","18.0","11.2","-9999.0","-9999.0","110","ESE","10.0","6.2","1028","30.36","0.1","32.2","-9999","-9999","-9999.00","-9999.00","Overcast","cloudy","0","0","0","0","0","0","METAR UKKK 230600Z 11005MPS 070V140 9999 OVC023 04/M02 Q1028 R08/CLRD70 NOSIG"
"9:30 AM EEST on October 23, 2016","2016","10","23","09","30","Europe/Kiev","6:30 AM GMT on October 23, 2016","2016","10","23","06","30","UTC","4.0","39.2","-2.0","28.4","65","18.0","11.2","-9999.0","-9999.0","110","ESE","10.0","6.2","1029","30.39","0.1","32.2","-9999","-9999","-9999.00","-9999.00","Overcast","cloudy","0","0","0","0","0","0","METAR UKKK 230630Z 11005MPS 080V140 9999 OVC023 04/M02 Q1029 R08/CLRD70 NOSIG"
"10:00 AM EEST on October 23, 2016","2016","10","23","10","00","Europe/Kiev","7:00 AM GMT on October 23, 2016","2016","10","23","07","00","UTC","4.0","39.2","-2.0","28.4","65","18.0","11.2","-9999.0","-9999.0","110","ESE","10.0","6.2","1029","30.39","0.1","32.2","-9999","-9999","-9999.00","-9999.00","Overcast","cloudy","0","0","0","0","0","0","METAR UKKK 230700Z 11005MPS 090V150 9999 OVC022 04/M02 Q1029 R08/CLRD70 NOSIG"
"10:30 AM EEST on October 23, 2016","2016","10","23","10","30","Europe/Kiev","7:30 AM GMT on October 23, 2016","2016","10","23","07","30","UTC","4.0","39.2","-1.0","30.2","70","14.4","8.9","-9999.0","-9999.0","110","ESE","10.0","6.2","1029","30.39","0.6","33.1","-9999","-9999","-9999.00","-9999.00","Overcast","cloudy","0","0","0","0","0","0","METAR UKKK 230730Z 11004MPS 090V150 9999 OVC023 04/M01 Q1029 R08/CLRD70 NOSIG"
"11:00 AM EEST on October 23, 2016","2016","10","23","11","00","Europe/Kiev","8:00 AM GMT on October 23, 2016","2016","10","23","08","00","UTC","5.0","41.0","-2.0","28.4","61","21.6","13.4","-9999.0","-9999.0","100","East","10.0","6.2","1029","30.39","0.9","33.6","-9999","-9999","-9999.00","-9999.00","Mostly Cloudy","mostlycloudy","0","0","0","0","0","0","METAR UKKK 230800Z 10006MPS 080V140 9999 BKN042 05/M02 Q1029 R08/CLRD70 NOSIG"
"11:30 AM EEST on October 23, 2016","2016","10","23","11","30","Europe/Kiev","8:30 AM GMT on October 23, 2016","2016","10","23","08","30","UTC","5.0","41.0","-1.0","30.2","65","18.0","11.2","-9999.0","-9999.0","110","ESE","10.0","6.2","1029","30.39","1.3","34.4","-9999","-9999","-9999.00","-9999.00","Mostly Cloudy","mostlycloudy","0","0","0","0","0","0","METAR UKKK 230830Z 11005MPS 9999 SCT043 BKN070 05/M01 Q1029 R08/CLRD70 NOSIG"
"12:00 PM EEST on October 23, 2016","2016","10","23","12","00","Europe/Kiev","9:00 AM GMT on October 23, 2016","2016","10","23","09","00","UTC","6","42","-1","31","54","10.8","6.7","","","170","South","20","12","1031","30.45","-999","-999","-9999","-9999","","","Mostly Cloudy","mostlycloudy","0","0","0","0","0","0","AAXX 23091 33345 42598 71703 10055 21006 30100 40309 52013 87500 333 87627 555 10009"
"12:00 PM EEST on October 23, 2016","2016","10","23","12","00","Europe/Kiev","9:00 AM GMT on October 23, 2016","2016","10","23","09","00","UTC","5.0","41.0","-1.0","30.2","65","18.0","11.2","-9999.0","-9999.0","120","ESE","10.0","6.2","1030","30.42","1.3","34.4","-9999","-9999","-9999.00","-9999.00","Mostly Cloudy","mostlycloudy","0","0","0","0","0","0","METAR UKKK 230900Z 12005MPS 070V150 9999 BKN040 BKN070 05/M01 Q1030 R08/CLRD70 NOSIG"
"12:30 PM EEST on October 23, 2016","2016","10","23","12","30","Europe/Kiev","9:30 AM GMT on October 23, 2016","2016","10","23","09","30","UTC","6.0","42.8","-1.0","30.2","61","21.6","13.4","-9999.0","-9999.0","120","ESE","10.0","6.2","1030","30.42","2.2","35.9","-9999","-9999","-9999.00","-9999.00","Mostly Cloudy","mostlycloudy","0","0","0","0","0","0","METAR UKKK 230930Z 12006MPS 090V150 9999 SCT038 BKN070 06/M01 Q1030 R08/CLRD70 NOSIG"
"1:00 PM EEST on October 23, 2016","2016","10","23","13","00","Europe/Kiev","10:00 AM GMT on October 23, 2016","2016","10","23","10","00","UTC","6.0","42.8","-1.0","30.2","61","21.6","13.4","-9999.0","-9999.0","90","East","10.0","6.2","1030","30.42","2.2","35.9","-9999","-9999","-9999.00","-9999.00","Mostly Cloudy","mostlycloudy","0","0","0","0","0","0","METAR UKKK 231000Z 09006MPS 9999 SCT036 BKN070 06/M01 Q1030 R08/CLRD70 NOSIG"
"1:30 PM EEST on October 23, 2016","2016","10","23","13","30","Europe/Kiev","10:30 AM GMT on October 23, 2016","2016","10","23","10","30","UTC","6.0","42.8","-1.0","30.2","61","18.0","11.2","-9999.0","-9999.0","120","ESE","10.0","6.2","1030","30.42","2.6","36.7","-9999","-9999","-9999.00","-9999.00","Mostly Cloudy","mostlycloudy","0","0","0","0","0","0","METAR UKKK 231030Z 12005MPS 100V160 9999 SCT035 BKN070 06/M01 Q1030 R08/CLRD70 NOSIG"
"2:00 PM EEST on October 23, 2016","2016","10","23","14","00","Europe/Kiev","11:00 AM GMT on October 23, 2016","2016","10","23","11","00","UTC","6.0","42.8","-1.0","30.2","61","18.0","11.2","-9999.0","-9999.0","110","ESE","10.0","6.2","1030","30.42","2.6","36.7","-9999","-9999","-9999.00","-9999.00","Mostly Cloudy","mostlycloudy","0","0","0","0","0","0","METAR UKKK 231100Z 11005MPS 9999 BKN031 06/M01 Q1030 R08/CLRD70 NOSIG"
"2:30 PM EEST on October 23, 2016","2016","10","23","14","30","Europe/Kiev","11:30 AM GMT on October 23, 2016","2016","10","23","11","30","UTC","6.0","42.8","-1.0","30.2","61","14.4","8.9","-9999.0","-9999.0","100","East","10.0","6.2","1030","30.42","3.1","37.6","-9999","-9999","-9999.00","-9999.00","Mostly Cloudy","mostlycloudy","0","0","0","0","0","0","METAR UKKK 231130Z 10004MPS 070V130 9999 BKN031 06/M01 Q1030 R08/CLRD70 NOSIG"
"3:00 PM EEST on October 23, 2016","2016","10","23","15","00","Europe/Kiev","12:00 PM GMT on October 23, 2016","2016","10","23","12","00","UTC","6","44","-0","32","51","7.2","4.5","","","140","SE","20","12","1030","30.43","-999","-999","-9999","-9999","","","Overcast","cloudy","0","0","0","0","0","0","AAXX 23121 33345 32598 81402 10064 21001 30097 40305 58003 885// 333 88629 555 10009"
"3:00 PM EEST on October 23, 2016","2016","10","23","15","00","Europe/Kiev","12:00 PM GMT on October 23, 2016","2016","10","23","12","00","UTC","6.0","42.8","0.0","32.0","66","18.0","11.2","-9999.0","-9999.0","110","ESE","10.0","6.2","1029","30.39","2.6","36.7","-9999","-9999","-9999.00","-9999.00","Mostly Cloudy","mostlycloudy","0","0","0","0","0","0","METAR UKKK 231200Z 11005MPS 9999 BKN033 06/M00 Q1029 R08/CLRD70 NOSIG"
"3:30 PM EEST on October 23, 2016","2016","10","23","15","30","Europe/Kiev","12:30 PM GMT on October 23, 2016","2016","10","23","12","30","UTC","6.0","42.8","0.0","32.0","66","21.6","13.4","-9999.0","-9999.0","110","ESE","10.0","6.2","1030","30.42","2.2","35.9","-9999","-9999","-9999.00","-9999.00","Mostly Cloudy","mostlycloudy","0","0","0","0","0","0","METAR UKKK 231230Z 11006MPS 080V140 9999 BKN030 06/M00 Q1030 R08/CLRD70 NOSIG"
"4:00 PM EEST on October 23, 2016","2016","10","23","16","00","Europe/Kiev","1:00 PM GMT on October 23, 2016","2016","10","23","13","00","UTC","6.0","42.8","0.0","32.0","66","14.4","8.9","-9999.0","-9999.0","120","ESE","10.0","6.2","1030","30.42","3.1","37.6","-9999","-9999","-9999.00","-9999.00","Overcast","cloudy","0","0","0","0","0","0","METAR UKKK 231300Z 12004MPS 090V150 9999 OVC029 06/M00 Q1030 R08/CLRD70 NOSIG"
"4:30 PM EEST on October 23, 2016","2016","10","23","16","30","Europe/Kiev","1:30 PM GMT on October 23, 2016","2016","10","23","13","30","UTC","6.0","42.8","0.0","32.0","66","14.4","8.9","-9999.0","-9999.0","110","ESE","10.0","6.2","1030","30.42","3.1","37.6","-9999","-9999","-9999.00","-9999.00","Overcast","cloudy","0","0","0","0","0","0","METAR UKKK 231330Z 11004MPS 9999 OVC029 06/M00 Q1030 R08/CLRD70 NOSIG"
"5:00 PM EEST on October 23, 2016","2016","10","23","17","00","Europe/Kiev","2:00 PM GMT on October 23, 2016","2016","10","23","14","00","UTC","6.0","42.8","0.0","32.0","66","18.0","11.2","-9999.0","-9999.0","120","ESE","10.0","6.2","1030","30.42","2.6","36.7","-9999","-9999","-9999.00","-9999.00","Overcast","cloudy","0","0","0","0","0","0","METAR UKKK 231400Z 12005MPS 9999 OVC030 06/M00 Q1030 R08/CLRD70 NOSIG"
"5:30 PM EEST on October 23, 2016","2016","10","23","17","30","Europe/Kiev","2:30 PM GMT on October 23, 2016","2016","10","23","14","30","UTC","6.0","42.8","-1.0","30.2","61","18.0","11.2","-9999.0","-9999.0","110","ESE","10.0","6.2","1031","30.45","2.6","36.7","-9999","-9999","-9999.00","-9999.00","Overcast","cloudy","0","0","0","0","0","0","METAR UKKK 231430Z 11005MPS 090V150 9999 OVC030 06/M01 Q1031 R08/CLRD70 NOSIG"
"6:00 PM EEST on October 23, 2016","2016","10","23","18","00","Europe/Kiev","3:00 PM GMT on October 23, 2016","2016","10","23","15","00","UTC","6","42","-1","31","54","7.2","4.5","","","140","SE","20","12","1032","30.48","-999","-999","-9999","-9999","","","Overcast","cloudy","0","0","0","0","0","0","AAXX 23151 33345 42598 81402 10055 21006 30112 40321 53015 885// 333 88631 555 10005"
"6:00 PM EEST on October 23, 2016","2016","10","23","18","00","Europe/Kiev","3:00 PM GMT on October 23, 2016","2016","10","23","15","00","UTC","6.0","42.8","0.0","32.0","66","14.4","8.9","-9999.0","-9999.0","110","ESE","10.0","6.2","1031","30.45","3.1","37.6","-9999","-9999","-9999.00","-9999.00","Overcast","cloudy","0","0","0","0","0","0","METAR UKKK 231500Z 11004MPS 080V140 9999 OVC032 06/M00 Q1031 R08/CLRD70 NOSIG"
"6:30 PM EEST on October 23, 2016","2016","10","23","18","30","Europe/Kiev","3:30 PM GMT on October 23, 2016","2016","10","23","15","30","UTC","6.0","42.8","-1.0","30.2","61","18.0","11.2","-9999.0","-9999.0","110","ESE","10.0","6.2","1031","30.45","2.6","36.7","-9999","-9999","-9999.00","-9999.00","Overcast","cloudy","0","0","0","0","0","0","METAR UKKK 231530Z 11005MPS 9999 OVC034 06/M01 Q1031 R08/CLRD70 NOSIG"
"7:00 PM EEST on October 23, 2016","2016","10","23","19","00","Europe/Kiev","4:00 PM GMT on October 23, 2016","2016","10","23","16","00","UTC","6.0","42.8","0.0","32.0","66","14.4","8.9","-9999.0","-9999.0","110","ESE","10.0","6.2","1031","30.45","3.1","37.6","-9999","-9999","-9999.00","-9999.00","Overcast","cloudy","0","0","0","0","0","0","METAR UKKK 231600Z 11004MPS 9999 OVC037 06/M00 Q1031 R08/CLRD70 NOSIG"
"7:30 PM EEST on October 23, 2016","2016","10","23","19","30","Europe/Kiev","4:30 PM GMT on October 23, 2016","2016","10","23","16","30","UTC","6.0","42.8","0.0","32.0","66","14.4","8.9","-9999.0","-9999.0","110","ESE","10.0","6.2","1032","30.48","3.1","37.6","-9999","-9999","-9999.00","-9999.00","Overcast","cloudy","0","0","0","0","0","0","METAR UKKK 231630Z 11004MPS 9999 OVC038 06/M00 Q1032 R08/CLRD70 NOSIG"
"8:00 PM EEST on October 23, 2016","2016","10","23","20","00","Europe/Kiev","5:00 PM GMT on October 23, 2016","2016","10","23","17","00","UTC","6.0","42.8","-1.0","30.2","61","14.4","8.9","-9999.0","-9999.0","100","East","10.0","6.2","1032","30.48","3.1","37.6","-9999","-9999","-9999.00","-9999.00","Overcast","cloudy","0","0","0","0","0","0","METAR UKKK 231700Z 10004MPS 9999 OVC039 06/M01 Q1032 R08/CLRD70 NOSIG"
"8:30 PM EEST on October 23, 2016","2016","10","23","20","30","Europe/Kiev","5:30 PM GMT on October 23, 2016","2016","10","23","17","30","UTC","6.0","42.8","-1.0","30.2","61","18.0","11.2","-9999.0","-9999.0","100","East","10.0","6.2","1032","30.48","2.6","36.7","-9999","-9999","-9999.00","-9999.00","Overcast","cloudy","0","0","0","0","0","0","METAR UKKK 231730Z 10005MPS 9999 OVC038 06/M01 Q1032 R08/CLRD70 NOSIG"
"9:00 PM EEST on October 23, 2016","2016","10","23","21","00","Europe/Kiev","6:00 PM GMT on October 23, 2016","2016","10","23","18","00","UTC","6","42","-1","31","54","7.2","4.5","","","160","SSE","20","12","1033","30.51","-999","-999","-9999","-9999","","","Overcast","cloudy","0","0","0","0","0","0","AAXX 23181 33345 32598 81602 10055 21006 30120 40329 52008 885// 333 10065 88632 555 10005"
"9:00 PM EEST on October 23, 2016","2016","10","23","21","00","Europe/Kiev","6:00 PM GMT on October 23, 2016","2016","10","23","18","00","UTC","6.0","42.8","-1.0","30.2","61","14.4","8.9","-9999.0","-9999.0","110","ESE","10.0","6.2","1032","30.48","3.1","37.6","-9999","-9999","-9999.00","-9999.00","Overcast","cloudy","0","0","0","0","0","0","METAR UKKK 231800Z 11004MPS 9999 OVC038 06/M01 Q1032 R08/CLRD70 NOSIG"
"9:30 PM EEST on October 23, 2016","2016","10","23","21","30","Europe/Kiev","6:30 PM GMT on October 23, 2016","2016","10","23","18","30","UTC","6.0","42.8","-1.0","30.2","61","18.0","11.2","-9999.0","-9999.0","110","ESE","10.0","6.2","1032","30.48","2.6","36.7","-9999","-9999","-9999.00","-9999.00","Overcast","cloudy","0","0","0","0","0","0","METAR UKKK 231830Z 11005MPS 9999 OVC040 06/M01 Q1032 R08/CLRD70 NOSIG"
"10:00 PM EEST on October 23, 2016","2016","10","23","22","00","Europe/Kiev","7:00 PM GMT on October 23, 2016","2016","10","23","19","00","UTC","6.0","42.8","-2.0","28.4","57","18.0","11.2","-9999.0","-9999.0","110","ESE","10.0","6.2","1032","30.48","2.6","36.7","-9999","-9999","-9999.00","-9999.00","Overcast","cloudy","0","0","0","0","0","0","METAR UKKK 231900Z 11005MPS 070V140 9999 OVC040 06/M02 Q1032 R08/CLRD70 NOSIG"
"10:30 PM EEST on October 23, 2016","2016","10","23","22","30","Europe/Kiev","7:30 PM GMT on October 23, 2016","2016","10","23","19","30","UTC","5.0","41.0","-2.0","28.4","61","18.0","11.2","-9999.0","-9999.0","110","ESE","10.0","6.2","1032","30.48","1.3","34.4","-9999","-9999","-9999.00","-9999.00","Overcast","cloudy","0","0","0","0","0","0","METAR UKKK 231930Z 11005MPS 9999 OVC040 05/M02 Q1032 R08/CLRD70 NOSIG"
"11:00 PM EEST on October 23, 2016","2016","10","23","23","00","Europe/Kiev","8:00 PM GMT on October 23, 2016","2016","10","23","20","00","UTC","5.0","41.0","-2.0","28.4","61","18.0","11.2","-9999.0","-9999.0","110","ESE","10.0","6.2","1032","30.48","1.3","34.4","-9999","-9999","-9999.00","-9999.00","Overcast","cloudy","0","0","0","0","0","0","METAR UKKK 232000Z 11005MPS 090V150 9999 OVC038 05/M02 Q1032 R08/CLRD70 NOSIG"
"11:30 PM EEST on October 23, 2016","2016","10","23","23","30","Europe/Kiev","8:30 PM GMT on October 23, 2016","2016","10","23","20","30","UTC","5.0","41.0","-2.0","28.4","61","18.0","11.2","-9999.0","-9999.0","100","East","10.0","6.2","1032","30.48","1.3","34.4","-9999","-9999","-9999.00","-9999.00","Overcast","cloudy","0","0","0","0","0","0","METAR UKKK 232030Z 10005MPS 9999 OVC038 05/M02 Q1032 R08/CLRD70 NOSIG"
"12:00 AM EEST on October 24, 2016","2016","10","24","00","00","Europe/Kiev","9:00 PM GMT on October 23, 2016","2016","10","23","21","00","UTC","5","41","-2","29","52","7.2","4.5","","","150","SSE","20","12","1034","30.53","-999","-999","-9999","-9999","","","Overcast","cloudy","0","0","0","0","0","0","AAXX 23211 33345 42698 81502 10048 21015 30126 40336 52006 885// 333 88636 555 10004"
"12:00 AM EEST on October 24, 2016","2016","10","24","00","00","Europe/Kiev","9:00 PM GMT on October 23, 2016","2016","10","23","21","00","UTC","5.0","41.0","-2.0","28.4","61","21.6","13.4","-9999.0","-9999.0","110","ESE","10.0","6.2","1032","30.48","0.9","33.6","-9999","-9999","-9999.00","-9999.00","Overcast","cloudy","0","0","0","0","0","0","METAR UKKK 232100Z 11006MPS 9999 OVC039 05/M02 Q1032 R08/CLRD70 NOSIG"
"12:30 AM EEST on October 24, 2016","2016","10","24","00","30","Europe/Kiev","9:30 PM GMT on October 23, 2016","2016","10","23","21","30","UTC","5.0","41.0","-2.0","28.4","61","18.0","11.2","-9999.0","-9999.0","110","ESE","10.0","6.2","1032","30.48","1.3","34.4","-9999","-9999","-9999.00","-9999.00","Overcast","cloudy","0","0","0","0","0","0","METAR UKKK 232130Z 11005MPS 080V140 9999 OVC039 05/M02 Q1032 R08/CLRD70 NOSIG"
"1:00 AM EEST on October 24, 2016","2016","10","24","01","00","Europe/Kiev","10:00 PM GMT on October 23, 2016","2016","10","23","22","00","UTC","5.0","41.0","-2.0","28.4","61","18.0","11.2","-9999.0","-9999.0","110","ESE","10.0","6.2","1033","30.51","1.3","34.4","-9999","-9999","-9999.00","-9999.00","Overcast","cloudy","0","0","0","0","0","0","METAR UKKK 232200Z 11005MPS 080V140 9999 OVC040 05/M02 Q1033 R08/CLRD70 NOSIG"
"1:30 AM EEST on October 24, 2016","2016","10","24","01","30","Europe/Kiev","10:30 PM GMT on October 23, 2016","2016","10","23","22","30","UTC","5.0","41.0","-2.0","28.4","61","18.0","11.2","-9999.0","-9999.0","110","ESE","10.0","6.2","1033","30.51","1.3","34.4","-9999","-9999","-9999.00","-9999.00","Overcast","cloudy","0","0","0","0","0","0","METAR UKKK 232230Z 11005MPS 9999 OVC040 05/M02 Q1033 R08/CLRD70 NOSIG"
"2:00 AM EEST on October 24, 2016","2016","10","24","02","00","Europe/Kiev","11:00 PM GMT on October 23, 2016","2016","10","23","23","00","UTC","5.0","41.0","-2.0","28.4","61","18.0","11.2","-9999.0","-9999.0","100","East","10.0","6.2","1033","30.51","1.3","34.4","-9999","-9999","-9999.00","-9999.00","Overcast","cloudy","0","0","0","0","0","0","METAR UKKK 232300Z 10005MPS 9999 OVC038 05/M02 Q1033 R08/CLRD70 NOSIG"
"2:30 AM EEST on October 24, 2016","2016","10","24","02","30","Europe/Kiev","11:30 PM GMT on October 23, 2016","2016","10","23","23","30","UTC","5.0","41.0","-2.0","28.4","61","14.4","8.9","-9999.0","-9999.0","100","East","10.0","6.2","1033","30.51","1.9","35.4","-9999","-9999","-9999.00","-9999.00","Overcast","cloudy","0","0","0","0","0","0","METAR UKKK 232330Z 10004MPS 9999 OVC038 05/M02 Q1033 R08/CLRD70 NOSIG"
"3:00 AM EEST on October 24, 2016","2016","10","24","03","00","Europe/Kiev","12:00 AM GMT on October 24, 2016","2016","10","24","00","00","UTC","4","40","-2","29","52","7.2","4.5","","","130","SE","20","12","1034","30.55","-999","-999","-9999","-9999","","","Overcast","cloudy","0","0","0","0","0","0","AAXX 24001 33345 32698 81302 10045 21019 30133 40343 52007 885// 333 88633 555 10004"
"3:00 AM EEST on October 24, 2016","2016","10","24","03","00","Europe/Kiev","12:00 AM GMT on October 24, 2016","2016","10","24","00","00","UTC","5.0","41.0","-2.0","28.4","61","18.0","11.2","-9999.0","-9999.0","110","ESE","10.0","6.2","1033","30.51","1.3","34.4","-9999","-9999","-9999.00","-9999.00","Overcast","cloudy","0","0","0","0","0","0","METAR UKKK 240000Z 11005MPS 9999 OVC039 05/M02 Q1033 R08/CLRD70 NOSIG"
"3:30 AM EEST on October 24, 2016","2016","10","24","03","30","Europe/Kiev","12:30 AM GMT on October 24, 2016","2016","10","24","00","30","UTC","5.0","41.0","-2.0","28.4","61","18.0","11.2","-9999.0","-9999.0","100","East","10.0","6.2","1033","30.51","1.3","34.4","-9999","-9999","-9999.00","-9999.00","Overcast","cloudy","0","0","0","0","0","0","METAR UKKK 240030Z 10005MPS 9999 OVC040 05/M02 Q1033 R08/CLRD70 NOSIG"
"4:00 AM EEST on October 24, 2016","2016","10","24","04","00","Europe/Kiev","1:00 AM GMT on October 24, 2016","2016","10","24","01","00","UTC","4.0","39.2","-2.0","28.4","65","14.4","8.9","-9999.0","-9999.0","100","East","10.0","6.2","1033","30.51","0.6","33.1","-9999","-9999","-9999.00","-9999.00","Overcast","cloudy","0","0","0","0","0","0","METAR UKKK 240100Z 10004MPS 9999 OVC040 04/M02 Q1033 R08/CLRD70 NOSIG"
"4:30 AM EEST on October 24, 2016","2016","10","24","04","30","Europe/Kiev","1:30 AM GMT on October 24, 2016","2016","10","24","01","30","UTC","4.0","39.2","-2.0","28.4","65","18.0","11.2","-9999.0","-9999.0","110","ESE","10.0","6.2","1033","30.51","0.1","32.2","-9999","-9999","-9999.00","-9999.00","Overcast","cloudy","0","0","0","0","0","0","METAR UKKK 240130Z 11005MPS 9999 OVC040 04/M02 Q1033 R08/CLRD70 NOSIG"
"5:00 AM EEST on October 24, 2016","2016","10","24","05","00","Europe/Kiev","2:00 AM GMT on October 24, 2016","2016","10","24","02","00","UTC","4.0","39.2","-2.0","28.4","65","14.4","8.9","-9999.0","-9999.0","110","ESE","10.0","6.2","1033","30.51","0.6","33.1","-9999","-9999","-9999.00","-9999.00","Overcast","cloudy","0","0","0","0","0","0","METAR UKKK 240200Z 11004MPS 9999 OVC040 04/M02 Q1033 R08/CLRD70 NOSIG"
"5:30 AM EEST on October 24, 2016","2016","10","24","05","30","Europe/Kiev","2:30 AM GMT on October 24, 2016","2016","10","24","02","30","UTC","4.0","39.2","-2.0","28.4","65","18.0","11.2","-9999.0","-9999.0","110","ESE","10.0","6.2","1034","30.54","0.1","32.2","-9999","-9999","-9999.00","-9999.00","Overcast","cloudy","0","0","0","0","0","0","METAR UKKK 240230Z 11005MPS 080V140 9999 OVC040 04/M02 Q1034 R08/CLRD70 NOSIG"
"6:00 AM EEST on October 24, 2016","2016","10","24","06","00","Europe/Kiev","3:00 AM GMT on October 24, 2016","2016","10","24","03","00","UTC","4","39","-2","28","53","10.8","6.7","","","150","SSE","20","12","1035","30.58","-999","-999","-9999","-9999","","","Overcast","cloudy","0","0","0","0","0","0","AAXX 24031 33345 42698 81503 10037 21023 30143 40354 52010 885// 333 88636 555 10003"
"6:00 AM EEST on October 24, 2016","2016","10","24","06","00","Europe/Kiev","3:00 AM GMT on October 24, 2016","2016","10","24","03","00","UTC","4.0","39.2","-3.0","26.6","61","18.0","11.2","-9999.0","-9999.0","110","ESE","10.0","6.2","1034","30.54","0.1","32.2","-9999","-9999","-9999.00","-9999.00","Overcast","cloudy","0","0","0","0","0","0","METAR UKKK 240300Z 11005MPS 9999 OVC040 04/M03 Q1034 R08/CLRD70 NOSIG"
"6:30 AM EEST on October 24, 2016","2016","10","24","06","30","Europe/Kiev","3:30 AM GMT on October 24, 2016","2016","10","24","03","30","UTC","4.0","39.2","-3.0","26.6","61","18.0","11.2","-9999.0","-9999.0","110","ESE","10.0","6.2","1034","30.54","0.1","32.2","-9999","-9999","-9999.00","-9999.00","Overcast","cloudy","0","0","0","0","0","0","METAR UKKK 240330Z 11005MPS 9999 OVC040 04/M03 Q1034 R08/CLRD70 NOSIG"
"7:00 AM EEST on October 24, 2016","2016","10","24","07","00","Europe/Kiev","4:00 AM GMT on October 24, 2016","2016","10","24","04","00","UTC","3.0","37.4","-3.0","26.6","65","18.0","11.2","-9999.0","-9999.0","110","ESE","10.0","6.2","1034","30.54","-1.2","29.9","-9999","-9999","-9999.00","-9999.00","Overcast","cloudy","0","0","0","0","0","0","METAR UKKK 240400Z 11005MPS 080V140 9999 OVC040 03/M03 Q1034 R08/CLRD70 NOSIG"
"7:30 AM EEST on October 24, 2016","2016","10","24","07","30","Europe/Kiev","4:30 AM GMT on October 24, 2016","2016","10","24","04","30","UTC","3.0","37.4","-3.0","26.6","65","18.0","11.2","-9999.0","-9999.0","100","East","10.0","6.2","1034","30.54","-1.2","29.9","-9999","-9999","-9999.00","-9999.00","Overcast","cloudy","0","0","0","0","0","0","METAR UKKK 240430Z 10005MPS 9999 OVC047 03/M03 Q1034 R08/CLRD70 NOSIG"
"8:00 AM EEST on October 24, 2016","2016","10","24","08","00","Europe/Kiev","5:00 AM GMT on October 24, 2016","2016","10","24","05","00","UTC","3.0","37.4","-3.0","26.6","65","18.0","11.2","-9999.0","-9999.0","100","East","10.0","6.2","1034","30.54","-1.2","29.9","-9999","-9999","-9999.00","-9999.00","Overcast","cloudy","0","0","0","0","0","0","METAR UKKK 240500Z 10005MPS 9999 OVC045 03/M03 Q1034 R08/CLRD70 NOSIG"
"8:30 AM EEST on October 24, 2016","2016","10","24","08","30","Europe/Kiev","5:30 AM GMT on October 24, 2016","2016","10","24","05","30","UTC","3.0","37.4","-3.0","26.6","65","21.6","13.4","-9999.0","-9999.0","110","ESE","10.0","6.2","1034","30.54","-1.6","29.1","-9999","-9999","-9999.00","-9999.00","Overcast","cloudy","0","0","0","0","0","0","METAR UKKK 240530Z 11006MPS 9999 OVC046 03/M03 Q1034 R08/CLRD70 NOSIG"
"9:00 AM EEST on October 24, 2016","2016","10","24","09","00","Europe/Kiev","6:00 AM GMT on October 24, 2016","2016","10","24","06","00","UTC","3","37","-4","26","52","7.2","4.5","","","160","SSE","20","12","1036","30.60","-999","-999","-9999","-9999","","","Mostly Cloudy","mostlycloudy","0","0","0","0","0","0","AAXX 24061 33345 32698 71602 10030 21036 30150 40362 52007 87500 333 20029 87640 555 10003 30002 52003"
"9:00 AM EEST on October 24, 2016","2016","10","24","09","00","Europe/Kiev","6:00 AM GMT on October 24, 2016","2016","10","24","06","00","UTC","3.0","37.4","-4.0","24.8","60","21.6","13.4","-9999.0","-9999.0","110","ESE","10.0","6.2","1035","30.57","-1.6","29.1","-9999","-9999","-9999.00","-9999.00","Overcast","cloudy","0","0","0","0","0","0","METAR UKKK 240600Z 11006MPS 9999 OVC048 03/M04 Q1035 R08/CLRD70 NOSIG"
"9:30 AM EEST on October 24, 2016","2016","10","24","09","30","Europe/Kiev","6:30 AM GMT on October 24, 2016","2016","10","24","06","30","UTC","3.0","37.4","-4.0","24.8","60","18.0","11.2","-9999.0","-9999.0","110","ESE","10.0","6.2","1035","30.57","-1.2","29.9","-9999","-9999","-9999.00","-9999.00","Overcast","cloudy","0","0","0","0","0","0","METAR UKKK 240630Z 11005MPS 080V140 9999 OVC048 03/M04 Q1035 R08/CLRD70 NOSIG"
"10:00 AM EEST on October 24, 2016","2016","10","24","10","00","Europe/Kiev","7:00 AM GMT on October 24, 2016","2016","10","24","07","00","UTC","3.0","37.4","-4.0","24.8","60","21.6","13.4","-9999.0","-9999.0","110","ESE","10.0","6.2","1035","30.57","-1.6","29.1","-9999","-9999","-9999.00","-9999.00","Overcast","cloudy","0","0","0","0","0","0","METAR UKKK 240700Z 11006MPS 9999 OVC049 03/M04 Q1035 R08/CLRD70 NOSIG"
"10:30 AM EEST on October 24, 2016","2016","10","24","10","30","Europe/Kiev","7:30 AM GMT on October 24, 2016","2016","10","24","07","30","UTC","4.0","39.2","-4.0","24.8","56","21.6","13.4","-9999.0","-9999.0","100","East","-9999.0","-9999.0","1035","30.57","-0.4","31.3","-9999","-9999","-9999.00","-9999.00","Clear","clear","0","0","0","0","0","0","METAR UKKK 240730Z 10006MPS CAVOK 04/M04 Q1035 R08/CLRD70 NOSIG"
"11:00 AM EEST on October 24, 2016","2016","10","24","11","00","Europe/Kiev","8:00 AM GMT on October 24, 2016","2016","10","24","08","00","UTC","5.0","41.0","-4.0","24.8","53","21.6","13.4","-9999.0","-9999.0","100","East","-9999.0","-9999.0","1035","30.57","0.9","33.6","-9999","-9999","-9999.00","-9999.00","Clear","clear","0","0","0","0","0","0","METAR UKKK 240800Z 10006MPS 080V140 CAVOK 05/M04 Q1035 R08/CLRD70 NOSIG"
"11:30 AM EEST on October 24, 2016","2016","10","24","11","30","Europe/Kiev","8:30 AM GMT on October 24, 2016","2016","10","24","08","30","UTC","5.0","41.0","-4.0","24.8","53","18.0","11.2","-9999.0","-9999.0","110","ESE","10.0","6.2","1035","30.57","1.3","34.4","-9999","-9999","-9999.00","-9999.00","Mostly Cloudy","mostlycloudy","0","0","0","0","0","0","METAR UKKK 240830Z 11005MPS 9999 BKN049 05/M04 Q1035 R08/CLRD70 NOSIG"
"12:00 PM EEST on October 24, 2016","2016","10","24","12","00","Europe/Kiev","9:00 AM GMT on October 24, 2016","2016","10","24","09","00","UTC","5","41","-3","26","42","10.8","6.7","","","130","SE","20","12","1036","30.60","-999","-999","-9999","-9999","","","Mostly Cloudy","mostlycloudy","0","0","0","0","0","0","AAXX 24091 33345 42698 71303 10050 21034 30152 40362 51002 87500 333 87646 555 10011"
"12:00 PM EEST on October 24, 2016","2016","10","24","12","00","Europe/Kiev","9:00 AM GMT on October 24, 2016","2016","10","24","09","00","UTC","5.0","41.0","-4.0","24.8","53","25.2","15.7","-9999.0","-9999.0","90","East","-9999.0","-9999.0","1035","30.57","0.5","32.9","-9999","-9999","-9999.00","-9999.00","Clear","clear","0","0","0","0","0","0","METAR UKKK 240900Z 09007MPS CAVOK 05/M04 Q1035 R08/CLRD70 NOSIG"
"12:30 PM EEST on October 24, 2016","2016","10","24","12","30","Europe/Kiev","9:30 AM GMT on October 24, 2016","2016","10","24","09","30","UTC","5.0","41.0","-4.0","24.8","53","21.6","13.4","-9999.0","-9999.0","110","ESE","-9999.0","-9999.0","1035","30.57","0.9","33.6","-9999","-9999","-9999.00","-9999.00","Clear","clear","0","0","0","0","0","0","METAR UKKK 240930Z 11006MPS CAVOK 05/M04 Q1035 R08/CLRD70 NOSIG"
"1:00 PM EEST on October 24, 2016","2016","10","24","13","00","Europe/Kiev","10:00 AM GMT on October 24, 2016","2016","10","24","10","00","UTC","6.0","42.8","-3.0","26.6","53","21.6","13.4","-9999.0","-9999.0","100","East","-9999.0","-9999.0","1035","30.57","2.2","35.9","-9999","-9999","-9999.00","-9999.00","Clear","clear","0","0","0","0","0","0","METAR UKKK 241000Z 10006MPS CAVOK 06/M03 Q1035 R08/CLRD70 NOSIG"
"1:30 PM EEST on October 24, 2016","2016","10","24","13","30","Europe/Kiev","10:30 AM GMT on October 24, 2016","2016","10","24","10","30","UTC","6.0","42.8","-3.0","26.6","53","18.0","11.2","-9999.0","-9999.0","100","East","-9999.0","-9999.0","1035","30.57","2.6","36.7","-9999","-9999","-9999.00","-9999.00","Clear","clear","0","0","0","0","0","0","METAR UKKK 241030Z 10005MPS CAVOK 06/M03 Q1035 R08/CLRD70 NOSIG"
"2:00 PM EEST on October 24, 2016","2016","10","24","14","00","Europe/Kiev","11:00 AM GMT on October 24, 2016","2016","10","24","11","00","UTC","6.0","42.8","-3.0","26.6","53","21.6","13.4","-9999.0","-9999.0","110","ESE","-9999.0","-9999.0","1035","30.57","2.2","35.9","-9999","-9999","-9999.00","-9999.00","Clear","clear","0","0","0","0","0","0","METAR UKKK 241100Z 11006MPS CAVOK 06/M03 Q1035 R08/CLRD70 NOSIG"
"2:30 PM EEST on October 24, 2016","2016","10","24","14","30","Europe/Kiev","11:30 AM GMT on October 24, 2016","2016","10","24","11","30","UTC","6.0","42.8","-3.0","26.6","53","21.6","13.4","-9999.0","-9999.0","110","ESE","-9999.0","-9999.0","1034","30.54","2.2","35.9","-9999","-9999","-9999.00","-9999.00","Clear","clear","0","0","0","0","0","0","METAR UKKK 241130Z 11006MPS CAVOK 06/M03 Q1034 R08/CLRD70 NOSIG"
"3:00 PM EEST on October 24, 2016","2016","10","24","15","00","Europe/Kiev","12:00 PM GMT on October 24, 2016","2016","10","24","12","00","UTC","7","45","-4","25","32","10.8","6.7","","","160","SSE","20","12","1036","30.59","-999","-999","-9999","-9999","","","Mostly Cloudy","mostlycloudy","0","0","0","0","0","0","AAXX 24121 33345 32998 71603 10071 21040 30148 40357 58004 87070 555 10013"
"3:00 PM EEST on October 24, 2016","2016","10","24","15","00","Europe/Kiev","12:00 PM GMT on October 24, 2016","2016","10","24","12","00","UTC","6.0","42.8","-3.0","26.6","53","21.6","13.4","-9999.0","-9999.0","110","ESE","-9999.0","-9999.0","1034","30.54","2.2","35.9","-9999","-9999","-9999.00","-9999.00","Clear","clear","0","0","0","0","0","0","METAR UKKK 241200Z 11006MPS CAVOK 06/M03 Q1034 R08/CLRD70 NOSIG"
"3:30 PM EEST on October 24, 2016","2016","10","24","15","30","Europe/Kiev","12:30 PM GMT on October 24, 2016","2016","10","24","12","30","UTC","6.0","42.8","-3.0","26.6","53","14.4","8.9","-9999.0","-9999.0","110","ESE","-9999.0","-9999.0","1034","30.54","3.1","37.6","-9999","-9999","-9999.00","-9999.00","Clear","clear","0","0","0","0","0","0","METAR UKKK 241230Z 11004MPS 090V150 CAVOK 06/M03 Q1034 R08/CLRD70 NOSIG"
"4:00 PM EEST on October 24, 2016","2016","10","24","16","00","Europe/Kiev","1:00 PM GMT on October 24, 2016","2016","10","24","13","00","UTC","6.0","42.8","-2.0","28.4","57","18.0","11.2","-9999.0","-9999.0","120","ESE","-9999.0","-9999.0","1034","30.54","2.6","36.7","-9999","-9999","-9999.00","-9999.00","Clear","clear","0","0","0","0","0","0","METAR UKKK 241300Z 12005MPS 090V150 CAVOK 06/M02 Q1034 R08/CLRD70 NOSIG"
"4:30 PM EEST on October 24, 2016","2016","10","24","16","30","Europe/Kiev","1:30 PM GMT on October 24, 2016","2016","10","24","13","30","UTC","6.0","42.8","-2.0","28.4","57","21.6","13.4","-9999.0","-9999.0","120","ESE","10.0","6.2","1035","30.57","2.2","35.9","-9999","-9999","-9999.00","-9999.00","Mostly Cloudy","mostlycloudy","0","0","0","0","0","0","METAR UKKK 241330Z 12006MPS 9999 BKN028 BKN150 06/M02 Q1035 R08/CLRD70 NOSIG"
"5:00 PM EEST on October 24, 2016","2016","10","24","17","00","Europe/Kiev","2:00 PM GMT on October 24, 2016","2016","10","24","14","00","UTC","6.0","42.8","-2.0","28.4","57","18.0","11.2","-9999.0","-9999.0","110","ESE","10.0","6.2","1034","30.54","2.6","36.7","-9999","-9999","-9999.00","-9999.00","Mostly Cloudy","mostlycloudy","0","0","0","0","0","0","METAR UKKK 241400Z 11005MPS 080V140 9999 BKN026 BKN130 06/M02 Q1034 R08/CLRD70 NOSIG"
"5:30 PM EEST on October 24, 2016","2016","10","24","17","30","Europe/Kiev","2:30 PM GMT on October 24, 2016","2016","10","24","14","30","UTC","5.0","41.0","-1.0","30.2","65","18.0","11.2","-9999.0","-9999.0","120","ESE","10.0","6.2","1034","30.54","1.3","34.4","-9999","-9999","-9999.00","-9999.00","Mostly Cloudy","mostlycloudy","0","0","0","0","0","0","METAR UKKK 241430Z 12005MPS 9999 BKN046 BKN130 05/M01 Q1034 R08/CLRD70 NOSIG"
"6:00 PM EEST on October 24, 2016","2016","10","24","18","00","Europe/Kiev","3:00 PM GMT on October 24, 2016","2016","10","24","15","00","UTC","5","42","-1","30","51","10.8","6.7","","","180","South","20","12","1036","30.58","-999","-999","-9999","-9999","","","Overcast","cloudy","0","0","0","0","0","0","AAXX 24151 33345 42598 81803 10053 21012 30145 40355 57003 885// 333 88625 555 10005"
"6:00 PM EEST on October 24, 2016","2016","10","24","18","00","Europe/Kiev","3:00 PM GMT on October 24, 2016","2016","10","24","15","00","UTC","5.0","41.0","-1.0","30.2","65","21.6","13.4","-9999.0","-9999.0","120","ESE","10.0","6.2","1034","30.54","0.9","33.6","-9999","-9999","-9999.00","-9999.00","Mostly Cloudy","mostlycloudy","0","0","0","0","0","0","METAR UKKK 241500Z 12006MPS 090V150 9999 BKN024 BKN120 05/M01 Q1034 R08/CLRD70 NOSIG"
"6:30 PM EEST on October 24, 2016","2016","10","24","18","30","Europe/Kiev","3:30 PM GMT on October 24, 2016","2016","10","24","15","30","UTC","5.0","41.0","-1.0","30.2","65","21.6","13.4","-9999.0","-9999.0","120","ESE","10.0","6.2","1034","30.54","0.9","33.6","-9999","-9999","-9999.00","-9999.00","Mostly Cloudy","mostlycloudy","0","0","0","0","0","0","METAR UKKK 241530Z 12006MPS 080V140 9999 BKN021 BKN120 05/M01 Q1034 R08/CLRD70 NOSIG"
"7:00 PM EEST on October 24, 2016","2016","10","24","19","00","Europe/Kiev","4:00 PM GMT on October 24, 2016","2016","10","24","16","00","UTC","4.0","39.2","-1.0","30.2","70","18.0","11.2","-9999.0","-9999.0","120","ESE","10.0","6.2","1035","30.57","0.1","32.2","-9999","-9999","-9999.00","-9999.00","Overcast","cloudy","0","0","0","0","0","0","METAR UKKK 241600Z 12005MPS 090V150 9999 OVC021 04/M01 Q1035 R08/CLRD70 NOSIG"
"7:30 PM EEST on October 24, 2016","2016","10","24","19","30","Europe/Kiev","4:30 PM GMT on October 24, 2016","2016","10","24","16","30","UTC","4.0","39.2","-1.0","30.2","70","21.6","13.4","-9999.0","-9999.0","120","ESE","10.0","6.2","1035","30.57","-0.4","31.3","-9999","-9999","-9999.00","-9999.00","Overcast","cloudy","0","0","0","0","0","0","METAR UKKK 241630Z 12006MPS 090V170 9999 OVC021 04/M01 Q1035 R08/CLRD70 NOSIG"
"8:00 PM EEST on October 24, 2016","2016","10","24","20","00","Europe/Kiev","5:00 PM GMT on October 24, 2016","2016","10","24","17","00","UTC","4.0","39.2","-1.0","30.2","70","18.0","11.2","-9999.0","-9999.0","130","SE","10.0","6.2","1035","30.57","0.1","32.2","-9999","-9999","-9999.00","-9999.00","Overcast","cloudy","0","0","0","0","0","0","METAR UKKK 241700Z 13005MPS 110V180 9999 OVC027 04/M01 Q1035 R08/CLRD70 NOSIG"
"8:30 PM EEST on October 24, 2016","2016","10","24","20","30","Europe/Kiev","5:30 PM GMT on October 24, 2016","2016","10","24","17","30","UTC","4.0","39.2","-1.0","30.2","70","14.4","8.9","-9999.0","-9999.0","130","SE","10.0","6.2","1036","30.60","0.6","33.1","-9999","-9999","-9999.00","-9999.00","Overcast","cloudy","0","0","0","0","0","0","METAR UKKK 241730Z 13004MPS 100V160 9999 OVC028 04/M01 Q1036 R08/CLRD70 NOSIG"
"9:00 PM EEST on October 24, 2016","2016","10","24","21","00","Europe/Kiev","6:00 PM GMT on October 24, 2016","2016","10","24","18","00","UTC","4","40","-1","30","58","7.2","4.5","","","170","South","20","12","1037","30.62","-999","-999","-9999","-9999","","","Overcast","cloudy","0","0","0","0","0","0","AAXX 24181 33345 32598 81702 10042 21010 30158 40369 53013 885// 333 10075 88630 555 10004"
"9:00 PM EEST on October 24, 2016","2016","10","24","21","00","Europe/Kiev","6:00 PM GMT on October 24, 2016","2016","10","24","18","00","UTC","4.0","39.2","-1.0","30.2","70","14.4","8.9","-9999.0","-9999.0","130","SE","10.0","6.2","1035","30.57","0.6","33.1","-9999","-9999","-9999.00","-9999.00","Overcast","cloudy","0","0","0","0","0","0","METAR UKKK 241800Z 13004MPS 100V170 9999 OVC030 04/M01 Q1035 R08/CLRD70 NOSIG"
"9:30 PM EEST on October 24, 2016","2016","10","24","21","30","Europe/Kiev","6:30 PM GMT on October 24, 2016","2016","10","24","18","30","UTC","5.0","41.0","-1.0","30.2","65","18.0","11.2","-9999.0","-9999.0","130","SE","10.0","6.2","1035","30.57","1.3","34.4","-9999","-9999","-9999.00","-9999.00","Overcast","cloudy","0","0","0","0","0","0","METAR UKKK 241830Z 13005MPS 110V170 9999 OVC040 05/M01 Q1035 R08/CLRD70 NOSIG"
"10:00 PM EEST on October 24, 2016","2016","10","24","22","00","Europe/Kiev","7:00 PM GMT on October 24, 2016","2016","10","24","19","00","UTC","5.0","41.0","-1.0","30.2","65","18.0","11.2","-9999.0","-9999.0","130","SE","10.0","6.2","1035","30.57","1.3","34.4","-9999","-9999","-9999.00","-9999.00","Overcast","cloudy","0","0","0","0","0","0","METAR UKKK 241900Z 13005MPS 090V170 9999 OVC041 05/M01 Q1035 R08/CLRD70 NOSIG"
"10:30 PM EEST on October 24, 2016","2016","10","24","22","30","Europe/Kiev","7:30 PM GMT on October 24, 2016","2016","10","24","19","30","UTC","5.0","41.0","-1.0","30.2","65","18.0","11.2","-9999.0","-9999.0","130","SE","10.0","6.2","1035","30.57","1.3","34.4","-9999","-9999","-9999.00","-9999.00","Overcast","cloudy","0","0","0","0","0","0","METAR UKKK 241930Z 13005MPS 100V160 9999 OVC041 05/M01 Q1035 R08/CLRD70 NOSIG"
"11:00 PM EEST on October 24, 2016","2016","10","24","23","00","Europe/Kiev","8:00 PM GMT on October 24, 2016","2016","10","24","20","00","UTC","4.0","39.2","-1.0","30.2","70","14.4","8.9","-9999.0","-9999.0","110","ESE","10.0","6.2","1035","30.57","0.6","33.1","-9999","-9999","-9999.00","-9999.00","Overcast","cloudy","0","0","0","0","0","0","METAR UKKK 242000Z 11004MPS 9999 OVC042 04/M01 Q1035 R08/CLRD70 NOSIG"
"11:30 PM EEST on October 24, 2016","2016","10","24","23","30","Europe/Kiev","8:30 PM GMT on October 24, 2016","2016","10","24","20","30","UTC","4.0","39.2","-1.0","30.2","70","14.4","8.9","-9999.0","-9999.0","120","ESE","10.0","6.2","1035","30.57","0.6","33.1","-9999","-9999","-9999.00","-9999.00","Overcast","cloudy","0","0","0","0","0","0","METAR UKKK 242030Z 12004MPS 090V150 9999 OVC042 04/M01 Q1035 R08/CLRD70 NOSIG"
"12:00 AM EEST on October 25, 2016","2016","10","25","00","00","Europe/Kiev","9:00 PM GMT on October 24, 2016","2016","10","24","21","00","UTC","4","39","-1","30","61","7.2","4.5","","","170","South","20","12","1037","30.61","-999","-999","-9999","-9999","","","Overcast","cloudy","0","0","0","0","0","0","AAXX 24211 33345 42998 81702 10040 21009 30155 40366 58003 8805/ 555 10003"
"12:00 AM EEST on October 25, 2016","2016","10","25","00","00","Europe/Kiev","9:00 PM GMT on October 24, 2016","2016","10","24","21","00","UTC","4.0","39.2","-1.0","30.2","70","14.4","8.9","-9999.0","-9999.0","120","ESE","10.0","6.2","1035","30.57","0.6","33.1","-9999","-9999","-9999.00","-9999.00","Overcast","cloudy","0","0","0","0","0","0","METAR UKKK 242100Z 12004MPS 9999 OVC042 04/M01 Q1035 R08/CLRD70 NOSIG"
"12:30 AM EEST on October 25, 2016","2016","10","25","00","30","Europe/Kiev","9:30 PM GMT on October 24, 2016","2016","10","24","21","30","UTC","4.0","39.2","-1.0","30.2","70","18.0","11.2","-9999.0","-9999.0","120","ESE","-9999.0","-9999.0","1035","30.57","0.1","32.2","-9999","-9999","-9999.00","-9999.00","Clear","clear","0","0","0","0","0","0","METAR UKKK 242130Z 12005MPS CAVOK 04/M01 Q1035 R08/CLRD70 NOSIG"
"1:00 AM EEST on October 25, 2016","2016","10","25","01","00","Europe/Kiev","10:00 PM GMT on October 24, 2016","2016","10","24","22","00","UTC","4.0","39.2","-1.0","30.2","70","18.0","11.2","-9999.0","-9999.0","120","ESE","-9999.0","-9999.0","1035","30.57","0.1","32.2","-9999","-9999","-9999.00","-9999.00","Clear","clear","0","0","0","0","0","0","METAR UKKK 242200Z 12005MPS 090V150 CAVOK 04/M01 Q1035 R08/CLRD70 NOSIG"
"1:30 AM EEST on October 25, 2016","2016","10","25","01","30","Europe/Kiev","10:30 PM GMT on October 24, 2016","2016","10","24","22","30","UTC","4.0","39.2","-1.0","30.2","70","18.0","11.2","-9999.0","-9999.0","120","ESE","-9999.0","-9999.0","1035","30.57","0.1","32.2","-9999","-9999","-9999.00","-9999.00","Clear","clear","0","0","0","0","0","0","METAR UKKK 242230Z 12005MPS CAVOK 04/M01 Q1035 R08/CLRD70 NOSIG"
"2:00 AM EEST on October 25, 2016","2016","10","25","02","00","Europe/Kiev","11:00 PM GMT on October 24, 2016","2016","10","24","23","00","UTC","4.0","39.2","0.0","32.0","75","14.4","8.9","-9999.0","-9999.0","120","ESE","-9999.0","-9999.0","1035","30.57","0.6","33.1","-9999","-9999","-9999.00","-9999.00","Clear","clear","0","0","0","0","0","0","METAR UKKK 242300Z 12004MPS 090V150 CAVOK 04/M00 Q1035 R08/CLRD70 NOSIG"
"2:30 AM EEST on October 25, 2016","2016","10","25","02","30","Europe/Kiev","11:30 PM GMT on October 24, 2016","2016","10","24","23","30","UTC","4.0","39.2","0.0","32.0","75","14.4","8.9","-9999.0","-9999.0","110","ESE","-9999.0","-9999.0","1035","30.57","0.6","33.1","-9999","-9999","-9999.00","-9999.00","Clear","clear","0","0","0","0","0","0","METAR UKKK 242330Z 11004MPS CAVOK 04/M00 Q1035 R08/CLRD70 NOSIG"
"3:00 AM EEST on October 25, 2016","2016","10","25","03","00","Europe/Kiev","12:00 AM GMT on October 25, 2016","2016","10","25","00","00","UTC","4","38","-1","31","66","7.2","4.5","","","180","South","20","12","1037","30.61","-999","-999","-9999","-9999","","","Overcast","cloudy","0","0","0","0","0","0","AAXX 25001 33345 32798 81802 10036 21008 30155 40366 54000 885// 333 88650 555 10002"
"3:00 AM EEST on October 25, 2016","2016","10","25","03","00","Europe/Kiev","12:00 AM GMT on October 25, 2016","2016","10","25","00","00","UTC","5.0","41.0","0.0","32.0","70","14.4","8.9","-9999.0","-9999.0","120","ESE","-9999.0","-9999.0","1035","30.57","1.9","35.4","-9999","-9999","-9999.00","-9999.00","Clear","clear","0","0","0","0","0","0","METAR UKKK 250000Z 12004MPS 090V160 CAVOK 05/M00 Q1035 R08/CLRD70 NOSIG"
"3:30 AM EEST on October 25, 2016","2016","10","25","03","30","Europe/Kiev","12:30 AM GMT on October 25, 2016","2016","10","25","00","30","UTC","5.0","41.0","0.0","32.0","70","14.4","8.9","-9999.0","-9999.0","120","ESE","-9999.0","-9999.0","1035","30.57","1.9","35.4","-9999","-9999","-9999.00","-9999.00","Clear","clear","0","0","0","0","0","0","METAR UKKK 250030Z 12004MPS 090V160 CAVOK 05/M00 Q1035 R08/CLRD70 NOSIG"
"4:00 AM EEST on October 25, 2016","2016","10","25","04","00","Europe/Kiev","1:00 AM GMT on October 25, 2016","2016","10","25","01","00","UTC","5.0","41.0","-1.0","30.2","65","18.0","11.2","-9999.0","-9999.0","130","SE","-9999.0","-9999.0","1035","30.57","1.3","34.4","-9999","-9999","-9999.00","-9999.00","Clear","clear","0","0","0","0","0","0","METAR UKKK 250100Z 13005MPS 090V170 CAVOK 05/M01 Q1035 R08/CLRD70 NOSIG"
"4:30 AM EEST on October 25, 2016","2016","10","25","04","30","Europe/Kiev","1:30 AM GMT on October 25, 2016","2016","10","25","01","30","UTC","6.0","42.8","-2.0","28.4","57","21.6","13.4","-9999.0","-9999.0","130","SE","-9999.0","-9999.0","1035","30.57","2.2","35.9","-9999","-9999","-9999.00","-9999.00","Clear","clear","0","0","0","0","0","0","METAR UKKK 250130Z 13006MPS 110V170 CAVOK 06/M02 Q1035 R08/CLRD70 NOSIG"
"5:00 AM EEST on October 25, 2016","2016","10","25","05","00","Europe/Kiev","2:00 AM GMT on October 25, 2016","2016","10","25","02","00","UTC","5.0","41.0","-2.0","28.4","61","21.6","13.4","-9999.0","-9999.0","140","SE","-9999.0","-9999.0","1035","30.57","0.9","33.6","-9999","-9999","-9999.00","-9999.00","Clear","clear","0","0","0","0","0","0","METAR UKKK 250200Z 14006MPS 110V180 CAVOK 05/M02 Q1035 R08/CLRD70 NOSIG"
"5:30 AM EEST on October 25, 2016","2016","10","25","05","30","Europe/Kiev","2:30 AM GMT on October 25, 2016","2016","10","25","02","30","UTC","5.0","41.0","-2.0","28.4","61","18.0","11.2","-9999.0","-9999.0","130","SE","-9999.0","-9999.0","1035","30.57","1.3","34.4","-9999","-9999","-9999.00","-9999.00","Clear","clear","0","0","0","0","0","0","METAR UKKK 250230Z 13005MPS 090V170 CAVOK 05/M02 Q1035 R08/CLRD70 NOSIG"
"6:00 AM EEST on October 25, 2016","2016","10","25","06","00","Europe/Kiev","3:00 AM GMT on October 25, 2016","2016","10","25","03","00","UTC","5","40","-2","28","49","14.4","8.9","","","190","South","20","12","1036","30.60","-999","-999","-9999","-9999","","","Mostly Cloudy","mostlycloudy","0","0","0","0","0","0","AAXX 25031 33345 42998 71904 10046 21025 30150 40360 58005 87070 555 10003"
"6:00 AM EEST on October 25, 2016","2016","10","25","06","00","Europe/Kiev","3:00 AM GMT on October 25, 2016","2016","10","25","03","00","UTC","5.0","41.0","-3.0","26.6","57","18.0","11.2","36.0","22.4","130","SE","-9999.0","-9999.0","1035","30.57","1.3","34.4","-9999","-9999","-9999.00","-9999.00","Clear","clear","0","0","0","0","0","0","METAR UKKK 250300Z 13005G10MPS 110V190 CAVOK 05/M03 Q1035 R08/CLRD70 NOSIG"
"6:30 AM EEST on October 25, 2016","2016","10","25","06","30","Europe/Kiev","3:30 AM GMT on October 25, 2016","2016","10","25","03","30","UTC","4.0","39.2","-3.0","26.6","61","21.6","13.4","-9999.0","-9999.0","140","SE","-9999.0","-9999.0","1035","30.57","-0.4","31.3","-9999","-9999","-9999.00","-9999.00","Clear","clear","0","0","0","0","0","0","METAR UKKK 250330Z 14006MPS 100V180 CAVOK 04/M03 Q1035 R08/CLRD70 TEMPO 14009G14MPS"
"7:00 AM EEST on October 25, 2016","2016","10","25","07","00","Europe/Kiev","4:00 AM GMT on October 25, 2016","2016","10","25","04","00","UTC","4.0","39.2","-3.0","26.6","61","18.0","11.2","-9999.0","-9999.0","140","SE","-9999.0","-9999.0","1035","30.57","0.1","32.2","-9999","-9999","-9999.00","-9999.00","Clear","clear","0","0","0","0","0","0","METAR UKKK 250400Z 14005MPS CAVOK 04/M03 Q1035 R08/CLRD70 TEMPO 14009G14MPS"
"7:30 AM EEST on October 25, 2016","2016","10","25","07","30","Europe/Kiev","4:30 AM GMT on October 25, 2016","2016","10","25","04","30","UTC","4.0","39.2","-4.0","24.8","56","18.0","11.2","-9999.0","-9999.0","140","SE","-9999.0","-9999.0","1035","30.57","0.1","32.2","-9999","-9999","-9999.00","-9999.00","Clear","clear","0","0","0","0","0","0","METAR UKKK 250430Z 14005MPS 100V190 CAVOK 04/M04 Q1035 R08/CLRD70 TEMPO 14009G14MPS"
"8:00 AM EEST on October 25, 2016","2016","10","25","08","00","Europe/Kiev","5:00 AM GMT on October 25, 2016","2016","10","25","05","00","UTC","4.0","39.2","-4.0","24.8","56","18.0","11.2","-9999.0","-9999.0","140","SE","-9999.0","-9999.0","1036","30.60","0.1","32.2","-9999","-9999","-9999.00","-9999.00","Clear","clear","0","0","0","0","0","0","METAR UKKK 250500Z 14005MPS 100V210 CAVOK 04/M04 Q1036 R08/CLRD70 TEMPO 14009G14MPS"
"8:30 AM EEST on October 25, 2016","2016","10","25","08","30","Europe/Kiev","5:30 AM GMT on October 25, 2016","2016","10","25","05","30","UTC","3.0","37.4","-4.0","24.8","60","21.6","13.4","-9999.0","-9999.0","140","SE","-9999.0","-9999.0","1035","30.57","-1.6","29.1","-9999","-9999","-9999.00","-9999.00","Clear","clear","0","0","0","0","0","0","METAR UKKK 250530Z 14006MPS 110V170 CAVOK 03/M04 Q1035 R08/CLRD70 TEMPO 14009G14MPS"
"9:00 AM EEST on October 25, 2016","2016","10","25","09","00","Europe/Kiev","6:00 AM GMT on October 25, 2016","2016","10","25","06","00","UTC","4","38","-4","26","49","18.0","11.2","","","190","South","20","12","1037","30.63","-999","-999","-9999","-9999","","","Mostly Cloudy","mostlycloudy","0","0","0","0","0","0","AAXX 25061 33345 32998 61905 10035 21036 30161 40373 53011 86030 333 20031 555 10003 30002 52002"
"9:00 AM EEST on October 25, 2016","2016","10","25","09","00","Europe/Kiev","6:00 AM GMT on October 25, 2016","2016","10","25","06","00","UTC","3.0","37.4","-4.0","24.8","60","21.6","13.4","-9999.0","-9999.0","140","SE","-9999.0","-9999.0","1036","30.60","-1.6","29.1","-9999","-9999","-9999.00","-9999.00","Clear","clear","0","0","0","0","0","0","METAR UKKK 250600Z 14006MPS 100V170 CAVOK 03/M04 Q1036 R08/CLRD70 TEMPO 17013G18MPS"
"9:30 AM EEST on October 25, 2016","2016","10","25","09","30","Europe/Kiev","6:30 AM GMT on October 25, 2016","2016","10","25","06","30","UTC","4.0","39.2","-4.0","24.8","56","18.0","11.2","-9999.0","-9999.0","140","SE","-9999.0","-9999.0","1036","30.60","0.1","32.2","-9999","-9999","-9999.00","-9999.00","Clear","clear","0","0","0","0","0","0","METAR UKKK 250630Z 14005MPS 110V180 CAVOK 04/M04 Q1036 R08/CLRD70 TEMPO 17013G18MPS"
"10:00 AM EEST on October 25, 2016","2016","10","25","10","00","Europe/Kiev","7:00 AM GMT on October 25, 2016","2016","10","25","07","00","UTC","4.0","39.2","-4.0","24.8","56","21.6","13.4","-9999.0","-9999.0","140","SE","-9999.0","-9999.0","1036","30.60","-0.4","31.3","-9999","-9999","-9999.00","-9999.00","Clear","clear","0","0","0","0","0","0","METAR UKKK 250700Z 14006MPS 100V190 CAVOK 04/M04 Q1036 R08/CLRD70 TEMPO 16011G17MPS"
"10:12 AM EEST on October 25, 2016","2016","10","25","10","12","Europe/Kiev","7:12 AM GMT on October 25, 2016","2016","10","25","07","12","UTC","4.0","39.2","-5.0","23.0","52","25.2","15.7","46.8","29.1","140","SE","-9999.0","-9999.0","1036","30.60","-0.8","30.6","-9999","-9999","-9999.00","-9999.00","Clear","clear","0","0","0","0","0","0","SPECI UKKK 250712Z 14007G13MPS 100V190 CAVOK 04/M05 Q1036 R08/CLRD70 TEMPO 16011G17MPS"
"10:30 AM EEST on October 25, 2016","2016","10","25","10","30","Europe/Kiev","7:30 AM GMT on October 25, 2016","2016","10","25","07","30","UTC","5.0","41.0","-4.0","24.8","53","18.0","11.2","-9999.0","-9999.0","140","SE","-9999.0","-9999.0","1035","30.57","1.3","34.4","-9999","-9999","-9999.00","-9999.00","Clear","clear","0","0","0","0","0","0","METAR UKKK 250730Z 14005MPS 110V180 CAVOK 05/M04 Q1035 R08/CLRD70 TEMPO 16011G17MPS"
"10:44 AM EEST on October 25, 2016","2016","10","25","10","44","Europe/Kiev","7:44 AM GMT on October 25, 2016","2016","10","25","07","44","UTC","5.0","41.0","-4.0","24.8","53","25.2","15.7","43.2","26.8","140","SE","-9999.0","-9999.0","1035","30.57","0.5","32.9","-9999","-9999","-9999.00","-9999.00","Clear","clear","0","0","0","0","0","0","SPECI UKKK 250744Z 14007G12MPS 120V180 CAVOK 05/M04 Q1035 R08/CLRD70 TEMPO 16011G17MPS"
"11:00 AM EEST on October 25, 2016","2016","10","25","11","00","Europe/Kiev","8:00 AM GMT on October 25, 2016","2016","10","25","08","00","UTC","6.0","42.8","-4.0","24.8","49","21.6","13.4","43.2","26.8","140","SE","-9999.0","-9999.0","1035","30.57","2.2","35.9","-9999","-9999","-9999.00","-9999.00","Clear","clear","0","0","0","0","0","0","METAR UKKK 250800Z 14006G12MPS 110V190 CAVOK 06/M04 Q1035 R08/CLRD70 TEMPO 16011G17MPS"
"11:30 AM EEST on October 25, 2016","2016","10","25","11","30","Europe/Kiev","8:30 AM GMT on October 25, 2016","2016","10","25","08","30","UTC","5.0","41.0","-5.0","23.0","49","25.2","15.7","43.2","26.8","140","SE","-9999.0","-9999.0","1035","30.57","0.5","32.9","-9999","-9999","-9999.00","-9999.00","Clear","clear","0","0","0","0","0","0","METAR UKKK 250830Z 14007G12MPS 100V200 CAVOK 05/M05 Q1035 R08/CLRD70 TEMPO 16011G17MPS"
"12:00 PM EEST on October 25, 2016","2016","10","25","12","00","Europe/Kiev","9:00 AM GMT on October 25, 2016","2016","10","25","09","00","UTC","6","43","-5","24","33","21.6","13.4","","","190","South","20","12","1036","30.59","-999","-999","-9999","-9999","","","Mostly Cloudy","mostlycloudy","0","0","0","0","0","0","AAXX 25091 33345 42998 61906 10060 21046 30150 40359 58011 85049 555 10015"
"12:00 PM EEST on October 25, 2016","2016","10","25","12","00","Europe/Kiev","9:00 AM GMT on October 25, 2016","2016","10","25","09","00","UTC","6.0","42.8","-5.0","23.0","46","21.6","13.4","43.2","26.8","140","SE","-9999.0","-9999.0","1035","30.57","2.2","35.9","-9999","-9999","-9999.00","-9999.00","Clear","clear","0","0","0","0","0","0","METAR UKKK 250900Z 14006G12MPS 120V200 CAVOK 06/M05 Q1035 R08/CLRD70 TEMPO 16011G17MPS"
"12:30 PM EEST on October 25, 2016","2016","10","25","12","30","Europe/Kiev","9:30 AM GMT on October 25, 2016","2016","10","25","09","30","UTC","6.0","42.8","-5.0","23.0","46","21.6","13.4","-9999.0","-9999.0","150","SSE","-9999.0","-9999.0","1035","30.57","2.2","35.9","-9999","-9999","-9999.00","-9999.00","Clear","clear","0","0","0","0","0","0","METAR UKKK 250930Z 15006MPS 100V210 CAVOK 06/M05 Q1035 R08/CLRD70 TEMPO 16011G17MPS"
"1:00 PM EEST on October 25, 2016","2016","10","25","13","00","Europe/Kiev","10:00 AM GMT on October 25, 2016","2016","10","25","10","00","UTC","7.0","44.6","-5.0","23.0","43","21.6","13.4","43.2","26.8","140","SE","-9999.0","-9999.0","1034","30.54","3.4","38.2","-9999","-9999","-9999.00","-9999.00","Clear","clear","0","0","0","0","0","0","METAR UKKK 251000Z 14006G12MPS 100V190 CAVOK 07/M05 Q1034 R08/CLRD70 TEMPO 16011G17MPS"
"1:30 PM EEST on October 25, 2016","2016","10","25","13","30","Europe/Kiev","10:30 AM GMT on October 25, 2016","2016","10","25","10","30","UTC","7.0","44.6","-5.0","23.0","43","21.6","13.4","-9999.0","-9999.0","140","SE","-9999.0","-9999.0","1034","30.54","3.4","38.2","-9999","-9999","-9999.00","-9999.00","Clear","clear","0","0","0","0","0","0","METAR UKKK 251030Z 14006MPS 110V180 CAVOK 07/M05 Q1034 R08/CLRD70 TEMPO 16011G17MPS"
"2:00 PM EEST on October 25, 2016","2016","10","25","14","00","Europe/Kiev","11:00 AM GMT on October 25, 2016","2016","10","25","11","00","UTC","8.0","46.4","-4.0","24.8","43","21.6","13.4","39.6","24.6","140","SE","-9999.0","-9999.0","1034","30.54","4.7","40.5","-9999","-9999","-9999.00","-9999.00","Clear","clear","0","0","0","0","0","0","METAR UKKK 251100Z 14006G11MPS 100V220 CAVOK 08/M04 Q1034 R08/CLRD70 TEMPO 16011G17MPS"
"2:30 PM EEST on October 25, 2016","2016","10","25","14","30","Europe/Kiev","11:30 AM GMT on October 25, 2016","2016","10","25","11","30","UTC","7.0","44.6","-4.0","24.8","46","21.6","13.4","39.6","24.6","150","SSE","-9999.0","-9999.0","1034","30.54","3.4","38.2","-9999","-9999","-9999.00","-9999.00","Clear","clear","0","0","0","0","0","0","METAR UKKK 251130Z 15006G11MPS 120V210 CAVOK 07/M04 Q1034 R08/CLRD70 TEMPO 16011G17MPS"
"3:00 PM EEST on October 25, 2016","2016","10","25","15","00","Europe/Kiev","12:00 PM GMT on October 25, 2016","2016","10","25","12","00","UTC","8","46","-4","24","30","18.0","11.2","","","190","South","20","12","1034","30.55","-999","-999","-9999","-9999","","","Partly Cloudy","partlycloudy","0","0","0","0","0","0","AAXX 25121 33345 32998 51905 10080 21042 30136 40344 57014 83075 555 10014"
"3:00 PM EEST on October 25, 2016","2016","10","25","15","00","Europe/Kiev","12:00 PM GMT on October 25, 2016","2016","10","25","12","00","UTC","8.0","46.4","-4.0","24.8","43","21.6","13.4","-9999.0","-9999.0","150","SSE","-9999.0","-9999.0","1033","30.51","4.7","40.5","-9999","-9999","-9999.00","-9999.00","Clear","clear","0","0","0","0","0","0","METAR UKKK 251200Z 15006MPS 080V180 CAVOK 08/M04 Q1033 R08/CLRD70 TEMPO 16011G17MPS"
"3:30 PM EEST on October 25, 2016","2016","10","25","15","30","Europe/Kiev","12:30 PM GMT on October 25, 2016","2016","10","25","12","30","UTC","8.0","46.4","-4.0","24.8","43","25.2","15.7","-9999.0","-9999.0","160","SSE","-9999.0","-9999.0","1033","30.51","4.4","39.9","-9999","-9999","-9999.00","-9999.00","Clear","clear","0","0","0","0","0","0","METAR UKKK 251230Z 16007MPS 120V210 CAVOK 08/M04 Q1033 R08/CLRD70 TEMPO 16010G16MPS"
"4:00 PM EEST on October 25, 2016","2016","10","25","16","00","Europe/Kiev","1:00 PM GMT on October 25, 2016","2016","10","25","13","00","UTC","7.0","44.6","-4.0","24.8","46","21.6","13.4","-9999.0","-9999.0","150","SSE","-9999.0","-9999.0","1033","30.51","3.4","38.2","-9999","-9999","-9999.00","-9999.00","Clear","clear","0","0","0","0","0","0","METAR UKKK 251300Z 15006MPS 110V210 CAVOK 07/M04 Q1033 R08/CLRD70 TEMPO 16010G16MPS"
"4:30 PM EEST on October 25, 2016","2016","10","25","16","30","Europe/Kiev","1:30 PM GMT on October 25, 2016","2016","10","25","13","30","UTC","7.0","44.6","-4.0","24.8","46","18.0","11.2","-9999.0","-9999.0","140","SE","-9999.0","-9999.0","1032","30.48","3.8","38.9","-9999","-9999","-9999.00","-9999.00","Clear","clear","0","0","0","0","0","0","METAR UKKK 251330Z 14005MPS 110V200 CAVOK 07/M04 Q1032 R08/CLRD70 TEMPO 16010G16MPS"
"5:00 PM EEST on October 25, 2016","2016","10","25","17","00","Europe/Kiev","2:00 PM GMT on October 25, 2016","2016","10","25","14","00","UTC","7.0","44.6","-4.0","24.8","46","18.0","11.2","-9999.0","-9999.0","140","SE","-9999.0","-9999.0","1032","30.48","3.8","38.9","-9999","-9999","-9999.00","-9999.00","Clear","clear","0","0","0","0","0","0","METAR UKKK 251400Z 14005MPS 120V180 CAVOK 07/M04 Q1032 R08/CLRD70 TEMPO 16010G16MPS"
"5:30 PM EEST on October 25, 2016","2016","10","25","17","30","Europe/Kiev","2:30 PM GMT on October 25, 2016","2016","10","25","14","30","UTC","6.0","42.8","-4.0","24.8","49","18.0","11.2","-9999.0","-9999.0","150","SSE","-9999.0","-9999.0","1032","30.48","2.6","36.7","-9999","-9999","-9999.00","-9999.00","Clear","clear","0","0","0","0","0","0","METAR UKKK 251430Z 15005MPS 120V190 CAVOK 06/M04 Q1032 R08/CLRD70 TEMPO 16010G16MPS"
"6:00 PM EEST on October 25, 2016","2016","10","25","18","00","Europe/Kiev","3:00 PM GMT on October 25, 2016","2016","10","25","15","00","UTC","5","42","-3","26","40","14.4","8.9","","","180","South","20","12","1033","30.51","-999","-999","-9999","-9999","","","Scattered Clouds","partlycloudy","0","0","0","0","0","0","AAXX 25151 33345 42998 61804 10053 21033 30122 40331 57014 82075 555 10003"
"6:00 PM EEST on October 25, 2016","2016","10","25","18","00","Europe/Kiev","3:00 PM GMT on October 25, 2016","2016","10","25","15","00","UTC","6.0","42.8","-4.0","24.8","49","18.0","11.2","-9999.0","-9999.0","150","SSE","-9999.0","-9999.0","1032","30.48","2.6","36.7","-9999","-9999","-9999.00","-9999.00","Clear","clear","0","0","0","0","0","0","METAR UKKK 251500Z 15005MPS 120V200 CAVOK 06/M04 Q1032 R08/CLRD70 TEMPO 16010G16MPS"
"6:30 PM EEST on October 25, 2016","2016","10","25","18","30","Europe/Kiev","3:30 PM GMT on October 25, 2016","2016","10","25","15","30","UTC","5.0","41.0","-3.0","26.6","57","14.4","8.9","-9999.0","-9999.0","120","ESE","-9999.0","-9999.0","1032","30.48","1.9","35.4","-9999","-9999","-9999.00","-9999.00","Clear","clear","0","0","0","0","0","0","METAR UKKK 251530Z 12004MPS CAVOK 05/M03 Q1032 R08/CLRD70 TEMPO 16010G16MPS"
"7:00 PM EEST on October 25, 2016","2016","10","25","19","00","Europe/Kiev","4:00 PM GMT on October 25, 2016","2016","10","25","16","00","UTC","5.0","41.0","-3.0","26.6","57","14.4","8.9","-9999.0","-9999.0","140","SE","-9999.0","-9999.0","1032","30.48","1.9","35.4","-9999","-9999","-9999.00","-9999.00","Clear","clear","0","0","0","0","0","0","METAR UKKK 251600Z 14004MPS CAVOK 05/M03 Q1032 R08/CLRD70 TEMPO 16010G16MPS"
"7:30 PM EEST on October 25, 2016","2016","10","25","19","30","Europe/Kiev","4:30 PM GMT on October 25, 2016","2016","10","25","16","30","UTC","5.0","41.0","-4.0","24.8","53","14.4","8.9","-9999.0","-9999.0","140","SE","-9999.0","-9999.0","1032","30.48","1.9","35.4","-9999","-9999","-9999.00","-9999.00","Clear","clear","0","0","0","0","0","0","METAR UKKK 251630Z 14004MPS CAVOK 05/M04 Q1032 R08/CLRD70 NOSIG"
"8:00 PM EEST on October 25, 2016","2016","10","25","20","00","Europe/Kiev","5:00 PM GMT on October 25, 2016","2016","10","25","17","00","UTC","5.0","41.0","-4.0","24.8","53","14.4","8.9","-9999.0","-9999.0","140","SE","-9999.0","-9999.0","1031","30.45","1.9","35.4","-9999","-9999","-9999.00","-9999.00","Clear","clear","0","0","0","0","0","0","METAR UKKK 251700Z 14004MPS 100V170 CAVOK 05/M04 Q1031 R08/CLRD70 NOSIG"
"8:30 PM EEST on October 25, 2016","2016","10","25","20","30","Europe/Kiev","5:30 PM GMT on October 25, 2016","2016","10","25","17","30","UTC","5.0","41.0","-4.0","24.8","53","18.0","11.2","-9999.0","-9999.0","150","SSE","-9999.0","-9999.0","1031","30.45","1.3","34.4","-9999","-9999","-9999.00","-9999.00","Clear","clear","0","0","0","0","0","0","METAR UKKK 251730Z 15005MPS 110V180 CAVOK 05/M04 Q1031 R08/CLRD70 NOSIG"
"9:00 PM EEST on October 25, 2016","2016","10","25","21","00","Europe/Kiev","6:00 PM GMT on October 25, 2016","2016","10","25","18","00","UTC","4","40","-3","26","46","14.4","8.9","","","190","South","20","12","1032","30.49","-999","-999","-9999","-9999","","","Mostly Cloudy","mostlycloudy","0","0","0","0","0","0","AAXX 25181 33345 32998 71904 10043 21032 30114 40324 57008 87070 333 10084 555 10003"
"9:00 PM EEST on October 25, 2016","2016","10","25","21","00","Europe/Kiev","6:00 PM GMT on October 25, 2016","2016","10","25","18","00","UTC","4.0","39.2","-4.0","24.8","56","14.4","8.9","-9999.0","-9999.0","150","SSE","-9999.0","-9999.0","1031","30.45","0.6","33.1","-9999","-9999","-9999.00","-9999.00","Clear","clear","0","0","0","0","0","0","METAR UKKK 251800Z 15004MPS 100V200 CAVOK 04/M04 Q1031 R08/CLRD70 NOSIG"
"9:30 PM EEST on October 25, 2016","2016","10","25","21","30","Europe/Kiev","6:30 PM GMT on October 25, 2016","2016","10","25","18","30","UTC","4.0","39.2","-4.0","24.8","56","18.0","11.2","-9999.0","-9999.0","140","SE","-9999.0","-9999.0","1031","30.45","0.1","32.2","-9999","-9999","-9999.00","-9999.00","Clear","clear","0","0","0","0","0","0","METAR UKKK 251830Z 14005MPS 110V190 CAVOK 04/M04 Q1031 R08/CLRD70 NOSIG"
"10:00 PM EEST on October 25, 2016","2016","10","25","22","00","Europe/Kiev","7:00 PM GMT on October 25, 2016","2016","10","25","19","00","UTC","4.0","39.2","-4.0","24.8","56","18.0","11.2","-9999.0","-9999.0","150","SSE","-9999.0","-9999.0","1031","30.45","0.1","32.2","-9999","-9999","-9999.00","-9999.00","Clear","clear","0","0","0","0","0","0","METAR UKKK 251900Z 15005MPS 120V200 CAVOK 04/M04 Q1031 R08/CLRD70 NOSIG"
"10:30 PM EEST on October 25, 2016","2016","10","25","22","30","Europe/Kiev","7:30 PM GMT on October 25, 2016","2016","10","25","19","30","UTC","4.0","39.2","-4.0","24.8","56","18.0","11.2","-9999.0","-9999.0","150","SSE","-9999.0","-9999.0","1031","30.45","0.1","32.2","-9999","-9999","-9999.00","-9999.00","Clear","clear","0","0","0","0","0","0","METAR UKKK 251930Z 15005MPS 110V210 CAVOK 04/M04 Q1031 R08/CLRD70 NOSIG"
"11:00 PM EEST on October 25, 2016","2016","10","25","23","00","Europe/Kiev","8:00 PM GMT on October 25, 2016","2016","10","25","20","00","UTC","4.0","39.2","-4.0","24.8","56","18.0","11.2","-9999.0","-9999.0","150","SSE","-9999.0","-9999.0","1031","30.45","0.1","32.2","-9999","-9999","-9999.00","-9999.00","Clear","clear","0","0","0","0","0","0","METAR UKKK 252000Z 15005MPS 110V200 CAVOK 04/M04 Q1031 R08/CLRD70 NOSIG"
"11:30 PM EEST on October 25, 2016","2016","10","25","23","30","Europe/Kiev","8:30 PM GMT on October 25, 2016","2016","10","25","20","30","UTC","4.0","39.2","-4.0","24.8","56","18.0","11.2","-9999.0","-9999.0","160","SSE","-9999.0","-9999.0","1030","30.42","0.1","32.2","-9999","-9999","-9999.00","-9999.00","Clear","clear","0","0","0","0","0","0","METAR UKKK 252030Z 16005MPS 120V210 CAVOK 04/M04 Q1030 R08/CLRD70 NOSIG"
"12:00 AM EEST on October 26, 2016","2016","10","26","00","00","Europe/Kiev","9:00 PM GMT on October 25, 2016","2016","10","25","21","00","UTC","4","39","-5","23","40","18.0","11.2","","","200","SSW","20","12","1031","30.46","-999","-999","-9999","-9999","","","Mostly Cloudy","mostlycloudy","0","0","0","0","0","0","AAXX 25211 33345 42998 72005 10040 21048 30103 40313 57011 87070 555 10003"
"12:00 AM EEST on October 26, 2016","2016","10","26","00","00","Europe/Kiev","9:00 PM GMT on October 25, 2016","2016","10","25","21","00","UTC","4.0","39.2","-4.0","24.8","56","14.4","8.9","32.4","20.1","160","SSE","-9999.0","-9999.0","1030","30.42","0.6","33.1","-9999","-9999","-9999.00","-9999.00","Clear","clear","0","0","0","0","0","0","METAR UKKK 252100Z 16004G09MPS CAVOK 04/M04 Q1030 R08/CLRD70 NOSIG"
"12:30 AM EEST on October 26, 2016","2016","10","26","00","30","Europe/Kiev","9:30 PM GMT on October 25, 2016","2016","10","25","21","30","UTC","3.0","37.4","-3.0","26.6","65","18.0","11.2","-9999.0","-9999.0","150","SSE","10.0","6.2","1030","30.42","-1.2","29.9","-9999","-9999","-9999.00","-9999.00","Light Rain Showers","rain","0","1","0","0","0","0","METAR UKKK 252130Z 15005MPS 110V210 9999 -SHRA SCT030CB BKN086 03/M03 Q1030 R08/290158 NOSIG"
"1:00 AM EEST on October 26, 2016","2016","10","26","01","00","Europe/Kiev","10:00 PM GMT on October 25, 2016","2016","10","25","22","00","UTC","4.0","39.2","-4.0","24.8","56","18.0","11.2","-9999.0","-9999.0","150","SSE","-9999.0","-9999.0","1029","30.39","0.1","32.2","-9999","-9999","-9999.00","-9999.00","Clear","clear","0","0","0","0","0","0","METAR UKKK 252200Z 15005MPS 110V190 CAVOK 04/M04 Q1029 R08/290158 NOSIG"
"1:30 AM EEST on October 26, 2016","2016","10","26","01","30","Europe/Kiev","10:30 PM GMT on October 25, 2016","2016","10","25","22","30","UTC","4.0","39.2","-4.0","24.8","56","18.0","11.2","36.0","22.4","160","SSE","-9999.0","-9999.0","1029","30.39","0.1","32.2","-9999","-9999","-9999.00","-9999.00","Clear","clear","0","0","0","0","0","0","METAR UKKK 252230Z 16005G10MPS 120V200 CAVOK 04/M04 Q1029 R08/190060 NOSIG"
"2:00 AM EEST on October 26, 2016","2016","10","26","02","00","Europe/Kiev","11:00 PM GMT on October 25, 2016","2016","10","25","23","00","UTC","4.0","39.2","-5.0","23.0","52","18.0","11.2","-9999.0","-9999.0","160","SSE","-9999.0","-9999.0","1029","30.39","0.1","32.2","-9999","-9999","-9999.00","-9999.00","Clear","clear","0","0","0","0","0","0","METAR UKKK 252300Z 16005MPS 110V230 CAVOK 04/M05 Q1029 R08/190060 NOSIG"
"2:30 AM EEST on October 26, 2016","2016","10","26","02","30","Europe/Kiev","11:30 PM GMT on October 25, 2016","2016","10","25","23","30","UTC","3.0","37.4","-5.0","23.0","56","18.0","11.2","39.6","24.6","170","South","10.0","6.2","1029","30.39","-1.2","29.9","-9999","-9999","-9999.00","-9999.00","Light Rain Showers","rain","0","1","0","0","0","0","METAR UKKK 252330Z 17005G11MPS 9999 -SHRA SCT030CB BKN096 03/M05 Q1029 R08/190060 NOSIG"
"3:00 AM EEST on October 26, 2016","2016","10","26","03","00","Europe/Kiev","12:00 AM GMT on October 26, 2016","2016","10","26","00","00","UTC","3","37","-5","23","44","18.0","11.2","","","200","SSW","20","12","1030","30.41","-999","-999","-9999","-9999","","","Light Rain","rain","0","1","0","0","0","0","AAXX 26001 33345 /1998 82005 10030 21050 30086 40296 58017 76162 8802/ 555 11002 69901"
"3:00 AM EEST on October 26, 2016","2016","10","26","03","00","Europe/Kiev","12:00 AM GMT on October 26, 2016","2016","10","26","00","00","UTC","3.0","37.4","-5.0","23.0","56","18.0","11.2","-9999.0","-9999.0","160","SSE","10.0","6.2","1028","30.36","-1.2","29.9","-9999","-9999","-9999.00","-9999.00","Mostly Cloudy","mostlycloudy","0","0","0","0","0","0","METAR UKKK 260000Z 16005MPS 120V220 9999 SCT030CB BKN076 03/M05 Q1028 R08/290158 NOSIG"
"3:30 AM EEST on October 26, 2016","2016","10","26","03","30","Europe/Kiev","12:30 AM GMT on October 26, 2016","2016","10","26","00","30","UTC","3.0","37.4","-6.0","21.2","52","21.6","13.4","39.6","24.6","160","SSE","-9999.0","-9999.0","1028","30.36","-1.6","29.1","-9999","-9999","-9999.00","-9999.00","Clear","clear","0","0","0","0","0","0","METAR UKKK 260030Z 16006G11MPS 120V210 CAVOK 03/M06 Q1028 R08/290158 NOSIG"
"4:00 AM EEST on October 26, 2016","2016","10","26","04","00","Europe/Kiev","1:00 AM GMT on October 26, 2016","2016","10","26","01","00","UTC","3.0","37.4","-6.0","21.2","52","18.0","11.2","-9999.0","-9999.0","160","SSE","-9999.0","-9999.0","1027","30.33","-1.2","29.9","-9999","-9999","-9999.00","-9999.00","Clear","clear","0","0","0","0","0","0","METAR UKKK 260100Z 16005MPS 110V210 CAVOK 03/M06 Q1027 R08/290158 NOSIG"
"4:30 AM EEST on October 26, 2016","2016","10","26","04","30","Europe/Kiev","1:30 AM GMT on October 26, 2016","2016","10","26","01","30","UTC","3.0","37.4","-6.0","21.2","52","18.0","11.2","-9999.0","-9999.0","170","South","-9999.0","-9999.0","1027","30.33","-1.2","29.9","-9999","-9999","-9999.00","-9999.00","Clear","clear","0","0","0","0","0","0","METAR UKKK 260130Z 17005MPS 120V220 CAVOK 03/M06 Q1027 R08/290158 NOSIG"
"5:00 AM EEST on October 26, 2016","2016","10","26","05","00","Europe/Kiev","2:00 AM GMT on October 26, 2016","2016","10","26","02","00","UTC","3.0","37.4","-6.0","21.2","52","18.0","11.2","36.0","22.4","160","SSE","-9999.0","-9999.0","1027","30.33","-1.2","29.9","-9999","-9999","-9999.00","-9999.00","Clear","clear","0","0","0","0","0","0","METAR UKKK 260200Z 16005G10MPS 120V210 CAVOK 03/M06 Q1027 R08/190060 NOSIG"
"5:30 AM EEST on October 26, 2016","2016","10","26","05","30","Europe/Kiev","2:30 AM GMT on October 26, 2016","2016","10","26","02","30","UTC","3.0","37.4","-6.0","21.2","52","14.4","8.9","-9999.0","-9999.0","170","South","-9999.0","-9999.0","1027","30.33","-0.6","30.9","-9999","-9999","-9999.00","-9999.00","Clear","clear","0","0","0","0","0","0","METAR UKKK 260230Z 17004MPS 140V240 CAVOK 03/M06 Q1027 R08/190060 NOSIG"
"6:00 AM EEST on October 26, 2016","2016","10","26","06","00","Europe/Kiev","3:00 AM GMT on October 26, 2016","2016","10","26","03","00","UTC","2","36","-5","22","45","18.0","11.2","","","200","SSW","20","12","1028","30.36","-999","-999","-9999","-9999","","","Partly Cloudy","partlycloudy","0","0","0","0","0","0","AAXX 26031 33345 41998 82005 10022 21054 30070 40281 57016 70262 8802/ 555 11002"
"6:00 AM EEST on October 26, 2016","2016","10","26","06","00","Europe/Kiev","3:00 AM GMT on October 26, 2016","2016","10","26","03","00","UTC","2.0","35.6","-6.0","21.2","56","14.4","8.9","32.4","20.1","170","South","-9999.0","-9999.0","1027","30.33","-1.8","28.7","-9999","-9999","-9999.00","-9999.00","Clear","clear","0","0","0","0","0","0","METAR UKKK 260300Z 17004G09MPS 130V280 CAVOK 02/M06 Q1027 R08/CLRD70 NOSIG"
"6:30 AM EEST on October 26, 2016","2016","10","26","06","30","Europe/Kiev","3:30 AM GMT on October 26, 2016","2016","10","26","03","30","UTC","2.0","35.6","-5.0","23.0","60","14.4","8.9","-9999.0","-9999.0","160","SSE","-9999.0","-9999.0","1027","30.33","-1.8","28.7","-9999","-9999","-9999.00","-9999.00","Clear","clear","0","0","0","0","0","0","METAR UKKK 260330Z 16004MPS 130V210 CAVOK 02/M05 Q1027 R08/CLRD70 NOSIG"
"7:00 AM EEST on October 26, 2016","2016","10","26","07","00","Europe/Kiev","4:00 AM GMT on October 26, 2016","2016","10","26","04","00","UTC","2.0","35.6","-4.0","24.8","65","14.4","8.9","-9999.0","-9999.0","160","SSE","9.0","5.6","1026","30.30","-1.8","28.7","-9999","-9999","-9999.00","-9999.00","Unknown","unknown","0","0","0","0","0","0","METAR UKKK 260400Z 16004MPS 120V230 9000 NSC 02/M04 Q1026 R08/CLRD70 NOSIG"
"7:30 AM EEST on October 26, 2016","2016","10","26","07","30","Europe/Kiev","4:30 AM GMT on October 26, 2016","2016","10","26","04","30","UTC","2.0","35.6","-4.0","24.8","65","14.4","8.9","-9999.0","-9999.0","160","SSE","-9999.0","-9999.0","1026","30.30","-1.8","28.7","-9999","-9999","-9999.00","-9999.00","Clear","clear","0","0","0","0","0","0","METAR UKKK 260430Z 16004MPS 110V210 CAVOK 02/M04 Q1026 R08/CLRD70 NOSIG"
"8:00 AM EEST on October 26, 2016","2016","10","26","08","00","Europe/Kiev","5:00 AM GMT on October 26, 2016","2016","10","26","05","00","UTC","2.0","35.6","-4.0","24.8","65","14.4","8.9","-9999.0","-9999.0","160","SSE","-9999.0","-9999.0","1026","30.30","-1.8","28.7","-9999","-9999","-9999.00","-9999.00","Clear","clear","0","0","0","0","0","0","METAR UKKK 260500Z 16004MPS 120V220 CAVOK 02/M04 Q1026 R08/CLRD70 NOSIG"
"8:30 AM EEST on October 26, 2016","2016","10","26","08","30","Europe/Kiev","5:30 AM GMT on October 26, 2016","2016","10","26","05","30","UTC","2.0","35.6","-4.0","24.8","65","10.8","6.7","-9999.0","-9999.0","150","SSE","-9999.0","-9999.0","1026","30.30","-1.1","30.0","-9999","-9999","-9999.00","-9999.00","Clear","clear","0","0","0","0","0","0","METAR UKKK 260530Z 15003MPS 090V190 CAVOK 02/M04 Q1026 R08/CLRD70 NOSIG"
"9:00 AM EEST on October 26, 2016","2016","10","26","09","00","Europe/Kiev","6:00 AM GMT on October 26, 2016","2016","10","26","06","00","UTC","2","36","-4","26","55","14.4","8.9","","","190","South","20","12","1028","30.36","-999","-999","-9999","-9999","","","Partly Cloudy","partlycloudy","0","0","0","0","0","0","AAXX 26061 33345 11998 81904 10022 21035 30069 40280 56001 69942 70262 8807/ 333 20020 555 10002 30001 52001"
"9:00 AM EEST on October 26, 2016","2016","10","26","09","00","Europe/Kiev","6:00 AM GMT on October 26, 2016","2016","10","26","06","00","UTC","2.0","35.6","-4.0","24.8","65","14.4","8.9","-9999.0","-9999.0","150","SSE","-9999.0","-9999.0","1026","30.30","-1.8","28.7","-9999","-9999","-9999.00","-9999.00","Clear","clear","0","0","0","0","0","0","METAR UKKK 260600Z 15004MPS 110V190 CAVOK 02/M04 Q1026 R08/CLRD70 NOSIG"
"9:30 AM EEST on October 26, 2016","2016","10","26","09","30","Europe/Kiev","6:30 AM GMT on October 26, 2016","2016","10","26","06","30","UTC","2.0","35.6","-3.0","26.6","70","14.4","8.9","-9999.0","-9999.0","160","SSE","-9999.0","-9999.0","1027","30.33","-1.8","28.7","-9999","-9999","-9999.00","-9999.00","Clear","clear","0","0","0","0","0","0","METAR UKKK 260630Z 16004MPS 120V210 CAVOK 02/M03 Q1027 R08/CLRD70 NOSIG"
"10:00 AM EEST on October 26, 2016","2016","10","26","10","00","Europe/Kiev","7:00 AM GMT on October 26, 2016","2016","10","26","07","00","UTC","2.0","35.6","-3.0","26.6","70","10.8","6.7","-9999.0","-9999.0","160","SSE","-9999.0","-9999.0","1027","30.33","-1.1","30.0","-9999","-9999","-9999.00","-9999.00","Clear","clear","0","0","0","0","0","0","METAR UKKK 260700Z 16003MPS 130V210 CAVOK 02/M03 Q1027 R08/CLRD70 NOSIG"
"10:30 AM EEST on October 26, 2016","2016","10","26","10","30","Europe/Kiev","7:30 AM GMT on October 26, 2016","2016","10","26","07","30","UTC","2.0","35.6","-3.0","26.6","70","10.8","6.7","-9999.0","-9999.0","160","SSE","-9999.0","-9999.0","1027","30.33","-1.1","30.0","-9999","-9999","-9999.00","-9999.00","Clear","clear","0","0","0","0","0","0","METAR UKKK 260730Z 16003MPS 120V200 CAVOK 02/M03 Q1027 R08/CLRD70 NOSIG"
"11:00 AM EEST on October 26, 2016","2016","10","26","11","00","Europe/Kiev","8:00 AM GMT on October 26, 2016","2016","10","26","08","00","UTC","3.0","37.4","-3.0","26.6","65","14.4","8.9","-9999.0","-9999.0","160","SSE","-9999.0","-9999.0","1027","30.33","-0.6","30.9","-9999","-9999","-9999.00","-9999.00","Clear","clear","0","0","0","0","0","0","METAR UKKK 260800Z 16004MPS 120V200 CAVOK 03/M03 Q1027 R08/CLRD70 NOSIG"
"11:30 AM EEST on October 26, 2016","2016","10","26","11","30","Europe/Kiev","8:30 AM GMT on October 26, 2016","2016","10","26","08","30","UTC","3.0","37.4","-3.0","26.6","65","14.4","8.9","-9999.0","-9999.0","170","South","-9999.0","-9999.0","1027","30.33","-0.6","30.9","-9999","-9999","-9999.00","-9999.00","Clear","clear","0","0","0","0","0","0","METAR UKKK 260830Z 17004MPS 090V230 CAVOK 03/M03 Q1027 R08/CLRD70 NOSIG"
"12:00 PM EEST on October 26, 2016","2016","10","26","12","00","Europe/Kiev","9:00 AM GMT on October 26, 2016","2016","10","26","09","00","UTC","3","37","-2","28","60","14.4","8.9","","","190","South","20","12","1028","30.36","-999","-999","-9999","-9999","","","Overcast","cloudy","0","0","0","0","0","0","AAXX 26091 33345 42998 81904 10027 21022 30069 40279 54000 8805/ 555 10004"
"12:00 PM EEST on October 26, 2016","2016","10","26","12","00","Europe/Kiev","9:00 AM GMT on October 26, 2016","2016","10","26","09","00","UTC","3.0","37.4","-3.0","26.6","65","14.4","8.9","-9999.0","-9999.0","160","SSE","-9999.0","-9999.0","1026","30.30","-0.6","30.9","-9999","-9999","-9999.00","-9999.00","Clear","clear","0","0","0","0","0","0","METAR UKKK 260900Z 16004MPS 110V210 CAVOK 03/M03 Q1026 R08/CLRD70 NOSIG"
"12:30 PM EEST on October 26, 2016","2016","10","26","12","30","Europe/Kiev","9:30 AM GMT on October 26, 2016","2016","10","26","09","30","UTC","3.0","37.4","-2.0","28.4","70","10.8","6.7","-9999.0","-9999.0","160","SSE","-9999.0","-9999.0","1026","30.30","0.1","32.2","-9999","-9999","-9999.00","-9999.00","Clear","clear","0","0","0","0","0","0","METAR UKKK 260930Z 16003MPS 090V220 CAVOK 03/M02 Q1026 R08/CLRD70 NOSIG"
"1:00 PM EEST on October 26, 2016","2016","10","26","13","00","Europe/Kiev","10:00 AM GMT on October 26, 2016","2016","10","26","10","00","UTC","3.0","37.4","-2.0","28.4","70","18.0","11.2","-9999.0","-9999.0","160","SSE","-9999.0","-9999.0","1026","30.30","-1.2","29.9","-9999","-9999","-9999.00","-9999.00","Clear","clear","0","0","0","0","0","0","METAR UKKK 261000Z 16005MPS 120V190 CAVOK 03/M02 Q1026 R08/CLRD70 NOSIG"
"1:30 PM EEST on October 26, 2016","2016","10","26","13","30","Europe/Kiev","10:30 AM GMT on October 26, 2016","2016","10","26","10","30","UTC","3.0","37.4","-2.0","28.4","70","14.4","8.9","-9999.0","-9999.0","160","SSE","9.0","5.6","1026","30.30","-0.6","30.9","-9999","-9999","-9999.00","-9999.00","Unknown","unknown","0","0","0","0","0","0","METAR UKKK 261030Z 16004MPS 120V200 9000 NSC 03/M02 Q1026 R08/CLRD70 NOSIG"
"2:00 PM EEST on October 26, 2016","2016","10","26","14","00","Europe/Kiev","11:00 AM GMT on October 26, 2016","2016","10","26","11","00","UTC","3.0","37.4","-2.0","28.4","70","10.8","6.7","-9999.0","-9999.0","150","SSE","-9999.0","-9999.0","1026","30.30","0.1","32.2","-9999","-9999","-9999.00","-9999.00","Clear","clear","0","0","0","0","0","0","METAR UKKK 261100Z 15003MPS 110V200 CAVOK 03/M02 Q1026 R08/CLRD70 NOSIG"
"2:30 PM EEST on October 26, 2016","2016","10","26","14","30","Europe/Kiev","11:30 AM GMT on October 26, 2016","2016","10","26","11","30","UTC","4.0","39.2","-2.0","28.4","65","7.2","4.5","-9999.0","-9999.0","160","SSE","-9999.0","-9999.0","1026","30.30","2.2","36.0","-9999","-9999","-9999.00","-9999.00","Clear","clear","0","0","0","0","0","0","METAR UKKK 261130Z 16002MPS 110V200 CAVOK 04/M02 Q1026 R08/CLRD70 NOSIG"
"3:00 PM EEST on October 26, 2016","2016","10","26","15","00","Europe/Kiev","12:00 PM GMT on October 26, 2016","2016","10","26","12","00","UTC","3","38","-1","30","62","7.2","4.5","","","190","South","20","12","1027","30.34","-999","-999","-9999","-9999","","","Overcast","cloudy","0","0","0","0","0","0","AAXX 26121 33345 32998 81902 10034 21013 30064 40274 58005 8805/ 555 10005"
"3:00 PM EEST on October 26, 2016","2016","10","26","15","00","Europe/Kiev","12:00 PM GMT on October 26, 2016","2016","10","26","12","00","UTC","4.0","39.2","-2.0","28.4","65","7.2","4.5","-9999.0","-9999.0","140","SE","10.0","6.2","1026","30.30","2.2","36.0","-9999","-9999","-9999.00","-9999.00","Overcast","cloudy","0","0","0","0","0","0","METAR UKKK 261200Z 14002MPS 100V210 9999 OVC025 04/M02 Q1026 R08/CLRD70 NOSIG"
"3:30 PM EEST on October 26, 2016","2016","10","26","15","30","Europe/Kiev","12:30 PM GMT on October 26, 2016","2016","10","26","12","30","UTC","4.0","39.2","-2.0","28.4","65","7.2","4.5","-9999.0","-9999.0","170","South","10.0","6.2","1026","30.30","2.2","36.0","-9999","-9999","-9999.00","-9999.00","Overcast","cloudy","0","0","0","0","0","0","METAR UKKK 261230Z 17002MPS 110V250 9999 OVC032 04/M02 Q1026 R08/CLRD70 TEMPO 2100 -SHRASN BKN005 BKN015CB"
"4:00 PM EEST on October 26, 2016","2016","10","26","16","00","Europe/Kiev","1:00 PM GMT on October 26, 2016","2016","10","26","13","00","UTC","4.0","39.2","-2.0","28.4","65","10.8","6.7","-9999.0","-9999.0","170","South","10.0","6.2","1026","30.30","1.3","34.4","-9999","-9999","-9999.00","-9999.00","Overcast","cloudy","0","0","0","0","0","0","METAR UKKK 261300Z 17003MPS 130V220 9999 OVC039 04/M02 Q1026 R08/CLRD70 TEMPO 2100 -SHRASN BKN005 BKN015CB"
"4:30 PM EEST on October 26, 2016","2016","10","26","16","30","Europe/Kiev","1:30 PM GMT on October 26, 2016","2016","10","26","13","30","UTC","2.0","35.6","-1.0","30.2","81","7.2","4.5","-9999.0","-9999.0","170","South","7.0","4.3","1026","30.30","-0.1","31.8","-9999","-9999","-9999.00","-9999.00","Light Snow","snow","0","1","1","0","0","0","METAR UKKK 261330Z 17002MPS 110V230 7000 -SNRA OVC020 02/M01 Q1026 R08/290058 TEMPO 2100 -SHRASN BR BKN005 BKN015CB"
"5:00 PM EEST on October 26, 2016","2016","10","26","17","00","Europe/Kiev","2:00 PM GMT on October 26, 2016","2016","10","26","14","00","UTC","2.0","35.6","0.0","32.0","87","10.8","6.7","-9999.0","-9999.0","150","SSE","8.0","5.0","1026","30.30","-1.1","30.0","-9999","-9999","-9999.00","-9999.00","Light Snow","snow","0","1","1","0","0","0","METAR UKKK 261400Z 15003MPS 100V190 8000 -SNRA OVC017 02/M00 Q1026 R08/290058 TEMPO 2100 -SHRASN BR BKN005 BKN015CB"
"5:30 PM EEST on October 26, 2016","2016","10","26","17","30","Europe/Kiev","2:30 PM GMT on October 26, 2016","2016","10","26","14","30","UTC","1.0","33.8","0.0","32.0","93","7.2","4.5","-9999.0","-9999.0","140","SE","5.0","3.1","1026","30.30","-1.3","29.7","-9999","-9999","-9999.00","-9999.00","Light Snow","snow","0","1","1","0","0","0","METAR UKKK 261430Z 14002MPS 090V190 5000 -SNRA OVC017 01/M00 Q1026 R08/290157 TEMPO 2100 -SHRASN BR BKN005 BKN015CB"
"6:00 PM EEST on October 26, 2016","2016","10","26","18","00","Europe/Kiev","3:00 PM GMT on October 26, 2016","2016","10","26","15","00","UTC","1","34","-0","31","86","7.2","4.5","","","200","SSW","2","1","1028","30.36","-999","-999","-9999","-9999","","","Heavy Snow","snow","0","0","1","0","0","0","AAXX 26151 33345 41395 82002 10010 21004 30069 40280 53005 76972 8872/ 333 88708 555 11000"
"6:00 PM EEST on October 26, 2016","2016","10","26","18","00","Europe/Kiev","3:00 PM GMT on October 26, 2016","2016","10","26","15","00","UTC","1.0","33.8","0.0","32.0","93","7.2","4.5","-9999.0","-9999.0","160","SSE","1.3","0.8","1027","30.33","-1.3","29.7","-9999","-9999","-9999.00","-9999.00","Snow","snow","0","1","1","0","0","0","METAR UKKK 261500Z 16002MPS 120V190 1300 R08/1800VP2000D SNRA BR FEW006 OVC020 01/M00 Q1027 R08/290157 TEMPO 1000 SHRASN BR BKN004 BKN015CB"
"6:20 PM EEST on October 26, 2016","2016","10","26","18","20","Europe/Kiev","3:20 PM GMT on October 26, 2016","2016","10","26","15","20","UTC","1.0","33.8","0.0","32.0","93","7.2","4.5","-9999.0","-9999.0","160","SSE","2.1","1.3","1027","30.33","-1.3","29.7","-9999","-9999","-9999.00","-9999.00","Light Snow","snow","0","1","1","0","0","0","SPECI UKKK 261520Z 16002MPS 110V210 2100 -SNRA BR SCT006 OVC020 01/M00 Q1027 RESNRA R08/290256 TEMPO 0300 +SHRASN BKN003 BKN015CB"
"6:25 PM EEST on October 26, 2016","2016","10","26","18","25","Europe/Kiev","3:25 PM GMT on October 26, 2016","2016","10","26","15","25","UTC","1.0","33.8","0.0","32.0","93","7.2","4.5","-9999.0","-9999.0","150","SSE","1.9","1.2","1027","30.33","-1.3","29.7","-9999","-9999","-9999.00","-9999.00","Snow","snow","0","1","1","0","0","0","SPECI UKKK 261525Z 15002MPS 110V220 1900 SNRA BR BKN003 OVC015 01/M00 Q1027 R08/290256 TEMPO 0300 +SHRASN BKN003 BKN015CB"
"6:30 PM EEST on October 26, 2016","2016","10","26","18","30","Europe/Kiev","3:30 PM GMT on October 26, 2016","2016","10","26","15","30","UTC","1.0","33.8","0.0","32.0","93","7.2","4.5","-9999.0","-9999.0","150","SSE","1.8","1.1","1027","30.33","-1.3","29.7","-9999","-9999","-9999.00","-9999.00","Snow","snow","0","0","1","0","0","0","METAR UKKK 261530Z 15002MPS 100V220 1800 SN BR BKN003 OVC016 01/M00 Q1027 R08/290256 TEMPO 0300 +SHRASN BKN003 BKN015CB"
"6:47 PM EEST on October 26, 2016","2016","10","26","18","47","Europe/Kiev","3:47 PM GMT on October 26, 2016","2016","10","26","15","47","UTC","1.0","33.8","0.0","32.0","93","10.8","6.7","-9999.0","-9999.0","140","SE","-9999.0","-9999.0","1027","30.33","-2.3","27.9","-9999","-9999","-9999.00","-9999.00","Light Snow","snow","0","0","1","0","0","0","SPECI UKKK 261547Z 14003MPS 090V200 4100 -SN BR SCT003 OVC021 01/00 Q1027 RESN R08/290256 TEMPO 1000 SHSNRA BR BKN002 BKN015CB"
"7:00 PM EEST on October 26, 2016","2016","10","26","19","00","Europe/Kiev","4:00 PM GMT on October 26, 2016","2016","10","26","16","00","UTC","1.0","33.8","0.0","32.0","93","7.2","4.5","-9999.0","-9999.0","160","SSE","2.8","1.7","1027","30.33","-1.3","29.7","-9999","-9999","-9999.00","-9999.00","Light Rain","snow","0","1","1","0","0","0","METAR UKKK 261600Z 16002MPS 110V210 2800 -RASN BR SCT004 OVC021 01/M00 Q1027 R08/290256 TEMPO 1000 SHSNRA BR BKN002 BKN015CB"
"7:30 PM EEST on October 26, 2016","2016","10","26","19","30","Europe/Kiev","4:30 PM GMT on October 26, 2016","2016","10","26","16","30","UTC","1.0","33.8","0.0","32.0","93","7.2","4.5","-9999.0","-9999.0","150","SSE","2.5","1.6","1027","30.33","-1.3","29.7","-9999","-9999","-9999.00","-9999.00","Light Snow","snow","0","0","1","0","0","0","METAR UKKK 261630Z 15002MPS 100V200 2500 -SN BR BKN004 OVC021 01/M00 Q1027 R08/290256 TEMPO 1000 SHSNRA BR BKN002 BKN015CB"
"7:47 PM EEST on October 26, 2016","2016","10","26","19","47","Europe/Kiev","4:47 PM GMT on October 26, 2016","2016","10","26","16","47","UTC","1.0","33.8","0.0","32.0","93","7.2","4.5","-9999.0","-9999.0","170","South","1.4","0.9","1027","30.33","-1.3","29.7","-9999","-9999","-9999.00","-9999.00","Snow Showers","snow","0","0","1","0","0","0","SPECI UKKK 261647Z 17002MPS 120V240 1400 R08/P2000D SHSN BR BKN003 BKN023CB 01/M00 Q1027 R08/290256 TEMPO 0600 +SHSNRA BKN002 BKN015CB"
"8:00 PM EEST on October 26, 2016","2016","10","26","20","00","Europe/Kiev","5:00 PM GMT on October 26, 2016","2016","10","26","17","00","UTC","0.0","32.0","0.0","32.0","100","7.2","4.5","-9999.0","-9999.0","170","South","1.1","0.7","1027","30.33","-2.5","27.6","-9999","-9999","-9999.00","-9999.00","Snow Showers","snow","0","0","1","0","0","0","METAR UKKK 261700Z 17002MPS 120V220 1100 R08/2000N SHSN BR BKN003 BKN023CB 00/M00 Q1027 R08/290256 TEMPO 0600 +SHSNRA BKN002 BKN015CB"
"8:18 PM EEST on October 26, 2016","2016","10","26","20","18","Europe/Kiev","5:18 PM GMT on October 26, 2016","2016","10","26","17","18","UTC","0.0","32.0","0.0","32.0","100","3.6","2.2","-9999.0","-9999.0","0","Variable","0.9","0.6","1027","30.33","-999","-999","-9999","-9999","-9999.00","-9999.00","Heavy Snow Showers","snow","0","0","1","0","0","0","SPECI UKKK 261718Z VRB01MPS 0900 R08/1800D +SHSN BKN004 BKN021CB 00/M00 Q1027 R08/290256 TEMPO 0600 +SHSNRA BKN002 BKN015CB"
"8:30 PM EEST on October 26, 2016","2016","10","26","20","30","Europe/Kiev","5:30 PM GMT on October 26, 2016","2016","10","26","17","30","UTC","0.0","32.0","0.0","32.0","100","7.2","4.5","-9999.0","-9999.0","150","SSE","0.9","0.6","1027","30.33","-2.5","27.6","-9999","-9999","-9999.00","-9999.00","Heavy Snow Showers","snow","0","0","1","0","0","0","METAR UKKK 261730Z 15002MPS 110V190 0900 R08/1700N +SHSN BKN003 BKN021CB 00/M00 Q1027 R08/290256 TEMPO 0600 +SHSNRA BKN002 BKN015CB"
"8:47 PM EEST on October 26, 2016","2016","10","26","20","47","Europe/Kiev","5:47 PM GMT on October 26, 2016","2016","10","26","17","47","UTC","0.0","32.0","0.0","32.0","100","7.2","4.5","-9999.0","-9999.0","140","SE","1.3","0.8","1027","30.33","-2.5","27.6","-9999","-9999","-9999.00","-9999.00","Snow Showers","snow","0","0","1","0","0","0","SPECI UKKK 261747Z 14002MPS 090V170 1300 R08/P2000U SHSN BKN004 BKN023CB 00/00 Q1027 RESHSN R08/690245 TEMPO 0600 +SHSNRA BKN002 BKN015CB"
"9:00 PM EEST on October 26, 2016","2016","10","26","21","00","Europe/Kiev","6:00 PM GMT on October 26, 2016","2016","10","26","18","00","UTC","0","32","-0","32","99","7.2","4.5","","","180","South","2","1","1029","30.38","-999","-999","-9999","-9999","","","Snow","snow","0","0","1","0","0","0","AAXX 26181 33345 11195 81802 10002 21001 30075 40287 52006 60042 77372 8872/ 333 10036 88703 555 1/000"
"9:00 PM EEST on October 26, 2016","2016","10","26","21","00","Europe/Kiev","6:00 PM GMT on October 26, 2016","2016","10","26","18","00","UTC","0.0","32.0","0.0","32.0","100","7.2","4.5","-9999.0","-9999.0","150","SSE","1.4","0.9","1027","30.33","-2.5","27.6","-9999","-9999","-9999.00","-9999.00","Snow","snow","0","0","1","0","0","0","METAR UKKK 261800Z 15002MPS 090V200 1400 R08/P2000N SN BKN004 OVC023 00/00 Q1027 R08/690245 TEMPO 1000 SHSNRA BKN002 BKN015CB"
"9:06 PM EEST on October 26, 2016","2016","10","26","21","06","Europe/Kiev","6:06 PM GMT on October 26, 2016","2016","10","26","18","06","UTC","0.0","32.0","0.0","32.0","100","7.2","4.5","-9999.0","-9999.0","140","SE","-9999.0","-9999.0","1027","30.33","-2.5","27.6","-9999","-9999","-9999.00","-9999.00","Heavy Snow","snow","0","0","1","0","0","0","SPECI UKKK 261806Z 14002MPS 100V190 0750 R08/2000D +SN BKN003 OVC023 00/00 Q1027 R08/690245 TEMPO 0400 +SHSNRA BKN002 BKN015CB"
"9:30 PM EEST on October 26, 2016","2016","10","26","21","30","Europe/Kiev","6:30 PM GMT on October 26, 2016","2016","10","26","18","30","UTC","0.0","32.0","0.0","32.0","100","7.2","4.5","-9999.0","-9999.0","140","SE","1.1","0.7","1027","30.33","-2.5","27.6","-9999","-9999","-9999.00","-9999.00","Snow","snow","0","0","1","0","0","0","METAR UKKK 261830Z 14002MPS 110V190 1100 R08/P2000N SN BKN002 OVC016 00/00 Q1027 RESN R08/590245 TEMPO 0700 +SHSNRA BKN002 BKN015CB"
"10:00 PM EEST on October 26, 2016","2016","10","26","22","00","Europe/Kiev","7:00 PM GMT on October 26, 2016","2016","10","26","19","00","UTC","0.0","32.0","0.0","32.0","100","7.2","4.5","-9999.0","-9999.0","150","SSE","2.5","1.6","1028","30.36","-2.5","27.6","-9999","-9999","-9999.00","-9999.00","Light Snow","snow","0","0","1","0","0","0","METAR UKKK 261900Z 15002MPS 110V190 2500 -SN BR BKN004 OVC020 00/00 Q1028 RESN R08/590245 TEMPO 0700 +SHSNRA BKN002 BKN015CB"
"10:18 PM EEST on October 26, 2016","2016","10","26","22","18","Europe/Kiev","7:18 PM GMT on October 26, 2016","2016","10","26","19","18","UTC","0.0","32.0","0.0","32.0","100","7.2","4.5","-9999.0","-9999.0","150","SSE","1.4","0.9","1028","30.36","-2.5","27.6","-9999","-9999","-9999.00","-9999.00","Snow","snow","0","0","1","0","0","0","SPECI UKKK 261918Z 15002MPS 090V210 1400 R08/1500VP2000D SN BR BKN003 OVC020 00/00 Q1028 R08/690245 TEMPO 0700 +SHSNRA BKN002 BKN015CB"
"10:30 PM EEST on October 26, 2016","2016","10","26","22","30","Europe/Kiev","7:30 PM GMT on October 26, 2016","2016","10","26","19","30","UTC","0.0","32.0","0.0","32.0","100","3.6","2.2","-9999.0","-9999.0","0","Variable","1.8","1.1","1028","30.36","-999","-999","-9999","-9999","-9999.00","-9999.00","Snow","snow","0","0","1","0","0","0","METAR UKKK 261930Z VRB01MPS 1800 SN BR BKN003 OVC020 00/00 Q1028 R08/690245 TEMPO 0700 +SHSNRA BKN002 BKN015CB"
"10:42 PM EEST on October 26, 2016","2016","10","26","22","42","Europe/Kiev","7:42 PM GMT on October 26, 2016","2016","10","26","19","42","UTC","0.0","32.0","0.0","32.0","100","3.6","2.2","-9999.0","-9999.0","0","Variable","2.6","1.6","1028","30.36","-999","-999","-9999","-9999","-9999.00","-9999.00","Light Snow","snow","0","0","1","0","0","0","SPECI UKKK 261942Z VRB01MPS 2600 -SN BR BKN003 OVC020 00/00 Q1028 RESN R08/690245 TEMPO 0700 +SHSNRA BKN002 BKN015CB"
"11:00 PM EEST on October 26, 2016","2016","10","26","23","00","Europe/Kiev","8:00 PM GMT on October 26, 2016","2016","10","26","20","00","UTC","0.0","32.0","0.0","32.0","100","3.6","2.2","-9999.0","-9999.0","0","Variable","2.2","1.4","1028","30.36","-999","-999","-9999","-9999","-9999.00","-9999.00","Light Snow","snow","0","0","1","0","0","0","METAR UKKK 262000Z VRB01MPS 2200 -SN BR BKN003 OVC020 00/00 Q1028 R08/690245 TEMPO 1500 SHSN BKN002 BKN015CB"
"11:30 PM EEST on October 26, 2016","2016","10","26","23","30","Europe/Kiev","8:30 PM GMT on October 26, 2016","2016","10","26","20","30","UTC","0.0","32.0","0.0","32.0","100","0.0","0.0","-9999.0","-9999.0","0","North","2.1","1.3","1028","30.36","-999","-999","-9999","-9999","-9999.00","-9999.00","Light Snow Showers","snow","0","0","1","0","0","0","METAR UKKK 262030Z 00000MPS 2100 -SHSN BR BKN003 BKN022CB 00/00 Q1028 R08/690150 TEMPO 1500 SHSN BKN002 BKN015CB"
"11:50 PM EEST on October 26, 2016","2016","10","26","23","50","Europe/Kiev","8:50 PM GMT on October 26, 2016","2016","10","26","20","50","UTC","0.0","32.0","0.0","32.0","100","0.0","0.0","-9999.0","-9999.0","0","North","1.8","1.1","1028","30.36","-999","-999","-9999","-9999","-9999.00","-9999.00","Snow Showers","snow","0","0","1","0","0","0","SPECI UKKK 262050Z 00000MPS 1800 SHSN BR BKN003 BKN022CB 00/00 Q1028 R08/690150 TEMPO 1500 SHSN BKN002 BKN015CB"
"12:00 AM EEST on October 27, 2016","2016","10","27","00","00","Europe/Kiev","9:00 PM GMT on October 26, 2016","2016","10","26","21","00","UTC","0","32","-0","32","99","0.0","0.0","","","","","1","1","1030","30.40","-999","-999","-9999","-9999","","","Light Snow","snow","0","0","1","0","0","0","AAXX 26211 33345 41294 80000 10002 21001 30083 40295 52008 77177 8872/ 333 88703 555 1/100"
"12:00 AM EEST on October 27, 2016","2016","10","27","00","00","Europe/Kiev","9:00 PM GMT on October 26, 2016","2016","10","26","21","00","UTC","0.0","32.0","0.0","32.0","100","0.0","0.0","-9999.0","-9999.0","0","North","1.4","0.9","1028","30.36","-999","-999","-9999","-9999","-9999.00","-9999.00","Snow Showers","snow","0","0","1","0","0","0","METAR UKKK 262100Z 00000MPS 1400 R08/1500VP2000U SHSN BR BKN004 BKN022CB 00/00 Q1028 R08/690150 TEMPO 1500 SHSN BKN002 BKN015CB"
"12:30 AM EEST on October 27, 2016","2016","10","27","00","30","Europe/Kiev","9:30 PM GMT on October 26, 2016","2016","10","26","21","30","UTC","0.0","32.0","0.0","32.0","100","0.0","0.0","-9999.0","-9999.0","0","North","1.3","0.8","1028","30.36","-999","-999","-9999","-9999","-9999.00","-9999.00","Snow Showers","snow","0","0","1","0","0","0","METAR UKKK 262130Z 00000MPS 1300 R08/P2000U SHSN BKN004 BKN023CB 00/00 Q1028 R08/690150 TEMPO 0700 +SHSN BKN002 BKN015CB"
"1:00 AM EEST on October 27, 2016","2016","10","27","01","00","Europe/Kiev","10:00 PM GMT on October 26, 2016","2016","10","26","22","00","UTC","0.0","32.0","0.0","32.0","100","0.0","0.0","-9999.0","-9999.0","0","North","1.2","0.7","1028","30.36","-999","-999","-9999","-9999","-9999.00","-9999.00","Snow","snow","0","0","1","0","0","0","METAR UKKK 262200Z 00000MPS 1200 R08/P2000D SN BR BKN004 OVC024 00/00 Q1028 R08/290256 TEMPO 0700 +SHSN BKN002 BKN015CB"
"1:30 AM EEST on October 27, 2016","2016","10","27","01","30","Europe/Kiev","10:30 PM GMT on October 26, 2016","2016","10","26","22","30","UTC","0.0","32.0","0.0","32.0","100","0.0","0.0","-9999.0","-9999.0","0","North","1.3","0.8","1028","30.36","-999","-999","-9999","-9999","-9999.00","-9999.00","Light Snow","snow","0","0","1","0","0","0","METAR UKKK 262230Z 00000MPS 1300 R08/P2000D -SN BR BKN006 OVC024 00/00 Q1028 RESN R08/290256 TEMPO 0700 +SHSN BKN002 BKN015CB"
"2:00 AM EEST on October 27, 2016","2016","10","27","02","00","Europe/Kiev","11:00 PM GMT on October 26, 2016","2016","10","26","23","00","UTC","0.0","32.0","0.0","32.0","100","0.0","0.0","-9999.0","-9999.0","0","North","1.7","1.1","1028","30.36","-999","-999","-9999","-9999","-9999.00","-9999.00","Overcast","cloudy","0","0","0","0","0","0","METAR UKKK 262300Z 00000MPS 1700 BR BKN007 OVC024 00/00 Q1028 R08/290256 TEMPO 1000 -SHSN BR BKN004 SCT015CB"
"2:30 AM EEST on October 27, 2016","2016","10","27","02","30","Europe/Kiev","11:30 PM GMT on October 26, 2016","2016","10","26","23","30","UTC","0.0","32.0","0.0","32.0","100","3.6","2.2","-9999.0","-9999.0","60","ENE","1.7","1.1","1028","30.36","-999","-999","-9999","-9999","-9999.00","-9999.00","Overcast","cloudy","0","0","0","0","0","0","METAR UKKK 262330Z 06001MPS 1700 BR BKN007 OVC033 00/00 Q1028 R08/290256 TEMPO 1000 -SHSN BR BKN004 SCT015CB"
"3:00 AM EEST on October 27, 2016","2016","10","27","03","00","Europe/Kiev","12:00 AM GMT on October 27, 2016","2016","10","27","00","00","UTC","0","33","0","32","95","0.0","0.0","","","","","1","1","1030","30.41","-999","-999","-9999","-9999","","","Mist","hazy","0","0","0","0","0","0","AAXX 27001 33345 /1694 80000 10004 20001 30084 40296 51001 71072 885// 333 88633 555 1/100 60021"
"3:00 AM EEST on October 27, 2016","2016","10","27","03","00","Europe/Kiev","12:00 AM GMT on October 27, 2016","2016","10","27","00","00","UTC","0.0","32.0","0.0","32.0","100","0.0","0.0","-9999.0","-9999.0","0","North","2.0","1.2","1028","30.36","-999","-999","-9999","-9999","-9999.00","-9999.00","Overcast","cloudy","0","0","0","0","0","0","METAR UKKK 270000Z 00000MPS 2000 BR OVC040 00/00 Q1028 R08/290256 TEMPO 1400 -SHSN BR BKN004 SCT015CB"
"3:30 AM EEST on October 27, 2016","2016","10","27","03","30","Europe/Kiev","12:30 AM GMT on October 27, 2016","2016","10","27","00","30","UTC","0.0","32.0","0.0","32.0","100","0.0","0.0","-9999.0","-9999.0","0","North","2.0","1.2","1028","30.36","-999","-999","-9999","-9999","-9999.00","-9999.00","Overcast","cloudy","0","0","0","0","0","0","METAR UKKK 270030Z 00000MPS 2000 BR OVC044 00/00 Q1028 R08/290256 TEMPO 1400 -SHSN BR BKN004 SCT015CB"
"4:00 AM EEST on October 27, 2016","2016","10","27","04","00","Europe/Kiev","1:00 AM GMT on October 27, 2016","2016","10","27","01","00","UTC","0.0","32.0","0.0","32.0","100","3.6","2.2","-9999.0","-9999.0","100","East","2.3","1.4","1028","30.36","-999","-999","-9999","-9999","-9999.00","-9999.00","Overcast","cloudy","0","0","0","0","0","0","METAR UKKK 270100Z 10001MPS 2300 BR OVC036 00/00 Q1028 R08/290256 TEMPO 1400 -SHSN BR BKN004 SCT015CB"
"4:30 AM EEST on October 27, 2016","2016","10","27","04","30","Europe/Kiev","1:30 AM GMT on October 27, 2016","2016","10","27","01","30","UTC","1.0","33.8","0.0","32.0","93","3.6","2.2","-9999.0","-9999.0","110","ESE","2.9","1.8","1028","30.36","-999","-999","-9999","-9999","-9999.00","-9999.00","Overcast","cloudy","0","0","0","0","0","0","METAR UKKK 270130Z 11001MPS 2900 BR OVC036 01/00 Q1028 R08/290256 TEMPO 1000 -SHSN BR BKN004 SCT015CB"
"4:56 AM EEST on October 27, 2016","2016","10","27","04","56","Europe/Kiev","1:56 AM GMT on October 27, 2016","2016","10","27","01","56","UTC","1.0","33.8","0.0","32.0","93","0.0","0.0","-9999.0","-9999.0","0","North","1.4","0.9","1028","30.36","-999","-999","-9999","-9999","-9999.00","-9999.00","Mostly Cloudy","mostlycloudy","0","0","0","0","0","0","SPECI UKKK 270156Z 00000MPS 1400 R08/1700VP2000D BR BKN011 01/00 Q1028 R08/290256 TEMPO 1000 -SHSN BR BKN004 SCT015CB"
"5:00 AM EEST on October 27, 2016","2016","10","27","05","00","Europe/Kiev","2:00 AM GMT on October 27, 2016","2016","10","27","02","00","UTC","0.0","32.0","0.0","32.0","100","0.0","0.0","-9999.0","-9999.0","0","North","1.4","0.9","1028","30.36","-999","-999","-9999","-9999","-9999.00","-9999.00","Mostly Cloudy","mostlycloudy","0","0","0","0","0","0","METAR UKKK 270200Z 00000MPS 1400 R08/P2000N BR BKN012 00/00 Q1028 R08/290256 TEMPO 0400 FG VV001"
"5:30 AM EEST on October 27, 2016","2016","10","27","05","30","Europe/Kiev","2:30 AM GMT on October 27, 2016","2016","10","27","02","30","UTC","1.0","33.8","1.0","33.8","100","0.0","0.0","-9999.0","-9999.0","0","North","2.0","1.2","1028","30.36","-999","-999","-9999","-9999","-9999.00","-9999.00","Mostly Cloudy","mostlycloudy","0","0","0","0","0","0","METAR UKKK 270230Z 00000MPS 2000 BR BKN010 01/01 Q1028 R08/290256 TEMPO 0400 FG VV001"
"5:44 AM EEST on October 27, 2016","2016","10","27","05","44","Europe/Kiev","2:44 AM GMT on October 27, 2016","2016","10","27","02","44","UTC","1.0","33.8","1.0","33.8","100","0.0","0.0","-9999.0","-9999.0","0","North","1.3","0.8","1029","30.39","-999","-999","-9999","-9999","-9999.00","-9999.00","Mostly Cloudy","mostlycloudy","0","0","0","0","0","0","SPECI UKKK 270244Z 00000MPS 1300 R08/1700VP2000D BR BKN010 01/01 Q1029 R08/290256 TEMPO 0400 FG VV001"
"6:00 AM EEST on October 27, 2016","2016","10","27","06","00","Europe/Kiev","3:00 AM GMT on October 27, 2016","2016","10","27","03","00","UTC","0","33","-0","32","93","0.0","0.0","","","","","1","1","1030","30.42","-999","-999","-9999","-9999","","","Mist","hazy","0","0","0","0","0","0","AAXX 27031 33345 41494 80000 10005 21001 30088 40300 53004 71022 886// 333 88712 555 1/100"
"6:00 AM EEST on October 27, 2016","2016","10","27","06","00","Europe/Kiev","3:00 AM GMT on October 27, 2016","2016","10","27","03","00","UTC","1.0","33.8","1.0","33.8","100","0.0","0.0","-9999.0","-9999.0","0","North","1.8","1.1","1029","30.39","-999","-999","-9999","-9999","-9999.00","-9999.00","Mostly Cloudy","mostlycloudy","0","0","0","0","0","0","METAR UKKK 270300Z 00000MPS 1800 BR BKN009 01/01 Q1029 R08/290256 TEMPO 0400 FG VV001"
"6:15 AM EEST on October 27, 2016","2016","10","27","06","15","Europe/Kiev","3:15 AM GMT on October 27, 2016","2016","10","27","03","15","UTC","1.0","33.8","1.0","33.8","100","0.0","0.0","-9999.0","-9999.0","0","North","1.4","0.9","1029","30.39","-999","-999","-9999","-9999","-9999.00","-9999.00","Mostly Cloudy","mostlycloudy","0","0","0","0","0","0","SPECI UKKK 270315Z 00000MPS 1400 R08/1500VP2000U BR BKN009 01/01 Q1029 R08/290256 TEMPO 0400 FG VV001"
"6:30 AM EEST on October 27, 2016","2016","10","27","06","30","Europe/Kiev","3:30 AM GMT on October 27, 2016","2016","10","27","03","30","UTC","1.0","33.8","1.0","33.8","100","0.0","0.0","-9999.0","-9999.0","0","North","2.0","1.2","1029","30.39","-999","-999","-9999","-9999","-9999.00","-9999.00","Mostly Cloudy","mostlycloudy","0","0","0","0","0","0","METAR UKKK 270330Z 00000MPS 2000 BR BKN008 01/01 Q1029 R08/290256 TEMPO 0400 FG VV001"
"6:47 AM EEST on October 27, 2016","2016","10","27","06","47","Europe/Kiev","3:47 AM GMT on October 27, 2016","2016","10","27","03","47","UTC","1.0","33.8","1.0","33.8","100","0.0","0.0","-9999.0","-9999.0","0","North","1.9","1.2","1029","30.39","-999","-999","-9999","-9999","-9999.00","-9999.00","Mostly Cloudy","mostlycloudy","0","0","0","0","0","0","SPECI UKKK 270347Z 00000MPS 1900 BR BKN004 01/01 Q1029 R08/290256 TEMPO 0400 FG VV001"
"7:00 AM EEST on October 27, 2016","2016","10","27","07","00","Europe/Kiev","4:00 AM GMT on October 27, 2016","2016","10","27","04","00","UTC","1.0","33.8","1.0","33.8","100","0.0","0.0","-9999.0","-9999.0","0","North","2.1","1.3","1029","30.39","-999","-999","-9999","-9999","-9999.00","-9999.00","Mostly Cloudy","mostlycloudy","0","0","0","0","0","0","METAR UKKK 270400Z 00000MPS 2100 BR BKN007 01/01 Q1029 R08/290256 TEMPO 1500 BR OVC004"
"7:30 AM EEST on October 27, 2016","2016","10","27","07","30","Europe/Kiev","4:30 AM GMT on October 27, 2016","2016","10","27","04","30","UTC","1.0","33.8","1.0","33.8","100","0.0","0.0","-9999.0","-9999.0","0","North","-9999.0","-9999.0","1029","30.39","-999","-999","-9999","-9999","-9999.00","-9999.00","Overcast","cloudy","0","0","0","0","0","0","METAR UKKK 270430Z 00000MPS 3200 BR OVC007 01/01 Q1029 R08/290256 TEMPO 1500 BR OVC004"
"8:00 AM EEST on October 27, 2016","2016","10","27","08","00","Europe/Kiev","5:00 AM GMT on October 27, 2016","2016","10","27","05","00","UTC","1.0","33.8","1.0","33.8","100","0.0","0.0","-9999.0","-9999.0","0","North","2.8","1.7","1029","30.39","-999","-999","-9999","-9999","-9999.00","-9999.00","Overcast","cloudy","0","0","0","0","0","0","METAR UKKK 270500Z 00000MPS 2800 BR OVC006 01/01 Q1029 R26/290158 TEMPO 1500 BR OVC004"
"8:30 AM EEST on October 27, 2016","2016","10","27","08","30","Europe/Kiev","5:30 AM GMT on October 27, 2016","2016","10","27","05","30","UTC","1.0","33.8","1.0","33.8","100","0.0","0.0","-9999.0","-9999.0","0","North","-9999.0","-9999.0","1030","30.42","-999","-999","-9999","-9999","-9999.00","-9999.00","Overcast","cloudy","0","0","0","0","0","0","METAR UKKK 270530Z 00000MPS 3100 BR OVC006 01/01 Q1030 R26/290158 TEMPO 1500 BR OVC004"
"9:00 AM EEST on October 27, 2016","2016","10","27","09","00","Europe/Kiev","6:00 AM GMT on October 27, 2016","2016","10","27","06","00","UTC","1","34","1","34","99","0.0","0.0","","","","","0.5","0","1031","30.45","-999","-999","-9999","-9999","","","Heavy Fog","fog","1","0","0","0","0","0","AAXX 27061 33345 11/93 90000 10010 20010 30100 40312 52012 60022 74742 333 20002 43003 555 1/100 52100"
"9:00 AM EEST on October 27, 2016","2016","10","27","09","00","Europe/Kiev","6:00 AM GMT on October 27, 2016","2016","10","27","06","00","UTC","1.0","33.8","1.0","33.8","100","0.0","0.0","-9999.0","-9999.0","0","North","2.6","1.6","1030","30.42","-999","-999","-9999","-9999","-9999.00","-9999.00","Overcast","cloudy","0","0","0","0","0","0","METAR UKKK 270600Z 00000MPS 2600 BR OVC005 01/01 Q1030 R26/290158 TEMPO 1500 BR OVC004"
"9:19 AM EEST on October 27, 2016","2016","10","27","09","19","Europe/Kiev","6:19 AM GMT on October 27, 2016","2016","10","27","06","19","UTC","1.0","33.8","1.0","33.8","100","0.0","0.0","-9999.0","-9999.0","0","North","2.3","1.4","1030","30.42","-999","-999","-9999","-9999","-9999.00","-9999.00","Overcast","cloudy","0","0","0","0","0","0","SPECI UKKK 270619Z 00000MPS 2300 BR OVC004 01/01 Q1030 R26/290158 TEMPO 1500 BR OVC003"
"9:30 AM EEST on October 27, 2016","2016","10","27","09","30","Europe/Kiev","6:30 AM GMT on October 27, 2016","2016","10","27","06","30","UTC","2.0","35.6","1.0","33.8","93","3.6","2.2","-9999.0","-9999.0","220","SW","2.6","1.6","1030","30.42","-999","-999","-9999","-9999","-9999.00","-9999.00","Overcast","cloudy","0","0","0","0","0","0","METAR UKKK 270630Z 22001MPS 2600 BR OVC005 02/01 Q1030 R26/290158 TEMPO 1500 BR OVC003"
"9:40 AM EEST on October 27, 2016","2016","10","27","09","40","Europe/Kiev","6:40 AM GMT on October 27, 2016","2016","10","27","06","40","UTC","2.0","35.6","1.0","33.8","93","0.0","0.0","-9999.0","-9999.0","0","North","2.0","1.2","1030","30.42","-999","-999","-9999","-9999","-9999.00","-9999.00","Overcast","cloudy","0","0","0","0","0","0","SPECI UKKK 270640Z 00000MPS 2000 BR OVC004 02/01 Q1030 R26/290158 TEMPO 1500 BR OVC003"
"10:00 AM EEST on October 27, 2016","2016","10","27","10","00","Europe/Kiev","7:00 AM GMT on October 27, 2016","2016","10","27","07","00","UTC","2.0","35.6","1.0","33.8","93","0.0","0.0","-9999.0","-9999.0","0","North","2.3","1.4","1030","30.42","-999","-999","-9999","-9999","-9999.00","-9999.00","Overcast","cloudy","0","0","0","0","0","0","METAR UKKK 270700Z 00000MPS 2300 BR OVC003 02/01 Q1030 R26/290158 TEMPO 1000 BR OVC002"
"10:30 AM EEST on October 27, 2016","2016","10","27","10","30","Europe/Kiev","7:30 AM GMT on October 27, 2016","2016","10","27","07","30","UTC","2.0","35.6","1.0","33.8","93","3.6","2.2","-9999.0","-9999.0","280","West","1.8","1.1","1030","30.42","-999","-999","-9999","-9999","-9999.00","-9999.00","Light Drizzle","rain","0","0","0","0","0","0","METAR UKKK 270730Z 28001MPS 1800 -DZ BR OVC004 02/01 Q1030 R26/290158 TEMPO 1000 BR OVC002"
"10:52 AM EEST on October 27, 2016","2016","10","27","10","52","Europe/Kiev","7:52 AM GMT on October 27, 2016","2016","10","27","07","52","UTC","2.0","35.6","1.0","33.8","93","3.6","2.2","-9999.0","-9999.0","280","West","1.4","0.9","1031","30.45","-999","-999","-9999","-9999","-9999.00","-9999.00","Overcast","cloudy","0","0","0","0","0","0","SPECI UKKK 270752Z 28001MPS 1400 R26/1500D BR BKN003 OVC011 02/01 Q1031 R26/290158 TEMPO 1000 BR OVC002"
"11:00 AM EEST on October 27, 2016","2016","10","27","11","00","Europe/Kiev","8:00 AM GMT on October 27, 2016","2016","10","27","08","00","UTC","2.0","35.6","1.0","33.8","93","3.6","2.2","-9999.0","-9999.0","280","West","1.5","0.9","1031","30.45","-999","-999","-9999","-9999","-9999.00","-9999.00","Overcast","cloudy","0","0","0","0","0","0","METAR UKKK 270800Z 28001MPS 1500 BR BKN003 OVC012 02/01 Q1031 R26/290158 BECMG 0300 FG VV001"
"11:03 AM EEST on October 27, 2016","2016","10","27","11","03","Europe/Kiev","8:03 AM GMT on October 27, 2016","2016","10","27","08","03","UTC","2.0","35.6","1.0","33.8","93","3.6","2.2","-9999.0","-9999.0","290","WNW","1.4","0.9","1031","30.45","-999","-999","-9999","-9999","-9999.00","-9999.00","Overcast","cloudy","0","0","0","0","0","0","SPECI UKKK 270803Z 29001MPS 1400 R26/1400N BR BKN003 OVC012 02/01 Q1031 R26/290158 BECMG 0300 FG VV001"
"11:30 AM EEST on October 27, 2016","2016","10","27","11","30","Europe/Kiev","8:30 AM GMT on October 27, 2016","2016","10","27","08","30","UTC","2.0","35.6","2.0","35.6","100","7.2","4.5","-9999.0","-9999.0","300","WNW","1.0","0.6","1031","30.45","-0.1","31.8","-9999","-9999","-9999.00","-9999.00","Overcast","cloudy","0","0","0","0","0","0","METAR UKKK 270830Z 30002MPS 1000 R26/1000N BR SCT003 OVC014 02/02 Q1031 R26/290158 BECMG 0300 FG VV001"
"12:00 PM EEST on October 27, 2016","2016","10","27","12","00","Europe/Kiev","9:00 AM GMT on October 27, 2016","2016","10","27","09","00","UTC","3","37","2","36","94","0.0","0.0","","","","","1","1","1032","30.48","-999","-999","-9999","-9999","","","Mist","hazy","0","0","0","0","0","0","AAXX 27091 33345 41494 80000 10030 20022 30111 40322 52011 71042 885// 333 88614 555 11004"
"12:00 PM EEST on October 27, 2016","2016","10","27","12","00","Europe/Kiev","9:00 AM GMT on October 27, 2016","2016","10","27","09","00","UTC","2.0","35.6","2.0","35.6","100","7.2","4.5","-9999.0","-9999.0","300","WNW","2.1","1.3","1031","30.45","-0.1","31.8","-9999","-9999","-9999.00","-9999.00","Overcast","cloudy","0","0","0","0","0","0","METAR UKKK 270900Z 30002MPS 2100 BR FEW004 OVC015 02/02 Q1031 R26/290158 TEMPO 1500 BR OVC003"
"12:30 PM EEST on October 27, 2016","2016","10","27","12","30","Europe/Kiev","9:30 AM GMT on October 27, 2016","2016","10","27","09","30","UTC","3.0","37.4","2.0","35.6","93","7.2","4.5","-9999.0","-9999.0","270","West","2.5","1.6","1031","30.45","1.0","33.9","-9999","-9999","-9999.00","-9999.00","Overcast","cloudy","0","0","0","0","0","0","METAR UKKK 270930Z 27002MPS 2500 BR FEW004 OVC015 03/02 Q1031 R26/290158 TEMPO 1500 BR OVC003"
"1:00 PM EEST on October 27, 2016","2016","10","27","13","00","Europe/Kiev","10:00 AM GMT on October 27, 2016","2016","10","27","10","00","UTC","3.0","37.4","2.0","35.6","93","3.6","2.2","-9999.0","-9999.0","310","NW","2.1","1.3","1031","30.45","-999","-999","-9999","-9999","-9999.00","-9999.00","Overcast","cloudy","0","0","0","0","0","0","METAR UKKK 271000Z 31001MPS 2100 BR FEW005 OVC015 03/02 Q1031 R26/290158 TEMPO 1500 BR OVC003"
"1:30 PM EEST on October 27, 2016","2016","10","27","13","30","Europe/Kiev","10:30 AM GMT on October 27, 2016","2016","10","27","10","30","UTC","3.0","37.4","2.0","35.6","93","3.6","2.2","-9999.0","-9999.0","0","Variable","1.8","1.1","1031","30.45","-999","-999","-9999","-9999","-9999.00","-9999.00","Overcast","cloudy","0","0","0","0","0","0","METAR UKKK 271030Z VRB01MPS 1800 BR SCT005 OVC010 03/02 Q1031 R26/250058 TEMPO 1500 BR OVC003"
"2:00 PM EEST on October 27, 2016","2016","10","27","14","00","Europe/Kiev","11:00 AM GMT on October 27, 2016","2016","10","27","11","00","UTC","3.0","37.4","2.0","35.6","93","7.2","4.5","-9999.0","-9999.0","320","NW","2.0","1.2","1031","30.45","1.0","33.9","-9999","-9999","-9999.00","-9999.00","Overcast","cloudy","0","0","0","0","0","0","METAR UKKK 271100Z 32002MPS 2000 BR SCT004 OVC008 03/02 Q1031 R26/250058 TEMPO 1500 BR OVC002"
"2:30 PM EEST on October 27, 2016","2016","10","27","14","30","Europe/Kiev","11:30 AM GMT on October 27, 2016","2016","10","27","11","30","UTC","3.0","37.4","2.0","35.6","93","10.8","6.7","-9999.0","-9999.0","330","NNW","1.5","0.9","1031","30.45","0.1","32.2","-9999","-9999","-9999.00","-9999.00","Overcast","cloudy","0","0","0","0","0","0","METAR UKKK 271130Z 33003MPS 1500 BR SCT004 OVC007 03/02 Q1031 R26/250058 TEMPO 1000 BR OVC002"
"2:38 PM EEST on October 27, 2016","2016","10","27","14","38","Europe/Kiev","11:38 AM GMT on October 27, 2016","2016","10","27","11","38","UTC","3.0","37.4","2.0","35.6","93","7.2","4.5","-9999.0","-9999.0","330","NNW","1.4","0.9","1031","30.45","1.0","33.9","-9999","-9999","-9999.00","-9999.00","Overcast","cloudy","0","0","0","0","0","0","SPECI UKKK 271138Z 33002MPS 1400 R26/1500N BR BKN003 OVC007 03/02 Q1031 R26/250058 TEMPO 1000 BR OVC002"
"3:00 PM EEST on October 27, 2016","2016","10","27","15","00","Europe/Kiev","12:00 PM GMT on October 27, 2016","2016","10","27","12","00","UTC","3","38","2","35","84","3.6","2.2","","","350","North","4","2","1033","30.50","-999","-999","-9999","-9999","","","Mist","hazy","0","0","0","0","0","0","AAXX 27121 33345 31496 83501 10032 20016 30116 40327 52005 71042 885// 333 88615 555 11004"
"3:00 PM EEST on October 27, 2016","2016","10","27","15","00","Europe/Kiev","12:00 PM GMT on October 27, 2016","2016","10","27","12","00","UTC","3.0","37.4","2.0","35.6","93","7.2","4.5","-9999.0","-9999.0","320","NW","1.3","0.8","1032","30.48","1.0","33.9","-9999","-9999","-9999.00","-9999.00","Overcast","cloudy","0","0","0","0","0","0","METAR UKKK 271200Z 32002MPS 1300 R26/1300U BR OVC003 03/02 Q1032 R26/250058 TEMPO 1000 BR OVC002"
"3:30 PM EEST on October 27, 2016","2016","10","27","15","30","Europe/Kiev","12:30 PM GMT on October 27, 2016","2016","10","27","12","30","UTC","3.0","37.4","2.0","35.6","93","7.2","4.5","-9999.0","-9999.0","330","NNW","1.6","1.0","1032","30.48","1.0","33.9","-9999","-9999","-9999.00","-9999.00","Overcast","cloudy","0","0","0","0","0","0","METAR UKKK 271230Z 33002MPS 280V010 1600 BR OVC004 03/02 Q1032 R26/250058 TEMPO 1000 BR OVC002"
"4:00 PM EEST on October 27, 2016","2016","10","27","16","00","Europe/Kiev","1:00 PM GMT on October 27, 2016","2016","10","27","13","00","UTC","3.0","37.4","2.0","35.6","93","3.6","2.2","-9999.0","-9999.0","0","Variable","2.0","1.2","1032","30.48","-999","-999","-9999","-9999","-9999.00","-9999.00","Overcast","cloudy","0","0","0","0","0","0","METAR UKKK 271300Z VRB01MPS 2000 BR OVC005 03/02 Q1032 R26/250058 TEMPO 1300 BR OVC003"
"4:30 PM EEST on October 27, 2016","2016","10","27","16","30","Europe/Kiev","1:30 PM GMT on October 27, 2016","2016","10","27","13","30","UTC","3.0","37.4","2.0","35.6","93","3.6","2.2","-9999.0","-9999.0","10","North","2.2","1.4","1032","30.48","-999","-999","-9999","-9999","-9999.00","-9999.00","Overcast","cloudy","0","0","0","0","0","0","METAR UKKK 271330Z 01001MPS 2200 BR OVC006 03/02 Q1032 R26/250058 TEMPO 1300 BR OVC003"
"5:00 PM EEST on October 27, 2016","2016","10","27","17","00","Europe/Kiev","2:00 PM GMT on October 27, 2016","2016","10","27","14","00","UTC","3.0","37.4","2.0","35.6","93","3.6","2.2","-9999.0","-9999.0","0","Variable","2.6","1.6","1032","30.48","-999","-999","-9999","-9999","-9999.00","-9999.00","Overcast","cloudy","0","0","0","0","0","0","METAR UKKK 271400Z VRB01MPS 2600 BR SCT007 OVC011 03/02 Q1032 R26/250058 TEMPO 1300 BR OVC003"
"5:30 PM EEST on October 27, 2016","2016","10","27","17","30","Europe/Kiev","2:30 PM GMT on October 27, 2016","2016","10","27","14","30","UTC","3.0","37.4","2.0","35.6","93","7.2","4.5","-9999.0","-9999.0","340","NNW","2.9","1.8","1032","30.48","1.0","33.9","-9999","-9999","-9999.00","-9999.00","Overcast","cloudy","0","0","0","0","0","0","METAR UKKK 271430Z 34002MPS 290V010 2900 BR OVC008 03/02 Q1032 R26/250058 NOSIG"
"6:00 PM EEST on October 27, 2016","2016","10","27","18","00","Europe/Kiev","3:00 PM GMT on October 27, 2016","2016","10","27","15","00","UTC","3","37","2","35","90","3.6","2.2","","","70","ENE","1","1","1034","30.53","-999","-999","-9999","-9999","","","Mist","hazy","0","0","0","0","0","0","AAXX 27151 33345 41394 80701 10030 20017 30125 40336 52009 71022 886// 333 88709 555 11003"
"6:00 PM EEST on October 27, 2016","2016","10","27","18","00","Europe/Kiev","3:00 PM GMT on October 27, 2016","2016","10","27","15","00","UTC","3.0","37.4","2.0","35.6","93","7.2","4.5","-9999.0","-9999.0","320","NW","2.8","1.7","1032","30.48","1.0","33.9","-9999","-9999","-9999.00","-9999.00","Overcast","cloudy","0","0","0","0","0","0","METAR UKKK 271500Z 32002MPS 2800 BR OVC008 03/02 Q1032 R26/220058 NOSIG"
"6:30 PM EEST on October 27, 2016","2016","10","27","18","30","Europe/Kiev","3:30 PM GMT on October 27, 2016","2016","10","27","15","30","UTC","3.0","37.4","2.0","35.6","93","7.2","4.5","-9999.0","-9999.0","330","NNW","3.5","2.2","1033","30.51","1.0","33.9","-9999","-9999","-9999.00","-9999.00","Overcast","cloudy","0","0","0","0","0","0","METAR UKKK 271530Z 33002MPS 3500 BR OVC011 03/02 Q1033 R26/220058 NOSIG"
"7:00 PM EEST on October 27, 2016","2016","10","27","19","00","Europe/Kiev","4:00 PM GMT on October 27, 2016","2016","10","27","16","00","UTC","3.0","37.4","2.0","35.6","93","7.2","4.5","-9999.0","-9999.0","330","NNW","-9999.0","-9999.0","1033","30.51","1.0","33.9","-9999","-9999","-9999.00","-9999.00","Overcast","cloudy","0","0","0","0","0","0","METAR UKKK 271600Z 33002MPS 3700 BR OVC007 03/02 Q1033 R26/220058 NOSIG"
"7:30 PM EEST on October 27, 2016","2016","10","27","19","30","Europe/Kiev","4:30 PM GMT on October 27, 2016","2016","10","27","16","30","UTC","3.0","37.4","2.0","35.6","93","3.6","2.2","-9999.0","-9999.0","0","Variable","-9999.0","-9999.0","1033","30.51","-999","-999","-9999","-9999","-9999.00","-9999.00","Overcast","cloudy","0","0","0","0","0","0","METAR UKKK 271630Z VRB01MPS 4200 BR OVC008 03/02 Q1033 R26/150060 NOSIG"
"8:00 PM EEST on October 27, 2016","2016","10","27","20","00","Europe/Kiev","5:00 PM GMT on October 27, 2016","2016","10","27","17","00","UTC","3.0","37.4","2.0","35.6","93","7.2","4.5","-9999.0","-9999.0","10","North","-9999.0","-9999.0","1033","30.51","1.0","33.9","-9999","-9999","-9999.00","-9999.00","Overcast","cloudy","0","0","0","0","0","0","METAR UKKK 271700Z 01002MPS 330V050 4200 BR OVC007 03/02 Q1033 R26/150060 NOSIG"
"8:30 PM EEST on October 27, 2016","2016","10","27","20","30","Europe/Kiev","5:30 PM GMT on October 27, 2016","2016","10","27","17","30","UTC","3.0","37.4","2.0","35.6","93","3.6","2.2","-9999.0","-9999.0","0","Variable","-9999.0","-9999.0","1033","30.51","-999","-999","-9999","-9999","-9999.00","-9999.00","Overcast","cloudy","0","0","0","0","0","0","METAR UKKK 271730Z VRB01MPS 4100 BR OVC007 03/02 Q1033 R26/150060 NOSIG"
"9:00 PM EEST on October 27, 2016","2016","10","27","21","00","Europe/Kiev","6:00 PM GMT on October 27, 2016","2016","10","27","18","00","UTC","3","37","2","35","88","3.6","2.2","","","70","ENE","4","2","1034","30.55","-999","-999","-9999","-9999","","","Mist","hazy","0","0","0","0","0","0","AAXX 27181 33345 31496 80701 10028 20015 30133 40344 52008 71022 886// 333 10034 88711 555 11003"
"9:00 PM EEST on October 27, 2016","2016","10","27","21","00","Europe/Kiev","6:00 PM GMT on October 27, 2016","2016","10","27","18","00","UTC","3.0","37.4","2.0","35.6","93","3.6","2.2","-9999.0","-9999.0","0","Variable","-9999.0","-9999.0","1033","30.51","-999","-999","-9999","-9999","-9999.00","-9999.00","Overcast","cloudy","0","0","0","0","0","0","METAR UKKK 271800Z VRB01MPS 3400 BR OVC006 03/02 Q1033 R26/120060 NOSIG"
"9:30 PM EEST on October 27, 2016","2016","10","27","21","30","Europe/Kiev","6:30 PM GMT on October 27, 2016","2016","10","27","18","30","UTC","3.0","37.4","2.0","35.6","93","7.2","4.5","-9999.0","-9999.0","40","NE","-9999.0","-9999.0","1034","30.54","1.0","33.9","-9999","-9999","-9999.00","-9999.00","Overcast","cloudy","0","0","0","0","0","0","METAR UKKK 271830Z 04002MPS 3200 BR OVC006 03/02 Q1034 R26/120060 NOSIG"
"10:00 PM EEST on October 27, 2016","2016","10","27","22","00","Europe/Kiev","7:00 PM GMT on October 27, 2016","2016","10","27","19","00","UTC","3.0","37.4","2.0","35.6","93","7.2","4.5","-9999.0","-9999.0","10","North","-9999.0","-9999.0","1034","30.54","1.0","33.9","-9999","-9999","-9999.00","-9999.00","Overcast","cloudy","0","0","0","0","0","0","METAR UKKK 271900Z 01002MPS 3700 BR OVC005 03/02 Q1034 R26/120060 TEMPO 1000 BR OVC003"
"10:30 PM EEST on October 27, 2016","2016","10","27","22","30","Europe/Kiev","7:30 PM GMT on October 27, 2016","2016","10","27","19","30","UTC","3.0","37.4","2.0","35.6","93","7.2","4.5","-9999.0","-9999.0","10","North","4.0","2.5","1034","30.54","1.0","33.9","-9999","-9999","-9999.00","-9999.00","Overcast","cloudy","0","0","0","0","0","0","METAR UKKK 271930Z 01002MPS 340V060 4000 BR OVC005 03/02 Q1034 R26/120060 TEMPO 1000 BR OVC003"
"10:57 PM EEST on October 27, 2016","2016","10","27","22","57","Europe/Kiev","7:57 PM GMT on October 27, 2016","2016","10","27","19","57","UTC","3.0","37.4","2.0","35.6","93","3.6","2.2","-9999.0","-9999.0","50","NE","-9999.0","-9999.0","1034","30.54","-999","-999","-9999","-9999","-9999.00","-9999.00","Overcast","cloudy","0","0","0","0","0","0","SPECI UKKK 271957Z 05001MPS 4200 BR OVC004 03/02 Q1034 R08/120060 TEMPO 1000 BR OVC003"
"11:00 PM EEST on October 27, 2016","2016","10","27","23","00","Europe/Kiev","8:00 PM GMT on October 27, 2016","2016","10","27","20","00","UTC","3.0","37.4","2.0","35.6","93","3.6","2.2","-9999.0","-9999.0","0","Variable","-9999.0","-9999.0","1034","30.54","-999","-999","-9999","-9999","-9999.00","-9999.00","Overcast","cloudy","0","0","0","0","0","0","METAR UKKK 272000Z VRB01MPS 4100 BR OVC004 03/02 Q1034 R08/120060 TEMPO 1000 BR OVC003"
"11:17 PM EEST on October 27, 2016","2016","10","27","23","17","Europe/Kiev","8:17 PM GMT on October 27, 2016","2016","10","27","20","17","UTC","3.0","37.4","2.0","35.6","93","3.6","2.2","-9999.0","-9999.0","10","North","-9999.0","-9999.0","1034","30.54","-999","-999","-9999","-9999","-9999.00","-9999.00","Overcast","cloudy","0","0","0","0","0","0","SPECI UKKK 272017Z 01001MPS 3900 BR OVC005 03/02 Q1034 R08/120060 TEMPO 1000 BR OVC003"
"11:26 PM EEST on October 27, 2016","2016","10","27","23","26","Europe/Kiev","8:26 PM GMT on October 27, 2016","2016","10","27","20","26","UTC","3.0","37.4","2.0","35.6","93","0.0","0.0","-9999.0","-9999.0","0","North","4.0","2.5","1034","30.54","-999","-999","-9999","-9999","-9999.00","-9999.00","Overcast","cloudy","0","0","0","0","0","0","SPECI UKKK 272026Z 00000MPS 4000 BR OVC004 03/02 Q1034 R08/120060 TEMPO 1000 BR OVC003"
"11:30 PM EEST on October 27, 2016","2016","10","27","23","30","Europe/Kiev","8:30 PM GMT on October 27, 2016","2016","10","27","20","30","UTC","3.0","37.4","2.0","35.6","93","3.6","2.2","-9999.0","-9999.0","0","Variable","4.0","2.5","1034","30.54","-999","-999","-9999","-9999","-9999.00","-9999.00","Overcast","cloudy","0","0","0","0","0","0","METAR UKKK 272030Z VRB01MPS 4000 BR OVC005 03/02 Q1034 R08/120060 TEMPO 1000 BR OVC003"
"11:31 PM EEST on October 27, 2016","2016","10","27","23","31","Europe/Kiev","8:31 PM GMT on October 27, 2016","2016","10","27","20","31","UTC","3.0","37.4","2.0","35.6","93","3.6","2.2","-9999.0","-9999.0","0","Variable","-9999.0","-9999.0","1034","30.54","-999","-999","-9999","-9999","-9999.00","-9999.00","Overcast","cloudy","0","0","0","0","0","0","SPECI UKKK 272031Z VRB01MPS 3900 BR OVC004 03/02 Q1034 R08/120060 TEMPO 1000 BR OVC003"
"12:00 AM EEST on October 28, 2016","2016","10","28","00","00","Europe/Kiev","9:00 PM GMT on October 27, 2016","2016","10","27","21","00","UTC","2","36","2","35","93","3.6","2.2","","","30","NNE","4","2","1035","30.58","-999","-999","-9999","-9999","","","Mist","hazy","0","0","0","0","0","0","AAXX 27211 33345 41496 80301 10025 20015 30141 40353 52008 71022 886// 333 88711 555 11003"
"12:00 AM EEST on October 28, 2016","2016","10","28","00","00","Europe/Kiev","9:00 PM GMT on October 27, 2016","2016","10","27","21","00","UTC","3.0","37.4","2.0","35.6","93","0.0","0.0","-9999.0","-9999.0","0","North","-9999.0","-9999.0","1034","30.54","-999","-999","-9999","-9999","-9999.00","-9999.00","Overcast","cloudy","0","0","0","0","0","0","METAR UKKK 272100Z 00000MPS 3600 BR OVC005 03/02 Q1034 R08/120060 TEMPO 1000 BR OVC003"
"12:30 AM EEST on October 28, 2016","2016","10","28","00","30","Europe/Kiev","9:30 PM GMT on October 27, 2016","2016","10","27","21","30","UTC","3.0","37.4","2.0","35.6","93","3.6","2.2","-9999.0","-9999.0","0","Variable","4.0","2.5","1034","30.54","-999","-999","-9999","-9999","-9999.00","-9999.00","Overcast","cloudy","0","0","0","0","0","0","METAR UKKK 272130Z VRB01MPS 4000 BR OVC006 03/02 Q1034 R08/120060 TEMPO 1000 BR OVC003"
"1:00 AM EEST on October 28, 2016","2016","10","28","01","00","Europe/Kiev","10:00 PM GMT on October 27, 2016","2016","10","27","22","00","UTC","3.0","37.4","2.0","35.6","93","0.0","0.0","-9999.0","-9999.0","0","North","-9999.0","-9999.0","1034","30.54","-999","-999","-9999","-9999","-9999.00","-9999.00","Overcast","cloudy","0","0","0","0","0","0","METAR UKKK 272200Z 00000MPS 4200 BR OVC007 03/02 Q1034 R08/120060 TEMPO 1000 BR OVC003"
"1:30 AM EEST on October 28, 2016","2016","10","28","01","30","Europe/Kiev","10:30 PM GMT on October 27, 2016","2016","10","27","22","30","UTC","3.0","37.4","2.0","35.6","93","3.6","2.2","-9999.0","-9999.0","0","Variable","-9999.0","-9999.0","1034","30.54","-999","-999","-9999","-9999","-9999.00","-9999.00","Overcast","cloudy","0","0","0","0","0","0","METAR UKKK 272230Z VRB01MPS 4800 BR OVC006 03/02 Q1034 R08/120060 NOSIG"
"2:00 AM EEST on October 28, 2016","2016","10","28","02","00","Europe/Kiev","11:00 PM GMT on October 27, 2016","2016","10","27","23","00","UTC","3.0","37.4","2.0","35.6","93","0.0","0.0","-9999.0","-9999.0","0","North","5.0","3.1","1034","30.54","-999","-999","-9999","-9999","-9999.00","-9999.00","Overcast","cloudy","0","0","0","0","0","0","METAR UKKK 272300Z 00000MPS 5000 BR OVC009 03/02 Q1034 R08/120060 NOSIG"
"2:30 AM EEST on October 28, 2016","2016","10","28","02","30","Europe/Kiev","11:30 PM GMT on October 27, 2016","2016","10","27","23","30","UTC","3.0","37.4","2.0","35.6","93","3.6","2.2","-9999.0","-9999.0","320","NW","5.0","3.1","1035","30.57","-999","-999","-9999","-9999","-9999.00","-9999.00","Overcast","cloudy","0","0","0","0","0","0","METAR UKKK 272330Z 32001MPS 5000 BR OVC007 03/02 Q1035 R08/120060 NOSIG"
"3:00 AM EEST on October 28, 2016","2016","10","28","03","00","Europe/Kiev","12:00 AM GMT on October 28, 2016","2016","10","28","00","00","UTC","3","37","1","35","87","0.0","0.0","","","","","4","2","1036","30.58","-999","-999","-9999","-9999","","","Mist","hazy","0","0","0","0","0","0","AAXX 28001 33345 31496 80000 10027 20014 30144 40356 52003 71022 886// 333 88711 555 11003"
"3:00 AM EEST on October 28, 2016","2016","10","28","03","00","Europe/Kiev","12:00 AM GMT on October 28, 2016","2016","10","28","00","00","UTC","3.0","37.4","2.0","35.6","93","7.2","4.5","-9999.0","-9999.0","330","NNW","5.0","3.1","1034","30.54","1.0","33.9","-9999","-9999","-9999.00","-9999.00","Overcast","cloudy","0","0","0","0","0","0","METAR UKKK 280000Z 33002MPS 5000 BR OVC008 03/02 Q1034 R08/120060 NOSIG"
"3:30 AM EEST on October 28, 2016","2016","10","28","03","30","Europe/Kiev","12:30 AM GMT on October 28, 2016","2016","10","28","00","30","UTC","3.0","37.4","2.0","35.6","93","7.2","4.5","-9999.0","-9999.0","330","NNW","5.0","3.1","1034","30.54","1.0","33.9","-9999","-9999","-9999.00","-9999.00","Overcast","cloudy","0","0","0","0","0","0","METAR UKKK 280030Z 33002MPS 5000 BR OVC006 03/02 Q1034 R08/120060 NOSIG"
"4:00 AM EEST on October 28, 2016","2016","10","28","04","00","Europe/Kiev","1:00 AM GMT on October 28, 2016","2016","10","28","01","00","UTC","3.0","37.4","2.0","35.6","93","7.2","4.5","-9999.0","-9999.0","310","NW","4.0","2.5","1034","30.54","1.0","33.9","-9999","-9999","-9999.00","-9999.00","Overcast","cloudy","0","0","0","0","0","0","METAR UKKK 280100Z 31002MPS 4000 BR OVC005 03/02 Q1034 R08/120060 TEMPO OVC003"
"4:30 AM EEST on October 28, 2016","2016","10","28","04","30","Europe/Kiev","1:30 AM GMT on October 28, 2016","2016","10","28","01","30","UTC","3.0","37.4","2.0","35.6","93","7.2","4.5","-9999.0","-9999.0","350","North","4.5","2.8","1034","30.54","1.0","33.9","-9999","-9999","-9999.00","-9999.00","Overcast","cloudy","0","0","0","0","0","0","METAR UKKK 280130Z 35002MPS 4500 BR OVC005 03/02 Q1034 R08/120060 TEMPO OVC003"
"5:00 AM EEST on October 28, 2016","2016","10","28","05","00","Europe/Kiev","2:00 AM GMT on October 28, 2016","2016","10","28","02","00","UTC","3.0","37.4","2.0","35.6","93","7.2","4.5","-9999.0","-9999.0","360","North","-9999.0","-9999.0","1034","30.54","1.0","33.9","-9999","-9999","-9999.00","-9999.00","Overcast","cloudy","0","0","0","0","0","0","METAR UKKK 280200Z 36002MPS 4600 BR OVC006 03/02 Q1034 R08/CLRD70 TEMPO OVC003"
"5:30 AM EEST on October 28, 2016","2016","10","28","05","30","Europe/Kiev","2:30 AM GMT on October 28, 2016","2016","10","28","02","30","UTC","3.0","37.4","2.0","35.6","93","0.0","0.0","-9999.0","-9999.0","0","North","5.0","3.1","1034","30.54","-999","-999","-9999","-9999","-9999.00","-9999.00","Overcast","cloudy","0","0","0","0","0","0","METAR UKKK 280230Z 00000MPS 5000 BR OVC006 03/02 Q1034 R08/CLRD70 NOSIG"
"6:00 AM EEST on October 28, 2016","2016","10","28","06","00","Europe/Kiev","3:00 AM GMT on October 28, 2016","2016","10","28","03","00","UTC","2","36","2","35","93","0.0","0.0","","","","","4","2","1036","30.58","-999","-999","-9999","-9999","","","Mist","hazy","0","0","0","0","0","0","AAXX 28031 33345 41496 80000 10025 20015 30143 40355 58001 71022 886// 333 88710 555 11003"
"6:00 AM EEST on October 28, 2016","2016","10","28","06","00","Europe/Kiev","3:00 AM GMT on October 28, 2016","2016","10","28","03","00","UTC","3.0","37.4","2.0","35.6","93","0.0","0.0","-9999.0","-9999.0","0","North","-9999.0","-9999.0","1034","30.54","-999","-999","-9999","-9999","-9999.00","-9999.00","Overcast","cloudy","0","0","0","0","0","0","METAR UKKK 280300Z 00000MPS 4900 BR OVC008 03/02 Q1034 R08/CLRD70 NOSIG"
"6:30 AM EEST on October 28, 2016","2016","10","28","06","30","Europe/Kiev","3:30 AM GMT on October 28, 2016","2016","10","28","03","30","UTC","3.0","37.4","2.0","35.6","93","0.0","0.0","-9999.0","-9999.0","0","North","5.0","3.1","1034","30.54","-999","-999","-9999","-9999","-9999.00","-9999.00","Overcast","cloudy","0","0","0","0","0","0","METAR UKKK 280330Z 00000MPS 5000 BR OVC010 03/02 Q1034 R08/CLRD70 NOSIG"
"7:00 AM EEST on October 28, 2016","2016","10","28","07","00","Europe/Kiev","4:00 AM GMT on October 28, 2016","2016","10","28","04","00","UTC","3.0","37.4","2.0","35.6","93","0.0","0.0","-9999.0","-9999.0","0","North","5.0","3.1","1034","30.54","-999","-999","-9999","-9999","-9999.00","-9999.00","Overcast","cloudy","0","0","0","0","0","0","METAR UKKK 280400Z 00000MPS 5000 BR OVC010 03/02 Q1034 R08/CLRD70 NOSIG"
"7:30 AM EEST on October 28, 2016","2016","10","28","07","30","Europe/Kiev","4:30 AM GMT on October 28, 2016","2016","10","28","04","30","UTC","3.0","37.4","2.0","35.6","93","0.0","0.0","-9999.0","-9999.0","0","North","5.0","3.1","1034","30.54","-999","-999","-9999","-9999","-9999.00","-9999.00","Overcast","cloudy","0","0","0","0","0","0","METAR UKKK 280430Z 00000MPS 5000 BR OVC008 03/02 Q1034 R08/CLRD70 NOSIG"
"8:00 AM EEST on October 28, 2016","2016","10","28","08","00","Europe/Kiev","5:00 AM GMT on October 28, 2016","2016","10","28","05","00","UTC","3.0","37.4","2.0","35.6","93","0.0","0.0","-9999.0","-9999.0","0","North","-9999.0","-9999.0","1034","30.54","-999","-999","-9999","-9999","-9999.00","-9999.00","Overcast","cloudy","0","0","0","0","0","0","METAR UKKK 280500Z 00000MPS 4300 BR OVC010 03/02 Q1034 R08/CLRD70 NOSIG"
"8:30 AM EEST on October 28, 2016","2016","10","28","08","30","Europe/Kiev","5:30 AM GMT on October 28, 2016","2016","10","28","05","30","UTC","3.0","37.4","2.0","35.6","93","3.6","2.2","-9999.0","-9999.0","0","Variable","-9999.0","-9999.0","1035","30.57","-999","-999","-9999","-9999","-9999.00","-9999.00","Overcast","cloudy","0","0","0","0","0","0","METAR UKKK 280530Z VRB01MPS 4200 BR OVC010 03/02 Q1035 R08/CLRD70 NOSIG"
"9:00 AM EEST on October 28, 2016","2016","10","28","09","00","Europe/Kiev","6:00 AM GMT on October 28, 2016","2016","10","28","06","00","UTC","3","37","2","35","90","0.0","0.0","","","","","4","2","1036","30.60","-999","-999","-9999","-9999","","","Mist","hazy","0","0","0","0","0","0","AAXX 28061 33345 31496 80000 10027 20017 30149 40361 53006 71022 886// 333 20022 88713 555 11003 31002 52002"
"9:00 AM EEST on October 28, 2016","2016","10","28","09","00","Europe/Kiev","6:00 AM GMT on October 28, 2016","2016","10","28","06","00","UTC","3.0","37.4","2.0","35.6","93","3.6","2.2","-9999.0","-9999.0","0","Variable","4.0","2.5","1035","30.57","-999","-999","-9999","-9999","-9999.00","-9999.00","Overcast","cloudy","0","0","0","0","0","0","METAR UKKK 280600Z VRB01MPS 4000 BR OVC010 03/02 Q1035 R08/CLRD70 NOSIG"
"9:30 AM EEST on October 28, 2016","2016","10","28","09","30","Europe/Kiev","6:30 AM GMT on October 28, 2016","2016","10","28","06","30","UTC","3.0","37.4","1.0","33.8","87","3.6","2.2","-9999.0","-9999.0","270","West","5.0","3.1","1035","30.57","-999","-999","-9999","-9999","-9999.00","-9999.00","Overcast","cloudy","0","0","0","0","0","0","METAR UKKK 280630Z 27001MPS 5000 BR SCT011 OVC045 03/01 Q1035 R26/CLRD70 NOSIG"
"10:00 AM EEST on October 28, 2016","2016","10","28","10","00","Europe/Kiev","7:00 AM GMT on October 28, 2016","2016","10","28","07","00","UTC","3.0","37.4","2.0","35.6","93","7.2","4.5","-9999.0","-9999.0","250","WSW","6.0","3.7","1035","30.57","1.0","33.9","-9999","-9999","-9999.00","-9999.00","Overcast","cloudy","0","0","0","0","0","0","METAR UKKK 280700Z 25002MPS 6000 SCT008 OVC044 03/02 Q1035 R26/CLRD70 NOSIG"
"10:30 AM EEST on October 28, 2016","2016","10","28","10","30","Europe/Kiev","7:30 AM GMT on October 28, 2016","2016","10","28","07","30","UTC","3.0","37.4","2.0","35.6","93","7.2","4.5","-9999.0","-9999.0","250","WSW","5.0","3.1","1035","30.57","1.0","33.9","-9999","-9999","-9999.00","-9999.00","Overcast","cloudy","0","0","0","0","0","0","METAR UKKK 280730Z 25002MPS 5000 BR SCT008 OVC043 03/02 Q1035 R26/CLRD70 NOSIG"
"11:00 AM EEST on October 28, 2016","2016","10","28","11","00","Europe/Kiev","8:00 AM GMT on October 28, 2016","2016","10","28","08","00","UTC","3.0","37.4","2.0","35.6","93","7.2","4.5","-9999.0","-9999.0","250","WSW","-9999.0","-9999.0","1035","30.57","1.0","33.9","-9999","-9999","-9999.00","-9999.00","Overcast","cloudy","0","0","0","0","0","0","METAR UKKK 280800Z 25002MPS 220V280 4900 BR SCT008 OVC043 03/02 Q1035 R26/CLRD70 NOSIG"
"11:30 AM EEST on October 28, 2016","2016","10","28","11","30","Europe/Kiev","8:30 AM GMT on October 28, 2016","2016","10","28","08","30","UTC","3.0","37.4","2.0","35.6","93","7.2","4.5","-9999.0","-9999.0","230","SW","6.0","3.7","1035","30.57","1.0","33.9","-9999","-9999","-9999.00","-9999.00","Overcast","cloudy","0","0","0","0","0","0","METAR UKKK 280830Z 23002MPS 210V270 6000 OVC043 03/02 Q1035 R26/CLRD70 NOSIG"
"12:00 PM EEST on October 28, 2016","2016","10","28","12","00","Europe/Kiev","9:00 AM GMT on October 28, 2016","2016","10","28","09","00","UTC","4","39","2","35","82","7.2","4.5","","","240","WSW","4","2","1036","30.58","-999","-999","-9999","-9999","","","Mist","hazy","0","0","0","0","0","0","AAXX 28091 33345 41696 72402 10039 20019 30144 40355 58005 71022 87500 333 87640 555 11006"
"12:00 PM EEST on October 28, 2016","2016","10","28","12","00","Europe/Kiev","9:00 AM GMT on October 28, 2016","2016","10","28","09","00","UTC","5.0","41.0","2.0","35.6","81","7.2","4.5","-9999.0","-9999.0","180","South","6.0","3.7","1034","30.54","3.4","38.1","-9999","-9999","-9999.00","-9999.00","Mostly Cloudy","mostlycloudy","0","0","0","0","0","0","METAR UKKK 280900Z 18002MPS 150V210 6000 BKN046 05/02 Q1034 R26/CLRD70 NOSIG"
"12:30 PM EEST on October 28, 2016","2016","10","28","12","30","Europe/Kiev","9:30 AM GMT on October 28, 2016","2016","10","28","09","30","UTC","6.0","42.8","-1.0","30.2","61","7.2","4.5","-9999.0","-9999.0","230","SW","9.0","5.6","1034","30.54","4.5","40.2","-9999","-9999","-9999.00","-9999.00","Unknown","unknown","0","0","0","0","0","0","METAR UKKK 280930Z 23002MPS 170V300 9000 NSC 06/M01 Q1034 R26/CLRD70 NOSIG"
"1:00 PM EEST on October 28, 2016","2016","10","28","13","00","Europe/Kiev","10:00 AM GMT on October 28, 2016","2016","10","28","10","00","UTC","7.0","44.6","-1.0","30.2","57","10.8","6.7","-9999.0","-9999.0","230","SW","10.0","6.2","1033","30.51","4.9","40.8","-9999","-9999","-9999.00","-9999.00","Mostly Cloudy","mostlycloudy","0","0","0","0","0","0","METAR UKKK 281000Z 23003MPS 190V270 9999 BKN049 07/M01 Q1033 R26/CLRD70 NOSIG"
"1:30 PM EEST on October 28, 2016","2016","10","28","13","30","Europe/Kiev","10:30 AM GMT on October 28, 2016","2016","10","28","10","30","UTC","7.0","44.6","-2.0","28.4","53","10.8","6.7","-9999.0","-9999.0","200","SSW","10.0","6.2","1033","30.51","4.9","40.8","-9999","-9999","-9999.00","-9999.00","Mostly Cloudy","mostlycloudy","0","0","0","0","0","0","METAR UKKK 281030Z 20003MPS 170V260 9999 BKN040 07/M02 Q1033 R26/CLRD70 NOSIG"
"2:00 PM EEST on October 28, 2016","2016","10","28","14","00","Europe/Kiev","11:00 AM GMT on October 28, 2016","2016","10","28","11","00","UTC","7.0","44.6","-3.0","26.6","49","7.2","4.5","-9999.0","-9999.0","220","SW","10.0","6.2","1032","30.48","5.7","42.3","-9999","-9999","-9999.00","-9999.00","Mostly Cloudy","mostlycloudy","0","0","0","0","0","0","METAR UKKK 281100Z 22002MPS 9999 BKN042 07/M03 Q1032 R26/CLRD70 NOSIG"
"2:30 PM EEST on October 28, 2016","2016","10","28","14","30","Europe/Kiev","11:30 AM GMT on October 28, 2016","2016","10","28","11","30","UTC","6.0","42.8","-3.0","26.6","53","10.8","6.7","-9999.0","-9999.0","230","SW","10.0","6.2","1031","30.45","3.7","38.7","-9999","-9999","-9999.00","-9999.00","Mostly Cloudy","mostlycloudy","0","0","0","0","0","0","METAR UKKK 281130Z 23003MPS 190V270 9999 BKN044 06/M03 Q1031 R26/CLRD70 NOSIG"
"3:00 PM EEST on October 28, 2016","2016","10","28","15","00","Europe/Kiev","12:00 PM GMT on October 28, 2016","2016","10","28","12","00","UTC","6","43","-2","29","45","7.2","4.5","","","240","WSW","20","12","1032","30.48","-999","-999","-9999","-9999","","","Mostly Cloudy","mostlycloudy","0","0","0","0","0","0","AAXX 28121 33345 32698 62402 10059 21018 30113 40322 57031 86500 333 86648 555 11008"
"3:00 PM EEST on October 28, 2016","2016","10","28","15","00","Europe/Kiev","12:00 PM GMT on October 28, 2016","2016","10","28","12","00","UTC","6.0","42.8","-3.0","26.6","53","7.2","4.5","-9999.0","-9999.0","220","SW","10.0","6.2","1031","30.45","4.5","40.2","-9999","-9999","-9999.00","-9999.00","Mostly Cloudy","mostlycloudy","0","0","0","0","0","0","METAR UKKK 281200Z 22002MPS 180V240 9999 BKN044 06/M03 Q1031 R26/CLRD70 NOSIG"
"3:30 PM EEST on October 28, 2016","2016","10","28","15","30","Europe/Kiev","12:30 PM GMT on October 28, 2016","2016","10","28","12","30","UTC","6.0","42.8","-3.0","26.6","53","7.2","4.5","-9999.0","-9999.0","210","SSW","10.0","6.2","1031","30.45","4.5","40.2","-9999","-9999","-9999.00","-9999.00","Mostly Cloudy","mostlycloudy","0","0","0","0","0","0","METAR UKKK 281230Z 21002MPS 180V250 9999 BKN042 06/M03 Q1031 R26/CLRD70 NOSIG"
"4:00 PM EEST on October 28, 2016","2016","10","28","16","00","Europe/Kiev","1:00 PM GMT on October 28, 2016","2016","10","28","13","00","UTC","6.0","42.8","-3.0","26.6","53","10.8","6.7","-9999.0","-9999.0","240","WSW","10.0","6.2","1031","30.45","3.7","38.7","-9999","-9999","-9999.00","-9999.00","Mostly Cloudy","mostlycloudy","0","0","0","0","0","0","METAR UKKK 281300Z 24003MPS 210V270 9999 BKN045 06/M03 Q1031 R26/CLRD70 NOSIG"
"4:30 PM EEST on October 28, 2016","2016","10","28","16","30","Europe/Kiev","1:30 PM GMT on October 28, 2016","2016","10","28","13","30","UTC","6.0","42.8","-2.0","28.4","57","7.2","4.5","-9999.0","-9999.0","210","SSW","10.0","6.2","1030","30.42","4.5","40.2","-9999","-9999","-9999.00","-9999.00","Mostly Cloudy","mostlycloudy","0","0","0","0","0","0","METAR UKKK 281330Z 21002MPS 9999 BKN043 06/M02 Q1030 R26/CLRD70 NOSIG"
"5:00 PM EEST on October 28, 2016","2016","10","28","17","00","Europe/Kiev","2:00 PM GMT on October 28, 2016","2016","10","28","14","00","UTC","6.0","42.8","-3.0","26.6","53","10.8","6.7","-9999.0","-9999.0","210","SSW","10.0","6.2","1030","30.42","3.7","38.7","-9999","-9999","-9999.00","-9999.00","Mostly Cloudy","mostlycloudy","0","0","0","0","0","0","METAR UKKK 281400Z 21003MPS 180V240 9999 BKN043 06/M03 Q1030 R26/CLRD70 NOSIG"
"5:30 PM EEST on October 28, 2016","2016","10","28","17","30","Europe/Kiev","2:30 PM GMT on October 28, 2016","2016","10","28","14","30","UTC","5.0","41.0","-2.0","28.4","61","10.8","6.7","-9999.0","-9999.0","210","SSW","10.0","6.2","1029","30.39","2.5","36.5","-9999","-9999","-9999.00","-9999.00","Mostly Cloudy","mostlycloudy","0","0","0","0","0","0","METAR UKKK 281430Z 21003MPS 180V240 9999 BKN040 05/M02 Q1029 R26/CLRD70 NOSIG"
"6:00 PM EEST on October 28, 2016","2016","10","28","18","00","Europe/Kiev","3:00 PM GMT on October 28, 2016","2016","10","28","15","00","UTC","5","41","-1","30","55","7.2","4.5","","","220","SW","20","12","1030","30.42","-999","-999","-9999","-9999","","","Mostly Cloudy","mostlycloudy","0","0","0","0","0","0","AAXX 28151 33345 42698 72202 10048 21009 30090 40299 57023 86501 333 86636 555 11004"
"6:00 PM EEST on October 28, 2016","2016","10","28","18","00","Europe/Kiev","3:00 PM GMT on October 28, 2016","2016","10","28","15","00","UTC","5.0","41.0","-2.0","28.4","61","10.8","6.7","-9999.0","-9999.0","220","SW","10.0","6.2","1029","30.39","2.5","36.5","-9999","-9999","-9999.00","-9999.00","Mostly Cloudy","mostlycloudy","0","0","0","0","0","0","METAR UKKK 281500Z 22003MPS 190V250 9999 BKN042 05/M02 Q1029 R26/CLRD70 NOSIG"
"6:30 PM EEST on October 28, 2016","2016","10","28","18","30","Europe/Kiev","3:30 PM GMT on October 28, 2016","2016","10","28","15","30","UTC","4.0","39.2","-2.0","28.4","65","10.8","6.7","-9999.0","-9999.0","230","SW","-9999.0","-9999.0","1029","30.39","1.3","34.4","-9999","-9999","-9999.00","-9999.00","Clear","clear","0","0","0","0","0","0","METAR UKKK 281530Z 23003MPS CAVOK 04/M02 Q1029 R26/CLRD70 NOSIG"
"7:00 PM EEST on October 28, 2016","2016","10","28","19","00","Europe/Kiev","4:00 PM GMT on October 28, 2016","2016","10","28","16","00","UTC","3.0","37.4","-2.0","28.4","70","7.2","4.5","-9999.0","-9999.0","220","SW","9.0","5.6","1029","30.39","1.0","33.9","-9999","-9999","-9999.00","-9999.00","Unknown","unknown","0","0","0","0","0","0","METAR UKKK 281600Z 22002MPS 9000 NSC 03/M02 Q1029 R26/CLRD70 NOSIG"
"7:30 PM EEST on October 28, 2016","2016","10","28","19","30","Europe/Kiev","4:30 PM GMT on October 28, 2016","2016","10","28","16","30","UTC","4.0","39.2","-2.0","28.4","65","10.8","6.7","-9999.0","-9999.0","220","SW","10.0","6.2","1028","30.36","1.3","34.4","-9999","-9999","-9999.00","-9999.00","Mostly Cloudy","mostlycloudy","0","0","0","0","0","0","METAR UKKK 281630Z 22003MPS 9999 BKN039 04/M02 Q1028 R26/CLRD70 NOSIG"
"8:00 PM EEST on October 28, 2016","2016","10","28","20","00","Europe/Kiev","5:00 PM GMT on October 28, 2016","2016","10","28","17","00","UTC","4.0","39.2","-2.0","28.4","65","10.8","6.7","-9999.0","-9999.0","220","SW","10.0","6.2","1028","30.36","1.3","34.4","-9999","-9999","-9999.00","-9999.00","Mostly Cloudy","mostlycloudy","0","0","0","0","0","0","METAR UKKK 281700Z 22003MPS 180V250 9999 BKN040 04/M02 Q1028 R26/CLRD70 NOSIG"
"8:30 PM EEST on October 28, 2016","2016","10","28","20","30","Europe/Kiev","5:30 PM GMT on October 28, 2016","2016","10","28","17","30","UTC","4.0","39.2","-2.0","28.4","65","14.4","8.9","-9999.0","-9999.0","220","SW","10.0","6.2","1027","30.33","0.6","33.1","-9999","-9999","-9999.00","-9999.00","Mostly Cloudy","mostlycloudy","0","0","0","0","0","0","METAR UKKK 281730Z 22004MPS 190V250 9999 SCT040 BKN100 04/M02 Q1027 R26/CLRD70 NOSIG"
"9:00 PM EEST on October 28, 2016","2016","10","28","21","00","Europe/Kiev","6:00 PM GMT on October 28, 2016","2016","10","28","18","00","UTC","4","38","-1","29","62","10.8","6.7","","","210","SSW","20","12","1028","30.35","-999","-999","-9999","-9999","","","Overcast","cloudy","0","0","0","0","0","0","AAXX 28181 33345 32698 82103 10036 21014 30066 40275 57024 8457/ 333 10073 555 11002"
"9:00 PM EEST on October 28, 2016","2016","10","28","21","00","Europe/Kiev","6:00 PM GMT on October 28, 2016","2016","10","28","18","00","UTC","4.0","39.2","-2.0","28.4","65","14.4","8.9","-9999.0","-9999.0","210","SSW","10.0","6.2","1026","30.30","0.6","33.1","-9999","-9999","-9999.00","-9999.00","Mostly Cloudy","mostlycloudy","0","0","0","0","0","0","METAR UKKK 281800Z 21004MPS 180V250 9999 SCT040 BKN100 04/M02 Q1026 R26/CLRD70 NOSIG"
"9:30 PM EEST on October 28, 2016","2016","10","28","21","30","Europe/Kiev","6:30 PM GMT on October 28, 2016","2016","10","28","18","30","UTC","4.0","39.2","-2.0","28.4","65","14.4","8.9","-9999.0","-9999.0","210","SSW","10.0","6.2","1026","30.30","0.6","33.1","-9999","-9999","-9999.00","-9999.00","Mostly Cloudy","mostlycloudy","0","0","0","0","0","0","METAR UKKK 281830Z 21004MPS 9999 SCT040 BKN100 04/M02 Q1026 R26/CLRD70 NOSIG"
"10:00 PM EEST on October 28, 2016","2016","10","28","22","00","Europe/Kiev","7:00 PM GMT on October 28, 2016","2016","10","28","19","00","UTC","4.0","39.2","-2.0","28.4","65","14.4","8.9","-9999.0","-9999.0","210","SSW","-9999.0","-9999.0","1025","30.27","0.6","33.1","-9999","-9999","-9999.00","-9999.00","Clear","clear","0","0","0","0","0","0","METAR UKKK 281900Z 21004MPS 180V240 CAVOK 04/M02 Q1025 R26/CLRD70 NOSIG"
"10:30 PM EEST on October 28, 2016","2016","10","28","22","30","Europe/Kiev","7:30 PM GMT on October 28, 2016","2016","10","28","19","30","UTC","4.0","39.2","-2.0","28.4","65","18.0","11.2","-9999.0","-9999.0","220","SW","-9999.0","-9999.0","1025","30.27","0.1","32.2","-9999","-9999","-9999.00","-9999.00","Clear","clear","0","0","0","0","0","0","METAR UKKK 281930Z 22005MPS 180V240 CAVOK 04/M02 Q1025 R26/CLRD70 NOSIG"
"11:00 PM EEST on October 28, 2016","2016","10","28","23","00","Europe/Kiev","8:00 PM GMT on October 28, 2016","2016","10","28","20","00","UTC","4.0","39.2","-2.0","28.4","65","14.4","8.9","-9999.0","-9999.0","210","SSW","-9999.0","-9999.0","1024","30.24","0.6","33.1","-9999","-9999","-9999.00","-9999.00","Clear","clear","0","0","0","0","0","0","METAR UKKK 282000Z 21004MPS 180V240 CAVOK 04/M02 Q1024 R26/CLRD70 NOSIG"
"11:30 PM EEST on October 28, 2016","2016","10","28","23","30","Europe/Kiev","8:30 PM GMT on October 28, 2016","2016","10","28","20","30","UTC","4.0","39.2","-2.0","28.4","65","18.0","11.2","-9999.0","-9999.0","210","SSW","-9999.0","-9999.0","1023","30.21","0.1","32.2","-9999","-9999","-9999.00","-9999.00","Clear","clear","0","0","0","0","0","0","METAR UKKK 282030Z 21005MPS 180V250 CAVOK 04/M02 Q1023 R26/CLRD70 NOSIG"
"12:00 AM EEST on October 29, 2016","2016","10","29","00","00","Europe/Kiev","9:00 PM GMT on October 28, 2016","2016","10","28","21","00","UTC","3","38","-2","29","60","10.8","6.7","","","230","SW","20","12","1024","30.24","-999","-999","-9999","-9999","","","Overcast","cloudy","0","0","0","0","0","0","AAXX 28211 33345 42998 82303 10032 21016 30029 40238 57037 88050 555 11002"
"12:00 AM EEST on October 29, 2016","2016","10","29","00","00","Europe/Kiev","9:00 PM GMT on October 28, 2016","2016","10","28","21","00","UTC","4.0","39.2","-2.0","28.4","65","18.0","11.2","-9999.0","-9999.0","220","SW","-9999.0","-9999.0","1023","30.21","0.1","32.2","-9999","-9999","-9999.00","-9999.00","Clear","clear","0","0","0","0","0","0","METAR UKKK 282100Z 22005MPS CAVOK 04/M02 Q1023 R26/CLRD70 NOSIG"
"12:30 AM EEST on October 29, 2016","2016","10","29","00","30","Europe/Kiev","9:30 PM GMT on October 28, 2016","2016","10","28","21","30","UTC","4.0","39.2","-1.0","30.2","70","18.0","11.2","-9999.0","-9999.0","220","SW","-9999.0","-9999.0","1022","30.18","0.1","32.2","-9999","-9999","-9999.00","-9999.00","Clear","clear","0","0","0","0","0","0","METAR UKKK 282130Z 22005MPS CAVOK 04/M01 Q1022 R26/CLRD70 NOSIG"
"1:00 AM EEST on October 29, 2016","2016","10","29","01","00","Europe/Kiev","10:00 PM GMT on October 28, 2016","2016","10","28","22","00","UTC","4.0","39.2","-1.0","30.2","70","21.6","13.4","-9999.0","-9999.0","220","SW","-9999.0","-9999.0","1021","30.15","-0.4","31.3","-9999","-9999","-9999.00","-9999.00","Clear","clear","0","0","0","0","0","0","METAR UKKK 282200Z 22006MPS 200V260 CAVOK 04/M01 Q1021 R26/CLRD70 NOSIG"
"1:30 AM EEST on October 29, 2016","2016","10","29","01","30","Europe/Kiev","10:30 PM GMT on October 28, 2016","2016","10","28","22","30","UTC","3.0","37.4","0.0","32.0","81","21.6","13.4","-9999.0","-9999.0","220","SW","9.0","5.6","1020","30.12","-1.6","29.1","-9999","-9999","-9999.00","-9999.00","Light Rain Showers","rain","0","1","0","0","0","0","METAR UKKK 282230Z 22006MPS 190V250 9000 -SHRA SCT032CB BKN040 03/M00 Q1020 R26/CLRD70 NOSIG"
"2:00 AM EEST on October 29, 2016","2016","10","29","02","00","Europe/Kiev","11:00 PM GMT on October 28, 2016","2016","10","28","23","00","UTC","3.0","37.4","0.0","32.0","81","21.6","13.4","-9999.0","-9999.0","220","SW","10.0","6.2","1019","30.09","-1.6","29.1","-9999","-9999","-9999.00","-9999.00","Light Rain Showers","rain","0","1","0","0","0","0","METAR UKKK 282300Z 22006MPS 170V250 9999 -SHRA SCT032CB OVC040 03/00 Q1019 R26/CLRD70 TEMPO 23008G13MPS"
"2:30 AM EEST on October 29, 2016","2016","10","29","02","30","Europe/Kiev","11:30 PM GMT on October 28, 2016","2016","10","28","23","30","UTC","3.0","37.4","1.0","33.8","87","21.6","13.4","-9999.0","-9999.0","220","SW","10.0","6.2","1018","30.06","-1.6","29.1","-9999","-9999","-9999.00","-9999.00","Light Rain Showers","rain","0","1","0","0","0","0","METAR UKKK 282330Z 22006MPS 190V250 9999 -SHRA SCT025CB BKN040 03/01 Q1018 R26/CLRD70 TEMPO 23008G13MPS"
"3:00 AM EEST on October 29, 2016","2016","10","29","03","00","Europe/Kiev","12:00 AM GMT on October 29, 2016","2016","10","29","00","00","UTC","3","38","1","33","77","21.6","13.4","","","250","WSW","10","6","1018","30.08","-999","-999","-9999","-9999","","","Light Rain","rain","0","1","0","0","0","0","AAXX 29001 33345 /1997 82506 10032 20008 39977 40185 57052 72162 8802/ 555 11003 69901"
"3:00 AM EEST on October 29, 2016","2016","10","29","03","00","Europe/Kiev","12:00 AM GMT on October 29, 2016","2016","10","29","00","00","UTC","3.0","37.4","1.0","33.8","87","25.2","15.7","-9999.0","-9999.0","230","SW","2.9","1.8","1017","30.04","-2.1","28.3","-9999","-9999","-9999.00","-9999.00","Light Rain Showers","rain","0","1","0","0","0","0","METAR UKKK 290000Z 23007MPS 200V260 2900 -SHRA SCT017CB BKN040 03/01 Q1017 R26/CLRD70 TEMPO 24010G17MPS"
"3:30 AM EEST on October 29, 2016","2016","10","29","03","30","Europe/Kiev","12:30 AM GMT on October 29, 2016","2016","10","29","00","30","UTC","3.0","37.4","2.0","35.6","93","21.6","13.4","-9999.0","-9999.0","240","WSW","-9999.0","-9999.0","1016","30.01","-1.6","29.1","-9999","-9999","-9999.00","-9999.00","Light Rain Showers","rain","0","1","0","0","0","0","METAR UKKK 290030Z 24006MPS 4100 -SHRA BR FEW009 SCT020CB BKN033 03/02 Q1016 R26/290256 TEMPO 24010G17MPS"
"4:00 AM EEST on October 29, 2016","2016","10","29","04","00","Europe/Kiev","1:00 AM GMT on October 29, 2016","2016","10","29","01","00","UTC","3.0","37.4","3.0","37.4","100","21.6","13.4","-9999.0","-9999.0","240","WSW","4.0","2.5","1016","30.01","-1.6","29.1","-9999","-9999","-9999.00","-9999.00","Light Rain Showers","rain","0","1","0","0","0","0","METAR UKKK 290100Z 24006MPS 210V280 4000 -SHRA BR FEW007 SCT020CB BKN033 03/03 Q1016 R26/290256 TEMPO 24010G17MPS"
"4:30 AM EEST on October 29, 2016","2016","10","29","04","30","Europe/Kiev","1:30 AM GMT on October 29, 2016","2016","10","29","01","30","UTC","4.0","39.2","3.0","37.4","93","25.2","15.7","-9999.0","-9999.0","240","WSW","6.0","3.7","1015","29.98","-0.8","30.6","-9999","-9999","-9999.00","-9999.00","Light Rain Showers","rain","0","1","0","0","0","0","METAR UKKK 290130Z 24007MPS 6000 -SHRA FEW008 SCT020CB BKN033 04/03 Q1015 R26/290256 TEMPO 24010G17MPS"
"5:00 AM EEST on October 29, 2016","2016","10","29","05","00","Europe/Kiev","2:00 AM GMT on October 29, 2016","2016","10","29","02","00","UTC","4.0","39.2","3.0","37.4","93","21.6","13.4","-9999.0","-9999.0","250","WSW","9.0","5.6","1015","29.98","-0.4","31.3","-9999","-9999","-9999.00","-9999.00","Light Rain Showers","rain","0","1","0","0","0","0","METAR UKKK 290200Z 25006MPS 9000 -SHRA FEW010 SCT023CB BKN040 04/03 Q1015 R26/290256 TEMPO 24010G17MPS"
"5:30 AM EEST on October 29, 2016","2016","10","29","05","30","Europe/Kiev","2:30 AM GMT on October 29, 2016","2016","10","29","02","30","UTC","4.0","39.2","4.0","39.2","100","21.6","13.4","-9999.0","-9999.0","250","WSW","10.0","6.2","1014","29.95","-0.4","31.3","-9999","-9999","-9999.00","-9999.00","Overcast","cloudy","0","0","0","0","0","0","METAR UKKK 290230Z 25006MPS 9999 BKN010 OVC033 04/04 Q1014 R26/290256 TEMPO 24010G17MPS"
"6:00 AM EEST on October 29, 2016","2016","10","29","06","00","Europe/Kiev","3:00 AM GMT on October 29, 2016","2016","10","29","03","00","UTC","5","40","4","38","92","21.6","13.4","","","280","West","4","2","1015","29.96","-999","-999","-9999","-9999","","","Light Rain Showers","rain","0","1","0","0","0","0","AAXX 29031 33345 41396 82806 10046 20036 39940 40146 57037 72586 885// 333 85708 555 11004"
"6:00 AM EEST on October 29, 2016","2016","10","29","06","00","Europe/Kiev","3:00 AM GMT on October 29, 2016","2016","10","29","03","00","UTC","5.0","41.0","4.0","39.2","93","25.2","15.7","-9999.0","-9999.0","250","WSW","10.0","6.2","1014","29.95","0.5","32.9","-9999","-9999","-9999.00","-9999.00","Overcast","cloudy","0","0","0","0","0","0","METAR UKKK 290300Z 25007MPS 9999 BKN008 OVC033 05/04 Q1014 R26/290256 TEMPO 25010G17MPS"
"6:30 AM EEST on October 29, 2016","2016","10","29","06","30","Europe/Kiev","3:30 AM GMT on October 29, 2016","2016","10","29","03","30","UTC","6.0","42.8","5.0","41.0","93","21.6","13.4","-9999.0","-9999.0","260","West","9.0","5.6","1014","29.95","2.2","35.9","-9999","-9999","-9999.00","-9999.00","Light Rain","rain","0","1","0","0","0","0","METAR UKKK 290330Z 26006MPS 9000 -RA BKN007 OVC033 06/05 Q1014 R26/290158 TEMPO 25010G17MPS"
"7:00 AM EEST on October 29, 2016","2016","10","29","07","00","Europe/Kiev","4:00 AM GMT on October 29, 2016","2016","10","29","04","00","UTC","6.0","42.8","5.0","41.0","93","21.6","13.4","-9999.0","-9999.0","260","West","10.0","6.2","1013","29.92","2.2","35.9","-9999","-9999","-9999.00","-9999.00","Mostly Cloudy","mostlycloudy","0","0","0","0","0","0","METAR UKKK 290400Z 26006MPS 9999 SCT013 BKN046 06/05 Q1013 R26/290158 TEMPO 25010G17MPS"
"7:30 AM EEST on October 29, 2016","2016","10","29","07","30","Europe/Kiev","4:30 AM GMT on October 29, 2016","2016","10","29","04","30","UTC","6.0","42.8","5.0","41.0","93","21.6","13.4","-9999.0","-9999.0","270","West","10.0","6.2","1013","29.92","2.2","35.9","-9999","-9999","-9999.00","-9999.00","Mostly Cloudy","mostlycloudy","0","0","0","0","0","0","METAR UKKK 290430Z 27006MPS 9999 SCT013 BKN046 06/05 Q1013 R26/290158 TEMPO 25010G17MPS"
"8:00 AM EEST on October 29, 2016","2016","10","29","08","00","Europe/Kiev","5:00 AM GMT on October 29, 2016","2016","10","29","05","00","UTC","6.0","42.8","5.0","41.0","93","18.0","11.2","-9999.0","-9999.0","260","West","9.0","5.6","1013","29.92","2.6","36.7","-9999","-9999","-9999.00","-9999.00","Mostly Cloudy","mostlycloudy","0","0","0","0","0","0","METAR UKKK 290500Z 26005MPS 9000 SCT013 BKN033 06/05 Q1013 R26/290158 TEMPO 25010G17MPS"
"8:30 AM EEST on October 29, 2016","2016","10","29","08","30","Europe/Kiev","5:30 AM GMT on October 29, 2016","2016","10","29","05","30","UTC","7.0","44.6","5.0","41.0","87","25.2","15.7","-9999.0","-9999.0","260","West","10.0","6.2","1013","29.92","3.1","37.6","-9999","-9999","-9999.00","-9999.00","Mostly Cloudy","mostlycloudy","0","0","0","0","0","0","METAR UKKK 290530Z 26007MPS 9999 BKN022 07/05 Q1013 R26/290158 TEMPO 26010G17MPS"
"9:00 AM EEST on October 29, 2016","2016","10","29","09","00","Europe/Kiev","6:00 AM GMT on October 29, 2016","2016","10","29","06","00","UTC","7","44","4","40","79","14.4","8.9","","","310","NW","20","12","1013","29.93","-999","-999","-9999","-9999","","","Partly Cloudy","partlycloudy","0","0","0","0","0","0","AAXX 29061 33345 11498 73104 10068 20043 39930 40134 57010 60022 70286 85630 333 20029 85716 555 11005 31002 52002"
"9:00 AM EEST on October 29, 2016","2016","10","29","09","00","Europe/Kiev","6:00 AM GMT on October 29, 2016","2016","10","29","06","00","UTC","7.0","44.6","5.0","41.0","87","21.6","13.4","-9999.0","-9999.0","280","West","10.0","6.2","1013","29.92","3.4","38.2","-9999","-9999","-9999.00","-9999.00","Mostly Cloudy","mostlycloudy","0","0","0","0","0","0","METAR UKKK 290600Z 28006MPS 9999 BKN021 07/05 Q1013 R26/290158 TEMPO 26010G17MPS"
"9:26 AM EEST on October 29, 2016","2016","10","29","09","26","Europe/Kiev","6:26 AM GMT on October 29, 2016","2016","10","29","06","26","UTC","7.0","44.6","5.0","41.0","87","25.2","15.7","43.2","26.8","280","West","10.0","6.2","1013","29.92","3.1","37.6","-9999","-9999","-9999.00","-9999.00","Mostly Cloudy","mostlycloudy","0","0","0","0","0","0","SPECI UKKK 290626Z 28007G12MPS 9999 BKN017 BKN030 07/05 Q1013 R26/290158 TEMPO 26010G17MPS"
"9:30 AM EEST on October 29, 2016","2016","10","29","09","30","Europe/Kiev","6:30 AM GMT on October 29, 2016","2016","10","29","06","30","UTC","7.0","44.6","5.0","41.0","87","25.2","15.7","43.2","26.8","280","West","10.0","6.2","1013","29.92","3.1","37.6","-9999","-9999","-9999.00","-9999.00","Mostly Cloudy","mostlycloudy","0","0","0","0","0","0","METAR UKKK 290630Z 28007G12MPS 9999 BKN018 BKN030 07/05 Q1013 R26/290158 TEMPO 26010G17MPS"
"10:00 AM EEST on October 29, 2016","2016","10","29","10","00","Europe/Kiev","7:00 AM GMT on October 29, 2016","2016","10","29","07","00","UTC","7.0","44.6","4.0","39.2","81","28.8","17.9","-9999.0","-9999.0","280","West","10.0","6.2","1012","29.89","2.8","37.0","-9999","-9999","-9999.00","-9999.00","Mostly Cloudy","mostlycloudy","0","0","0","0","0","0","METAR UKKK 290700Z 28008MPS 9999 SCT016 BKN030 07/04 Q1012 R26/290158 TEMPO 26010G17MPS"
"10:30 AM EEST on October 29, 2016","2016","10","29","10","30","Europe/Kiev","7:30 AM GMT on October 29, 2016","2016","10","29","07","30","UTC","7.0","44.6","4.0","39.2","81","32.4","20.1","-9999.0","-9999.0","290","WNW","10.0","6.2","1012","29.89","2.5","36.5","-9999","-9999","-9999.00","-9999.00","Mostly Cloudy","mostlycloudy","0","0","0","0","0","0","METAR UKKK 290730Z 29009MPS 9999 BKN023 07/04 Q1012 R26/290158 TEMPO 26010G17MPS"
"11:00 AM EEST on October 29, 2016","2016","10","29","11","00","Europe/Kiev","8:00 AM GMT on October 29, 2016","2016","10","29","08","00","UTC","7.0","44.6","4.0","39.2","81","28.8","17.9","-9999.0","-9999.0","280","West","10.0","6.2","1012","29.89","2.8","37.0","-9999","-9999","-9999.00","-9999.00","Mostly Cloudy","mostlycloudy","0","0","0","0","0","0","METAR UKKK 290800Z 28008MPS 9999 BKN022 07/04 Q1012 R26/290158 TEMPO 26010G17MPS"
"11:30 AM EEST on October 29, 2016","2016","10","29","11","30","Europe/Kiev","8:30 AM GMT on October 29, 2016","2016","10","29","08","30","UTC","7.0","44.6","3.0","37.4","76","25.2","15.7","43.2","26.8","290","WNW","10.0","6.2","1012","29.89","3.1","37.6","-9999","-9999","-9999.00","-9999.00","Mostly Cloudy","mostlycloudy","0","0","0","0","0","0","METAR UKKK 290830Z 29007G12MPS 9999 BKN028 07/03 Q1012 R26/290158 TEMPO 26010G17MPS"
"12:00 PM EEST on October 29, 2016","2016","10","29","12","00","Europe/Kiev","9:00 AM GMT on October 29, 2016","2016","10","29","09","00","UTC","8","46","3","37","62","14.4","8.9","","","320","NW","20","12","1013","29.91","-999","-999","-9999","-9999","","","Mostly Cloudy","mostlycloudy","0","0","0","0","0","0","AAXX 29091 33345 42598 73204 10076 20029 39923 40126 57007 85972 555 11007"
"12:00 PM EEST on October 29, 2016","2016","10","29","12","00","Europe/Kiev","9:00 AM GMT on October 29, 2016","2016","10","29","09","00","UTC","8.0","46.4","4.0","39.2","76","25.2","15.7","-9999.0","-9999.0","290","WNW","10.0","6.2","1012","29.89","4.4","39.9","-9999","-9999","-9999.00","-9999.00","Mostly Cloudy","mostlycloudy","0","0","0","0","0","0","METAR UKKK 290900Z 29007MPS 9999 BKN025 08/04 Q1012 R26/190060 TEMPO 26010G17MPS"
"12:30 PM EEST on October 29, 2016","2016","10","29","12","30","Europe/Kiev","9:30 AM GMT on October 29, 2016","2016","10","29","09","30","UTC","8.0","46.4","4.0","39.2","76","36.0","22.4","-9999.0","-9999.0","280","West","10.0","6.2","1012","29.89","3.6","38.4","-9999","-9999","-9999.00","-9999.00","Mostly Cloudy","mostlycloudy","0","0","0","0","0","0","METAR UKKK 290930Z 28010MPS 9999 BKN024 08/04 Q1012 R26/190060 TEMPO 26010G17MPS"
"1:00 PM EEST on October 29, 2016","2016","10","29","13","00","Europe/Kiev","10:00 AM GMT on October 29, 2016","2016","10","29","10","00","UTC","8.0","46.4","3.0","37.4","71","32.4","20.1","50.4","31.3","290","WNW","10.0","6.2","1011","29.86","3.8","38.9","-9999","-9999","-9999.00","-9999.00","Light Rain Showers","rain","0","1","0","0","0","0","METAR UKKK 291000Z 29009G14MPS 250V350 9999 -SHRA SCT021CB BKN040 08/03 Q1011 R26/190060 TEMPO 26010G17MPS"
"1:30 PM EEST on October 29, 2016","2016","10","29","13","30","Europe/Kiev","10:30 AM GMT on October 29, 2016","2016","10","29","10","30","UTC","8.0","46.4","3.0","37.4","71","25.2","15.7","-9999.0","-9999.0","280","West","10.0","6.2","1011","29.86","4.4","39.9","-9999","-9999","-9999.00","-9999.00","Mostly Cloudy","mostlycloudy","0","0","0","0","0","0","METAR UKKK 291030Z 28007MPS 9999 BKN026 08/03 Q1011 R26/190060 TEMPO 26010G17MPS"
"2:00 PM EEST on October 29, 2016","2016","10","29","14","00","Europe/Kiev","11:00 AM GMT on October 29, 2016","2016","10","29","11","00","UTC","9.0","48.2","4.0","39.2","71","28.8","17.9","-9999.0","-9999.0","270","West","10.0","6.2","1010","29.83","-999","-999","-9999","-9999","-9999.00","-9999.00","Mostly Cloudy","mostlycloudy","0","0","0","0","0","0","METAR UKKK 291100Z 27008MPS 9999 SCT023CB BKN031 09/04 Q1010 R26/190060 TEMPO 26010G17MPS"
"2:30 PM EEST on October 29, 2016","2016","10","29","14","30","Europe/Kiev","11:30 AM GMT on October 29, 2016","2016","10","29","11","30","UTC","8.0","46.4","3.0","37.4","71","28.8","17.9","-9999.0","-9999.0","270","West","10.0","6.2","1010","29.83","4.1","39.3","-9999","-9999","-9999.00","-9999.00","Mostly Cloudy","mostlycloudy","0","0","0","0","0","0","METAR UKKK 291130Z 27008MPS 9999 SCT023CB BKN031 08/03 Q1010 R26/190060 TEMPO 26010G17MPS"
"3:00 PM EEST on October 29, 2016","2016","10","29","15","00","Europe/Kiev","12:00 PM GMT on October 29, 2016","2016","10","29","12","00","UTC","8","46","2","36","59","14.4","8.9","","","320","NW","20","12","1011","29.85","-999","-999","-9999","-9999","","","Partly Cloudy","partlycloudy","0","0","0","0","0","0","AAXX 29121 33345 /1598 73204 10079 20024 39904 40107 57019 70282 84972 555 11010 69931"
"3:00 PM EEST on October 29, 2016","2016","10","29","15","00","Europe/Kiev","12:00 PM GMT on October 29, 2016","2016","10","29","12","00","UTC","8.0","46.4","2.0","35.6","66","32.4","20.1","-9999.0","-9999.0","290","WNW","10.0","6.2","1010","29.83","3.8","38.9","-9999","-9999","-9999.00","-9999.00","Mostly Cloudy","mostlycloudy","0","0","0","0","0","0","METAR UKKK 291200Z 29009MPS 9999 SCT023CB BKN033 08/02 Q1010 R26/190060 TEMPO 26010G17MPS"
"3:30 PM EEST on October 29, 2016","2016","10","29","15","30","Europe/Kiev","12:30 PM GMT on October 29, 2016","2016","10","29","12","30","UTC","7.0","44.6","3.0","37.4","76","28.8","17.9","-9999.0","-9999.0","290","WNW","10.0","6.2","1010","29.83","2.8","37.0","-9999","-9999","-9999.00","-9999.00","Mostly Cloudy","mostlycloudy","0","0","0","0","0","0","METAR UKKK 291230Z 29008MPS 9999 SCT023CB BKN033 07/03 Q1010 R26/190060 TEMPO 26010G17MPS"
"4:00 PM EEST on October 29, 2016","2016","10","29","16","00","Europe/Kiev","1:00 PM GMT on October 29, 2016","2016","10","29","13","00","UTC","7.0","44.6","3.0","37.4","76","28.8","17.9","-9999.0","-9999.0","290","WNW","10.0","6.2","1010","29.83","2.8","37.0","-9999","-9999","-9999.00","-9999.00","Mostly Cloudy","mostlycloudy","0","0","0","0","0","0","METAR UKKK 291300Z 29008MPS 9999 SCT023CB BKN033 07/03 Q1010 R26/190060 TEMPO 26010G17MPS"
"4:30 PM EEST on October 29, 2016","2016","10","29","16","30","Europe/Kiev","1:30 PM GMT on October 29, 2016","2016","10","29","13","30","UTC","7.0","44.6","3.0","37.4","76","25.2","15.7","-9999.0","-9999.0","270","West","10.0","6.2","1010","29.83","3.1","37.6","-9999","-9999","-9999.00","-9999.00","Light Rain Showers","rain","0","1","0","0","0","0","METAR UKKK 291330Z 27007MPS 9999 -SHRA SCT024CB BKN033 07/03 Q1010 R26/190060 TEMPO 30010G17MPS 2000 TSRA BKN012CB"
"5:00 PM EEST on October 29, 2016","2016","10","29","17","00","Europe/Kiev","2:00 PM GMT on October 29, 2016","2016","10","29","14","00","UTC","7.0","44.6","3.0","37.4","76","25.2","15.7","-9999.0","-9999.0","270","West","10.0","6.2","1010","29.83","3.1","37.6","-9999","-9999","-9999.00","-9999.00","Light Rain Showers","rain","0","1","0","0","0","0","METAR UKKK 291400Z 27007MPS 9999 -SHRA SCT016 BKN024CB 07/03 Q1010 R26/190060 TEMPO 30010G17MPS 2000 TSRA BKN012CB"
"5:09 PM EEST on October 29, 2016","2016","10","29","17","09","Europe/Kiev","2:09 PM GMT on October 29, 2016","2016","10","29","14","09","UTC","6.0","42.8","2.0","35.6","76","25.2","15.7","43.2","26.8","330","NNW","10.0","6.2","1010","29.83","1.8","35.2","-9999","-9999","-9999.00","-9999.00","Light Rain Showers","rain","0","1","0","0","0","0","SPECI UKKK 291409Z 33007G12MPS 280V360 9999 -SHRA SCT016 BKN024CB 06/02 Q1010 R26/190060 TEMPO 30010G17MPS 2000 TSRA BKN012CB"
"5:30 PM EEST on October 29, 2016","2016","10","29","17","30","Europe/Kiev","2:30 PM GMT on October 29, 2016","2016","10","29","14","30","UTC","4.0","39.2","2.0","35.6","87","25.2","15.7","-9999.0","-9999.0","320","NW","7.0","4.3","1010","29.83","-0.8","30.6","-9999","-9999","-9999.00","-9999.00","Light Rain Showers","rain","0","1","0","0","0","0","METAR UKKK 291430Z 32007MPS 7000 -SHRA SCT011 BKN022CB 04/02 Q1010 R26/190060 TEMPO 31010G17MPS 1000 TSRA BKN003 BKN012CB"
"6:00 PM EEST on October 29, 2016","2016","10","29","18","00","Europe/Kiev","3:00 PM GMT on October 29, 2016","2016","10","29","15","00","UTC","4","39","2","36","85","14.4","8.9","","","300","WNW","20","12","1011","29.85","-999","-999","-9999","-9999","","","Light Rain Showers","rain","0","1","0","0","0","0","AAXX 29151 33345 41598 73004 10040 20023 39901 40107 56003 78082 86970 333 86927 555 11004"
"6:00 PM EEST on October 29, 2016","2016","10","29","18","00","Europe/Kiev","3:00 PM GMT on October 29, 2016","2016","10","29","15","00","UTC","4.0","39.2","3.0","37.4","93","21.6","13.4","-9999.0","-9999.0","280","West","10.0","6.2","1010","29.83","-0.4","31.3","-9999","-9999","-9999.00","-9999.00","Light Rain Showers","rain","0","1","0","0","0","0","METAR UKKK 291500Z 28006MPS 9999 -SHRA SCT023CB BKN043 04/03 Q1010 R26/290158 TEMPO 31010G17MPS 1000 TSRA BKN003 BKN012CB"
"6:30 PM EEST on October 29, 2016","2016","10","29","18","30","Europe/Kiev","3:30 PM GMT on October 29, 2016","2016","10","29","15","30","UTC","4.0","39.2","3.0","37.4","93","18.0","11.2","-9999.0","-9999.0","270","West","10.0","6.2","1010","29.83","0.1","32.2","-9999","-9999","-9999.00","-9999.00","Light Rain Showers","rain","0","1","0","0","0","0","METAR UKKK 291530Z 27005MPS 9999 -SHRA SCT030CB BKN100 04/03 Q1010 R26/290158 TEMPO 31010G17MPS 1000 TSRA BKN003 BKN012CB"
"7:00 PM EEST on October 29, 2016","2016","10","29","19","00","Europe/Kiev","4:00 PM GMT on October 29, 2016","2016","10","29","16","00","UTC","4.0","39.2","3.0","37.4","93","18.0","11.2","-9999.0","-9999.0","280","West","10.0","6.2","1010","29.83","0.1","32.2","-9999","-9999","-9999.00","-9999.00","Light Rain Showers","rain","0","1","0","0","0","0","METAR UKKK 291600Z 28005MPS 9999 -SHRA SCT025CB OVC033 04/03 Q1010 R26/290158 TEMPO 31010G17MPS 1000 TSRA BKN003 BKN012CB"
"7:30 PM EEST on October 29, 2016","2016","10","29","19","30","Europe/Kiev","4:30 PM GMT on October 29, 2016","2016","10","29","16","30","UTC","4.0","39.2","3.0","37.4","93","18.0","11.2","-9999.0","-9999.0","280","West","10.0","6.2","1010","29.83","0.1","32.2","-9999","-9999","-9999.00","-9999.00","Light Rain","rain","0","1","0","0","0","0","METAR UKKK 291630Z 28005MPS 9999 -RA SCT008 OVC045 04/03 Q1010 R26/290158 NOSIG"
"8:00 PM EEST on October 29, 2016","2016","10","29","20","00","Europe/Kiev","5:00 PM GMT on October 29, 2016","2016","10","29","17","00","UTC","3.0","37.4","2.0","35.6","93","18.0","11.2","-9999.0","-9999.0","280","West","10.0","6.2","1010","29.83","-1.2","29.9","-9999","-9999","-9999.00","-9999.00","Mostly Cloudy","mostlycloudy","0","0","0","0","0","0","METAR UKKK 291700Z 28005MPS 9999 FEW010 BKN140 03/02 Q1010 R26/290158 NOSIG"
"8:30 PM EEST on October 29, 2016","2016","10","29","20","30","Europe/Kiev","5:30 PM GMT on October 29, 2016","2016","10","29","17","30","UTC","3.0","37.4","2.0","35.6","93","18.0","11.2","-9999.0","-9999.0","280","West","10.0","6.2","1010","29.83","-1.2","29.9","-9999","-9999","-9999.00","-9999.00","Mostly Cloudy","mostlycloudy","0","0","0","0","0","0","METAR UKKK 291730Z 28005MPS 9999 FEW010 BKN140 03/02 Q1010 R26/290158 NOSIG"
"9:00 PM EEST on October 29, 2016","2016","10","29","21","00","Europe/Kiev","6:00 PM GMT on October 29, 2016","2016","10","29","18","00","UTC","3","38","2","36","87","10.8","6.7","","","320","NW","20","12","1011","29.86","-999","-999","-9999","-9999","","","Partly Cloudy","partlycloudy","0","0","0","0","0","0","AAXX 29181 33345 11498 63203 10033 20020 39905 40111 53004 60012 70282 83570 333 10088 555 11002"
"9:00 PM EEST on October 29, 2016","2016","10","29","21","00","Europe/Kiev","6:00 PM GMT on October 29, 2016","2016","10","29","18","00","UTC","3.0","37.4","2.0","35.6","93","18.0","11.2","-9999.0","-9999.0","280","West","10.0","6.2","1010","29.83","-1.2","29.9","-9999","-9999","-9999.00","-9999.00","Mostly Cloudy","mostlycloudy","0","0","0","0","0","0","METAR UKKK 291800Z 28005MPS 9999 SCT009 BKN140 03/02 Q1010 R26/290158 NOSIG"
"9:30 PM EEST on October 29, 2016","2016","10","29","21","30","Europe/Kiev","6:30 PM GMT on October 29, 2016","2016","10","29","18","30","UTC","3.0","37.4","2.0","35.6","93","18.0","11.2","-9999.0","-9999.0","280","West","10.0","6.2","1010","29.83","-1.2","29.9","-9999","-9999","-9999.00","-9999.00","Mostly Cloudy","mostlycloudy","0","0","0","0","0","0","METAR UKKK 291830Z 28005MPS 9999 SCT009 BKN140 03/02 Q1010 R26/290158 NOSIG"
"10:00 PM EEST on October 29, 2016","2016","10","29","22","00","Europe/Kiev","7:00 PM GMT on October 29, 2016","2016","10","29","19","00","UTC","2.0","35.6","2.0","35.6","100","18.0","11.2","-9999.0","-9999.0","280","West","10.0","6.2","1010","29.83","-2.4","27.7","-9999","-9999","-9999.00","-9999.00","Mostly Cloudy","mostlycloudy","0","0","0","0","0","0","METAR UKKK 291900Z 28005MPS 9999 SCT007 BKN140 02/02 Q1010 R26/290158 NOSIG"
"10:30 PM EEST on October 29, 2016","2016","10","29","22","30","Europe/Kiev","7:30 PM GMT on October 29, 2016","2016","10","29","19","30","UTC","2.0","35.6","2.0","35.6","100","18.0","11.2","-9999.0","-9999.0","280","West","10.0","6.2","1010","29.83","-2.4","27.7","-9999","-9999","-9999.00","-9999.00","Mostly Cloudy","mostlycloudy","0","0","0","0","0","0","METAR UKKK 291930Z 28005MPS 9999 SCT007 BKN140 02/02 Q1010 R26/290158 NOSIG"
"11:00 PM EEST on October 29, 2016","2016","10","29","23","00","Europe/Kiev","8:00 PM GMT on October 29, 2016","2016","10","29","20","00","UTC","3.0","37.4","2.0","35.6","93","25.2","15.7","-9999.0","-9999.0","290","WNW","10.0","6.2","1010","29.83","-2.1","28.3","-9999","-9999","-9999.00","-9999.00","Mostly Cloudy","mostlycloudy","0","0","0","0","0","0","METAR UKKK 292000Z 29007MPS 9999 BKN007 03/02 Q1010 R26/290158 NOSIG"
"11:30 PM EEST on October 29, 2016","2016","10","29","23","30","Europe/Kiev","8:30 PM GMT on October 29, 2016","2016","10","29","20","30","UTC","3.0","37.4","2.0","35.6","93","21.6","13.4","-9999.0","-9999.0","280","West","10.0","6.2","1010","29.83","-1.6","29.1","-9999","-9999","-9999.00","-9999.00","Mostly Cloudy","mostlycloudy","0","0","0","0","0","0","METAR UKKK 292030Z 28006MPS 9999 BKN010 03/02 Q1010 R26/290158 NOSIG"
"12:00 AM EEST on October 30, 2016","2016","10","30","00","00","Europe/Kiev","9:00 PM GMT on October 29, 2016","2016","10","29","21","00","UTC","3","38","2","35","84","14.4","8.9","","","300","WNW","20","12","1011","29.85","-999","-999","-9999","-9999","","","Scattered Clouds","partlycloudy","0","0","0","0","0","0","AAXX 29211 33345 42698 63004 10031 20016 39901 40107 58004 82542 555 11002"
"12:00 AM EEST on October 30, 2016","2016","10","30","00","00","Europe/Kiev","9:00 PM GMT on October 29, 2016","2016","10","29","21","00","UTC","3.0","37.4","2.0","35.6","93","18.0","11.2","-9999.0","-9999.0","280","West","10.0","6.2","1010","29.83","-1.2","29.9","-9999","-9999","-9999.00","-9999.00","Mostly Cloudy","mostlycloudy","0","0","0","0","0","0","METAR UKKK 292100Z 28005MPS 9999 BKN010 03/02 Q1010 R26/290158 NOSIG"
"12:30 AM EEST on October 30, 2016","2016","10","30","00","30","Europe/Kiev","9:30 PM GMT on October 29, 2016","2016","10","29","21","30","UTC","3.0","37.4","2.0","35.6","93","18.0","11.2","-9999.0","-9999.0","280","West","10.0","6.2","1010","29.83","-1.2","29.9","-9999","-9999","-9999.00","-9999.00","Mostly Cloudy","mostlycloudy","0","0","0","0","0","0","METAR UKKK 292130Z 28005MPS 9999 BKN007 03/02 Q1010 R26/290158 NOSIG"
"1:00 AM EEST on October 30, 2016","2016","10","30","01","00","Europe/Kiev","10:00 PM GMT on October 29, 2016","2016","10","29","22","00","UTC","3.0","37.4","2.0","35.6","93","21.6","13.4","-9999.0","-9999.0","280","West","10.0","6.2","1009","29.80","-1.6","29.1","-9999","-9999","-9999.00","-9999.00","Mostly Cloudy","mostlycloudy","0","0","0","0","0","0","METAR UKKK 292200Z 28006MPS 9999 BKN008 03/02 Q1009 R26/290158 NOSIG"
"1:30 AM EEST on October 30, 2016","2016","10","30","01","30","Europe/Kiev","10:30 PM GMT on October 29, 2016","2016","10","29","22","30","UTC","3.0","37.4","2.0","35.6","93","18.0","11.2","-9999.0","-9999.0","280","West","10.0","6.2","1009","29.80","-1.2","29.9","-9999","-9999","-9999.00","-9999.00","Mostly Cloudy","mostlycloudy","0","0","0","0","0","0","METAR UKKK 292230Z 28005MPS 9999 BKN008 03/02 Q1009 R26/290158 NOSIG"
"2:00 AM EEST on October 30, 2016","2016","10","30","02","00","Europe/Kiev","11:00 PM GMT on October 29, 2016","2016","10","29","23","00","UTC","3.0","37.4","3.0","37.4","100","21.6","13.4","-9999.0","-9999.0","280","West","10.0","6.2","1009","29.80","-1.6","29.1","-9999","-9999","-9999.00","-9999.00","Mostly Cloudy","mostlycloudy","0","0","0","0","0","0","METAR UKKK 292300Z 28006MPS 9999 BKN008 03/03 Q1009 R26/290158 NOSIG"
"2:30 AM EEST on October 30, 2016","2016","10","30","02","30","Europe/Kiev","11:30 PM GMT on October 29, 2016","2016","10","29","23","30","UTC","3.0","37.4","2.0","35.6","93","21.6","13.4","-9999.0","-9999.0","280","West","9.0","5.6","1009","29.80","-1.6","29.1","-9999","-9999","-9999.00","-9999.00","Light Rain","rain","0","1","0","0","0","0","METAR UKKK 292330Z 28006MPS 9000 -RA OVC007 03/02 Q1009 R26/290158 NOSIG"
"3:00 AM EEST on October 30, 2016","2016","10","30","03","00","Europe/Kiev","12:00 AM GMT on October 30, 2016","2016","10","30","00","00","UTC","3","38","2","36","90","10.8","6.7","","","300","WNW","4","2","1010","29.82","-999","-999","-9999","-9999","","","Light Rain Showers","rain","0","1","0","0","0","0","AAXX 30001 33345 /1496 83003 10033 20023 39891 40097 57010 78082 8697/ 333 86915 555 11003 69951"
"3:00 AM EEST on October 30, 2016","2016","10","30","03","00","Europe/Kiev","12:00 AM GMT on October 30, 2016","2016","10","30","00","00","UTC","3.0","37.4","3.0","37.4","100","14.4","8.9","-9999.0","-9999.0","280","West","10.0","6.2","1009","29.80","-0.6","30.9","-9999","-9999","-9999.00","-9999.00","Light Rain","rain","0","1","0","0","0","0","METAR UKKK 300000Z 28004MPS 9999 -RA OVC009 03/03 Q1009 R26/290158 NOSIG"
"3:30 AM EEST on October 30, 2016","2016","10","30","03","30","Europe/Kiev","12:30 AM GMT on October 30, 2016","2016","10","30","00","30","UTC","3.0","37.4","3.0","37.4","100","18.0","11.2","-9999.0","-9999.0","280","West","9.0","5.6","1008","29.77","-1.2","29.9","-9999","-9999","-9999.00","-9999.00","Light Rain","rain","0","1","0","0","0","0","METAR UKKK 300030Z 28005MPS 9000 -RA OVC007 03/03 Q1008 R26/290158 NOSIG"
"3:00 AM EET on October 30, 2016","2016","10","30","03","00","Europe/Kiev","1:00 AM GMT on October 30, 2016","2016","10","30","01","00","UTC","4.0","39.2","3.0","37.4","93","18.0","11.2","-9999.0","-9999.0","290","WNW","9.0","5.6","1008","29.77","0.1","32.2","-9999","-9999","-9999.00","-9999.00","Light Rain","rain","0","1","0","0","0","0","METAR UKKK 300100Z 29005MPS 9000 -RA OVC007 04/03 Q1008 R26/290158 NOSIG"
"3:30 AM EET on October 30, 2016","2016","10","30","03","30","Europe/Kiev","1:30 AM GMT on October 30, 2016","2016","10","30","01","30","UTC","4.0","39.2","3.0","37.4","93","21.6","13.4","-9999.0","-9999.0","300","WNW","10.0","6.2","1008","29.77","-0.4","31.3","-9999","-9999","-9999.00","-9999.00","Overcast","cloudy","0","0","0","0","0","0","METAR UKKK 300130Z 30006MPS 9999 OVC010 04/03 Q1008 R26/290158 NOSIG"
"4:00 AM EET on October 30, 2016","2016","10","30","04","00","Europe/Kiev","2:00 AM GMT on October 30, 2016","2016","10","30","02","00","UTC","4.0","39.2","3.0","37.4","93","21.6","13.4","-9999.0","-9999.0","300","WNW","9.0","5.6","1008","29.77","-0.4","31.3","-9999","-9999","-9999.00","-9999.00","Overcast","cloudy","0","0","0","0","0","0","METAR UKKK 300200Z 30006MPS 9000 OVC007 04/03 Q1008 R26/290158 NOSIG"
"4:30 AM EET on October 30, 2016","2016","10","30","04","30","Europe/Kiev","2:30 AM GMT on October 30, 2016","2016","10","30","02","30","UTC","4.0","39.2","3.0","37.4","93","18.0","11.2","-9999.0","-9999.0","300","WNW","10.0","6.2","1008","29.77","0.1","32.2","-9999","-9999","-9999.00","-9999.00","Overcast","cloudy","0","0","0","0","0","0","METAR UKKK 300230Z 30005MPS 9999 OVC007 04/03 Q1008 R26/290158 NOSIG"
"5:00 AM EET on October 30, 2016","2016","10","30","05","00","Europe/Kiev","3:00 AM GMT on October 30, 2016","2016","10","30","03","00","UTC","4","39","3","37","88","10.8","6.7","","","330","NNW","4","2","1009","29.80","-999","-999","-9999","-9999","","","Mist","hazy","0","0","0","0","0","0","AAXX 30031 33345 41496 73303 10038 20026 39886 40091 57005 71086 86570 555 11003"
"5:00 AM EET on October 30, 2016","2016","10","30","05","00","Europe/Kiev","3:00 AM GMT on October 30, 2016","2016","10","30","03","00","UTC","4.0","39.2","3.0","37.4","93","21.6","13.4","-9999.0","-9999.0","290","WNW","10.0","6.2","1008","29.77","-0.4","31.3","-9999","-9999","-9999.00","-9999.00","Overcast","cloudy","0","0","0","0","0","0","METAR UKKK 300300Z 29006MPS 9999 OVC007 04/03 Q1008 R26/290158 NOSIG"
"5:30 AM EET on October 30, 2016","2016","10","30","05","30","Europe/Kiev","3:30 AM GMT on October 30, 2016","2016","10","30","03","30","UTC","4.0","39.2","2.0","35.6","87","21.6","13.4","-9999.0","-9999.0","290","WNW","10.0","6.2","1008","29.77","-0.4","31.3","-9999","-9999","-9999.00","-9999.00","Overcast","cloudy","0","0","0","0","0","0","METAR UKKK 300330Z 29006MPS 9999 OVC010 04/02 Q1008 R26/290158 NOSIG"
"6:00 AM EET on October 30, 2016","2016","10","30","06","00","Europe/Kiev","4:00 AM GMT on October 30, 2016","2016","10","30","04","00","UTC","4.0","39.2","2.0","35.6","87","21.6","13.4","-9999.0","-9999.0","290","WNW","10.0","6.2","1008","29.77","-0.4","31.3","-9999","-9999","-9999.00","-9999.00","Overcast","cloudy","0","0","0","0","0","0","METAR UKKK 300400Z 29006MPS 9999 OVC010 04/02 Q1008 R26/290158 NOSIG"
"6:30 AM EET on October 30, 2016","2016","10","30","06","30","Europe/Kiev","4:30 AM GMT on October 30, 2016","2016","10","30","04","30","UTC","4.0","39.2","3.0","37.4","93","21.6","13.4","-9999.0","-9999.0","280","West","10.0","6.2","1008","29.77","-0.4","31.3","-9999","-9999","-9999.00","-9999.00","Overcast","cloudy","0","0","0","0","0","0","METAR UKKK 300430Z 28006MPS 9999 OVC010 04/03 Q1008 R26/290158 NOSIG"
"7:00 AM EET on October 30, 2016","2016","10","30","07","00","Europe/Kiev","5:00 AM GMT on October 30, 2016","2016","10","30","05","00","UTC","4.0","39.2","2.0","35.6","87","25.2","15.7","-9999.0","-9999.0","280","West","10.0","6.2","1008","29.77","-0.8","30.6","-9999","-9999","-9999.00","-9999.00","Overcast","cloudy","0","0","0","0","0","0","METAR UKKK 300500Z 28007MPS 9999 OVC010 04/02 Q1008 R26/290158 NOSIG"
"7:30 AM EET on October 30, 2016","2016","10","30","07","30","Europe/Kiev","5:30 AM GMT on October 30, 2016","2016","10","30","05","30","UTC","4.0","39.2","2.0","35.6","87","21.6","13.4","-9999.0","-9999.0","280","West","10.0","6.2","1008","29.77","-0.4","31.3","-9999","-9999","-9999.00","-9999.00","Overcast","cloudy","0","0","0","0","0","0","METAR UKKK 300530Z 28006MPS 9999 OVC010 04/02 Q1008 R26/290158 NOSIG"
"8:00 AM EET on October 30, 2016","2016","10","30","08","00","Europe/Kiev","6:00 AM GMT on October 30, 2016","2016","10","30","06","00","UTC","4","39","2","36","83","14.4","8.9","","","300","WNW","20","12","1009","29.79","-999","-999","-9999","-9999","","","Partly Cloudy","partlycloudy","0","0","0","0","0","0","AAXX 30061 33345 11498 83004 10038 20020 39881 40086 57005 60022 70286 8652/ 333 20025 86713 555 11003 31001 52002"
"8:00 AM EET on October 30, 2016","2016","10","30","08","00","Europe/Kiev","6:00 AM GMT on October 30, 2016","2016","10","30","06","00","UTC","4.0","39.2","3.0","37.4","93","25.2","15.7","-9999.0","-9999.0","280","West","10.0","6.2","1007","29.74","-0.8","30.6","-9999","-9999","-9999.00","-9999.00","Overcast","cloudy","0","0","0","0","0","0","METAR UKKK 300600Z 28007MPS 9999 OVC010 04/03 Q1007 R26/290158 NOSIG"
"8:30 AM EET on October 30, 2016","2016","10","30","08","30","Europe/Kiev","6:30 AM GMT on October 30, 2016","2016","10","30","06","30","UTC","4.0","39.2","3.0","37.4","93","25.2","15.7","-9999.0","-9999.0","280","West","10.0","6.2","1007","29.74","-0.8","30.6","-9999","-9999","-9999.00","-9999.00","Overcast","cloudy","0","0","0","0","0","0","METAR UKKK 300630Z 28007MPS 9999 OVC010 04/03 Q1007 R26/290158 NOSIG"
"9:00 AM EET on October 30, 2016","2016","10","30","09","00","Europe/Kiev","7:00 AM GMT on October 30, 2016","2016","10","30","07","00","UTC","4.0","39.2","3.0","37.4","93","25.2","15.7","-9999.0","-9999.0","280","West","10.0","6.2","1007","29.74","-0.8","30.6","-9999","-9999","-9999.00","-9999.00","Overcast","cloudy","0","0","0","0","0","0","METAR UKKK 300700Z 28007MPS 9999 BKN013 OVC020 04/03 Q1007 R26/290158 NOSIG"
"9:30 AM EET on October 30, 2016","2016","10","30","09","30","Europe/Kiev","7:30 AM GMT on October 30, 2016","2016","10","30","07","30","UTC","5.0","41.0","2.0","35.6","81","25.2","15.7","-9999.0","-9999.0","290","WNW","10.0","6.2","1007","29.74","0.5","32.9","-9999","-9999","-9999.00","-9999.00","Overcast","cloudy","0","0","0","0","0","0","METAR UKKK 300730Z 29007MPS 9999 BKN013 OVC024 05/02 Q1007 R26/290158 NOSIG"
"10:00 AM EET on October 30, 2016","2016","10","30","10","00","Europe/Kiev","8:00 AM GMT on October 30, 2016","2016","10","30","08","00","UTC","5.0","41.0","2.0","35.6","81","28.8","17.9","-9999.0","-9999.0","290","WNW","10.0","6.2","1007","29.74","0.2","32.3","-9999","-9999","-9999.00","-9999.00","Overcast","cloudy","0","0","0","0","0","0","METAR UKKK 300800Z 29008MPS 9999 BKN014 OVC026 05/02 Q1007 R26/190060 NOSIG"
"10:17 AM EET on October 30, 2016","2016","10","30","10","17","Europe/Kiev","8:17 AM GMT on October 30, 2016","2016","10","30","08","17","UTC","5.0","41.0","3.0","37.4","87","25.2","15.7","43.2","26.8","290","WNW","10.0","6.2","1007","29.74","0.5","32.9","-9999","-9999","-9999.00","-9999.00","Overcast","cloudy","0","0","0","0","0","0","SPECI UKKK 300817Z 29007G12MPS 9999 BKN014 OVC026 05/03 Q1007 R26/190060 NOSIG"
"10:30 AM EET on October 30, 2016","2016","10","30","10","30","Europe/Kiev","8:30 AM GMT on October 30, 2016","2016","10","30","08","30","UTC","5.0","41.0","2.0","35.6","81","25.2","15.7","-9999.0","-9999.0","290","WNW","10.0","6.2","1007","29.74","0.5","32.9","-9999","-9999","-9999.00","-9999.00","Light Rain","rain","0","1","0","0","0","0","METAR UKKK 300830Z 29007MPS 9999 -RA BKN016 OVC027 05/02 Q1007 R26/190060 NOSIG"
"11:00 AM EET on October 30, 2016","2016","10","30","11","00","Europe/Kiev","9:00 AM GMT on October 30, 2016","2016","10","30","09","00","UTC","5","42","3","37","75","14.4","8.9","","","320","NW","20","12","1008","29.77","-999","-999","-9999","-9999","","","Overcast","cloudy","0","0","0","0","0","0","AAXX 30091 33345 42598 83204 10053 20026 39875 40079 57006 885// 333 88624 555 11006"
"11:00 AM EET on October 30, 2016","2016","10","30","11","00","Europe/Kiev","9:00 AM GMT on October 30, 2016","2016","10","30","09","00","UTC","5.0","41.0","3.0","37.4","87","25.2","15.7","-9999.0","-9999.0","290","WNW","10.0","6.2","1007","29.74","0.5","32.9","-9999","-9999","-9999.00","-9999.00","Overcast","cloudy","0","0","0","0","0","0","METAR UKKK 300900Z 29007MPS 9999 BKN016 OVC027 05/03 Q1007 R26/190060 NOSIG"
"11:30 AM EET on October 30, 2016","2016","10","30","11","30","Europe/Kiev","9:30 AM GMT on October 30, 2016","2016","10","30","09","30","UTC","6.0","42.8","2.0","35.6","76","28.8","17.9","46.8","29.1","290","WNW","10.0","6.2","1007","29.74","1.5","34.7","-9999","-9999","-9999.00","-9999.00","Mostly Cloudy","mostlycloudy","0","0","0","0","0","0","METAR UKKK 300930Z 29008G13MPS 9999 SCT018 BKN034 06/02 Q1007 R26/190060 NOSIG"
"12:00 PM EET on October 30, 2016","2016","10","30","12","00","Europe/Kiev","10:00 AM GMT on October 30, 2016","2016","10","30","10","00","UTC","6.0","42.8","2.0","35.6","76","32.4","20.1","-9999.0","-9999.0","290","WNW","10.0","6.2","1007","29.74","1.2","34.1","-9999","-9999","-9999.00","-9999.00","Mostly Cloudy","mostlycloudy","0","0","0","0","0","0","METAR UKKK 301000Z 29009MPS 9999 BKN020 06/02 Q1007 R26/190060 NOSIG"
"12:30 PM EET on October 30, 2016","2016","10","30","12","30","Europe/Kiev","10:30 AM GMT on October 30, 2016","2016","10","30","10","30","UTC","7.0","44.6","2.0","35.6","71","28.8","17.9","46.8","29.1","290","WNW","10.0","6.2","1007","29.74","2.8","37.0","-9999","-9999","-9999.00","-9999.00","Mostly Cloudy","mostlycloudy","0","0","0","0","0","0","METAR UKKK 301030Z 29008G13MPS 9999 BKN020 07/02 Q1007 R26/190060 NOSIG"
"1:00 PM EET on October 30, 2016","2016","10","30","13","00","Europe/Kiev","11:00 AM GMT on October 30, 2016","2016","10","30","11","00","UTC","7.0","44.6","3.0","37.4","76","28.8","17.9","-9999.0","-9999.0","280","West","10.0","6.2","1006","29.71","2.8","37.0","-9999","-9999","-9999.00","-9999.00","Mostly Cloudy","mostlycloudy","0","0","0","0","0","0","METAR UKKK 301100Z 28008MPS 9999 BKN032 07/03 Q1006 R26/190060 NOSIG"
"1:30 PM EET on October 30, 2016","2016","10","30","13","30","Europe/Kiev","11:30 AM GMT on October 30, 2016","2016","10","30","11","30","UTC","7.0","44.6","3.0","37.4","76","28.8","17.9","-9999.0","-9999.0","280","West","10.0","6.2","1006","29.71","2.8","37.0","-9999","-9999","-9999.00","-9999.00","Light Rain Showers","rain","0","1","0","0","0","0","METAR UKKK 301130Z 28008MPS 9999 -SHRA SCT021CB BKN031 07/03 Q1006 R26/290058 NOSIG"
"2:00 PM EET on October 30, 2016","2016","10","30","14","00","Europe/Kiev","12:00 PM GMT on October 30, 2016","2016","10","30","12","00","UTC","6","42","3","38","79","10.8","6.7","","","350","North","20","12","1007","29.75","-999","-999","-9999","-9999","","","Light Rain Showers","rain","0","1","0","0","0","0","AAXX 30121 33345 /1598 83503 10056 20032 39869 40073 57006 78082 883// 333 88921 555 11007 69961"
"2:00 PM EET on October 30, 2016","2016","10","30","14","00","Europe/Kiev","12:00 PM GMT on October 30, 2016","2016","10","30","12","00","UTC","5.0","41.0","3.0","37.4","87","28.8","17.9","-9999.0","-9999.0","300","WNW","9.0","5.6","1007","29.74","0.2","32.3","-9999","-9999","-9999.00","-9999.00","Mostly Cloudy","mostlycloudy","0","0","0","0","0","0","METAR UKKK 301200Z 30008MPS 9000 FEW008 SCT019CB BKN033 05/03 Q1007 R26/290058 NOSIG"
"2:30 PM EET on October 30, 2016","2016","10","30","14","30","Europe/Kiev","12:30 PM GMT on October 30, 2016","2016","10","30","12","30","UTC","6.0","42.8","4.0","39.2","87","21.6","13.4","-9999.0","-9999.0","280","West","10.0","6.2","1007","29.74","2.2","35.9","-9999","-9999","-9999.00","-9999.00","Mostly Cloudy","mostlycloudy","0","0","0","0","0","0","METAR UKKK 301230Z 28006MPS 9999 FEW021CB BKN045 BKN100 06/04 Q1007 R26/290058 NOSIG"
"3:00 PM EET on October 30, 2016","2016","10","30","15","00","Europe/Kiev","1:00 PM GMT on October 30, 2016","2016","10","30","13","00","UTC","6.0","42.8","3.0","37.4","81","21.6","13.4","-9999.0","-9999.0","290","WNW","10.0","6.2","1007","29.74","2.2","35.9","-9999","-9999","-9999.00","-9999.00","Light Rain Showers","rain","0","1","0","0","0","0","METAR UKKK 301300Z 29006MPS 9999 -SHRA SCT019CB BKN045 06/03 Q1007 R26/290058 TEMPO 31009G14MPS 2100 -SHRA BKN006 SCT015CB"
"3:08 PM EET on October 30, 2016","2016","10","30","15","08","Europe/Kiev","1:08 PM GMT on October 30, 2016","2016","10","30","13","08","UTC","6.0","42.8","3.0","37.4","81","25.2","15.7","46.8","29.1","290","WNW","10.0","6.2","1007","29.74","1.8","35.2","-9999","-9999","-9999.00","-9999.00","Light Rain Showers","rain","0","1","0","0","0","0","SPECI UKKK 301308Z 29007G13MPS 9999 -SHRA SCT019CB BKN045 06/03 Q1007 R26/290058 TEMPO 31009G14MPS 2100 -SHRA BKN006 SCT015CB"
"3:30 PM EET on October 30, 2016","2016","10","30","15","30","Europe/Kiev","1:30 PM GMT on October 30, 2016","2016","10","30","13","30","UTC","5.0","41.0","3.0","37.4","87","28.8","17.9","-9999.0","-9999.0","300","WNW","8.0","5.0","1007","29.74","0.2","32.3","-9999","-9999","-9999.00","-9999.00","Light Rain Showers","rain","0","1","0","0","0","0","METAR UKKK 301330Z 30008MPS 8000 -SHRA SCT015CB BKN043 05/03 Q1007 R26/290058 TEMPO 31009G14MPS 2100 -SHRA BKN006 SCT015CB"
"4:00 PM EET on October 30, 2016","2016","10","30","16","00","Europe/Kiev","2:00 PM GMT on October 30, 2016","2016","10","30","14","00","UTC","5.0","41.0","3.0","37.4","87","25.2","15.7","-9999.0","-9999.0","290","WNW","10.0","6.2","1007","29.74","0.5","32.9","-9999","-9999","-9999.00","-9999.00","Mostly Cloudy","mostlycloudy","0","0","0","0","0","0","METAR UKKK 301400Z 29007MPS 9999 SCT016CB BKN043 05/03 Q1007 R26/290058 TEMPO 31009G14MPS 2100 -SHRA BKN006 SCT015CB"
"4:30 PM EET on October 30, 2016","2016","10","30","16","30","Europe/Kiev","2:30 PM GMT on October 30, 2016","2016","10","30","14","30","UTC","5.0","41.0","3.0","37.4","87","21.6","13.4","-9999.0","-9999.0","290","WNW","10.0","6.2","1007","29.74","0.9","33.6","-9999","-9999","-9999.00","-9999.00","Mostly Cloudy","mostlycloudy","0","0","0","0","0","0","METAR UKKK 301430Z 29006MPS 9999 SCT012 BKN045 05/03 Q1007 R26/290058 NOSIG"
"5:00 PM EET on October 30, 2016","2016","10","30","17","00","Europe/Kiev","3:00 PM GMT on October 30, 2016","2016","10","30","15","00","UTC","5","40","3","37","87","10.8","6.7","","","330","NNW","20","12","1009","29.79","-999","-999","-9999","-9999","","","Partly Cloudy","partlycloudy","0","0","0","0","0","0","AAXX 30151 33345 41498 83303 10047 20030 39881 40086 53012 70282 8537/ 333 85915 555 11004"
"5:00 PM EET on October 30, 2016","2016","10","30","17","00","Europe/Kiev","3:00 PM GMT on October 30, 2016","2016","10","30","15","00","UTC","5.0","41.0","3.0","37.4","87","21.6","13.4","-9999.0","-9999.0","290","WNW","10.0","6.2","1008","29.77","0.9","33.6","-9999","-9999","-9999.00","-9999.00","Mostly Cloudy","mostlycloudy","0","0","0","0","0","0","METAR UKKK 301500Z 29006MPS 9999 SCT012 BKN038 05/03 Q1008 R26/290058 NOSIG"
"5:30 PM EET on October 30, 2016","2016","10","30","17","30","Europe/Kiev","3:30 PM GMT on October 30, 2016","2016","10","30","15","30","UTC","5.0","41.0","3.0","37.4","87","21.6","13.4","-9999.0","-9999.0","280","West","10.0","6.2","1008","29.77","0.9","33.6","-9999","-9999","-9999.00","-9999.00","Mostly Cloudy","mostlycloudy","0","0","0","0","0","0","METAR UKKK 301530Z 28006MPS 9999 SCT011 BKN023 05/03 Q1008 R26/290058 NOSIG"
"6:00 PM EET on October 30, 2016","2016","10","30","18","00","Europe/Kiev","4:00 PM GMT on October 30, 2016","2016","10","30","16","00","UTC","5.0","41.0","3.0","37.4","87","18.0","11.2","-9999.0","-9999.0","290","WNW","10.0","6.2","1008","29.77","1.3","34.4","-9999","-9999","-9999.00","-9999.00","Mostly Cloudy","mostlycloudy","0","0","0","0","0","0","METAR UKKK 301600Z 29005MPS 9999 SCT012 BKN023 05/03 Q1008 R26/290058 NOSIG"
"6:30 PM EET on October 30, 2016","2016","10","30","18","30","Europe/Kiev","4:30 PM GMT on October 30, 2016","2016","10","30","16","30","UTC","4.0","39.2","3.0","37.4","93","21.6","13.4","-9999.0","-9999.0","280","West","10.0","6.2","1008","29.77","-0.4","31.3","-9999","-9999","-9999.00","-9999.00","Mostly Cloudy","mostlycloudy","0","0","0","0","0","0","METAR UKKK 301630Z 28006MPS 9999 SCT012 BKN026 04/03 Q1008 R26/290058 NOSIG"
"7:00 PM EET on October 30, 2016","2016","10","30","19","00","Europe/Kiev","5:00 PM GMT on October 30, 2016","2016","10","30","17","00","UTC","5.0","41.0","3.0","37.4","87","21.6","13.4","-9999.0","-9999.0","280","West","10.0","6.2","1008","29.77","0.9","33.6","-9999","-9999","-9999.00","-9999.00","Mostly Cloudy","mostlycloudy","0","0","0","0","0","0","METAR UKKK 301700Z 28006MPS 9999 BKN010 BKN028 05/03 Q1008 R26/290058 NOSIG"
"7:30 PM EET on October 30, 2016","2016","10","30","19","30","Europe/Kiev","5:30 PM GMT on October 30, 2016","2016","10","30","17","30","UTC","5.0","41.0","3.0","37.4","87","21.6","13.4","-9999.0","-9999.0","280","West","10.0","6.2","1008","29.77","0.9","33.6","-9999","-9999","-9999.00","-9999.00","Light Rain","rain","0","1","0","0","0","0","METAR UKKK 301730Z 28006MPS 9999 -RA BKN010 OVC028 05/03 Q1008 R26/290058 NOSIG"
"8:00 PM EET on October 30, 2016","2016","10","30","20","00","Europe/Kiev","6:00 PM GMT on October 30, 2016","2016","10","30","18","00","UTC","5","41","3","38","83","10.8","6.7","","","310","NW","20","12","1009","29.81","-999","-999","-9999","-9999","","","Light Rain","rain","0","1","0","0","0","0","AAXX 30181 33345 11498 83103 10048 20031 39887 40092 51006 60032 76186 8872/ 333 10070 88714 555 11004"
"8:00 PM EET on October 30, 2016","2016","10","30","20","00","Europe/Kiev","6:00 PM GMT on October 30, 2016","2016","10","30","18","00","UTC","5.0","41.0","3.0","37.4","87","21.6","13.4","-9999.0","-9999.0","290","WNW","10.0","6.2","1008","29.77","0.9","33.6","-9999","-9999","-9999.00","-9999.00","Light Rain","rain","0","1","0","0","0","0","METAR UKKK 301800Z 29006MPS 9999 -RA BKN010 OVC028 05/03 Q1008 R26/290058 NOSIG"
"8:30 PM EET on October 30, 2016","2016","10","30","20","30","Europe/Kiev","6:30 PM GMT on October 30, 2016","2016","10","30","18","30","UTC","5.0","41.0","3.0","37.4","87","21.6","13.4","-9999.0","-9999.0","290","WNW","10.0","6.2","1009","29.80","0.9","33.6","-9999","-9999","-9999.00","-9999.00","Light Rain","rain","0","1","0","0","0","0","METAR UKKK 301830Z 29006MPS 9999 -RA BKN010 OVC028 05/03 Q1009 R26/290158 NOSIG"
"9:00 PM EET on October 30, 2016","2016","10","30","21","00","Europe/Kiev","7:00 PM GMT on October 30, 2016","2016","10","30","19","00","UTC","5.0","41.0","3.0","37.4","87","21.6","13.4","-9999.0","-9999.0","310","NW","10.0","6.2","1009","29.80","0.9","33.6","-9999","-9999","-9999.00","-9999.00","Light Rain","rain","0","1","0","0","0","0","METAR UKKK 301900Z 31006MPS 9999 -RA BKN010 OVC021 05/03 Q1009 R26/290158 NOSIG"
"9:30 PM EET on October 30, 2016","2016","10","30","21","30","Europe/Kiev","7:30 PM GMT on October 30, 2016","2016","10","30","19","30","UTC","4.0","39.2","3.0","37.4","93","18.0","11.2","-9999.0","-9999.0","320","NW","10.0","6.2","1009","29.80","0.1","32.2","-9999","-9999","-9999.00","-9999.00","Light Rain","rain","0","1","0","0","0","0","METAR UKKK 301930Z 32005MPS 9999 -RA BKN010 OVC021 04/03 Q1009 R26/290158 NOSIG"
"10:00 PM EET on October 30, 2016","2016","10","30","22","00","Europe/Kiev","8:00 PM GMT on October 30, 2016","2016","10","30","20","00","UTC","4.0","39.2","3.0","37.4","93","14.4","8.9","-9999.0","-9999.0","330","NNW","5.0","3.1","1009","29.80","0.6","33.1","-9999","-9999","-9999.00","-9999.00","Light Rain","rain","0","1","0","0","0","0","METAR UKKK 302000Z 33004MPS 300V360 5000 -RA BKN008 OVC021 04/03 Q1009 R26/290158 NOSIG"
"10:30 PM EET on October 30, 2016","2016","10","30","22","30","Europe/Kiev","8:30 PM GMT on October 30, 2016","2016","10","30","20","30","UTC","4.0","39.2","3.0","37.4","93","18.0","11.2","-9999.0","-9999.0","320","NW","10.0","6.2","1009","29.80","0.1","32.2","-9999","-9999","-9999.00","-9999.00","Light Rain","rain","0","1","0","0","0","0","METAR UKKK 302030Z 32005MPS 300V360 9999 -RA BKN010 OVC021 04/03 Q1009 R26/290158 NOSIG"
"12:00 AM EET on October 31, 2016","2016","10","31","00","00","Europe/Kiev","10:00 PM GMT on October 30, 2016","2016","10","30","22","00","UTC","4.0","39.2","2.0","35.6","87","21.6","13.4","-9999.0","-9999.0","320","NW","7.0","4.3","1010","29.83","-0.4","31.3","-9999","-9999","-9999.00","-9999.00","Light Rain","rain","0","1","0","0","0","0","METAR UKKK 302200Z 32006MPS 7000 -RA BKN010 OVC028 04/02 Q1010 R26/290158 NOSIG"
"12:30 AM EET on October 31, 2016","2016","10","31","00","30","Europe/Kiev","10:30 PM GMT on October 30, 2016","2016","10","30","22","30","UTC","4.0","39.2","2.0","35.6","87","14.4","8.9","-9999.0","-9999.0","320","NW","10.0","6.2","1010","29.83","0.6","33.1","-9999","-9999","-9999.00","-9999.00","Light Rain","rain","0","1","0","0","0","0","METAR UKKK 302230Z 32004MPS 290V350 9999 -RA BKN010 OVC028 04/02 Q1010 R26/290158 NOSIG"
"1:00 AM EET on October 31, 2016","2016","10","31","01","00","Europe/Kiev","11:00 PM GMT on October 30, 2016","2016","10","30","23","00","UTC","3.0","37.4","2.0","35.6","93","18.0","11.2","-9999.0","-9999.0","320","NW","10.0","6.2","1010","29.83","-1.2","29.9","-9999","-9999","-9999.00","-9999.00","Light Rain","rain","0","1","0","0","0","0","METAR UKKK 302300Z 32005MPS 9999 -RA BKN010 OVC028 03/02 Q1010 R26/290158 NOSIG"
"1:30 AM EET on October 31, 2016","2016","10","31","01","30","Europe/Kiev","11:30 PM GMT on October 30, 2016","2016","10","30","23","30","UTC","4.0","39.2","2.0","35.6","87","18.0","11.2","-9999.0","-9999.0","320","NW","10.0","6.2","1010","29.83","0.1","32.2","-9999","-9999","-9999.00","-9999.00","Light Rain","rain","0","1","0","0","0","0","METAR UKKK 302330Z 32005MPS 9999 -RA BKN010 OVC023 04/02 Q1010 R26/290158 NOSIG"
"2:00 AM EET on October 31, 2016","2016","10","31","02","00","Europe/Kiev","12:00 AM GMT on October 31, 2016","2016","10","31","00","00","UTC","3","38","2","36","88","10.8","6.7","","","0","North","10","6","1012","29.87","-999","-999","-9999","-9999","","","Light Rain","rain","0","1","0","0","0","0","AAXX 31001 33345 /1497 83603 10034 20021 39909 40115 52010 76162 8872/ 333 88712 555 11003 60011"
"2:00 AM EET on October 31, 2016","2016","10","31","02","00","Europe/Kiev","12:00 AM GMT on October 31, 2016","2016","10","31","00","00","UTC","3.0","37.4","2.0","35.6","93","18.0","11.2","-9999.0","-9999.0","330","NNW","8.0","5.0","1011","29.86","-1.2","29.9","-9999","-9999","-9999.00","-9999.00","Light Rain","rain","0","1","0","0","0","0","METAR UKKK 310000Z 33005MPS 8000 -RA BKN010 OVC023 03/02 Q1011 R26/290158 NOSIG"
"2:30 AM EET on October 31, 2016","2016","10","31","02","30","Europe/Kiev","12:30 AM GMT on October 31, 2016","2016","10","31","00","30","UTC","3.0","37.4","2.0","35.6","93","21.6","13.4","-9999.0","-9999.0","320","NW","10.0","6.2","1011","29.86","-1.6","29.1","-9999","-9999","-9999.00","-9999.00","Light Rain","rain","0","1","0","0","0","0","METAR UKKK 310030Z 32006MPS 9999 -RA BKN009 OVC023 03/02 Q1011 R26/290158 NOSIG"
"3:00 AM EET on October 31, 2016","2016","10","31","03","00","Europe/Kiev","1:00 AM GMT on October 31, 2016","2016","10","31","01","00","UTC","3.0","37.4","2.0","35.6","93","18.0","11.2","-9999.0","-9999.0","330","NNW","10.0","6.2","1011","29.86","-1.2","29.9","-9999","-9999","-9999.00","-9999.00","Light Rain","rain","0","1","0","0","0","0","METAR UKKK 310100Z 33005MPS 9999 -RA BKN009 OVC023 03/02 Q1011 R26/290158 NOSIG"
"3:30 AM EET on October 31, 2016","2016","10","31","03","30","Europe/Kiev","1:30 AM GMT on October 31, 2016","2016","10","31","01","30","UTC","3.0","37.4","2.0","35.6","93","14.4","8.9","-9999.0","-9999.0","320","NW","9.0","5.6","1011","29.86","-0.6","30.9","-9999","-9999","-9999.00","-9999.00","Light Rain","rain","0","1","0","0","0","0","METAR UKKK 310130Z 32004MPS 9000 -RA BKN007 OVC023 03/02 Q1011 R26/290158 NOSIG"
"4:00 AM EET on October 31, 2016","2016","10","31","04","00","Europe/Kiev","2:00 AM GMT on October 31, 2016","2016","10","31","02","00","UTC","3.0","37.4","2.0","35.6","93","14.4","8.9","-9999.0","-9999.0","330","NNW","10.0","6.2","1011","29.86","-0.6","30.9","-9999","-9999","-9999.00","-9999.00","Light Rain","rain","0","1","0","0","0","0","METAR UKKK 310200Z 33004MPS 9999 -RA BKN007 OVC023 03/02 Q1011 R26/290158 NOSIG"
"4:30 AM EET on October 31, 2016","2016","10","31","04","30","Europe/Kiev","2:30 AM GMT on October 31, 2016","2016","10","31","02","30","UTC","3.0","37.4","2.0","35.6","93","14.4","8.9","-9999.0","-9999.0","340","NNW","9.0","5.6","1011","29.86","-0.6","30.9","-9999","-9999","-9999.00","-9999.00","Light Rain","rain","0","1","0","0","0","0","METAR UKKK 310230Z 34004MPS 9000 -RA BKN008 OVC021 03/02 Q1011 R26/290158 NOSIG"
"5:00 AM EET on October 31, 2016","2016","10","31","05","00","Europe/Kiev","3:00 AM GMT on October 31, 2016","2016","10","31","03","00","UTC","3","37","2","35","90","14.4","8.9","","","350","North","10","6","1012","29.89","-999","-999","-9999","-9999","","","Light Rain","rain","0","1","0","0","0","0","AAXX 31031 33345 41497 83504 10030 20017 39913 40120 52004 76162 8872/ 333 88714 555 11003"
"5:00 AM EET on October 31, 2016","2016","10","31","05","00","Europe/Kiev","3:00 AM GMT on October 31, 2016","2016","10","31","03","00","UTC","3.0","37.4","2.0","35.6","93","18.0","11.2","-9999.0","-9999.0","330","NNW","10.0","6.2","1011","29.86","-1.2","29.9","-9999","-9999","-9999.00","-9999.00","Light Rain","rain","0","1","0","0","0","0","METAR UKKK 310300Z 33005MPS 9999 -RA BKN008 OVC027 03/02 Q1011 R26/290158 NOSIG"
"5:30 AM EET on October 31, 2016","2016","10","31","05","30","Europe/Kiev","3:30 AM GMT on October 31, 2016","2016","10","31","03","30","UTC","3.0","37.4","2.0","35.6","93","18.0","11.2","36.0","22.4","330","NNW","9.0","5.6","1011","29.86","-1.2","29.9","-9999","-9999","-9999.00","-9999.00","Light Rain","rain","0","1","0","0","0","0","METAR UKKK 310330Z 33005G10MPS 300V360 9000 -RA BKN007 OVC023 03/02 Q1011 R26/290158 NOSIG"
"6:00 AM EET on October 31, 2016","2016","10","31","06","00","Europe/Kiev","4:00 AM GMT on October 31, 2016","2016","10","31","04","00","UTC","3.0","37.4","2.0","35.6","93","18.0","11.2","-9999.0","-9999.0","330","NNW","8.0","5.0","1011","29.86","-1.2","29.9","-9999","-9999","-9999.00","-9999.00","Light Rain","rain","0","1","0","0","0","0","METAR UKKK 310400Z 33005MPS 8000 -RA BKN007 OVC023 03/02 Q1011 R26/290158 NOSIG"
"6:30 AM EET on October 31, 2016","2016","10","31","06","30","Europe/Kiev","4:30 AM GMT on October 31, 2016","2016","10","31","04","30","UTC","3.0","37.4","2.0","35.6","93","18.0","11.2","-9999.0","-9999.0","330","NNW","9.0","5.6","1011","29.86","-1.2","29.9","-9999","-9999","-9999.00","-9999.00","Light Rain","rain","0","1","0","0","0","0","METAR UKKK 310430Z 33005MPS 9000 -RA BKN007 OVC023 03/02 Q1011 R26/290158 NOSIG"
"7:00 AM EET on October 31, 2016","2016","10","31","07","00","Europe/Kiev","5:00 AM GMT on October 31, 2016","2016","10","31","05","00","UTC","3.0","37.4","1.0","33.8","87","18.0","11.2","-9999.0","-9999.0","320","NW","10.0","6.2","1012","29.89","-1.2","29.9","-9999","-9999","-9999.00","-9999.00","Light Rain","rain","0","1","0","0","0","0","METAR UKKK 310500Z 32005MPS 9999 -RA BKN008 OVC021 03/01 Q1012 R26/290158 NOSIG"
"7:30 AM EET on October 31, 2016","2016","10","31","07","30","Europe/Kiev","5:30 AM GMT on October 31, 2016","2016","10","31","05","30","UTC","3.0","37.4","1.0","33.8","87","18.0","11.2","-9999.0","-9999.0","320","NW","10.0","6.2","1012","29.89","-1.2","29.9","-9999","-9999","-9999.00","-9999.00","Overcast","cloudy","0","0","0","0","0","0","METAR UKKK 310530Z 32005MPS 9999 BKN010 OVC028 03/01 Q1012 R26/290158 NOSIG"
"8:00 AM EET on October 31, 2016","2016","10","31","08","00","Europe/Kiev","6:00 AM GMT on October 31, 2016","2016","10","31","06","00","UTC","3","37","1","34","85","14.4","8.9","","","350","North","20","12","1013","29.93","-999","-999","-9999","-9999","","","Light Rain","rain","0","1","0","0","0","0","AAXX 31061 33345 11498 83504 10030 20012 39927 40134 52014 60022 76162 8872/ 333 20028 88712 555 11003 31003 52002"
"8:00 AM EET on October 31, 2016","2016","10","31","08","00","Europe/Kiev","6:00 AM GMT on October 31, 2016","2016","10","31","06","00","UTC","3.0","37.4","2.0","35.6","93","18.0","11.2","-9999.0","-9999.0","320","NW","9.0","5.6","1012","29.89","-1.2","29.9","-9999","-9999","-9999.00","-9999.00","Light Rain","rain","0","1","0","0","0","0","METAR UKKK 310600Z 32005MPS 9000 -RA BKN008 OVC028 03/02 Q1012 R26/290158 NOSIG"
"8:30 AM EET on October 31, 2016","2016","10","31","08","30","Europe/Kiev","6:30 AM GMT on October 31, 2016","2016","10","31","06","30","UTC","3.0","37.4","2.0","35.6","93","18.0","11.2","-9999.0","-9999.0","320","NW","9.0","5.6","1012","29.89","-1.2","29.9","-9999","-9999","-9999.00","-9999.00","Light Rain","rain","0","1","0","0","0","0","METAR UKKK 310630Z 32005MPS 9000 -RA BKN007 OVC020 03/02 Q1012 R26/290158 NOSIG"
"9:00 AM EET on October 31, 2016","2016","10","31","09","00","Europe/Kiev","7:00 AM GMT on October 31, 2016","2016","10","31","07","00","UTC","3.0","37.4","2.0","35.6","93","18.0","11.2","-9999.0","-9999.0","330","NNW","9.0","5.6","1013","29.92","-1.2","29.9","-9999","-9999","-9999.00","-9999.00","Light Rain","rain","0","1","0","0","0","0","METAR UKKK 310700Z 33005MPS 9000 -RA BKN009 OVC023 03/02 Q1013 R26/290158 NOSIG"
"9:30 AM EET on October 31, 2016","2016","10","31","09","30","Europe/Kiev","7:30 AM GMT on October 31, 2016","2016","10","31","07","30","UTC","3.0","37.4","2.0","35.6","93","18.0","11.2","-9999.0","-9999.0","360","North","9.0","5.6","1013","29.92","-1.2","29.9","-9999","-9999","-9999.00","-9999.00","Light Rain","rain","0","1","0","0","0","0","METAR UKKK 310730Z 36005MPS 340V050 9000 -RA BKN010 OVC023 03/02 Q1013 R26/290256 NOSIG"
"10:00 AM EET on October 31, 2016","2016","10","31","10","00","Europe/Kiev","8:00 AM GMT on October 31, 2016","2016","10","31","08","00","UTC","1.0","33.8","1.0","33.8","100","18.0","11.2","-9999.0","-9999.0","30","NNE","6.0","3.7","1013","29.92","-3.7","25.4","-9999","-9999","-9999.00","-9999.00","Light Rain","snow","0","1","1","0","0","0","METAR UKKK 310800Z 03005MPS 340V060 6000 -RASN BKN005 OVC020 01/01 Q1013 R26/290256 TEMPO 2100 -SHRASN BKN005 SCT015CB"
"10:30 AM EET on October 31, 2016","2016","10","31","10","30","Europe/Kiev","8:30 AM GMT on October 31, 2016","2016","10","31","08","30","UTC","1.0","33.8","0.0","32.0","93","18.0","11.2","-9999.0","-9999.0","20","NNE","8.0","5.0","1014","29.95","-3.7","25.4","-9999","-9999","-9999.00","-9999.00","Light Rain","snow","0","1","1","0","0","0","METAR UKKK 310830Z 02005MPS 8000 -RASN BKN005 OVC020 01/00 Q1014 R08/290256 TEMPO 2100 -SHRASN BKN005 SCT015CB"
"11:00 AM EET on October 31, 2016","2016","10","31","11","00","Europe/Kiev","9:00 AM GMT on October 31, 2016","2016","10","31","09","00","UTC","1","34","-0","31","85","10.8","6.7","","","30","NNE","4","2","1015","29.98","-999","-999","-9999","-9999","","","Light Snow","snow","0","0","1","0","0","0","AAXX 31091 33345 41496 80303 10012 21005 39943 40152 52016 77176 8872/ 333 88711 555 11003"
"11:00 AM EET on October 31, 2016","2016","10","31","11","00","Europe/Kiev","9:00 AM GMT on October 31, 2016","2016","10","31","09","00","UTC","1.0","33.8","0.0","32.0","93","14.4","8.9","-9999.0","-9999.0","20","NNE","8.0","5.0","1014","29.95","-3.0","26.5","-9999","-9999","-9999.00","-9999.00","Light Rain","snow","0","1","1","0","0","0","METAR UKKK 310900Z 02004MPS 8000 -RASN BKN010 OVC019 01/00 Q1014 R08/290256 NOSIG"
"11:30 AM EET on October 31, 2016","2016","10","31","11","30","Europe/Kiev","9:30 AM GMT on October 31, 2016","2016","10","31","09","30","UTC","1.0","33.8","0.0","32.0","93","10.8","6.7","-9999.0","-9999.0","360","North","9.0","5.6","1014","29.95","-2.3","27.9","-9999","-9999","-9999.00","-9999.00","Light Rain","snow","0","1","1","0","0","0","METAR UKKK 310930Z 36003MPS 9000 -RASN BKN009 OVC022 01/00 Q1014 R08/290256 NOSIG"
"12:00 PM EET on October 31, 2016","2016","10","31","12","00","Europe/Kiev","10:00 AM GMT on October 31, 2016","2016","10","31","10","00","UTC","2.0","35.6","0.0","32.0","87","14.4","8.9","-9999.0","-9999.0","340","NNW","10.0","6.2","1014","29.95","-1.8","28.7","-9999","-9999","-9999.00","-9999.00","Light Snow","snow","0","0","1","0","0","0","METAR UKKK 311000Z 34004MPS 9999 -SN BKN013 OVC040 02/M00 Q1014 R08/290256 NOSIG"
"12:30 PM EET on October 31, 2016","2016","10","31","12","30","Europe/Kiev","10:30 AM GMT on October 31, 2016","2016","10","31","10","30","UTC","2.0","35.6","-1.0","30.2","81","14.4","8.9","-9999.0","-9999.0","350","North","10.0","6.2","1014","29.95","-1.8","28.7","-9999","-9999","-9999.00","-9999.00","Light Snow","snow","0","0","1","0","0","0","METAR UKKK 311030Z 35004MPS 9999 -SN SCT014 OVC040 02/M01 Q1014 R26/290256 NOSIG"
"1:00 PM EET on October 31, 2016","2016","10","31","13","00","Europe/Kiev","11:00 AM GMT on October 31, 2016","2016","10","31","11","00","UTC","2.0","35.6","-1.0","30.2","81","14.4","8.9","-9999.0","-9999.0","330","NNW","10.0","6.2","1014","29.95","-1.8","28.7","-9999","-9999","-9999.00","-9999.00","Light Snow","snow","0","0","1","0","0","0","METAR UKKK 311100Z 33004MPS 9999 -SN BKN011 OVC040 02/M01 Q1014 R26/290256 NOSIG"
"1:30 PM EET on October 31, 2016","2016","10","31","13","30","Europe/Kiev","11:30 AM GMT on October 31, 2016","2016","10","31","11","30","UTC","2.0","35.6","-1.0","30.2","81","14.4","8.9","-9999.0","-9999.0","330","NNW","10.0","6.2","1014","29.95","-1.8","28.7","-9999","-9999","-9999.00","-9999.00","Light Snow","snow","0","0","1","0","0","0","METAR UKKK 311130Z 33004MPS 310V010 9999 -SN SCT015 OVC040 02/M01 Q1014 R26/290256 NOSIG"
"2:00 PM EET on October 31, 2016","2016","10","31","14","00","Europe/Kiev","12:00 PM GMT on October 31, 2016","2016","10","31","12","00","UTC","2","35","-2","29","71","10.8","6.7","","","20","NNE","10","6","1016","30.01","-999","-999","-9999","-9999","","","Light Snow","snow","0","0","1","0","0","0","AAXX 31121 33345 /1497 80203 10015 21016 39951 40160 52008 77176 8872/ 333 88717 555 11003 69971"
"2:00 PM EET on October 31, 2016","2016","10","31","14","00","Europe/Kiev","12:00 PM GMT on October 31, 2016","2016","10","31","12","00","UTC","1.0","33.8","-1.0","30.2","87","14.4","8.9","-9999.0","-9999.0","340","NNW","10.0","6.2","1015","29.98","-3.0","26.5","-9999","-9999","-9999.00","-9999.00","Light Snow","snow","0","0","1","0","0","0","METAR UKKK 311200Z 34004MPS 9999 -SN BKN014 OVC040 01/M01 Q1015 R26/290256 NOSIG"
"2:30 PM EET on October 31, 2016","2016","10","31","14","30","Europe/Kiev","12:30 PM GMT on October 31, 2016","2016","10","31","12","30","UTC","1.0","33.8","-1.0","30.2","87","14.4","8.9","-9999.0","-9999.0","340","NNW","9.0","5.6","1015","29.98","-3.0","26.5","-9999","-9999","-9999.00","-9999.00","Light Snow","snow","0","0","1","0","0","0","METAR UKKK 311230Z 34004MPS 290V020 9000 -SN BKN012 OVC033 01/M01 Q1015 R26/290256 NOSIG"
"3:00 PM EET on October 31, 2016","2016","10","31","15","00","Europe/Kiev","1:00 PM GMT on October 31, 2016","2016","10","31","13","00","UTC","1.0","33.8","-1.0","30.2","87","18.0","11.2","-9999.0","-9999.0","340","NNW","10.0","6.2","1015","29.98","-3.7","25.4","-9999","-9999","-9999.00","-9999.00","Light Snow","snow","0","0","1","0","0","0","METAR UKKK 311300Z 34005MPS 9999 -SN BKN012 OVC033 01/M01 Q1015 R26/290256 NOSIG"
"3:30 PM EET on October 31, 2016","2016","10","31","15","30","Europe/Kiev","1:30 PM GMT on October 31, 2016","2016","10","31","13","30","UTC","1.0","33.8","-1.0","30.2","87","14.4","8.9","-9999.0","-9999.0","340","NNW","10.0","6.2","1015","29.98","-3.0","26.5","-9999","-9999","-9999.00","-9999.00","Light Snow","snow","0","0","1","0","0","0","METAR UKKK 311330Z 34004MPS 9999 -SN SCT015 OVC030 01/M01 Q1015 R26/250158 NOSIG"
"4:00 PM EET on October 31, 2016","2016","10","31","16","00","Europe/Kiev","2:00 PM GMT on October 31, 2016","2016","10","31","14","00","UTC","1.0","33.8","-1.0","30.2","87","10.8","6.7","-9999.0","-9999.0","330","NNW","9.0","5.6","1015","29.98","-2.3","27.9","-9999","-9999","-9999.00","-9999.00","Light Rain","rain","0","1","0","0","0","0","METAR UKKK 311400Z 33003MPS 290V010 9000 -RA SCT012 OVC030 01/M01 Q1015 R08/250158 NOSIG"
"4:30 PM EET on October 31, 2016","2016","10","31","16","30","Europe/Kiev","2:30 PM GMT on October 31, 2016","2016","10","31","14","30","UTC","1.0","33.8","-1.0","30.2","87","18.0","11.2","-9999.0","-9999.0","340","NNW","9.0","5.6","1016","30.01","-3.7","25.4","-9999","-9999","-9999.00","-9999.00","Light Snow","snow","0","0","1","0","0","0","METAR UKKK 311430Z 34005MPS 310V010 9000 -SN BKN012 OVC030 01/M01 Q1016 R26/250158 NOSIG"
"5:00 PM EET on October 31, 2016","2016","10","31","17","00","Europe/Kiev","3:00 PM GMT on October 31, 2016","2016","10","31","15","00","UTC","1","33","-2","29","80","10.8","6.7","","","10","North","10","6","1017","30.03","-999","-999","-9999","-9999","","","Light Snow","snow","0","0","1","0","0","0","AAXX 31151 33345 41497 80103 10007 21016 39960 40169 52009 77172 8872/ 333 88715 555 11001"
"5:00 PM EET on October 31, 2016","2016","10","31","17","00","Europe/Kiev","3:00 PM GMT on October 31, 2016","2016","10","31","15","00","UTC","0.0","32.0","-1.0","30.2","93","18.0","11.2","-9999.0","-9999.0","330","NNW","9.0","5.6","1016","30.01","-4.9","23.2","-9999","-9999","-9999.00","-9999.00","Light Snow","snow","0","0","1","0","0","0","METAR UKKK 311500Z 33005MPS 9000 -SN SCT012 OVC030 00/M01 Q1016 R26/290058 NOSIG"
"5:30 PM EET on October 31, 2016","2016","10","31","17","30","Europe/Kiev","3:30 PM GMT on October 31, 2016","2016","10","31","15","30","UTC","0.0","32.0","-2.0","28.4","87","14.4","8.9","-9999.0","-9999.0","330","NNW","10.0","6.2","1016","30.01","-4.3","24.3","-9999","-9999","-9999.00","-9999.00","Light Snow","snow","0","0","1","0","0","0","METAR UKKK 311530Z 33004MPS 310V010 9999 -SN SCT012 OVC030 00/M02 Q1016 R26/290158 NOSIG"
"6:00 PM EET on October 31, 2016","2016","10","31","18","00","Europe/Kiev","4:00 PM GMT on October 31, 2016","2016","10","31","16","00","UTC","0.0","32.0","-2.0","28.4","87","14.4","8.9","-9999.0","-9999.0","340","NNW","10.0","6.2","1016","30.01","-4.3","24.3","-9999","-9999","-9999.00","-9999.00","Light Snow","snow","0","0","1","0","0","0","METAR UKKK 311600Z 34004MPS 9999 -SN FEW012 OVC030 00/M02 Q1016 R26/290158 NOSIG"
"6:30 PM EET on October 31, 2016","2016","10","31","18","30","Europe/Kiev","4:30 PM GMT on October 31, 2016","2016","10","31","16","30","UTC","0.0","32.0","-2.0","28.4","87","10.8","6.7","-9999.0","-9999.0","330","NNW","10.0","6.2","1016","30.01","-3.5","25.7","-9999","-9999","-9999.00","-9999.00","Light Snow","snow","0","0","1","0","0","0","METAR UKKK 311630Z 33003MPS 300V360 9999 -SN FEW012 OVC030 00/M02 Q1016 R26/290158 NOSIG"
"7:00 PM EET on October 31, 2016","2016","10","31","19","00","Europe/Kiev","5:00 PM GMT on October 31, 2016","2016","10","31","17","00","UTC","0.0","32.0","-2.0","28.4","87","14.4","8.9","-9999.0","-9999.0","330","NNW","10.0","6.2","1016","30.01","-4.3","24.3","-9999","-9999","-9999.00","-9999.00","Light Snow","snow","0","0","1","0","0","0","METAR UKKK 311700Z 33004MPS 300V360 9999 -SN FEW013 OVC030 00/M02 Q1016 R26/290158 NOSIG"
"7:30 PM EET on October 31, 2016","2016","10","31","19","30","Europe/Kiev","5:30 PM GMT on October 31, 2016","2016","10","31","17","30","UTC","0.0","32.0","-2.0","28.4","87","14.4","8.9","-9999.0","-9999.0","320","NW","10.0","6.2","1016","30.01","-4.3","24.3","-9999","-9999","-9999.00","-9999.00","Light Snow","snow","0","0","1","0","0","0","METAR UKKK 311730Z 32004MPS 9999 -SN FEW014 OVC030 00/M02 Q1016 R26/290158 NOSIG"
"8:00 PM EET on October 31, 2016","2016","10","31","20","00","Europe/Kiev","6:00 PM GMT on October 31, 2016","2016","10","31","18","00","UTC","0","33","-2","28","74","10.8","6.7","","","0","North","10","6","1018","30.06","-999","-999","-9999","-9999","","","Partly Cloudy","partlycloudy","0","0","0","0","0","0","AAXX 31181 33345 11597 63603 10004 21023 39967 40177 52007 69972 70272 86500 333 10033 86630 555 11000"
"8:00 PM EET on October 31, 2016","2016","10","31","20","00","Europe/Kiev","6:00 PM GMT on October 31, 2016","2016","10","31","18","00","UTC","0.0","32.0","-2.0","28.4","87","10.8","6.7","-9999.0","-9999.0","320","NW","9.0","5.6","1016","30.01","-3.5","25.7","-9999","-9999","-9999.00","-9999.00","Light Snow","snow","0","0","1","0","0","0","METAR UKKK 311800Z 32003MPS 9000 -SN FEW013 OVC030 00/M02 Q1016 R26/290158 NOSIG"
"8:30 PM EET on October 31, 2016","2016","10","31","20","30","Europe/Kiev","6:30 PM GMT on October 31, 2016","2016","10","31","18","30","UTC","0.0","32.0","-2.0","28.4","87","14.4","8.9","-9999.0","-9999.0","320","NW","7.0","4.3","1017","30.04","-4.3","24.3","-9999","-9999","-9999.00","-9999.00","Light Snow","snow","0","0","1","0","0","0","METAR UKKK 311830Z 32004MPS 7000 -SN FEW015 OVC030 M00/M02 Q1017 R26/290158 NOSIG"
"9:00 PM EET on October 31, 2016","2016","10","31","21","00","Europe/Kiev","7:00 PM GMT on October 31, 2016","2016","10","31","19","00","UTC","0.0","32.0","-2.0","28.4","87","14.4","8.9","-9999.0","-9999.0","310","NW","9.0","5.6","1017","30.04","-4.3","24.3","-9999","-9999","-9999.00","-9999.00","Light Snow","snow","0","0","1","0","0","0","METAR UKKK 311900Z 31004MPS 9000 -SN FEW013 OVC032 M00/M02 Q1017 R26/290158 NOSIG"
"9:30 PM EET on October 31, 2016","2016","10","31","21","30","Europe/Kiev","7:30 PM GMT on October 31, 2016","2016","10","31","19","30","UTC","0.0","32.0","-3.0","26.6","80","18.0","11.2","-9999.0","-9999.0","330","NNW","10.0","6.2","1017","30.04","-4.9","23.2","-9999","-9999","-9999.00","-9999.00","Light Snow","snow","0","0","1","0","0","0","METAR UKKK 311930Z 33005MPS 9999 -SN FEW015 OVC032 M00/M03 Q1017 R26/290158 NOSIG"
"10:00 PM EET on October 31, 2016","2016","10","31","22","00","Europe/Kiev","8:00 PM GMT on October 31, 2016","2016","10","31","20","00","UTC","-1.0","30.2","-3.0","26.6","86","14.4","8.9","-9999.0","-9999.0","330","NNW","10.0","6.2","1017","30.04","-5.5","22.1","-9999","-9999","-9999.00","-9999.00","Mostly Cloudy","mostlycloudy","0","0","0","0","0","0","METAR UKKK 312000Z 33004MPS 300V360 9999 FEW013 BKN050 M01/M03 Q1017 R26/290158 NOSIG"
"10:30 PM EET on October 31, 2016","2016","10","31","22","30","Europe/Kiev","8:30 PM GMT on October 31, 2016","2016","10","31","20","30","UTC","-1.0","30.2","-3.0","26.6","86","10.8","6.7","-9999.0","-9999.0","330","NNW","10.0","6.2","1017","30.04","-4.7","23.5","-9999","-9999","-9999.00","-9999.00","Mostly Cloudy","mostlycloudy","0","0","0","0","0","0","METAR UKKK 312030Z 33003MPS 9999 FEW013 BKN050 M01/M03 Q1017 R26/290158 NOSIG"
"11:00 PM EET on October 31, 2016","2016","10","31","23","00","Europe/Kiev","9:00 PM GMT on October 31, 2016","2016","10","31","21","00","UTC","-0","31","-3","27","81","7.2","4.5","","","350","North","10","6","1018","30.08","-999","-999","-9999","-9999","","","Partly Cloudy","partlycloudy","0","0","0","0","0","0","AAXX 31211 33345 42697 33502 11005 21026 39973 40184 52006 83500 555 11100"
"11:00 PM EET on October 31, 2016","2016","10","31","23","00","Europe/Kiev","9:00 PM GMT on October 31, 2016","2016","10","31","21","00","UTC","-1.0","30.2","-2.0","28.4","93","10.8","6.7","-9999.0","-9999.0","340","NNW","10.0","6.2","1017","30.04","-4.7","23.5","-9999","-9999","-9999.00","-9999.00","Mostly Cloudy","mostlycloudy","0","0","0","0","0","0","METAR UKKK 312100Z 34003MPS 9999 FEW011 BKN065 M01/M02 Q1017 R26/290058 NOSIG"
"11:30 PM EET on October 31, 2016","2016","10","31","23","30","Europe/Kiev","9:30 PM GMT on October 31, 2016","2016","10","31","21","30","UTC","-1.0","30.2","-3.0","26.6","86","10.8","6.7","-9999.0","-9999.0","340","NNW","-9999.0","-9999.0","1017","30.04","-4.7","23.5","-9999","-9999","-9999.00","-9999.00","Clear","clear","0","0","0","0","0","0","METAR UKKK 312130Z 34003MPS CAVOK M01/M03 Q1017 R26/290058 NOSIG"
