"date.pretty","date.year","date.mon","date.mday","date.hour","date.min","date.tzname","utcdate.pretty","utcdate.year","utcdate.mon","utcdate.mday","utcdate.hour","utcdate.min","utcdate.tzname","tempm","tempi","dewptm","dewpti","hum","wspdm","wspdi","wgustm","wgusti","wdird","wdire","vism","visi","pressurem","pressurei","windchillm","windchilli","heatindexm","heatindexi","precipm","precipi","conds","icon","fog","rain","snow","hail","thunder","tornado","metar"
"12:00 AM EEST on April 01, 2016","2016","04","01","00","00","Europe/Kiev","9:00 PM GMT on March 31, 2016","2016","03","31","21","00","UTC","12","53","6","43","59","10.8","6.7","","","260","West","20","12","1014","29.94","-999","-999","-9999","-9999","","","Mostly Cloudy","mostlycloudy","0","0","0","0","0","0","AAXX 31211 33345 42998 72603 10116 20061 39938 40139 51002 87070 555 11009"
"12:00 AM EEST on April 01, 2016","2016","04","01","00","00","Europe/Kiev","9:00 PM GMT on March 31, 2016","2016","03","31","21","00","UTC","11.0","51.8","6.0","42.8","71","10.8","6.7","-9999.0","-9999.0","250","WSW","10.0","6.2","1014","29.95","-999","-999","-9999","-9999","-9999.00","-9999.00","Light Rain Showers","rain","0","1","0","0","0","0","METAR UKKK 312100Z 25003MPS 9999 -SHRA SCT030CB BKN071 11/06 Q1014 R26/CLRD70 NOSIG"
"12:30 AM EEST on April 01, 2016","2016","04","01","00","30","Europe/Kiev","9:30 PM GMT on March 31, 2016","2016","03","31","21","30","UTC","11.0","51.8","6.0","42.8","71","14.4","8.9","-9999.0","-9999.0","270","West","10.0","6.2","1014","29.95","-999","-999","-9999","-9999","-9999.00","-9999.00","Light Rain Showers","rain","0","1","0","0","0","0","METAR UKKK 312130Z 27004MPS 9999 -SHRA SCT030CB BKN061 11/06 Q1014 R26/CLRD70 NOSIG"
"1:00 AM EEST on April 01, 2016","2016","04","01","01","00","Europe/Kiev","10:00 PM GMT on March 31, 2016","2016","03","31","22","00","UTC","10.0","50.0","7.0","44.6","82","10.8","6.7","-9999.0","-9999.0","230","SW","9.0","5.6","1013","29.92","-999","-999","-9999","-9999","-9999.00","-9999.00","Light Rain Showers","rain","0","1","0","0","0","0","METAR UKKK 312200Z 23003MPS 200V270 9000 -SHRA SCT030CB BKN059 10/07 Q1013 R26/290255 NOSIG"
"1:30 AM EEST on April 01, 2016","2016","04","01","01","30","Europe/Kiev","10:30 PM GMT on March 31, 2016","2016","03","31","22","30","UTC","9.0","48.2","8.0","46.4","93","10.8","6.7","-9999.0","-9999.0","220","SW","10.0","6.2","1013","29.92","-999","-999","-9999","-9999","-9999.00","-9999.00","Mostly Cloudy","mostlycloudy","0","0","0","0","0","0","METAR UKKK 312230Z 22003MPS 9999 FEW030CB BKN073 09/08 Q1013 R26/290255 NOSIG"
"2:00 AM EEST on April 01, 2016","2016","04","01","02","00","Europe/Kiev","11:00 PM GMT on March 31, 2016","2016","03","31","23","00","UTC","9.0","48.2","8.0","46.4","93","7.2","4.5","-9999.0","-9999.0","270","West","10.0","6.2","1013","29.92","-999","-999","-9999","-9999","-9999.00","-9999.00","Mostly Cloudy","mostlycloudy","0","0","0","0","0","0","METAR UKKK 312300Z 27002MPS 9999 FEW030CB BKN070 09/08 Q1013 R26/290255 NOSIG"
"2:30 AM EEST on April 01, 2016","2016","04","01","02","30","Europe/Kiev","11:30 PM GMT on March 31, 2016","2016","03","31","23","30","UTC","9.0","48.2","8.0","46.4","93","7.2","4.5","-9999.0","-9999.0","240","WSW","9.0","5.6","1013","29.92","-999","-999","-9999","-9999","-9999.00","-9999.00","Light Rain Showers","rain","0","1","0","0","0","0","METAR UKKK 312330Z 24002MPS 9000 -SHRA SCT021CB BKN062 09/08 Q1013 R26/290255 NOSIG"
"3:00 AM EEST on April 01, 2016","2016","04","01","03","00","Europe/Kiev","12:00 AM GMT on April 01, 2016","2016","04","01","00","00","UTC","10","49","7","45","80","3.7","2.3","","","290","WNW","10","6","1014","29.94","-999","-999","-9999","-9999","","","Light Rain","rain","0","1","0","0","0","0","AAXX 01004 33345 /1497 82902 10096 20071 39937 40139 58001 76161 8872/ 333 88714 555 11008 60011"
"3:00 AM EEST on April 01, 2016","2016","04","01","03","00","Europe/Kiev","12:00 AM GMT on April 01, 2016","2016","04","01","00","00","UTC","9.0","48.2","8.0","46.4","93","10.8","6.7","-9999.0","-9999.0","290","WNW","9.0","5.6","1013","29.92","-999","-999","-9999","-9999","-9999.00","-9999.00","Light Rain Showers","rain","0","1","0","0","0","0","METAR UKKK 010000Z 29003MPS 9000 -SHRA SCT025CB BKN051 09/08 Q1013 R26/290255 NOSIG"
"3:30 AM EEST on April 01, 2016","2016","04","01","03","30","Europe/Kiev","12:30 AM GMT on April 01, 2016","2016","04","01","00","30","UTC","8.0","46.4","8.0","46.4","100","3.6","2.2","-9999.0","-9999.0","240","WSW","10.0","6.2","1013","29.92","-999","-999","-9999","-9999","-9999.00","-9999.00","Light Rain Showers","rain","0","1","0","0","0","0","METAR UKKK 010030Z 24001MPS 9999 -SHRA SCT030CB BKN051 08/08 Q1013 R26/290255 NOSIG"
"4:00 AM EEST on April 01, 2016","2016","04","01","04","00","Europe/Kiev","1:00 AM GMT on April 01, 2016","2016","04","01","01","00","UTC","8.0","46.4","8.0","46.4","100","7.2","4.5","-9999.0","-9999.0","250","WSW","8.0","5.0","1013","29.92","6.9","44.4","-9999","-9999","-9999.00","-9999.00","Mostly Cloudy","mostlycloudy","0","0","0","0","0","0","METAR UKKK 010100Z 25002MPS 8000 FEW033CB BKN049 08/08 Q1013 R26/290255 NOSIG"
"4:30 AM EEST on April 01, 2016","2016","04","01","04","30","Europe/Kiev","1:30 AM GMT on April 01, 2016","2016","04","01","01","30","UTC","8.0","46.4","8.0","46.4","100","10.8","6.7","-9999.0","-9999.0","280","West","9.0","5.6","1014","29.95","6.1","43.0","-9999","-9999","-9999.00","-9999.00","Light Rain Showers","rain","0","1","0","0","0","0","METAR UKKK 010130Z 28003MPS 9000 -SHRA SCT033CB BKN049 08/08 Q1014 R26/290255 NOSIG"
"5:00 AM EEST on April 01, 2016","2016","04","01","05","00","Europe/Kiev","2:00 AM GMT on April 01, 2016","2016","04","01","02","00","UTC","8.0","46.4","8.0","46.4","100","7.2","4.5","-9999.0","-9999.0","260","West","6.0","3.7","1013","29.92","6.9","44.4","-9999","-9999","-9999.00","-9999.00","Light Rain Showers","rain","0","1","0","0","0","0","METAR UKKK 010200Z 26002MPS 6000 -SHRA SCT026CB BKN041 08/08 Q1013 R26/290255 NOSIG"
"5:30 AM EEST on April 01, 2016","2016","04","01","05","30","Europe/Kiev","2:30 AM GMT on April 01, 2016","2016","04","01","02","30","UTC","8.0","46.4","8.0","46.4","100","7.2","4.5","-9999.0","-9999.0","220","SW","7.0","4.3","1013","29.92","6.9","44.4","-9999","-9999","-9999.00","-9999.00","Overcast","cloudy","0","0","0","0","0","0","METAR UKKK 010230Z 22002MPS 7000 OVC046 08/08 Q1013 R26/290255 NOSIG"
"6:00 AM EEST on April 01, 2016","2016","04","01","06","00","Europe/Kiev","3:00 AM GMT on April 01, 2016","2016","04","01","03","00","UTC","9","48","7","45","87","0.0","0.0","","","","","4","2","1013","29.92","-999","-999","-9999","-9999","","","Mist","hazy","0","0","0","0","0","0","AAXX 01031 33345 41996 80000 10087 20074 39928 40130 57009 71062 8802/ 555 11008"
"6:00 AM EEST on April 01, 2016","2016","04","01","06","00","Europe/Kiev","3:00 AM GMT on April 01, 2016","2016","04","01","03","00","UTC","8.0","46.4","8.0","46.4","100","3.6","2.2","-9999.0","-9999.0","200","SSW","7.0","4.3","1012","29.89","-999","-999","-9999","-9999","-9999.00","-9999.00","Overcast","cloudy","0","0","0","0","0","0","METAR UKKK 010300Z 20001MPS 7000 OVC046 08/08 Q1012 R26/290255 NOSIG"
"6:30 AM EEST on April 01, 2016","2016","04","01","06","30","Europe/Kiev","3:30 AM GMT on April 01, 2016","2016","04","01","03","30","UTC","8.0","46.4","8.0","46.4","100","3.6","2.2","-9999.0","-9999.0","0","Variable","9.0","5.6","1012","29.89","-999","-999","-9999","-9999","-9999.00","-9999.00","Unknown","unknown","0","0","0","0","0","0","METAR UKKK 010330Z VRB01MPS 9000 NSC 08/08 Q1012 R26/290255 NOSIG"
"7:00 AM EEST on April 01, 2016","2016","04","01","07","00","Europe/Kiev","4:00 AM GMT on April 01, 2016","2016","04","01","04","00","UTC","8.0","46.4","7.0","44.6","93","3.6","2.2","-9999.0","-9999.0","290","WNW","5.0","3.1","1012","29.89","-999","-999","-9999","-9999","-9999.00","-9999.00","Mostly Cloudy","mostlycloudy","0","0","0","0","0","0","METAR UKKK 010400Z 29001MPS 5000 BR BKN046 08/07 Q1012 R26/290255 NOSIG"
"7:30 AM EEST on April 01, 2016","2016","04","01","07","30","Europe/Kiev","4:30 AM GMT on April 01, 2016","2016","04","01","04","30","UTC","7.0","44.6","7.0","44.6","100","0.0","0.0","-9999.0","-9999.0","0","North","-9999.0","-9999.0","1012","29.89","-999","-999","-9999","-9999","-9999.00","-9999.00","Mist","hazy","0","0","0","0","0","0","METAR UKKK 010430Z 00000MPS 4900 BR NSC 07/07 Q1012 R26/290255 NOSIG"
"8:00 AM EEST on April 01, 2016","2016","04","01","08","00","Europe/Kiev","5:00 AM GMT on April 01, 2016","2016","04","01","05","00","UTC","8.0","46.4","8.0","46.4","100","3.6","2.2","-9999.0","-9999.0","0","Variable","5.0","3.1","1011","29.86","-999","-999","-9999","-9999","-9999.00","-9999.00","Mist","hazy","0","0","0","0","0","0","METAR UKKK 010500Z VRB01MPS 5000 BR NSC 08/08 Q1011 R26/290255 NOSIG"
"8:30 AM EEST on April 01, 2016","2016","04","01","08","30","Europe/Kiev","5:30 AM GMT on April 01, 2016","2016","04","01","05","30","UTC","10.0","50.0","9.0","48.2","94","0.0","0.0","-9999.0","-9999.0","0","North","5.0","3.1","1011","29.86","-999","-999","-9999","-9999","-9999.00","-9999.00","Mist","hazy","0","0","0","0","0","0","METAR UKKK 010530Z 00000MPS 5000 BR NSC 10/09 Q1011 R26/290255 NOSIG"
"9:00 AM EEST on April 01, 2016","2016","04","01","09","00","Europe/Kiev","6:00 AM GMT on April 01, 2016","2016","04","01","06","00","UTC","10","49","8","47","90","3.6","2.2","","","140","SE","4","2","1011","29.87","-999","-999","-9999","-9999","","","Mist","hazy","0","0","0","0","0","0","AAXX 01061 33345 11996 71401 10097 20083 39913 40114 58015 60022 71062 86076 333 20082 555 11013"
"9:00 AM EEST on April 01, 2016","2016","04","01","09","00","Europe/Kiev","6:00 AM GMT on April 01, 2016","2016","04","01","06","00","UTC","10.0","50.0","8.0","46.4","87","7.2","4.5","-9999.0","-9999.0","110","ESE","-9999.0","-9999.0","1011","29.86","-999","-999","-9999","-9999","-9999.00","-9999.00","Clear","clear","0","0","0","0","0","0","METAR UKKK 010600Z 11002MPS 080V160 CAVOK 10/08 Q1011 R08/290058 NOSIG"
"9:30 AM EEST on April 01, 2016","2016","04","01","09","30","Europe/Kiev","6:30 AM GMT on April 01, 2016","2016","04","01","06","30","UTC","11.0","51.8","8.0","46.4","82","7.2","4.5","-9999.0","-9999.0","120","ESE","-9999.0","-9999.0","1011","29.86","-999","-999","-9999","-9999","-9999.00","-9999.00","Clear","clear","0","0","0","0","0","0","METAR UKKK 010630Z 12002MPS 060V180 CAVOK 11/08 Q1011 R08/290058 NOSIG"
"10:00 AM EEST on April 01, 2016","2016","04","01","10","00","Europe/Kiev","7:00 AM GMT on April 01, 2016","2016","04","01","07","00","UTC","11.0","51.8","7.0","44.6","76","10.8","6.7","-9999.0","-9999.0","130","SE","-9999.0","-9999.0","1010","29.83","-999","-999","-9999","-9999","-9999.00","-9999.00","Clear","clear","0","0","0","0","0","0","METAR UKKK 010700Z 13003MPS 100V190 CAVOK 11/07 Q1010 R08/290058 NOSIG"
"10:30 AM EEST on April 01, 2016","2016","04","01","10","30","Europe/Kiev","7:30 AM GMT on April 01, 2016","2016","04","01","07","30","UTC","12.0","53.6","7.0","44.6","72","14.4","8.9","-9999.0","-9999.0","130","SE","-9999.0","-9999.0","1010","29.83","-999","-999","-9999","-9999","-9999.00","-9999.00","Clear","clear","0","0","0","0","0","0","METAR UKKK 010730Z 13004MPS CAVOK 12/07 Q1010 R08/290058 NOSIG"
"11:00 AM EEST on April 01, 2016","2016","04","01","11","00","Europe/Kiev","8:00 AM GMT on April 01, 2016","2016","04","01","08","00","UTC","13.0","55.4","8.0","46.4","72","10.8","6.7","-9999.0","-9999.0","120","ESE","-9999.0","-9999.0","1009","29.80","-999","-999","-9999","-9999","-9999.00","-9999.00","Clear","clear","0","0","0","0","0","0","METAR UKKK 010800Z 12003MPS 090V170 CAVOK 13/08 Q1009 R08/190060 NOSIG"
"11:30 AM EEST on April 01, 2016","2016","04","01","11","30","Europe/Kiev","8:30 AM GMT on April 01, 2016","2016","04","01","08","30","UTC","14.0","57.2","8.0","46.4","67","7.2","4.5","-9999.0","-9999.0","150","SSE","-9999.0","-9999.0","1009","29.80","-999","-999","-9999","-9999","-9999.00","-9999.00","Clear","clear","0","0","0","0","0","0","METAR UKKK 010830Z 15002MPS 090V220 CAVOK 14/08 Q1009 R08/190060 NOSIG"
"12:00 PM EEST on April 01, 2016","2016","04","01","12","00","Europe/Kiev","9:00 AM GMT on April 01, 2016","2016","04","01","09","00","UTC","14","58","8","46","55","10.8","6.7","","","150","SSE","20","12","1009","29.79","-999","-999","-9999","-9999","","","Scattered Clouds","partlycloudy","0","0","0","0","0","0","AAXX 01091 33345 42998 61503 10142 20078 39889 40087 57024 82045 555 11024"
"12:00 PM EEST on April 01, 2016","2016","04","01","12","00","Europe/Kiev","9:00 AM GMT on April 01, 2016","2016","04","01","09","00","UTC","15.0","59.0","8.0","46.4","63","10.8","6.7","-9999.0","-9999.0","140","SE","-9999.0","-9999.0","1008","29.77","-999","-999","-9999","-9999","-9999.00","-9999.00","Clear","clear","0","0","0","0","0","0","METAR UKKK 010900Z 14003MPS 110V190 CAVOK 15/08 Q1008 R08/190060 NOSIG"
"12:30 PM EEST on April 01, 2016","2016","04","01","12","30","Europe/Kiev","9:30 AM GMT on April 01, 2016","2016","04","01","09","30","UTC","16.0","60.8","8.0","46.4","59","14.4","8.9","-9999.0","-9999.0","170","South","-9999.0","-9999.0","1008","29.77","-999","-999","-9999","-9999","-9999.00","-9999.00","Clear","clear","0","0","0","0","0","0","METAR UKKK 010930Z 17004MPS 110V250 CAVOK 16/08 Q1008 R08/CLRD70 NOSIG"
"1:00 PM EEST on April 01, 2016","2016","04","01","13","00","Europe/Kiev","10:00 AM GMT on April 01, 2016","2016","04","01","10","00","UTC","16.0","60.8","8.0","46.4","59","10.8","6.7","-9999.0","-9999.0","170","South","10.0","6.2","1007","29.74","-999","-999","-9999","-9999","-9999.00","-9999.00","Partly Cloudy","partlycloudy","0","0","0","0","0","0","METAR UKKK 011000Z 17003MPS 140V240 9999 FEW033 16/08 Q1007 R08/CLRD70 NOSIG"
"1:30 PM EEST on April 01, 2016","2016","04","01","13","30","Europe/Kiev","10:30 AM GMT on April 01, 2016","2016","04","01","10","30","UTC","17.0","62.6","9.0","48.2","59","10.8","6.7","-9999.0","-9999.0","160","SSE","10.0","6.2","1007","29.74","-999","-999","-9999","-9999","-9999.00","-9999.00","Partly Cloudy","partlycloudy","0","0","0","0","0","0","METAR UKKK 011030Z 16003MPS 100V260 9999 FEW033 17/09 Q1007 R08/CLRD70 NOSIG"
"2:00 PM EEST on April 01, 2016","2016","04","01","14","00","Europe/Kiev","11:00 AM GMT on April 01, 2016","2016","04","01","11","00","UTC","17.0","62.6","9.0","48.2","59","10.8","6.7","-9999.0","-9999.0","180","South","-9999.0","-9999.0","1006","29.71","-999","-999","-9999","-9999","-9999.00","-9999.00","Clear","clear","0","0","0","0","0","0","METAR UKKK 011100Z 18003MPS 120V240 CAVOK 17/09 Q1006 R08/CLRD70 NOSIG"
"2:30 PM EEST on April 01, 2016","2016","04","01","14","30","Europe/Kiev","11:30 AM GMT on April 01, 2016","2016","04","01","11","30","UTC","17.0","62.6","9.0","48.2","59","10.8","6.7","-9999.0","-9999.0","190","South","8.0","5.0","1005","29.68","-999","-999","-9999","-9999","-9999.00","-9999.00","Unknown","unknown","0","0","0","0","0","0","METAR UKKK 011130Z 19003MPS 130V240 8000 NSC 17/09 Q1005 R08/CLRD70 NOSIG"
"3:00 PM EEST on April 01, 2016","2016","04","01","15","00","Europe/Kiev","12:00 PM GMT on April 01, 2016","2016","04","01","12","00","UTC","18","64","9","49","48","14.4","8.9","","","150","SSE","20","12","1005","29.68","-999","-999","-9999","-9999","","","Clear","clear","0","0","0","0","0","0","AAXX 01121 33345 32998 71504 10179 20094 39855 40049 57034 80005 555 11027"
"3:00 PM EEST on April 01, 2016","2016","04","01","15","00","Europe/Kiev","12:00 PM GMT on April 01, 2016","2016","04","01","12","00","UTC","18.0","64.4","10.0","50.0","59","10.8","6.7","-9999.0","-9999.0","180","South","-9999.0","-9999.0","1005","29.68","-999","-999","-9999","-9999","-9999.00","-9999.00","Clear","clear","0","0","0","0","0","0","METAR UKKK 011200Z 18003MPS 110V260 CAVOK 18/10 Q1005 R08/CLRD70 NOSIG"
"3:30 PM EEST on April 01, 2016","2016","04","01","15","30","Europe/Kiev","12:30 PM GMT on April 01, 2016","2016","04","01","12","30","UTC","19.0","66.2","10.0","50.0","56","10.8","6.7","-9999.0","-9999.0","200","SSW","9.0","5.6","1004","29.65","-999","-999","-9999","-9999","-9999.00","-9999.00","Unknown","unknown","0","0","0","0","0","0","METAR UKKK 011230Z 20003MPS 140V240 9000 NSC 19/10 Q1004 R08/CLRD70 NOSIG"
"4:00 PM EEST on April 01, 2016","2016","04","01","16","00","Europe/Kiev","1:00 PM GMT on April 01, 2016","2016","04","01","13","00","UTC","19.0","66.2","10.0","50.0","56","10.8","6.7","-9999.0","-9999.0","190","South","10.0","6.2","1004","29.65","-999","-999","-9999","-9999","-9999.00","-9999.00","Scattered Clouds","partlycloudy","0","0","0","0","0","0","METAR UKKK 011300Z 19003MPS 130V240 9999 SCT040 19/10 Q1004 R08/CLRD70 NOSIG"
"4:30 PM EEST on April 01, 2016","2016","04","01","16","30","Europe/Kiev","1:30 PM GMT on April 01, 2016","2016","04","01","13","30","UTC","20.0","68.0","10.0","50.0","52","10.8","6.7","-9999.0","-9999.0","190","South","-9999.0","-9999.0","1003","29.62","-999","-999","-9999","-9999","-9999.00","-9999.00","Clear","clear","0","0","0","0","0","0","METAR UKKK 011330Z 19003MPS 120V220 CAVOK 20/10 Q1003 R08/CLRD70 NOSIG"
"5:00 PM EEST on April 01, 2016","2016","04","01","17","00","Europe/Kiev","2:00 PM GMT on April 01, 2016","2016","04","01","14","00","UTC","19.0","66.2","9.0","48.2","52","10.8","6.7","-9999.0","-9999.0","190","South","-9999.0","-9999.0","1002","29.59","-999","-999","-9999","-9999","-9999.00","-9999.00","Clear","clear","0","0","0","0","0","0","METAR UKKK 011400Z 19003MPS 150V240 CAVOK 19/09 Q1002 R08/CLRD70 NOSIG"
"5:30 PM EEST on April 01, 2016","2016","04","01","17","30","Europe/Kiev","2:30 PM GMT on April 01, 2016","2016","04","01","14","30","UTC","20.0","68.0","8.0","46.4","46","14.4","8.9","-9999.0","-9999.0","240","WSW","9.0","5.6","1002","29.59","-999","-999","-9999","-9999","-9999.00","-9999.00","Unknown","unknown","0","0","0","0","0","0","METAR UKKK 011430Z 24004MPS 210V280 9000 NSC 20/08 Q1002 R08/CLRD70 NOSIG"
"6:00 PM EEST on April 01, 2016","2016","04","01","18","00","Europe/Kiev","3:00 PM GMT on April 01, 2016","2016","04","01","15","00","UTC","20","68","8","46","34","14.4","8.9","","","250","WSW","20","12","1001","29.57","-999","-999","-9999","-9999","","","Light Rain Showers","rain","0","1","0","0","0","0","AAXX 01151 33345 41598 72504 10199 20078 39819 40011 57036 78082 86950 333 86930 555 11019"
"6:00 PM EEST on April 01, 2016","2016","04","01","18","00","Europe/Kiev","3:00 PM GMT on April 01, 2016","2016","04","01","15","00","UTC","20.0","68.0","7.0","44.6","43","18.0","11.2","-9999.0","-9999.0","240","WSW","9.0","5.6","1001","29.56","-999","-999","-9999","-9999","-9999.00","-9999.00","Mostly Cloudy","mostlycloudy","0","0","0","0","0","0","METAR UKKK 011500Z 24005MPS 9000 FEW029CB BKN043 20/07 Q1001 R26/CLRD70 NOSIG"
"6:30 PM EEST on April 01, 2016","2016","04","01","18","30","Europe/Kiev","3:30 PM GMT on April 01, 2016","2016","04","01","15","30","UTC","19.0","66.2","7.0","44.6","46","21.6","13.4","-9999.0","-9999.0","250","WSW","-9999.0","-9999.0","1001","29.56","-999","-999","-9999","-9999","-9999.00","-9999.00","Clear","clear","0","0","0","0","0","0","METAR UKKK 011530Z 25006MPS CAVOK 19/07 Q1001 R26/CLRD70 NOSIG"
"7:00 PM EEST on April 01, 2016","2016","04","01","19","00","Europe/Kiev","4:00 PM GMT on April 01, 2016","2016","04","01","16","00","UTC","18.0","64.4","8.0","46.4","52","32.4","20.1","-9999.0","-9999.0","290","WNW","10.0","6.2","1002","29.59","-999","-999","-9999","-9999","-9999.00","-9999.00","Mostly Cloudy","mostlycloudy","0","0","0","0","0","0","METAR UKKK 011600Z 29009MPS 9999 BKN043 18/08 Q1002 R26/CLRD70 TEMPO 29012G17MPS"
"7:30 PM EEST on April 01, 2016","2016","04","01","19","30","Europe/Kiev","4:30 PM GMT on April 01, 2016","2016","04","01","16","30","UTC","14.0","57.2","9.0","48.2","72","21.6","13.4","-9999.0","-9999.0","320","NW","10.0","6.2","1003","29.62","-999","-999","-9999","-9999","-9999.00","-9999.00","Mostly Cloudy","mostlycloudy","0","0","0","0","0","0","METAR UKKK 011630Z 32006MPS 9999 BKN043 14/09 Q1003 R26/CLRD70 TEMPO 29012G17MPS"
"8:00 PM EEST on April 01, 2016","2016","04","01","20","00","Europe/Kiev","5:00 PM GMT on April 01, 2016","2016","04","01","17","00","UTC","9.0","48.2","5.0","41.0","76","32.4","20.1","50.4","31.3","330","NNW","10.0","6.2","1004","29.65","-999","-999","-9999","-9999","-9999.00","-9999.00","Mostly Cloudy","mostlycloudy","0","0","0","0","0","0","METAR UKKK 011700Z 33009G14MPS 300V360 9999 SCT020CB BKN043 09/05 Q1004 R26/CLRD70 TEMPO 29012G17MPS"
"8:30 PM EEST on April 01, 2016","2016","04","01","20","30","Europe/Kiev","5:30 PM GMT on April 01, 2016","2016","04","01","17","30","UTC","7.0","44.6","4.0","39.2","81","36.0","22.4","57.6","35.8","340","NNW","10.0","6.2","1005","29.68","2.2","36.0","-9999","-9999","-9999.00","-9999.00","Mostly Cloudy","mostlycloudy","0","0","0","0","0","0","METAR UKKK 011730Z 34010G16MPS 310V010 9999 SCT010 BKN025CB 07/04 Q1005 R26/CLRD70 TEMPO 31012G17MPS"
"9:00 PM EEST on April 01, 2016","2016","04","01","21","00","Europe/Kiev","6:00 PM GMT on April 01, 2016","2016","04","01","18","00","UTC","7","44","4","39","75","25.2","15.7","","","350","North","20","12","1007","29.73","-999","-999","-9999","-9999","","","Partly Cloudy","partlycloudy","0","0","0","0","0","0","AAXX 01181 33345 11498 83507 10067 20037 39864 40067 53045 69902 70282 886// 333 10203 88713 555 11009"
"9:00 PM EEST on April 01, 2016","2016","04","01","21","00","Europe/Kiev","6:00 PM GMT on April 01, 2016","2016","04","01","18","00","UTC","6.0","42.8","4.0","39.2","87","25.2","15.7","43.2","26.8","340","NNW","9.0","5.6","1006","29.71","1.8","35.2","-9999","-9999","-9999.00","-9999.00","Mostly Cloudy","mostlycloudy","0","0","0","0","0","0","METAR UKKK 011800Z 34007G12MPS 9000 SCT009 BKN025CB 06/04 Q1006 R26/CLRD70 TEMPO 31013G18MPS"
"9:30 PM EEST on April 01, 2016","2016","04","01","21","30","Europe/Kiev","6:30 PM GMT on April 01, 2016","2016","04","01","18","30","UTC","5.0","41.0","2.0","35.6","81","32.4","20.1","50.4","31.3","340","NNW","10.0","6.2","1007","29.74","-0.1","31.8","-9999","-9999","-9999.00","-9999.00","Mostly Cloudy","mostlycloudy","0","0","0","0","0","0","METAR UKKK 011830Z 34009G14MPS 9999 SCT011 BKN024CB 05/02 Q1007 R26/CLRD70 TEMPO 31013G18MPS"
"10:00 PM EEST on April 01, 2016","2016","04","01","22","00","Europe/Kiev","7:00 PM GMT on April 01, 2016","2016","04","01","19","00","UTC","4.0","39.2","2.0","35.6","87","36.0","22.4","54.0","33.6","330","NNW","10.0","6.2","1008","29.77","-1.7","28.9","-9999","-9999","-9999.00","-9999.00","Mostly Cloudy","mostlycloudy","0","0","0","0","0","0","METAR UKKK 011900Z 33010G15MPS 9999 SCT009 BKN021CB 04/02 Q1008 R26/CLRD70 TEMPO 31013G18MPS"
"10:30 PM EEST on April 01, 2016","2016","04","01","22","30","Europe/Kiev","7:30 PM GMT on April 01, 2016","2016","04","01","19","30","UTC","4.0","39.2","1.0","33.8","81","25.2","15.7","-9999.0","-9999.0","330","NNW","10.0","6.2","1009","29.80","-0.8","30.6","-9999","-9999","-9999.00","-9999.00","Mostly Cloudy","mostlycloudy","0","0","0","0","0","0","METAR UKKK 011930Z 33007MPS 9999 SCT010 BKN021CB 04/01 Q1009 R26/CLRD70 TEMPO 31013G18MPS"
"11:00 PM EEST on April 01, 2016","2016","04","01","23","00","Europe/Kiev","8:00 PM GMT on April 01, 2016","2016","04","01","20","00","UTC","3.0","37.4","1.0","33.8","87","28.8","17.9","-9999.0","-9999.0","330","NNW","10.0","6.2","1009","29.80","-2.4","27.6","-9999","-9999","-9999.00","-9999.00","Mostly Cloudy","mostlycloudy","0","0","0","0","0","0","METAR UKKK 012000Z 33008MPS 9999 SCT010 BKN025 03/01 Q1009 WS RWY26 R26/CLRD70 TEMPO 31013G18MPS"
"11:30 PM EEST on April 01, 2016","2016","04","01","23","30","Europe/Kiev","8:30 PM GMT on April 01, 2016","2016","04","01","20","30","UTC","3.0","37.4","1.0","33.8","87","32.4","20.1","-9999.0","-9999.0","330","NNW","10.0","6.2","1010","29.83","-2.8","27.0","-9999","-9999","-9999.00","-9999.00","Mostly Cloudy","mostlycloudy","0","0","0","0","0","0","METAR UKKK 012030Z 33009MPS 9999 SCT010 BKN025 03/01 Q1010 WS RWY26 R26/CLRD70 TEMPO 31013G18MPS"
"12:00 AM EEST on April 02, 2016","2016","04","02","00","00","Europe/Kiev","9:00 PM GMT on April 01, 2016","2016","04","01","21","00","UTC","4","38","1","34","78","18.0","11.2","","","330","NNW","20","12","1011","29.85","-999","-999","-9999","-9999","","","Overcast","cloudy","0","0","0","0","0","0","AAXX 01211 33345 42498 83305 10035 20009 39901 40107 52037 886// 333 88712 555 11005"
"12:00 AM EEST on April 02, 2016","2016","04","02","00","00","Europe/Kiev","9:00 PM GMT on April 01, 2016","2016","04","01","21","00","UTC","3.0","37.4","1.0","33.8","87","28.8","17.9","-9999.0","-9999.0","320","NW","10.0","6.2","1010","29.83","-2.4","27.6","-9999","-9999","-9999.00","-9999.00","Mostly Cloudy","mostlycloudy","0","0","0","0","0","0","METAR UKKK 012100Z 32008MPS 9999 SCT010 BKN025 03/01 Q1010 WS RWY26 R26/CLRD70 TEMPO 31013G18MPS"
"12:30 AM EEST on April 02, 2016","2016","04","02","00","30","Europe/Kiev","9:30 PM GMT on April 01, 2016","2016","04","01","21","30","UTC","3.0","37.4","1.0","33.8","87","25.2","15.7","-9999.0","-9999.0","320","NW","10.0","6.2","1010","29.83","-2.1","28.3","-9999","-9999","-9999.00","-9999.00","Overcast","cloudy","0","0","0","0","0","0","METAR UKKK 012130Z 32007MPS 9999 SCT010 OVC027 03/01 Q1010 R26/CLRD70 TEMPO 31013G18MPS"
"1:00 AM EEST on April 02, 2016","2016","04","02","01","00","Europe/Kiev","10:00 PM GMT on April 01, 2016","2016","04","01","22","00","UTC","4.0","39.2","1.0","33.8","81","28.8","17.9","-9999.0","-9999.0","300","WNW","10.0","6.2","1010","29.83","-1.1","30.0","-9999","-9999","-9999.00","-9999.00","Mostly Cloudy","mostlycloudy","0","0","0","0","0","0","METAR UKKK 012200Z 30008MPS 9999 BKN012 04/01 Q1010 R26/CLRD70 TEMPO 31013G18MPS"
"1:30 AM EEST on April 02, 2016","2016","04","02","01","30","Europe/Kiev","10:30 PM GMT on April 01, 2016","2016","04","01","22","30","UTC","4.0","39.2","1.0","33.8","81","28.8","17.9","-9999.0","-9999.0","300","WNW","10.0","6.2","1011","29.86","-1.1","30.0","-9999","-9999","-9999.00","-9999.00","Mostly Cloudy","mostlycloudy","0","0","0","0","0","0","METAR UKKK 012230Z 30008MPS 9999 BKN014 04/01 Q1011 R26/CLRD70 TEMPO 31013G18MPS"
"2:00 AM EEST on April 02, 2016","2016","04","02","02","00","Europe/Kiev","11:00 PM GMT on April 01, 2016","2016","04","01","23","00","UTC","4.0","39.2","1.0","33.8","81","32.4","20.1","-9999.0","-9999.0","300","WNW","10.0","6.2","1011","29.86","-1.4","29.4","-9999","-9999","-9999.00","-9999.00","Mostly Cloudy","mostlycloudy","0","0","0","0","0","0","METAR UKKK 012300Z 30009MPS 9999 BKN014 04/01 Q1011 R26/CLRD70 TEMPO 31013G18MPS"
"2:30 AM EEST on April 02, 2016","2016","04","02","02","30","Europe/Kiev","11:30 PM GMT on April 01, 2016","2016","04","01","23","30","UTC","4.0","39.2","1.0","33.8","81","28.8","17.9","-9999.0","-9999.0","300","WNW","10.0","6.2","1011","29.86","-1.1","30.0","-9999","-9999","-9999.00","-9999.00","Mostly Cloudy","mostlycloudy","0","0","0","0","0","0","METAR UKKK 012330Z 30008MPS 9999 BKN016 04/01 Q1011 R26/CLRD70 TEMPO 31012G18MPS"
"3:00 AM EEST on April 02, 2016","2016","04","02","03","00","Europe/Kiev","12:00 AM GMT on April 02, 2016","2016","04","02","00","00","UTC","4","39","0","33","70","21.6","13.4","","","310","NW","20","12","1012","29.88","-999","-999","-9999","-9999","","","Overcast","cloudy","0","0","0","0","0","0","AAXX 02001 33345 32498 83106 10041 20004 39911 40117 52010 886// 333 88712 555 11005"
"3:00 AM EEST on April 02, 2016","2016","04","02","03","00","Europe/Kiev","12:00 AM GMT on April 02, 2016","2016","04","02","00","00","UTC","4.0","39.2","0.0","32.0","75","36.0","22.4","-9999.0","-9999.0","300","WNW","10.0","6.2","1011","29.86","-1.7","28.9","-9999","-9999","-9999.00","-9999.00","Mostly Cloudy","mostlycloudy","0","0","0","0","0","0","METAR UKKK 020000Z 30010MPS 9999 BKN016 04/00 Q1011 R26/CLRD70 TEMPO 31012G18MPS"
"3:30 AM EEST on April 02, 2016","2016","04","02","03","30","Europe/Kiev","12:30 AM GMT on April 02, 2016","2016","04","02","00","30","UTC","3.0","37.4","-1.0","30.2","75","36.0","22.4","-9999.0","-9999.0","300","WNW","10.0","6.2","1011","29.86","-3.1","26.5","-9999","-9999","-9999.00","-9999.00","Mostly Cloudy","mostlycloudy","0","0","0","0","0","0","METAR UKKK 020030Z 30010MPS 9999 BKN023 03/M01 Q1011 R26/CLRD70 TEMPO 31012G18MPS"
"4:00 AM EEST on April 02, 2016","2016","04","02","04","00","Europe/Kiev","1:00 AM GMT on April 02, 2016","2016","04","02","01","00","UTC","3.0","37.4","-2.0","28.4","70","32.4","20.1","50.4","31.3","300","WNW","10.0","6.2","1011","29.86","-2.8","27.0","-9999","-9999","-9999.00","-9999.00","Scattered Clouds","partlycloudy","0","0","0","0","0","0","METAR UKKK 020100Z 30009G14MPS 9999 SCT023 03/M02 Q1011 R26/CLRD70 TEMPO 31012G18MPS"
"4:30 AM EEST on April 02, 2016","2016","04","02","04","30","Europe/Kiev","1:30 AM GMT on April 02, 2016","2016","04","02","01","30","UTC","3.0","37.4","-2.0","28.4","70","36.0","22.4","-9999.0","-9999.0","300","WNW","10.0","6.2","1011","29.86","-3.1","26.5","-9999","-9999","-9999.00","-9999.00","Scattered Clouds","partlycloudy","0","0","0","0","0","0","METAR UKKK 020130Z 30010MPS 9999 SCT025 03/M02 Q1011 R26/CLRD70 TEMPO 31012G18MPS"
"5:00 AM EEST on April 02, 2016","2016","04","02","05","00","Europe/Kiev","2:00 AM GMT on April 02, 2016","2016","04","02","02","00","UTC","3.0","37.4","-2.0","28.4","70","39.6","24.6","57.6","35.8","310","NW","10.0","6.2","1011","29.86","-3.3","26.0","-9999","-9999","-9999.00","-9999.00","Mostly Cloudy","mostlycloudy","0","0","0","0","0","0","METAR UKKK 020200Z 31011G16MPS 9999 BKN023 03/M02 Q1011 R26/CLRD70 TEMPO 31012G18MPS"
"5:30 AM EEST on April 02, 2016","2016","04","02","05","30","Europe/Kiev","2:30 AM GMT on April 02, 2016","2016","04","02","02","30","UTC","3.0","37.4","-2.0","28.4","70","32.4","20.1","-9999.0","-9999.0","310","NW","10.0","6.2","1012","29.89","-2.8","27.0","-9999","-9999","-9999.00","-9999.00","Mostly Cloudy","mostlycloudy","0","0","0","0","0","0","METAR UKKK 020230Z 31009MPS 9999 BKN021 03/M02 Q1012 R26/CLRD70 TEMPO 31012G18MPS"
"6:00 AM EEST on April 02, 2016","2016","04","02","06","00","Europe/Kiev","3:00 AM GMT on April 02, 2016","2016","04","02","03","00","UTC","3","37","-3","27","57","18.0","11.2","","","320","NW","20","12","1013","29.91","-999","-999","-9999","-9999","","","Mostly Cloudy","mostlycloudy","0","0","0","0","0","0","AAXX 02031 33345 42498 63205 10026 21026 39921 40128 52010 86600 333 86712 555 11003"
"6:00 AM EEST on April 02, 2016","2016","04","02","06","00","Europe/Kiev","3:00 AM GMT on April 02, 2016","2016","04","02","03","00","UTC","3.0","37.4","-2.0","28.4","70","32.4","20.1","-9999.0","-9999.0","310","NW","10.0","6.2","1012","29.89","-2.8","27.0","-9999","-9999","-9999.00","-9999.00","Mostly Cloudy","mostlycloudy","0","0","0","0","0","0","METAR UKKK 020300Z 31009MPS 9999 BKN021 03/M02 Q1012 R26/CLRD70 TEMPO 31012G18MPS"
"6:30 AM EEST on April 02, 2016","2016","04","02","06","30","Europe/Kiev","3:30 AM GMT on April 02, 2016","2016","04","02","03","30","UTC","3.0","37.4","-2.0","28.4","70","36.0","22.4","-9999.0","-9999.0","310","NW","10.0","6.2","1012","29.89","-3.1","26.5","-9999","-9999","-9999.00","-9999.00","Mostly Cloudy","mostlycloudy","0","0","0","0","0","0","METAR UKKK 020330Z 31010MPS 9999 BKN021 03/M02 Q1012 R26/CLRD70 TEMPO 31012G18MPS"
"7:00 AM EEST on April 02, 2016","2016","04","02","07","00","Europe/Kiev","4:00 AM GMT on April 02, 2016","2016","04","02","04","00","UTC","2.0","35.6","-2.0","28.4","75","32.4","20.1","50.4","31.3","310","NW","10.0","6.2","1013","29.92","-4.1","24.7","-9999","-9999","-9999.00","-9999.00","Mostly Cloudy","mostlycloudy","0","0","0","0","0","0","METAR UKKK 020400Z 31009G14MPS 9999 BKN023 02/M02 Q1013 R26/CLRD70 TEMPO 31012G18MPS"
"7:30 AM EEST on April 02, 2016","2016","04","02","07","30","Europe/Kiev","4:30 AM GMT on April 02, 2016","2016","04","02","04","30","UTC","2.0","35.6","-2.0","28.4","75","36.0","22.4","-9999.0","-9999.0","310","NW","10.0","6.2","1013","29.92","-4.4","24.1","-9999","-9999","-9999.00","-9999.00","Mostly Cloudy","mostlycloudy","0","0","0","0","0","0","METAR UKKK 020430Z 31010MPS 9999 BKN023 02/M02 Q1013 R26/CLRD70 TEMPO 31012G18MPS"
"8:00 AM EEST on April 02, 2016","2016","04","02","08","00","Europe/Kiev","5:00 AM GMT on April 02, 2016","2016","04","02","05","00","UTC","3.0","37.4","-2.0","28.4","70","32.4","20.1","-9999.0","-9999.0","320","NW","10.0","6.2","1014","29.95","-2.8","27.0","-9999","-9999","-9999.00","-9999.00","Mostly Cloudy","mostlycloudy","0","0","0","0","0","0","METAR UKKK 020500Z 32009MPS 9999 BKN021 03/M02 Q1014 R26/CLRD70 TEMPO 31012G18MPS"
"8:30 AM EEST on April 02, 2016","2016","04","02","08","30","Europe/Kiev","5:30 AM GMT on April 02, 2016","2016","04","02","05","30","UTC","3.0","37.4","-2.0","28.4","70","32.4","20.1","-9999.0","-9999.0","300","WNW","10.0","6.2","1014","29.95","-2.8","27.0","-9999","-9999","-9999.00","-9999.00","Mostly Cloudy","mostlycloudy","0","0","0","0","0","0","METAR UKKK 020530Z 30009MPS 9999 BKN020 03/M02 Q1014 R26/CLRD70 TEMPO 31012G18MPS"
"9:00 AM EEST on April 02, 2016","2016","04","02","09","00","Europe/Kiev","6:00 AM GMT on April 02, 2016","2016","04","02","06","00","UTC","3","38","-1","30","64","21.6","13.4","","","320","NW","20","12","1015","29.99","-999","-999","-9999","-9999","","","Mostly Cloudy","mostlycloudy","0","0","0","0","0","0","AAXX 02061 33345 32498 73206 10031 21010 39946 40153 52025 87500 333 20025 87713 555 11007 52003"
"9:00 AM EEST on April 02, 2016","2016","04","02","09","00","Europe/Kiev","6:00 AM GMT on April 02, 2016","2016","04","02","06","00","UTC","3.0","37.4","-1.0","30.2","75","28.8","17.9","-9999.0","-9999.0","310","NW","10.0","6.2","1014","29.95","-2.4","27.6","-9999","-9999","-9999.00","-9999.00","Light Rain","rain","0","1","0","0","0","0","METAR UKKK 020600Z 31008MPS 9999 -RA BKN017 OVC030 03/M01 Q1014 R26/190060 TEMPO 31012G18MPS"
"9:30 AM EEST on April 02, 2016","2016","04","02","09","30","Europe/Kiev","6:30 AM GMT on April 02, 2016","2016","04","02","06","30","UTC","3.0","37.4","-1.0","30.2","75","28.8","17.9","46.8","29.1","320","NW","10.0","6.2","1015","29.98","-2.4","27.6","-9999","-9999","-9999.00","-9999.00","Overcast","cloudy","0","0","0","0","0","0","METAR UKKK 020630Z 32008G13MPS 9999 BKN016 OVC038 03/M01 Q1015 R26/190060 TEMPO 31012G18MPS"
"10:00 AM EEST on April 02, 2016","2016","04","02","10","00","Europe/Kiev","7:00 AM GMT on April 02, 2016","2016","04","02","07","00","UTC","3.0","37.4","0.0","32.0","81","32.4","20.1","-9999.0","-9999.0","320","NW","10.0","6.2","1015","29.98","-2.8","27.0","-9999","-9999","-9999.00","-9999.00","Overcast","cloudy","0","0","0","0","0","0","METAR UKKK 020700Z 32009MPS 9999 BKN017 OVC034 03/M00 Q1015 R26/190060 TEMPO 31012G18MPS"
"10:30 AM EEST on April 02, 2016","2016","04","02","10","30","Europe/Kiev","7:30 AM GMT on April 02, 2016","2016","04","02","07","30","UTC","4.0","39.2","0.0","32.0","75","36.0","22.4","54.0","33.6","320","NW","10.0","6.2","1016","30.01","-1.7","28.9","-9999","-9999","-9999.00","-9999.00","Overcast","cloudy","0","0","0","0","0","0","METAR UKKK 020730Z 32010G15MPS 9999 BKN016 OVC040 04/00 Q1016 R26/190060 TEMPO 31012G18MPS"
"11:00 AM EEST on April 02, 2016","2016","04","02","11","00","Europe/Kiev","8:00 AM GMT on April 02, 2016","2016","04","02","08","00","UTC","4.0","39.2","0.0","32.0","75","32.4","20.1","-9999.0","-9999.0","320","NW","10.0","6.2","1016","30.01","-1.4","29.4","-9999","-9999","-9999.00","-9999.00","Overcast","cloudy","0","0","0","0","0","0","METAR UKKK 020800Z 32009MPS 9999 BKN018 OVC040 04/M00 Q1016 R26/CLRD70 TEMPO 31012G18MPS"
"11:30 AM EEST on April 02, 2016","2016","04","02","11","30","Europe/Kiev","8:30 AM GMT on April 02, 2016","2016","04","02","08","30","UTC","4.0","39.2","0.0","32.0","75","28.8","17.9","46.8","29.1","330","NNW","9.0","5.6","1017","30.04","-1.1","30.0","-9999","-9999","-9999.00","-9999.00","Overcast","cloudy","0","0","0","0","0","0","METAR UKKK 020830Z 33008G13MPS 9000 BKN020 OVC040 04/M00 Q1017 R26/CLRD70 TEMPO 31012G18MPS"
"12:00 PM EEST on April 02, 2016","2016","04","02","12","00","Europe/Kiev","9:00 AM GMT on April 02, 2016","2016","04","02","09","00","UTC","5","41","-0","32","59","21.6","13.4","","","340","NNW","20","12","1018","30.06","-999","-999","-9999","-9999","","","Mostly Cloudy","mostlycloudy","0","0","0","0","0","0","AAXX 02091 33345 42598 63406 10051 21002 39972 40178 52026 86500 555 11008"
"12:00 PM EEST on April 02, 2016","2016","04","02","12","00","Europe/Kiev","9:00 AM GMT on April 02, 2016","2016","04","02","09","00","UTC","5.0","41.0","-2.0","28.4","61","32.4","20.1","50.4","31.3","330","NNW","10.0","6.2","1017","30.04","-0.1","31.8","-9999","-9999","-9999.00","-9999.00","Mostly Cloudy","mostlycloudy","0","0","0","0","0","0","METAR UKKK 020900Z 33009G14MPS 300V360 9999 BKN030 05/M02 Q1017 R26/CLRD70 TEMPO 31012G18MPS"
"12:30 PM EEST on April 02, 2016","2016","04","02","12","30","Europe/Kiev","9:30 AM GMT on April 02, 2016","2016","04","02","09","30","UTC","6.0","42.8","-1.0","30.2","61","32.4","20.1","50.4","31.3","320","NW","10.0","6.2","1017","30.04","1.2","34.1","-9999","-9999","-9999.00","-9999.00","Mostly Cloudy","mostlycloudy","0","0","0","0","0","0","METAR UKKK 020930Z 32009G14MPS 290V350 9999 BKN032 06/M01 Q1017 R26/CLRD70 TEMPO 33012G18MPS"
"1:00 PM EEST on April 02, 2016","2016","04","02","13","00","Europe/Kiev","10:00 AM GMT on April 02, 2016","2016","04","02","10","00","UTC","6.0","42.8","-2.0","28.4","57","36.0","22.4","54.0","33.6","330","NNW","10.0","6.2","1018","30.06","0.9","33.7","-9999","-9999","-9999.00","-9999.00","Mostly Cloudy","mostlycloudy","0","0","0","0","0","0","METAR UKKK 021000Z 33010G15MPS 9999 BKN033 06/M02 Q1018 R26/CLRD70 TEMPO 33012G18MPS"
"1:30 PM EEST on April 02, 2016","2016","04","02","13","30","Europe/Kiev","10:30 AM GMT on April 02, 2016","2016","04","02","10","30","UTC","7.0","44.6","0.0","32.0","61","36.0","22.4","-9999.0","-9999.0","320","NW","10.0","6.2","1018","30.06","2.2","36.0","-9999","-9999","-9999.00","-9999.00","Mostly Cloudy","mostlycloudy","0","0","0","0","0","0","METAR UKKK 021030Z 32010MPS 9999 BKN031 07/M00 Q1018 R26/CLRD70 TEMPO 33012G18MPS"
"2:00 PM EEST on April 02, 2016","2016","04","02","14","00","Europe/Kiev","11:00 AM GMT on April 02, 2016","2016","04","02","11","00","UTC","7.0","44.6","-2.0","28.4","53","32.4","20.1","-9999.0","-9999.0","330","NNW","10.0","6.2","1018","30.06","2.5","36.5","-9999","-9999","-9999.00","-9999.00","Mostly Cloudy","mostlycloudy","0","0","0","0","0","0","METAR UKKK 021100Z 33009MPS 300V010 9999 BKN036 07/M02 Q1018 R26/CLRD70 TEMPO 33012G18MPS"
"2:30 PM EEST on April 02, 2016","2016","04","02","14","30","Europe/Kiev","11:30 AM GMT on April 02, 2016","2016","04","02","11","30","UTC","7.0","44.6","-2.0","28.4","53","32.4","20.1","-9999.0","-9999.0","320","NW","10.0","6.2","1018","30.06","2.5","36.5","-9999","-9999","-9999.00","-9999.00","Mostly Cloudy","mostlycloudy","0","0","0","0","0","0","METAR UKKK 021130Z 32009MPS 9999 BKN036 07/M02 Q1018 R26/CLRD70 TEMPO 33012G18MPS"
"3:00 PM EEST on April 02, 2016","2016","04","02","15","00","Europe/Kiev","12:00 PM GMT on April 02, 2016","2016","04","02","12","00","UTC","8","46","-2","28","37","18.0","11.2","","","340","NNW","20","12","1019","30.09","-999","-999","-9999","-9999","","","Mostly Cloudy","mostlycloudy","0","0","0","0","0","0","AAXX 02121 33345 32498 63405 10080 21022 39986 40190 52014 86500 333 86619 555 11017"
"3:00 PM EEST on April 02, 2016","2016","04","02","15","00","Europe/Kiev","12:00 PM GMT on April 02, 2016","2016","04","02","12","00","UTC","8.0","46.4","-3.0","26.6","46","32.4","20.1","54.0","33.6","310","NW","10.0","6.2","1018","30.06","3.8","38.9","-9999","-9999","-9999.00","-9999.00","Mostly Cloudy","mostlycloudy","0","0","0","0","0","0","METAR UKKK 021200Z 31009G15MPS 9999 BKN044 08/M03 Q1018 R26/CLRD70 TEMPO 33012G18MPS"
"3:30 PM EEST on April 02, 2016","2016","04","02","15","30","Europe/Kiev","12:30 PM GMT on April 02, 2016","2016","04","02","12","30","UTC","7.0","44.6","-3.0","26.6","49","32.4","20.1","50.4","31.3","330","NNW","10.0","6.2","1019","30.09","2.5","36.5","-9999","-9999","-9999.00","-9999.00","Mostly Cloudy","mostlycloudy","0","0","0","0","0","0","METAR UKKK 021230Z 33009G14MPS 300V360 9999 BKN049 07/M03 Q1019 R26/CLRD70 TEMPO 33012G18MPS"
"4:00 PM EEST on April 02, 2016","2016","04","02","16","00","Europe/Kiev","1:00 PM GMT on April 02, 2016","2016","04","02","13","00","UTC","8.0","46.4","-4.0","24.8","43","28.8","17.9","-9999.0","-9999.0","330","NNW","10.0","6.2","1019","30.09","4.1","39.3","-9999","-9999","-9999.00","-9999.00","Mostly Cloudy","mostlycloudy","0","0","0","0","0","0","METAR UKKK 021300Z 33008MPS 310V010 9999 BKN049 08/M04 Q1019 R26/CLRD70 TEMPO 33012G18MPS"
"4:30 PM EEST on April 02, 2016","2016","04","02","16","30","Europe/Kiev","1:30 PM GMT on April 02, 2016","2016","04","02","13","30","UTC","8.0","46.4","-4.0","24.8","43","28.8","17.9","-9999.0","-9999.0","330","NNW","-9999.0","-9999.0","1019","30.09","4.1","39.3","-9999","-9999","-9999.00","-9999.00","Clear","clear","0","0","0","0","0","0","METAR UKKK 021330Z 33008MPS 300V360 CAVOK 08/M04 Q1019 R26/CLRD70 TEMPO 33012G18MPS"
"5:00 PM EEST on April 02, 2016","2016","04","02","17","00","Europe/Kiev","2:00 PM GMT on April 02, 2016","2016","04","02","14","00","UTC","8.0","46.4","-4.0","24.8","43","25.2","15.7","-9999.0","-9999.0","330","NNW","-9999.0","-9999.0","1019","30.09","4.4","39.9","-9999","-9999","-9999.00","-9999.00","Clear","clear","0","0","0","0","0","0","METAR UKKK 021400Z 33007MPS CAVOK 08/M04 Q1019 R26/CLRD70 TEMPO 33012G18MPS"
"5:30 PM EEST on April 02, 2016","2016","04","02","17","30","Europe/Kiev","2:30 PM GMT on April 02, 2016","2016","04","02","14","30","UTC","8.0","46.4","-4.0","24.8","43","25.2","15.7","-9999.0","-9999.0","330","NNW","-9999.0","-9999.0","1020","30.12","4.4","39.9","-9999","-9999","-9999.00","-9999.00","Clear","clear","0","0","0","0","0","0","METAR UKKK 021430Z 33007MPS CAVOK 08/M04 Q1020 R26/CLRD70 TEMPO 33012G18MPS"
"6:00 PM EEST on April 02, 2016","2016","04","02","18","00","Europe/Kiev","3:00 PM GMT on April 02, 2016","2016","04","02","15","00","UTC","8","47","-4","25","28","18.0","11.2","","","320","NW","20","12","1020","30.13","-999","-999","-9999","-9999","","","Mostly Cloudy","mostlycloudy","0","0","0","0","0","0","AAXX 02151 33345 42598 63205 10082 21041 39997 40202 52011 86500 555 11012"
"6:00 PM EEST on April 02, 2016","2016","04","02","18","00","Europe/Kiev","3:00 PM GMT on April 02, 2016","2016","04","02","15","00","UTC","8.0","46.4","-4.0","24.8","43","28.8","17.9","-9999.0","-9999.0","320","NW","-9999.0","-9999.0","1020","30.12","4.1","39.3","-9999","-9999","-9999.00","-9999.00","Clear","clear","0","0","0","0","0","0","METAR UKKK 021500Z 32008MPS CAVOK 08/M04 Q1020 R26/CLRD70 NOSIG"
"6:30 PM EEST on April 02, 2016","2016","04","02","18","30","Europe/Kiev","3:30 PM GMT on April 02, 2016","2016","04","02","15","30","UTC","8.0","46.4","-5.0","23.0","40","32.4","20.1","50.4","31.3","320","NW","-9999.0","-9999.0","1020","30.12","3.8","38.9","-9999","-9999","-9999.00","-9999.00","Clear","clear","0","0","0","0","0","0","METAR UKKK 021530Z 32009G14MPS CAVOK 08/M05 Q1020 R26/CLRD70 NOSIG"
"7:00 PM EEST on April 02, 2016","2016","04","02","19","00","Europe/Kiev","4:00 PM GMT on April 02, 2016","2016","04","02","16","00","UTC","8.0","46.4","-5.0","23.0","40","28.8","17.9","-9999.0","-9999.0","310","NW","-9999.0","-9999.0","1020","30.12","4.1","39.3","-9999","-9999","-9999.00","-9999.00","Clear","clear","0","0","0","0","0","0","METAR UKKK 021600Z 31008MPS CAVOK 08/M05 Q1020 R26/CLRD70 NOSIG"
"7:30 PM EEST on April 02, 2016","2016","04","02","19","30","Europe/Kiev","4:30 PM GMT on April 02, 2016","2016","04","02","16","30","UTC","7.0","44.6","-4.0","24.8","46","25.2","15.7","-9999.0","-9999.0","310","NW","-9999.0","-9999.0","1021","30.15","3.1","37.6","-9999","-9999","-9999.00","-9999.00","Clear","clear","0","0","0","0","0","0","METAR UKKK 021630Z 31007MPS CAVOK 07/M04 Q1021 R26/CLRD70 NOSIG"
"8:00 PM EEST on April 02, 2016","2016","04","02","20","00","Europe/Kiev","5:00 PM GMT on April 02, 2016","2016","04","02","17","00","UTC","7.0","44.6","-4.0","24.8","46","25.2","15.7","-9999.0","-9999.0","300","WNW","-9999.0","-9999.0","1021","30.15","3.1","37.6","-9999","-9999","-9999.00","-9999.00","Clear","clear","0","0","0","0","0","0","METAR UKKK 021700Z 30007MPS CAVOK 07/M04 Q1021 R26/CLRD70 NOSIG"
"8:30 PM EEST on April 02, 2016","2016","04","02","20","30","Europe/Kiev","5:30 PM GMT on April 02, 2016","2016","04","02","17","30","UTC","7.0","44.6","-4.0","24.8","46","25.2","15.7","-9999.0","-9999.0","310","NW","-9999.0","-9999.0","1021","30.15","3.1","37.6","-9999","-9999","-9999.00","-9999.00","Clear","clear","0","0","0","0","0","0","METAR UKKK 021730Z 31007MPS CAVOK 07/M04 Q1021 R26/CLRD70 NOSIG"
"9:00 PM EEST on April 02, 2016","2016","04","02","21","00","Europe/Kiev","6:00 PM GMT on April 02, 2016","2016","04","02","18","00","UTC","7","45","-4","25","32","14.4","8.9","","","320","NW","20","12","1022","30.19","-999","-999","-9999","-9999","","","","","0","0","0","0","0","0","AAXX 02181 33345 32998 03204 10071 21039 30018 40224 52021 333 10083 555 11005"
"9:00 PM EEST on April 02, 2016","2016","04","02","21","00","Europe/Kiev","6:00 PM GMT on April 02, 2016","2016","04","02","18","00","UTC","6.0","42.8","-4.0","24.8","49","25.2","15.7","-9999.0","-9999.0","310","NW","-9999.0","-9999.0","1022","30.18","1.8","35.2","-9999","-9999","-9999.00","-9999.00","Clear","clear","0","0","0","0","0","0","METAR UKKK 021800Z 31007MPS CAVOK 06/M04 Q1022 R26/CLRD70 NOSIG"
"9:30 PM EEST on April 02, 2016","2016","04","02","21","30","Europe/Kiev","6:30 PM GMT on April 02, 2016","2016","04","02","18","30","UTC","6.0","42.8","-4.0","24.8","49","21.6","13.4","-9999.0","-9999.0","310","NW","-9999.0","-9999.0","1022","30.18","2.2","35.9","-9999","-9999","-9999.00","-9999.00","Clear","clear","0","0","0","0","0","0","METAR UKKK 021830Z 31006MPS CAVOK 06/M04 Q1022 R26/CLRD70 NOSIG"
"10:00 PM EEST on April 02, 2016","2016","04","02","22","00","Europe/Kiev","7:00 PM GMT on April 02, 2016","2016","04","02","19","00","UTC","5.0","41.0","-4.0","24.8","53","18.0","11.2","-9999.0","-9999.0","300","WNW","-9999.0","-9999.0","1022","30.18","1.3","34.4","-9999","-9999","-9999.00","-9999.00","Clear","clear","0","0","0","0","0","0","METAR UKKK 021900Z 30005MPS CAVOK 05/M04 Q1022 R26/CLRD70 NOSIG"
"10:30 PM EEST on April 02, 2016","2016","04","02","22","30","Europe/Kiev","7:30 PM GMT on April 02, 2016","2016","04","02","19","30","UTC","5.0","41.0","-4.0","24.8","53","14.4","8.9","-9999.0","-9999.0","300","WNW","-9999.0","-9999.0","1022","30.18","1.9","35.4","-9999","-9999","-9999.00","-9999.00","Clear","clear","0","0","0","0","0","0","METAR UKKK 021930Z 30004MPS CAVOK 05/M04 Q1022 R26/CLRD70 NOSIG"
"11:00 PM EEST on April 02, 2016","2016","04","02","23","00","Europe/Kiev","8:00 PM GMT on April 02, 2016","2016","04","02","20","00","UTC","5.0","41.0","-4.0","24.8","53","14.4","8.9","-9999.0","-9999.0","300","WNW","-9999.0","-9999.0","1022","30.18","1.9","35.4","-9999","-9999","-9999.00","-9999.00","Clear","clear","0","0","0","0","0","0","METAR UKKK 022000Z 30004MPS CAVOK 05/M04 Q1022 R26/CLRD70 NOSIG"
"11:30 PM EEST on April 02, 2016","2016","04","02","23","30","Europe/Kiev","8:30 PM GMT on April 02, 2016","2016","04","02","20","30","UTC","5.0","41.0","-4.0","24.8","53","14.4","8.9","-9999.0","-9999.0","300","WNW","-9999.0","-9999.0","1022","30.18","1.9","35.4","-9999","-9999","-9999.00","-9999.00","Clear","clear","0","0","0","0","0","0","METAR UKKK 022030Z 30004MPS CAVOK 05/M04 Q1022 R26/CLRD70 NOSIG"
"12:00 AM EEST on April 03, 2016","2016","04","03","00","00","Europe/Kiev","9:00 PM GMT on April 02, 2016","2016","04","02","21","00","UTC","5","41","-5","23","36","7.2","4.5","","","310","NW","20","12","1023","30.22","-999","-999","-9999","-9999","","","","","0","0","0","0","0","0","AAXX 02211 33345 42998 03102 10052 21049 30025 40232 52007 555 11002"
"12:00 AM EEST on April 03, 2016","2016","04","03","00","00","Europe/Kiev","9:00 PM GMT on April 02, 2016","2016","04","02","21","00","UTC","5.0","41.0","-4.0","24.8","53","14.4","8.9","-9999.0","-9999.0","300","WNW","-9999.0","-9999.0","1022","30.18","1.9","35.4","-9999","-9999","-9999.00","-9999.00","Clear","clear","0","0","0","0","0","0","METAR UKKK 022100Z 30004MPS CAVOK 05/M04 Q1022 R26/CLRD70 NOSIG"
"12:30 AM EEST on April 03, 2016","2016","04","03","00","30","Europe/Kiev","9:30 PM GMT on April 02, 2016","2016","04","02","21","30","UTC","5.0","41.0","-4.0","24.8","53","14.4","8.9","-9999.0","-9999.0","300","WNW","-9999.0","-9999.0","1022","30.18","1.9","35.4","-9999","-9999","-9999.00","-9999.00","Clear","clear","0","0","0","0","0","0","METAR UKKK 022130Z 30004MPS CAVOK 05/M04 Q1022 R26/CLRD70 NOSIG"
"1:00 AM EEST on April 03, 2016","2016","04","03","01","00","Europe/Kiev","10:00 PM GMT on April 02, 2016","2016","04","02","22","00","UTC","5.0","41.0","-4.0","24.8","53","14.4","8.9","-9999.0","-9999.0","300","WNW","-9999.0","-9999.0","1022","30.18","1.9","35.4","-9999","-9999","-9999.00","-9999.00","Clear","clear","0","0","0","0","0","0","METAR UKKK 022200Z 30004MPS CAVOK 05/M04 Q1022 R26/CLRD70 NOSIG"
"1:30 AM EEST on April 03, 2016","2016","04","03","01","30","Europe/Kiev","10:30 PM GMT on April 02, 2016","2016","04","02","22","30","UTC","5.0","41.0","-4.0","24.8","53","14.4","8.9","-9999.0","-9999.0","300","WNW","-9999.0","-9999.0","1022","30.18","1.9","35.4","-9999","-9999","-9999.00","-9999.00","Clear","clear","0","0","0","0","0","0","METAR UKKK 022230Z 30004MPS CAVOK 05/M04 Q1022 R26/CLRD70 NOSIG"
"2:00 AM EEST on April 03, 2016","2016","04","03","02","00","Europe/Kiev","11:00 PM GMT on April 02, 2016","2016","04","02","23","00","UTC","5.0","41.0","-4.0","24.8","53","14.4","8.9","-9999.0","-9999.0","300","WNW","-9999.0","-9999.0","1022","30.18","1.9","35.4","-9999","-9999","-9999.00","-9999.00","Clear","clear","0","0","0","0","0","0","METAR UKKK 022300Z 30004MPS CAVOK 05/M04 Q1022 R26/CLRD70 NOSIG"
"2:30 AM EEST on April 03, 2016","2016","04","03","02","30","Europe/Kiev","11:30 PM GMT on April 02, 2016","2016","04","02","23","30","UTC","5.0","41.0","-4.0","24.8","53","14.4","8.9","-9999.0","-9999.0","300","WNW","-9999.0","-9999.0","1022","30.18","1.9","35.4","-9999","-9999","-9999.00","-9999.00","Clear","clear","0","0","0","0","0","0","METAR UKKK 022330Z 30004MPS CAVOK 05/M04 Q1022 R26/CLRD70 NOSIG"
"3:00 AM EEST on April 03, 2016","2016","04","03","03","00","Europe/Kiev","12:00 AM GMT on April 03, 2016","2016","04","03","00","00","UTC","3","37","-4","25","49","7.2","4.5","","","270","West","20","12","1024","30.23","-999","-999","-9999","-9999","","","","","0","0","0","0","0","0","AAXX 03001 33345 32998 02702 10028 21041 30027 40236 52002 555 11101"
"3:00 AM EEST on April 03, 2016","2016","04","03","03","00","Europe/Kiev","12:00 AM GMT on April 03, 2016","2016","04","03","00","00","UTC","1.0","33.8","-4.0","24.8","70","14.4","8.9","-9999.0","-9999.0","290","WNW","-9999.0","-9999.0","1023","30.21","-3.0","26.5","-9999","-9999","-9999.00","-9999.00","Clear","clear","0","0","0","0","0","0","METAR UKKK 030000Z 29004MPS CAVOK 01/M04 Q1023 R26/CLRD70 NOSIG"
"3:30 AM EEST on April 03, 2016","2016","04","03","03","30","Europe/Kiev","12:30 AM GMT on April 03, 2016","2016","04","03","00","30","UTC","1.0","33.8","-4.0","24.8","70","14.4","8.9","-9999.0","-9999.0","290","WNW","-9999.0","-9999.0","1023","30.21","-3.0","26.5","-9999","-9999","-9999.00","-9999.00","Clear","clear","0","0","0","0","0","0","METAR UKKK 030030Z 29004MPS CAVOK 01/M04 Q1023 R26/CLRD70 NOSIG"
"4:00 AM EEST on April 03, 2016","2016","04","03","04","00","Europe/Kiev","1:00 AM GMT on April 03, 2016","2016","04","03","01","00","UTC","1.0","33.8","-4.0","24.8","70","14.4","8.9","-9999.0","-9999.0","290","WNW","-9999.0","-9999.0","1023","30.21","-3.0","26.5","-9999","-9999","-9999.00","-9999.00","Clear","clear","0","0","0","0","0","0","METAR UKKK 030100Z 29004MPS CAVOK 01/M04 Q1023 R26/CLRD70 NOSIG"
"4:30 AM EEST on April 03, 2016","2016","04","03","04","30","Europe/Kiev","1:30 AM GMT on April 03, 2016","2016","04","03","01","30","UTC","2.0","35.6","-4.0","24.8","65","10.8","6.7","-9999.0","-9999.0","290","WNW","-9999.0","-9999.0","1022","30.18","-1.1","30.0","-9999","-9999","-9999.00","-9999.00","Clear","clear","0","0","0","0","0","0","METAR UKKK 030130Z 29003MPS CAVOK 02/M04 Q1022 R26/CLRD70 NOSIG"
"5:00 AM EEST on April 03, 2016","2016","04","03","05","00","Europe/Kiev","2:00 AM GMT on April 03, 2016","2016","04","03","02","00","UTC","1.0","33.8","-4.0","24.8","70","10.8","6.7","-9999.0","-9999.0","280","West","-9999.0","-9999.0","1022","30.18","-2.3","27.9","-9999","-9999","-9999.00","-9999.00","Clear","clear","0","0","0","0","0","0","METAR UKKK 030200Z 28003MPS CAVOK 01/M04 Q1022 R26/CLRD70 NOSIG"
"5:30 AM EEST on April 03, 2016","2016","04","03","05","30","Europe/Kiev","2:30 AM GMT on April 03, 2016","2016","04","03","02","30","UTC","0.0","32.0","-4.0","24.8","75","10.8","6.7","-9999.0","-9999.0","260","West","-9999.0","-9999.0","1023","30.21","-3.5","25.7","-9999","-9999","-9999.00","-9999.00","Clear","clear","0","0","0","0","0","0","METAR UKKK 030230Z 26003MPS 250V310 CAVOK 00/M04 Q1023 R26/CLRD70 NOSIG"
"6:00 AM EEST on April 03, 2016","2016","04","03","06","00","Europe/Kiev","3:00 AM GMT on April 03, 2016","2016","04","03","03","00","UTC","2","36","-4","25","52","10.8","6.7","","","290","WNW","20","12","1024","30.24","-999","-999","-9999","-9999","","","","","0","0","0","0","0","0","AAXX 03031 33345 42998 02903 10020 21041 30029 40239 52002 555 14101"
"6:00 AM EEST on April 03, 2016","2016","04","03","06","00","Europe/Kiev","3:00 AM GMT on April 03, 2016","2016","04","03","03","00","UTC","0.0","32.0","-4.0","24.8","75","14.4","8.9","-9999.0","-9999.0","270","West","-9999.0","-9999.0","1023","30.21","-4.3","24.3","-9999","-9999","-9999.00","-9999.00","Clear","clear","0","0","0","0","0","0","METAR UKKK 030300Z 27004MPS CAVOK 00/M04 Q1023 R26/CLRD70 NOSIG"
"6:30 AM EEST on April 03, 2016","2016","04","03","06","30","Europe/Kiev","3:30 AM GMT on April 03, 2016","2016","04","03","03","30","UTC","0.0","32.0","-4.0","24.8","75","10.8","6.7","-9999.0","-9999.0","260","West","-9999.0","-9999.0","1023","30.21","-3.5","25.7","-9999","-9999","-9999.00","-9999.00","Clear","clear","0","0","0","0","0","0","METAR UKKK 030330Z 26003MPS CAVOK 00/M04 Q1023 R26/CLRD70 NOSIG"
"7:00 AM EEST on April 03, 2016","2016","04","03","07","00","Europe/Kiev","4:00 AM GMT on April 03, 2016","2016","04","03","04","00","UTC","0.0","32.0","-4.0","24.8","75","10.8","6.7","-9999.0","-9999.0","260","West","-9999.0","-9999.0","1023","30.21","-3.5","25.7","-9999","-9999","-9999.00","-9999.00","Clear","clear","0","0","0","0","0","0","METAR UKKK 030400Z 26003MPS CAVOK 00/M04 Q1023 R26/CLRD70 NOSIG"
"7:30 AM EEST on April 03, 2016","2016","04","03","07","30","Europe/Kiev","4:30 AM GMT on April 03, 2016","2016","04","03","04","30","UTC","1.0","33.8","-4.0","24.8","70","14.4","8.9","-9999.0","-9999.0","270","West","-9999.0","-9999.0","1023","30.21","-3.0","26.5","-9999","-9999","-9999.00","-9999.00","Clear","clear","0","0","0","0","0","0","METAR UKKK 030430Z 27004MPS CAVOK 01/M04 Q1023 R26/CLRD70 NOSIG"
"8:00 AM EEST on April 03, 2016","2016","04","03","08","00","Europe/Kiev","5:00 AM GMT on April 03, 2016","2016","04","03","05","00","UTC","2.0","35.6","-3.0","26.6","70","7.2","4.5","-9999.0","-9999.0","270","West","-9999.0","-9999.0","1023","30.21","-0.1","31.8","-9999","-9999","-9999.00","-9999.00","Clear","clear","0","0","0","0","0","0","METAR UKKK 030500Z 27002MPS CAVOK 02/M03 Q1023 R26/CLRD70 NOSIG"
"8:30 AM EEST on April 03, 2016","2016","04","03","08","30","Europe/Kiev","5:30 AM GMT on April 03, 2016","2016","04","03","05","30","UTC","3.0","37.4","-3.0","26.6","65","7.2","4.5","-9999.0","-9999.0","280","West","-9999.0","-9999.0","1023","30.21","1.0","33.9","-9999","-9999","-9999.00","-9999.00","Clear","clear","0","0","0","0","0","0","METAR UKKK 030530Z 28002MPS CAVOK 03/M03 Q1023 R26/CLRD70 NOSIG"
"9:00 AM EEST on April 03, 2016","2016","04","03","09","00","Europe/Kiev","6:00 AM GMT on April 03, 2016","2016","04","03","06","00","UTC","5","42","-3","26","41","10.8","6.7","","","290","WNW","20","12","1024","30.25","-999","-999","-9999","-9999","","","Clear","clear","0","0","0","0","0","0","AAXX 03061 33345 32998 42903 10053 21032 30034 40242 52005 80001 333 20013 555 11009 31002 52101"
"9:00 AM EEST on April 03, 2016","2016","04","03","09","00","Europe/Kiev","6:00 AM GMT on April 03, 2016","2016","04","03","06","00","UTC","4.0","39.2","-3.0","26.6","61","10.8","6.7","-9999.0","-9999.0","280","West","-9999.0","-9999.0","1023","30.21","1.3","34.4","-9999","-9999","-9999.00","-9999.00","Clear","clear","0","0","0","0","0","0","METAR UKKK 030600Z 28003MPS CAVOK 04/M03 Q1023 R26/CLRD70 NOSIG"
"9:30 AM EEST on April 03, 2016","2016","04","03","09","30","Europe/Kiev","6:30 AM GMT on April 03, 2016","2016","04","03","06","30","UTC","5.0","41.0","-3.0","26.6","57","10.8","6.7","-9999.0","-9999.0","270","West","-9999.0","-9999.0","1024","30.24","2.5","36.5","-9999","-9999","-9999.00","-9999.00","Clear","clear","0","0","0","0","0","0","METAR UKKK 030630Z 27003MPS CAVOK 05/M03 Q1024 R26/CLRD70 NOSIG"
"10:00 AM EEST on April 03, 2016","2016","04","03","10","00","Europe/Kiev","7:00 AM GMT on April 03, 2016","2016","04","03","07","00","UTC","7.0","44.6","-4.0","24.8","46","10.8","6.7","-9999.0","-9999.0","300","WNW","-9999.0","-9999.0","1024","30.24","4.9","40.8","-9999","-9999","-9999.00","-9999.00","Clear","clear","0","0","0","0","0","0","METAR UKKK 030700Z 30003MPS 270V340 CAVOK 07/M04 Q1024 R26/CLRD70 NOSIG"
"10:30 AM EEST on April 03, 2016","2016","04","03","10","30","Europe/Kiev","7:30 AM GMT on April 03, 2016","2016","04","03","07","30","UTC","8.0","46.4","-4.0","24.8","43","14.4","8.9","-9999.0","-9999.0","300","WNW","-9999.0","-9999.0","1024","30.24","5.6","42.0","-9999","-9999","-9999.00","-9999.00","Clear","clear","0","0","0","0","0","0","METAR UKKK 030730Z 30004MPS 280V340 CAVOK 08/M04 Q1024 R26/CLRD70 NOSIG"
"11:00 AM EEST on April 03, 2016","2016","04","03","11","00","Europe/Kiev","8:00 AM GMT on April 03, 2016","2016","04","03","08","00","UTC","9.0","48.2","-5.0","23.0","37","18.0","11.2","-9999.0","-9999.0","300","WNW","-9999.0","-9999.0","1023","30.21","-999","-999","-9999","-9999","-9999.00","-9999.00","Clear","clear","0","0","0","0","0","0","METAR UKKK 030800Z 30005MPS CAVOK 09/M05 Q1023 R26/CLRD70 NOSIG"
"11:30 AM EEST on April 03, 2016","2016","04","03","11","30","Europe/Kiev","8:30 AM GMT on April 03, 2016","2016","04","03","08","30","UTC","9.0","48.2","-5.0","23.0","37","14.4","8.9","-9999.0","-9999.0","330","NNW","-9999.0","-9999.0","1023","30.21","-999","-999","-9999","-9999","-9999.00","-9999.00","Clear","clear","0","0","0","0","0","0","METAR UKKK 030830Z 33004MPS 250V010 CAVOK 09/M05 Q1023 R26/CLRD70 NOSIG"
"12:00 PM EEST on April 03, 2016","2016","04","03","12","00","Europe/Kiev","9:00 AM GMT on April 03, 2016","2016","04","03","09","00","UTC","10","50","-5","23","22","14.4","8.9","","","330","NNW","20","12","1024","30.23","-999","-999","-9999","-9999","","","Clear","clear","0","0","0","0","0","0","AAXX 03091 33345 42998 63304 10100 21052 30031 40235 58003 80004 555 10024"
"12:00 PM EEST on April 03, 2016","2016","04","03","12","00","Europe/Kiev","9:00 AM GMT on April 03, 2016","2016","04","03","09","00","UTC","10.0","50.0","-4.0","24.8","37","18.0","11.2","36.0","22.4","340","NNW","-9999.0","-9999.0","1023","30.21","-999","-999","-9999","-9999","-9999.00","-9999.00","Clear","clear","0","0","0","0","0","0","METAR UKKK 030900Z 34005G10MPS 300V020 CAVOK 10/M04 Q1023 R26/CLRD70 NOSIG"
"12:30 PM EEST on April 03, 2016","2016","04","03","12","30","Europe/Kiev","9:30 AM GMT on April 03, 2016","2016","04","03","09","30","UTC","10.0","50.0","-4.0","24.8","37","21.6","13.4","-9999.0","-9999.0","330","NNW","-9999.0","-9999.0","1023","30.21","-999","-999","-9999","-9999","-9999.00","-9999.00","Clear","clear","0","0","0","0","0","0","METAR UKKK 030930Z 33006MPS 290V010 CAVOK 10/M04 Q1023 R26/CLRD70 NOSIG"
"1:00 PM EEST on April 03, 2016","2016","04","03","13","00","Europe/Kiev","10:00 AM GMT on April 03, 2016","2016","04","03","10","00","UTC","11.0","51.8","-5.0","23.0","33","21.6","13.4","-9999.0","-9999.0","340","NNW","-9999.0","-9999.0","1022","30.18","-999","-999","-9999","-9999","-9999.00","-9999.00","Clear","clear","0","0","0","0","0","0","METAR UKKK 031000Z 34006MPS 310V020 CAVOK 11/M05 Q1022 R26/CLRD70 NOSIG"
"1:30 PM EEST on April 03, 2016","2016","04","03","13","30","Europe/Kiev","10:30 AM GMT on April 03, 2016","2016","04","03","10","30","UTC","11.0","51.8","-4.0","24.8","35","21.6","13.4","-9999.0","-9999.0","310","NW","-9999.0","-9999.0","1022","30.18","-999","-999","-9999","-9999","-9999.00","-9999.00","Clear","clear","0","0","0","0","0","0","METAR UKKK 031030Z 31006MPS 270V340 CAVOK 11/M04 Q1022 R26/CLRD70 NOSIG"
"2:00 PM EEST on April 03, 2016","2016","04","03","14","00","Europe/Kiev","11:00 AM GMT on April 03, 2016","2016","04","03","11","00","UTC","11.0","51.8","-4.0","24.8","35","25.2","15.7","-9999.0","-9999.0","310","NW","-9999.0","-9999.0","1022","30.18","-999","-999","-9999","-9999","-9999.00","-9999.00","Clear","clear","0","0","0","0","0","0","METAR UKKK 031100Z 31007MPS 270V350 CAVOK 11/M04 Q1022 R26/CLRD70 NOSIG"
"2:30 PM EEST on April 03, 2016","2016","04","03","14","30","Europe/Kiev","11:30 AM GMT on April 03, 2016","2016","04","03","11","30","UTC","12.0","53.6","-4.0","24.8","33","25.2","15.7","43.2","26.8","290","WNW","-9999.0","-9999.0","1021","30.15","-999","-999","-9999","-9999","-9999.00","-9999.00","Clear","clear","0","0","0","0","0","0","METAR UKKK 031130Z 29007G12MPS 270V330 CAVOK 12/M04 Q1021 R26/CLRD70 NOSIG"
"3:00 PM EEST on April 03, 2016","2016","04","03","15","00","Europe/Kiev","12:00 PM GMT on April 03, 2016","2016","04","03","12","00","UTC","12","54","-6","22","17","18.0","11.2","","","340","NNW","20","12","1022","30.17","-999","-999","-9999","-9999","","","Mostly Cloudy","mostlycloudy","0","0","0","0","0","0","AAXX 03121 33345 32698 53405 10125 21057 30015 40217 57016 85100 555 10027"
"3:00 PM EEST on April 03, 2016","2016","04","03","15","00","Europe/Kiev","12:00 PM GMT on April 03, 2016","2016","04","03","12","00","UTC","12.0","53.6","-3.0","26.6","35","21.6","13.4","-9999.0","-9999.0","350","North","-9999.0","-9999.0","1021","30.15","-999","-999","-9999","-9999","-9999.00","-9999.00","Clear","clear","0","0","0","0","0","0","METAR UKKK 031200Z 35006MPS 310V010 CAVOK 12/M03 Q1021 R26/CLRD70 NOSIG"
"3:30 PM EEST on April 03, 2016","2016","04","03","15","30","Europe/Kiev","12:30 PM GMT on April 03, 2016","2016","04","03","12","30","UTC","13.0","55.4","-4.0","24.8","31","21.6","13.4","39.6","24.6","320","NW","-9999.0","-9999.0","1021","30.15","-999","-999","-9999","-9999","-9999.00","-9999.00","Clear","clear","0","0","0","0","0","0","METAR UKKK 031230Z 32006G11MPS 290V010 CAVOK 13/M04 Q1021 R26/CLRD70 NOSIG"
"4:00 PM EEST on April 03, 2016","2016","04","03","16","00","Europe/Kiev","1:00 PM GMT on April 03, 2016","2016","04","03","13","00","UTC","12.0","53.6","-4.0","24.8","33","21.6","13.4","-9999.0","-9999.0","340","NNW","-9999.0","-9999.0","1021","30.15","-999","-999","-9999","-9999","-9999.00","-9999.00","Clear","clear","0","0","0","0","0","0","METAR UKKK 031300Z 34006MPS 310V010 CAVOK 12/M04 Q1021 R26/CLRD70 NOSIG"
"4:30 PM EEST on April 03, 2016","2016","04","03","16","30","Europe/Kiev","1:30 PM GMT on April 03, 2016","2016","04","03","13","30","UTC","12.0","53.6","-4.0","24.8","33","18.0","11.2","-9999.0","-9999.0","320","NW","-9999.0","-9999.0","1020","30.12","-999","-999","-9999","-9999","-9999.00","-9999.00","Clear","clear","0","0","0","0","0","0","METAR UKKK 031330Z 32005MPS 290V360 CAVOK 12/M04 Q1020 R26/CLRD70 NOSIG"
"5:00 PM EEST on April 03, 2016","2016","04","03","17","00","Europe/Kiev","2:00 PM GMT on April 03, 2016","2016","04","03","14","00","UTC","13.0","55.4","-3.0","26.6","33","14.4","8.9","-9999.0","-9999.0","320","NW","-9999.0","-9999.0","1020","30.12","-999","-999","-9999","-9999","-9999.00","-9999.00","Clear","clear","0","0","0","0","0","0","METAR UKKK 031400Z 32004MPS CAVOK 13/M03 Q1020 R26/CLRD70 NOSIG"
"5:30 PM EEST on April 03, 2016","2016","04","03","17","30","Europe/Kiev","2:30 PM GMT on April 03, 2016","2016","04","03","14","30","UTC","12.0","53.6","-4.0","24.8","33","10.8","6.7","-9999.0","-9999.0","340","NNW","-9999.0","-9999.0","1020","30.12","-999","-999","-9999","-9999","-9999.00","-9999.00","Clear","clear","0","0","0","0","0","0","METAR UKKK 031430Z 34003MPS 270V010 CAVOK 12/M04 Q1020 R26/CLRD70 NOSIG"
"6:00 PM EEST on April 03, 2016","2016","04","03","18","00","Europe/Kiev","3:00 PM GMT on April 03, 2016","2016","04","03","15","00","UTC","12","53","-6","22","18","7.2","4.5","","","340","NNW","20","12","1020","30.13","-999","-999","-9999","-9999","","","Mostly Cloudy","mostlycloudy","0","0","0","0","0","0","AAXX 03151 33345 42998 73402 10117 21055 30001 40203 57014 86031 555 10016"
"6:00 PM EEST on April 03, 2016","2016","04","03","18","00","Europe/Kiev","3:00 PM GMT on April 03, 2016","2016","04","03","15","00","UTC","12.0","53.6","-4.0","24.8","33","14.4","8.9","-9999.0","-9999.0","320","NW","-9999.0","-9999.0","1020","30.12","-999","-999","-9999","-9999","-9999.00","-9999.00","Clear","clear","0","0","0","0","0","0","METAR UKKK 031500Z 32004MPS 290V350 CAVOK 12/M04 Q1020 R26/CLRD70 NOSIG"
"6:30 PM EEST on April 03, 2016","2016","04","03","18","30","Europe/Kiev","3:30 PM GMT on April 03, 2016","2016","04","03","15","30","UTC","12.0","53.6","-4.0","24.8","33","10.8","6.7","-9999.0","-9999.0","350","North","-9999.0","-9999.0","1020","30.12","-999","-999","-9999","-9999","-9999.00","-9999.00","Clear","clear","0","0","0","0","0","0","METAR UKKK 031530Z 35003MPS 310V030 CAVOK 12/M04 Q1020 R26/CLRD70 NOSIG"
"7:00 PM EEST on April 03, 2016","2016","04","03","19","00","Europe/Kiev","4:00 PM GMT on April 03, 2016","2016","04","03","16","00","UTC","11.0","51.8","-4.0","24.8","35","14.4","8.9","-9999.0","-9999.0","330","NNW","-9999.0","-9999.0","1020","30.12","-999","-999","-9999","-9999","-9999.00","-9999.00","Clear","clear","0","0","0","0","0","0","METAR UKKK 031600Z 33004MPS 290V350 CAVOK 11/M04 Q1020 R26/CLRD70 NOSIG"
"7:30 PM EEST on April 03, 2016","2016","04","03","19","30","Europe/Kiev","4:30 PM GMT on April 03, 2016","2016","04","03","16","30","UTC","11.0","51.8","-4.0","24.8","35","10.8","6.7","-9999.0","-9999.0","340","NNW","-9999.0","-9999.0","1020","30.12","-999","-999","-9999","-9999","-9999.00","-9999.00","Clear","clear","0","0","0","0","0","0","METAR UKKK 031630Z 34003MPS CAVOK 11/M04 Q1020 R26/CLRD70 NOSIG"
"8:00 PM EEST on April 03, 2016","2016","04","03","20","00","Europe/Kiev","5:00 PM GMT on April 03, 2016","2016","04","03","17","00","UTC","10.0","50.0","-4.0","24.8","37","7.2","4.5","-9999.0","-9999.0","320","NW","-9999.0","-9999.0","1020","30.12","-999","-999","-9999","-9999","-9999.00","-9999.00","Clear","clear","0","0","0","0","0","0","METAR UKKK 031700Z 32002MPS CAVOK 10/M04 Q1020 R26/CLRD70 NOSIG"
"8:30 PM EEST on April 03, 2016","2016","04","03","20","30","Europe/Kiev","5:30 PM GMT on April 03, 2016","2016","04","03","17","30","UTC","9.0","48.2","-4.0","24.8","40","3.6","2.2","-9999.0","-9999.0","320","NW","-9999.0","-9999.0","1020","30.12","-999","-999","-9999","-9999","-9999.00","-9999.00","Clear","clear","0","0","0","0","0","0","METAR UKKK 031730Z 32001MPS CAVOK 09/M04 Q1020 R26/CLRD70 NOSIG"
"9:00 PM EEST on April 03, 2016","2016","04","03","21","00","Europe/Kiev","6:00 PM GMT on April 03, 2016","2016","04","03","18","00","UTC","9","48","-3","27","31","0.0","0.0","","","","","20","12","1020","30.14","-999","-999","-9999","-9999","","","Scattered Clouds","partlycloudy","0","0","0","0","0","0","AAXX 03181 33345 32998 60000 10091 21027 30000 40204 56001 82034 333 10126 555 10005"
"9:00 PM EEST on April 03, 2016","2016","04","03","21","00","Europe/Kiev","6:00 PM GMT on April 03, 2016","2016","04","03","18","00","UTC","7.0","44.6","-2.0","28.4","53","3.6","2.2","-9999.0","-9999.0","260","West","6.0","3.7","1020","30.12","-999","-999","-9999","-9999","-9999.00","-9999.00","Unknown","unknown","0","0","0","0","0","0","METAR UKKK 031800Z 26001MPS 6000 NSC 07/M02 Q1020 R26/CLRD70 TEMPO 2000 FU"
"9:30 PM EEST on April 03, 2016","2016","04","03","21","30","Europe/Kiev","6:30 PM GMT on April 03, 2016","2016","04","03","18","30","UTC","8.0","46.4","-2.0","28.4","50","3.6","2.2","-9999.0","-9999.0","250","WSW","-9999.0","-9999.0","1020","30.12","-999","-999","-9999","-9999","-9999.00","-9999.00","Smoke","hazy","0","0","0","0","0","0","METAR UKKK 031830Z 25001MPS 3400 FU NSC 08/M02 Q1020 R26/CLRD70 TEMPO 2000 FU"
"10:00 PM EEST on April 03, 2016","2016","04","03","22","00","Europe/Kiev","7:00 PM GMT on April 03, 2016","2016","04","03","19","00","UTC","7.0","44.6","-2.0","28.4","53","3.6","2.2","-9999.0","-9999.0","260","West","5.0","3.1","1019","30.09","-999","-999","-9999","-9999","-9999.00","-9999.00","Smoke","hazy","0","0","0","0","0","0","METAR UKKK 031900Z 26001MPS 5000 FU NSC 07/M02 Q1019 R26/CLRD70 TEMPO 2000 FU"
"10:30 PM EEST on April 03, 2016","2016","04","03","22","30","Europe/Kiev","7:30 PM GMT on April 03, 2016","2016","04","03","19","30","UTC","7.0","44.6","-2.0","28.4","53","3.6","2.2","-9999.0","-9999.0","280","West","5.0","3.1","1019","30.09","-999","-999","-9999","-9999","-9999.00","-9999.00","Smoke","hazy","0","0","0","0","0","0","METAR UKKK 031930Z 28001MPS 5000 FU NSC 07/M02 Q1019 R26/CLRD70 TEMPO 2000 FU"
"11:00 PM EEST on April 03, 2016","2016","04","03","23","00","Europe/Kiev","8:00 PM GMT on April 03, 2016","2016","04","03","20","00","UTC","7.0","44.6","-2.0","28.4","53","3.6","2.2","-9999.0","-9999.0","0","Variable","-9999.0","-9999.0","1019","30.09","-999","-999","-9999","-9999","-9999.00","-9999.00","Smoke","hazy","0","0","0","0","0","0","METAR UKKK 032000Z VRB01MPS 3600 FU NSC 07/M02 Q1019 R26/CLRD70 TEMPO 2000 FU"
"11:30 PM EEST on April 03, 2016","2016","04","03","23","30","Europe/Kiev","8:30 PM GMT on April 03, 2016","2016","04","03","20","30","UTC","6.0","42.8","-1.0","30.2","61","3.6","2.2","-9999.0","-9999.0","230","SW","-9999.0","-9999.0","1019","30.09","-999","-999","-9999","-9999","-9999.00","-9999.00","Smoke","hazy","0","0","0","0","0","0","METAR UKKK 032030Z 23001MPS 3100 FU NSC 06/M01 Q1019 R26/CLRD70 TEMPO 2000 FU"
"12:00 AM EEST on April 04, 2016","2016","04","04","00","00","Europe/Kiev","9:00 PM GMT on April 03, 2016","2016","04","03","21","00","UTC","8","47","-2","28","34","3.6","2.2","","","280","West","20","12","1020","30.12","-999","-999","-9999","-9999","","","Mostly Cloudy","mostlycloudy","0","0","0","0","0","0","AAXX 03211 33345 42998 72801 10083 21024 39995 40199 58005 87050 555 10005"
"12:00 AM EEST on April 04, 2016","2016","04","04","00","00","Europe/Kiev","9:00 PM GMT on April 03, 2016","2016","04","03","21","00","UTC","5.0","41.0","0.0","32.0","70","7.2","4.5","-9999.0","-9999.0","240","WSW","-9999.0","-9999.0","1019","30.09","3.4","38.1","-9999","-9999","-9999.00","-9999.00","Smoke","hazy","0","0","0","0","0","0","METAR UKKK 032100Z 24002MPS 4400 FU NSC 05/M00 Q1019 R26/CLRD70 TEMPO 2000 FU"
"12:30 AM EEST on April 04, 2016","2016","04","04","00","30","Europe/Kiev","9:30 PM GMT on April 03, 2016","2016","04","03","21","30","UTC","6.0","42.8","-1.0","30.2","61","7.2","4.5","-9999.0","-9999.0","230","SW","-9999.0","-9999.0","1019","30.09","4.5","40.2","-9999","-9999","-9999.00","-9999.00","Smoke","hazy","0","0","0","0","0","0","METAR UKKK 032130Z 23002MPS 4400 FU NSC 06/M01 Q1019 R26/CLRD70 TEMPO 2000 FU"
"1:00 AM EEST on April 04, 2016","2016","04","04","01","00","Europe/Kiev","10:00 PM GMT on April 03, 2016","2016","04","03","22","00","UTC","6.0","42.8","-2.0","28.4","57","7.2","4.5","-9999.0","-9999.0","240","WSW","-9999.0","-9999.0","1019","30.09","4.5","40.2","-9999","-9999","-9999.00","-9999.00","Smoke","hazy","0","0","0","0","0","0","METAR UKKK 032200Z 24002MPS 4600 FU NSC 06/M02 Q1019 R26/CLRD70 TEMPO 2000 FU"
"1:30 AM EEST on April 04, 2016","2016","04","04","01","30","Europe/Kiev","10:30 PM GMT on April 03, 2016","2016","04","03","22","30","UTC","5.0","41.0","-1.0","30.2","65","7.2","4.5","-9999.0","-9999.0","230","SW","5.0","3.1","1019","30.09","3.4","38.1","-9999","-9999","-9999.00","-9999.00","Smoke","hazy","0","0","0","0","0","0","METAR UKKK 032230Z 23002MPS 5000 FU NSC 05/M01 Q1019 R26/CLRD70 TEMPO 2000 FU"
"2:00 AM EEST on April 04, 2016","2016","04","04","02","00","Europe/Kiev","11:00 PM GMT on April 03, 2016","2016","04","03","23","00","UTC","4.0","39.2","-1.0","30.2","70","7.2","4.5","-9999.0","-9999.0","240","WSW","5.0","3.1","1019","30.09","2.2","36.0","-9999","-9999","-9999.00","-9999.00","Smoke","hazy","0","0","0","0","0","0","METAR UKKK 032300Z 24002MPS 5000 FU NSC 04/M01 Q1019 R26/CLRD70 TEMPO 2000 FU"
"2:30 AM EEST on April 04, 2016","2016","04","04","02","30","Europe/Kiev","11:30 PM GMT on April 03, 2016","2016","04","03","23","30","UTC","4.0","39.2","-1.0","30.2","70","3.6","2.2","-9999.0","-9999.0","240","WSW","4.0","2.5","1018","30.06","-999","-999","-9999","-9999","-9999.00","-9999.00","Smoke","hazy","0","0","0","0","0","0","METAR UKKK 032330Z 24001MPS 4000 FU NSC 04/M01 Q1018 R26/CLRD70 TEMPO 2000 FU"
"3:00 AM EEST on April 04, 2016","2016","04","04","03","00","Europe/Kiev","12:00 AM GMT on April 04, 2016","2016","04","04","00","00","UTC","8","46","-4","25","30","7.2","4.5","","","290","WNW","20","12","1019","30.10","-999","-999","-9999","-9999","","","Scattered Clouds","partlycloudy","0","0","0","0","0","0","AAXX 04001 33345 32998 52902 10077 21041 39986 40191 57009 82031 555 10003"
"3:00 AM EEST on April 04, 2016","2016","04","04","03","00","Europe/Kiev","12:00 AM GMT on April 04, 2016","2016","04","04","00","00","UTC","3.0","37.4","-1.0","30.2","75","3.6","2.2","-9999.0","-9999.0","230","SW","5.0","3.1","1018","30.06","-999","-999","-9999","-9999","-9999.00","-9999.00","Smoke","hazy","0","0","0","0","0","0","METAR UKKK 040000Z 23001MPS 5000 FU NSC 03/M01 Q1018 R26/CLRD70 TEMPO 2000 FU"
"3:30 AM EEST on April 04, 2016","2016","04","04","03","30","Europe/Kiev","12:30 AM GMT on April 04, 2016","2016","04","04","00","30","UTC","3.0","37.4","-2.0","28.4","70","3.6","2.2","-9999.0","-9999.0","230","SW","-9999.0","-9999.0","1018","30.06","-999","-999","-9999","-9999","-9999.00","-9999.00","Smoke","hazy","0","0","0","0","0","0","METAR UKKK 040030Z 23001MPS 4800 FU NSC 03/M02 Q1018 R26/CLRD70 TEMPO 2000 FU"
"4:00 AM EEST on April 04, 2016","2016","04","04","04","00","Europe/Kiev","1:00 AM GMT on April 04, 2016","2016","04","04","01","00","UTC","2.0","35.6","-1.0","30.2","81","3.6","2.2","-9999.0","-9999.0","240","WSW","5.0","3.1","1018","30.06","-999","-999","-9999","-9999","-9999.00","-9999.00","Smoke","hazy","0","0","0","0","0","0","METAR UKKK 040100Z 24001MPS 5000 FU SKC 02/M01 Q1018 R26/CLRD70 TEMPO 2000 FU"
"4:30 AM EEST on April 04, 2016","2016","04","04","04","30","Europe/Kiev","1:30 AM GMT on April 04, 2016","2016","04","04","01","30","UTC","2.0","35.6","-2.0","28.4","75","3.6","2.2","-9999.0","-9999.0","230","SW","5.0","3.1","1018","30.06","-999","-999","-9999","-9999","-9999.00","-9999.00","Smoke","hazy","0","0","0","0","0","0","METAR UKKK 040130Z 23001MPS 5000 FU SKC 02/M02 Q1018 R26/CLRD70 TEMPO 2000 FU"
"5:00 AM EEST on April 04, 2016","2016","04","04","05","00","Europe/Kiev","2:00 AM GMT on April 04, 2016","2016","04","04","02","00","UTC","2.0","35.6","-2.0","28.4","75","0.0","0.0","-9999.0","-9999.0","0","North","6.0","3.7","1018","30.06","-999","-999","-9999","-9999","-9999.00","-9999.00","Clear","clear","0","0","0","0","0","0","METAR UKKK 040200Z 00000MPS 6000 SKC 02/M02 Q1018 R26/CLRD70 TEMPO 2000 FU"
"5:30 AM EEST on April 04, 2016","2016","04","04","05","30","Europe/Kiev","2:30 AM GMT on April 04, 2016","2016","04","04","02","30","UTC","2.0","35.6","-2.0","28.4","75","0.0","0.0","-9999.0","-9999.0","0","North","7.0","4.3","1018","30.06","-999","-999","-9999","-9999","-9999.00","-9999.00","Unknown","unknown","0","0","0","0","0","0","METAR UKKK 040230Z 00000MPS 7000 NSC 02/M02 Q1018 R26/CLRD70 TEMPO 2000 FU"
"6:00 AM EEST on April 04, 2016","2016","04","04","06","00","Europe/Kiev","3:00 AM GMT on April 04, 2016","2016","04","04","03","00","UTC","7","45","-4","26","34","7.2","4.5","","","290","WNW","20","12","1019","30.08","-999","-999","-9999","-9999","","","Clear","clear","0","0","0","0","0","0","AAXX 04031 33345 42998 62902 10071 21035 39981 40186 57005 80001 555 10003"
"6:00 AM EEST on April 04, 2016","2016","04","04","06","00","Europe/Kiev","3:00 AM GMT on April 04, 2016","2016","04","04","03","00","UTC","3.0","37.4","-2.0","28.4","70","3.6","2.2","-9999.0","-9999.0","250","WSW","5.0","3.1","1018","30.06","-999","-999","-9999","-9999","-9999.00","-9999.00","Smoke","hazy","0","0","0","0","0","0","METAR UKKK 040300Z 25001MPS 5000 FU NSC 03/M02 Q1018 R26/CLRD70 TEMPO 2000 FU"
"6:30 AM EEST on April 04, 2016","2016","04","04","06","30","Europe/Kiev","3:30 AM GMT on April 04, 2016","2016","04","04","03","30","UTC","2.0","35.6","-1.0","30.2","81","3.6","2.2","-9999.0","-9999.0","240","WSW","6.0","3.7","1018","30.06","-999","-999","-9999","-9999","-9999.00","-9999.00","Unknown","unknown","0","0","0","0","0","0","METAR UKKK 040330Z 24001MPS 6000 NSC 02/M01 Q1018 R26/CLRD70 TEMPO 2000 FU"
"7:00 AM EEST on April 04, 2016","2016","04","04","07","00","Europe/Kiev","4:00 AM GMT on April 04, 2016","2016","04","04","04","00","UTC","3.0","37.4","0.0","32.0","81","3.6","2.2","-9999.0","-9999.0","240","WSW","7.0","4.3","1017","30.04","-999","-999","-9999","-9999","-9999.00","-9999.00","Unknown","unknown","0","0","0","0","0","0","METAR UKKK 040400Z 24001MPS 7000 NSC 03/M00 Q1017 R26/CLRD70 TEMPO 2000 FU"
"7:30 AM EEST on April 04, 2016","2016","04","04","07","30","Europe/Kiev","4:30 AM GMT on April 04, 2016","2016","04","04","04","30","UTC","4.0","39.2","0.0","32.0","75","0.0","0.0","-9999.0","-9999.0","0","North","9.0","5.6","1017","30.04","-999","-999","-9999","-9999","-9999.00","-9999.00","Unknown","unknown","0","0","0","0","0","0","METAR UKKK 040430Z 00000MPS 9000 NSC 04/M00 Q1017 R26/CLRD70 NOSIG"
"8:00 AM EEST on April 04, 2016","2016","04","04","08","00","Europe/Kiev","5:00 AM GMT on April 04, 2016","2016","04","04","05","00","UTC","5.0","41.0","1.0","33.8","76","0.0","0.0","-9999.0","-9999.0","0","North","9.0","5.6","1017","30.04","-999","-999","-9999","-9999","-9999.00","-9999.00","Unknown","unknown","0","0","0","0","0","0","METAR UKKK 040500Z 00000MPS 9000 NSC 05/01 Q1017 R26/CLRD70 NOSIG"
"8:30 AM EEST on April 04, 2016","2016","04","04","08","30","Europe/Kiev","5:30 AM GMT on April 04, 2016","2016","04","04","05","30","UTC","7.0","44.6","1.0","33.8","66","3.6","2.2","-9999.0","-9999.0","230","SW","8.0","5.0","1017","30.04","-999","-999","-9999","-9999","-9999.00","-9999.00","Unknown","unknown","0","0","0","0","0","0","METAR UKKK 040530Z 23001MPS 8000 NSC 07/01 Q1017 R26/CLRD70 NOSIG"
"9:00 AM EEST on April 04, 2016","2016","04","04","09","00","Europe/Kiev","6:00 AM GMT on April 04, 2016","2016","04","04","06","00","UTC","9","49","-3","26","29","3.6","2.2","","","230","SW","20","12","1018","30.06","-999","-999","-9999","-9999","","","Partly Cloudy","partlycloudy","0","0","0","0","0","0","AAXX 04061 33345 32998 72301 10093 21031 39974 40177 57007 83031 333 20061 555 10013 30001 52001"
"9:00 AM EEST on April 04, 2016","2016","04","04","09","00","Europe/Kiev","6:00 AM GMT on April 04, 2016","2016","04","04","06","00","UTC","9.0","48.2","-1.0","30.2","50","0.0","0.0","-9999.0","-9999.0","0","North","-9999.0","-9999.0","1017","30.04","-999","-999","-9999","-9999","-9999.00","-9999.00","Clear","clear","0","0","0","0","0","0","METAR UKKK 040600Z 00000MPS CAVOK 09/M01 Q1017 R08/CLRD70 NOSIG"
"9:30 AM EEST on April 04, 2016","2016","04","04","09","30","Europe/Kiev","6:30 AM GMT on April 04, 2016","2016","04","04","06","30","UTC","11.0","51.8","-1.0","30.2","44","0.0","0.0","-9999.0","-9999.0","0","North","-9999.0","-9999.0","1017","30.04","-999","-999","-9999","-9999","-9999.00","-9999.00","Clear","clear","0","0","0","0","0","0","METAR UKKK 040630Z 00000MPS CAVOK 11/M01 Q1017 R08/CLRD70 NOSIG"
"10:00 AM EEST on April 04, 2016","2016","04","04","10","00","Europe/Kiev","7:00 AM GMT on April 04, 2016","2016","04","04","07","00","UTC","12.0","53.6","-2.0","28.4","38","10.8","6.7","-9999.0","-9999.0","230","SW","-9999.0","-9999.0","1017","30.04","-999","-999","-9999","-9999","-9999.00","-9999.00","Clear","clear","0","0","0","0","0","0","METAR UKKK 040700Z 23003MPS 180V260 CAVOK 12/M02 Q1017 R26/CLRD70 NOSIG"
"10:30 AM EEST on April 04, 2016","2016","04","04","10","30","Europe/Kiev","7:30 AM GMT on April 04, 2016","2016","04","04","07","30","UTC","12.0","53.6","-3.0","26.6","35","10.8","6.7","-9999.0","-9999.0","230","SW","-9999.0","-9999.0","1017","30.04","-999","-999","-9999","-9999","-9999.00","-9999.00","Clear","clear","0","0","0","0","0","0","METAR UKKK 040730Z 23003MPS CAVOK 12/M03 Q1017 R26/CLRD70 NOSIG"
"11:00 AM EEST on April 04, 2016","2016","04","04","11","00","Europe/Kiev","8:00 AM GMT on April 04, 2016","2016","04","04","08","00","UTC","13.0","55.4","-4.0","24.8","31","10.8","6.7","-9999.0","-9999.0","210","SSW","-9999.0","-9999.0","1017","30.04","-999","-999","-9999","-9999","-9999.00","-9999.00","Clear","clear","0","0","0","0","0","0","METAR UKKK 040800Z 21003MPS 160V270 CAVOK 13/M04 Q1017 R26/CLRD70 NOSIG"
"11:30 AM EEST on April 04, 2016","2016","04","04","11","30","Europe/Kiev","8:30 AM GMT on April 04, 2016","2016","04","04","08","30","UTC","13.0","55.4","-4.0","24.8","31","10.8","6.7","-9999.0","-9999.0","190","South","-9999.0","-9999.0","1016","30.01","-999","-999","-9999","-9999","-9999.00","-9999.00","Clear","clear","0","0","0","0","0","0","METAR UKKK 040830Z 19003MPS 160V240 CAVOK 13/M04 Q1016 R26/CLRD70 NOSIG"
"12:00 PM EEST on April 04, 2016","2016","04","04","12","00","Europe/Kiev","9:00 AM GMT on April 04, 2016","2016","04","04","09","00","UTC","14","57","-6","21","14","7.2","4.5","","","220","SW","20","12","1016","30.02","-999","-999","-9999","-9999","","","","","0","0","0","0","0","0","AAXX 04091 33345 42998 02202 10141 21060 39965 40165 57009 555 10024"
"12:00 PM EEST on April 04, 2016","2016","04","04","12","00","Europe/Kiev","9:00 AM GMT on April 04, 2016","2016","04","04","09","00","UTC","14.0","57.2","-3.0","26.6","31","10.8","6.7","-9999.0","-9999.0","210","SSW","-9999.0","-9999.0","1016","30.01","-999","-999","-9999","-9999","-9999.00","-9999.00","Clear","clear","0","0","0","0","0","0","METAR UKKK 040900Z 21003MPS CAVOK 14/M03 Q1016 R26/CLRD70 NOSIG"
"12:30 PM EEST on April 04, 2016","2016","04","04","12","30","Europe/Kiev","9:30 AM GMT on April 04, 2016","2016","04","04","09","30","UTC","14.0","57.2","-3.0","26.6","31","7.2","4.5","-9999.0","-9999.0","200","SSW","-9999.0","-9999.0","1016","30.01","-999","-999","-9999","-9999","-9999.00","-9999.00","Clear","clear","0","0","0","0","0","0","METAR UKKK 040930Z 20002MPS CAVOK 14/M03 Q1016 R26/CLRD70 NOSIG"
"1:00 PM EEST on April 04, 2016","2016","04","04","13","00","Europe/Kiev","10:00 AM GMT on April 04, 2016","2016","04","04","10","00","UTC","15.0","59.0","-4.0","24.8","27","10.8","6.7","-9999.0","-9999.0","250","WSW","-9999.0","-9999.0","1016","30.01","-999","-999","-9999","-9999","-9999.00","-9999.00","Clear","clear","0","0","0","0","0","0","METAR UKKK 041000Z 25003MPS CAVOK 15/M04 Q1016 R26/CLRD70 NOSIG"
"1:30 PM EEST on April 04, 2016","2016","04","04","13","30","Europe/Kiev","10:30 AM GMT on April 04, 2016","2016","04","04","10","30","UTC","15.0","59.0","-4.0","24.8","27","14.4","8.9","-9999.0","-9999.0","250","WSW","-9999.0","-9999.0","1015","29.98","-999","-999","-9999","-9999","-9999.00","-9999.00","Clear","clear","0","0","0","0","0","0","METAR UKKK 041030Z 25004MPS 200V300 CAVOK 15/M04 Q1015 R26/CLRD70 NOSIG"
"2:00 PM EEST on April 04, 2016","2016","04","04","14","00","Europe/Kiev","11:00 AM GMT on April 04, 2016","2016","04","04","11","00","UTC","15.0","59.0","-3.0","26.6","29","10.8","6.7","-9999.0","-9999.0","220","SW","-9999.0","-9999.0","1015","29.98","-999","-999","-9999","-9999","-9999.00","-9999.00","Clear","clear","0","0","0","0","0","0","METAR UKKK 041100Z 22003MPS 160V260 CAVOK 15/M03 Q1015 R26/CLRD70 NOSIG"
"2:30 PM EEST on April 04, 2016","2016","04","04","14","30","Europe/Kiev","11:30 AM GMT on April 04, 2016","2016","04","04","11","30","UTC","15.0","59.0","-3.0","26.6","29","10.8","6.7","-9999.0","-9999.0","260","West","-9999.0","-9999.0","1015","29.98","-999","-999","-9999","-9999","-9999.00","-9999.00","Clear","clear","0","0","0","0","0","0","METAR UKKK 041130Z 26003MPS CAVOK 15/M03 Q1015 R26/CLRD70 NOSIG"
"3:00 PM EEST on April 04, 2016","2016","04","04","15","00","Europe/Kiev","12:00 PM GMT on April 04, 2016","2016","04","04","12","00","UTC","16","61","-6","22","12","14.4","8.9","","","260","West","20","12","1014","29.96","-999","-999","-9999","-9999","","","","","0","0","0","0","0","0","AAXX 04121 33345 32998 02604 10162 21056 39946 40144 57019 555 10031"
"3:00 PM EEST on April 04, 2016","2016","04","04","15","00","Europe/Kiev","12:00 PM GMT on April 04, 2016","2016","04","04","12","00","UTC","15.0","59.0","-5.0","23.0","25","10.8","6.7","-9999.0","-9999.0","230","SW","-9999.0","-9999.0","1014","29.95","-999","-999","-9999","-9999","-9999.00","-9999.00","Clear","clear","0","0","0","0","0","0","METAR UKKK 041200Z 23003MPS 130V280 CAVOK 15/M05 Q1014 R26/CLRD70 NOSIG"
"3:30 PM EEST on April 04, 2016","2016","04","04","15","30","Europe/Kiev","12:30 PM GMT on April 04, 2016","2016","04","04","12","30","UTC","16.0","60.8","-4.0","24.8","25","14.4","8.9","-9999.0","-9999.0","220","SW","8.0","5.0","1014","29.95","-999","-999","-9999","-9999","-9999.00","-9999.00","Unknown","unknown","0","0","0","0","0","0","METAR UKKK 041230Z 22004MPS 180V270 8000 NSC 16/M04 Q1014 R26/CLRD70 NOSIG"
"4:00 PM EEST on April 04, 2016","2016","04","04","16","00","Europe/Kiev","1:00 PM GMT on April 04, 2016","2016","04","04","13","00","UTC","16.0","60.8","-4.0","24.8","25","10.8","6.7","-9999.0","-9999.0","240","WSW","-9999.0","-9999.0","1014","29.95","-999","-999","-9999","-9999","-9999.00","-9999.00","Clear","clear","0","0","0","0","0","0","METAR UKKK 041300Z 24003MPS 200V290 CAVOK 16/M04 Q1014 R26/CLRD70 NOSIG"
"4:30 PM EEST on April 04, 2016","2016","04","04","16","30","Europe/Kiev","1:30 PM GMT on April 04, 2016","2016","04","04","13","30","UTC","16.0","60.8","-4.0","24.8","25","7.2","4.5","-9999.0","-9999.0","280","West","-9999.0","-9999.0","1013","29.92","-999","-999","-9999","-9999","-9999.00","-9999.00","Clear","clear","0","0","0","0","0","0","METAR UKKK 041330Z 28002MPS 240V030 CAVOK 16/M04 Q1013 R26/CLRD70 NOSIG"
"5:00 PM EEST on April 04, 2016","2016","04","04","17","00","Europe/Kiev","2:00 PM GMT on April 04, 2016","2016","04","04","14","00","UTC","16.0","60.8","-4.0","24.8","25","7.2","4.5","-9999.0","-9999.0","290","WNW","-9999.0","-9999.0","1013","29.92","-999","-999","-9999","-9999","-9999.00","-9999.00","Clear","clear","0","0","0","0","0","0","METAR UKKK 041400Z 29002MPS 250V340 CAVOK 16/M04 Q1013 R26/CLRD70 NOSIG"
"5:30 PM EEST on April 04, 2016","2016","04","04","17","30","Europe/Kiev","2:30 PM GMT on April 04, 2016","2016","04","04","14","30","UTC","16.0","60.8","-4.0","24.8","25","10.8","6.7","-9999.0","-9999.0","290","WNW","-9999.0","-9999.0","1013","29.92","-999","-999","-9999","-9999","-9999.00","-9999.00","Clear","clear","0","0","0","0","0","0","METAR UKKK 041430Z 29003MPS 230V340 CAVOK 16/M04 Q1013 R26/CLRD70 NOSIG"
"6:00 PM EEST on April 04, 2016","2016","04","04","18","00","Europe/Kiev","3:00 PM GMT on April 04, 2016","2016","04","04","15","00","UTC","16","61","-5","23","13","10.8","6.7","","","230","SW","20","12","1013","29.91","-999","-999","-9999","-9999","","","","","0","0","0","0","0","0","AAXX 04151 33345 42998 02303 10163 21048 39930 40128 57016 555 10020"
"6:00 PM EEST on April 04, 2016","2016","04","04","18","00","Europe/Kiev","3:00 PM GMT on April 04, 2016","2016","04","04","15","00","UTC","16.0","60.8","-5.0","23.0","23","10.8","6.7","-9999.0","-9999.0","270","West","-9999.0","-9999.0","1013","29.92","-999","-999","-9999","-9999","-9999.00","-9999.00","Clear","clear","0","0","0","0","0","0","METAR UKKK 041500Z 27003MPS 210V310 CAVOK 16/M05 Q1013 R26/CLRD70 NOSIG"
"6:30 PM EEST on April 04, 2016","2016","04","04","18","30","Europe/Kiev","3:30 PM GMT on April 04, 2016","2016","04","04","15","30","UTC","15.0","59.0","-4.0","24.8","27","3.6","2.2","-9999.0","-9999.0","0","Variable","-9999.0","-9999.0","1012","29.89","-999","-999","-9999","-9999","-9999.00","-9999.00","Clear","clear","0","0","0","0","0","0","METAR UKKK 041530Z VRB01MPS CAVOK 15/M04 Q1012 R26/CLRD70 NOSIG"
"7:00 PM EEST on April 04, 2016","2016","04","04","19","00","Europe/Kiev","4:00 PM GMT on April 04, 2016","2016","04","04","16","00","UTC","15.0","59.0","-4.0","24.8","27","3.6","2.2","-9999.0","-9999.0","280","West","-9999.0","-9999.0","1012","29.89","-999","-999","-9999","-9999","-9999.00","-9999.00","Clear","clear","0","0","0","0","0","0","METAR UKKK 041600Z 28001MPS CAVOK 15/M04 Q1012 R26/CLRD70 NOSIG"
"7:30 PM EEST on April 04, 2016","2016","04","04","19","30","Europe/Kiev","4:30 PM GMT on April 04, 2016","2016","04","04","16","30","UTC","14.0","57.2","-5.0","23.0","27","3.6","2.2","-9999.0","-9999.0","230","SW","-9999.0","-9999.0","1012","29.89","-999","-999","-9999","-9999","-9999.00","-9999.00","Clear","clear","0","0","0","0","0","0","METAR UKKK 041630Z 23001MPS CAVOK 14/M05 Q1012 R26/CLRD70 NOSIG"
"8:00 PM EEST on April 04, 2016","2016","04","04","20","00","Europe/Kiev","5:00 PM GMT on April 04, 2016","2016","04","04","17","00","UTC","13.0","55.4","-4.0","24.8","31","0.0","0.0","-9999.0","-9999.0","0","North","2.6","1.6","1013","29.92","-999","-999","-9999","-9999","-9999.00","-9999.00","Smoke","hazy","0","0","0","0","0","0","METAR UKKK 041700Z 00000MPS 2600 FU NSC 13/M04 Q1013 R26/CLRD70 NOSIG"
"8:30 PM EEST on April 04, 2016","2016","04","04","20","30","Europe/Kiev","5:30 PM GMT on April 04, 2016","2016","04","04","17","30","UTC","10.0","50.0","-2.0","28.4","43","3.6","2.2","-9999.0","-9999.0","170","South","3.0","1.9","1013","29.92","-999","-999","-9999","-9999","-9999.00","-9999.00","Smoke","hazy","0","0","0","0","0","0","METAR UKKK 041730Z 17001MPS 3000 FU NSC 10/M02 Q1013 R26/CLRD70 NOSIG"
"9:00 PM EEST on April 04, 2016","2016","04","04","21","00","Europe/Kiev","6:00 PM GMT on April 04, 2016","2016","04","04","18","00","UTC","13","55","-4","25","19","0.0","0.0","","","","","20","12","1014","29.94","-999","-999","-9999","-9999","","","","","0","0","0","0","0","0","AAXX 04181 33345 32998 00000 10128 21041 39936 40136 53006 333 10168 555 10006"
"9:00 PM EEST on April 04, 2016","2016","04","04","21","00","Europe/Kiev","6:00 PM GMT on April 04, 2016","2016","04","04","18","00","UTC","9.0","48.2","-2.0","28.4","46","0.0","0.0","-9999.0","-9999.0","0","North","2.9","1.8","1013","29.92","-999","-999","-9999","-9999","-9999.00","-9999.00","Smoke","hazy","0","0","0","0","0","0","METAR UKKK 041800Z 00000MPS 2900 FU NSC 09/M02 Q1013 R26/CLRD70 TEMPO 1400 FU"
"9:30 PM EEST on April 04, 2016","2016","04","04","21","30","Europe/Kiev","6:30 PM GMT on April 04, 2016","2016","04","04","18","30","UTC","8.0","46.4","-1.0","30.2","53","0.0","0.0","-9999.0","-9999.0","0","North","2.3","1.4","1013","29.92","-999","-999","-9999","-9999","-9999.00","-9999.00","Smoke","hazy","0","0","0","0","0","0","METAR UKKK 041830Z 00000MPS 2300 FU NSC 08/M01 Q1013 R26/CLRD70 TEMPO 1400 FU"
"10:00 PM EEST on April 04, 2016","2016","04","04","22","00","Europe/Kiev","7:00 PM GMT on April 04, 2016","2016","04","04","19","00","UTC","7.0","44.6","-1.0","30.2","57","0.0","0.0","-9999.0","-9999.0","0","North","1.8","1.1","1013","29.92","-999","-999","-9999","-9999","-9999.00","-9999.00","Smoke","hazy","0","0","0","0","0","0","METAR UKKK 041900Z 00000MPS 1800 FU NSC 07/M01 Q1013 R26/CLRD70 TEMPO 1400 FU"
"10:30 PM EEST on April 04, 2016","2016","04","04","22","30","Europe/Kiev","7:30 PM GMT on April 04, 2016","2016","04","04","19","30","UTC","7.0","44.6","-1.0","30.2","57","3.6","2.2","-9999.0","-9999.0","0","Variable","2.5","1.6","1013","29.92","-999","-999","-9999","-9999","-9999.00","-9999.00","Smoke","hazy","0","0","0","0","0","0","METAR UKKK 041930Z VRB01MPS 2500 FU NSC 07/M01 Q1013 R26/CLRD70 TEMPO 1400 FU"
"11:00 PM EEST on April 04, 2016","2016","04","04","23","00","Europe/Kiev","8:00 PM GMT on April 04, 2016","2016","04","04","20","00","UTC","7.0","44.6","-1.0","30.2","57","3.6","2.2","-9999.0","-9999.0","80","East","2.4","1.5","1013","29.92","-999","-999","-9999","-9999","-9999.00","-9999.00","Smoke","hazy","0","0","0","0","0","0","METAR UKKK 042000Z 08001MPS 2400 FU NSC 07/M01 Q1013 R26/CLRD70 TEMPO 1400 FU"
"11:30 PM EEST on April 04, 2016","2016","04","04","23","30","Europe/Kiev","8:30 PM GMT on April 04, 2016","2016","04","04","20","30","UTC","6.0","42.8","-2.0","28.4","57","0.0","0.0","-9999.0","-9999.0","0","North","2.8","1.7","1013","29.92","-999","-999","-9999","-9999","-9999.00","-9999.00","Smoke","hazy","0","0","0","0","0","0","METAR UKKK 042030Z 00000MPS 2800 FU NSC 06/M02 Q1013 R08/CLRD70 TEMPO 1400 FU"
"12:00 AM EEST on April 05, 2016","2016","04","05","00","00","Europe/Kiev","9:00 PM GMT on April 04, 2016","2016","04","04","21","00","UTC","9","49","-4","24","25","3.6","2.2","","","220","SW","20","12","1014","29.94","-999","-999","-9999","-9999","","","","","0","0","0","0","0","0","AAXX 04211 33345 42998 02201 10092 21044 39936 40139 54000 555 10003"
"12:00 AM EEST on April 05, 2016","2016","04","05","00","00","Europe/Kiev","9:00 PM GMT on April 04, 2016","2016","04","04","21","00","UTC","5.0","41.0","-1.0","30.2","65","0.0","0.0","-9999.0","-9999.0","0","North","6.0","3.7","1013","29.92","-999","-999","-9999","-9999","-9999.00","-9999.00","Unknown","unknown","0","0","0","0","0","0","METAR UKKK 042100Z 00000MPS 6000 NSC 05/M01 Q1013 R08/CLRD70 TEMPO 1400 FU"
"12:30 AM EEST on April 05, 2016","2016","04","05","00","30","Europe/Kiev","9:30 PM GMT on April 04, 2016","2016","04","04","21","30","UTC","5.0","41.0","-1.0","30.2","65","0.0","0.0","-9999.0","-9999.0","0","North","2.0","1.2","1013","29.92","-999","-999","-9999","-9999","-9999.00","-9999.00","Smoke","hazy","0","0","0","0","0","0","METAR UKKK 042130Z 00000MPS 2000 FU NSC 05/M01 Q1013 R08/CLRD70 TEMPO 1400 FU"
"1:00 AM EEST on April 05, 2016","2016","04","05","01","00","Europe/Kiev","10:00 PM GMT on April 04, 2016","2016","04","04","22","00","UTC","5.0","41.0","-1.0","30.2","65","0.0","0.0","-9999.0","-9999.0","0","North","4.0","2.5","1013","29.92","-999","-999","-9999","-9999","-9999.00","-9999.00","Smoke","hazy","0","0","0","0","0","0","METAR UKKK 042200Z 00000MPS 4000 FU NSC 05/M01 Q1013 R08/CLRD70 TEMPO 1400 FU"
"1:30 AM EEST on April 05, 2016","2016","04","05","01","30","Europe/Kiev","10:30 PM GMT on April 04, 2016","2016","04","04","22","30","UTC","4.0","39.2","-1.0","30.2","70","0.0","0.0","-9999.0","-9999.0","0","North","-9999.0","-9999.0","1013","29.92","-999","-999","-9999","-9999","-9999.00","-9999.00","Smoke","hazy","0","0","0","0","0","0","METAR UKKK 042230Z 00000MPS 4600 FU NSC 04/M01 Q1013 R08/CLRD70 TEMPO 1400 FU"
"2:00 AM EEST on April 05, 2016","2016","04","05","02","00","Europe/Kiev","11:00 PM GMT on April 04, 2016","2016","04","04","23","00","UTC","3.0","37.4","-1.0","30.2","75","0.0","0.0","-9999.0","-9999.0","0","North","-9999.0","-9999.0","1013","29.92","-999","-999","-9999","-9999","-9999.00","-9999.00","Smoke","hazy","0","0","0","0","0","0","METAR UKKK 042300Z 00000MPS 3600 FU NSC 03/M01 Q1013 R08/CLRD70 TEMPO 2000 FU"
"2:30 AM EEST on April 05, 2016","2016","04","05","02","30","Europe/Kiev","11:30 PM GMT on April 04, 2016","2016","04","04","23","30","UTC","4.0","39.2","-2.0","28.4","65","0.0","0.0","-9999.0","-9999.0","0","North","-9999.0","-9999.0","1013","29.92","-999","-999","-9999","-9999","-9999.00","-9999.00","Smoke","hazy","0","0","0","0","0","0","METAR UKKK 042330Z 00000MPS 4800 FU NSC 04/M02 Q1013 R08/CLRD70 TEMPO 2000 FU"
"3:00 AM EEST on April 05, 2016","2016","04","05","03","00","Europe/Kiev","12:00 AM GMT on April 05, 2016","2016","04","05","00","00","UTC","9","49","-2","29","32","3.6","2.2","","","230","SW","20","12","1014","29.93","-999","-999","-9999","-9999","","","","","0","0","0","0","0","0","AAXX 05001 33345 32998 02301 10093 21019 39933 40135 58003 555 10002"
"3:00 AM EEST on April 05, 2016","2016","04","05","03","00","Europe/Kiev","12:00 AM GMT on April 05, 2016","2016","04","05","00","00","UTC","4.0","39.2","-2.0","28.4","65","0.0","0.0","-9999.0","-9999.0","0","North","5.0","3.1","1013","29.92","-999","-999","-9999","-9999","-9999.00","-9999.00","Smoke","hazy","0","0","0","0","0","0","METAR UKKK 050000Z 00000MPS 5000 FU NSC 04/M02 Q1013 R08/CLRD70 TEMPO 2000 FU"
"3:30 AM EEST on April 05, 2016","2016","04","05","03","30","Europe/Kiev","12:30 AM GMT on April 05, 2016","2016","04","05","00","30","UTC","3.0","37.4","-2.0","28.4","70","0.0","0.0","-9999.0","-9999.0","0","North","7.0","4.3","1013","29.92","-999","-999","-9999","-9999","-9999.00","-9999.00","Unknown","unknown","0","0","0","0","0","0","METAR UKKK 050030Z 00000MPS 7000 NSC 03/M02 Q1013 R08/CLRD70 TEMPO 2000 FU"
"4:00 AM EEST on April 05, 2016","2016","04","05","04","00","Europe/Kiev","1:00 AM GMT on April 05, 2016","2016","04","05","01","00","UTC","3.0","37.4","-1.0","30.2","75","0.0","0.0","-9999.0","-9999.0","0","North","7.0","4.3","1013","29.92","-999","-999","-9999","-9999","-9999.00","-9999.00","Unknown","unknown","0","0","0","0","0","0","METAR UKKK 050100Z 00000MPS 7000 NSC 03/M01 Q1013 R08/CLRD70 TEMPO 2000 FU"
"4:30 AM EEST on April 05, 2016","2016","04","05","04","30","Europe/Kiev","1:30 AM GMT on April 05, 2016","2016","04","05","01","30","UTC","3.0","37.4","-1.0","30.2","75","0.0","0.0","-9999.0","-9999.0","0","North","6.0","3.7","1013","29.92","-999","-999","-9999","-9999","-9999.00","-9999.00","Unknown","unknown","0","0","0","0","0","0","METAR UKKK 050130Z 00000MPS 6000 NSC 03/M01 Q1013 R08/CLRD70 TEMPO 2000 FU"
"5:00 AM EEST on April 05, 2016","2016","04","05","05","00","Europe/Kiev","2:00 AM GMT on April 05, 2016","2016","04","05","02","00","UTC","2.0","35.6","-1.0","30.2","81","0.0","0.0","-9999.0","-9999.0","0","North","7.0","4.3","1013","29.92","-999","-999","-9999","-9999","-9999.00","-9999.00","Unknown","unknown","0","0","0","0","0","0","METAR UKKK 050200Z 00000MPS 7000 NSC 02/M01 Q1013 R08/CLRD70 TEMPO 2000 FU"
"5:30 AM EEST on April 05, 2016","2016","04","05","05","30","Europe/Kiev","2:30 AM GMT on April 05, 2016","2016","04","05","02","30","UTC","2.0","35.6","-1.0","30.2","81","0.0","0.0","-9999.0","-9999.0","0","North","6.0","3.7","1013","29.92","-999","-999","-9999","-9999","-9999.00","-9999.00","Unknown","unknown","0","0","0","0","0","0","METAR UKKK 050230Z 00000MPS 6000 NSC 02/M01 Q1013 R08/CLRD70 TEMPO 2000 FU"
"6:00 AM EEST on April 05, 2016","2016","04","05","06","00","Europe/Kiev","3:00 AM GMT on April 05, 2016","2016","04","05","03","00","UTC","5","42","-2","28","45","0.0","0.0","","","","","20","12","1014","29.94","-999","-999","-9999","-9999","","","Clear","clear","0","0","0","0","0","0","AAXX 05031 33345 42998 20000 10054 21023 39933 40138 54000 80004 555 10000"
"6:00 AM EEST on April 05, 2016","2016","04","05","06","00","Europe/Kiev","3:00 AM GMT on April 05, 2016","2016","04","05","03","00","UTC","1.0","33.8","-2.0","28.4","81","0.0","0.0","-9999.0","-9999.0","0","North","7.0","4.3","1013","29.92","-999","-999","-9999","-9999","-9999.00","-9999.00","Unknown","unknown","0","0","0","0","0","0","METAR UKKK 050300Z 00000MPS 7000 NSC 01/M02 Q1013 R08/CLRD70 TEMPO 2000 FU"
"6:30 AM EEST on April 05, 2016","2016","04","05","06","30","Europe/Kiev","3:30 AM GMT on April 05, 2016","2016","04","05","03","30","UTC","3.0","37.4","-2.0","28.4","70","3.6","2.2","-9999.0","-9999.0","90","East","-9999.0","-9999.0","1013","29.92","-999","-999","-9999","-9999","-9999.00","-9999.00","Clear","clear","0","0","0","0","0","0","METAR UKKK 050330Z 09001MPS CAVOK 03/M02 Q1013 R08/CLRD70 NOSIG"
"7:00 AM EEST on April 05, 2016","2016","04","05","07","00","Europe/Kiev","4:00 AM GMT on April 05, 2016","2016","04","05","04","00","UTC","3.0","37.4","-2.0","28.4","70","7.2","4.5","-9999.0","-9999.0","80","East","-9999.0","-9999.0","1013","29.92","1.0","33.9","-9999","-9999","-9999.00","-9999.00","Clear","clear","0","0","0","0","0","0","METAR UKKK 050400Z 08002MPS CAVOK 03/M02 Q1013 R08/CLRD70 NOSIG"
"7:30 AM EEST on April 05, 2016","2016","04","05","07","30","Europe/Kiev","4:30 AM GMT on April 05, 2016","2016","04","05","04","30","UTC","5.0","41.0","0.0","32.0","70","3.6","2.2","-9999.0","-9999.0","110","ESE","-9999.0","-9999.0","1013","29.92","-999","-999","-9999","-9999","-9999.00","-9999.00","Clear","clear","0","0","0","0","0","0","METAR UKKK 050430Z 11001MPS CAVOK 05/M00 Q1013 R08/CLRD70 NOSIG"
"8:00 AM EEST on April 05, 2016","2016","04","05","08","00","Europe/Kiev","5:00 AM GMT on April 05, 2016","2016","04","05","05","00","UTC","6.0","42.8","2.0","35.6","76","0.0","0.0","-9999.0","-9999.0","0","North","7.0","4.3","1013","29.92","-999","-999","-9999","-9999","-9999.00","-9999.00","Unknown","unknown","0","0","0","0","0","0","METAR UKKK 050500Z 00000MPS 7000 NSC 06/02 Q1013 R08/CLRD70 NOSIG"
"8:30 AM EEST on April 05, 2016","2016","04","05","08","30","Europe/Kiev","5:30 AM GMT on April 05, 2016","2016","04","05","05","30","UTC","9.0","48.2","2.0","35.6","62","7.2","4.5","-9999.0","-9999.0","90","East","8.0","5.0","1013","29.92","-999","-999","-9999","-9999","-9999.00","-9999.00","Unknown","unknown","0","0","0","0","0","0","METAR UKKK 050530Z 09002MPS 8000 NSC 09/02 Q1013 R08/CLRD70 NOSIG"
"9:00 AM EEST on April 05, 2016","2016","04","05","09","00","Europe/Kiev","6:00 AM GMT on April 05, 2016","2016","04","05","06","00","UTC","10","49","-0","31","38","3.6","2.2","","","130","SE","20","12","1014","29.95","-999","-999","-9999","-9999","","","Clear","clear","0","0","0","0","0","0","AAXX 05061 33345 32998 61301 10096 21004 39939 40141 53006 80006 333 20051 555 10013 30000 52101"
"9:00 AM EEST on April 05, 2016","2016","04","05","09","00","Europe/Kiev","6:00 AM GMT on April 05, 2016","2016","04","05","06","00","UTC","10.0","50.0","1.0","33.8","54","7.2","4.5","-9999.0","-9999.0","80","East","8.0","5.0","1013","29.92","-999","-999","-9999","-9999","-9999.00","-9999.00","Unknown","unknown","0","0","0","0","0","0","METAR UKKK 050600Z 08002MPS 8000 NSC 10/01 Q1013 R08/CLRD70 NOSIG"
"9:30 AM EEST on April 05, 2016","2016","04","05","09","30","Europe/Kiev","6:30 AM GMT on April 05, 2016","2016","04","05","06","30","UTC","12.0","53.6","1.0","33.8","47","7.2","4.5","-9999.0","-9999.0","70","ENE","9.0","5.6","1013","29.92","-999","-999","-9999","-9999","-9999.00","-9999.00","Unknown","unknown","0","0","0","0","0","0","METAR UKKK 050630Z 07002MPS 050V120 9000 NSC 12/01 Q1013 R08/CLRD70 NOSIG"
"10:00 AM EEST on April 05, 2016","2016","04","05","10","00","Europe/Kiev","7:00 AM GMT on April 05, 2016","2016","04","05","07","00","UTC","13.0","55.4","1.0","33.8","44","10.8","6.7","-9999.0","-9999.0","80","East","9.0","5.6","1014","29.95","-999","-999","-9999","-9999","-9999.00","-9999.00","Unknown","unknown","0","0","0","0","0","0","METAR UKKK 050700Z 08003MPS 9000 NSC 13/01 Q1014 R08/CLRD70 NOSIG"
"10:30 AM EEST on April 05, 2016","2016","04","05","10","30","Europe/Kiev","7:30 AM GMT on April 05, 2016","2016","04","05","07","30","UTC","13.0","55.4","1.0","33.8","44","14.4","8.9","-9999.0","-9999.0","80","East","-9999.0","-9999.0","1014","29.95","-999","-999","-9999","-9999","-9999.00","-9999.00","Clear","clear","0","0","0","0","0","0","METAR UKKK 050730Z 08004MPS CAVOK 13/01 Q1014 R08/CLRD70 NOSIG"
"11:00 AM EEST on April 05, 2016","2016","04","05","11","00","Europe/Kiev","8:00 AM GMT on April 05, 2016","2016","04","05","08","00","UTC","14.0","57.2","1.0","33.8","41","14.4","8.9","-9999.0","-9999.0","80","East","-9999.0","-9999.0","1014","29.95","-999","-999","-9999","-9999","-9999.00","-9999.00","Clear","clear","0","0","0","0","0","0","METAR UKKK 050800Z 08004MPS CAVOK 14/01 Q1014 R08/CLRD70 NOSIG"
"11:30 AM EEST on April 05, 2016","2016","04","05","11","30","Europe/Kiev","8:30 AM GMT on April 05, 2016","2016","04","05","08","30","UTC","15.0","59.0","1.0","33.8","39","10.8","6.7","-9999.0","-9999.0","100","East","-9999.0","-9999.0","1014","29.95","-999","-999","-9999","-9999","-9999.00","-9999.00","Clear","clear","0","0","0","0","0","0","METAR UKKK 050830Z 10003MPS CAVOK 15/01 Q1014 R08/CLRD70 NOSIG"
"12:00 PM EEST on April 05, 2016","2016","04","05","12","00","Europe/Kiev","9:00 AM GMT on April 05, 2016","2016","04","05","09","00","UTC","16","61","2","35","26","10.8","6.7","","","170","South","20","12","1014","29.94","-999","-999","-9999","-9999","","","Clear","clear","0","0","0","0","0","0","AAXX 05091 33345 42998 61703 10161 20017 39941 40139 52002 80005 555 10031"
"12:00 PM EEST on April 05, 2016","2016","04","05","12","00","Europe/Kiev","9:00 AM GMT on April 05, 2016","2016","04","05","09","00","UTC","16.0","60.8","1.0","33.8","36","10.8","6.7","-9999.0","-9999.0","140","SE","-9999.0","-9999.0","1014","29.95","-999","-999","-9999","-9999","-9999.00","-9999.00","Clear","clear","0","0","0","0","0","0","METAR UKKK 050900Z 14003MPS CAVOK 16/01 Q1014 R08/CLRD70 NOSIG"
"12:30 PM EEST on April 05, 2016","2016","04","05","12","30","Europe/Kiev","9:30 AM GMT on April 05, 2016","2016","04","05","09","30","UTC","16.0","60.8","1.0","33.8","36","14.4","8.9","-9999.0","-9999.0","130","SE","-9999.0","-9999.0","1013","29.92","-999","-999","-9999","-9999","-9999.00","-9999.00","Clear","clear","0","0","0","0","0","0","METAR UKKK 050930Z 13004MPS 090V160 CAVOK 16/01 Q1013 R08/CLRD70 NOSIG"
"1:00 PM EEST on April 05, 2016","2016","04","05","13","00","Europe/Kiev","10:00 AM GMT on April 05, 2016","2016","04","05","10","00","UTC","16.0","60.8","0.0","32.0","34","14.4","8.9","-9999.0","-9999.0","100","East","-9999.0","-9999.0","1013","29.92","-999","-999","-9999","-9999","-9999.00","-9999.00","Clear","clear","0","0","0","0","0","0","METAR UKKK 051000Z 10004MPS 070V140 CAVOK 16/00 Q1013 R08/CLRD70 NOSIG"
"1:30 PM EEST on April 05, 2016","2016","04","05","13","30","Europe/Kiev","10:30 AM GMT on April 05, 2016","2016","04","05","10","30","UTC","17.0","62.6","0.0","32.0","32","14.4","8.9","-9999.0","-9999.0","100","East","-9999.0","-9999.0","1013","29.92","-999","-999","-9999","-9999","-9999.00","-9999.00","Clear","clear","0","0","0","0","0","0","METAR UKKK 051030Z 10004MPS CAVOK 17/00 Q1013 R08/CLRD70 NOSIG"
"2:00 PM EEST on April 05, 2016","2016","04","05","14","00","Europe/Kiev","11:00 AM GMT on April 05, 2016","2016","04","05","11","00","UTC","17.0","62.6","0.0","32.0","32","14.4","8.9","-9999.0","-9999.0","100","East","-9999.0","-9999.0","1013","29.92","-999","-999","-9999","-9999","-9999.00","-9999.00","Clear","clear","0","0","0","0","0","0","METAR UKKK 051100Z 10004MPS 080V140 CAVOK 17/00 Q1013 R08/CLRD70 NOSIG"
"2:30 PM EEST on April 05, 2016","2016","04","05","14","30","Europe/Kiev","11:30 AM GMT on April 05, 2016","2016","04","05","11","30","UTC","17.0","62.6","-1.0","30.2","30","10.8","6.7","-9999.0","-9999.0","110","ESE","-9999.0","-9999.0","1013","29.92","-999","-999","-9999","-9999","-9999.00","-9999.00","Clear","clear","0","0","0","0","0","0","METAR UKKK 051130Z 11003MPS 050V140 CAVOK 17/M01 Q1013 R08/CLRD70 NOSIG"
"3:00 PM EEST on April 05, 2016","2016","04","05","15","00","Europe/Kiev","12:00 PM GMT on April 05, 2016","2016","04","05","12","00","UTC","18","64","-2","28","15","7.2","4.5","","","150","SSE","20","12","1013","29.91","-999","-999","-9999","-9999","","","Overcast","cloudy","0","0","0","0","0","0","AAXX 05121 33345 32998 81502 10178 21025 39930 40126 58011 80007 555 10029"
"3:00 PM EEST on April 05, 2016","2016","04","05","15","00","Europe/Kiev","12:00 PM GMT on April 05, 2016","2016","04","05","12","00","UTC","18.0","64.4","-1.0","30.2","28","14.4","8.9","-9999.0","-9999.0","110","ESE","-9999.0","-9999.0","1012","29.89","-999","-999","-9999","-9999","-9999.00","-9999.00","Clear","clear","0","0","0","0","0","0","METAR UKKK 051200Z 11004MPS 080V140 CAVOK 18/M01 Q1012 R08/CLRD70 NOSIG"
"3:30 PM EEST on April 05, 2016","2016","04","05","15","30","Europe/Kiev","12:30 PM GMT on April 05, 2016","2016","04","05","12","30","UTC","18.0","64.4","0.0","32.0","30","7.2","4.5","-9999.0","-9999.0","140","SE","-9999.0","-9999.0","1012","29.89","-999","-999","-9999","-9999","-9999.00","-9999.00","Clear","clear","0","0","0","0","0","0","METAR UKKK 051230Z 14002MPS 100V190 CAVOK 18/00 Q1012 R08/CLRD70 NOSIG"
"4:00 PM EEST on April 05, 2016","2016","04","05","16","00","Europe/Kiev","1:00 PM GMT on April 05, 2016","2016","04","05","13","00","UTC","18.0","64.4","1.0","33.8","32","10.8","6.7","-9999.0","-9999.0","110","ESE","9.0","5.6","1012","29.89","-999","-999","-9999","-9999","-9999.00","-9999.00","Unknown","unknown","0","0","0","0","0","0","METAR UKKK 051300Z 11003MPS 070V160 9000 NSC 18/01 Q1012 R08/CLRD70 NOSIG"
"4:30 PM EEST on April 05, 2016","2016","04","05","16","30","Europe/Kiev","1:30 PM GMT on April 05, 2016","2016","04","05","13","30","UTC","17.0","62.6","1.0","33.8","34","14.4","8.9","-9999.0","-9999.0","100","East","-9999.0","-9999.0","1011","29.86","-999","-999","-9999","-9999","-9999.00","-9999.00","Clear","clear","0","0","0","0","0","0","METAR UKKK 051330Z 10004MPS CAVOK 17/01 Q1011 R08/CLRD70 NOSIG"
"5:00 PM EEST on April 05, 2016","2016","04","05","17","00","Europe/Kiev","2:00 PM GMT on April 05, 2016","2016","04","05","14","00","UTC","18.0","64.4","1.0","33.8","32","10.8","6.7","-9999.0","-9999.0","90","East","-9999.0","-9999.0","1011","29.86","-999","-999","-9999","-9999","-9999.00","-9999.00","Clear","clear","0","0","0","0","0","0","METAR UKKK 051400Z 09003MPS 060V120 CAVOK 18/01 Q1011 R08/CLRD70 NOSIG"
"5:30 PM EEST on April 05, 2016","2016","04","05","17","30","Europe/Kiev","2:30 PM GMT on April 05, 2016","2016","04","05","14","30","UTC","18.0","64.4","2.0","35.6","34","10.8","6.7","-9999.0","-9999.0","100","East","-9999.0","-9999.0","1011","29.86","-999","-999","-9999","-9999","-9999.00","-9999.00","Clear","clear","0","0","0","0","0","0","METAR UKKK 051430Z 10003MPS 070V130 CAVOK 18/02 Q1011 R08/CLRD70 NOSIG"
"6:00 PM EEST on April 05, 2016","2016","04","05","18","00","Europe/Kiev","3:00 PM GMT on April 05, 2016","2016","04","05","15","00","UTC","18","65","3","38","25","3.6","2.2","","","140","SE","20","12","1012","29.87","-999","-999","-9999","-9999","","","Clear","clear","0","0","0","0","0","0","AAXX 05151 33345 42998 71401 10181 20031 39919 40115 57011 80006 555 10021"
"6:00 PM EEST on April 05, 2016","2016","04","05","18","00","Europe/Kiev","3:00 PM GMT on April 05, 2016","2016","04","05","15","00","UTC","17.0","62.6","2.0","35.6","37","10.8","6.7","-9999.0","-9999.0","120","ESE","-9999.0","-9999.0","1011","29.86","-999","-999","-9999","-9999","-9999.00","-9999.00","Clear","clear","0","0","0","0","0","0","METAR UKKK 051500Z 12003MPS CAVOK 17/02 Q1011 R08/CLRD70 NOSIG"
"6:30 PM EEST on April 05, 2016","2016","04","05","18","30","Europe/Kiev","3:30 PM GMT on April 05, 2016","2016","04","05","15","30","UTC","17.0","62.6","3.0","37.4","39","14.4","8.9","-9999.0","-9999.0","100","East","-9999.0","-9999.0","1011","29.86","-999","-999","-9999","-9999","-9999.00","-9999.00","Clear","clear","0","0","0","0","0","0","METAR UKKK 051530Z 10004MPS CAVOK 17/03 Q1011 R08/CLRD70 NOSIG"
"7:00 PM EEST on April 05, 2016","2016","04","05","19","00","Europe/Kiev","4:00 PM GMT on April 05, 2016","2016","04","05","16","00","UTC","17.0","62.6","3.0","37.4","39","10.8","6.7","-9999.0","-9999.0","110","ESE","-9999.0","-9999.0","1011","29.86","-999","-999","-9999","-9999","-9999.00","-9999.00","Clear","clear","0","0","0","0","0","0","METAR UKKK 051600Z 11003MPS CAVOK 17/03 Q1011 R08/CLRD70 NOSIG"
"7:30 PM EEST on April 05, 2016","2016","04","05","19","30","Europe/Kiev","4:30 PM GMT on April 05, 2016","2016","04","05","16","30","UTC","16.0","60.8","2.0","35.6","39","10.8","6.7","-9999.0","-9999.0","100","East","-9999.0","-9999.0","1011","29.86","-999","-999","-9999","-9999","-9999.00","-9999.00","Clear","clear","0","0","0","0","0","0","METAR UKKK 051630Z 10003MPS CAVOK 16/02 Q1011 R08/CLRD70 NOSIG"
"8:00 PM EEST on April 05, 2016","2016","04","05","20","00","Europe/Kiev","5:00 PM GMT on April 05, 2016","2016","04","05","17","00","UTC","15.0","59.0","2.0","35.6","42","10.8","6.7","-9999.0","-9999.0","110","ESE","-9999.0","-9999.0","1011","29.86","-999","-999","-9999","-9999","-9999.00","-9999.00","Clear","clear","0","0","0","0","0","0","METAR UKKK 051700Z 11003MPS CAVOK 15/02 Q1011 R08/CLRD70 NOSIG"
"8:30 PM EEST on April 05, 2016","2016","04","05","20","30","Europe/Kiev","5:30 PM GMT on April 05, 2016","2016","04","05","17","30","UTC","15.0","59.0","3.0","37.4","45","7.2","4.5","-9999.0","-9999.0","110","ESE","9.0","5.6","1012","29.89","-999","-999","-9999","-9999","-9999.00","-9999.00","Unknown","unknown","0","0","0","0","0","0","METAR UKKK 051730Z 11002MPS 9000 NSC 15/03 Q1012 R08/CLRD70 NOSIG"
"9:00 PM EEST on April 05, 2016","2016","04","05","21","00","Europe/Kiev","6:00 PM GMT on April 05, 2016","2016","04","05","18","00","UTC","14","57","4","39","39","3.6","2.2","","","150","SSE","10","6","1012","29.89","-999","-999","-9999","-9999","","","Clear","clear","0","0","0","0","0","0","AAXX 05181 33345 32997 61501 10139 20038 39923 40122 53004 80006 333 10186 555 10010"
"9:00 PM EEST on April 05, 2016","2016","04","05","21","00","Europe/Kiev","6:00 PM GMT on April 05, 2016","2016","04","05","18","00","UTC","14.0","57.2","4.0","39.2","51","10.8","6.7","-9999.0","-9999.0","120","ESE","-9999.0","-9999.0","1012","29.89","-999","-999","-9999","-9999","-9999.00","-9999.00","Clear","clear","0","0","0","0","0","0","METAR UKKK 051800Z 12003MPS CAVOK 14/04 Q1012 R08/CLRD70 NOSIG"
"9:30 PM EEST on April 05, 2016","2016","04","05","21","30","Europe/Kiev","6:30 PM GMT on April 05, 2016","2016","04","05","18","30","UTC","14.0","57.2","4.0","39.2","51","10.8","6.7","-9999.0","-9999.0","120","ESE","-9999.0","-9999.0","1012","29.89","-999","-999","-9999","-9999","-9999.00","-9999.00","Clear","clear","0","0","0","0","0","0","METAR UKKK 051830Z 12003MPS CAVOK 14/04 Q1012 R08/CLRD70 NOSIG"
"10:00 PM EEST on April 05, 2016","2016","04","05","22","00","Europe/Kiev","7:00 PM GMT on April 05, 2016","2016","04","05","19","00","UTC","14.0","57.2","4.0","39.2","51","10.8","6.7","-9999.0","-9999.0","130","SE","-9999.0","-9999.0","1012","29.89","-999","-999","-9999","-9999","-9999.00","-9999.00","Clear","clear","0","0","0","0","0","0","METAR UKKK 051900Z 13003MPS CAVOK 14/04 Q1012 R08/CLRD70 NOSIG"
"10:30 PM EEST on April 05, 2016","2016","04","05","22","30","Europe/Kiev","7:30 PM GMT on April 05, 2016","2016","04","05","19","30","UTC","14.0","57.2","4.0","39.2","51","10.8","6.7","-9999.0","-9999.0","120","ESE","-9999.0","-9999.0","1012","29.89","-999","-999","-9999","-9999","-9999.00","-9999.00","Clear","clear","0","0","0","0","0","0","METAR UKKK 051930Z 12003MPS CAVOK 14/04 Q1012 R08/CLRD70 NOSIG"
"11:00 PM EEST on April 05, 2016","2016","04","05","23","00","Europe/Kiev","8:00 PM GMT on April 05, 2016","2016","04","05","20","00","UTC","13.0","55.4","5.0","41.0","58","10.8","6.7","-9999.0","-9999.0","120","ESE","-9999.0","-9999.0","1012","29.89","-999","-999","-9999","-9999","-9999.00","-9999.00","Clear","clear","0","0","0","0","0","0","METAR UKKK 052000Z 12003MPS CAVOK 13/05 Q1012 R08/CLRD70 NOSIG"
"11:30 PM EEST on April 05, 2016","2016","04","05","23","30","Europe/Kiev","8:30 PM GMT on April 05, 2016","2016","04","05","20","30","UTC","13.0","55.4","4.0","39.2","54","7.2","4.5","-9999.0","-9999.0","140","SE","-9999.0","-9999.0","1011","29.86","-999","-999","-9999","-9999","-9999.00","-9999.00","Clear","clear","0","0","0","0","0","0","METAR UKKK 052030Z 14002MPS CAVOK 13/04 Q1011 R08/CLRD70 NOSIG"
"12:00 AM EEST on April 06, 2016","2016","04","06","00","00","Europe/Kiev","9:00 PM GMT on April 05, 2016","2016","04","05","21","00","UTC","12","54","5","41","50","3.6","2.2","","","130","SE","10","6","1012","29.89","-999","-999","-9999","-9999","","","Clear","clear","0","0","0","0","0","0","AAXX 05211 33345 42997 61301 10124 20048 39920 40120 58003 80006 555 10009"
"12:00 AM EEST on April 06, 2016","2016","04","06","00","00","Europe/Kiev","9:00 PM GMT on April 05, 2016","2016","04","05","21","00","UTC","13.0","55.4","4.0","39.2","54","7.2","4.5","-9999.0","-9999.0","130","SE","-9999.0","-9999.0","1011","29.86","-999","-999","-9999","-9999","-9999.00","-9999.00","Clear","clear","0","0","0","0","0","0","METAR UKKK 052100Z 13002MPS CAVOK 13/04 Q1011 R08/CLRD70 NOSIG"
"12:30 AM EEST on April 06, 2016","2016","04","06","00","30","Europe/Kiev","9:30 PM GMT on April 05, 2016","2016","04","05","21","30","UTC","13.0","55.4","3.0","37.4","51","7.2","4.5","-9999.0","-9999.0","140","SE","-9999.0","-9999.0","1011","29.86","-999","-999","-9999","-9999","-9999.00","-9999.00","Clear","clear","0","0","0","0","0","0","METAR UKKK 052130Z 14002MPS 110V170 CAVOK 13/03 Q1011 R08/CLRD70 NOSIG"
"1:00 AM EEST on April 06, 2016","2016","04","06","01","00","Europe/Kiev","10:00 PM GMT on April 05, 2016","2016","04","05","22","00","UTC","13.0","55.4","3.0","37.4","51","7.2","4.5","-9999.0","-9999.0","150","SSE","-9999.0","-9999.0","1011","29.86","-999","-999","-9999","-9999","-9999.00","-9999.00","Clear","clear","0","0","0","0","0","0","METAR UKKK 052200Z 15002MPS 110V200 CAVOK 13/03 Q1011 R08/CLRD70 NOSIG"
"1:30 AM EEST on April 06, 2016","2016","04","06","01","30","Europe/Kiev","10:30 PM GMT on April 05, 2016","2016","04","05","22","30","UTC","13.0","55.4","4.0","39.2","54","10.8","6.7","-9999.0","-9999.0","160","SSE","-9999.0","-9999.0","1011","29.86","-999","-999","-9999","-9999","-9999.00","-9999.00","Clear","clear","0","0","0","0","0","0","METAR UKKK 052230Z 16003MPS 100V210 CAVOK 13/04 Q1011 R08/CLRD70 NOSIG"
"2:00 AM EEST on April 06, 2016","2016","04","06","02","00","Europe/Kiev","11:00 PM GMT on April 05, 2016","2016","04","05","23","00","UTC","12.0","53.6","4.0","39.2","58","10.8","6.7","-9999.0","-9999.0","160","SSE","-9999.0","-9999.0","1011","29.86","-999","-999","-9999","-9999","-9999.00","-9999.00","Clear","clear","0","0","0","0","0","0","METAR UKKK 052300Z 16003MPS 110V210 CAVOK 12/04 Q1011 R08/CLRD70 NOSIG"
"2:30 AM EEST on April 06, 2016","2016","04","06","02","30","Europe/Kiev","11:30 PM GMT on April 05, 2016","2016","04","05","23","30","UTC","12.0","53.6","4.0","39.2","58","10.8","6.7","-9999.0","-9999.0","180","South","-9999.0","-9999.0","1011","29.86","-999","-999","-9999","-9999","-9999.00","-9999.00","Clear","clear","0","0","0","0","0","0","METAR UKKK 052330Z 18003MPS 150V220 CAVOK 12/04 Q1011 R08/CLRD70 NOSIG"
"3:00 AM EEST on April 06, 2016","2016","04","06","03","00","Europe/Kiev","12:00 AM GMT on April 06, 2016","2016","04","06","00","00","UTC","10","49","5","40","63","7.2","4.5","","","160","SSE","10","6","1012","29.88","-999","-999","-9999","-9999","","","Clear","clear","0","0","0","0","0","0","AAXX 06001 33345 32997 61602 10097 20046 39917 40119 57003 80006 555 10007"
"3:00 AM EEST on April 06, 2016","2016","04","06","03","00","Europe/Kiev","12:00 AM GMT on April 06, 2016","2016","04","06","00","00","UTC","12.0","53.6","4.0","39.2","58","7.2","4.5","-9999.0","-9999.0","190","South","-9999.0","-9999.0","1011","29.86","-999","-999","-9999","-9999","-9999.00","-9999.00","Clear","clear","0","0","0","0","0","0","METAR UKKK 060000Z 19002MPS 130V230 CAVOK 12/04 Q1011 R08/CLRD70 NOSIG"
"3:30 AM EEST on April 06, 2016","2016","04","06","03","30","Europe/Kiev","12:30 AM GMT on April 06, 2016","2016","04","06","00","30","UTC","11.0","51.8","4.0","39.2","62","7.2","4.5","-9999.0","-9999.0","190","South","-9999.0","-9999.0","1011","29.86","-999","-999","-9999","-9999","-9999.00","-9999.00","Clear","clear","0","0","0","0","0","0","METAR UKKK 060030Z 19002MPS 140V240 CAVOK 11/04 Q1011 R08/CLRD70 NOSIG"
"4:00 AM EEST on April 06, 2016","2016","04","06","04","00","Europe/Kiev","1:00 AM GMT on April 06, 2016","2016","04","06","01","00","UTC","11.0","51.8","4.0","39.2","62","10.8","6.7","-9999.0","-9999.0","170","South","-9999.0","-9999.0","1011","29.86","-999","-999","-9999","-9999","-9999.00","-9999.00","Clear","clear","0","0","0","0","0","0","METAR UKKK 060100Z 17003MPS 140V210 CAVOK 11/04 Q1011 R08/CLRD70 NOSIG"
"4:30 AM EEST on April 06, 2016","2016","04","06","04","30","Europe/Kiev","1:30 AM GMT on April 06, 2016","2016","04","06","01","30","UTC","10.0","50.0","4.0","39.2","66","7.2","4.5","-9999.0","-9999.0","180","South","-9999.0","-9999.0","1011","29.86","-999","-999","-9999","-9999","-9999.00","-9999.00","Clear","clear","0","0","0","0","0","0","METAR UKKK 060130Z 18002MPS CAVOK 10/04 Q1011 R08/CLRD70 NOSIG"
"5:00 AM EEST on April 06, 2016","2016","04","06","05","00","Europe/Kiev","2:00 AM GMT on April 06, 2016","2016","04","06","02","00","UTC","10.0","50.0","3.0","37.4","62","7.2","4.5","-9999.0","-9999.0","160","SSE","-9999.0","-9999.0","1011","29.86","-999","-999","-9999","-9999","-9999.00","-9999.00","Clear","clear","0","0","0","0","0","0","METAR UKKK 060200Z 16002MPS 120V190 CAVOK 10/03 Q1011 R08/CLRD70 NOSIG"
"5:30 AM EEST on April 06, 2016","2016","04","06","05","30","Europe/Kiev","2:30 AM GMT on April 06, 2016","2016","04","06","02","30","UTC","9.0","48.2","3.0","37.4","66","3.6","2.2","-9999.0","-9999.0","0","Variable","-9999.0","-9999.0","1011","29.86","-999","-999","-9999","-9999","-9999.00","-9999.00","Clear","clear","0","0","0","0","0","0","METAR UKKK 060230Z VRB01MPS CAVOK 09/03 Q1011 R08/CLRD70 NOSIG"
"6:00 AM EEST on April 06, 2016","2016","04","06","06","00","Europe/Kiev","3:00 AM GMT on April 06, 2016","2016","04","06","03","00","UTC","8","46","4","38","67","7.2","4.5","","","150","SSE","20","12","1011","29.87","-999","-999","-9999","-9999","","","Clear","clear","0","0","0","0","0","0","AAXX 06031 33345 42998 31502 10080 20036 39910 40113 57007 80001 555 10005"
"6:00 AM EEST on April 06, 2016","2016","04","06","06","00","Europe/Kiev","3:00 AM GMT on April 06, 2016","2016","04","06","03","00","UTC","8.0","46.4","3.0","37.4","71","7.2","4.5","-9999.0","-9999.0","120","ESE","-9999.0","-9999.0","1010","29.83","6.9","44.4","-9999","-9999","-9999.00","-9999.00","Clear","clear","0","0","0","0","0","0","METAR UKKK 060300Z 12002MPS CAVOK 08/03 Q1010 R08/CLRD70 NOSIG"
"6:30 AM EEST on April 06, 2016","2016","04","06","06","30","Europe/Kiev","3:30 AM GMT on April 06, 2016","2016","04","06","03","30","UTC","8.0","46.4","2.0","35.6","66","7.2","4.5","-9999.0","-9999.0","120","ESE","-9999.0","-9999.0","1010","29.83","6.9","44.4","-9999","-9999","-9999.00","-9999.00","Clear","clear","0","0","0","0","0","0","METAR UKKK 060330Z 12002MPS CAVOK 08/02 Q1010 R08/CLRD70 NOSIG"
"7:00 AM EEST on April 06, 2016","2016","04","06","07","00","Europe/Kiev","4:00 AM GMT on April 06, 2016","2016","04","06","04","00","UTC","8.0","46.4","2.0","35.6","66","7.2","4.5","-9999.0","-9999.0","120","ESE","-9999.0","-9999.0","1010","29.83","6.9","44.4","-9999","-9999","-9999.00","-9999.00","Clear","clear","0","0","0","0","0","0","METAR UKKK 060400Z 12002MPS CAVOK 08/02 Q1010 R08/CLRD70 NOSIG"
"7:30 AM EEST on April 06, 2016","2016","04","06","07","30","Europe/Kiev","4:30 AM GMT on April 06, 2016","2016","04","06","04","30","UTC","9.0","48.2","3.0","37.4","66","7.2","4.5","-9999.0","-9999.0","110","ESE","-9999.0","-9999.0","1010","29.83","-999","-999","-9999","-9999","-9999.00","-9999.00","Clear","clear","0","0","0","0","0","0","METAR UKKK 060430Z 11002MPS CAVOK 09/03 Q1010 R08/CLRD70 NOSIG"
"8:00 AM EEST on April 06, 2016","2016","04","06","08","00","Europe/Kiev","5:00 AM GMT on April 06, 2016","2016","04","06","05","00","UTC","10.0","50.0","1.0","33.8","54","3.6","2.2","-9999.0","-9999.0","0","Variable","-9999.0","-9999.0","1011","29.86","-999","-999","-9999","-9999","-9999.00","-9999.00","Clear","clear","0","0","0","0","0","0","METAR UKKK 060500Z VRB01MPS CAVOK 10/01 Q1011 R08/CLRD70 NOSIG"
"8:30 AM EEST on April 06, 2016","2016","04","06","08","30","Europe/Kiev","5:30 AM GMT on April 06, 2016","2016","04","06","05","30","UTC","11.0","51.8","-1.0","30.2","44","7.2","4.5","-9999.0","-9999.0","180","South","-9999.0","-9999.0","1011","29.86","-999","-999","-9999","-9999","-9999.00","-9999.00","Clear","clear","0","0","0","0","0","0","METAR UKKK 060530Z 18002MPS CAVOK 11/M01 Q1011 R08/CLRD70 NOSIG"
"9:00 AM EEST on April 06, 2016","2016","04","06","09","00","Europe/Kiev","6:00 AM GMT on April 06, 2016","2016","04","06","06","00","UTC","10","51","1","34","39","7.2","4.5","","","160","SSE","20","12","1011","29.87","-999","-999","-9999","-9999","","","Clear","clear","0","0","0","0","0","0","AAXX 06061 33345 32998 31602 10103 20009 39913 40114 53003 80001 333 20077 555 10016 30004 52004"
"9:00 AM EEST on April 06, 2016","2016","04","06","09","00","Europe/Kiev","6:00 AM GMT on April 06, 2016","2016","04","06","06","00","UTC","11.0","51.8","-3.0","26.6","38","10.8","6.7","-9999.0","-9999.0","180","South","-9999.0","-9999.0","1011","29.86","-999","-999","-9999","-9999","-9999.00","-9999.00","Clear","clear","0","0","0","0","0","0","METAR UKKK 060600Z 18003MPS 130V230 CAVOK 11/M03 Q1011 R08/CLRD70 NOSIG"
"9:30 AM EEST on April 06, 2016","2016","04","06","09","30","Europe/Kiev","6:30 AM GMT on April 06, 2016","2016","04","06","06","30","UTC","12.0","53.6","-3.0","26.6","35","10.8","6.7","-9999.0","-9999.0","170","South","-9999.0","-9999.0","1011","29.86","-999","-999","-9999","-9999","-9999.00","-9999.00","Clear","clear","0","0","0","0","0","0","METAR UKKK 060630Z 17003MPS 110V240 CAVOK 12/M03 Q1011 R08/CLRD70 NOSIG"
"10:00 AM EEST on April 06, 2016","2016","04","06","10","00","Europe/Kiev","7:00 AM GMT on April 06, 2016","2016","04","06","07","00","UTC","13.0","55.4","-5.0","23.0","29","10.8","6.7","-9999.0","-9999.0","180","South","-9999.0","-9999.0","1011","29.86","-999","-999","-9999","-9999","-9999.00","-9999.00","Clear","clear","0","0","0","0","0","0","METAR UKKK 060700Z 18003MPS 120V220 CAVOK 13/M05 Q1011 R08/CLRD70 NOSIG"
"10:30 AM EEST on April 06, 2016","2016","04","06","10","30","Europe/Kiev","7:30 AM GMT on April 06, 2016","2016","04","06","07","30","UTC","14.0","57.2","-4.0","24.8","29","10.8","6.7","-9999.0","-9999.0","160","SSE","-9999.0","-9999.0","1011","29.86","-999","-999","-9999","-9999","-9999.00","-9999.00","Clear","clear","0","0","0","0","0","0","METAR UKKK 060730Z 16003MPS 110V210 CAVOK 14/M04 Q1011 R08/CLRD70 NOSIG"
"11:00 AM EEST on April 06, 2016","2016","04","06","11","00","Europe/Kiev","8:00 AM GMT on April 06, 2016","2016","04","06","08","00","UTC","15.0","59.0","-4.0","24.8","27","14.4","8.9","-9999.0","-9999.0","160","SSE","-9999.0","-9999.0","1011","29.86","-999","-999","-9999","-9999","-9999.00","-9999.00","Clear","clear","0","0","0","0","0","0","METAR UKKK 060800Z 16004MPS 120V200 CAVOK 15/M04 Q1011 R08/CLRD70 NOSIG"
"11:30 AM EEST on April 06, 2016","2016","04","06","11","30","Europe/Kiev","8:30 AM GMT on April 06, 2016","2016","04","06","08","30","UTC","16.0","60.8","-3.0","26.6","27","10.8","6.7","-9999.0","-9999.0","160","SSE","-9999.0","-9999.0","1011","29.86","-999","-999","-9999","-9999","-9999.00","-9999.00","Clear","clear","0","0","0","0","0","0","METAR UKKK 060830Z 16003MPS 100V230 CAVOK 16/M03 Q1011 R08/CLRD70 NOSIG"
"12:00 PM EEST on April 06, 2016","2016","04","06","12","00","Europe/Kiev","9:00 AM GMT on April 06, 2016","2016","04","06","09","00","UTC","17","62","-4","24","13","10.8","6.7","","","140","SE","20","12","1011","29.86","-999","-999","-9999","-9999","","","Clear","clear","0","0","0","0","0","0","AAXX 06091 33345 42998 21403 10168 21042 39912 40109 58001 80001 555 10035"
"12:00 PM EEST on April 06, 2016","2016","04","06","12","00","Europe/Kiev","9:00 AM GMT on April 06, 2016","2016","04","06","09","00","UTC","17.0","62.6","-2.0","28.4","27","14.4","8.9","-9999.0","-9999.0","160","SSE","-9999.0","-9999.0","1011","29.86","-999","-999","-9999","-9999","-9999.00","-9999.00","Clear","clear","0","0","0","0","0","0","METAR UKKK 060900Z 16004MPS 120V200 CAVOK 17/M02 Q1011 R08/CLRD70 NOSIG"
"12:30 PM EEST on April 06, 2016","2016","04","06","12","30","Europe/Kiev","9:30 AM GMT on April 06, 2016","2016","04","06","09","30","UTC","18.0","64.4","-1.0","30.2","28","14.4","8.9","-9999.0","-9999.0","170","South","-9999.0","-9999.0","1010","29.83","-999","-999","-9999","-9999","-9999.00","-9999.00","Clear","clear","0","0","0","0","0","0","METAR UKKK 060930Z 17004MPS 120V230 CAVOK 18/M01 Q1010 R08/CLRD70 NOSIG"
"1:00 PM EEST on April 06, 2016","2016","04","06","13","00","Europe/Kiev","10:00 AM GMT on April 06, 2016","2016","04","06","10","00","UTC","18.0","64.4","0.0","32.0","30","14.4","8.9","-9999.0","-9999.0","170","South","-9999.0","-9999.0","1010","29.83","-999","-999","-9999","-9999","-9999.00","-9999.00","Clear","clear","0","0","0","0","0","0","METAR UKKK 061000Z 17004MPS 140V210 CAVOK 18/M00 Q1010 R08/CLRD70 NOSIG"
"1:30 PM EEST on April 06, 2016","2016","04","06","13","30","Europe/Kiev","10:30 AM GMT on April 06, 2016","2016","04","06","10","30","UTC","18.0","64.4","1.0","33.8","32","14.4","8.9","-9999.0","-9999.0","150","SSE","-9999.0","-9999.0","1010","29.83","-999","-999","-9999","-9999","-9999.00","-9999.00","Clear","clear","0","0","0","0","0","0","METAR UKKK 061030Z 15004MPS 090V210 CAVOK 18/01 Q1010 R08/CLRD70 NOSIG"
"2:00 PM EEST on April 06, 2016","2016","04","06","14","00","Europe/Kiev","11:00 AM GMT on April 06, 2016","2016","04","06","11","00","UTC","19.0","66.2","1.0","33.8","30","14.4","8.9","-9999.0","-9999.0","180","South","-9999.0","-9999.0","1010","29.83","-999","-999","-9999","-9999","-9999.00","-9999.00","Clear","clear","0","0","0","0","0","0","METAR UKKK 061100Z 18004MPS 110V220 CAVOK 19/01 Q1010 R08/CLRD70 NOSIG"
"2:30 PM EEST on April 06, 2016","2016","04","06","14","30","Europe/Kiev","11:30 AM GMT on April 06, 2016","2016","04","06","11","30","UTC","20.0","68.0","2.0","35.6","30","14.4","8.9","-9999.0","-9999.0","170","South","-9999.0","-9999.0","1010","29.83","-999","-999","-9999","-9999","-9999.00","-9999.00","Clear","clear","0","0","0","0","0","0","METAR UKKK 061130Z 17004MPS 090V230 CAVOK 20/02 Q1010 R08/CLRD70 NOSIG"
"3:00 PM EEST on April 06, 2016","2016","04","06","15","00","Europe/Kiev","12:00 PM GMT on April 06, 2016","2016","04","06","12","00","UTC","20","68","0","32","16","14.4","8.9","","","150","SSE","20","12","1010","29.81","-999","-999","-9999","-9999","","","","","0","0","0","0","0","0","AAXX 06121 33345 32998 01504 10200 20000 39901 40095 57011 555 10037"
"3:00 PM EEST on April 06, 2016","2016","04","06","15","00","Europe/Kiev","12:00 PM GMT on April 06, 2016","2016","04","06","12","00","UTC","20.0","68.0","2.0","35.6","30","14.4","8.9","-9999.0","-9999.0","150","SSE","-9999.0","-9999.0","1009","29.80","-999","-999","-9999","-9999","-9999.00","-9999.00","Clear","clear","0","0","0","0","0","0","METAR UKKK 061200Z 15004MPS 090V220 CAVOK 20/02 Q1009 R08/CLRD70 NOSIG"
"3:30 PM EEST on April 06, 2016","2016","04","06","15","30","Europe/Kiev","12:30 PM GMT on April 06, 2016","2016","04","06","12","30","UTC","20.0","68.0","4.0","39.2","35","14.4","8.9","-9999.0","-9999.0","170","South","-9999.0","-9999.0","1009","29.80","-999","-999","-9999","-9999","-9999.00","-9999.00","Clear","clear","0","0","0","0","0","0","METAR UKKK 061230Z 17004MPS CAVOK 20/04 Q1009 R08/CLRD70 NOSIG"
"4:00 PM EEST on April 06, 2016","2016","04","06","16","00","Europe/Kiev","1:00 PM GMT on April 06, 2016","2016","04","06","13","00","UTC","20.0","68.0","4.0","39.2","35","14.4","8.9","-9999.0","-9999.0","180","South","-9999.0","-9999.0","1009","29.80","-999","-999","-9999","-9999","-9999.00","-9999.00","Clear","clear","0","0","0","0","0","0","METAR UKKK 061300Z 18004MPS 130V240 CAVOK 20/04 Q1009 R08/CLRD70 NOSIG"
"4:30 PM EEST on April 06, 2016","2016","04","06","16","30","Europe/Kiev","1:30 PM GMT on April 06, 2016","2016","04","06","13","30","UTC","21.0","69.8","5.0","41.0","35","10.8","6.7","-9999.0","-9999.0","170","South","-9999.0","-9999.0","1009","29.80","-999","-999","-9999","-9999","-9999.00","-9999.00","Clear","clear","0","0","0","0","0","0","METAR UKKK 061330Z 17003MPS 120V230 CAVOK 21/05 Q1009 R08/CLRD70 NOSIG"
"5:00 PM EEST on April 06, 2016","2016","04","06","17","00","Europe/Kiev","2:00 PM GMT on April 06, 2016","2016","04","06","14","00","UTC","20.0","68.0","5.0","41.0","37","10.8","6.7","-9999.0","-9999.0","170","South","-9999.0","-9999.0","1009","29.80","-999","-999","-9999","-9999","-9999.00","-9999.00","Clear","clear","0","0","0","0","0","0","METAR UKKK 061400Z 17003MPS 130V240 CAVOK 20/05 Q1009 R08/CLRD70 NOSIG"
"5:30 PM EEST on April 06, 2016","2016","04","06","17","30","Europe/Kiev","2:30 PM GMT on April 06, 2016","2016","04","06","14","30","UTC","21.0","69.8","7.0","44.6","40","10.8","6.7","-9999.0","-9999.0","180","South","-9999.0","-9999.0","1009","29.80","-999","-999","-9999","-9999","-9999.00","-9999.00","Clear","clear","0","0","0","0","0","0","METAR UKKK 061430Z 18003MPS 150V240 CAVOK 21/07 Q1009 R08/CLRD70 NOSIG"
"6:00 PM EEST on April 06, 2016","2016","04","06","18","00","Europe/Kiev","3:00 PM GMT on April 06, 2016","2016","04","06","15","00","UTC","20","69","6","43","27","10.8","6.7","","","170","South","20","12","1008","29.78","-999","-999","-9999","-9999","","","","","0","0","0","0","0","0","AAXX 06151 33345 42998 01703 10205 20060 39890 40084 57011 555 10024"
"6:00 PM EEST on April 06, 2016","2016","04","06","18","00","Europe/Kiev","3:00 PM GMT on April 06, 2016","2016","04","06","15","00","UTC","20.0","68.0","8.0","46.4","46","10.8","6.7","-9999.0","-9999.0","180","South","-9999.0","-9999.0","1008","29.77","-999","-999","-9999","-9999","-9999.00","-9999.00","Clear","clear","0","0","0","0","0","0","METAR UKKK 061500Z 18003MPS 150V220 CAVOK 20/08 Q1008 R26/CLRD70 NOSIG"
"6:30 PM EEST on April 06, 2016","2016","04","06","18","30","Europe/Kiev","3:30 PM GMT on April 06, 2016","2016","04","06","15","30","UTC","20.0","68.0","8.0","46.4","46","10.8","6.7","-9999.0","-9999.0","180","South","-9999.0","-9999.0","1008","29.77","-999","-999","-9999","-9999","-9999.00","-9999.00","Clear","clear","0","0","0","0","0","0","METAR UKKK 061530Z 18003MPS 150V230 CAVOK 20/08 Q1008 R26/CLRD70 NOSIG"
"7:00 PM EEST on April 06, 2016","2016","04","06","19","00","Europe/Kiev","4:00 PM GMT on April 06, 2016","2016","04","06","16","00","UTC","19.0","66.2","8.0","46.4","49","10.8","6.7","-9999.0","-9999.0","180","South","-9999.0","-9999.0","1008","29.77","-999","-999","-9999","-9999","-9999.00","-9999.00","Clear","clear","0","0","0","0","0","0","METAR UKKK 061600Z 18003MPS 150V210 CAVOK 19/08 Q1008 R26/CLRD70 NOSIG"
"7:30 PM EEST on April 06, 2016","2016","04","06","19","30","Europe/Kiev","4:30 PM GMT on April 06, 2016","2016","04","06","16","30","UTC","19.0","66.2","8.0","46.4","49","7.2","4.5","-9999.0","-9999.0","170","South","-9999.0","-9999.0","1008","29.77","-999","-999","-9999","-9999","-9999.00","-9999.00","Clear","clear","0","0","0","0","0","0","METAR UKKK 061630Z 17002MPS 140V200 CAVOK 19/08 Q1008 R26/CLRD70 NOSIG"
"8:00 PM EEST on April 06, 2016","2016","04","06","20","00","Europe/Kiev","5:00 PM GMT on April 06, 2016","2016","04","06","17","00","UTC","18.0","64.4","8.0","46.4","52","10.8","6.7","-9999.0","-9999.0","170","South","-9999.0","-9999.0","1008","29.77","-999","-999","-9999","-9999","-9999.00","-9999.00","Clear","clear","0","0","0","0","0","0","METAR UKKK 061700Z 17003MPS CAVOK 18/08 Q1008 R26/CLRD70 NOSIG"
"8:30 PM EEST on April 06, 2016","2016","04","06","20","30","Europe/Kiev","5:30 PM GMT on April 06, 2016","2016","04","06","17","30","UTC","17.0","62.6","8.0","46.4","55","7.2","4.5","-9999.0","-9999.0","160","SSE","9.0","5.6","1009","29.80","-999","-999","-9999","-9999","-9999.00","-9999.00","Clear","clear","0","0","0","0","0","0","METAR UKKK 061730Z 16002MPS 9000 SKC 17/08 Q1009 R26/CLRD70 NOSIG"
"9:00 PM EEST on April 06, 2016","2016","04","06","21","00","Europe/Kiev","6:00 PM GMT on April 06, 2016","2016","04","06","18","00","UTC","16","60","7","45","47","7.2","4.5","","","140","SE","20","12","1009","29.80","-999","-999","-9999","-9999","","","","","0","0","0","0","0","0","AAXX 06181 33345 32998 01402 10157 20073 39893 40090 53003 333 10208 555 10012"
"9:00 PM EEST on April 06, 2016","2016","04","06","21","00","Europe/Kiev","6:00 PM GMT on April 06, 2016","2016","04","06","18","00","UTC","17.0","62.6","8.0","46.4","55","10.8","6.7","-9999.0","-9999.0","160","SSE","-9999.0","-9999.0","1009","29.80","-999","-999","-9999","-9999","-9999.00","-9999.00","Clear","clear","0","0","0","0","0","0","METAR UKKK 061800Z 16003MPS CAVOK 17/08 Q1009 R26/CLRD70 NOSIG"
"9:30 PM EEST on April 06, 2016","2016","04","06","21","30","Europe/Kiev","6:30 PM GMT on April 06, 2016","2016","04","06","18","30","UTC","17.0","62.6","8.0","46.4","55","10.8","6.7","-9999.0","-9999.0","170","South","-9999.0","-9999.0","1009","29.80","-999","-999","-9999","-9999","-9999.00","-9999.00","Clear","clear","0","0","0","0","0","0","METAR UKKK 061830Z 17003MPS 150V220 CAVOK 17/08 Q1009 R26/CLRD70 NOSIG"
"10:00 PM EEST on April 06, 2016","2016","04","06","22","00","Europe/Kiev","7:00 PM GMT on April 06, 2016","2016","04","06","19","00","UTC","16.0","60.8","8.0","46.4","59","14.4","8.9","-9999.0","-9999.0","180","South","-9999.0","-9999.0","1009","29.80","-999","-999","-9999","-9999","-9999.00","-9999.00","Clear","clear","0","0","0","0","0","0","METAR UKKK 061900Z 18004MPS 150V210 CAVOK 16/08 Q1009 R26/CLRD70 NOSIG"
"10:30 PM EEST on April 06, 2016","2016","04","06","22","30","Europe/Kiev","7:30 PM GMT on April 06, 2016","2016","04","06","19","30","UTC","16.0","60.8","8.0","46.4","59","10.8","6.7","-9999.0","-9999.0","170","South","-9999.0","-9999.0","1009","29.80","-999","-999","-9999","-9999","-9999.00","-9999.00","Clear","clear","0","0","0","0","0","0","METAR UKKK 061930Z 17003MPS 140V200 CAVOK 16/08 Q1009 R26/CLRD70 NOSIG"
"11:00 PM EEST on April 06, 2016","2016","04","06","23","00","Europe/Kiev","8:00 PM GMT on April 06, 2016","2016","04","06","20","00","UTC","15.0","59.0","8.0","46.4","63","10.8","6.7","-9999.0","-9999.0","180","South","-9999.0","-9999.0","1009","29.80","-999","-999","-9999","-9999","-9999.00","-9999.00","Clear","clear","0","0","0","0","0","0","METAR UKKK 062000Z 18003MPS 150V220 CAVOK 15/08 Q1009 R26/CLRD70 NOSIG"
"11:30 PM EEST on April 06, 2016","2016","04","06","23","30","Europe/Kiev","8:30 PM GMT on April 06, 2016","2016","04","06","20","30","UTC","15.0","59.0","8.0","46.4","63","10.8","6.7","-9999.0","-9999.0","190","South","-9999.0","-9999.0","1009","29.80","-999","-999","-9999","-9999","-9999.00","-9999.00","Clear","clear","0","0","0","0","0","0","METAR UKKK 062030Z 19003MPS CAVOK 15/08 Q1009 R26/CLRD70 NOSIG"
"12:00 AM EEST on April 07, 2016","2016","04","07","00","00","Europe/Kiev","9:00 PM GMT on April 06, 2016","2016","04","06","21","00","UTC","14","57","8","47","59","7.2","4.5","","","190","South","20","12","1009","29.81","-999","-999","-9999","-9999","","","","","0","0","0","0","0","0","AAXX 06211 33345 42998 01902 10141 20081 39894 40092 52001 555 10010"
"12:00 AM EEST on April 07, 2016","2016","04","07","00","00","Europe/Kiev","9:00 PM GMT on April 06, 2016","2016","04","06","21","00","UTC","14.0","57.2","8.0","46.4","67","14.4","8.9","-9999.0","-9999.0","220","SW","-9999.0","-9999.0","1009","29.80","-999","-999","-9999","-9999","-9999.00","-9999.00","Clear","clear","0","0","0","0","0","0","METAR UKKK 062100Z 22004MPS CAVOK 14/08 Q1009 R26/CLRD70 NOSIG"
"12:30 AM EEST on April 07, 2016","2016","04","07","00","30","Europe/Kiev","9:30 PM GMT on April 06, 2016","2016","04","06","21","30","UTC","14.0","57.2","8.0","46.4","67","10.8","6.7","-9999.0","-9999.0","210","SSW","-9999.0","-9999.0","1009","29.80","-999","-999","-9999","-9999","-9999.00","-9999.00","Clear","clear","0","0","0","0","0","0","METAR UKKK 062130Z 21003MPS 180V240 CAVOK 14/08 Q1009 R26/CLRD70 NOSIG"
"1:00 AM EEST on April 07, 2016","2016","04","07","01","00","Europe/Kiev","10:00 PM GMT on April 06, 2016","2016","04","06","22","00","UTC","14.0","57.2","8.0","46.4","67","10.8","6.7","-9999.0","-9999.0","210","SSW","-9999.0","-9999.0","1009","29.80","-999","-999","-9999","-9999","-9999.00","-9999.00","Clear","clear","0","0","0","0","0","0","METAR UKKK 062200Z 21003MPS CAVOK 14/08 Q1009 R26/CLRD70 TEMPO 1000 TSRA BKN015CB"
"1:30 AM EEST on April 07, 2016","2016","04","07","01","30","Europe/Kiev","10:30 PM GMT on April 06, 2016","2016","04","06","22","30","UTC","13.0","55.4","8.0","46.4","72","10.8","6.7","-9999.0","-9999.0","250","WSW","-9999.0","-9999.0","1009","29.80","-999","-999","-9999","-9999","-9999.00","-9999.00","Clear","clear","0","0","0","0","0","0","METAR UKKK 062230Z 25003MPS 220V280 CAVOK 13/08 Q1009 R26/CLRD70 TEMPO 1000 TSRA BKN015CB"
"2:00 AM EEST on April 07, 2016","2016","04","07","02","00","Europe/Kiev","11:00 PM GMT on April 06, 2016","2016","04","06","23","00","UTC","13.0","55.4","8.0","46.4","72","10.8","6.7","-9999.0","-9999.0","230","SW","-9999.0","-9999.0","1009","29.80","-999","-999","-9999","-9999","-9999.00","-9999.00","Clear","clear","0","0","0","0","0","0","METAR UKKK 062300Z 23003MPS CAVOK 13/08 Q1009 R26/CLRD70 TEMPO 1000 TSRA BKN015CB"
"2:30 AM EEST on April 07, 2016","2016","04","07","02","30","Europe/Kiev","11:30 PM GMT on April 06, 2016","2016","04","06","23","30","UTC","13.0","55.4","7.0","44.6","67","10.8","6.7","-9999.0","-9999.0","220","SW","-9999.0","-9999.0","1009","29.80","-999","-999","-9999","-9999","-9999.00","-9999.00","Clear","clear","0","0","0","0","0","0","METAR UKKK 062330Z 22003MPS 190V250 CAVOK 13/07 Q1009 R26/CLRD70 TEMPO 1000 TSRA BKN015CB"
"3:00 AM EEST on April 07, 2016","2016","04","07","03","00","Europe/Kiev","12:00 AM GMT on April 07, 2016","2016","04","07","00","00","UTC","13","55","7","45","60","14.4","8.9","","","200","SSW","20","12","1009","29.81","-999","-999","-9999","-9999","","","","","0","0","0","0","0","0","AAXX 07001 33345 32998 02004 10127 20072 39893 40092 58001 555 10009"
"3:00 AM EEST on April 07, 2016","2016","04","07","03","00","Europe/Kiev","12:00 AM GMT on April 07, 2016","2016","04","07","00","00","UTC","13.0","55.4","7.0","44.6","67","14.4","8.9","-9999.0","-9999.0","220","SW","-9999.0","-9999.0","1009","29.80","-999","-999","-9999","-9999","-9999.00","-9999.00","Clear","clear","0","0","0","0","0","0","METAR UKKK 070000Z 22004MPS CAVOK 13/07 Q1009 R26/CLRD70 TEMPO 1000 TSRA BKN015CB"
"3:30 AM EEST on April 07, 2016","2016","04","07","03","30","Europe/Kiev","12:30 AM GMT on April 07, 2016","2016","04","07","00","30","UTC","13.0","55.4","7.0","44.6","67","14.4","8.9","-9999.0","-9999.0","220","SW","-9999.0","-9999.0","1009","29.80","-999","-999","-9999","-9999","-9999.00","-9999.00","Clear","clear","0","0","0","0","0","0","METAR UKKK 070030Z 22004MPS CAVOK 13/07 Q1009 R26/CLRD70 TEMPO 1000 TSRA BKN015CB"
"4:00 AM EEST on April 07, 2016","2016","04","07","04","00","Europe/Kiev","1:00 AM GMT on April 07, 2016","2016","04","07","01","00","UTC","12.0","53.6","8.0","46.4","77","7.2","4.5","-9999.0","-9999.0","280","West","10.0","6.2","1009","29.80","-999","-999","-9999","-9999","-9999.00","-9999.00","Light Rain Showers","rain","0","1","0","0","0","0","METAR UKKK 070100Z 28002MPS 240V320 9999 -SHRA SCT030CB BKN073 12/08 Q1009 R26/CLRD70 TEMPO 1000 TSRA BKN015CB"
"4:30 AM EEST on April 07, 2016","2016","04","07","04","30","Europe/Kiev","1:30 AM GMT on April 07, 2016","2016","04","07","01","30","UTC","12.0","53.6","8.0","46.4","77","10.8","6.7","-9999.0","-9999.0","270","West","10.0","6.2","1009","29.80","-999","-999","-9999","-9999","-9999.00","-9999.00","Mostly Cloudy","mostlycloudy","0","0","0","0","0","0","METAR UKKK 070130Z 27003MPS 9999 SCT030CB BKN046 12/08 Q1009 R26/CLRD70 TEMPO 1000 TSRA BKN015CB"
"5:00 AM EEST on April 07, 2016","2016","04","07","05","00","Europe/Kiev","2:00 AM GMT on April 07, 2016","2016","04","07","02","00","UTC","12.0","53.6","9.0","48.2","82","7.2","4.5","-9999.0","-9999.0","220","SW","8.0","5.0","1009","29.80","-999","-999","-9999","-9999","-9999.00","-9999.00","Light Rain Showers","rain","0","1","0","0","0","0","METAR UKKK 070200Z 22002MPS 8000 -SHRA SCT030CB BKN046 12/09 Q1009 R26/190060 TEMPO 1000 TSRA BKN015CB"
"5:30 AM EEST on April 07, 2016","2016","04","07","05","30","Europe/Kiev","2:30 AM GMT on April 07, 2016","2016","04","07","02","30","UTC","11.0","51.8","9.0","48.2","88","10.8","6.7","-9999.0","-9999.0","250","WSW","10.0","6.2","1010","29.83","-999","-999","-9999","-9999","-9999.00","-9999.00","Mostly Cloudy","mostlycloudy","0","0","0","0","0","0","METAR UKKK 070230Z 25003MPS 9999 SCT033CB BKN046 11/09 Q1010 R26/290256 NOSIG"
"6:00 AM EEST on April 07, 2016","2016","04","07","06","00","Europe/Kiev","3:00 AM GMT on April 07, 2016","2016","04","07","03","00","UTC","12","53","9","48","78","3.6","2.2","","","280","West","10","6","1010","29.82","-999","-999","-9999","-9999","","","Light Rain Showers","rain","0","1","0","0","0","0","AAXX 07031 33345 41597 62801 10115 20089 39898 40098 53005 72581 86500 555 11010"
"6:00 AM EEST on April 07, 2016","2016","04","07","06","00","Europe/Kiev","3:00 AM GMT on April 07, 2016","2016","04","07","03","00","UTC","11.0","51.8","9.0","48.2","88","7.2","4.5","-9999.0","-9999.0","250","WSW","-9999.0","-9999.0","1009","29.80","-999","-999","-9999","-9999","-9999.00","-9999.00","Clear","clear","0","0","0","0","0","0","METAR UKKK 070300Z 25002MPS CAVOK 11/09 Q1009 R26/290256 NOSIG"
"6:30 AM EEST on April 07, 2016","2016","04","07","06","30","Europe/Kiev","3:30 AM GMT on April 07, 2016","2016","04","07","03","30","UTC","11.0","51.8","9.0","48.2","88","7.2","4.5","-9999.0","-9999.0","250","WSW","-9999.0","-9999.0","1010","29.83","-999","-999","-9999","-9999","-9999.00","-9999.00","Clear","clear","0","0","0","0","0","0","METAR UKKK 070330Z 25002MPS 220V300 CAVOK 11/09 Q1010 R26/290256 NOSIG"
"7:00 AM EEST on April 07, 2016","2016","04","07","07","00","Europe/Kiev","4:00 AM GMT on April 07, 2016","2016","04","07","04","00","UTC","10.0","50.0","9.0","48.2","94","7.2","4.5","-9999.0","-9999.0","250","WSW","-9999.0","-9999.0","1010","29.83","-999","-999","-9999","-9999","-9999.00","-9999.00","Clear","clear","0","0","0","0","0","0","METAR UKKK 070400Z 25002MPS CAVOK 10/09 Q1010 R26/290158 NOSIG"
"7:30 AM EEST on April 07, 2016","2016","04","07","07","30","Europe/Kiev","4:30 AM GMT on April 07, 2016","2016","04","07","04","30","UTC","10.0","50.0","9.0","48.2","94","7.2","4.5","-9999.0","-9999.0","50","NE","10.0","6.2","1010","29.83","-999","-999","-9999","-9999","-9999.00","-9999.00","Mostly Cloudy","mostlycloudy","0","0","0","0","0","0","METAR UKKK 070430Z 05002MPS 9999 SCT033CB BKN100 10/09 Q1010 R26/290158 NOSIG"
"8:00 AM EEST on April 07, 2016","2016","04","07","08","00","Europe/Kiev","5:00 AM GMT on April 07, 2016","2016","04","07","05","00","UTC","11.0","51.8","10.0","50.0","94","10.8","6.7","-9999.0","-9999.0","160","SSE","10.0","6.2","1010","29.83","-999","-999","-9999","-9999","-9999.00","-9999.00","Light Rain Showers","rain","0","1","0","0","0","0","METAR UKKK 070500Z 16003MPS 130V210 9999 -SHRA SCT030CB BKN080 11/10 Q1010 R26/290158 NOSIG"
"8:30 AM EEST on April 07, 2016","2016","04","07","08","30","Europe/Kiev","5:30 AM GMT on April 07, 2016","2016","04","07","05","30","UTC","11.0","51.8","10.0","50.0","94","7.2","4.5","-9999.0","-9999.0","190","South","10.0","6.2","1011","29.86","-999","-999","-9999","-9999","-9999.00","-9999.00","Mostly Cloudy","mostlycloudy","0","0","0","0","0","0","METAR UKKK 070530Z 19002MPS 130V240 9999 FEW030CB BKN080 11/10 Q1011 R26/290158 NOSIG"
"9:00 AM EEST on April 07, 2016","2016","04","07","09","00","Europe/Kiev","6:00 AM GMT on April 07, 2016","2016","04","07","06","00","UTC","10","51","8","46","77","7.2","4.5","","","240","WSW","10","6","1012","29.89","-999","-999","-9999","-9999","","","Light Rain Showers","rain","0","1","0","0","0","0","AAXX 07061 33345 11497 62402 10104 20077 39920 40121 52022 69942 72581 86900 333 20097 86917 555 11011"
"9:00 AM EEST on April 07, 2016","2016","04","07","09","00","Europe/Kiev","6:00 AM GMT on April 07, 2016","2016","04","07","06","00","UTC","11.0","51.8","10.0","50.0","94","7.2","4.5","-9999.0","-9999.0","260","West","-9999.0","-9999.0","1012","29.89","-999","-999","-9999","-9999","-9999.00","-9999.00","Clear","clear","0","0","0","0","0","0","METAR UKKK 070600Z 26002MPS CAVOK 11/10 Q1012 R26/290158 NOSIG"
"9:30 AM EEST on April 07, 2016","2016","04","07","09","30","Europe/Kiev","6:30 AM GMT on April 07, 2016","2016","04","07","06","30","UTC","12.0","53.6","10.0","50.0","88","3.6","2.2","-9999.0","-9999.0","0","Variable","9.0","5.6","1012","29.89","-999","-999","-9999","-9999","-9999.00","-9999.00","Light Rain Showers","rain","0","1","0","0","0","0","METAR UKKK 070630Z VRB01MPS 9000 -SHRA SCT030CB BKN080 12/10 Q1012 R26/290158 NOSIG"
"10:00 AM EEST on April 07, 2016","2016","04","07","10","00","Europe/Kiev","7:00 AM GMT on April 07, 2016","2016","04","07","07","00","UTC","13.0","55.4","10.0","50.0","82","10.8","6.7","-9999.0","-9999.0","300","WNW","10.0","6.2","1012","29.89","-999","-999","-9999","-9999","-9999.00","-9999.00","Mostly Cloudy","mostlycloudy","0","0","0","0","0","0","METAR UKKK 070700Z 30003MPS 9999 SCT030CB BKN080 13/10 Q1012 R26/290158 NOSIG"
"10:30 AM EEST on April 07, 2016","2016","04","07","10","30","Europe/Kiev","7:30 AM GMT on April 07, 2016","2016","04","07","07","30","UTC","13.0","55.4","11.0","51.8","88","7.2","4.5","-9999.0","-9999.0","290","WNW","9.0","5.6","1012","29.89","-999","-999","-9999","-9999","-9999.00","-9999.00","Light Rain Showers","rain","0","1","0","0","0","0","METAR UKKK 070730Z 29002MPS 260V330 9000 -SHRA SCT030CB BKN048 13/11 Q1012 R26/290158 NOSIG"
"11:00 AM EEST on April 07, 2016","2016","04","07","11","00","Europe/Kiev","8:00 AM GMT on April 07, 2016","2016","04","07","08","00","UTC","14.0","57.2","12.0","53.6","88","3.6","2.2","-9999.0","-9999.0","0","Variable","9.0","5.6","1012","29.89","-999","-999","-9999","-9999","-9999.00","-9999.00","Mostly Cloudy","mostlycloudy","0","0","0","0","0","0","METAR UKKK 070800Z VRB01MPS 9000 SCT030CB BKN048 14/12 Q1012 R26/290158 NOSIG"
"11:30 AM EEST on April 07, 2016","2016","04","07","11","30","Europe/Kiev","8:30 AM GMT on April 07, 2016","2016","04","07","08","30","UTC","14.0","57.2","12.0","53.6","88","3.6","2.2","-9999.0","-9999.0","0","Variable","9.0","5.6","1013","29.92","-999","-999","-9999","-9999","-9999.00","-9999.00","Light Rain Showers","rain","0","1","0","0","0","0","METAR UKKK 070830Z VRB01MPS 9000 -SHRA SCT030CB BKN048 14/12 Q1013 R26/290158 NOSIG"
"12:00 PM EEST on April 07, 2016","2016","04","07","12","00","Europe/Kiev","9:00 AM GMT on April 07, 2016","2016","04","07","09","00","UTC","15","59","11","52","71","7.2","4.5","","","330","NNW","20","12","1013","29.92","-999","-999","-9999","-9999","","","Partly Cloudy","partlycloudy","0","0","0","0","0","0","AAXX 07091 33345 42598 63302 10150 20111 39932 40130 52012 83534 555 11017"
"12:00 PM EEST on April 07, 2016","2016","04","07","12","00","Europe/Kiev","9:00 AM GMT on April 07, 2016","2016","04","07","09","00","UTC","16.0","60.8","13.0","55.4","82","10.8","6.7","-9999.0","-9999.0","310","NW","10.0","6.2","1013","29.92","-999","-999","-9999","-9999","-9999.00","-9999.00","Scattered Clouds","partlycloudy","0","0","0","0","0","0","METAR UKKK 070900Z 31003MPS 270V360 9999 SCT046 16/13 Q1013 R26/290158 NOSIG"
"12:30 PM EEST on April 07, 2016","2016","04","07","12","30","Europe/Kiev","9:30 AM GMT on April 07, 2016","2016","04","07","09","30","UTC","17.0","62.6","13.0","55.4","77","7.2","4.5","-9999.0","-9999.0","60","ENE","10.0","6.2","1012","29.89","-999","-999","-9999","-9999","-9999.00","-9999.00","Mostly Cloudy","mostlycloudy","0","0","0","0","0","0","METAR UKKK 070930Z 06002MPS 330V120 9999 SCT046 BKN100 17/13 Q1012 R26/290158 NOSIG"
"1:00 PM EEST on April 07, 2016","2016","04","07","13","00","Europe/Kiev","10:00 AM GMT on April 07, 2016","2016","04","07","10","00","UTC","18.0","64.4","13.0","55.4","73","10.8","6.7","-9999.0","-9999.0","320","NW","10.0","6.2","1013","29.92","-999","-999","-9999","-9999","-9999.00","-9999.00","Scattered Clouds","partlycloudy","0","0","0","0","0","0","METAR UKKK 071000Z 32003MPS 290V030 9999 SCT024 18/13 Q1013 R26/290158 NOSIG"
"1:30 PM EEST on April 07, 2016","2016","04","07","13","30","Europe/Kiev","10:30 AM GMT on April 07, 2016","2016","04","07","10","30","UTC","18.0","64.4","12.0","53.6","68","14.4","8.9","-9999.0","-9999.0","320","NW","10.0","6.2","1013","29.92","-999","-999","-9999","-9999","-9999.00","-9999.00","Mostly Cloudy","mostlycloudy","0","0","0","0","0","0","METAR UKKK 071030Z 32004MPS 290V360 9999 BKN025 18/12 Q1013 R26/190060 NOSIG"
"2:00 PM EEST on April 07, 2016","2016","04","07","14","00","Europe/Kiev","11:00 AM GMT on April 07, 2016","2016","04","07","11","00","UTC","18.0","64.4","12.0","53.6","68","14.4","8.9","-9999.0","-9999.0","340","NNW","10.0","6.2","1013","29.92","-999","-999","-9999","-9999","-9999.00","-9999.00","Mostly Cloudy","mostlycloudy","0","0","0","0","0","0","METAR UKKK 071100Z 34004MPS 300V360 9999 BKN025 18/12 Q1013 R26/190060 NOSIG"
"2:30 PM EEST on April 07, 2016","2016","04","07","14","30","Europe/Kiev","11:30 AM GMT on April 07, 2016","2016","04","07","11","30","UTC","18.0","64.4","12.0","53.6","68","14.4","8.9","-9999.0","-9999.0","300","WNW","10.0","6.2","1013","29.92","-999","-999","-9999","-9999","-9999.00","-9999.00","Mostly Cloudy","mostlycloudy","0","0","0","0","0","0","METAR UKKK 071130Z 30004MPS 260V350 9999 BKN030 18/12 Q1013 R26/190060 NOSIG"
"3:00 PM EEST on April 07, 2016","2016","04","07","15","00","Europe/Kiev","12:00 PM GMT on April 07, 2016","2016","04","07","12","00","UTC","18","65","12","53","57","10.8","6.7","","","20","NNE","20","12","1013","29.92","-999","-999","-9999","-9999","","","Mostly Cloudy","mostlycloudy","0","0","0","0","0","0","AAXX 07121 33345 32598 60203 10183 20118 39935 40131 51003 86900 555 10029"
"3:00 PM EEST on April 07, 2016","2016","04","07","15","00","Europe/Kiev","12:00 PM GMT on April 07, 2016","2016","04","07","12","00","UTC","18.0","64.4","11.0","51.8","64","14.4","8.9","-9999.0","-9999.0","280","West","10.0","6.2","1013","29.92","-999","-999","-9999","-9999","-9999.00","-9999.00","Mostly Cloudy","mostlycloudy","0","0","0","0","0","0","METAR UKKK 071200Z 28004MPS 260V010 9999 BKN027 18/11 Q1013 R26/CLRD70 NOSIG"
"3:30 PM EEST on April 07, 2016","2016","04","07","15","30","Europe/Kiev","12:30 PM GMT on April 07, 2016","2016","04","07","12","30","UTC","18.0","64.4","11.0","51.8","64","10.8","6.7","-9999.0","-9999.0","280","West","10.0","6.2","1013","29.92","-999","-999","-9999","-9999","-9999.00","-9999.00","Mostly Cloudy","mostlycloudy","0","0","0","0","0","0","METAR UKKK 071230Z 28003MPS 250V320 9999 BKN031 18/11 Q1013 R26/CLRD70 NOSIG"
"4:00 PM EEST on April 07, 2016","2016","04","07","16","00","Europe/Kiev","1:00 PM GMT on April 07, 2016","2016","04","07","13","00","UTC","18.0","64.4","12.0","53.6","68","14.4","8.9","-9999.0","-9999.0","320","NW","10.0","6.2","1013","29.92","-999","-999","-9999","-9999","-9999.00","-9999.00","Mostly Cloudy","mostlycloudy","0","0","0","0","0","0","METAR UKKK 071300Z 32004MPS 9999 BKN030 18/12 Q1013 R26/CLRD70 NOSIG"
"4:30 PM EEST on April 07, 2016","2016","04","07","16","30","Europe/Kiev","1:30 PM GMT on April 07, 2016","2016","04","07","13","30","UTC","18.0","64.4","11.0","51.8","64","10.8","6.7","-9999.0","-9999.0","310","NW","10.0","6.2","1013","29.92","-999","-999","-9999","-9999","-9999.00","-9999.00","Mostly Cloudy","mostlycloudy","0","0","0","0","0","0","METAR UKKK 071330Z 31003MPS 9999 BKN028 18/11 Q1013 R26/CLRD70 NOSIG"
"5:00 PM EEST on April 07, 2016","2016","04","07","17","00","Europe/Kiev","2:00 PM GMT on April 07, 2016","2016","04","07","14","00","UTC","19.0","66.2","12.0","53.6","64","7.2","4.5","-9999.0","-9999.0","20","NNE","10.0","6.2","1013","29.92","-999","-999","-9999","-9999","-9999.00","-9999.00","Mostly Cloudy","mostlycloudy","0","0","0","0","0","0","METAR UKKK 071400Z 02002MPS 9999 BKN028 19/12 Q1013 R26/CLRD70 NOSIG"
"5:30 PM EEST on April 07, 2016","2016","04","07","17","30","Europe/Kiev","2:30 PM GMT on April 07, 2016","2016","04","07","14","30","UTC","18.0","64.4","12.0","53.6","68","14.4","8.9","-9999.0","-9999.0","50","NE","-9999.0","-9999.0","1013","29.92","-999","-999","-9999","-9999","-9999.00","-9999.00","Clear","clear","0","0","0","0","0","0","METAR UKKK 071430Z 05004MPS CAVOK 18/12 Q1013 R26/CLRD70 NOSIG"
"6:00 PM EEST on April 07, 2016","2016","04","07","18","00","Europe/Kiev","3:00 PM GMT on April 07, 2016","2016","04","07","15","00","UTC","16","62","11","51","59","10.8","6.7","","","0","North","20","12","1013","29.93","-999","-999","-9999","-9999","","","","","0","0","0","0","0","0","AAXX 07151 33345 42998 03603 10164 20108 39937 40134 52002 555 10021"
"6:00 PM EEST on April 07, 2016","2016","04","07","18","00","Europe/Kiev","3:00 PM GMT on April 07, 2016","2016","04","07","15","00","UTC","17.0","62.6","12.0","53.6","72","14.4","8.9","-9999.0","-9999.0","60","ENE","-9999.0","-9999.0","1013","29.92","-999","-999","-9999","-9999","-9999.00","-9999.00","Clear","clear","0","0","0","0","0","0","METAR UKKK 071500Z 06004MPS CAVOK 17/12 Q1013 R08/CLRD70 NOSIG"
"6:30 PM EEST on April 07, 2016","2016","04","07","18","30","Europe/Kiev","3:30 PM GMT on April 07, 2016","2016","04","07","15","30","UTC","16.0","60.8","12.0","53.6","77","10.8","6.7","-9999.0","-9999.0","60","ENE","-9999.0","-9999.0","1013","29.92","-999","-999","-9999","-9999","-9999.00","-9999.00","Clear","clear","0","0","0","0","0","0","METAR UKKK 071530Z 06003MPS CAVOK 16/12 Q1013 R08/CLRD70 NOSIG"
"7:00 PM EEST on April 07, 2016","2016","04","07","19","00","Europe/Kiev","4:00 PM GMT on April 07, 2016","2016","04","07","16","00","UTC","15.0","59.0","11.0","51.8","77","10.8","6.7","-9999.0","-9999.0","60","ENE","-9999.0","-9999.0","1013","29.92","-999","-999","-9999","-9999","-9999.00","-9999.00","Clear","clear","0","0","0","0","0","0","METAR UKKK 071600Z 06003MPS CAVOK 15/11 Q1013 R08/CLRD70 NOSIG"
"7:30 PM EEST on April 07, 2016","2016","04","07","19","30","Europe/Kiev","4:30 PM GMT on April 07, 2016","2016","04","07","16","30","UTC","15.0","59.0","11.0","51.8","77","10.8","6.7","-9999.0","-9999.0","40","NE","-9999.0","-9999.0","1013","29.92","-999","-999","-9999","-9999","-9999.00","-9999.00","Clear","clear","0","0","0","0","0","0","METAR UKKK 071630Z 04003MPS CAVOK 15/11 Q1013 R08/CLRD70 NOSIG"
"8:00 PM EEST on April 07, 2016","2016","04","07","20","00","Europe/Kiev","5:00 PM GMT on April 07, 2016","2016","04","07","17","00","UTC","14.0","57.2","11.0","51.8","82","10.8","6.7","-9999.0","-9999.0","30","NNE","9.0","5.6","1013","29.92","-999","-999","-9999","-9999","-9999.00","-9999.00","Unknown","unknown","0","0","0","0","0","0","METAR UKKK 071700Z 03003MPS 9000 NSC 14/11 Q1013 R08/CLRD70 NOSIG"
"8:30 PM EEST on April 07, 2016","2016","04","07","20","30","Europe/Kiev","5:30 PM GMT on April 07, 2016","2016","04","07","17","30","UTC","14.0","57.2","11.0","51.8","82","10.8","6.7","-9999.0","-9999.0","30","NNE","-9999.0","-9999.0","1014","29.95","-999","-999","-9999","-9999","-9999.00","-9999.00","Clear","clear","0","0","0","0","0","0","METAR UKKK 071730Z 03003MPS CAVOK 14/11 Q1014 R08/CLRD70 NOSIG"
"9:00 PM EEST on April 07, 2016","2016","04","07","21","00","Europe/Kiev","6:00 PM GMT on April 07, 2016","2016","04","07","18","00","UTC","14","58","11","52","75","7.2","4.5","","","20","NNE","20","12","1014","29.95","-999","-999","-9999","-9999","","","Mostly Cloudy","mostlycloudy","0","0","0","0","0","0","AAXX 07181 33345 32998 60202 10144 20112 39942 40140 52005 86030 333 10189 555 10012"
"9:00 PM EEST on April 07, 2016","2016","04","07","21","00","Europe/Kiev","6:00 PM GMT on April 07, 2016","2016","04","07","18","00","UTC","14.0","57.2","11.0","51.8","82","10.8","6.7","-9999.0","-9999.0","40","NE","-9999.0","-9999.0","1014","29.95","-999","-999","-9999","-9999","-9999.00","-9999.00","Clear","clear","0","0","0","0","0","0","METAR UKKK 071800Z 04003MPS CAVOK 14/11 Q1014 R08/CLRD70 NOSIG"
"9:30 PM EEST on April 07, 2016","2016","04","07","21","30","Europe/Kiev","6:30 PM GMT on April 07, 2016","2016","04","07","18","30","UTC","13.0","55.4","11.0","51.8","88","10.8","6.7","-9999.0","-9999.0","70","ENE","-9999.0","-9999.0","1013","29.92","-999","-999","-9999","-9999","-9999.00","-9999.00","Clear","clear","0","0","0","0","0","0","METAR UKKK 071830Z 07003MPS CAVOK 13/11 Q1013 R08/CLRD70 NOSIG"
"10:00 PM EEST on April 07, 2016","2016","04","07","22","00","Europe/Kiev","7:00 PM GMT on April 07, 2016","2016","04","07","19","00","UTC","13.0","55.4","10.0","50.0","82","7.2","4.5","-9999.0","-9999.0","40","NE","-9999.0","-9999.0","1014","29.95","-999","-999","-9999","-9999","-9999.00","-9999.00","Clear","clear","0","0","0","0","0","0","METAR UKKK 071900Z 04002MPS CAVOK 13/10 Q1014 R08/CLRD70 NOSIG"
"10:30 PM EEST on April 07, 2016","2016","04","07","22","30","Europe/Kiev","7:30 PM GMT on April 07, 2016","2016","04","07","19","30","UTC","12.0","53.6","10.0","50.0","88","7.2","4.5","-9999.0","-9999.0","70","ENE","-9999.0","-9999.0","1014","29.95","-999","-999","-9999","-9999","-9999.00","-9999.00","Clear","clear","0","0","0","0","0","0","METAR UKKK 071930Z 07002MPS CAVOK 12/10 Q1014 R08/CLRD70 NOSIG"
"11:00 PM EEST on April 07, 2016","2016","04","07","23","00","Europe/Kiev","8:00 PM GMT on April 07, 2016","2016","04","07","20","00","UTC","12.0","53.6","11.0","51.8","94","7.2","4.5","-9999.0","-9999.0","70","ENE","6.0","3.7","1014","29.95","-999","-999","-9999","-9999","-9999.00","-9999.00","Unknown","unknown","0","0","0","0","0","0","METAR UKKK 072000Z 07002MPS 6000 NSC 12/11 Q1014 R08/CLRD70 TEMPO 1000 BR"
"11:30 PM EEST on April 07, 2016","2016","04","07","23","30","Europe/Kiev","8:30 PM GMT on April 07, 2016","2016","04","07","20","30","UTC","11.0","51.8","10.0","50.0","94","7.2","4.5","-9999.0","-9999.0","70","ENE","6.0","3.7","1014","29.95","-999","-999","-9999","-9999","-9999.00","-9999.00","Unknown","unknown","0","0","0","0","0","0","METAR UKKK 072030Z 07002MPS 6000 NSC 11/10 Q1014 R08/CLRD70 TEMPO 1000 BR"
"12:00 AM EEST on April 08, 2016","2016","04","08","00","00","Europe/Kiev","9:00 PM GMT on April 07, 2016","2016","04","07","21","00","UTC","13","55","11","51","83","3.6","2.2","","","60","ENE","10","6","1014","29.96","-999","-999","-9999","-9999","","","Scattered Clouds","partlycloudy","0","0","0","0","0","0","AAXX 07211 33345 42997 20601 10128 20107 39944 40144 52002 82040 555 10010"
"12:00 AM EEST on April 08, 2016","2016","04","08","00","00","Europe/Kiev","9:00 PM GMT on April 07, 2016","2016","04","07","21","00","UTC","11.0","51.8","10.0","50.0","94","7.2","4.5","-9999.0","-9999.0","80","East","7.0","4.3","1014","29.95","-999","-999","-9999","-9999","-9999.00","-9999.00","Unknown","unknown","0","0","0","0","0","0","METAR UKKK 072100Z 08002MPS 7000 NSC 11/10 Q1014 R08/CLRD70 TEMPO 1000 BR"
"12:30 AM EEST on April 08, 2016","2016","04","08","00","30","Europe/Kiev","9:30 PM GMT on April 07, 2016","2016","04","07","21","30","UTC","12.0","53.6","11.0","51.8","94","10.8","6.7","-9999.0","-9999.0","100","East","6.0","3.7","1014","29.95","-999","-999","-9999","-9999","-9999.00","-9999.00","Unknown","unknown","0","0","0","0","0","0","METAR UKKK 072130Z 10003MPS 6000 NSC 12/11 Q1014 R08/CLRD70 TEMPO 1000 BR"
"1:00 AM EEST on April 08, 2016","2016","04","08","01","00","Europe/Kiev","10:00 PM GMT on April 07, 2016","2016","04","07","22","00","UTC","11.0","51.8","10.0","50.0","94","10.8","6.7","-9999.0","-9999.0","70","ENE","8.0","5.0","1014","29.95","-999","-999","-9999","-9999","-9999.00","-9999.00","Unknown","unknown","0","0","0","0","0","0","METAR UKKK 072200Z 07003MPS 8000 NSC 11/10 Q1014 R08/CLRD70 TEMPO 1000 BR"
"1:30 AM EEST on April 08, 2016","2016","04","08","01","30","Europe/Kiev","10:30 PM GMT on April 07, 2016","2016","04","07","22","30","UTC","10.0","50.0","9.0","48.2","94","7.2","4.5","-9999.0","-9999.0","100","East","6.0","3.7","1014","29.95","-999","-999","-9999","-9999","-9999.00","-9999.00","Unknown","unknown","0","0","0","0","0","0","METAR UKKK 072230Z 10002MPS 6000 NSC 10/09 Q1014 R08/CLRD70 TEMPO 1000 BR"
"2:00 AM EEST on April 08, 2016","2016","04","08","02","00","Europe/Kiev","11:00 PM GMT on April 07, 2016","2016","04","07","23","00","UTC","12.0","53.6","11.0","51.8","94","7.2","4.5","-9999.0","-9999.0","110","ESE","6.0","3.7","1014","29.95","-999","-999","-9999","-9999","-9999.00","-9999.00","Unknown","unknown","0","0","0","0","0","0","METAR UKKK 072300Z 11002MPS 6000 NSC 12/11 Q1014 R08/CLRD70 TEMPO 1000 BR"
"2:30 AM EEST on April 08, 2016","2016","04","08","02","30","Europe/Kiev","11:30 PM GMT on April 07, 2016","2016","04","07","23","30","UTC","11.0","51.8","11.0","51.8","100","10.8","6.7","-9999.0","-9999.0","90","East","5.0","3.1","1014","29.95","-999","-999","-9999","-9999","-9999.00","-9999.00","Mist","hazy","0","0","0","0","0","0","METAR UKKK 072330Z 09003MPS 5000 BR NSC 11/11 Q1014 R08/CLRD70 TEMPO 0400 FG"
"3:00 AM EEST on April 08, 2016","2016","04","08","03","00","Europe/Kiev","12:00 AM GMT on April 08, 2016","2016","04","08","00","00","UTC","11","52","10","51","93","0.0","0.0","","","","","4","2","1014","29.96","-999","-999","-9999","-9999","","","Mist","hazy","0","0","0","0","0","0","AAXX 08001 33345 31996 50000 10113 20103 39944 40145 54000 71011 85040 555 10009"
"3:00 AM EEST on April 08, 2016","2016","04","08","03","00","Europe/Kiev","12:00 AM GMT on April 08, 2016","2016","04","08","00","00","UTC","11.0","51.8","11.0","51.8","100","10.8","6.7","-9999.0","-9999.0","90","East","3.5","2.2","1014","29.95","-999","-999","-9999","-9999","-9999.00","-9999.00","Mist","hazy","0","0","0","0","0","0","METAR UKKK 080000Z 09003MPS 3500 BR NSC 11/11 Q1014 R08/CLRD70 TEMPO 0400 FG"
"3:30 AM EEST on April 08, 2016","2016","04","08","03","30","Europe/Kiev","12:30 AM GMT on April 08, 2016","2016","04","08","00","30","UTC","10.0","50.0","10.0","50.0","100","7.2","4.5","-9999.0","-9999.0","80","East","1.9","1.2","1014","29.95","-999","-999","-9999","-9999","-9999.00","-9999.00","Mist","hazy","0","0","0","0","0","0","METAR UKKK 080030Z 08002MPS 1900 BR NSC 10/10 Q1014 R08/CLRD70 TEMPO 0400 FG"
"4:00 AM EEST on April 08, 2016","2016","04","08","04","00","Europe/Kiev","1:00 AM GMT on April 08, 2016","2016","04","08","01","00","UTC","10.0","50.0","10.0","50.0","100","10.8","6.7","-9999.0","-9999.0","80","East","2.2","1.4","1014","29.95","-999","-999","-9999","-9999","-9999.00","-9999.00","Mist","hazy","0","0","0","0","0","0","METAR UKKK 080100Z 08003MPS 2200 BR NSC 10/10 Q1014 R08/CLRD70 TEMPO 0400 FG"
"4:30 AM EEST on April 08, 2016","2016","04","08","04","30","Europe/Kiev","1:30 AM GMT on April 08, 2016","2016","04","08","01","30","UTC","10.0","50.0","10.0","50.0","100","10.8","6.7","-9999.0","-9999.0","80","East","2.8","1.7","1014","29.95","-999","-999","-9999","-9999","-9999.00","-9999.00","Mist","hazy","0","0","0","0","0","0","METAR UKKK 080130Z 08003MPS 2800 BR NSC 10/10 Q1014 R08/CLRD70 TEMPO 0400 FG"
"5:00 AM EEST on April 08, 2016","2016","04","08","05","00","Europe/Kiev","2:00 AM GMT on April 08, 2016","2016","04","08","02","00","UTC","11.0","51.8","11.0","51.8","100","10.8","6.7","-9999.0","-9999.0","70","ENE","-9999.0","-9999.0","1014","29.95","-999","-999","-9999","-9999","-9999.00","-9999.00","Mist","hazy","0","0","0","0","0","0","METAR UKKK 080200Z 07003MPS 4900 BR NSC 11/11 Q1014 R08/CLRD70 TEMPO 0400 FG"
"5:30 AM EEST on April 08, 2016","2016","04","08","05","30","Europe/Kiev","2:30 AM GMT on April 08, 2016","2016","04","08","02","30","UTC","10.0","50.0","10.0","50.0","100","10.8","6.7","-9999.0","-9999.0","80","East","-9999.0","-9999.0","1013","29.92","-999","-999","-9999","-9999","-9999.00","-9999.00","Mist","hazy","0","0","0","0","0","0","METAR UKKK 080230Z 08003MPS 3400 BR NSC 10/10 Q1013 R08/CLRD70 TEMPO 0400 FG"
"6:00 AM EEST on April 08, 2016","2016","04","08","06","00","Europe/Kiev","3:00 AM GMT on April 08, 2016","2016","04","08","03","00","UTC","11","52","10","51","94","3.6","2.2","","","50","NE","4","2","1014","29.95","-999","-999","-9999","-9999","","","Mist","hazy","0","0","0","0","0","0","AAXX 08031 33345 41996 60501 10112 20104 39940 40141 58004 71022 86070 555 10008"
"6:00 AM EEST on April 08, 2016","2016","04","08","06","00","Europe/Kiev","3:00 AM GMT on April 08, 2016","2016","04","08","03","00","UTC","11.0","51.8","10.0","50.0","94","10.8","6.7","-9999.0","-9999.0","30","NNE","-9999.0","-9999.0","1014","29.95","-999","-999","-9999","-9999","-9999.00","-9999.00","Mist","hazy","0","0","0","0","0","0","METAR UKKK 080300Z 03003MPS 310V080 3100 BR NSC 11/10 Q1014 R08/CLRD70 TEMPO 0400 FG"
"6:30 AM EEST on April 08, 2016","2016","04","08","06","30","Europe/Kiev","3:30 AM GMT on April 08, 2016","2016","04","08","03","30","UTC","10.0","50.0","9.0","48.2","94","10.8","6.7","-9999.0","-9999.0","90","East","2.5","1.6","1013","29.92","-999","-999","-9999","-9999","-9999.00","-9999.00","Mist","hazy","0","0","0","0","0","0","METAR UKKK 080330Z 09003MPS 2500 BR NSC 10/09 Q1013 R26/190060 NOSIG"
"7:00 AM EEST on April 08, 2016","2016","04","08","07","00","Europe/Kiev","4:00 AM GMT on April 08, 2016","2016","04","08","04","00","UTC","11.0","51.8","11.0","51.8","100","14.4","8.9","-9999.0","-9999.0","90","East","3.0","1.9","1013","29.92","-999","-999","-9999","-9999","-9999.00","-9999.00","Mist","hazy","0","0","0","0","0","0","METAR UKKK 080400Z 09004MPS 3000 BR NSC 11/11 Q1013 R08/190060 NOSIG"
"7:30 AM EEST on April 08, 2016","2016","04","08","07","30","Europe/Kiev","4:30 AM GMT on April 08, 2016","2016","04","08","04","30","UTC","11.0","51.8","11.0","51.8","100","10.8","6.7","-9999.0","-9999.0","80","East","-9999.0","-9999.0","1013","29.92","-999","-999","-9999","-9999","-9999.00","-9999.00","Mist","hazy","0","0","0","0","0","0","METAR UKKK 080430Z 08003MPS 3900 BR NSC 11/11 Q1013 R08/190060 NOSIG"
"8:00 AM EEST on April 08, 2016","2016","04","08","08","00","Europe/Kiev","5:00 AM GMT on April 08, 2016","2016","04","08","05","00","UTC","12.0","53.6","11.0","51.8","94","10.8","6.7","-9999.0","-9999.0","70","ENE","-9999.0","-9999.0","1013","29.92","-999","-999","-9999","-9999","-9999.00","-9999.00","Mist","hazy","0","0","0","0","0","0","METAR UKKK 080500Z 07003MPS 4100 BR NSC 12/11 Q1013 R08/190060 TEMPO 2000 BR"
"8:30 AM EEST on April 08, 2016","2016","04","08","08","30","Europe/Kiev","5:30 AM GMT on April 08, 2016","2016","04","08","05","30","UTC","12.0","53.6","11.0","51.8","94","10.8","6.7","-9999.0","-9999.0","60","ENE","-9999.0","-9999.0","1013","29.92","-999","-999","-9999","-9999","-9999.00","-9999.00","Mist","hazy","0","0","0","0","0","0","METAR UKKK 080530Z 06003MPS 4800 BR NSC 12/11 Q1013 R08/CLRD70 TEMPO 2000 BR"
"9:00 AM EEST on April 08, 2016","2016","04","08","09","00","Europe/Kiev","6:00 AM GMT on April 08, 2016","2016","04","08","06","00","UTC","13","55","10","51","80","7.2","4.5","","","80","East","4","2","1014","29.94","-999","-999","-9999","-9999","","","Mist","hazy","0","0","0","0","0","0","AAXX 08061 33345 31996 00802 10126 20103 39938 40138 57002 71011 333 20105 555 10018"
"9:00 AM EEST on April 08, 2016","2016","04","08","09","00","Europe/Kiev","6:00 AM GMT on April 08, 2016","2016","04","08","06","00","UTC","13.0","55.4","11.0","51.8","88","14.4","8.9","-9999.0","-9999.0","80","East","5.0","3.1","1013","29.92","-999","-999","-9999","-9999","-9999.00","-9999.00","Mist","hazy","0","0","0","0","0","0","METAR UKKK 080600Z 08004MPS 5000 BR NSC 13/11 Q1013 R08/CLRD70 TEMPO 2000 BR"
"9:30 AM EEST on April 08, 2016","2016","04","08","09","30","Europe/Kiev","6:30 AM GMT on April 08, 2016","2016","04","08","06","30","UTC","14.0","57.2","11.0","51.8","82","14.4","8.9","-9999.0","-9999.0","100","East","7.0","4.3","1013","29.92","-999","-999","-9999","-9999","-9999.00","-9999.00","Unknown","unknown","0","0","0","0","0","0","METAR UKKK 080630Z 10004MPS 7000 NSC 14/11 Q1013 R08/CLRD70 NOSIG"
"10:00 AM EEST on April 08, 2016","2016","04","08","10","00","Europe/Kiev","7:00 AM GMT on April 08, 2016","2016","04","08","07","00","UTC","15.0","59.0","11.0","51.8","77","10.8","6.7","-9999.0","-9999.0","110","ESE","9.0","5.6","1013","29.92","-999","-999","-9999","-9999","-9999.00","-9999.00","Unknown","unknown","0","0","0","0","0","0","METAR UKKK 080700Z 11003MPS 080V140 9000 NSC 15/11 Q1013 R08/CLRD70 NOSIG"
"10:30 AM EEST on April 08, 2016","2016","04","08","10","30","Europe/Kiev","7:30 AM GMT on April 08, 2016","2016","04","08","07","30","UTC","17.0","62.6","11.0","51.8","68","14.4","8.9","-9999.0","-9999.0","90","East","-9999.0","-9999.0","1013","29.92","-999","-999","-9999","-9999","-9999.00","-9999.00","Clear","clear","0","0","0","0","0","0","METAR UKKK 080730Z 09004MPS CAVOK 17/11 Q1013 R08/CLRD70 NOSIG"
"11:00 AM EEST on April 08, 2016","2016","04","08","11","00","Europe/Kiev","8:00 AM GMT on April 08, 2016","2016","04","08","08","00","UTC","17.0","62.6","10.0","50.0","63","10.8","6.7","-9999.0","-9999.0","90","East","-9999.0","-9999.0","1013","29.92","-999","-999","-9999","-9999","-9999.00","-9999.00","Clear","clear","0","0","0","0","0","0","METAR UKKK 080800Z 09003MPS CAVOK 17/10 Q1013 R08/CLRD70 NOSIG"
"11:30 AM EEST on April 08, 2016","2016","04","08","11","30","Europe/Kiev","8:30 AM GMT on April 08, 2016","2016","04","08","08","30","UTC","19.0","66.2","10.0","50.0","56","7.2","4.5","-9999.0","-9999.0","100","East","-9999.0","-9999.0","1013","29.92","-999","-999","-9999","-9999","-9999.00","-9999.00","Clear","clear","0","0","0","0","0","0","METAR UKKK 080830Z 10002MPS 060V150 CAVOK 19/10 Q1013 R08/CLRD70 NOSIG"
"12:00 PM EEST on April 08, 2016","2016","04","08","12","00","Europe/Kiev","9:00 AM GMT on April 08, 2016","2016","04","08","09","00","UTC","20","68","10","49","40","10.8","6.7","","","140","SE","20","12","1013","29.91","-999","-999","-9999","-9999","","","Scattered Clouds","partlycloudy","0","0","0","0","0","0","AAXX 08091 33345 42998 41403 10202 20096 39934 40128 57004 82089 555 10037"
"12:00 PM EEST on April 08, 2016","2016","04","08","12","00","Europe/Kiev","9:00 AM GMT on April 08, 2016","2016","04","08","09","00","UTC","20.0","68.0","9.0","48.2","49","7.2","4.5","-9999.0","-9999.0","130","SE","-9999.0","-9999.0","1013","29.92","-999","-999","-9999","-9999","-9999.00","-9999.00","Clear","clear","0","0","0","0","0","0","METAR UKKK 080900Z 13002MPS 080V220 CAVOK 20/09 Q1013 R08/CLRD70 NOSIG"
"12:30 PM EEST on April 08, 2016","2016","04","08","12","30","Europe/Kiev","9:30 AM GMT on April 08, 2016","2016","04","08","09","30","UTC","21.0","69.8","10.0","50.0","49","18.0","11.2","-9999.0","-9999.0","120","ESE","-9999.0","-9999.0","1012","29.89","-999","-999","-9999","-9999","-9999.00","-9999.00","Clear","clear","0","0","0","0","0","0","METAR UKKK 080930Z 12005MPS 100V180 CAVOK 21/10 Q1012 R08/CLRD70 NOSIG"
"1:00 PM EEST on April 08, 2016","2016","04","08","13","00","Europe/Kiev","10:00 AM GMT on April 08, 2016","2016","04","08","10","00","UTC","22.0","71.6","10.0","50.0","46","14.4","8.9","-9999.0","-9999.0","130","SE","-9999.0","-9999.0","1012","29.89","-999","-999","-9999","-9999","-9999.00","-9999.00","Clear","clear","0","0","0","0","0","0","METAR UKKK 081000Z 13004MPS 070V180 CAVOK 22/10 Q1012 R08/CLRD70 NOSIG"
"1:30 PM EEST on April 08, 2016","2016","04","08","13","30","Europe/Kiev","10:30 AM GMT on April 08, 2016","2016","04","08","10","30","UTC","22.0","71.6","9.0","48.2","43","14.4","8.9","-9999.0","-9999.0","120","ESE","-9999.0","-9999.0","1012","29.89","-999","-999","-9999","-9999","-9999.00","-9999.00","Clear","clear","0","0","0","0","0","0","METAR UKKK 081030Z 12004MPS 070V170 CAVOK 22/09 Q1012 R08/CLRD70 NOSIG"
"2:00 PM EEST on April 08, 2016","2016","04","08","14","00","Europe/Kiev","11:00 AM GMT on April 08, 2016","2016","04","08","11","00","UTC","23.0","73.4","9.0","48.2","41","14.4","8.9","-9999.0","-9999.0","120","ESE","9.0","5.6","1011","29.86","-999","-999","-9999","-9999","-9999.00","-9999.00","Unknown","unknown","0","0","0","0","0","0","METAR UKKK 081100Z 12004MPS 080V180 9000 NSC 23/09 Q1011 R08/CLRD70 NOSIG"
"2:30 PM EEST on April 08, 2016","2016","04","08","14","30","Europe/Kiev","11:30 AM GMT on April 08, 2016","2016","04","08","11","30","UTC","23.0","73.4","8.0","46.4","38","18.0","11.2","-9999.0","-9999.0","120","ESE","-9999.0","-9999.0","1011","29.86","-999","-999","-9999","-9999","-9999.00","-9999.00","Clear","clear","0","0","0","0","0","0","METAR UKKK 081130Z 12005MPS 080V160 CAVOK 23/08 Q1011 R08/CLRD70 NOSIG"
"3:00 PM EEST on April 08, 2016","2016","04","08","15","00","Europe/Kiev","12:00 PM GMT on April 08, 2016","2016","04","08","12","00","UTC","25","76","7","45","22","14.4","8.9","","","150","SSE","20","12","1010","29.83","-999","-999","-9999","-9999","","","Clear","clear","0","0","0","0","0","0","AAXX 08121 33345 32998 51504 10247 20070 39911 40102 58023 80006 555 10040"
"3:00 PM EEST on April 08, 2016","2016","04","08","15","00","Europe/Kiev","12:00 PM GMT on April 08, 2016","2016","04","08","12","00","UTC","23.0","73.4","8.0","46.4","38","18.0","11.2","-9999.0","-9999.0","110","ESE","9.0","5.6","1010","29.83","-999","-999","-9999","-9999","-9999.00","-9999.00","Unknown","unknown","0","0","0","0","0","0","METAR UKKK 081200Z 11005MPS 080V180 9000 NSC 23/08 Q1010 R08/CLRD70 NOSIG"
"3:30 PM EEST on April 08, 2016","2016","04","08","15","30","Europe/Kiev","12:30 PM GMT on April 08, 2016","2016","04","08","12","30","UTC","24.0","75.2","7.0","44.6","34","18.0","11.2","-9999.0","-9999.0","120","ESE","-9999.0","-9999.0","1010","29.83","-999","-999","-9999","-9999","-9999.00","-9999.00","Clear","clear","0","0","0","0","0","0","METAR UKKK 081230Z 12005MPS 090V150 CAVOK 24/07 Q1010 R08/CLRD70 NOSIG"
"4:00 PM EEST on April 08, 2016","2016","04","08","16","00","Europe/Kiev","1:00 PM GMT on April 08, 2016","2016","04","08","13","00","UTC","24.0","75.2","8.0","46.4","36","14.4","8.9","-9999.0","-9999.0","120","ESE","-9999.0","-9999.0","1010","29.83","-999","-999","-9999","-9999","-9999.00","-9999.00","Clear","clear","0","0","0","0","0","0","METAR UKKK 081300Z 12004MPS 080V170 CAVOK 24/08 Q1010 R08/CLRD70 NOSIG"
"4:30 PM EEST on April 08, 2016","2016","04","08","16","30","Europe/Kiev","1:30 PM GMT on April 08, 2016","2016","04","08","13","30","UTC","24.0","75.2","8.0","46.4","36","14.4","8.9","-9999.0","-9999.0","120","ESE","-9999.0","-9999.0","1010","29.83","-999","-999","-9999","-9999","-9999.00","-9999.00","Clear","clear","0","0","0","0","0","0","METAR UKKK 081330Z 12004MPS 090V160 CAVOK 24/08 Q1010 R08/CLRD70 NOSIG"
"5:00 PM EEST on April 08, 2016","2016","04","08","17","00","Europe/Kiev","2:00 PM GMT on April 08, 2016","2016","04","08","14","00","UTC","24.0","75.2","8.0","46.4","36","18.0","11.2","-9999.0","-9999.0","120","ESE","-9999.0","-9999.0","1009","29.80","-999","-999","-9999","-9999","-9999.00","-9999.00","Clear","clear","0","0","0","0","0","0","METAR UKKK 081400Z 12005MPS CAVOK 24/08 Q1009 R08/CLRD70 NOSIG"
"5:30 PM EEST on April 08, 2016","2016","04","08","17","30","Europe/Kiev","2:30 PM GMT on April 08, 2016","2016","04","08","14","30","UTC","24.0","75.2","8.0","46.4","36","14.4","8.9","-9999.0","-9999.0","150","SSE","-9999.0","-9999.0","1009","29.80","-999","-999","-9999","-9999","-9999.00","-9999.00","Clear","clear","0","0","0","0","0","0","METAR UKKK 081430Z 15004MPS 120V190 CAVOK 24/08 Q1009 R08/CLRD70 NOSIG"
"6:00 PM EEST on April 08, 2016","2016","04","08","18","00","Europe/Kiev","3:00 PM GMT on April 08, 2016","2016","04","08","15","00","UTC","23","74","8","47","27","10.8","6.7","","","160","SSE","20","12","1009","29.79","-999","-999","-9999","-9999","","","Mostly Cloudy","mostlycloudy","0","0","0","0","0","0","AAXX 08151 33345 42998 71603 10233 20081 39895 40087 57016 87070 555 10025"
"6:00 PM EEST on April 08, 2016","2016","04","08","18","00","Europe/Kiev","3:00 PM GMT on April 08, 2016","2016","04","08","15","00","UTC","24.0","75.2","8.0","46.4","36","10.8","6.7","-9999.0","-9999.0","140","SE","-9999.0","-9999.0","1009","29.80","-999","-999","-9999","-9999","-9999.00","-9999.00","Clear","clear","0","0","0","0","0","0","METAR UKKK 081500Z 14003MPS 090V200 CAVOK 24/08 Q1009 R08/CLRD70 NOSIG"
"6:30 PM EEST on April 08, 2016","2016","04","08","18","30","Europe/Kiev","3:30 PM GMT on April 08, 2016","2016","04","08","15","30","UTC","23.0","73.4","9.0","48.2","41","7.2","4.5","-9999.0","-9999.0","140","SE","-9999.0","-9999.0","1009","29.80","-999","-999","-9999","-9999","-9999.00","-9999.00","Clear","clear","0","0","0","0","0","0","METAR UKKK 081530Z 14002MPS 100V210 CAVOK 23/09 Q1009 R08/CLRD70 NOSIG"
"7:00 PM EEST on April 08, 2016","2016","04","08","19","00","Europe/Kiev","4:00 PM GMT on April 08, 2016","2016","04","08","16","00","UTC","22.0","71.6","9.0","48.2","43","7.2","4.5","-9999.0","-9999.0","120","ESE","-9999.0","-9999.0","1009","29.80","-999","-999","-9999","-9999","-9999.00","-9999.00","Clear","clear","0","0","0","0","0","0","METAR UKKK 081600Z 12002MPS 100V160 CAVOK 22/09 Q1009 R08/CLRD70 NOSIG"
"7:30 PM EEST on April 08, 2016","2016","04","08","19","30","Europe/Kiev","4:30 PM GMT on April 08, 2016","2016","04","08","16","30","UTC","21.0","69.8","9.0","48.2","46","10.8","6.7","-9999.0","-9999.0","120","ESE","-9999.0","-9999.0","1009","29.80","-999","-999","-9999","-9999","-9999.00","-9999.00","Clear","clear","0","0","0","0","0","0","METAR UKKK 081630Z 12003MPS CAVOK 21/09 Q1009 R08/CLRD70 NOSIG"
"8:00 PM EEST on April 08, 2016","2016","04","08","20","00","Europe/Kiev","5:00 PM GMT on April 08, 2016","2016","04","08","17","00","UTC","21.0","69.8","9.0","48.2","46","7.2","4.5","-9999.0","-9999.0","130","SE","-9999.0","-9999.0","1009","29.80","-999","-999","-9999","-9999","-9999.00","-9999.00","Clear","clear","0","0","0","0","0","0","METAR UKKK 081700Z 13002MPS CAVOK 21/09 Q1009 R08/CLRD70 NOSIG"
"8:30 PM EEST on April 08, 2016","2016","04","08","20","30","Europe/Kiev","5:30 PM GMT on April 08, 2016","2016","04","08","17","30","UTC","20.0","68.0","9.0","48.2","49","10.8","6.7","-9999.0","-9999.0","110","ESE","-9999.0","-9999.0","1009","29.80","-999","-999","-9999","-9999","-9999.00","-9999.00","Clear","clear","0","0","0","0","0","0","METAR UKKK 081730Z 11003MPS CAVOK 20/09 Q1009 R08/CLRD70 NOSIG"
"9:00 PM EEST on April 08, 2016","2016","04","08","21","00","Europe/Kiev","6:00 PM GMT on April 08, 2016","2016","04","08","18","00","UTC","19","67","8","47","38","10.8","6.7","","","160","SSE","20","12","1009","29.80","-999","-999","-9999","-9999","","","Overcast","cloudy","0","0","0","0","0","0","AAXX 08181 33345 32998 81603 10192 20085 39896 40090 53001 8807/ 333 10251 555 10015"
"9:00 PM EEST on April 08, 2016","2016","04","08","21","00","Europe/Kiev","6:00 PM GMT on April 08, 2016","2016","04","08","18","00","UTC","20.0","68.0","9.0","48.2","49","14.4","8.9","-9999.0","-9999.0","130","SE","-9999.0","-9999.0","1009","29.80","-999","-999","-9999","-9999","-9999.00","-9999.00","Clear","clear","0","0","0","0","0","0","METAR UKKK 081800Z 13004MPS CAVOK 20/09 Q1009 R08/CLRD70 NOSIG"
"9:30 PM EEST on April 08, 2016","2016","04","08","21","30","Europe/Kiev","6:30 PM GMT on April 08, 2016","2016","04","08","18","30","UTC","19.0","66.2","9.0","48.2","52","10.8","6.7","-9999.0","-9999.0","140","SE","-9999.0","-9999.0","1009","29.80","-999","-999","-9999","-9999","-9999.00","-9999.00","Clear","clear","0","0","0","0","0","0","METAR UKKK 081830Z 14003MPS CAVOK 19/09 Q1009 R08/CLRD70 NOSIG"
"10:00 PM EEST on April 08, 2016","2016","04","08","22","00","Europe/Kiev","7:00 PM GMT on April 08, 2016","2016","04","08","19","00","UTC","19.0","66.2","9.0","48.2","52","7.2","4.5","-9999.0","-9999.0","150","SSE","-9999.0","-9999.0","1009","29.80","-999","-999","-9999","-9999","-9999.00","-9999.00","Clear","clear","0","0","0","0","0","0","METAR UKKK 081900Z 15002MPS 100V190 CAVOK 19/09 Q1009 R08/CLRD70 NOSIG"
"10:30 PM EEST on April 08, 2016","2016","04","08","22","30","Europe/Kiev","7:30 PM GMT on April 08, 2016","2016","04","08","19","30","UTC","20.0","68.0","8.0","46.4","46","7.2","4.5","-9999.0","-9999.0","180","South","-9999.0","-9999.0","1009","29.80","-999","-999","-9999","-9999","-9999.00","-9999.00","Clear","clear","0","0","0","0","0","0","METAR UKKK 081930Z 18002MPS CAVOK 20/08 Q1009 R08/CLRD70 NOSIG"
"11:00 PM EEST on April 08, 2016","2016","04","08","23","00","Europe/Kiev","8:00 PM GMT on April 08, 2016","2016","04","08","20","00","UTC","19.0","66.2","8.0","46.4","49","7.2","4.5","-9999.0","-9999.0","180","South","-9999.0","-9999.0","1009","29.80","-999","-999","-9999","-9999","-9999.00","-9999.00","Clear","clear","0","0","0","0","0","0","METAR UKKK 082000Z 18002MPS 110V220 CAVOK 19/08 Q1009 R08/CLRD70 NOSIG"
"11:30 PM EEST on April 08, 2016","2016","04","08","23","30","Europe/Kiev","8:30 PM GMT on April 08, 2016","2016","04","08","20","30","UTC","18.0","64.4","7.0","44.6","49","10.8","6.7","-9999.0","-9999.0","190","South","9.0","5.6","1009","29.80","-999","-999","-9999","-9999","-9999.00","-9999.00","Unknown","unknown","0","0","0","0","0","0","METAR UKKK 082030Z 19003MPS 140V230 9000 NSC 18/07 Q1009 R08/CLRD70 NOSIG"
"12:00 AM EEST on April 09, 2016","2016","04","09","00","00","Europe/Kiev","9:00 PM GMT on April 08, 2016","2016","04","08","21","00","UTC","18","64","6","43","35","14.4","8.9","","","190","South","20","12","1009","29.80","-999","-999","-9999","-9999","","","Mostly Cloudy","mostlycloudy","0","0","0","0","0","0","AAXX 08211 33345 42998 71904 10178 20063 39894 40089 58002 87070 555 10012"
"12:00 AM EEST on April 09, 2016","2016","04","09","00","00","Europe/Kiev","9:00 PM GMT on April 08, 2016","2016","04","08","21","00","UTC","18.0","64.4","6.0","42.8","45","10.8","6.7","-9999.0","-9999.0","190","South","-9999.0","-9999.0","1009","29.80","-999","-999","-9999","-9999","-9999.00","-9999.00","Clear","clear","0","0","0","0","0","0","METAR UKKK 082100Z 19003MPS 150V230 CAVOK 18/06 Q1009 R08/CLRD70 NOSIG"
"12:30 AM EEST on April 09, 2016","2016","04","09","00","30","Europe/Kiev","9:30 PM GMT on April 08, 2016","2016","04","08","21","30","UTC","17.0","62.6","6.0","42.8","48","7.2","4.5","-9999.0","-9999.0","190","South","-9999.0","-9999.0","1009","29.80","-999","-999","-9999","-9999","-9999.00","-9999.00","Clear","clear","0","0","0","0","0","0","METAR UKKK 082130Z 19002MPS 140V230 CAVOK 17/06 Q1009 R08/CLRD70 NOSIG"
"1:00 AM EEST on April 09, 2016","2016","04","09","01","00","Europe/Kiev","10:00 PM GMT on April 08, 2016","2016","04","08","22","00","UTC","17.0","62.6","6.0","42.8","48","7.2","4.5","-9999.0","-9999.0","200","SSW","-9999.0","-9999.0","1009","29.80","-999","-999","-9999","-9999","-9999.00","-9999.00","Clear","clear","0","0","0","0","0","0","METAR UKKK 082200Z 20002MPS 160V260 CAVOK 17/06 Q1009 R08/CLRD70 NOSIG"
"1:30 AM EEST on April 09, 2016","2016","04","09","01","30","Europe/Kiev","10:30 PM GMT on April 08, 2016","2016","04","08","22","30","UTC","16.0","60.8","5.0","41.0","48","7.2","4.5","-9999.0","-9999.0","190","South","-9999.0","-9999.0","1009","29.80","-999","-999","-9999","-9999","-9999.00","-9999.00","Clear","clear","0","0","0","0","0","0","METAR UKKK 082230Z 19002MPS 150V240 CAVOK 16/05 Q1009 R08/CLRD70 NOSIG"
"2:00 AM EEST on April 09, 2016","2016","04","09","02","00","Europe/Kiev","11:00 PM GMT on April 08, 2016","2016","04","08","23","00","UTC","16.0","60.8","5.0","41.0","48","7.2","4.5","-9999.0","-9999.0","190","South","-9999.0","-9999.0","1009","29.80","-999","-999","-9999","-9999","-9999.00","-9999.00","Clear","clear","0","0","0","0","0","0","METAR UKKK 082300Z 19002MPS 150V250 CAVOK 16/05 Q1009 R08/CLRD70 NOSIG"
"2:30 AM EEST on April 09, 2016","2016","04","09","02","30","Europe/Kiev","11:30 PM GMT on April 08, 2016","2016","04","08","23","30","UTC","16.0","60.8","5.0","41.0","48","7.2","4.5","-9999.0","-9999.0","170","South","-9999.0","-9999.0","1009","29.80","-999","-999","-9999","-9999","-9999.00","-9999.00","Clear","clear","0","0","0","0","0","0","METAR UKKK 082330Z 17002MPS 140V220 CAVOK 16/05 Q1009 R08/CLRD70 NOSIG"
"3:00 AM EEST on April 09, 2016","2016","04","09","03","00","Europe/Kiev","12:00 AM GMT on April 09, 2016","2016","04","09","00","00","UTC","14","58","7","44","49","3.6","2.2","","","150","SSE","20","12","1009","29.80","-999","-999","-9999","-9999","","","Overcast","cloudy","0","0","0","0","0","0","AAXX 09001 33345 32998 81501 10142 20066 39891 40089 57003 8802/ 555 10011"
"3:00 AM EEST on April 09, 2016","2016","04","09","03","00","Europe/Kiev","12:00 AM GMT on April 09, 2016","2016","04","09","00","00","UTC","16.0","60.8","5.0","41.0","48","7.2","4.5","-9999.0","-9999.0","180","South","-9999.0","-9999.0","1008","29.77","-999","-999","-9999","-9999","-9999.00","-9999.00","Clear","clear","0","0","0","0","0","0","METAR UKKK 090000Z 18002MPS 140V200 CAVOK 16/05 Q1008 R08/CLRD70 NOSIG"
"3:30 AM EEST on April 09, 2016","2016","04","09","03","30","Europe/Kiev","12:30 AM GMT on April 09, 2016","2016","04","09","00","30","UTC","15.0","59.0","4.0","39.2","48","3.6","2.2","-9999.0","-9999.0","0","Variable","-9999.0","-9999.0","1008","29.77","-999","-999","-9999","-9999","-9999.00","-9999.00","Clear","clear","0","0","0","0","0","0","METAR UKKK 090030Z VRB01MPS CAVOK 15/04 Q1008 R08/CLRD70 NOSIG"
"4:00 AM EEST on April 09, 2016","2016","04","09","04","00","Europe/Kiev","1:00 AM GMT on April 09, 2016","2016","04","09","01","00","UTC","14.0","57.2","5.0","41.0","55","7.2","4.5","-9999.0","-9999.0","130","SE","-9999.0","-9999.0","1008","29.77","-999","-999","-9999","-9999","-9999.00","-9999.00","Clear","clear","0","0","0","0","0","0","METAR UKKK 090100Z 13002MPS CAVOK 14/05 Q1008 R08/CLRD70 NOSIG"
"4:30 AM EEST on April 09, 2016","2016","04","09","04","30","Europe/Kiev","1:30 AM GMT on April 09, 2016","2016","04","09","01","30","UTC","14.0","57.2","5.0","41.0","55","7.2","4.5","-9999.0","-9999.0","120","ESE","-9999.0","-9999.0","1008","29.77","-999","-999","-9999","-9999","-9999.00","-9999.00","Clear","clear","0","0","0","0","0","0","METAR UKKK 090130Z 12002MPS CAVOK 14/05 Q1008 R08/CLRD70 NOSIG"
"5:00 AM EEST on April 09, 2016","2016","04","09","05","00","Europe/Kiev","2:00 AM GMT on April 09, 2016","2016","04","09","02","00","UTC","12.0","53.6","6.0","42.8","67","7.2","4.5","-9999.0","-9999.0","90","East","-9999.0","-9999.0","1008","29.77","-999","-999","-9999","-9999","-9999.00","-9999.00","Clear","clear","0","0","0","0","0","0","METAR UKKK 090200Z 09002MPS CAVOK 12/06 Q1008 R08/CLRD70 NOSIG"
"5:30 AM EEST on April 09, 2016","2016","04","09","05","30","Europe/Kiev","2:30 AM GMT on April 09, 2016","2016","04","09","02","30","UTC","11.0","51.8","6.0","42.8","71","7.2","4.5","-9999.0","-9999.0","80","East","-9999.0","-9999.0","1008","29.77","-999","-999","-9999","-9999","-9999.00","-9999.00","Clear","clear","0","0","0","0","0","0","METAR UKKK 090230Z 08002MPS CAVOK 11/06 Q1008 R08/CLRD70 NOSIG"
"6:00 AM EEST on April 09, 2016","2016","04","09","06","00","Europe/Kiev","3:00 AM GMT on April 09, 2016","2016","04","09","03","00","UTC","13","55","5","41","49","7.2","4.5","","","150","SSE","20","12","1008","29.78","-999","-999","-9999","-9999","","","Overcast","cloudy","0","0","0","0","0","0","AAXX 09031 33345 42998 81502 10129 20052 39884 40083 57007 8802/ 555 10010"
"6:00 AM EEST on April 09, 2016","2016","04","09","06","00","Europe/Kiev","3:00 AM GMT on April 09, 2016","2016","04","09","03","00","UTC","12.0","53.6","6.0","42.8","67","7.2","4.5","-9999.0","-9999.0","100","East","-9999.0","-9999.0","1008","29.77","-999","-999","-9999","-9999","-9999.00","-9999.00","Clear","clear","0","0","0","0","0","0","METAR UKKK 090300Z 10002MPS CAVOK 12/06 Q1008 R08/CLRD70 NOSIG"
"6:30 AM EEST on April 09, 2016","2016","04","09","06","30","Europe/Kiev","3:30 AM GMT on April 09, 2016","2016","04","09","03","30","UTC","14.0","57.2","5.0","41.0","55","7.2","4.5","-9999.0","-9999.0","120","ESE","-9999.0","-9999.0","1008","29.77","-999","-999","-9999","-9999","-9999.00","-9999.00","Clear","clear","0","0","0","0","0","0","METAR UKKK 090330Z 12002MPS 090V150 CAVOK 14/05 Q1008 R08/CLRD70 NOSIG"
"7:00 AM EEST on April 09, 2016","2016","04","09","07","00","Europe/Kiev","4:00 AM GMT on April 09, 2016","2016","04","09","04","00","UTC","13.0","55.4","5.0","41.0","58","7.2","4.5","-9999.0","-9999.0","100","East","-9999.0","-9999.0","1008","29.77","-999","-999","-9999","-9999","-9999.00","-9999.00","Clear","clear","0","0","0","0","0","0","METAR UKKK 090400Z 10002MPS CAVOK 13/05 Q1008 R08/CLRD70 NOSIG"
"7:30 AM EEST on April 09, 2016","2016","04","09","07","30","Europe/Kiev","4:30 AM GMT on April 09, 2016","2016","04","09","04","30","UTC","14.0","57.2","5.0","41.0","55","10.8","6.7","-9999.0","-9999.0","120","ESE","-9999.0","-9999.0","1008","29.77","-999","-999","-9999","-9999","-9999.00","-9999.00","Clear","clear","0","0","0","0","0","0","METAR UKKK 090430Z 12003MPS 090V150 CAVOK 14/05 Q1008 R08/CLRD70 NOSIG"
"8:00 AM EEST on April 09, 2016","2016","04","09","08","00","Europe/Kiev","5:00 AM GMT on April 09, 2016","2016","04","09","05","00","UTC","14.0","57.2","5.0","41.0","55","14.4","8.9","-9999.0","-9999.0","130","SE","-9999.0","-9999.0","1008","29.77","-999","-999","-9999","-9999","-9999.00","-9999.00","Clear","clear","0","0","0","0","0","0","METAR UKKK 090500Z 13004MPS CAVOK 14/05 Q1008 R08/CLRD70 NOSIG"
"8:30 AM EEST on April 09, 2016","2016","04","09","08","30","Europe/Kiev","5:30 AM GMT on April 09, 2016","2016","04","09","05","30","UTC","14.0","57.2","5.0","41.0","55","14.4","8.9","-9999.0","-9999.0","130","SE","-9999.0","-9999.0","1008","29.77","-999","-999","-9999","-9999","-9999.00","-9999.00","Clear","clear","0","0","0","0","0","0","METAR UKKK 090530Z 13004MPS 100V160 CAVOK 14/05 Q1008 R08/CLRD70 NOSIG"
"9:00 AM EEST on April 09, 2016","2016","04","09","09","00","Europe/Kiev","6:00 AM GMT on April 09, 2016","2016","04","09","06","00","UTC","14","57","5","41","45","10.8","6.7","","","150","SSE","20","12","1008","29.78","-999","-999","-9999","-9999","","","Overcast","cloudy","0","0","0","0","0","0","AAXX 09061 33345 32998 81503 10137 20052 39887 40085 53003 8802/ 333 20127 555 10014"
"9:00 AM EEST on April 09, 2016","2016","04","09","09","00","Europe/Kiev","6:00 AM GMT on April 09, 2016","2016","04","09","06","00","UTC","14.0","57.2","5.0","41.0","55","14.4","8.9","-9999.0","-9999.0","130","SE","-9999.0","-9999.0","1008","29.77","-999","-999","-9999","-9999","-9999.00","-9999.00","Clear","clear","0","0","0","0","0","0","METAR UKKK 090600Z 13004MPS CAVOK 14/05 Q1008 R08/CLRD70 NOSIG"
"9:30 AM EEST on April 09, 2016","2016","04","09","09","30","Europe/Kiev","6:30 AM GMT on April 09, 2016","2016","04","09","06","30","UTC","15.0","59.0","5.0","41.0","51","10.8","6.7","-9999.0","-9999.0","130","SE","-9999.0","-9999.0","1008","29.77","-999","-999","-9999","-9999","-9999.00","-9999.00","Clear","clear","0","0","0","0","0","0","METAR UKKK 090630Z 13003MPS 100V170 CAVOK 15/05 Q1008 R08/CLRD70 NOSIG"
"10:00 AM EEST on April 09, 2016","2016","04","09","10","00","Europe/Kiev","7:00 AM GMT on April 09, 2016","2016","04","09","07","00","UTC","15.0","59.0","5.0","41.0","51","14.4","8.9","-9999.0","-9999.0","130","SE","-9999.0","-9999.0","1008","29.77","-999","-999","-9999","-9999","-9999.00","-9999.00","Clear","clear","0","0","0","0","0","0","METAR UKKK 090700Z 13004MPS 090V170 CAVOK 15/05 Q1008 R08/CLRD70 NOSIG"
"10:30 AM EEST on April 09, 2016","2016","04","09","10","30","Europe/Kiev","7:30 AM GMT on April 09, 2016","2016","04","09","07","30","UTC","15.0","59.0","5.0","41.0","51","14.4","8.9","-9999.0","-9999.0","130","SE","-9999.0","-9999.0","1008","29.77","-999","-999","-9999","-9999","-9999.00","-9999.00","Clear","clear","0","0","0","0","0","0","METAR UKKK 090730Z 13004MPS 100V170 CAVOK 15/05 Q1008 R08/CLRD70 NOSIG"
"11:00 AM EEST on April 09, 2016","2016","04","09","11","00","Europe/Kiev","8:00 AM GMT on April 09, 2016","2016","04","09","08","00","UTC","16.0","60.8","5.0","41.0","48","14.4","8.9","-9999.0","-9999.0","130","SE","-9999.0","-9999.0","1008","29.77","-999","-999","-9999","-9999","-9999.00","-9999.00","Clear","clear","0","0","0","0","0","0","METAR UKKK 090800Z 13004MPS 100V170 CAVOK 16/05 Q1008 R08/CLRD70 NOSIG"
"11:30 AM EEST on April 09, 2016","2016","04","09","11","30","Europe/Kiev","8:30 AM GMT on April 09, 2016","2016","04","09","08","30","UTC","17.0","62.6","6.0","42.8","48","18.0","11.2","-9999.0","-9999.0","130","SE","-9999.0","-9999.0","1008","29.77","-999","-999","-9999","-9999","-9999.00","-9999.00","Clear","clear","0","0","0","0","0","0","METAR UKKK 090830Z 13005MPS 110V170 CAVOK 17/06 Q1008 R08/CLRD70 NOSIG"
"12:00 PM EEST on April 09, 2016","2016","04","09","12","00","Europe/Kiev","9:00 AM GMT on April 09, 2016","2016","04","09","09","00","UTC","17","63","6","42","34","10.8","6.7","","","150","SSE","20","12","1008","29.77","-999","-999","-9999","-9999","","","Overcast","cloudy","0","0","0","0","0","0","AAXX 09091 33345 42998 81503 10172 20055 39885 40081 58002 8807/ 555 10025"
"12:00 PM EEST on April 09, 2016","2016","04","09","12","00","Europe/Kiev","9:00 AM GMT on April 09, 2016","2016","04","09","09","00","UTC","18.0","64.4","6.0","42.8","45","14.4","8.9","-9999.0","-9999.0","140","SE","-9999.0","-9999.0","1008","29.77","-999","-999","-9999","-9999","-9999.00","-9999.00","Clear","clear","0","0","0","0","0","0","METAR UKKK 090900Z 14004MPS 100V180 CAVOK 18/06 Q1008 R08/CLRD70 NOSIG"
"12:30 PM EEST on April 09, 2016","2016","04","09","12","30","Europe/Kiev","9:30 AM GMT on April 09, 2016","2016","04","09","09","30","UTC","18.0","64.4","6.0","42.8","45","14.4","8.9","-9999.0","-9999.0","130","SE","-9999.0","-9999.0","1007","29.74","-999","-999","-9999","-9999","-9999.00","-9999.00","Clear","clear","0","0","0","0","0","0","METAR UKKK 090930Z 13004MPS 100V160 CAVOK 18/06 Q1007 R08/CLRD70 NOSIG"
"1:00 PM EEST on April 09, 2016","2016","04","09","13","00","Europe/Kiev","10:00 AM GMT on April 09, 2016","2016","04","09","10","00","UTC","19.0","66.2","7.0","44.6","46","14.4","8.9","-9999.0","-9999.0","120","ESE","-9999.0","-9999.0","1007","29.74","-999","-999","-9999","-9999","-9999.00","-9999.00","Clear","clear","0","0","0","0","0","0","METAR UKKK 091000Z 12004MPS CAVOK 19/07 Q1007 R08/CLRD70 NOSIG"
"1:30 PM EEST on April 09, 2016","2016","04","09","13","30","Europe/Kiev","10:30 AM GMT on April 09, 2016","2016","04","09","10","30","UTC","19.0","66.2","7.0","44.6","46","18.0","11.2","-9999.0","-9999.0","120","ESE","-9999.0","-9999.0","1007","29.74","-999","-999","-9999","-9999","-9999.00","-9999.00","Clear","clear","0","0","0","0","0","0","METAR UKKK 091030Z 12005MPS CAVOK 19/07 Q1007 R08/CLRD70 NOSIG"
"2:00 PM EEST on April 09, 2016","2016","04","09","14","00","Europe/Kiev","11:00 AM GMT on April 09, 2016","2016","04","09","11","00","UTC","20.0","68.0","6.0","42.8","40","21.6","13.4","-9999.0","-9999.0","130","SE","-9999.0","-9999.0","1006","29.71","-999","-999","-9999","-9999","-9999.00","-9999.00","Clear","clear","0","0","0","0","0","0","METAR UKKK 091100Z 13006MPS 100V160 CAVOK 20/06 Q1006 R08/CLRD70 NOSIG"
"2:30 PM EEST on April 09, 2016","2016","04","09","14","30","Europe/Kiev","11:30 AM GMT on April 09, 2016","2016","04","09","11","30","UTC","20.0","68.0","7.0","44.6","43","21.6","13.4","-9999.0","-9999.0","120","ESE","-9999.0","-9999.0","1006","29.71","-999","-999","-9999","-9999","-9999.00","-9999.00","Clear","clear","0","0","0","0","0","0","METAR UKKK 091130Z 12006MPS CAVOK 20/07 Q1006 R08/CLRD70 NOSIG"
"3:00 PM EEST on April 09, 2016","2016","04","09","15","00","Europe/Kiev","12:00 PM GMT on April 09, 2016","2016","04","09","12","00","UTC","21","70","9","48","34","10.8","6.7","","","130","SE","20","12","1006","29.71","-999","-999","-9999","-9999","","","Overcast","cloudy","0","0","0","0","0","0","AAXX 09121 33345 32998 81303 10213 20087 39868 40060 57017 86075 555 10028"
"3:00 PM EEST on April 09, 2016","2016","04","09","15","00","Europe/Kiev","12:00 PM GMT on April 09, 2016","2016","04","09","12","00","UTC","21.0","69.8","6.0","42.8","38","21.6","13.4","-9999.0","-9999.0","130","SE","-9999.0","-9999.0","1006","29.71","-999","-999","-9999","-9999","-9999.00","-9999.00","Clear","clear","0","0","0","0","0","0","METAR UKKK 091200Z 13006MPS CAVOK 21/06 Q1006 R08/CLRD70 NOSIG"
"3:30 PM EEST on April 09, 2016","2016","04","09","15","30","Europe/Kiev","12:30 PM GMT on April 09, 2016","2016","04","09","12","30","UTC","21.0","69.8","7.0","44.6","40","18.0","11.2","-9999.0","-9999.0","120","ESE","9.0","5.6","1006","29.71","-999","-999","-9999","-9999","-9999.00","-9999.00","Unknown","unknown","0","0","0","0","0","0","METAR UKKK 091230Z 12005MPS 9000 NSC 21/07 Q1006 R08/CLRD70 NOSIG"
"4:00 PM EEST on April 09, 2016","2016","04","09","16","00","Europe/Kiev","1:00 PM GMT on April 09, 2016","2016","04","09","13","00","UTC","20.0","68.0","7.0","44.6","43","18.0","11.2","-9999.0","-9999.0","110","ESE","-9999.0","-9999.0","1006","29.71","-999","-999","-9999","-9999","-9999.00","-9999.00","Clear","clear","0","0","0","0","0","0","METAR UKKK 091300Z 11005MPS CAVOK 20/07 Q1006 R08/CLRD70 NOSIG"
"4:30 PM EEST on April 09, 2016","2016","04","09","16","30","Europe/Kiev","1:30 PM GMT on April 09, 2016","2016","04","09","13","30","UTC","19.0","66.2","7.0","44.6","46","14.4","8.9","-9999.0","-9999.0","110","ESE","-9999.0","-9999.0","1006","29.71","-999","-999","-9999","-9999","-9999.00","-9999.00","Clear","clear","0","0","0","0","0","0","METAR UKKK 091330Z 11004MPS CAVOK 19/07 Q1006 R08/CLRD70 NOSIG"
"5:00 PM EEST on April 09, 2016","2016","04","09","17","00","Europe/Kiev","2:00 PM GMT on April 09, 2016","2016","04","09","14","00","UTC","20.0","68.0","7.0","44.6","43","21.6","13.4","-9999.0","-9999.0","110","ESE","-9999.0","-9999.0","1006","29.71","-999","-999","-9999","-9999","-9999.00","-9999.00","Clear","clear","0","0","0","0","0","0","METAR UKKK 091400Z 11006MPS CAVOK 20/07 Q1006 R08/CLRD70 NOSIG"
"5:30 PM EEST on April 09, 2016","2016","04","09","17","30","Europe/Kiev","2:30 PM GMT on April 09, 2016","2016","04","09","14","30","UTC","20.0","68.0","7.0","44.6","43","21.6","13.4","-9999.0","-9999.0","110","ESE","-9999.0","-9999.0","1005","29.68","-999","-999","-9999","-9999","-9999.00","-9999.00","Clear","clear","0","0","0","0","0","0","METAR UKKK 091430Z 11006MPS CAVOK 20/07 Q1005 R08/CLRD70 NOSIG"
"6:00 PM EEST on April 09, 2016","2016","04","09","18","00","Europe/Kiev","3:00 PM GMT on April 09, 2016","2016","04","09","15","00","UTC","21","69","7","45","30","10.8","6.7","","","130","SE","20","12","1005","29.69","-999","-999","-9999","-9999","","","Mostly Cloudy","mostlycloudy","0","0","0","0","0","0","AAXX 09151 33345 42998 71303 10208 20070 39859 40052 57009 85035 555 10024"
"6:00 PM EEST on April 09, 2016","2016","04","09","18","00","Europe/Kiev","3:00 PM GMT on April 09, 2016","2016","04","09","15","00","UTC","20.0","68.0","7.0","44.6","43","21.6","13.4","-9999.0","-9999.0","110","ESE","-9999.0","-9999.0","1005","29.68","-999","-999","-9999","-9999","-9999.00","-9999.00","Clear","clear","0","0","0","0","0","0","METAR UKKK 091500Z 11006MPS CAVOK 20/07 Q1005 R08/CLRD70 NOSIG"
"6:30 PM EEST on April 09, 2016","2016","04","09","18","30","Europe/Kiev","3:30 PM GMT on April 09, 2016","2016","04","09","15","30","UTC","20.0","68.0","7.0","44.6","43","18.0","11.2","-9999.0","-9999.0","110","ESE","-9999.0","-9999.0","1005","29.68","-999","-999","-9999","-9999","-9999.00","-9999.00","Clear","clear","0","0","0","0","0","0","METAR UKKK 091530Z 11005MPS CAVOK 20/07 Q1005 R08/CLRD70 NOSIG"
"7:00 PM EEST on April 09, 2016","2016","04","09","19","00","Europe/Kiev","4:00 PM GMT on April 09, 2016","2016","04","09","16","00","UTC","19.0","66.2","7.0","44.6","46","21.6","13.4","-9999.0","-9999.0","100","East","10.0","6.2","1005","29.68","-999","-999","-9999","-9999","-9999.00","-9999.00","Mostly Cloudy","mostlycloudy","0","0","0","0","0","0","METAR UKKK 091600Z 10006MPS 9999 FEW030CB BKN046 19/07 Q1005 R08/CLRD70 NOSIG"
"7:30 PM EEST on April 09, 2016","2016","04","09","19","30","Europe/Kiev","4:30 PM GMT on April 09, 2016","2016","04","09","16","30","UTC","19.0","66.2","7.0","44.6","46","18.0","11.2","-9999.0","-9999.0","110","ESE","10.0","6.2","1005","29.68","-999","-999","-9999","-9999","-9999.00","-9999.00","Mostly Cloudy","mostlycloudy","0","0","0","0","0","0","METAR UKKK 091630Z 11005MPS 9999 FEW030CB BKN046 19/07 Q1005 R08/CLRD70 NOSIG"
"8:00 PM EEST on April 09, 2016","2016","04","09","20","00","Europe/Kiev","5:00 PM GMT on April 09, 2016","2016","04","09","17","00","UTC","19.0","66.2","7.0","44.6","46","14.4","8.9","-9999.0","-9999.0","110","ESE","-9999.0","-9999.0","1005","29.68","-999","-999","-9999","-9999","-9999.00","-9999.00","Clear","clear","0","0","0","0","0","0","METAR UKKK 091700Z 11004MPS CAVOK 19/07 Q1005 R08/CLRD70 NOSIG"
"8:30 PM EEST on April 09, 2016","2016","04","09","20","30","Europe/Kiev","5:30 PM GMT on April 09, 2016","2016","04","09","17","30","UTC","18.0","64.4","7.0","44.6","49","10.8","6.7","-9999.0","-9999.0","110","ESE","-9999.0","-9999.0","1005","29.68","-999","-999","-9999","-9999","-9999.00","-9999.00","Clear","clear","0","0","0","0","0","0","METAR UKKK 091730Z 11003MPS CAVOK 18/07 Q1005 R08/CLRD70 NOSIG"
"9:00 PM EEST on April 09, 2016","2016","04","09","21","00","Europe/Kiev","6:00 PM GMT on April 09, 2016","2016","04","09","18","00","UTC","17","62","8","46","45","0.0","0.0","","","","","20","12","1006","29.70","-999","-999","-9999","-9999","","","Mostly Cloudy","mostlycloudy","0","0","0","0","0","0","AAXX 09181 33345 32698 60000 10168 20078 39862 40057 53003 86500 333 10214 86636 555 10013"
"9:00 PM EEST on April 09, 2016","2016","04","09","21","00","Europe/Kiev","6:00 PM GMT on April 09, 2016","2016","04","09","18","00","UTC","18.0","64.4","7.0","44.6","49","14.4","8.9","-9999.0","-9999.0","110","ESE","-9999.0","-9999.0","1005","29.68","-999","-999","-9999","-9999","-9999.00","-9999.00","Clear","clear","0","0","0","0","0","0","METAR UKKK 091800Z 11004MPS CAVOK 18/07 Q1005 R08/CLRD70 NOSIG"
"9:30 PM EEST on April 09, 2016","2016","04","09","21","30","Europe/Kiev","6:30 PM GMT on April 09, 2016","2016","04","09","18","30","UTC","18.0","64.4","6.0","42.8","45","10.8","6.7","-9999.0","-9999.0","110","ESE","-9999.0","-9999.0","1005","29.68","-999","-999","-9999","-9999","-9999.00","-9999.00","Clear","clear","0","0","0","0","0","0","METAR UKKK 091830Z 11003MPS CAVOK 18/06 Q1005 R08/CLRD70 NOSIG"
"10:00 PM EEST on April 09, 2016","2016","04","09","22","00","Europe/Kiev","7:00 PM GMT on April 09, 2016","2016","04","09","19","00","UTC","18.0","64.4","6.0","42.8","45","14.4","8.9","-9999.0","-9999.0","110","ESE","-9999.0","-9999.0","1005","29.68","-999","-999","-9999","-9999","-9999.00","-9999.00","Clear","clear","0","0","0","0","0","0","METAR UKKK 091900Z 11004MPS CAVOK 18/06 Q1005 R08/CLRD70 NOSIG"
"10:30 PM EEST on April 09, 2016","2016","04","09","22","30","Europe/Kiev","7:30 PM GMT on April 09, 2016","2016","04","09","19","30","UTC","18.0","64.4","6.0","42.8","45","18.0","11.2","-9999.0","-9999.0","100","East","-9999.0","-9999.0","1005","29.68","-999","-999","-9999","-9999","-9999.00","-9999.00","Clear","clear","0","0","0","0","0","0","METAR UKKK 091930Z 10005MPS CAVOK 18/06 Q1005 R08/CLRD70 NOSIG"
"11:00 PM EEST on April 09, 2016","2016","04","09","23","00","Europe/Kiev","8:00 PM GMT on April 09, 2016","2016","04","09","20","00","UTC","18.0","64.4","6.0","42.8","45","14.4","8.9","-9999.0","-9999.0","110","ESE","-9999.0","-9999.0","1005","29.68","-999","-999","-9999","-9999","-9999.00","-9999.00","Clear","clear","0","0","0","0","0","0","METAR UKKK 092000Z 11004MPS CAVOK 18/06 Q1005 R08/CLRD70 NOSIG"
"11:30 PM EEST on April 09, 2016","2016","04","09","23","30","Europe/Kiev","8:30 PM GMT on April 09, 2016","2016","04","09","20","30","UTC","18.0","64.4","6.0","42.8","45","14.4","8.9","-9999.0","-9999.0","110","ESE","10.0","6.2","1005","29.68","-999","-999","-9999","-9999","-9999.00","-9999.00","Mostly Cloudy","mostlycloudy","0","0","0","0","0","0","METAR UKKK 092030Z 11004MPS 9999 SCT030CB BKN100 18/06 Q1005 R08/CLRD70 NOSIG"
"12:00 AM EEST on April 10, 2016","2016","04","10","00","00","Europe/Kiev","9:00 PM GMT on April 09, 2016","2016","04","09","21","00","UTC","16","61","7","45","45","3.6","2.2","","","110","ESE","20","12","1005","29.69","-999","-999","-9999","-9999","","","Mostly Cloudy","mostlycloudy","0","0","0","0","0","0","AAXX 09211 33345 42598 71101 10162 20072 39857 40053 58005 87500 333 87632 555 10013"
"12:00 AM EEST on April 10, 2016","2016","04","10","00","00","Europe/Kiev","9:00 PM GMT on April 09, 2016","2016","04","09","21","00","UTC","17.0","62.6","6.0","42.8","48","14.4","8.9","-9999.0","-9999.0","110","ESE","10.0","6.2","1005","29.68","-999","-999","-9999","-9999","-9999.00","-9999.00","Mostly Cloudy","mostlycloudy","0","0","0","0","0","0","METAR UKKK 092100Z 11004MPS 9999 SCT030CB BKN100 17/06 Q1005 R08/CLRD70 NOSIG"
"12:30 AM EEST on April 10, 2016","2016","04","10","00","30","Europe/Kiev","9:30 PM GMT on April 09, 2016","2016","04","09","21","30","UTC","17.0","62.6","6.0","42.8","48","14.4","8.9","-9999.0","-9999.0","110","ESE","10.0","6.2","1005","29.68","-999","-999","-9999","-9999","-9999.00","-9999.00","Mostly Cloudy","mostlycloudy","0","0","0","0","0","0","METAR UKKK 092130Z 11004MPS 9999 FEW030CB BKN100 17/06 Q1005 R08/CLRD70 NOSIG"
"1:00 AM EEST on April 10, 2016","2016","04","10","01","00","Europe/Kiev","10:00 PM GMT on April 09, 2016","2016","04","09","22","00","UTC","17.0","62.6","6.0","42.8","48","14.4","8.9","-9999.0","-9999.0","110","ESE","10.0","6.2","1005","29.68","-999","-999","-9999","-9999","-9999.00","-9999.00","Mostly Cloudy","mostlycloudy","0","0","0","0","0","0","METAR UKKK 092200Z 11004MPS 9999 FEW030CB BKN100 17/06 Q1005 R08/CLRD70 NOSIG"
"1:30 AM EEST on April 10, 2016","2016","04","10","01","30","Europe/Kiev","10:30 PM GMT on April 09, 2016","2016","04","09","22","30","UTC","16.0","60.8","6.0","42.8","52","14.4","8.9","-9999.0","-9999.0","110","ESE","10.0","6.2","1005","29.68","-999","-999","-9999","-9999","-9999.00","-9999.00","Mostly Cloudy","mostlycloudy","0","0","0","0","0","0","METAR UKKK 092230Z 11004MPS 9999 SCT030CB BKN100 16/06 Q1005 R08/CLRD70 NOSIG"
"2:00 AM EEST on April 10, 2016","2016","04","10","02","00","Europe/Kiev","11:00 PM GMT on April 09, 2016","2016","04","09","23","00","UTC","16.0","60.8","6.0","42.8","52","14.4","8.9","-9999.0","-9999.0","110","ESE","-9999.0","-9999.0","1005","29.68","-999","-999","-9999","-9999","-9999.00","-9999.00","Clear","clear","0","0","0","0","0","0","METAR UKKK 092300Z 11004MPS CAVOK 16/06 Q1005 R08/CLRD70 NOSIG"
"2:30 AM EEST on April 10, 2016","2016","04","10","02","30","Europe/Kiev","11:30 PM GMT on April 09, 2016","2016","04","09","23","30","UTC","16.0","60.8","6.0","42.8","52","14.4","8.9","-9999.0","-9999.0","110","ESE","-9999.0","-9999.0","1004","29.65","-999","-999","-9999","-9999","-9999.00","-9999.00","Clear","clear","0","0","0","0","0","0","METAR UKKK 092330Z 11004MPS CAVOK 16/06 Q1004 R08/CLRD70 NOSIG"
"3:00 AM EEST on April 10, 2016","2016","04","10","03","00","Europe/Kiev","12:00 AM GMT on April 10, 2016","2016","04","10","00","00","UTC","14","58","7","45","52","0.0","0.0","","","","","20","12","1005","29.68","-999","-999","-9999","-9999","","","Partly Cloudy","partlycloudy","0","0","0","0","0","0","AAXX 10001 33345 32698 70000 10143 20072 39852 40049 57005 83530 555 10011"
"3:00 AM EEST on April 10, 2016","2016","04","10","03","00","Europe/Kiev","12:00 AM GMT on April 10, 2016","2016","04","10","00","00","UTC","16.0","60.8","6.0","42.8","52","14.4","8.9","-9999.0","-9999.0","110","ESE","-9999.0","-9999.0","1004","29.65","-999","-999","-9999","-9999","-9999.00","-9999.00","Clear","clear","0","0","0","0","0","0","METAR UKKK 100000Z 11004MPS CAVOK 16/06 Q1004 R08/CLRD70 NOSIG"
"3:30 AM EEST on April 10, 2016","2016","04","10","03","30","Europe/Kiev","12:30 AM GMT on April 10, 2016","2016","04","10","00","30","UTC","16.0","60.8","6.0","42.8","52","14.4","8.9","-9999.0","-9999.0","110","ESE","-9999.0","-9999.0","1004","29.65","-999","-999","-9999","-9999","-9999.00","-9999.00","Clear","clear","0","0","0","0","0","0","METAR UKKK 100030Z 11004MPS CAVOK 16/06 Q1004 R08/CLRD70 NOSIG"
"4:00 AM EEST on April 10, 2016","2016","04","10","04","00","Europe/Kiev","1:00 AM GMT on April 10, 2016","2016","04","10","01","00","UTC","15.0","59.0","6.0","42.8","55","14.4","8.9","-9999.0","-9999.0","110","ESE","-9999.0","-9999.0","1004","29.65","-999","-999","-9999","-9999","-9999.00","-9999.00","Clear","clear","0","0","0","0","0","0","METAR UKKK 100100Z 11004MPS CAVOK 15/06 Q1004 R08/CLRD70 NOSIG"
"4:30 AM EEST on April 10, 2016","2016","04","10","04","30","Europe/Kiev","1:30 AM GMT on April 10, 2016","2016","04","10","01","30","UTC","15.0","59.0","6.0","42.8","55","14.4","8.9","-9999.0","-9999.0","110","ESE","-9999.0","-9999.0","1004","29.65","-999","-999","-9999","-9999","-9999.00","-9999.00","Clear","clear","0","0","0","0","0","0","METAR UKKK 100130Z 11004MPS CAVOK 15/06 Q1004 R08/CLRD70 NOSIG"
"5:00 AM EEST on April 10, 2016","2016","04","10","05","00","Europe/Kiev","2:00 AM GMT on April 10, 2016","2016","04","10","02","00","UTC","15.0","59.0","6.0","42.8","55","14.4","8.9","-9999.0","-9999.0","110","ESE","-9999.0","-9999.0","1004","29.65","-999","-999","-9999","-9999","-9999.00","-9999.00","Clear","clear","0","0","0","0","0","0","METAR UKKK 100200Z 11004MPS CAVOK 15/06 Q1004 R08/CLRD70 NOSIG"
"5:30 AM EEST on April 10, 2016","2016","04","10","05","30","Europe/Kiev","2:30 AM GMT on April 10, 2016","2016","04","10","02","30","UTC","14.0","57.2","6.0","42.8","59","14.4","8.9","-9999.0","-9999.0","100","East","-9999.0","-9999.0","1004","29.65","-999","-999","-9999","-9999","-9999.00","-9999.00","Clear","clear","0","0","0","0","0","0","METAR UKKK 100230Z 10004MPS CAVOK 14/06 Q1004 R08/CLRD70 NOSIG"
"6:00 AM EEST on April 10, 2016","2016","04","10","06","00","Europe/Kiev","3:00 AM GMT on April 10, 2016","2016","04","10","03","00","UTC","13","55","7","44","56","3.6","2.2","","","140","SE","20","12","1005","29.68","-999","-999","-9999","-9999","","","Partly Cloudy","partlycloudy","0","0","0","0","0","0","AAXX 10031 33345 41698 81401 10130 20066 39852 40050 54000 70282 8595/ 555 10010"
"6:00 AM EEST on April 10, 2016","2016","04","10","06","00","Europe/Kiev","3:00 AM GMT on April 10, 2016","2016","04","10","03","00","UTC","14.0","57.2","6.0","42.8","59","14.4","8.9","-9999.0","-9999.0","110","ESE","-9999.0","-9999.0","1004","29.65","-999","-999","-9999","-9999","-9999.00","-9999.00","Clear","clear","0","0","0","0","0","0","METAR UKKK 100300Z 11004MPS CAVOK 14/06 Q1004 R08/CLRD70 NOSIG"
"6:30 AM EEST on April 10, 2016","2016","04","10","06","30","Europe/Kiev","3:30 AM GMT on April 10, 2016","2016","04","10","03","30","UTC","14.0","57.2","5.0","41.0","55","18.0","11.2","-9999.0","-9999.0","110","ESE","-9999.0","-9999.0","1004","29.65","-999","-999","-9999","-9999","-9999.00","-9999.00","Clear","clear","0","0","0","0","0","0","METAR UKKK 100330Z 11005MPS CAVOK 14/05 Q1004 R08/CLRD70 NOSIG"
"7:00 AM EEST on April 10, 2016","2016","04","10","07","00","Europe/Kiev","4:00 AM GMT on April 10, 2016","2016","04","10","04","00","UTC","14.0","57.2","5.0","41.0","55","18.0","11.2","-9999.0","-9999.0","110","ESE","-9999.0","-9999.0","1005","29.68","-999","-999","-9999","-9999","-9999.00","-9999.00","Clear","clear","0","0","0","0","0","0","METAR UKKK 100400Z 11005MPS CAVOK 14/05 Q1005 R08/CLRD70 NOSIG"
"7:30 AM EEST on April 10, 2016","2016","04","10","07","30","Europe/Kiev","4:30 AM GMT on April 10, 2016","2016","04","10","04","30","UTC","14.0","57.2","5.0","41.0","55","18.0","11.2","-9999.0","-9999.0","110","ESE","-9999.0","-9999.0","1005","29.68","-999","-999","-9999","-9999","-9999.00","-9999.00","Clear","clear","0","0","0","0","0","0","METAR UKKK 100430Z 11005MPS CAVOK 14/05 Q1005 R08/CLRD70 NOSIG"
"8:00 AM EEST on April 10, 2016","2016","04","10","08","00","Europe/Kiev","5:00 AM GMT on April 10, 2016","2016","04","10","05","00","UTC","14.0","57.2","6.0","42.8","59","14.4","8.9","-9999.0","-9999.0","120","ESE","-9999.0","-9999.0","1005","29.68","-999","-999","-9999","-9999","-9999.00","-9999.00","Clear","clear","0","0","0","0","0","0","METAR UKKK 100500Z 12004MPS 090V150 CAVOK 14/06 Q1005 R08/CLRD70 NOSIG"
"8:30 AM EEST on April 10, 2016","2016","04","10","08","30","Europe/Kiev","5:30 AM GMT on April 10, 2016","2016","04","10","05","30","UTC","14.0","57.2","6.0","42.8","59","10.8","6.7","-9999.0","-9999.0","110","ESE","-9999.0","-9999.0","1005","29.68","-999","-999","-9999","-9999","-9999.00","-9999.00","Clear","clear","0","0","0","0","0","0","METAR UKKK 100530Z 11003MPS 080V150 CAVOK 14/06 Q1005 R08/CLRD70 NOSIG"
"9:00 AM EEST on April 10, 2016","2016","04","10","09","00","Europe/Kiev","6:00 AM GMT on April 10, 2016","2016","04","10","06","00","UTC","15","59","7","45","49","10.8","6.7","","","140","SE","20","12","1006","29.70","-999","-999","-9999","-9999","","","Partly Cloudy","partlycloudy","0","0","0","0","0","0","AAXX 10061 33345 11698 61403 10150 20071 39858 40055 53006 69902 70282 83530 333 20128 555 10020"
"9:00 AM EEST on April 10, 2016","2016","04","10","09","00","Europe/Kiev","6:00 AM GMT on April 10, 2016","2016","04","10","06","00","UTC","16.0","60.8","7.0","44.6","55","14.4","8.9","-9999.0","-9999.0","110","ESE","-9999.0","-9999.0","1005","29.68","-999","-999","-9999","-9999","-9999.00","-9999.00","Clear","clear","0","0","0","0","0","0","METAR UKKK 100600Z 11004MPS CAVOK 16/07 Q1005 R08/CLRD70 NOSIG"
"9:30 AM EEST on April 10, 2016","2016","04","10","09","30","Europe/Kiev","6:30 AM GMT on April 10, 2016","2016","04","10","06","30","UTC","16.0","60.8","7.0","44.6","55","18.0","11.2","-9999.0","-9999.0","110","ESE","-9999.0","-9999.0","1005","29.68","-999","-999","-9999","-9999","-9999.00","-9999.00","Clear","clear","0","0","0","0","0","0","METAR UKKK 100630Z 11005MPS CAVOK 16/07 Q1005 R08/CLRD70 NOSIG"
"10:00 AM EEST on April 10, 2016","2016","04","10","10","00","Europe/Kiev","7:00 AM GMT on April 10, 2016","2016","04","10","07","00","UTC","16.0","60.8","7.0","44.6","55","18.0","11.2","-9999.0","-9999.0","110","ESE","-9999.0","-9999.0","1005","29.68","-999","-999","-9999","-9999","-9999.00","-9999.00","Clear","clear","0","0","0","0","0","0","METAR UKKK 100700Z 11005MPS 080V140 CAVOK 16/07 Q1005 R08/CLRD70 NOSIG"
"10:30 AM EEST on April 10, 2016","2016","04","10","10","30","Europe/Kiev","7:30 AM GMT on April 10, 2016","2016","04","10","07","30","UTC","16.0","60.8","7.0","44.6","55","18.0","11.2","-9999.0","-9999.0","110","ESE","-9999.0","-9999.0","1005","29.68","-999","-999","-9999","-9999","-9999.00","-9999.00","Clear","clear","0","0","0","0","0","0","METAR UKKK 100730Z 11005MPS CAVOK 16/07 Q1005 R08/CLRD70 NOSIG"
"11:00 AM EEST on April 10, 2016","2016","04","10","11","00","Europe/Kiev","8:00 AM GMT on April 10, 2016","2016","04","10","08","00","UTC","17.0","62.6","8.0","46.4","55","14.4","8.9","-9999.0","-9999.0","120","ESE","-9999.0","-9999.0","1005","29.68","-999","-999","-9999","-9999","-9999.00","-9999.00","Clear","clear","0","0","0","0","0","0","METAR UKKK 100800Z 12004MPS 070V140 CAVOK 17/08 Q1005 R08/CLRD70 NOSIG"
"11:30 AM EEST on April 10, 2016","2016","04","10","11","30","Europe/Kiev","8:30 AM GMT on April 10, 2016","2016","04","10","08","30","UTC","19.0","66.2","9.0","48.2","52","18.0","11.2","-9999.0","-9999.0","110","ESE","-9999.0","-9999.0","1005","29.68","-999","-999","-9999","-9999","-9999.00","-9999.00","Clear","clear","0","0","0","0","0","0","METAR UKKK 100830Z 11005MPS 070V150 CAVOK 19/09 Q1005 R08/CLRD70 NOSIG"
"12:00 PM EEST on April 10, 2016","2016","04","10","12","00","Europe/Kiev","9:00 AM GMT on April 10, 2016","2016","04","10","09","00","UTC","20","68","9","49","39","14.4","8.9","","","120","ESE","20","12","1005","29.69","-999","-999","-9999","-9999","","","Clear","clear","0","0","0","0","0","0","AAXX 10091 33345 42998 61204 10198 20093 39861 40054 52003 80001 555 10036"
"12:00 PM EEST on April 10, 2016","2016","04","10","12","00","Europe/Kiev","9:00 AM GMT on April 10, 2016","2016","04","10","09","00","UTC","19.0","66.2","9.0","48.2","52","18.0","11.2","-9999.0","-9999.0","100","East","-9999.0","-9999.0","1005","29.68","-999","-999","-9999","-9999","-9999.00","-9999.00","Clear","clear","0","0","0","0","0","0","METAR UKKK 100900Z 10005MPS 080V150 CAVOK 19/09 Q1005 R08/CLRD70 NOSIG"
"12:30 PM EEST on April 10, 2016","2016","04","10","12","30","Europe/Kiev","9:30 AM GMT on April 10, 2016","2016","04","10","09","30","UTC","19.0","66.2","9.0","48.2","52","18.0","11.2","-9999.0","-9999.0","120","ESE","-9999.0","-9999.0","1005","29.68","-999","-999","-9999","-9999","-9999.00","-9999.00","Clear","clear","0","0","0","0","0","0","METAR UKKK 100930Z 12005MPS 090V150 CAVOK 19/09 Q1005 R08/CLRD70 NOSIG"
"1:00 PM EEST on April 10, 2016","2016","04","10","13","00","Europe/Kiev","10:00 AM GMT on April 10, 2016","2016","04","10","10","00","UTC","20.0","68.0","9.0","48.2","49","25.2","15.7","-9999.0","-9999.0","80","East","-9999.0","-9999.0","1005","29.68","-999","-999","-9999","-9999","-9999.00","-9999.00","Clear","clear","0","0","0","0","0","0","METAR UKKK 101000Z 08007MPS CAVOK 20/09 Q1005 R08/CLRD70 NOSIG"
"1:30 PM EEST on April 10, 2016","2016","04","10","13","30","Europe/Kiev","10:30 AM GMT on April 10, 2016","2016","04","10","10","30","UTC","20.0","68.0","9.0","48.2","49","21.6","13.4","-9999.0","-9999.0","100","East","-9999.0","-9999.0","1005","29.68","-999","-999","-9999","-9999","-9999.00","-9999.00","Clear","clear","0","0","0","0","0","0","METAR UKKK 101030Z 10006MPS 080V150 CAVOK 20/09 Q1005 R08/CLRD70 NOSIG"
"2:00 PM EEST on April 10, 2016","2016","04","10","14","00","Europe/Kiev","11:00 AM GMT on April 10, 2016","2016","04","10","11","00","UTC","21.0","69.8","9.0","48.2","46","21.6","13.4","-9999.0","-9999.0","100","East","-9999.0","-9999.0","1005","29.68","-999","-999","-9999","-9999","-9999.00","-9999.00","Clear","clear","0","0","0","0","0","0","METAR UKKK 101100Z 10006MPS CAVOK 21/09 Q1005 R08/CLRD70 NOSIG"
"2:30 PM EEST on April 10, 2016","2016","04","10","14","30","Europe/Kiev","11:30 AM GMT on April 10, 2016","2016","04","10","11","30","UTC","21.0","69.8","8.0","46.4","43","21.6","13.4","-9999.0","-9999.0","110","ESE","-9999.0","-9999.0","1005","29.68","-999","-999","-9999","-9999","-9999.00","-9999.00","Clear","clear","0","0","0","0","0","0","METAR UKKK 101130Z 11006MPS 080V160 CAVOK 21/08 Q1005 R08/CLRD70 NOSIG"
"3:00 PM EEST on April 10, 2016","2016","04","10","15","00","Europe/Kiev","12:00 PM GMT on April 10, 2016","2016","04","10","12","00","UTC","23","73","8","46","26","14.4","8.9","","","110","ESE","20","12","1005","29.67","-999","-999","-9999","-9999","","","Scattered Clouds","partlycloudy","0","0","0","0","0","0","AAXX 10121 33345 32998 61104 10227 20075 39856 40047 58005 82031 555 10041"
"3:00 PM EEST on April 10, 2016","2016","04","10","15","00","Europe/Kiev","12:00 PM GMT on April 10, 2016","2016","04","10","12","00","UTC","22.0","71.6","8.0","46.4","41","21.6","13.4","-9999.0","-9999.0","100","East","-9999.0","-9999.0","1005","29.68","-999","-999","-9999","-9999","-9999.00","-9999.00","Clear","clear","0","0","0","0","0","0","METAR UKKK 101200Z 10006MPS 070V150 CAVOK 22/08 Q1005 R08/CLRD70 NOSIG"
"3:30 PM EEST on April 10, 2016","2016","04","10","15","30","Europe/Kiev","12:30 PM GMT on April 10, 2016","2016","04","10","12","30","UTC","22.0","71.6","9.0","48.2","43","21.6","13.4","-9999.0","-9999.0","80","East","-9999.0","-9999.0","1005","29.68","-999","-999","-9999","-9999","-9999.00","-9999.00","Clear","clear","0","0","0","0","0","0","METAR UKKK 101230Z 08006MPS 060V120 CAVOK 22/09 Q1005 R08/CLRD70 NOSIG"
"4:00 PM EEST on April 10, 2016","2016","04","10","16","00","Europe/Kiev","1:00 PM GMT on April 10, 2016","2016","04","10","13","00","UTC","22.0","71.6","8.0","46.4","41","21.6","13.4","-9999.0","-9999.0","100","East","-9999.0","-9999.0","1005","29.68","-999","-999","-9999","-9999","-9999.00","-9999.00","Clear","clear","0","0","0","0","0","0","METAR UKKK 101300Z 10006MPS 070V130 CAVOK 22/08 Q1005 R08/CLRD70 NOSIG"
"4:30 PM EEST on April 10, 2016","2016","04","10","16","30","Europe/Kiev","1:30 PM GMT on April 10, 2016","2016","04","10","13","30","UTC","22.0","71.6","8.0","46.4","41","18.0","11.2","-9999.0","-9999.0","90","East","-9999.0","-9999.0","1005","29.68","-999","-999","-9999","-9999","-9999.00","-9999.00","Clear","clear","0","0","0","0","0","0","METAR UKKK 101330Z 09005MPS CAVOK 22/08 Q1005 R08/CLRD70 NOSIG"
"5:00 PM EEST on April 10, 2016","2016","04","10","17","00","Europe/Kiev","2:00 PM GMT on April 10, 2016","2016","04","10","14","00","UTC","22.0","71.6","7.0","44.6","38","18.0","11.2","-9999.0","-9999.0","110","ESE","-9999.0","-9999.0","1005","29.68","-999","-999","-9999","-9999","-9999.00","-9999.00","Clear","clear","0","0","0","0","0","0","METAR UKKK 101400Z 11005MPS 080V140 CAVOK 22/07 Q1005 R08/CLRD70 NOSIG"
"5:30 PM EEST on April 10, 2016","2016","04","10","17","30","Europe/Kiev","2:30 PM GMT on April 10, 2016","2016","04","10","14","30","UTC","21.0","69.8","8.0","46.4","43","18.0","11.2","-9999.0","-9999.0","100","East","-9999.0","-9999.0","1005","29.68","-999","-999","-9999","-9999","-9999.00","-9999.00","Clear","clear","0","0","0","0","0","0","METAR UKKK 101430Z 10005MPS CAVOK 21/08 Q1005 R08/CLRD70 NOSIG"
"6:00 PM EEST on April 10, 2016","2016","04","10","18","00","Europe/Kiev","3:00 PM GMT on April 10, 2016","2016","04","10","15","00","UTC","22","71","6","43","25","10.8","6.7","","","110","ESE","20","12","1005","29.67","-999","-999","-9999","-9999","","","Mostly Cloudy","mostlycloudy","0","0","0","0","0","0","AAXX 10151 33345 42998 61103 10215 20062 39855 40047 57001 86030 555 10025"
"6:00 PM EEST on April 10, 2016","2016","04","10","18","00","Europe/Kiev","3:00 PM GMT on April 10, 2016","2016","04","10","15","00","UTC","21.0","69.8","7.0","44.6","40","21.6","13.4","-9999.0","-9999.0","100","East","-9999.0","-9999.0","1005","29.68","-999","-999","-9999","-9999","-9999.00","-9999.00","Clear","clear","0","0","0","0","0","0","METAR UKKK 101500Z 10006MPS CAVOK 21/07 Q1005 R08/CLRD70 NOSIG"
"6:30 PM EEST on April 10, 2016","2016","04","10","18","30","Europe/Kiev","3:30 PM GMT on April 10, 2016","2016","04","10","15","30","UTC","21.0","69.8","7.0","44.6","40","18.0","11.2","-9999.0","-9999.0","100","East","-9999.0","-9999.0","1005","29.68","-999","-999","-9999","-9999","-9999.00","-9999.00","Clear","clear","0","0","0","0","0","0","METAR UKKK 101530Z 10005MPS CAVOK 21/07 Q1005 R08/CLRD70 NOSIG"
"7:00 PM EEST on April 10, 2016","2016","04","10","19","00","Europe/Kiev","4:00 PM GMT on April 10, 2016","2016","04","10","16","00","UTC","21.0","69.8","7.0","44.6","40","10.8","6.7","-9999.0","-9999.0","100","East","-9999.0","-9999.0","1005","29.68","-999","-999","-9999","-9999","-9999.00","-9999.00","Clear","clear","0","0","0","0","0","0","METAR UKKK 101600Z 10003MPS CAVOK 21/07 Q1005 R08/CLRD70 NOSIG"
"7:30 PM EEST on April 10, 2016","2016","04","10","19","30","Europe/Kiev","4:30 PM GMT on April 10, 2016","2016","04","10","16","30","UTC","20.0","68.0","6.0","42.8","40","14.4","8.9","-9999.0","-9999.0","100","East","-9999.0","-9999.0","1005","29.68","-999","-999","-9999","-9999","-9999.00","-9999.00","Clear","clear","0","0","0","0","0","0","METAR UKKK 101630Z 10004MPS CAVOK 20/06 Q1005 R08/CLRD70 NOSIG"
"8:00 PM EEST on April 10, 2016","2016","04","10","20","00","Europe/Kiev","5:00 PM GMT on April 10, 2016","2016","04","10","17","00","UTC","19.0","66.2","6.0","42.8","43","10.8","6.7","-9999.0","-9999.0","100","East","-9999.0","-9999.0","1005","29.68","-999","-999","-9999","-9999","-9999.00","-9999.00","Clear","clear","0","0","0","0","0","0","METAR UKKK 101700Z 10003MPS CAVOK 19/06 Q1005 R08/CLRD70 NOSIG"
"8:30 PM EEST on April 10, 2016","2016","04","10","20","30","Europe/Kiev","5:30 PM GMT on April 10, 2016","2016","04","10","17","30","UTC","19.0","66.2","5.0","41.0","40","10.8","6.7","-9999.0","-9999.0","100","East","-9999.0","-9999.0","1005","29.68","-999","-999","-9999","-9999","-9999.00","-9999.00","Clear","clear","0","0","0","0","0","0","METAR UKKK 101730Z 10003MPS CAVOK 19/05 Q1005 R08/CLRD70 NOSIG"
"9:00 PM EEST on April 10, 2016","2016","04","10","21","00","Europe/Kiev","6:00 PM GMT on April 10, 2016","2016","04","10","18","00","UTC","19","66","4","39","26","7.2","4.5","","","70","ENE","20","12","1006","29.70","-999","-999","-9999","-9999","","","Partly Cloudy","partlycloudy","0","0","0","0","0","0","AAXX 10181 33345 32998 40702 10191 20041 39862 40056 53007 84030 333 10232 555 10015"
"9:00 PM EEST on April 10, 2016","2016","04","10","21","00","Europe/Kiev","6:00 PM GMT on April 10, 2016","2016","04","10","18","00","UTC","18.0","64.4","6.0","42.8","45","7.2","4.5","-9999.0","-9999.0","80","East","-9999.0","-9999.0","1006","29.71","-999","-999","-9999","-9999","-9999.00","-9999.00","Clear","clear","0","0","0","0","0","0","METAR UKKK 101800Z 08002MPS CAVOK 18/06 Q1006 R08/CLRD70 NOSIG"
"9:30 PM EEST on April 10, 2016","2016","04","10","21","30","Europe/Kiev","6:30 PM GMT on April 10, 2016","2016","04","10","18","30","UTC","17.0","62.6","5.0","41.0","45","7.2","4.5","-9999.0","-9999.0","70","ENE","-9999.0","-9999.0","1006","29.71","-999","-999","-9999","-9999","-9999.00","-9999.00","Clear","clear","0","0","0","0","0","0","METAR UKKK 101830Z 07002MPS CAVOK 17/05 Q1006 R08/CLRD70 NOSIG"
"10:00 PM EEST on April 10, 2016","2016","04","10","22","00","Europe/Kiev","7:00 PM GMT on April 10, 2016","2016","04","10","19","00","UTC","17.0","62.6","5.0","41.0","45","10.8","6.7","-9999.0","-9999.0","70","ENE","-9999.0","-9999.0","1006","29.71","-999","-999","-9999","-9999","-9999.00","-9999.00","Clear","clear","0","0","0","0","0","0","METAR UKKK 101900Z 07003MPS CAVOK 17/05 Q1006 R08/CLRD70 NOSIG"
"10:30 PM EEST on April 10, 2016","2016","04","10","22","30","Europe/Kiev","7:30 PM GMT on April 10, 2016","2016","04","10","19","30","UTC","16.0","60.8","6.0","42.8","52","10.8","6.7","-9999.0","-9999.0","80","East","-9999.0","-9999.0","1005","29.68","-999","-999","-9999","-9999","-9999.00","-9999.00","Clear","clear","0","0","0","0","0","0","METAR UKKK 101930Z 08003MPS CAVOK 16/06 Q1005 R08/CLRD70 NOSIG"
"11:00 PM EEST on April 10, 2016","2016","04","10","23","00","Europe/Kiev","8:00 PM GMT on April 10, 2016","2016","04","10","20","00","UTC","17.0","62.6","5.0","41.0","45","14.4","8.9","-9999.0","-9999.0","90","East","-9999.0","-9999.0","1006","29.71","-999","-999","-9999","-9999","-9999.00","-9999.00","Clear","clear","0","0","0","0","0","0","METAR UKKK 102000Z 09004MPS CAVOK 17/05 Q1006 R08/CLRD70 NOSIG"
"11:30 PM EEST on April 10, 2016","2016","04","10","23","30","Europe/Kiev","8:30 PM GMT on April 10, 2016","2016","04","10","20","30","UTC","18.0","64.4","4.0","39.2","40","10.8","6.7","-9999.0","-9999.0","100","East","-9999.0","-9999.0","1006","29.71","-999","-999","-9999","-9999","-9999.00","-9999.00","Clear","clear","0","0","0","0","0","0","METAR UKKK 102030Z 10003MPS CAVOK 18/04 Q1006 R08/CLRD70 NOSIG"
"12:00 AM EEST on April 11, 2016","2016","04","11","00","00","Europe/Kiev","9:00 PM GMT on April 10, 2016","2016","04","10","21","00","UTC","18","64","4","39","28","7.2","4.5","","","80","East","20","12","1006","29.70","-999","-999","-9999","-9999","","","Scattered Clouds","partlycloudy","0","0","0","0","0","0","AAXX 10211 33345 42998 20802 10179 20037 39863 40058 52001 82030 555 10014"
"12:00 AM EEST on April 11, 2016","2016","04","11","00","00","Europe/Kiev","9:00 PM GMT on April 10, 2016","2016","04","10","21","00","UTC","18.0","64.4","4.0","39.2","40","14.4","8.9","-9999.0","-9999.0","100","East","-9999.0","-9999.0","1006","29.71","-999","-999","-9999","-9999","-9999.00","-9999.00","Clear","clear","0","0","0","0","0","0","METAR UKKK 102100Z 10004MPS CAVOK 18/04 Q1006 R08/CLRD70 NOSIG"
"12:30 AM EEST on April 11, 2016","2016","04","11","00","30","Europe/Kiev","9:30 PM GMT on April 10, 2016","2016","04","10","21","30","UTC","16.0","60.8","4.0","39.2","45","10.8","6.7","-9999.0","-9999.0","90","East","-9999.0","-9999.0","1006","29.71","-999","-999","-9999","-9999","-9999.00","-9999.00","Clear","clear","0","0","0","0","0","0","METAR UKKK 102130Z 09003MPS CAVOK 16/04 Q1006 R08/CLRD70 NOSIG"
"1:00 AM EEST on April 11, 2016","2016","04","11","01","00","Europe/Kiev","10:00 PM GMT on April 10, 2016","2016","04","10","22","00","UTC","14.0","57.2","5.0","41.0","55","14.4","8.9","-9999.0","-9999.0","80","East","-9999.0","-9999.0","1006","29.71","-999","-999","-9999","-9999","-9999.00","-9999.00","Clear","clear","0","0","0","0","0","0","METAR UKKK 102200Z 08004MPS CAVOK 14/05 Q1006 R08/CLRD70 NOSIG"
"1:30 AM EEST on April 11, 2016","2016","04","11","01","30","Europe/Kiev","10:30 PM GMT on April 10, 2016","2016","04","10","22","30","UTC","13.0","55.4","5.0","41.0","58","14.4","8.9","-9999.0","-9999.0","70","ENE","-9999.0","-9999.0","1006","29.71","-999","-999","-9999","-9999","-9999.00","-9999.00","Clear","clear","0","0","0","0","0","0","METAR UKKK 102230Z 07004MPS CAVOK 13/05 Q1006 R08/CLRD70 NOSIG"
"2:00 AM EEST on April 11, 2016","2016","04","11","02","00","Europe/Kiev","11:00 PM GMT on April 10, 2016","2016","04","10","23","00","UTC","13.0","55.4","5.0","41.0","58","14.4","8.9","-9999.0","-9999.0","80","East","-9999.0","-9999.0","1006","29.71","-999","-999","-9999","-9999","-9999.00","-9999.00","Clear","clear","0","0","0","0","0","0","METAR UKKK 102300Z 08004MPS CAVOK 13/05 Q1006 R08/CLRD70 NOSIG"
"2:30 AM EEST on April 11, 2016","2016","04","11","02","30","Europe/Kiev","11:30 PM GMT on April 10, 2016","2016","04","10","23","30","UTC","14.0","57.2","5.0","41.0","55","14.4","8.9","-9999.0","-9999.0","80","East","-9999.0","-9999.0","1006","29.71","-999","-999","-9999","-9999","-9999.00","-9999.00","Clear","clear","0","0","0","0","0","0","METAR UKKK 102330Z 08004MPS CAVOK 14/05 Q1006 R08/CLRD70 NOSIG"
"3:00 AM EEST on April 11, 2016","2016","04","11","03","00","Europe/Kiev","12:00 AM GMT on April 11, 2016","2016","04","11","00","00","UTC","15","59","4","40","37","7.2","4.5","","","50","NE","20","12","1006","29.71","-999","-999","-9999","-9999","","","","","0","0","0","0","0","0","AAXX 11001 33345 32998 00502 10148 20043 39862 40059 58001 555 10010"
"3:00 AM EEST on April 11, 2016","2016","04","11","03","00","Europe/Kiev","12:00 AM GMT on April 11, 2016","2016","04","11","00","00","UTC","12.0","53.6","5.0","41.0","62","14.4","8.9","-9999.0","-9999.0","80","East","-9999.0","-9999.0","1006","29.71","-999","-999","-9999","-9999","-9999.00","-9999.00","Clear","clear","0","0","0","0","0","0","METAR UKKK 110000Z 08004MPS CAVOK 12/05 Q1006 R08/CLRD70 NOSIG"
"3:30 AM EEST on April 11, 2016","2016","04","11","03","30","Europe/Kiev","12:30 AM GMT on April 11, 2016","2016","04","11","00","30","UTC","12.0","53.6","5.0","41.0","62","10.8","6.7","-9999.0","-9999.0","60","ENE","-9999.0","-9999.0","1005","29.68","-999","-999","-9999","-9999","-9999.00","-9999.00","Clear","clear","0","0","0","0","0","0","METAR UKKK 110030Z 06003MPS CAVOK 12/05 Q1005 R08/CLRD70 NOSIG"
"4:00 AM EEST on April 11, 2016","2016","04","11","04","00","Europe/Kiev","1:00 AM GMT on April 11, 2016","2016","04","11","01","00","UTC","11.0","51.8","5.0","41.0","67","10.8","6.7","-9999.0","-9999.0","60","ENE","-9999.0","-9999.0","1005","29.68","-999","-999","-9999","-9999","-9999.00","-9999.00","Clear","clear","0","0","0","0","0","0","METAR UKKK 110100Z 06003MPS CAVOK 11/05 Q1005 R08/CLRD70 NOSIG"
"4:30 AM EEST on April 11, 2016","2016","04","11","04","30","Europe/Kiev","1:30 AM GMT on April 11, 2016","2016","04","11","01","30","UTC","12.0","53.6","4.0","39.2","58","10.8","6.7","-9999.0","-9999.0","70","ENE","-9999.0","-9999.0","1006","29.71","-999","-999","-9999","-9999","-9999.00","-9999.00","Clear","clear","0","0","0","0","0","0","METAR UKKK 110130Z 07003MPS CAVOK 12/04 Q1006 R08/CLRD70 NOSIG"
"5:00 AM EEST on April 11, 2016","2016","04","11","05","00","Europe/Kiev","2:00 AM GMT on April 11, 2016","2016","04","11","02","00","UTC","10.0","50.0","4.0","39.2","66","14.4","8.9","-9999.0","-9999.0","70","ENE","-9999.0","-9999.0","1006","29.71","-999","-999","-9999","-9999","-9999.00","-9999.00","Clear","clear","0","0","0","0","0","0","METAR UKKK 110200Z 07004MPS CAVOK 10/04 Q1006 R08/CLRD70 NOSIG"
"5:30 AM EEST on April 11, 2016","2016","04","11","05","30","Europe/Kiev","2:30 AM GMT on April 11, 2016","2016","04","11","02","30","UTC","10.0","50.0","5.0","41.0","71","10.8","6.7","-9999.0","-9999.0","70","ENE","-9999.0","-9999.0","1006","29.71","-999","-999","-9999","-9999","-9999.00","-9999.00","Clear","clear","0","0","0","0","0","0","METAR UKKK 110230Z 07003MPS CAVOK 10/05 Q1006 R08/CLRD70 NOSIG"
"6:00 AM EEST on April 11, 2016","2016","04","11","06","00","Europe/Kiev","3:00 AM GMT on April 11, 2016","2016","04","11","03","00","UTC","12","54","5","41","50","10.8","6.7","","","60","ENE","20","12","1007","29.73","-999","-999","-9999","-9999","","","","","0","0","0","0","0","0","AAXX 11031 33345 42998 00603 10124 20048 39868 40067 53006 555 10008"
"6:00 AM EEST on April 11, 2016","2016","04","11","06","00","Europe/Kiev","3:00 AM GMT on April 11, 2016","2016","04","11","03","00","UTC","9.0","48.2","4.0","39.2","71","14.4","8.9","-9999.0","-9999.0","80","East","-9999.0","-9999.0","1006","29.71","-999","-999","-9999","-9999","-9999.00","-9999.00","Clear","clear","0","0","0","0","0","0","METAR UKKK 110300Z 08004MPS CAVOK 09/04 Q1006 R08/CLRD70 NOSIG"
"6:30 AM EEST on April 11, 2016","2016","04","11","06","30","Europe/Kiev","3:30 AM GMT on April 11, 2016","2016","04","11","03","30","UTC","10.0","50.0","5.0","41.0","71","14.4","8.9","-9999.0","-9999.0","80","East","-9999.0","-9999.0","1006","29.71","-999","-999","-9999","-9999","-9999.00","-9999.00","Clear","clear","0","0","0","0","0","0","METAR UKKK 110330Z 08004MPS CAVOK 10/05 Q1006 R08/CLRD70 NOSIG"
"7:00 AM EEST on April 11, 2016","2016","04","11","07","00","Europe/Kiev","4:00 AM GMT on April 11, 2016","2016","04","11","04","00","UTC","10.0","50.0","6.0","42.8","76","14.4","8.9","-9999.0","-9999.0","80","East","-9999.0","-9999.0","1007","29.74","-999","-999","-9999","-9999","-9999.00","-9999.00","Clear","clear","0","0","0","0","0","0","METAR UKKK 110400Z 08004MPS CAVOK 10/06 Q1007 R08/CLRD70 NOSIG"
"7:30 AM EEST on April 11, 2016","2016","04","11","07","30","Europe/Kiev","4:30 AM GMT on April 11, 2016","2016","04","11","04","30","UTC","12.0","53.6","6.0","42.8","67","10.8","6.7","-9999.0","-9999.0","70","ENE","-9999.0","-9999.0","1007","29.74","-999","-999","-9999","-9999","-9999.00","-9999.00","Clear","clear","0","0","0","0","0","0","METAR UKKK 110430Z 07003MPS 040V100 CAVOK 12/06 Q1007 R08/CLRD70 NOSIG"
"8:00 AM EEST on April 11, 2016","2016","04","11","08","00","Europe/Kiev","5:00 AM GMT on April 11, 2016","2016","04","11","05","00","UTC","13.0","55.4","6.0","42.8","63","10.8","6.7","-9999.0","-9999.0","90","East","-9999.0","-9999.0","1007","29.74","-999","-999","-9999","-9999","-9999.00","-9999.00","Clear","clear","0","0","0","0","0","0","METAR UKKK 110500Z 09003MPS CAVOK 13/06 Q1007 R08/CLRD70 NOSIG"
"8:30 AM EEST on April 11, 2016","2016","04","11","08","30","Europe/Kiev","5:30 AM GMT on April 11, 2016","2016","04","11","05","30","UTC","14.0","57.2","6.0","42.8","59","14.4","8.9","-9999.0","-9999.0","60","ENE","-9999.0","-9999.0","1007","29.74","-999","-999","-9999","-9999","-9999.00","-9999.00","Clear","clear","0","0","0","0","0","0","METAR UKKK 110530Z 06004MPS CAVOK 14/06 Q1007 R08/CLRD70 NOSIG"
"9:00 AM EEST on April 11, 2016","2016","04","11","09","00","Europe/Kiev","6:00 AM GMT on April 11, 2016","2016","04","11","06","00","UTC","14","57","6","42","47","7.2","4.5","","","60","ENE","20","12","1008","29.76","-999","-999","-9999","-9999","","","Clear","clear","0","0","0","0","0","0","AAXX 11061 33345 32998 30602 10137 20057 39878 40076 52010 80001 333 20115 555 10018"
"9:00 AM EEST on April 11, 2016","2016","04","11","09","00","Europe/Kiev","6:00 AM GMT on April 11, 2016","2016","04","11","06","00","UTC","14.0","57.2","6.0","42.8","59","18.0","11.2","-9999.0","-9999.0","80","East","-9999.0","-9999.0","1007","29.74","-999","-999","-9999","-9999","-9999.00","-9999.00","Clear","clear","0","0","0","0","0","0","METAR UKKK 110600Z 08005MPS CAVOK 14/06 Q1007 R08/CLRD70 NOSIG"
"9:30 AM EEST on April 11, 2016","2016","04","11","09","30","Europe/Kiev","6:30 AM GMT on April 11, 2016","2016","04","11","06","30","UTC","14.0","57.2","7.0","44.6","63","14.4","8.9","-9999.0","-9999.0","80","East","-9999.0","-9999.0","1007","29.74","-999","-999","-9999","-9999","-9999.00","-9999.00","Clear","clear","0","0","0","0","0","0","METAR UKKK 110630Z 08004MPS CAVOK 14/07 Q1007 R08/CLRD70 NOSIG"
"10:00 AM EEST on April 11, 2016","2016","04","11","10","00","Europe/Kiev","7:00 AM GMT on April 11, 2016","2016","04","11","07","00","UTC","15.0","59.0","7.0","44.6","59","14.4","8.9","-9999.0","-9999.0","90","East","-9999.0","-9999.0","1008","29.77","-999","-999","-9999","-9999","-9999.00","-9999.00","Clear","clear","0","0","0","0","0","0","METAR UKKK 110700Z 09004MPS 070V130 CAVOK 15/07 Q1008 R08/CLRD70 NOSIG"
"10:30 AM EEST on April 11, 2016","2016","04","11","10","30","Europe/Kiev","7:30 AM GMT on April 11, 2016","2016","04","11","07","30","UTC","15.0","59.0","7.0","44.6","59","14.4","8.9","-9999.0","-9999.0","80","East","-9999.0","-9999.0","1008","29.77","-999","-999","-9999","-9999","-9999.00","-9999.00","Clear","clear","0","0","0","0","0","0","METAR UKKK 110730Z 08004MPS CAVOK 15/07 Q1008 R08/CLRD70 NOSIG"
"11:00 AM EEST on April 11, 2016","2016","04","11","11","00","Europe/Kiev","8:00 AM GMT on April 11, 2016","2016","04","11","08","00","UTC","16.0","60.8","7.0","44.6","55","14.4","8.9","-9999.0","-9999.0","90","East","10.0","6.2","1008","29.77","-999","-999","-9999","-9999","-9999.00","-9999.00","Mostly Cloudy","mostlycloudy","0","0","0","0","0","0","METAR UKKK 110800Z 09004MPS 9999 FEW043 BKN100 16/07 Q1008 R08/CLRD70 NOSIG"
"11:30 AM EEST on April 11, 2016","2016","04","11","11","30","Europe/Kiev","8:30 AM GMT on April 11, 2016","2016","04","11","08","30","UTC","16.0","60.8","8.0","46.4","59","14.4","8.9","-9999.0","-9999.0","70","ENE","-9999.0","-9999.0","1008","29.77","-999","-999","-9999","-9999","-9999.00","-9999.00","Clear","clear","0","0","0","0","0","0","METAR UKKK 110830Z 07004MPS 040V110 CAVOK 16/08 Q1008 R08/CLRD70 NOSIG"
"12:00 PM EEST on April 11, 2016","2016","04","11","12","00","Europe/Kiev","9:00 AM GMT on April 11, 2016","2016","04","11","09","00","UTC","16","62","8","46","45","7.2","4.5","","","70","ENE","20","12","1008","29.78","-999","-999","-9999","-9999","","","Mostly Cloudy","mostlycloudy","0","0","0","0","0","0","AAXX 11091 33345 42998 70702 10164 20077 39887 40083 52009 87040 555 10025"
"12:00 PM EEST on April 11, 2016","2016","04","11","12","00","Europe/Kiev","9:00 AM GMT on April 11, 2016","2016","04","11","09","00","UTC","16.0","60.8","8.0","46.4","59","14.4","8.9","-9999.0","-9999.0","70","ENE","-9999.0","-9999.0","1008","29.77","-999","-999","-9999","-9999","-9999.00","-9999.00","Clear","clear","0","0","0","0","0","0","METAR UKKK 110900Z 07004MPS CAVOK 16/08 Q1008 R08/CLRD70 NOSIG"
"12:30 PM EEST on April 11, 2016","2016","04","11","12","30","Europe/Kiev","9:30 AM GMT on April 11, 2016","2016","04","11","09","30","UTC","17.0","62.6","8.0","46.4","55","14.4","8.9","-9999.0","-9999.0","80","East","9.0","5.6","1008","29.77","-999","-999","-9999","-9999","-9999.00","-9999.00","Unknown","unknown","0","0","0","0","0","0","METAR UKKK 110930Z 08004MPS 9000 NSC 17/08 Q1008 R08/CLRD70 NOSIG"
"1:00 PM EEST on April 11, 2016","2016","04","11","13","00","Europe/Kiev","10:00 AM GMT on April 11, 2016","2016","04","11","10","00","UTC","18.0","64.4","9.0","48.2","56","14.4","8.9","-9999.0","-9999.0","80","East","-9999.0","-9999.0","1008","29.77","-999","-999","-9999","-9999","-9999.00","-9999.00","Clear","clear","0","0","0","0","0","0","METAR UKKK 111000Z 08004MPS CAVOK 18/09 Q1008 R08/CLRD70 NOSIG"
"1:30 PM EEST on April 11, 2016","2016","04","11","13","30","Europe/Kiev","10:30 AM GMT on April 11, 2016","2016","04","11","10","30","UTC","18.0","64.4","10.0","50.0","59","18.0","11.2","-9999.0","-9999.0","80","East","-9999.0","-9999.0","1008","29.77","-999","-999","-9999","-9999","-9999.00","-9999.00","Clear","clear","0","0","0","0","0","0","METAR UKKK 111030Z 08005MPS 050V120 CAVOK 18/10 Q1008 R08/CLRD70 NOSIG"
"2:00 PM EEST on April 11, 2016","2016","04","11","14","00","Europe/Kiev","11:00 AM GMT on April 11, 2016","2016","04","11","11","00","UTC","20.0","68.0","9.0","48.2","49","14.4","8.9","-9999.0","-9999.0","70","ENE","-9999.0","-9999.0","1008","29.77","-999","-999","-9999","-9999","-9999.00","-9999.00","Clear","clear","0","0","0","0","0","0","METAR UKKK 111100Z 07004MPS 040V110 CAVOK 20/09 Q1008 R08/CLRD70 NOSIG"
"2:30 PM EEST on April 11, 2016","2016","04","11","14","30","Europe/Kiev","11:30 AM GMT on April 11, 2016","2016","04","11","11","30","UTC","20.0","68.0","10.0","50.0","52","14.4","8.9","-9999.0","-9999.0","80","East","-9999.0","-9999.0","1008","29.77","-999","-999","-9999","-9999","-9999.00","-9999.00","Clear","clear","0","0","0","0","0","0","METAR UKKK 111130Z 08004MPS 040V120 CAVOK 20/10 Q1008 R08/CLRD70 NOSIG"
"3:00 PM EEST on April 11, 2016","2016","04","11","15","00","Europe/Kiev","12:00 PM GMT on April 11, 2016","2016","04","11","12","00","UTC","20","68","10","50","41","10.8","6.7","","","60","ENE","20","12","1008","29.78","-999","-999","-9999","-9999","","","Partly Cloudy","partlycloudy","0","0","0","0","0","0","AAXX 11121 33345 32598 70603 10202 20098 39889 40082 51002 84215 555 10032"
"3:00 PM EEST on April 11, 2016","2016","04","11","15","00","Europe/Kiev","12:00 PM GMT on April 11, 2016","2016","04","11","12","00","UTC","20.0","68.0","10.0","50.0","52","18.0","11.2","-9999.0","-9999.0","70","ENE","-9999.0","-9999.0","1008","29.77","-999","-999","-9999","-9999","-9999.00","-9999.00","Clear","clear","0","0","0","0","0","0","METAR UKKK 111200Z 07005MPS 040V100 CAVOK 20/10 Q1008 R08/CLRD70 NOSIG"
"3:30 PM EEST on April 11, 2016","2016","04","11","15","30","Europe/Kiev","12:30 PM GMT on April 11, 2016","2016","04","11","12","30","UTC","20.0","68.0","10.0","50.0","52","14.4","8.9","-9999.0","-9999.0","70","ENE","-9999.0","-9999.0","1008","29.77","-999","-999","-9999","-9999","-9999.00","-9999.00","Clear","clear","0","0","0","0","0","0","METAR UKKK 111230Z 07004MPS 030V130 CAVOK 20/10 Q1008 R08/CLRD70 NOSIG"
"4:00 PM EEST on April 11, 2016","2016","04","11","16","00","Europe/Kiev","1:00 PM GMT on April 11, 2016","2016","04","11","13","00","UTC","20.0","68.0","10.0","50.0","52","14.4","8.9","-9999.0","-9999.0","90","East","10.0","6.2","1008","29.77","-999","-999","-9999","-9999","-9999.00","-9999.00","Mostly Cloudy","mostlycloudy","0","0","0","0","0","0","METAR UKKK 111300Z 09004MPS 050V130 9999 BKN042 20/10 Q1008 R08/CLRD70 NOSIG"
"4:30 PM EEST on April 11, 2016","2016","04","11","16","30","Europe/Kiev","1:30 PM GMT on April 11, 2016","2016","04","11","13","30","UTC","20.0","68.0","11.0","51.8","56","14.4","8.9","-9999.0","-9999.0","120","ESE","10.0","6.2","1008","29.77","-999","-999","-9999","-9999","-9999.00","-9999.00","Mostly Cloudy","mostlycloudy","0","0","0","0","0","0","METAR UKKK 111330Z 12004MPS 100V160 9999 BKN042 20/11 Q1008 R08/CLRD70 NOSIG"
"5:00 PM EEST on April 11, 2016","2016","04","11","17","00","Europe/Kiev","2:00 PM GMT on April 11, 2016","2016","04","11","14","00","UTC","20.0","68.0","11.0","51.8","56","14.4","8.9","-9999.0","-9999.0","120","ESE","10.0","6.2","1008","29.77","-999","-999","-9999","-9999","-9999.00","-9999.00","Mostly Cloudy","mostlycloudy","0","0","0","0","0","0","METAR UKKK 111400Z 12004MPS 080V160 9999 BKN042 20/11 Q1008 R08/CLRD70 NOSIG"
"5:30 PM EEST on April 11, 2016","2016","04","11","17","30","Europe/Kiev","2:30 PM GMT on April 11, 2016","2016","04","11","14","30","UTC","19.0","66.2","11.0","51.8","60","10.8","6.7","-9999.0","-9999.0","120","ESE","10.0","6.2","1009","29.80","-999","-999","-9999","-9999","-9999.00","-9999.00","Mostly Cloudy","mostlycloudy","0","0","0","0","0","0","METAR UKKK 111430Z 12003MPS 090V150 9999 FEW030CB BKN040 19/11 Q1009 R08/CLRD70 NOSIG"
"6:00 PM EEST on April 11, 2016","2016","04","11","18","00","Europe/Kiev","3:00 PM GMT on April 11, 2016","2016","04","11","15","00","UTC","20","67","11","53","50","7.2","4.5","","","150","SSE","20","12","1009","29.79","-999","-999","-9999","-9999","","","Scattered Clouds","partlycloudy","0","0","0","0","0","0","AAXX 11151 33345 42498 61502 10195 20114 39892 40086 53003 82381 555 10023"
"6:00 PM EEST on April 11, 2016","2016","04","11","18","00","Europe/Kiev","3:00 PM GMT on April 11, 2016","2016","04","11","15","00","UTC","19.0","66.2","11.0","51.8","60","14.4","8.9","-9999.0","-9999.0","130","SE","10.0","6.2","1009","29.80","-999","-999","-9999","-9999","-9999.00","-9999.00","Scattered Clouds","partlycloudy","0","0","0","0","0","0","METAR UKKK 111500Z 13004MPS 9999 SCT046 19/11 Q1009 R08/CLRD70 NOSIG"
"6:30 PM EEST on April 11, 2016","2016","04","11","18","30","Europe/Kiev","3:30 PM GMT on April 11, 2016","2016","04","11","15","30","UTC","19.0","66.2","11.0","51.8","60","10.8","6.7","-9999.0","-9999.0","140","SE","10.0","6.2","1009","29.80","-999","-999","-9999","-9999","-9999.00","-9999.00","Mostly Cloudy","mostlycloudy","0","0","0","0","0","0","METAR UKKK 111530Z 14003MPS 100V180 9999 FEW030CB BKN040 19/11 Q1009 R08/CLRD70 TEMPO VRB09G16MPS 2200 -TSRA BKN015CB"
"7:00 PM EEST on April 11, 2016","2016","04","11","19","00","Europe/Kiev","4:00 PM GMT on April 11, 2016","2016","04","11","16","00","UTC","18.0","64.4","10.0","50.0","59","7.2","4.5","-9999.0","-9999.0","120","ESE","10.0","6.2","1009","29.80","-999","-999","-9999","-9999","-9999.00","-9999.00","Mostly Cloudy","mostlycloudy","0","0","0","0","0","0","METAR UKKK 111600Z 12002MPS 9999 SCT030CB BKN040 18/10 Q1009 R08/CLRD70 TEMPO VRB09G16MPS 2200 -TSRA BKN015CB"
"7:30 PM EEST on April 11, 2016","2016","04","11","19","30","Europe/Kiev","4:30 PM GMT on April 11, 2016","2016","04","11","16","30","UTC","17.0","62.6","11.0","51.8","68","7.2","4.5","-9999.0","-9999.0","80","East","9.0","5.6","1009","29.80","-999","-999","-9999","-9999","-9999.00","-9999.00","Light Rain Showers","rain","0","1","0","0","0","0","METAR UKKK 111630Z 08002MPS 9000 -SHRA SCT030CB BKN043 17/11 Q1009 R08/CLRD70 TEMPO VRB09G16MPS 2200 -TSRA BKN015CB"
"8:00 PM EEST on April 11, 2016","2016","04","11","20","00","Europe/Kiev","5:00 PM GMT on April 11, 2016","2016","04","11","17","00","UTC","16.0","60.8","13.0","55.4","82","10.8","6.7","-9999.0","-9999.0","60","ENE","9.0","5.6","1009","29.80","-999","-999","-9999","-9999","-9999.00","-9999.00","Mostly Cloudy","mostlycloudy","0","0","0","0","0","0","METAR UKKK 111700Z 06003MPS 9000 SCT030CB BKN046 16/13 Q1009 R08/290157 TEMPO VRB09G16MPS 2200 -TSRA BKN015CB"
"8:30 PM EEST on April 11, 2016","2016","04","11","20","30","Europe/Kiev","5:30 PM GMT on April 11, 2016","2016","04","11","17","30","UTC","16.0","60.8","12.0","53.6","77","7.2","4.5","-9999.0","-9999.0","30","NNE","9.0","5.6","1010","29.83","-999","-999","-9999","-9999","-9999.00","-9999.00","Mostly Cloudy","mostlycloudy","0","0","0","0","0","0","METAR UKKK 111730Z 03002MPS 9000 FEW030CB BKN046 16/12 Q1010 R08/290157 TEMPO VRB09G16MPS 2200 -TSRA BKN015CB"
"9:00 PM EEST on April 11, 2016","2016","04","11","21","00","Europe/Kiev","6:00 PM GMT on April 11, 2016","2016","04","11","18","00","UTC","16","60","12","54","76","7.2","4.5","","","40","NE","20","12","1010","29.83","-999","-999","-9999","-9999","","","Partly Cloudy","partlycloudy","0","0","0","0","0","0","AAXX 11181 33345 11598 20402 10157 20124 39903 40100 52011 69932 70281 82100 333 10205 555 11013"
"9:00 PM EEST on April 11, 2016","2016","04","11","21","00","Europe/Kiev","6:00 PM GMT on April 11, 2016","2016","04","11","18","00","UTC","15.0","59.0","12.0","53.6","82","3.6","2.2","-9999.0","-9999.0","90","East","10.0","6.2","1010","29.83","-999","-999","-9999","-9999","-9999.00","-9999.00","Mostly Cloudy","mostlycloudy","0","0","0","0","0","0","METAR UKKK 111800Z 09001MPS 9999 FEW030CB BKN050 15/12 Q1010 R08/290157 NOSIG"
"9:30 PM EEST on April 11, 2016","2016","04","11","21","30","Europe/Kiev","6:30 PM GMT on April 11, 2016","2016","04","11","18","30","UTC","15.0","59.0","13.0","55.4","88","7.2","4.5","-9999.0","-9999.0","80","East","-9999.0","-9999.0","1010","29.83","-999","-999","-9999","-9999","-9999.00","-9999.00","Clear","clear","0","0","0","0","0","0","METAR UKKK 111830Z 08002MPS CAVOK 15/13 Q1010 R08/290157 NOSIG"
"10:00 PM EEST on April 11, 2016","2016","04","11","22","00","Europe/Kiev","7:00 PM GMT on April 11, 2016","2016","04","11","19","00","UTC","15.0","59.0","12.0","53.6","82","7.2","4.5","-9999.0","-9999.0","70","ENE","-9999.0","-9999.0","1010","29.83","-999","-999","-9999","-9999","-9999.00","-9999.00","Clear","clear","0","0","0","0","0","0","METAR UKKK 111900Z 07002MPS CAVOK 15/12 Q1010 R08/290157 NOSIG"
"10:30 PM EEST on April 11, 2016","2016","04","11","22","30","Europe/Kiev","7:30 PM GMT on April 11, 2016","2016","04","11","19","30","UTC","13.0","55.4","12.0","53.6","94","7.2","4.5","-9999.0","-9999.0","80","East","9.0","5.6","1010","29.83","-999","-999","-9999","-9999","-9999.00","-9999.00","Unknown","unknown","0","0","0","0","0","0","METAR UKKK 111930Z 08002MPS 9000 NSC 13/12 Q1010 R08/290157 NOSIG"
"11:00 PM EEST on April 11, 2016","2016","04","11","23","00","Europe/Kiev","8:00 PM GMT on April 11, 2016","2016","04","11","20","00","UTC","13.0","55.4","12.0","53.6","94","3.6","2.2","-9999.0","-9999.0","0","Variable","6.0","3.7","1010","29.83","-999","-999","-9999","-9999","-9999.00","-9999.00","Unknown","unknown","0","0","0","0","0","0","METAR UKKK 112000Z VRB01MPS 6000 NSC 13/12 Q1010 R08/290157 NOSIG"
"11:30 PM EEST on April 11, 2016","2016","04","11","23","30","Europe/Kiev","8:30 PM GMT on April 11, 2016","2016","04","11","20","30","UTC","12.0","53.6","11.0","51.8","94","0.0","0.0","-9999.0","-9999.0","0","North","5.0","3.1","1010","29.83","-999","-999","-9999","-9999","-9999.00","-9999.00","Mist","hazy","0","0","0","0","0","0","METAR UKKK 112030Z 00000MPS 5000 BR NSC 12/11 Q1010 R08/290157 NOSIG"
"12:00 AM EEST on April 12, 2016","2016","04","12","00","00","Europe/Kiev","9:00 PM GMT on April 11, 2016","2016","04","11","21","00","UTC","14","58","12","53","79","0.0","0.0","","","","","20","12","1010","29.84","-999","-999","-9999","-9999","","","Scattered Clouds","partlycloudy","0","0","0","0","0","0","AAXX 11211 33345 42998 20000 10142 20118 39906 40104 52003 82030 555 11010"
"12:00 AM EEST on April 12, 2016","2016","04","12","00","00","Europe/Kiev","9:00 PM GMT on April 11, 2016","2016","04","11","21","00","UTC","12.0","53.6","11.0","51.8","94","0.0","0.0","-9999.0","-9999.0","0","North","-9999.0","-9999.0","1010","29.83","-999","-999","-9999","-9999","-9999.00","-9999.00","Mist","hazy","0","0","0","0","0","0","METAR UKKK 112100Z 00000MPS 3900 BR NSC 12/11 Q1010 R08/290157 NOSIG"
"12:30 AM EEST on April 12, 2016","2016","04","12","00","30","Europe/Kiev","9:30 PM GMT on April 11, 2016","2016","04","11","21","30","UTC","13.0","55.4","12.0","53.6","94","3.6","2.2","-9999.0","-9999.0","0","Variable","6.0","3.7","1010","29.83","-999","-999","-9999","-9999","-9999.00","-9999.00","Unknown","unknown","0","0","0","0","0","0","METAR UKKK 112130Z VRB01MPS 6000 NSC 13/12 Q1010 R08/290058 NOSIG"
"1:00 AM EEST on April 12, 2016","2016","04","12","01","00","Europe/Kiev","10:00 PM GMT on April 11, 2016","2016","04","11","22","00","UTC","13.0","55.4","12.0","53.6","94","0.0","0.0","-9999.0","-9999.0","0","North","6.0","3.7","1010","29.83","-999","-999","-9999","-9999","-9999.00","-9999.00","Mostly Cloudy","mostlycloudy","0","0","0","0","0","0","METAR UKKK 112200Z 00000MPS 6000 BKN044 13/12 Q1010 R08/290058 NOSIG"
"1:30 AM EEST on April 12, 2016","2016","04","12","01","30","Europe/Kiev","10:30 PM GMT on April 11, 2016","2016","04","11","22","30","UTC","12.0","53.6","12.0","53.6","100","0.0","0.0","-9999.0","-9999.0","0","North","5.0","3.1","1010","29.83","-999","-999","-9999","-9999","-9999.00","-9999.00","Mostly Cloudy","mostlycloudy","0","0","0","0","0","0","METAR UKKK 112230Z 00000MPS 5000 BR BKN040 12/12 Q1010 R08/290058 NOSIG"
"2:00 AM EEST on April 12, 2016","2016","04","12","02","00","Europe/Kiev","11:00 PM GMT on April 11, 2016","2016","04","11","23","00","UTC","13.0","55.4","12.0","53.6","94","0.0","0.0","-9999.0","-9999.0","0","North","-9999.0","-9999.0","1010","29.83","-999","-999","-9999","-9999","-9999.00","-9999.00","Mostly Cloudy","mostlycloudy","0","0","0","0","0","0","METAR UKKK 112300Z 00000MPS 4900 BR BKN041 13/12 Q1010 R08/290058 NOSIG"
"2:30 AM EEST on April 12, 2016","2016","04","12","02","30","Europe/Kiev","11:30 PM GMT on April 11, 2016","2016","04","11","23","30","UTC","12.0","53.6","11.0","51.8","94","0.0","0.0","-9999.0","-9999.0","0","North","2.9","1.8","1010","29.83","-999","-999","-9999","-9999","-9999.00","-9999.00","Mist","hazy","0","0","0","0","0","0","METAR UKKK 112330Z 00000MPS 2900 BR NSC 12/11 Q1010 R08/290058 NOSIG"
"3:00 AM EEST on April 12, 2016","2016","04","12","03","00","Europe/Kiev","12:00 AM GMT on April 12, 2016","2016","04","12","00","00","UTC","14","56","12","53","86","0.0","0.0","","","","","20","12","1011","29.85","-999","-999","-9999","-9999","","","","","0","0","0","0","0","0","AAXX 12001 33345 32998 00000 10136 20116 39909 40107 50003 555 11009"
"3:00 AM EEST on April 12, 2016","2016","04","12","03","00","Europe/Kiev","12:00 AM GMT on April 12, 2016","2016","04","12","00","00","UTC","10.0","50.0","10.0","50.0","100","0.0","0.0","-9999.0","-9999.0","0","North","2.1","1.3","1010","29.83","-999","-999","-9999","-9999","-9999.00","-9999.00","Mist","hazy","0","0","0","0","0","0","METAR UKKK 120000Z 00000MPS 2100 BR NSC 10/10 Q1010 R08/290058 TEMPO 0400 FG"
"3:30 AM EEST on April 12, 2016","2016","04","12","03","30","Europe/Kiev","12:30 AM GMT on April 12, 2016","2016","04","12","00","30","UTC","12.0","53.6","12.0","53.6","100","0.0","0.0","-9999.0","-9999.0","0","North","3.5","2.2","1010","29.83","-999","-999","-9999","-9999","-9999.00","-9999.00","Mist","hazy","0","0","0","0","0","0","METAR UKKK 120030Z 00000MPS 3500 BR NSC 12/12 Q1010 R08/290058 TEMPO 0400 FG"
"4:00 AM EEST on April 12, 2016","2016","04","12","04","00","Europe/Kiev","1:00 AM GMT on April 12, 2016","2016","04","12","01","00","UTC","10.0","50.0","10.0","50.0","100","0.0","0.0","-9999.0","-9999.0","0","North","1.9","1.2","1010","29.83","-999","-999","-9999","-9999","-9999.00","-9999.00","Scattered Clouds","partlycloudy","0","0","0","0","0","0","METAR UKKK 120100Z 00000MPS 1900 BR SCT043 10/10 Q1010 R08/290058 TEMPO 0400 FG"
"4:30 AM EEST on April 12, 2016","2016","04","12","04","30","Europe/Kiev","1:30 AM GMT on April 12, 2016","2016","04","12","01","30","UTC","10.0","50.0","10.0","50.0","100","7.2","4.5","-9999.0","-9999.0","10","North","-9999.0","-9999.0","1011","29.86","-999","-999","-9999","-9999","-9999.00","-9999.00","Scattered Clouds","partlycloudy","0","0","0","0","0","0","METAR UKKK 120130Z 01002MPS 340V050 3100 BR SCT043 10/10 Q1011 R08/290058 TEMPO 0400 FG"
"5:00 AM EEST on April 12, 2016","2016","04","12","05","00","Europe/Kiev","2:00 AM GMT on April 12, 2016","2016","04","12","02","00","UTC","10.0","50.0","10.0","50.0","100","0.0","0.0","-9999.0","-9999.0","0","North","2.6","1.6","1010","29.83","-999","-999","-9999","-9999","-9999.00","-9999.00","Clear","clear","0","0","0","0","0","0","METAR UKKK 120200Z 00000MPS 2600 BR SKC 10/10 Q1010 R08/290058 TEMPO 0400 FG"
"5:30 AM EEST on April 12, 2016","2016","04","12","05","30","Europe/Kiev","2:30 AM GMT on April 12, 2016","2016","04","12","02","30","UTC","9.0","48.2","9.0","48.2","100","3.6","2.2","-9999.0","-9999.0","0","Variable","1.8","1.1","1010","29.83","-999","-999","-9999","-9999","-9999.00","-9999.00","Clear","clear","0","0","0","0","0","0","METAR UKKK 120230Z VRB01MPS 1800 BR SKC 09/09 Q1010 R08/290058 TEMPO 0400 FG"
"6:00 AM EEST on April 12, 2016","2016","04","12","06","00","Europe/Kiev","3:00 AM GMT on April 12, 2016","2016","04","12","03","00","UTC","12","53","11","51","92","0.0","0.0","","","","","4","2","1011","29.86","-999","-999","-9999","-9999","","","Mist","hazy","0","0","0","0","0","0","AAXX 12031 33345 41996 00000 10116 20108 39910 40110 53001 71000 555 11007"
"6:00 AM EEST on April 12, 2016","2016","04","12","06","00","Europe/Kiev","3:00 AM GMT on April 12, 2016","2016","04","12","03","00","UTC","10.0","50.0","10.0","50.0","100","7.2","4.5","-9999.0","-9999.0","80","East","-9999.0","-9999.0","1010","29.83","-999","-999","-9999","-9999","-9999.00","-9999.00","Partly Cloudy","partlycloudy","0","0","0","0","0","0","METAR UKKK 120300Z 08002MPS 3100 BR FEW006 10/10 Q1010 R08/290058 TEMPO 0400 FG"
"6:30 AM EEST on April 12, 2016","2016","04","12","06","30","Europe/Kiev","3:30 AM GMT on April 12, 2016","2016","04","12","03","30","UTC","9.0","48.2","9.0","48.2","100","7.2","4.5","-9999.0","-9999.0","90","East","2.7","1.7","1011","29.86","-999","-999","-9999","-9999","-9999.00","-9999.00","Mist","hazy","0","0","0","0","0","0","METAR UKKK 120330Z 09002MPS 2700 BR NSC 09/09 Q1011 R08/290058 TEMPO 1500 BR"
"7:00 AM EEST on April 12, 2016","2016","04","12","07","00","Europe/Kiev","4:00 AM GMT on April 12, 2016","2016","04","12","04","00","UTC","10.0","50.0","10.0","50.0","100","10.8","6.7","-9999.0","-9999.0","90","East","-9999.0","-9999.0","1011","29.86","-999","-999","-9999","-9999","-9999.00","-9999.00","Mist","hazy","0","0","0","0","0","0","METAR UKKK 120400Z 09003MPS 3700 BR NSC 10/10 Q1011 R08/290058 NOSIG"
"7:30 AM EEST on April 12, 2016","2016","04","12","07","30","Europe/Kiev","4:30 AM GMT on April 12, 2016","2016","04","12","04","30","UTC","12.0","53.6","12.0","53.6","100","10.8","6.7","-9999.0","-9999.0","90","East","6.0","3.7","1011","29.86","-999","-999","-9999","-9999","-9999.00","-9999.00","Unknown","unknown","0","0","0","0","0","0","METAR UKKK 120430Z 09003MPS 6000 NSC 12/12 Q1011 R08/290058 NOSIG"
"8:00 AM EEST on April 12, 2016","2016","04","12","08","00","Europe/Kiev","5:00 AM GMT on April 12, 2016","2016","04","12","05","00","UTC","12.0","53.6","12.0","53.6","100","7.2","4.5","-9999.0","-9999.0","100","East","-9999.0","-9999.0","1011","29.86","-999","-999","-9999","-9999","-9999.00","-9999.00","Mist","hazy","0","0","0","0","0","0","METAR UKKK 120500Z 10002MPS 4800 BR NSC 12/12 Q1011 R08/290058 NOSIG"
"8:30 AM EEST on April 12, 2016","2016","04","12","08","30","Europe/Kiev","5:30 AM GMT on April 12, 2016","2016","04","12","05","30","UTC","13.0","55.4","12.0","53.6","94","10.8","6.7","-9999.0","-9999.0","80","East","5.0","3.1","1011","29.86","-999","-999","-9999","-9999","-9999.00","-9999.00","Mist","hazy","0","0","0","0","0","0","METAR UKKK 120530Z 08003MPS 5000 BR NSC 13/12 Q1011 R08/290058 NOSIG"
"9:00 AM EEST on April 12, 2016","2016","04","12","09","00","Europe/Kiev","6:00 AM GMT on April 12, 2016","2016","04","12","06","00","UTC","13","55","11","51","83","3.6","2.2","","","60","ENE","4","2","1011","29.87","-999","-999","-9999","-9999","","","Mist","hazy","0","0","0","0","0","0","AAXX 12061 33345 31996 70601 10130 20107 39915 40114 51005 71011 83031 333 20115 555 11016"
"9:00 AM EEST on April 12, 2016","2016","04","12","09","00","Europe/Kiev","6:00 AM GMT on April 12, 2016","2016","04","12","06","00","UTC","13.0","55.4","11.0","51.8","88","7.2","4.5","-9999.0","-9999.0","90","East","7.0","4.3","1011","29.86","-999","-999","-9999","-9999","-9999.00","-9999.00","Unknown","unknown","0","0","0","0","0","0","METAR UKKK 120600Z 09002MPS 7000 NSC 13/11 Q1011 R08/290058 NOSIG"
"9:30 AM EEST on April 12, 2016","2016","04","12","09","30","Europe/Kiev","6:30 AM GMT on April 12, 2016","2016","04","12","06","30","UTC","15.0","59.0","12.0","53.6","82","10.8","6.7","-9999.0","-9999.0","70","ENE","8.0","5.0","1011","29.86","-999","-999","-9999","-9999","-9999.00","-9999.00","Unknown","unknown","0","0","0","0","0","0","METAR UKKK 120630Z 07003MPS 8000 NSC 15/12 Q1011 R08/CLRD70 NOSIG"
"10:00 AM EEST on April 12, 2016","2016","04","12","10","00","Europe/Kiev","7:00 AM GMT on April 12, 2016","2016","04","12","07","00","UTC","15.0","59.0","11.0","51.8","77","10.8","6.7","-9999.0","-9999.0","100","East","7.0","4.3","1011","29.86","-999","-999","-9999","-9999","-9999.00","-9999.00","Unknown","unknown","0","0","0","0","0","0","METAR UKKK 120700Z 10003MPS 7000 NSC 15/11 Q1011 R08/CLRD70 NOSIG"
"10:30 AM EEST on April 12, 2016","2016","04","12","10","30","Europe/Kiev","7:30 AM GMT on April 12, 2016","2016","04","12","07","30","UTC","15.0","59.0","12.0","53.6","82","10.8","6.7","-9999.0","-9999.0","80","East","8.0","5.0","1011","29.86","-999","-999","-9999","-9999","-9999.00","-9999.00","Unknown","unknown","0","0","0","0","0","0","METAR UKKK 120730Z 08003MPS 8000 NSC 15/12 Q1011 R08/CLRD70 NOSIG"
"11:00 AM EEST on April 12, 2016","2016","04","12","11","00","Europe/Kiev","8:00 AM GMT on April 12, 2016","2016","04","12","08","00","UTC","16.0","60.8","12.0","53.6","77","7.2","4.5","-9999.0","-9999.0","80","East","9.0","5.6","1011","29.86","-999","-999","-9999","-9999","-9999.00","-9999.00","Unknown","unknown","0","0","0","0","0","0","METAR UKKK 120800Z 08002MPS 040V120 9000 NSC 16/12 Q1011 R08/CLRD70 NOSIG"
"11:30 AM EEST on April 12, 2016","2016","04","12","11","30","Europe/Kiev","8:30 AM GMT on April 12, 2016","2016","04","12","08","30","UTC","16.0","60.8","12.0","53.6","77","10.8","6.7","-9999.0","-9999.0","70","ENE","9.0","5.6","1011","29.86","-999","-999","-9999","-9999","-9999.00","-9999.00","Unknown","unknown","0","0","0","0","0","0","METAR UKKK 120830Z 07003MPS 9000 NSC 16/12 Q1011 R08/CLRD70 NOSIG"
"12:00 PM EEST on April 12, 2016","2016","04","12","12","00","Europe/Kiev","9:00 AM GMT on April 12, 2016","2016","04","12","09","00","UTC","16","62","12","54","68","7.2","4.5","","","90","East","10","6","1011","29.87","-999","-999","-9999","-9999","","","Mostly Cloudy","mostlycloudy","0","0","0","0","0","0","AAXX 12091 33345 42597 70902 10164 20122 39917 40113 52002 85970 555 10024"
"12:00 PM EEST on April 12, 2016","2016","04","12","12","00","Europe/Kiev","9:00 AM GMT on April 12, 2016","2016","04","12","09","00","UTC","17.0","62.6","12.0","53.6","72","10.8","6.7","-9999.0","-9999.0","100","East","9.0","5.6","1011","29.86","-999","-999","-9999","-9999","-9999.00","-9999.00","Mostly Cloudy","mostlycloudy","0","0","0","0","0","0","METAR UKKK 120900Z 10003MPS 9000 SCT041 BKN100 17/12 Q1011 R08/CLRD70 NOSIG"
"12:30 PM EEST on April 12, 2016","2016","04","12","12","30","Europe/Kiev","9:30 AM GMT on April 12, 2016","2016","04","12","09","30","UTC","17.0","62.6","12.0","53.6","72","10.8","6.7","-9999.0","-9999.0","90","East","7.0","4.3","1011","29.86","-999","-999","-9999","-9999","-9999.00","-9999.00","Unknown","unknown","0","0","0","0","0","0","METAR UKKK 120930Z 09003MPS 050V110 7000 NSC 17/12 Q1011 R08/CLRD70 NOSIG"
"1:00 PM EEST on April 12, 2016","2016","04","12","13","00","Europe/Kiev","10:00 AM GMT on April 12, 2016","2016","04","12","10","00","UTC","18.0","64.4","12.0","53.6","68","10.8","6.7","-9999.0","-9999.0","70","ENE","9.0","5.6","1011","29.86","-999","-999","-9999","-9999","-9999.00","-9999.00","Unknown","unknown","0","0","0","0","0","0","METAR UKKK 121000Z 07003MPS 030V120 9000 NSC 18/12 Q1011 R08/CLRD70 NOSIG"
"1:30 PM EEST on April 12, 2016","2016","04","12","13","30","Europe/Kiev","10:30 AM GMT on April 12, 2016","2016","04","12","10","30","UTC","17.0","62.6","12.0","53.6","72","10.8","6.7","-9999.0","-9999.0","80","East","-9999.0","-9999.0","1011","29.86","-999","-999","-9999","-9999","-9999.00","-9999.00","Clear","clear","0","0","0","0","0","0","METAR UKKK 121030Z 08003MPS CAVOK 17/12 Q1011 R08/CLRD70 NOSIG"
"2:00 PM EEST on April 12, 2016","2016","04","12","14","00","Europe/Kiev","11:00 AM GMT on April 12, 2016","2016","04","12","11","00","UTC","18.0","64.4","12.0","53.6","68","10.8","6.7","-9999.0","-9999.0","90","East","-9999.0","-9999.0","1011","29.86","-999","-999","-9999","-9999","-9999.00","-9999.00","Clear","clear","0","0","0","0","0","0","METAR UKKK 121100Z 09003MPS 060V120 CAVOK 18/12 Q1011 R08/CLRD70 NOSIG"
"2:30 PM EEST on April 12, 2016","2016","04","12","14","30","Europe/Kiev","11:30 AM GMT on April 12, 2016","2016","04","12","11","30","UTC","18.0","64.4","12.0","53.6","68","14.4","8.9","-9999.0","-9999.0","90","East","-9999.0","-9999.0","1011","29.86","-999","-999","-9999","-9999","-9999.00","-9999.00","Clear","clear","0","0","0","0","0","0","METAR UKKK 121130Z 09004MPS CAVOK 18/12 Q1011 R08/CLRD70 NOSIG"
"3:00 PM EEST on April 12, 2016","2016","04","12","15","00","Europe/Kiev","12:00 PM GMT on April 12, 2016","2016","04","12","12","00","UTC","19","65","12","53","55","7.2","4.5","","","110","ESE","20","12","1011","29.85","-999","-999","-9999","-9999","","","Light Rain Showers","rain","0","1","0","0","0","0","AAXX 12121 33345 /1598 71102 10186 20115 39913 40108 58004 78082 86970 555 10029 69901"
"3:00 PM EEST on April 12, 2016","2016","04","12","15","00","Europe/Kiev","12:00 PM GMT on April 12, 2016","2016","04","12","12","00","UTC","18.0","64.4","11.0","51.8","64","18.0","11.2","-9999.0","-9999.0","90","East","-9999.0","-9999.0","1011","29.86","-999","-999","-9999","-9999","-9999.00","-9999.00","Clear","clear","0","0","0","0","0","0","METAR UKKK 121200Z 09005MPS CAVOK 18/11 Q1011 R08/CLRD70 NOSIG"
"3:30 PM EEST on April 12, 2016","2016","04","12","15","30","Europe/Kiev","12:30 PM GMT on April 12, 2016","2016","04","12","12","30","UTC","18.0","64.4","11.0","51.8","64","18.0","11.2","-9999.0","-9999.0","90","East","10.0","6.2","1010","29.83","-999","-999","-9999","-9999","-9999.00","-9999.00","Mostly Cloudy","mostlycloudy","0","0","0","0","0","0","METAR UKKK 121230Z 09005MPS 060V120 9999 FEW037 BKN100 18/11 Q1010 R08/CLRD70 NOSIG"
"4:00 PM EEST on April 12, 2016","2016","04","12","16","00","Europe/Kiev","1:00 PM GMT on April 12, 2016","2016","04","12","13","00","UTC","18.0","64.4","11.0","51.8","64","18.0","11.2","-9999.0","-9999.0","80","East","10.0","6.2","1010","29.83","-999","-999","-9999","-9999","-9999.00","-9999.00","Mostly Cloudy","mostlycloudy","0","0","0","0","0","0","METAR UKKK 121300Z 08005MPS 9999 FEW034 BKN100 18/11 Q1010 R08/CLRD70 NOSIG"
"4:30 PM EEST on April 12, 2016","2016","04","12","16","30","Europe/Kiev","1:30 PM GMT on April 12, 2016","2016","04","12","13","30","UTC","18.0","64.4","11.0","51.8","64","18.0","11.2","-9999.0","-9999.0","90","East","-9999.0","-9999.0","1010","29.83","-999","-999","-9999","-9999","-9999.00","-9999.00","Clear","clear","0","0","0","0","0","0","METAR UKKK 121330Z 09005MPS CAVOK 18/11 Q1010 R08/CLRD70 NOSIG"
"5:00 PM EEST on April 12, 2016","2016","04","12","17","00","Europe/Kiev","2:00 PM GMT on April 12, 2016","2016","04","12","14","00","UTC","18.0","64.4","8.0","46.4","52","21.6","13.4","-9999.0","-9999.0","90","East","-9999.0","-9999.0","1010","29.83","-999","-999","-9999","-9999","-9999.00","-9999.00","Clear","clear","0","0","0","0","0","0","METAR UKKK 121400Z 09006MPS CAVOK 18/08 Q1010 R08/CLRD70 TEMPO 10009G15MPS 2100 -TSRA BKN020CB"
"5:30 PM EEST on April 12, 2016","2016","04","12","17","30","Europe/Kiev","2:30 PM GMT on April 12, 2016","2016","04","12","14","30","UTC","18.0","64.4","7.0","44.6","49","18.0","11.2","-9999.0","-9999.0","100","East","10.0","6.2","1010","29.83","-999","-999","-9999","-9999","-9999.00","-9999.00","Mostly Cloudy","mostlycloudy","0","0","0","0","0","0","METAR UKKK 121430Z 10005MPS 9999 FEW036 BKN100 18/07 Q1010 R08/CLRD70 TEMPO 10009G15MPS 2100 -TSRA BKN020CB"
"6:00 PM EEST on April 12, 2016","2016","04","12","18","00","Europe/Kiev","3:00 PM GMT on April 12, 2016","2016","04","12","15","00","UTC","18","64","7","45","38","7.2","4.5","","","110","ESE","20","12","1010","29.83","-999","-999","-9999","-9999","","","Partly Cloudy","partlycloudy","0","0","0","0","0","0","AAXX 12151 33345 41598 61102 10180 20071 39904 40099 57009 70282 83979 555 10019"
"6:00 PM EEST on April 12, 2016","2016","04","12","18","00","Europe/Kiev","3:00 PM GMT on April 12, 2016","2016","04","12","15","00","UTC","18.0","64.4","7.0","44.6","49","10.8","6.7","-9999.0","-9999.0","100","East","-9999.0","-9999.0","1010","29.83","-999","-999","-9999","-9999","-9999.00","-9999.00","Clear","clear","0","0","0","0","0","0","METAR UKKK 121500Z 10003MPS CAVOK 18/07 Q1010 R08/CLRD70 TEMPO 10009G15MPS 2100 -TSRA BKN020CB"
"6:30 PM EEST on April 12, 2016","2016","04","12","18","30","Europe/Kiev","3:30 PM GMT on April 12, 2016","2016","04","12","15","30","UTC","18.0","64.4","7.0","44.6","49","10.8","6.7","-9999.0","-9999.0","110","ESE","-9999.0","-9999.0","1010","29.83","-999","-999","-9999","-9999","-9999.00","-9999.00","Clear","clear","0","0","0","0","0","0","METAR UKKK 121530Z 11003MPS CAVOK 18/07 Q1010 R08/CLRD70 TEMPO 10009G15MPS 2100 -TSRA BKN020CB"
"7:00 PM EEST on April 12, 2016","2016","04","12","19","00","Europe/Kiev","4:00 PM GMT on April 12, 2016","2016","04","12","16","00","UTC","17.0","62.6","9.0","48.2","59","10.8","6.7","-9999.0","-9999.0","90","East","-9999.0","-9999.0","1010","29.83","-999","-999","-9999","-9999","-9999.00","-9999.00","Clear","clear","0","0","0","0","0","0","METAR UKKK 121600Z 09003MPS CAVOK 17/09 Q1010 R08/CLRD70 TEMPO 10009G15MPS 2100 -TSRA BKN020CB"
"7:30 PM EEST on April 12, 2016","2016","04","12","19","30","Europe/Kiev","4:30 PM GMT on April 12, 2016","2016","04","12","16","30","UTC","16.0","60.8","8.0","46.4","59","10.8","6.7","-9999.0","-9999.0","100","East","-9999.0","-9999.0","1010","29.83","-999","-999","-9999","-9999","-9999.00","-9999.00","Clear","clear","0","0","0","0","0","0","METAR UKKK 121630Z 10003MPS CAVOK 16/08 Q1010 R08/CLRD70 TEMPO 10009G15MPS 2100 -TSRA BKN020CB"
"8:00 PM EEST on April 12, 2016","2016","04","12","20","00","Europe/Kiev","5:00 PM GMT on April 12, 2016","2016","04","12","17","00","UTC","15.0","59.0","8.0","46.4","63","7.2","4.5","-9999.0","-9999.0","80","East","-9999.0","-9999.0","1010","29.83","-999","-999","-9999","-9999","-9999.00","-9999.00","Clear","clear","0","0","0","0","0","0","METAR UKKK 121700Z 08002MPS CAVOK 15/08 Q1010 R08/CLRD70 TEMPO 10009G15MPS 2100 -TSRA BKN020CB"
"8:30 PM EEST on April 12, 2016","2016","04","12","20","30","Europe/Kiev","5:30 PM GMT on April 12, 2016","2016","04","12","17","30","UTC","15.0","59.0","9.0","48.2","67","7.2","4.5","-9999.0","-9999.0","120","ESE","8.0","5.0","1010","29.83","-999","-999","-9999","-9999","-9999.00","-9999.00","Unknown","unknown","0","0","0","0","0","0","METAR UKKK 121730Z 12002MPS 8000 NSC 15/09 Q1010 R08/CLRD70 TEMPO 10009G15MPS 2100 -TSRA BKN020CB"
"9:00 PM EEST on April 12, 2016","2016","04","12","21","00","Europe/Kiev","6:00 PM GMT on April 12, 2016","2016","04","12","18","00","UTC","16","61","9","49","54","0.0","0.0","","","","","20","12","1010","29.84","-999","-999","-9999","-9999","","","Partly Cloudy","partlycloudy","0","0","0","0","0","0","AAXX 12181 33345 11998 70000 10162 20093 39906 40103 53002 69902 70282 87070 333 10189 555 10013"
"9:00 PM EEST on April 12, 2016","2016","04","12","21","00","Europe/Kiev","6:00 PM GMT on April 12, 2016","2016","04","12","18","00","UTC","16.0","60.8","9.0","48.2","63","7.2","4.5","-9999.0","-9999.0","120","ESE","-9999.0","-9999.0","1010","29.83","-999","-999","-9999","-9999","-9999.00","-9999.00","Clear","clear","0","0","0","0","0","0","METAR UKKK 121800Z 12002MPS CAVOK 16/09 Q1010 R08/CLRD70 NOSIG"
"9:30 PM EEST on April 12, 2016","2016","04","12","21","30","Europe/Kiev","6:30 PM GMT on April 12, 2016","2016","04","12","18","30","UTC","15.0","59.0","9.0","48.2","67","7.2","4.5","-9999.0","-9999.0","100","East","9.0","5.6","1010","29.83","-999","-999","-9999","-9999","-9999.00","-9999.00","Unknown","unknown","0","0","0","0","0","0","METAR UKKK 121830Z 10002MPS 9000 NSC 15/09 Q1010 R08/CLRD70 NOSIG"
"10:00 PM EEST on April 12, 2016","2016","04","12","22","00","Europe/Kiev","7:00 PM GMT on April 12, 2016","2016","04","12","19","00","UTC","14.0","57.2","9.0","48.2","72","3.6","2.2","-9999.0","-9999.0","120","ESE","9.0","5.6","1010","29.83","-999","-999","-9999","-9999","-9999.00","-9999.00","Unknown","unknown","0","0","0","0","0","0","METAR UKKK 121900Z 12001MPS 9000 NSC 14/09 Q1010 R08/CLRD70 NOSIG"
"10:30 PM EEST on April 12, 2016","2016","04","12","22","30","Europe/Kiev","7:30 PM GMT on April 12, 2016","2016","04","12","19","30","UTC","13.0","55.4","9.0","48.2","77","10.8","6.7","-9999.0","-9999.0","100","East","7.0","4.3","1010","29.83","-999","-999","-9999","-9999","-9999.00","-9999.00","Unknown","unknown","0","0","0","0","0","0","METAR UKKK 121930Z 10003MPS 7000 NSC 13/09 Q1010 R08/CLRD70 NOSIG"
"11:00 PM EEST on April 12, 2016","2016","04","12","23","00","Europe/Kiev","8:00 PM GMT on April 12, 2016","2016","04","12","20","00","UTC","15.0","59.0","9.0","48.2","67","10.8","6.7","-9999.0","-9999.0","110","ESE","-9999.0","-9999.0","1010","29.83","-999","-999","-9999","-9999","-9999.00","-9999.00","Clear","clear","0","0","0","0","0","0","METAR UKKK 122000Z 11003MPS CAVOK 15/09 Q1010 R08/CLRD70 NOSIG"
"11:30 PM EEST on April 12, 2016","2016","04","12","23","30","Europe/Kiev","8:30 PM GMT on April 12, 2016","2016","04","12","20","30","UTC","15.0","59.0","9.0","48.2","67","10.8","6.7","-9999.0","-9999.0","100","East","9.0","5.6","1010","29.83","-999","-999","-9999","-9999","-9999.00","-9999.00","Mostly Cloudy","mostlycloudy","0","0","0","0","0","0","METAR UKKK 122030Z 10003MPS 9000 BKN044 15/09 Q1010 R08/CLRD70 NOSIG"
"12:00 AM EEST on April 13, 2016","2016","04","13","00","00","Europe/Kiev","9:00 PM GMT on April 12, 2016","2016","04","12","21","00","UTC","14","58","9","49","63","0.0","0.0","","","","","20","12","1010","29.82","-999","-999","-9999","-9999","","","Partly Cloudy","partlycloudy","0","0","0","0","0","0","AAXX 12211 33345 42698 60000 10142 20094 39900 40098 58006 83570 555 10010"
"12:00 AM EEST on April 13, 2016","2016","04","13","00","00","Europe/Kiev","9:00 PM GMT on April 12, 2016","2016","04","12","21","00","UTC","15.0","59.0","8.0","46.4","63","10.8","6.7","-9999.0","-9999.0","120","ESE","10.0","6.2","1009","29.80","-999","-999","-9999","-9999","-9999.00","-9999.00","Mostly Cloudy","mostlycloudy","0","0","0","0","0","0","METAR UKKK 122100Z 12003MPS 9999 BKN044 15/08 Q1009 R08/CLRD70 NOSIG"
"12:30 AM EEST on April 13, 2016","2016","04","13","00","30","Europe/Kiev","9:30 PM GMT on April 12, 2016","2016","04","12","21","30","UTC","14.0","57.2","9.0","48.2","72","3.6","2.2","-9999.0","-9999.0","0","Variable","10.0","6.2","1010","29.83","-999","-999","-9999","-9999","-9999.00","-9999.00","Mostly Cloudy","mostlycloudy","0","0","0","0","0","0","METAR UKKK 122130Z VRB01MPS 9999 BKN046 14/09 Q1010 R08/CLRD70 NOSIG"
"1:00 AM EEST on April 13, 2016","2016","04","13","01","00","Europe/Kiev","10:00 PM GMT on April 12, 2016","2016","04","12","22","00","UTC","12.0","53.6","8.0","46.4","77","3.6","2.2","-9999.0","-9999.0","80","East","10.0","6.2","1010","29.83","-999","-999","-9999","-9999","-9999.00","-9999.00","Mostly Cloudy","mostlycloudy","0","0","0","0","0","0","METAR UKKK 122200Z 08001MPS 9999 BKN046 12/08 Q1010 R08/CLRD70 NOSIG"
"1:30 AM EEST on April 13, 2016","2016","04","13","01","30","Europe/Kiev","10:30 PM GMT on April 12, 2016","2016","04","12","22","30","UTC","14.0","57.2","9.0","48.2","72","7.2","4.5","-9999.0","-9999.0","110","ESE","-9999.0","-9999.0","1009","29.80","-999","-999","-9999","-9999","-9999.00","-9999.00","Clear","clear","0","0","0","0","0","0","METAR UKKK 122230Z 11002MPS CAVOK 14/09 Q1009 R08/CLRD70 NOSIG"
"2:00 AM EEST on April 13, 2016","2016","04","13","02","00","Europe/Kiev","11:00 PM GMT on April 12, 2016","2016","04","12","23","00","UTC","14.0","57.2","8.0","46.4","67","7.2","4.5","-9999.0","-9999.0","110","ESE","10.0","6.2","1009","29.80","-999","-999","-9999","-9999","-9999.00","-9999.00","Mostly Cloudy","mostlycloudy","0","0","0","0","0","0","METAR UKKK 122300Z 11002MPS 9999 BKN040 14/08 Q1009 R08/CLRD70 NOSIG"
"2:30 AM EEST on April 13, 2016","2016","04","13","02","30","Europe/Kiev","11:30 PM GMT on April 12, 2016","2016","04","12","23","30","UTC","13.0","55.4","8.0","46.4","72","3.6","2.2","-9999.0","-9999.0","90","East","-9999.0","-9999.0","1009","29.80","-999","-999","-9999","-9999","-9999.00","-9999.00","Clear","clear","0","0","0","0","0","0","METAR UKKK 122330Z 09001MPS CAVOK 13/08 Q1009 R08/CLRD70 NOSIG"
"3:00 AM EEST on April 13, 2016","2016","04","13","03","00","Europe/Kiev","12:00 AM GMT on April 13, 2016","2016","04","13","00","00","UTC","13","56","9","48","66","0.0","0.0","","","","","20","12","1009","29.80","-999","-999","-9999","-9999","","","Mostly Cloudy","mostlycloudy","0","0","0","0","0","0","AAXX 13001 33345 32598 70000 10134 20087 39892 40090 57008 85970 555 10011"
"3:00 AM EEST on April 13, 2016","2016","04","13","03","00","Europe/Kiev","12:00 AM GMT on April 13, 2016","2016","04","13","00","00","UTC","13.0","55.4","9.0","48.2","77","0.0","0.0","-9999.0","-9999.0","0","North","-9999.0","-9999.0","1009","29.80","-999","-999","-9999","-9999","-9999.00","-9999.00","Clear","clear","0","0","0","0","0","0","METAR UKKK 130000Z 00000MPS CAVOK 13/09 Q1009 R08/CLRD70 NOSIG"
"3:30 AM EEST on April 13, 2016","2016","04","13","03","30","Europe/Kiev","12:30 AM GMT on April 13, 2016","2016","04","13","00","30","UTC","13.0","55.4","9.0","48.2","77","0.0","0.0","-9999.0","-9999.0","0","North","9.0","5.6","1009","29.80","-999","-999","-9999","-9999","-9999.00","-9999.00","Unknown","unknown","0","0","0","0","0","0","METAR UKKK 130030Z 00000MPS 9000 NSC 13/09 Q1009 R08/CLRD70 NOSIG"
"4:00 AM EEST on April 13, 2016","2016","04","13","04","00","Europe/Kiev","1:00 AM GMT on April 13, 2016","2016","04","13","01","00","UTC","13.0","55.4","9.0","48.2","77","10.8","6.7","-9999.0","-9999.0","80","East","8.0","5.0","1008","29.77","-999","-999","-9999","-9999","-9999.00","-9999.00","Unknown","unknown","0","0","0","0","0","0","METAR UKKK 130100Z 08003MPS 8000 NSC 13/09 Q1008 R08/CLRD70 NOSIG"
"4:30 AM EEST on April 13, 2016","2016","04","13","04","30","Europe/Kiev","1:30 AM GMT on April 13, 2016","2016","04","13","01","30","UTC","12.0","53.6","9.0","48.2","82","3.6","2.2","-9999.0","-9999.0","0","Variable","-9999.0","-9999.0","1008","29.77","-999","-999","-9999","-9999","-9999.00","-9999.00","Clear","clear","0","0","0","0","0","0","METAR UKKK 130130Z VRB01MPS CAVOK 12/09 Q1008 R08/CLRD70 NOSIG"
"5:00 AM EEST on April 13, 2016","2016","04","13","05","00","Europe/Kiev","2:00 AM GMT on April 13, 2016","2016","04","13","02","00","UTC","12.0","53.6","9.0","48.2","82","3.6","2.2","-9999.0","-9999.0","120","ESE","10.0","6.2","1008","29.77","-999","-999","-9999","-9999","-9999.00","-9999.00","Mostly Cloudy","mostlycloudy","0","0","0","0","0","0","METAR UKKK 130200Z 12001MPS 9999 FEW030CB BKN047 12/09 Q1008 R08/CLRD70 NOSIG"
"5:30 AM EEST on April 13, 2016","2016","04","13","05","30","Europe/Kiev","2:30 AM GMT on April 13, 2016","2016","04","13","02","30","UTC","12.0","53.6","10.0","50.0","88","3.6","2.2","-9999.0","-9999.0","0","Variable","-9999.0","-9999.0","1008","29.77","-999","-999","-9999","-9999","-9999.00","-9999.00","Light Rain Showers","rain","0","1","0","0","0","0","METAR UKKK 130230Z VRB01MPS 4400 -SHRA SCT026CB BKN053 12/10 Q1008 R08/290058 NOSIG"
"6:00 AM EEST on April 13, 2016","2016","04","13","06","00","Europe/Kiev","3:00 AM GMT on April 13, 2016","2016","04","13","03","00","UTC","12","54","9","48","74","3.6","2.2","","","0","North","10","6","1008","29.78","-999","-999","-9999","-9999","","","Light Rain Showers","rain","0","1","0","0","0","0","AAXX 13031 33345 41497 83601 10122 20090 39886 40085 57006 78082 8692/ 555 11011"
"6:00 AM EEST on April 13, 2016","2016","04","13","06","00","Europe/Kiev","3:00 AM GMT on April 13, 2016","2016","04","13","03","00","UTC","11.0","51.8","10.0","50.0","94","7.2","4.5","-9999.0","-9999.0","290","WNW","6.0","3.7","1008","29.77","-999","-999","-9999","-9999","-9999.00","-9999.00","Light Rain Showers","rain","0","1","0","0","0","0","METAR UKKK 130300Z 29002MPS 6000 -SHRA SCT026CB BKN053 11/10 Q1008 R26/290058 NOSIG"
"6:30 AM EEST on April 13, 2016","2016","04","13","06","30","Europe/Kiev","3:30 AM GMT on April 13, 2016","2016","04","13","03","30","UTC","11.0","51.8","11.0","51.8","100","3.6","2.2","-9999.0","-9999.0","0","Variable","5.0","3.1","1008","29.77","-999","-999","-9999","-9999","-9999.00","-9999.00","Light Rain Showers","rain","0","1","0","0","0","0","METAR UKKK 130330Z VRB01MPS 5000 -SHRA SCT026CB BKN053 11/11 Q1008 R26/290355 NOSIG"
"7:00 AM EEST on April 13, 2016","2016","04","13","07","00","Europe/Kiev","4:00 AM GMT on April 13, 2016","2016","04","13","04","00","UTC","11.0","51.8","11.0","51.8","100","7.2","4.5","-9999.0","-9999.0","80","East","-9999.0","-9999.0","1008","29.77","-999","-999","-9999","-9999","-9999.00","-9999.00","Light Rain Showers","rain","0","1","0","0","0","0","METAR UKKK 130400Z 08002MPS 4700 -SHRA BR SCT026CB BKN060 11/11 Q1008 R26/290355 TEMPO VRB09G15MPS -TSRA BKN015CB"
"7:30 AM EEST on April 13, 2016","2016","04","13","07","30","Europe/Kiev","4:30 AM GMT on April 13, 2016","2016","04","13","04","30","UTC","11.0","51.8","10.0","50.0","94","3.6","2.2","-9999.0","-9999.0","0","Variable","6.0","3.7","1008","29.77","-999","-999","-9999","-9999","-9999.00","-9999.00","Mostly Cloudy","mostlycloudy","0","0","0","0","0","0","METAR UKKK 130430Z VRB01MPS 6000 SCT030CB BKN050 11/10 Q1008 R26/290355 TEMPO VRB09G15MPS -TSRA BKN015CB"
"8:00 AM EEST on April 13, 2016","2016","04","13","08","00","Europe/Kiev","5:00 AM GMT on April 13, 2016","2016","04","13","05","00","UTC","12.0","53.6","11.0","51.8","94","10.8","6.7","-9999.0","-9999.0","130","SE","-9999.0","-9999.0","1008","29.77","-999","-999","-9999","-9999","-9999.00","-9999.00","Light Rain Showers","rain","0","1","0","0","0","0","METAR UKKK 130500Z 13003MPS 110V170 3600 -SHRA BR BKN025CB BKN046 12/11 Q1008 R26/290355 TEMPO VRB09G15MPS -TSRA BKN015CB"
"8:30 AM EEST on April 13, 2016","2016","04","13","08","30","Europe/Kiev","5:30 AM GMT on April 13, 2016","2016","04","13","05","30","UTC","11.0","51.8","10.0","50.0","94","18.0","11.2","-9999.0","-9999.0","90","East","2.9","1.8","1008","29.77","-999","-999","-9999","-9999","-9999.00","-9999.00","Light Rain Showers","rain","0","1","0","0","0","0","METAR UKKK 130530Z 09005MPS 2900 -SHRA BR BKN028CB BKN047 11/10 Q1008 R08/290355 TEMPO VRB09G15MPS -TSRA BKN015CB"
"9:00 AM EEST on April 13, 2016","2016","04","13","09","00","Europe/Kiev","6:00 AM GMT on April 13, 2016","2016","04","13","06","00","UTC","10","51","10","49","92","7.2","4.5","","","60","ENE","4","2","1008","29.77","-999","-999","-9999","-9999","","","Heavy Rain Showers","rain","0","1","0","0","0","0","AAXX 13061 33345 11496 80602 10105 20097 39881 40081 57005 60082 78182 889// 333 20103 555 11011"
"9:00 AM EEST on April 13, 2016","2016","04","13","09","00","Europe/Kiev","6:00 AM GMT on April 13, 2016","2016","04","13","06","00","UTC","11.0","51.8","10.0","50.0","94","14.4","8.9","-9999.0","-9999.0","70","ENE","-9999.0","-9999.0","1007","29.74","-999","-999","-9999","-9999","-9999.00","-9999.00","Light Rain Showers","rain","0","1","0","0","0","0","METAR UKKK 130600Z 07004MPS 4900 -SHRA BR BKN030CB BKN047 11/10 Q1007 R08/290355 TEMPO VRB09G15MPS -TSRA BKN015CB"
"9:30 AM EEST on April 13, 2016","2016","04","13","09","30","Europe/Kiev","6:30 AM GMT on April 13, 2016","2016","04","13","06","30","UTC","11.0","51.8","11.0","51.8","100","10.8","6.7","-9999.0","-9999.0","90","East","-9999.0","-9999.0","1007","29.74","-999","-999","-9999","-9999","-9999.00","-9999.00","Mostly Cloudy","mostlycloudy","0","0","0","0","0","0","METAR UKKK 130630Z 09003MPS 4200 BR SCT030CB BKN049 11/11 Q1007 R08/290355 TEMPO VRB09G15MPS -TSRA BKN015CB"
"10:00 AM EEST on April 13, 2016","2016","04","13","10","00","Europe/Kiev","7:00 AM GMT on April 13, 2016","2016","04","13","07","00","UTC","11.0","51.8","11.0","51.8","100","0.0","0.0","-9999.0","-9999.0","0","North","4.5","2.8","1007","29.74","-999","-999","-9999","-9999","-9999.00","-9999.00","Light Rain Showers","rain","0","1","0","0","0","0","METAR UKKK 130700Z 00000MPS 4500 -SHRA BR BKN026CB BKN049 11/11 Q1007 R08/290355 TEMPO VRB09G15MPS 1000 -TSRA BR BKN015CB"
"10:30 AM EEST on April 13, 2016","2016","04","13","10","30","Europe/Kiev","7:30 AM GMT on April 13, 2016","2016","04","13","07","30","UTC","13.0","55.4","11.0","51.8","88","3.6","2.2","-9999.0","-9999.0","0","Variable","5.0","3.1","1007","29.74","-999","-999","-9999","-9999","-9999.00","-9999.00","Mostly Cloudy","mostlycloudy","0","0","0","0","0","0","METAR UKKK 130730Z VRB01MPS 5000 BR SCT033CB BKN049 13/11 Q1007 R08/290355 TEMPO VRB09G15MPS -TSRA BKN015CB"
"11:00 AM EEST on April 13, 2016","2016","04","13","11","00","Europe/Kiev","8:00 AM GMT on April 13, 2016","2016","04","13","08","00","UTC","14.0","57.2","12.0","53.6","88","7.2","4.5","-9999.0","-9999.0","90","East","8.0","5.0","1007","29.74","-999","-999","-9999","-9999","-9999.00","-9999.00","Mostly Cloudy","mostlycloudy","0","0","0","0","0","0","METAR UKKK 130800Z 09002MPS 360V150 8000 FEW033CB BKN049 14/12 Q1007 R08/290355 TEMPO VRB09G15MPS -TSRA BKN015CB"
"11:30 AM EEST on April 13, 2016","2016","04","13","11","30","Europe/Kiev","8:30 AM GMT on April 13, 2016","2016","04","13","08","30","UTC","15.0","59.0","12.0","53.6","82","10.8","6.7","-9999.0","-9999.0","80","East","8.0","5.0","1007","29.74","-999","-999","-9999","-9999","-9999.00","-9999.00","Mostly Cloudy","mostlycloudy","0","0","0","0","0","0","METAR UKKK 130830Z 08003MPS 040V130 8000 FEW033CB BKN049 15/12 Q1007 R08/290058 TEMPO VRB09G15MPS -TSRA BKN015CB"
"12:00 PM EEST on April 13, 2016","2016","04","13","12","00","Europe/Kiev","9:00 AM GMT on April 13, 2016","2016","04","13","09","00","UTC","16","61","12","54","72","10.8","6.7","","","150","SSE","4","2","1007","29.74","-999","-999","-9999","-9999","","","Mist","hazy","0","0","0","0","0","0","AAXX 13091 33345 41696 61503 10160 20124 39875 40071 57006 71082 82231 555 11026"
"12:00 PM EEST on April 13, 2016","2016","04","13","12","00","Europe/Kiev","9:00 AM GMT on April 13, 2016","2016","04","13","09","00","UTC","16.0","60.8","12.0","53.6","77","10.8","6.7","-9999.0","-9999.0","110","ESE","9.0","5.6","1007","29.74","-999","-999","-9999","-9999","-9999.00","-9999.00","Mostly Cloudy","mostlycloudy","0","0","0","0","0","0","METAR UKKK 130900Z 11003MPS 070V170 9000 FEW017 BKN040 16/12 Q1007 R08/290058 TEMPO VRB09G15MPS -TSRA BKN015CB"
"12:30 PM EEST on April 13, 2016","2016","04","13","12","30","Europe/Kiev","9:30 AM GMT on April 13, 2016","2016","04","13","09","30","UTC","17.0","62.6","12.0","53.6","72","7.2","4.5","-9999.0","-9999.0","150","SSE","10.0","6.2","1007","29.74","-999","-999","-9999","-9999","-9999.00","-9999.00","Mostly Cloudy","mostlycloudy","0","0","0","0","0","0","METAR UKKK 130930Z 15002MPS 100V220 9999 FEW016 BKN040 17/12 Q1007 R08/290058 TEMPO VRB09G15MPS -TSRA BKN015CB"
"1:00 PM EEST on April 13, 2016","2016","04","13","13","00","Europe/Kiev","10:00 AM GMT on April 13, 2016","2016","04","13","10","00","UTC","16.0","60.8","12.0","53.6","77","14.4","8.9","-9999.0","-9999.0","140","SE","10.0","6.2","1007","29.74","-999","-999","-9999","-9999","-9999.00","-9999.00","Mostly Cloudy","mostlycloudy","0","0","0","0","0","0","METAR UKKK 131000Z 14004MPS 110V180 9999 FEW016 BKN046 16/12 Q1007 R08/290058 TEMPO VRB09G15MPS -TSRA BKN015CB"
"1:30 PM EEST on April 13, 2016","2016","04","13","13","30","Europe/Kiev","10:30 AM GMT on April 13, 2016","2016","04","13","10","30","UTC","15.0","59.0","12.0","53.6","82","10.8","6.7","-9999.0","-9999.0","150","SSE","10.0","6.2","1007","29.74","-999","-999","-9999","-9999","-9999.00","-9999.00","Light Rain Showers","rain","0","1","0","0","0","0","METAR UKKK 131030Z 15003MPS 110V210 9999 -SHRA SCT023CB BKN046 15/12 Q1007 R08/290058 TEMPO VRB09G15MPS -TSRA BKN015CB"
"2:00 PM EEST on April 13, 2016","2016","04","13","14","00","Europe/Kiev","11:00 AM GMT on April 13, 2016","2016","04","13","11","00","UTC","14.0","57.2","12.0","53.6","88","14.4","8.9","-9999.0","-9999.0","160","SSE","5.0","3.1","1007","29.74","-999","-999","-9999","-9999","-9999.00","-9999.00","Light Rain Showers","rain","0","1","0","0","0","0","METAR UKKK 131100Z 16004MPS 130V210 5000 -SHRA FEW006 BKN024CB BKN046 14/12 Q1007 R08/290058 TEMPO 23011G17MPS 1000 TSRAGR BKN015CB"
"2:30 PM EEST on April 13, 2016","2016","04","13","14","30","Europe/Kiev","11:30 AM GMT on April 13, 2016","2016","04","13","11","30","UTC","14.0","57.2","13.0","55.4","94","7.2","4.5","-9999.0","-9999.0","170","South","-9999.0","-9999.0","1007","29.74","-999","-999","-9999","-9999","-9999.00","-9999.00","Light Rain Showers","rain","0","1","0","0","0","0","METAR UKKK 131130Z 17002MPS 130V240 4800 -SHRA BR FEW006 BKN024CB BKN046 14/13 Q1007 R08/290058 TEMPO 23011G17MPS 1000 TSRAGR BKN015CB"
"3:00 PM EEST on April 13, 2016","2016","04","13","15","00","Europe/Kiev","12:00 PM GMT on April 13, 2016","2016","04","13","12","00","UTC","13","55","12","54","93","7.2","4.5","","","320","NW","4","2","1006","29.72","-999","-999","-9999","-9999","","","Light Rain Showers","rain","0","1","0","0","0","0","AAXX 13121 33345 /1496 83202 10129 20120 39865 40063 57010 78082 8695/ 333 86912 555 11014 60061"
"3:00 PM EEST on April 13, 2016","2016","04","13","15","00","Europe/Kiev","12:00 PM GMT on April 13, 2016","2016","04","13","12","00","UTC","13.0","55.4","11.0","51.8","88","10.8","6.7","-9999.0","-9999.0","310","NW","9.0","5.6","1006","29.71","-999","-999","-9999","-9999","-9999.00","-9999.00","Light Rain Showers","rain","0","1","0","0","0","0","METAR UKKK 131200Z 31003MPS 9000 -SHRA SCT030CB BKN049 13/11 Q1006 R26/290257 TEMPO 23011G17MPS 1000 TSRAGR BKN015CB"
"3:30 PM EEST on April 13, 2016","2016","04","13","15","30","Europe/Kiev","12:30 PM GMT on April 13, 2016","2016","04","13","12","30","UTC","13.0","55.4","12.0","53.6","94","7.2","4.5","-9999.0","-9999.0","290","WNW","10.0","6.2","1006","29.71","-999","-999","-9999","-9999","-9999.00","-9999.00","Light Rain Showers","rain","0","1","0","0","0","0","METAR UKKK 131230Z 29002MPS 9999 -SHRA SCT032CB BKN048 13/12 Q1006 R26/290257 TEMPO 23011G17MPS 1000 TSRAGR BKN015CB"
"4:00 PM EEST on April 13, 2016","2016","04","13","16","00","Europe/Kiev","1:00 PM GMT on April 13, 2016","2016","04","13","13","00","UTC","14.0","57.2","12.0","53.6","88","14.4","8.9","-9999.0","-9999.0","270","West","10.0","6.2","1006","29.71","-999","-999","-9999","-9999","-9999.00","-9999.00","Mostly Cloudy","mostlycloudy","0","0","0","0","0","0","METAR UKKK 131300Z 27004MPS 250V310 9999 FEW033CB BKN048 14/12 Q1006 R26/290257 TEMPO 23011G17MPS 1000 TSRAGR BKN015CB"
"4:30 PM EEST on April 13, 2016","2016","04","13","16","30","Europe/Kiev","1:30 PM GMT on April 13, 2016","2016","04","13","13","30","UTC","14.0","57.2","13.0","55.4","94","7.2","4.5","-9999.0","-9999.0","290","WNW","10.0","6.2","1005","29.68","-999","-999","-9999","-9999","-9999.00","-9999.00","Light Rain Showers","rain","0","1","0","0","0","0","METAR UKKK 131330Z 29002MPS 9999 -SHRA SCT033CB BKN046 14/13 Q1005 R26/290257 TEMPO 23011G17MPS 1000 TSRAGR BKN015CB"
"5:00 PM EEST on April 13, 2016","2016","04","13","17","00","Europe/Kiev","2:00 PM GMT on April 13, 2016","2016","04","13","14","00","UTC","13.0","55.4","13.0","55.4","100","10.8","6.7","-9999.0","-9999.0","270","West","9.0","5.6","1005","29.68","-999","-999","-9999","-9999","-9999.00","-9999.00","Light Rain Showers","rain","0","1","0","0","0","0","METAR UKKK 131400Z 27003MPS 9000 -SHRA SCT030CB BKN045 13/13 Q1005 R26/290257 TEMPO 23011G17MPS 1000 TSRAGR BKN015CB"
"5:30 PM EEST on April 13, 2016","2016","04","13","17","30","Europe/Kiev","2:30 PM GMT on April 13, 2016","2016","04","13","14","30","UTC","14.0","57.2","13.0","55.4","94","7.2","4.5","-9999.0","-9999.0","270","West","10.0","6.2","1005","29.68","-999","-999","-9999","-9999","-9999.00","-9999.00","Light Rain Showers","rain","0","1","0","0","0","0","METAR UKKK 131430Z 27002MPS 9999 -SHRA SCT031CB BKN046 14/13 Q1005 R26/290257 NOSIG"
"6:00 PM EEST on April 13, 2016","2016","04","13","18","00","Europe/Kiev","3:00 PM GMT on April 13, 2016","2016","04","13","15","00","UTC","14","57","12","54","86","3.6","2.2","","","230","SW","10","6","1006","29.70","-999","-999","-9999","-9999","","","Light Rain Showers","rain","0","1","0","0","0","0","AAXX 13151 33345 41697 82301 10137 20122 39858 40055 57007 72582 8597/ 555 11015"
"6:00 PM EEST on April 13, 2016","2016","04","13","18","00","Europe/Kiev","3:00 PM GMT on April 13, 2016","2016","04","13","15","00","UTC","14.0","57.2","13.0","55.4","94","7.2","4.5","-9999.0","-9999.0","260","West","9.0","5.6","1005","29.68","-999","-999","-9999","-9999","-9999.00","-9999.00","Mostly Cloudy","mostlycloudy","0","0","0","0","0","0","METAR UKKK 131500Z 26002MPS 9000 FEW009 BKN046 14/13 Q1005 R26/290257 NOSIG"
"6:30 PM EEST on April 13, 2016","2016","04","13","18","30","Europe/Kiev","3:30 PM GMT on April 13, 2016","2016","04","13","15","30","UTC","14.0","57.2","13.0","55.4","94","7.2","4.5","-9999.0","-9999.0","260","West","7.0","4.3","1005","29.68","-999","-999","-9999","-9999","-9999.00","-9999.00","Mostly Cloudy","mostlycloudy","0","0","0","0","0","0","METAR UKKK 131530Z 26002MPS 7000 FEW030CB BKN046 14/13 Q1005 R26/290058 NOSIG"
"7:00 PM EEST on April 13, 2016","2016","04","13","19","00","Europe/Kiev","4:00 PM GMT on April 13, 2016","2016","04","13","16","00","UTC","14.0","57.2","13.0","55.4","94","7.2","4.5","-9999.0","-9999.0","260","West","8.0","5.0","1005","29.68","-999","-999","-9999","-9999","-9999.00","-9999.00","Mostly Cloudy","mostlycloudy","0","0","0","0","0","0","METAR UKKK 131600Z 26002MPS 8000 FEW033CB BKN046 14/13 Q1005 R26/290058 NOSIG"
"7:30 PM EEST on April 13, 2016","2016","04","13","19","30","Europe/Kiev","4:30 PM GMT on April 13, 2016","2016","04","13","16","30","UTC","14.0","57.2","12.0","53.6","88","7.2","4.5","-9999.0","-9999.0","250","WSW","7.0","4.3","1005","29.68","-999","-999","-9999","-9999","-9999.00","-9999.00","Mostly Cloudy","mostlycloudy","0","0","0","0","0","0","METAR UKKK 131630Z 25002MPS 7000 FEW033CB BKN046 14/12 Q1005 R26/290058 NOSIG"
"8:00 PM EEST on April 13, 2016","2016","04","13","20","00","Europe/Kiev","5:00 PM GMT on April 13, 2016","2016","04","13","17","00","UTC","13.0","55.4","13.0","55.4","100","3.6","2.2","-9999.0","-9999.0","0","Variable","5.0","3.1","1005","29.68","-999","-999","-9999","-9999","-9999.00","-9999.00","Mostly Cloudy","mostlycloudy","0","0","0","0","0","0","METAR UKKK 131700Z VRB01MPS 5000 BR FEW030CB BKN046 13/13 Q1005 R26/290058 NOSIG"
"8:30 PM EEST on April 13, 2016","2016","04","13","20","30","Europe/Kiev","5:30 PM GMT on April 13, 2016","2016","04","13","17","30","UTC","13.0","55.4","13.0","55.4","100","7.2","4.5","-9999.0","-9999.0","240","WSW","5.0","3.1","1005","29.68","-999","-999","-9999","-9999","-9999.00","-9999.00","Mostly Cloudy","mostlycloudy","0","0","0","0","0","0","METAR UKKK 131730Z 24002MPS 5000 BR FEW030CB BKN046 13/13 Q1005 R26/290058 NOSIG"
"9:00 PM EEST on April 13, 2016","2016","04","13","21","00","Europe/Kiev","6:00 PM GMT on April 13, 2016","2016","04","13","18","00","UTC","13","56","12","54","92","3.6","2.2","","","240","WSW","4","2","1006","29.70","-999","-999","-9999","-9999","","","Mist","hazy","0","0","0","0","0","0","AAXX 13181 33345 11696 82401 10131 20124 39859 40057 53001 60072 71082 8557/ 333 10169 555 11013"
"9:00 PM EEST on April 13, 2016","2016","04","13","21","00","Europe/Kiev","6:00 PM GMT on April 13, 2016","2016","04","13","18","00","UTC","13.0","55.4","13.0","55.4","100","7.2","4.5","-9999.0","-9999.0","260","West","-9999.0","-9999.0","1005","29.68","-999","-999","-9999","-9999","-9999.00","-9999.00","Mostly Cloudy","mostlycloudy","0","0","0","0","0","0","METAR UKKK 131800Z 26002MPS 4100 BR BKN046 13/13 Q1005 R26/290058 NOSIG"
"9:30 PM EEST on April 13, 2016","2016","04","13","21","30","Europe/Kiev","6:30 PM GMT on April 13, 2016","2016","04","13","18","30","UTC","13.0","55.4","13.0","55.4","100","7.2","4.5","-9999.0","-9999.0","260","West","-9999.0","-9999.0","1005","29.68","-999","-999","-9999","-9999","-9999.00","-9999.00","Mostly Cloudy","mostlycloudy","0","0","0","0","0","0","METAR UKKK 131830Z 26002MPS 3700 BR BKN046 13/13 Q1005 R26/290058 NOSIG"
"10:00 PM EEST on April 13, 2016","2016","04","13","22","00","Europe/Kiev","7:00 PM GMT on April 13, 2016","2016","04","13","19","00","UTC","13.0","55.4","12.0","53.6","94","7.2","4.5","-9999.0","-9999.0","250","WSW","-9999.0","-9999.0","1005","29.68","-999","-999","-9999","-9999","-9999.00","-9999.00","Scattered Clouds","partlycloudy","0","0","0","0","0","0","METAR UKKK 131900Z 25002MPS 4200 BR SCT046 13/12 Q1005 R26/290058 NOSIG"
"10:30 PM EEST on April 13, 2016","2016","04","13","22","30","Europe/Kiev","7:30 PM GMT on April 13, 2016","2016","04","13","19","30","UTC","12.0","53.6","12.0","53.6","100","7.2","4.5","-9999.0","-9999.0","250","WSW","-9999.0","-9999.0","1005","29.68","-999","-999","-9999","-9999","-9999.00","-9999.00","Mist","hazy","0","0","0","0","0","0","METAR UKKK 131930Z 25002MPS 3400 BR NSC 12/12 Q1005 R26/290058 TEMPO 2000 BR"
"11:00 PM EEST on April 13, 2016","2016","04","13","23","00","Europe/Kiev","8:00 PM GMT on April 13, 2016","2016","04","13","20","00","UTC","11.0","51.8","11.0","51.8","100","7.2","4.5","-9999.0","-9999.0","250","WSW","-9999.0","-9999.0","1005","29.68","-999","-999","-9999","-9999","-9999.00","-9999.00","Mist","hazy","0","0","0","0","0","0","METAR UKKK 132000Z 25002MPS 3400 BR NSC 11/11 Q1005 R26/290058 TEMPO 0400 FG"
"11:30 PM EEST on April 13, 2016","2016","04","13","23","30","Europe/Kiev","8:30 PM GMT on April 13, 2016","2016","04","13","20","30","UTC","11.0","51.8","11.0","51.8","100","7.2","4.5","-9999.0","-9999.0","250","WSW","-9999.0","-9999.0","1005","29.68","-999","-999","-9999","-9999","-9999.00","-9999.00","Mist","hazy","0","0","0","0","0","0","METAR UKKK 132030Z 25002MPS 3300 BR NSC 11/11 Q1005 R26/290058 TEMPO 0400 FG"
"12:00 AM EEST on April 14, 2016","2016","04","14","00","00","Europe/Kiev","9:00 PM GMT on April 13, 2016","2016","04","13","21","00","UTC","12","54","10","51","86","7.2","4.5","","","260","West","4","2","1005","29.69","-999","-999","-9999","-9999","","","Mist","hazy","0","0","0","0","0","0","AAXX 13211 33345 41996 22602 10120 20105 39856 40054 58003 71011 82040 555 11010"
"12:00 AM EEST on April 14, 2016","2016","04","14","00","00","Europe/Kiev","9:00 PM GMT on April 13, 2016","2016","04","13","21","00","UTC","10.0","50.0","10.0","50.0","100","3.6","2.2","-9999.0","-9999.0","230","SW","2.9","1.8","1005","29.68","-999","-999","-9999","-9999","-9999.00","-9999.00","Mist","hazy","0","0","0","0","0","0","METAR UKKK 132100Z 23001MPS 2900 BR NSC 10/10 Q1005 R26/290058 TEMPO 0400 FG"
"12:30 AM EEST on April 14, 2016","2016","04","14","00","30","Europe/Kiev","9:30 PM GMT on April 13, 2016","2016","04","13","21","30","UTC","10.0","50.0","10.0","50.0","100","7.2","4.5","-9999.0","-9999.0","230","SW","2.0","1.2","1005","29.68","-999","-999","-9999","-9999","-9999.00","-9999.00","Mist","hazy","0","0","0","0","0","0","METAR UKKK 132130Z 23002MPS 2000 BR NSC 10/10 Q1005 R26/290058 TEMPO 0400 FG"
"1:00 AM EEST on April 14, 2016","2016","04","14","01","00","Europe/Kiev","10:00 PM GMT on April 13, 2016","2016","04","13","22","00","UTC","9.0","48.2","9.0","48.2","100","7.2","4.5","-9999.0","-9999.0","240","WSW","-9999.0","-9999.0","1005","29.68","-999","-999","-9999","-9999","-9999.00","-9999.00","Unknown","unknown","0","0","0","0","0","0","METAR UKKK 132200Z 24002MPS 0750 R26/P2000U PRFG NSC 09/09 Q1005 R26/290058 TEMPO 0400 FG"
"1:30 AM EEST on April 14, 2016","2016","04","14","01","30","Europe/Kiev","10:30 PM GMT on April 13, 2016","2016","04","13","22","30","UTC","9.0","48.2","9.0","48.2","100","7.2","4.5","-9999.0","-9999.0","240","WSW","2.2","1.4","1004","29.65","-999","-999","-9999","-9999","-9999.00","-9999.00","Mist","hazy","0","0","0","0","0","0","METAR UKKK 132230Z 24002MPS 2200 BR NSC 09/09 Q1004 R26/290058 TEMPO 0400 FG"
"2:00 AM EEST on April 14, 2016","2016","04","14","02","00","Europe/Kiev","11:00 PM GMT on April 13, 2016","2016","04","13","23","00","UTC","8.0","46.4","8.0","46.4","100","7.2","4.5","-9999.0","-9999.0","240","WSW","0.4","0.3","1004","29.65","6.9","44.4","-9999","-9999","-9999.00","-9999.00","Unknown","unknown","0","0","0","0","0","0","METAR UKKK 132300Z 24002MPS 0450 R26/P2000D PRFG NSC 08/08 Q1004 R26/290058 TEMPO 0400 FG"
"2:30 AM EEST on April 14, 2016","2016","04","14","02","30","Europe/Kiev","11:30 PM GMT on April 13, 2016","2016","04","13","23","30","UTC","7.0","44.6","7.0","44.6","100","7.2","4.5","-9999.0","-9999.0","240","WSW","0.2","0.1","1004","29.65","5.7","42.3","-9999","-9999","-9999.00","-9999.00","Fog","fog","1","0","0","0","0","0","METAR UKKK 132330Z 24002MPS 0200 R26/0750V1700D FG NSC 07/07 Q1004 R26/290058 TEMPO 0400 FG"
"3:00 AM EEST on April 14, 2016","2016","04","14","03","00","Europe/Kiev","12:00 AM GMT on April 14, 2016","2016","04","14","00","00","UTC","11","52","10","49","87","7.2","4.5","","","280","West","4","2","1005","29.67","-999","-999","-9999","-9999","","","Mist","hazy","0","0","0","0","0","0","AAXX 14001 33345 31996 22802 10110 20096 39847 40046 57009 71011 80001 555 11008"
"3:00 AM EEST on April 14, 2016","2016","04","14","03","00","Europe/Kiev","12:00 AM GMT on April 14, 2016","2016","04","14","00","00","UTC","7.0","44.6","7.0","44.6","100","7.2","4.5","-9999.0","-9999.0","230","SW","0.4","0.3","1004","29.65","5.7","42.3","-9999","-9999","-9999.00","-9999.00","Fog","fog","1","0","0","0","0","0","METAR UKKK 140000Z 23002MPS 0450 R26/1400VP2000D FG NSC 07/07 Q1004 R26/290058 TEMPO 0400 FG"
"3:30 AM EEST on April 14, 2016","2016","04","14","03","30","Europe/Kiev","12:30 AM GMT on April 14, 2016","2016","04","14","00","30","UTC","6.0","42.8","6.0","42.8","100","7.2","4.5","-9999.0","-9999.0","240","WSW","0.3","0.2","1004","29.65","4.5","40.2","-9999","-9999","-9999.00","-9999.00","Fog","fog","1","0","0","0","0","0","METAR UKKK 140030Z 24002MPS 0350 R26/1800VP2000D FG NSC 06/06 Q1004 R26/290058 TEMPO 0400 FG"
"4:00 AM EEST on April 14, 2016","2016","04","14","04","00","Europe/Kiev","1:00 AM GMT on April 14, 2016","2016","04","14","01","00","UTC","7.0","44.6","7.0","44.6","100","3.6","2.2","-9999.0","-9999.0","230","SW","-9999.0","-9999.0","1004","29.65","-999","-999","-9999","-9999","-9999.00","-9999.00","Fog","fog","1","0","0","0","0","0","METAR UKKK 140100Z 23001MPS 0650 R26/0550VP2000D FG SKC 07/07 Q1004 R26/290058 TEMPO 0400 FG"
"4:30 AM EEST on April 14, 2016","2016","04","14","04","30","Europe/Kiev","1:30 AM GMT on April 14, 2016","2016","04","14","01","30","UTC","7.0","44.6","7.0","44.6","100","7.2","4.5","-9999.0","-9999.0","230","SW","-9999.0","-9999.0","1004","29.65","5.7","42.3","-9999","-9999","-9999.00","-9999.00","Mist","hazy","0","0","0","0","0","0","METAR UKKK 140130Z 23002MPS 4600 BR NSC 07/07 Q1004 R26/290058 TEMPO 0400 FG"
"5:00 AM EEST on April 14, 2016","2016","04","14","05","00","Europe/Kiev","2:00 AM GMT on April 14, 2016","2016","04","14","02","00","UTC","7.0","44.6","7.0","44.6","100","7.2","4.5","-9999.0","-9999.0","250","WSW","-9999.0","-9999.0","1004","29.65","5.7","42.3","-9999","-9999","-9999.00","-9999.00","Mist","hazy","0","0","0","0","0","0","METAR UKKK 140200Z 25002MPS 3800 BR NSC 07/07 Q1004 R26/290058 TEMPO 0400 FG"
"5:30 AM EEST on April 14, 2016","2016","04","14","05","30","Europe/Kiev","2:30 AM GMT on April 14, 2016","2016","04","14","02","30","UTC","8.0","46.4","8.0","46.4","100","7.2","4.5","-9999.0","-9999.0","250","WSW","1.4","0.9","1004","29.65","6.9","44.4","-9999","-9999","-9999.00","-9999.00","Mostly Cloudy","mostlycloudy","0","0","0","0","0","0","METAR UKKK 140230Z 25002MPS 1400 R26/1800VP2000D BR BKN046 08/08 Q1004 R26/290058 TEMPO 0400 FG"
"6:00 AM EEST on April 14, 2016","2016","04","14","06","00","Europe/Kiev","3:00 AM GMT on April 14, 2016","2016","04","14","03","00","UTC","10","51","9","48","87","7.2","4.5","","","310","NW","4","2","1004","29.65","-999","-999","-9999","-9999","","","Mist","hazy","0","0","0","0","0","0","AAXX 14031 33345 41696 23102 10104 20090 39841 40040 57006 71000 82500 555 11008"
"6:00 AM EEST on April 14, 2016","2016","04","14","06","00","Europe/Kiev","3:00 AM GMT on April 14, 2016","2016","04","14","03","00","UTC","7.0","44.6","7.0","44.6","100","7.2","4.5","-9999.0","-9999.0","250","WSW","0.1","0.1","1004","29.65","5.7","42.3","-9999","-9999","-9999.00","-9999.00","Fog","fog","1","0","0","0","0","0","METAR UKKK 140300Z 25002MPS 0150 R26/0650V1900D FG SCT046 07/07 Q1004 R26/190060 TEMPO 0400 FG"
"6:30 AM EEST on April 14, 2016","2016","04","14","06","30","Europe/Kiev","3:30 AM GMT on April 14, 2016","2016","04","14","03","30","UTC","7.0","44.6","7.0","44.6","100","7.2","4.5","-9999.0","-9999.0","250","WSW","2.9","1.8","1004","29.65","5.7","42.3","-9999","-9999","-9999.00","-9999.00","Mist","hazy","0","0","0","0","0","0","METAR UKKK 140330Z 25002MPS 2900 BR NSC 07/07 Q1004 R26/190060 TEMPO 1100 BR"
"7:00 AM EEST on April 14, 2016","2016","04","14","07","00","Europe/Kiev","4:00 AM GMT on April 14, 2016","2016","04","14","04","00","UTC","8.0","46.4","8.0","46.4","100","7.2","4.5","-9999.0","-9999.0","250","WSW","6.0","3.7","1003","29.62","6.9","44.4","-9999","-9999","-9999.00","-9999.00","Scattered Clouds","partlycloudy","0","0","0","0","0","0","METAR UKKK 140400Z 25002MPS 6000 SCT036 08/08 Q1003 R26/190060 NOSIG"
"7:30 AM EEST on April 14, 2016","2016","04","14","07","30","Europe/Kiev","4:30 AM GMT on April 14, 2016","2016","04","14","04","30","UTC","9.0","48.2","9.0","48.2","100","7.2","4.5","-9999.0","-9999.0","240","WSW","5.0","3.1","1003","29.62","-999","-999","-9999","-9999","-9999.00","-9999.00","Scattered Clouds","partlycloudy","0","0","0","0","0","0","METAR UKKK 140430Z 24002MPS 5000 BR SCT036 09/09 Q1003 R26/190060 NOSIG"
"8:00 AM EEST on April 14, 2016","2016","04","14","08","00","Europe/Kiev","5:00 AM GMT on April 14, 2016","2016","04","14","05","00","UTC","11.0","51.8","10.0","50.0","94","10.8","6.7","-9999.0","-9999.0","260","West","5.0","3.1","1004","29.65","-999","-999","-9999","-9999","-9999.00","-9999.00","Scattered Clouds","partlycloudy","0","0","0","0","0","0","METAR UKKK 140500Z 26003MPS 5000 BR SCT035 11/10 Q1004 R26/190060 NOSIG"
"8:30 AM EEST on April 14, 2016","2016","04","14","08","30","Europe/Kiev","5:30 AM GMT on April 14, 2016","2016","04","14","05","30","UTC","11.0","51.8","9.0","48.2","88","14.4","8.9","-9999.0","-9999.0","270","West","6.0","3.7","1004","29.65","-999","-999","-9999","-9999","-9999.00","-9999.00","Mostly Cloudy","mostlycloudy","0","0","0","0","0","0","METAR UKKK 140530Z 27004MPS 6000 BKN040 11/09 Q1004 R26/190060 NOSIG"
"9:00 AM EEST on April 14, 2016","2016","04","14","09","00","Europe/Kiev","6:00 AM GMT on April 14, 2016","2016","04","14","06","00","UTC","12","54","9","48","73","10.8","6.7","","","280","West","10","6","1004","29.65","-999","-999","-9999","-9999","","","Scattered Clouds","partlycloudy","0","0","0","0","0","0","AAXX 14061 33345 32997 22803 10120 20088 39841 40039 54000 82040 333 20098 555 11014"
"9:00 AM EEST on April 14, 2016","2016","04","14","09","00","Europe/Kiev","6:00 AM GMT on April 14, 2016","2016","04","14","06","00","UTC","12.0","53.6","10.0","50.0","88","14.4","8.9","-9999.0","-9999.0","280","West","8.0","5.0","1004","29.65","-999","-999","-9999","-9999","-9999.00","-9999.00","Partly Cloudy","partlycloudy","0","0","0","0","0","0","METAR UKKK 140600Z 28004MPS 8000 FEW040 12/10 Q1004 R26/190060 NOSIG"
"9:30 AM EEST on April 14, 2016","2016","04","14","09","30","Europe/Kiev","6:30 AM GMT on April 14, 2016","2016","04","14","06","30","UTC","13.0","55.4","10.0","50.0","82","18.0","11.2","-9999.0","-9999.0","270","West","9.0","5.6","1004","29.65","-999","-999","-9999","-9999","-9999.00","-9999.00","Clear","clear","0","0","0","0","0","0","METAR UKKK 140630Z 27005MPS 9000 SKC 13/10 Q1004 R26/190060 NOSIG"
"10:00 AM EEST on April 14, 2016","2016","04","14","10","00","Europe/Kiev","7:00 AM GMT on April 14, 2016","2016","04","14","07","00","UTC","14.0","57.2","11.0","51.8","82","18.0","11.2","-9999.0","-9999.0","280","West","9.0","5.6","1004","29.65","-999","-999","-9999","-9999","-9999.00","-9999.00","Clear","clear","0","0","0","0","0","0","METAR UKKK 140700Z 28005MPS 9000 SKC 14/11 Q1004 R26/190060 NOSIG"
"10:30 AM EEST on April 14, 2016","2016","04","14","10","30","Europe/Kiev","7:30 AM GMT on April 14, 2016","2016","04","14","07","30","UTC","15.0","59.0","10.0","50.0","72","14.4","8.9","-9999.0","-9999.0","300","WNW","-9999.0","-9999.0","1004","29.65","-999","-999","-9999","-9999","-9999.00","-9999.00","Clear","clear","0","0","0","0","0","0","METAR UKKK 140730Z 30004MPS CAVOK 15/10 Q1004 R26/190060 NOSIG"
"11:00 AM EEST on April 14, 2016","2016","04","14","11","00","Europe/Kiev","8:00 AM GMT on April 14, 2016","2016","04","14","08","00","UTC","16.0","60.8","10.0","50.0","68","18.0","11.2","-9999.0","-9999.0","300","WNW","10.0","6.2","1004","29.65","-999","-999","-9999","-9999","-9999.00","-9999.00","Partly Cloudy","partlycloudy","0","0","0","0","0","0","METAR UKKK 140800Z 30005MPS 9999 FEW023 16/10 Q1004 R26/CLRD70 NOSIG"
"11:30 AM EEST on April 14, 2016","2016","04","14","11","30","Europe/Kiev","8:30 AM GMT on April 14, 2016","2016","04","14","08","30","UTC","16.0","60.8","9.0","48.2","63","10.8","6.7","-9999.0","-9999.0","280","West","10.0","6.2","1004","29.65","-999","-999","-9999","-9999","-9999.00","-9999.00","Partly Cloudy","partlycloudy","0","0","0","0","0","0","METAR UKKK 140830Z 28003MPS 250V310 9999 FEW030 16/09 Q1004 R26/CLRD70 NOSIG"
"12:00 PM EEST on April 14, 2016","2016","04","14","12","00","Europe/Kiev","9:00 AM GMT on April 14, 2016","2016","04","14","09","00","UTC","17","62","8","46","45","7.2","4.5","","","280","West","20","12","1004","29.64","-999","-999","-9999","-9999","","","Partly Cloudy","partlycloudy","0","0","0","0","0","0","AAXX 14091 33345 42598 32802 10166 20078 39840 40035 58001 83200 555 11026"
"12:00 PM EEST on April 14, 2016","2016","04","14","12","00","Europe/Kiev","9:00 AM GMT on April 14, 2016","2016","04","14","09","00","UTC","17.0","62.6","8.0","46.4","55","18.0","11.2","-9999.0","-9999.0","280","West","10.0","6.2","1003","29.62","-999","-999","-9999","-9999","-9999.00","-9999.00","Partly Cloudy","partlycloudy","0","0","0","0","0","0","METAR UKKK 140900Z 28005MPS 9999 FEW030 17/08 Q1003 R26/CLRD70 NOSIG"
"12:30 PM EEST on April 14, 2016","2016","04","14","12","30","Europe/Kiev","9:30 AM GMT on April 14, 2016","2016","04","14","09","30","UTC","17.0","62.6","8.0","46.4","55","14.4","8.9","-9999.0","-9999.0","280","West","10.0","6.2","1003","29.62","-999","-999","-9999","-9999","-9999.00","-9999.00","Scattered Clouds","partlycloudy","0","0","0","0","0","0","METAR UKKK 140930Z 28004MPS 240V310 9999 SCT039 17/08 Q1003 R26/CLRD70 NOSIG"
"1:00 PM EEST on April 14, 2016","2016","04","14","13","00","Europe/Kiev","10:00 AM GMT on April 14, 2016","2016","04","14","10","00","UTC","18.0","64.4","7.0","44.6","49","18.0","11.2","-9999.0","-9999.0","260","West","10.0","6.2","1003","29.62","-999","-999","-9999","-9999","-9999.00","-9999.00","Scattered Clouds","partlycloudy","0","0","0","0","0","0","METAR UKKK 141000Z 26005MPS 230V300 9999 SCT046 18/07 Q1003 R26/CLRD70 NOSIG"
"1:30 PM EEST on April 14, 2016","2016","04","14","13","30","Europe/Kiev","10:30 AM GMT on April 14, 2016","2016","04","14","10","30","UTC","18.0","64.4","8.0","46.4","52","18.0","11.2","-9999.0","-9999.0","270","West","10.0","6.2","1003","29.62","-999","-999","-9999","-9999","-9999.00","-9999.00","Scattered Clouds","partlycloudy","0","0","0","0","0","0","METAR UKKK 141030Z 27005MPS 240V300 9999 SCT049 18/08 Q1003 R26/CLRD70 NOSIG"
"2:00 PM EEST on April 14, 2016","2016","04","14","14","00","Europe/Kiev","11:00 AM GMT on April 14, 2016","2016","04","14","11","00","UTC","18.0","64.4","8.0","46.4","52","14.4","8.9","-9999.0","-9999.0","260","West","-9999.0","-9999.0","1003","29.62","-999","-999","-9999","-9999","-9999.00","-9999.00","Clear","clear","0","0","0","0","0","0","METAR UKKK 141100Z 26004MPS 230V310 CAVOK 18/08 Q1003 R26/CLRD70 NOSIG"
"2:30 PM EEST on April 14, 2016","2016","04","14","14","30","Europe/Kiev","11:30 AM GMT on April 14, 2016","2016","04","14","11","30","UTC","18.0","64.4","7.0","44.6","49","18.0","11.2","-9999.0","-9999.0","270","West","-9999.0","-9999.0","1003","29.62","-999","-999","-9999","-9999","-9999.00","-9999.00","Clear","clear","0","0","0","0","0","0","METAR UKKK 141130Z 27005MPS 220V290 CAVOK 18/07 Q1003 R26/CLRD70 NOSIG"
"3:00 PM EEST on April 14, 2016","2016","04","14","15","00","Europe/Kiev","12:00 PM GMT on April 14, 2016","2016","04","14","12","00","UTC","19","67","6","43","30","10.8","6.7","","","240","WSW","20","12","1002","29.60","-999","-999","-9999","-9999","","","Mostly Cloudy","mostlycloudy","0","0","0","0","0","0","AAXX 14121 33345 32698 62403 10193 20059 39831 40024 57009 86200 555 11025"
"3:00 PM EEST on April 14, 2016","2016","04","14","15","00","Europe/Kiev","12:00 PM GMT on April 14, 2016","2016","04","14","12","00","UTC","18.0","64.4","7.0","44.6","49","18.0","11.2","-9999.0","-9999.0","270","West","-9999.0","-9999.0","1002","29.59","-999","-999","-9999","-9999","-9999.00","-9999.00","Clear","clear","0","0","0","0","0","0","METAR UKKK 141200Z 27005MPS 240V300 CAVOK 18/07 Q1002 R26/CLRD70 NOSIG"
"3:30 PM EEST on April 14, 2016","2016","04","14","15","30","Europe/Kiev","12:30 PM GMT on April 14, 2016","2016","04","14","12","30","UTC","20.0","68.0","10.0","50.0","52","18.0","11.2","-9999.0","-9999.0","250","WSW","-9999.0","-9999.0","1002","29.59","-999","-999","-9999","-9999","-9999.00","-9999.00","Clear","clear","0","0","0","0","0","0","METAR UKKK 141230Z 25005MPS CAVOK 20/10 Q1002 R26/CLRD70 NOSIG"
"4:00 PM EEST on April 14, 2016","2016","04","14","16","00","Europe/Kiev","1:00 PM GMT on April 14, 2016","2016","04","14","13","00","UTC","19.0","66.2","9.0","48.2","52","18.0","11.2","-9999.0","-9999.0","290","WNW","-9999.0","-9999.0","1002","29.59","-999","-999","-9999","-9999","-9999.00","-9999.00","Clear","clear","0","0","0","0","0","0","METAR UKKK 141300Z 29005MPS 260V320 CAVOK 19/09 Q1002 R26/CLRD70 NOSIG"
"4:30 PM EEST on April 14, 2016","2016","04","14","16","30","Europe/Kiev","1:30 PM GMT on April 14, 2016","2016","04","14","13","30","UTC","19.0","66.2","9.0","48.2","52","14.4","8.9","-9999.0","-9999.0","270","West","-9999.0","-9999.0","1001","29.56","-999","-999","-9999","-9999","-9999.00","-9999.00","Clear","clear","0","0","0","0","0","0","METAR UKKK 141330Z 27004MPS CAVOK 19/09 Q1001 R26/CLRD70 NOSIG"
"5:00 PM EEST on April 14, 2016","2016","04","14","17","00","Europe/Kiev","2:00 PM GMT on April 14, 2016","2016","04","14","14","00","UTC","19.0","66.2","8.0","46.4","49","14.4","8.9","-9999.0","-9999.0","300","WNW","-9999.0","-9999.0","1001","29.56","-999","-999","-9999","-9999","-9999.00","-9999.00","Clear","clear","0","0","0","0","0","0","METAR UKKK 141400Z 30004MPS 250V340 CAVOK 19/08 Q1001 R26/CLRD70 NOSIG"
"5:30 PM EEST on April 14, 2016","2016","04","14","17","30","Europe/Kiev","2:30 PM GMT on April 14, 2016","2016","04","14","14","30","UTC","19.0","66.2","6.0","42.8","43","14.4","8.9","-9999.0","-9999.0","280","West","-9999.0","-9999.0","1001","29.56","-999","-999","-9999","-9999","-9999.00","-9999.00","Clear","clear","0","0","0","0","0","0","METAR UKKK 141430Z 28004MPS CAVOK 19/06 Q1001 R26/CLRD70 NOSIG"
"6:00 PM EEST on April 14, 2016","2016","04","14","18","00","Europe/Kiev","3:00 PM GMT on April 14, 2016","2016","04","14","15","00","UTC","20","67","5","41","27","10.8","6.7","","","240","WSW","20","12","1001","29.56","-999","-999","-9999","-9999","","","Scattered Clouds","partlycloudy","0","0","0","0","0","0","AAXX 14151 33345 42698 32403 10195 20048 39815 40008 58016 81104 555 10019"
"6:00 PM EEST on April 14, 2016","2016","04","14","18","00","Europe/Kiev","3:00 PM GMT on April 14, 2016","2016","04","14","15","00","UTC","19.0","66.2","6.0","42.8","43","14.4","8.9","-9999.0","-9999.0","270","West","-9999.0","-9999.0","1001","29.56","-999","-999","-9999","-9999","-9999.00","-9999.00","Clear","clear","0","0","0","0","0","0","METAR UKKK 141500Z 27004MPS 240V300 CAVOK 19/06 Q1001 R26/CLRD70 NOSIG"
"6:30 PM EEST on April 14, 2016","2016","04","14","18","30","Europe/Kiev","3:30 PM GMT on April 14, 2016","2016","04","14","15","30","UTC","19.0","66.2","7.0","44.6","46","10.8","6.7","-9999.0","-9999.0","290","WNW","-9999.0","-9999.0","1001","29.56","-999","-999","-9999","-9999","-9999.00","-9999.00","Clear","clear","0","0","0","0","0","0","METAR UKKK 141530Z 29003MPS CAVOK 19/07 Q1001 R26/CLRD70 NOSIG"
"7:00 PM EEST on April 14, 2016","2016","04","14","19","00","Europe/Kiev","4:00 PM GMT on April 14, 2016","2016","04","14","16","00","UTC","19.0","66.2","6.0","42.8","43","7.2","4.5","-9999.0","-9999.0","280","West","-9999.0","-9999.0","1001","29.56","-999","-999","-9999","-9999","-9999.00","-9999.00","Clear","clear","0","0","0","0","0","0","METAR UKKK 141600Z 28002MPS CAVOK 19/06 Q1001 R26/CLRD70 NOSIG"
"7:30 PM EEST on April 14, 2016","2016","04","14","19","30","Europe/Kiev","4:30 PM GMT on April 14, 2016","2016","04","14","16","30","UTC","17.0","62.6","6.0","42.8","48","3.6","2.2","-9999.0","-9999.0","260","West","4.0","2.5","1001","29.56","-999","-999","-9999","-9999","-9999.00","-9999.00","Smoke","hazy","0","0","0","0","0","0","METAR UKKK 141630Z 26001MPS 4000 FU NSC 17/06 Q1001 R26/CLRD70 NOSIG"
"8:00 PM EEST on April 14, 2016","2016","04","14","20","00","Europe/Kiev","5:00 PM GMT on April 14, 2016","2016","04","14","17","00","UTC","16.0","60.8","6.0","42.8","52","3.6","2.2","-9999.0","-9999.0","240","WSW","-9999.0","-9999.0","1001","29.56","-999","-999","-9999","-9999","-9999.00","-9999.00","Clear","clear","0","0","0","0","0","0","METAR UKKK 141700Z 24001MPS CAVOK 16/06 Q1001 R26/CLRD70 NOSIG"
"8:30 PM EEST on April 14, 2016","2016","04","14","20","30","Europe/Kiev","5:30 PM GMT on April 14, 2016","2016","04","14","17","30","UTC","13.0","55.4","7.0","44.6","67","3.6","2.2","-9999.0","-9999.0","150","SSE","5.0","3.1","1001","29.56","-999","-999","-9999","-9999","-9999.00","-9999.00","Smoke","hazy","0","0","0","0","0","0","METAR UKKK 141730Z 15001MPS 5000 FU NSC 13/07 Q1001 R26/CLRD70 NOSIG"
"9:00 PM EEST on April 14, 2016","2016","04","14","21","00","Europe/Kiev","6:00 PM GMT on April 14, 2016","2016","04","14","18","00","UTC","15","59","6","44","45","7.2","4.5","","","170","South","20","12","1002","29.58","-999","-999","-9999","-9999","","","","","0","0","0","0","0","0","AAXX 14181 33345 32998 01702 10150 20064 39819 40015 53004 333 10201 555 10011"
"9:00 PM EEST on April 14, 2016","2016","04","14","21","00","Europe/Kiev","6:00 PM GMT on April 14, 2016","2016","04","14","18","00","UTC","15.0","59.0","7.0","44.6","59","7.2","4.5","-9999.0","-9999.0","160","SSE","-9999.0","-9999.0","1001","29.56","-999","-999","-9999","-9999","-9999.00","-9999.00","Clear","clear","0","0","0","0","0","0","METAR UKKK 141800Z 16002MPS CAVOK 15/07 Q1001 R26/CLRD70 NOSIG"
"9:30 PM EEST on April 14, 2016","2016","04","14","21","30","Europe/Kiev","6:30 PM GMT on April 14, 2016","2016","04","14","18","30","UTC","15.0","59.0","6.0","42.8","55","7.2","4.5","-9999.0","-9999.0","140","SE","-9999.0","-9999.0","1001","29.56","-999","-999","-9999","-9999","-9999.00","-9999.00","Clear","clear","0","0","0","0","0","0","METAR UKKK 141830Z 14002MPS CAVOK 15/06 Q1001 R08/CLRD70 NOSIG"
"10:00 PM EEST on April 14, 2016","2016","04","14","22","00","Europe/Kiev","7:00 PM GMT on April 14, 2016","2016","04","14","19","00","UTC","15.0","59.0","6.0","42.8","55","7.2","4.5","-9999.0","-9999.0","140","SE","-9999.0","-9999.0","1001","29.56","-999","-999","-9999","-9999","-9999.00","-9999.00","Clear","clear","0","0","0","0","0","0","METAR UKKK 141900Z 14002MPS CAVOK 15/06 Q1001 R08/CLRD70 NOSIG"
"10:30 PM EEST on April 14, 2016","2016","04","14","22","30","Europe/Kiev","7:30 PM GMT on April 14, 2016","2016","04","14","19","30","UTC","15.0","59.0","6.0","42.8","55","3.6","2.2","-9999.0","-9999.0","0","Variable","-9999.0","-9999.0","1001","29.56","-999","-999","-9999","-9999","-9999.00","-9999.00","Clear","clear","0","0","0","0","0","0","METAR UKKK 141930Z VRB01MPS CAVOK 15/06 Q1001 R08/CLRD70 NOSIG"
"11:00 PM EEST on April 14, 2016","2016","04","14","23","00","Europe/Kiev","8:00 PM GMT on April 14, 2016","2016","04","14","20","00","UTC","12.0","53.6","8.0","46.4","77","7.2","4.5","-9999.0","-9999.0","80","East","-9999.0","-9999.0","1000","29.53","-999","-999","-9999","-9999","-9999.00","-9999.00","Clear","clear","0","0","0","0","0","0","METAR UKKK 142000Z 08002MPS CAVOK 12/08 Q1000 R08/CLRD70 NOSIG"
"11:30 PM EEST on April 14, 2016","2016","04","14","23","30","Europe/Kiev","8:30 PM GMT on April 14, 2016","2016","04","14","20","30","UTC","15.0","59.0","7.0","44.6","59","10.8","6.7","-9999.0","-9999.0","140","SE","-9999.0","-9999.0","1000","29.53","-999","-999","-9999","-9999","-9999.00","-9999.00","Clear","clear","0","0","0","0","0","0","METAR UKKK 142030Z 14003MPS 100V170 CAVOK 15/07 Q1000 R08/CLRD70 NOSIG"
"12:00 AM EEST on April 15, 2016","2016","04","15","00","00","Europe/Kiev","9:00 PM GMT on April 14, 2016","2016","04","14","21","00","UTC","14","56","8","46","60","7.2","4.5","","","160","SSE","20","12","1001","29.56","-999","-999","-9999","-9999","","","","","0","0","0","0","0","0","AAXX 14211 33345 42998 01602 10135 20077 39811 40008 58008 555 10010"
"12:00 AM EEST on April 15, 2016","2016","04","15","00","00","Europe/Kiev","9:00 PM GMT on April 14, 2016","2016","04","14","21","00","UTC","15.0","59.0","7.0","44.6","59","10.8","6.7","-9999.0","-9999.0","150","SSE","-9999.0","-9999.0","1000","29.53","-999","-999","-9999","-9999","-9999.00","-9999.00","Clear","clear","0","0","0","0","0","0","METAR UKKK 142100Z 15003MPS 120V190 CAVOK 15/07 Q1000 R08/CLRD70 NOSIG"
"12:30 AM EEST on April 15, 2016","2016","04","15","00","30","Europe/Kiev","9:30 PM GMT on April 14, 2016","2016","04","14","21","30","UTC","14.0","57.2","7.0","44.6","63","7.2","4.5","-9999.0","-9999.0","130","SE","-9999.0","-9999.0","1000","29.53","-999","-999","-9999","-9999","-9999.00","-9999.00","Clear","clear","0","0","0","0","0","0","METAR UKKK 142130Z 13002MPS CAVOK 14/07 Q1000 R08/CLRD70 NOSIG"
"1:00 AM EEST on April 15, 2016","2016","04","15","01","00","Europe/Kiev","10:00 PM GMT on April 14, 2016","2016","04","14","22","00","UTC","11.0","51.8","7.0","44.6","76","7.2","4.5","-9999.0","-9999.0","90","East","-9999.0","-9999.0","1000","29.53","-999","-999","-9999","-9999","-9999.00","-9999.00","Clear","clear","0","0","0","0","0","0","METAR UKKK 142200Z 09002MPS 070V130 CAVOK 11/07 Q1000 R08/CLRD70 NOSIG"
"1:30 AM EEST on April 15, 2016","2016","04","15","01","30","Europe/Kiev","10:30 PM GMT on April 14, 2016","2016","04","14","22","30","UTC","12.0","53.6","8.0","46.4","77","3.6","2.2","-9999.0","-9999.0","0","Variable","-9999.0","-9999.0","1000","29.53","-999","-999","-9999","-9999","-9999.00","-9999.00","Clear","clear","0","0","0","0","0","0","METAR UKKK 142230Z VRB01MPS CAVOK 12/08 Q1000 R08/CLRD70 NOSIG"
"2:00 AM EEST on April 15, 2016","2016","04","15","02","00","Europe/Kiev","11:00 PM GMT on April 14, 2016","2016","04","14","23","00","UTC","11.0","51.8","7.0","44.6","76","3.6","2.2","-9999.0","-9999.0","0","Variable","-9999.0","-9999.0","1000","29.53","-999","-999","-9999","-9999","-9999.00","-9999.00","Clear","clear","0","0","0","0","0","0","METAR UKKK 142300Z VRB01MPS CAVOK 11/07 Q1000 R08/CLRD70 NOSIG"
"2:30 AM EEST on April 15, 2016","2016","04","15","02","30","Europe/Kiev","11:30 PM GMT on April 14, 2016","2016","04","14","23","30","UTC","12.0","53.6","8.0","46.4","77","3.6","2.2","-9999.0","-9999.0","210","SSW","-9999.0","-9999.0","1000","29.53","-999","-999","-9999","-9999","-9999.00","-9999.00","Clear","clear","0","0","0","0","0","0","METAR UKKK 142330Z 21001MPS CAVOK 12/08 Q1000 R08/CLRD70 TEMPO VRB11G18MPS 2000 TSRAGR BKN015CB"
"3:00 AM EEST on April 15, 2016","2016","04","15","03","00","Europe/Kiev","12:00 AM GMT on April 15, 2016","2016","04","15","00","00","UTC","13","55","8","47","66","7.2","4.5","","","210","SSW","20","12","1000","29.54","-999","-999","-9999","-9999","","","Overcast","cloudy","0","0","0","0","0","0","AAXX 15001 33345 32998 82102 10127 20083 39806 40003 57005 8807/ 555 10010"
"3:00 AM EEST on April 15, 2016","2016","04","15","03","00","Europe/Kiev","12:00 AM GMT on April 15, 2016","2016","04","15","00","00","UTC","12.0","53.6","9.0","48.2","82","7.2","4.5","-9999.0","-9999.0","270","West","-9999.0","-9999.0","1000","29.53","-999","-999","-9999","-9999","-9999.00","-9999.00","Clear","clear","0","0","0","0","0","0","METAR UKKK 150000Z 27002MPS CAVOK 12/09 Q1000 R08/CLRD70 TEMPO VRB11G18MPS 2000 TSRAGR BKN015CB"
"3:30 AM EEST on April 15, 2016","2016","04","15","03","30","Europe/Kiev","12:30 AM GMT on April 15, 2016","2016","04","15","00","30","UTC","12.0","53.6","9.0","48.2","82","7.2","4.5","-9999.0","-9999.0","340","NNW","-9999.0","-9999.0","1000","29.53","-999","-999","-9999","-9999","-9999.00","-9999.00","Clear","clear","0","0","0","0","0","0","METAR UKKK 150030Z 34002MPS CAVOK 12/09 Q1000 R08/CLRD70 TEMPO VRB11G18MPS 2000 TSRAGR BKN015CB"
"4:00 AM EEST on April 15, 2016","2016","04","15","04","00","Europe/Kiev","1:00 AM GMT on April 15, 2016","2016","04","15","01","00","UTC","12.0","53.6","8.0","46.4","77","21.6","13.4","-9999.0","-9999.0","360","North","-9999.0","-9999.0","1000","29.53","-999","-999","-9999","-9999","-9999.00","-9999.00","Clear","clear","0","0","0","0","0","0","METAR UKKK 150100Z 36006MPS CAVOK 12/08 Q1000 R08/CLRD70 TEMPO VRB11G18MPS 2000 TSRAGR BKN015CB"
"4:30 AM EEST on April 15, 2016","2016","04","15","04","30","Europe/Kiev","1:30 AM GMT on April 15, 2016","2016","04","15","01","30","UTC","11.0","51.8","8.0","46.4","82","18.0","11.2","-9999.0","-9999.0","350","North","-9999.0","-9999.0","1000","29.53","-999","-999","-9999","-9999","-9999.00","-9999.00","Clear","clear","0","0","0","0","0","0","METAR UKKK 150130Z 35005MPS CAVOK 11/08 Q1000 R08/CLRD70 TEMPO VRB11G18MPS 2000 TSRAGR BKN015CB"
"5:00 AM EEST on April 15, 2016","2016","04","15","05","00","Europe/Kiev","2:00 AM GMT on April 15, 2016","2016","04","15","02","00","UTC","10.0","50.0","7.0","44.6","82","21.6","13.4","-9999.0","-9999.0","360","North","10.0","6.2","1000","29.53","-999","-999","-9999","-9999","-9999.00","-9999.00","Overcast","cloudy","0","0","0","0","0","0","METAR UKKK 150200Z 36006MPS 9999 SCT013 OVC040 10/07 Q1000 R08/CLRD70 TEMPO VRB11G18MPS 2000 TSRAGR BKN015CB"
"5:30 AM EEST on April 15, 2016","2016","04","15","05","30","Europe/Kiev","2:30 AM GMT on April 15, 2016","2016","04","15","02","30","UTC","10.0","50.0","7.0","44.6","82","21.6","13.4","-9999.0","-9999.0","350","North","10.0","6.2","1000","29.53","-999","-999","-9999","-9999","-9999.00","-9999.00","Light Rain","rain","0","1","0","0","0","0","METAR UKKK 150230Z 35006MPS 9999 -RA SCT013 OVC040 10/07 Q1000 R08/CLRD70 TEMPO VRB11G18MPS 2000 TSRAGR BKN015CB"
"6:00 AM EEST on April 15, 2016","2016","04","15","06","00","Europe/Kiev","3:00 AM GMT on April 15, 2016","2016","04","15","03","00","UTC","9","49","8","46","87","18.0","11.2","","","0","North","10","6","1002","29.58","-999","-999","-9999","-9999","","","Rain","rain","0","1","0","0","0","0","AAXX 15031 33345 41497 83605 10093 20079 39817 40017 53011 76362 8872/ 333 88712 555 11009"
"6:00 AM EEST on April 15, 2016","2016","04","15","06","00","Europe/Kiev","3:00 AM GMT on April 15, 2016","2016","04","15","03","00","UTC","9.0","48.2","7.0","44.6","87","14.4","8.9","-9999.0","-9999.0","20","NNE","5.0","3.1","1001","29.56","-999","-999","-9999","-9999","-9999.00","-9999.00","Light Rain","rain","0","1","0","0","0","0","METAR UKKK 150300Z 02004MPS 350V050 5000 -RA BKN010 OVC036 09/07 Q1001 R08/290158 TEMPO VRB11G18MPS 2000 TSRAGR BKN015CB"
"6:30 AM EEST on April 15, 2016","2016","04","15","06","30","Europe/Kiev","3:30 AM GMT on April 15, 2016","2016","04","15","03","30","UTC","9.0","48.2","8.0","46.4","93","18.0","11.2","-9999.0","-9999.0","20","NNE","9.0","5.6","1001","29.56","-999","-999","-9999","-9999","-9999.00","-9999.00","Light Rain","rain","0","1","0","0","0","0","METAR UKKK 150330Z 02005MPS 9000 -RA BKN008 OVC053 09/08 Q1001 R08/290354 TEMPO VRB11G18MPS 2000 TSRAGR BKN015CB"
"7:00 AM EEST on April 15, 2016","2016","04","15","07","00","Europe/Kiev","4:00 AM GMT on April 15, 2016","2016","04","15","04","00","UTC","8.0","46.4","8.0","46.4","100","18.0","11.2","-9999.0","-9999.0","10","North","8.0","5.0","1001","29.56","5.1","41.2","-9999","-9999","-9999.00","-9999.00","Light Rain Showers","rain","0","1","0","0","0","0","METAR UKKK 150400Z 01005MPS 330V040 8000 -SHRA BKN006 BKN030CB 08/08 Q1001 R08/290354 TEMPO VRB11G18MPS 2000 TSRAGR BKN005 BKN015CB"
"7:30 AM EEST on April 15, 2016","2016","04","15","07","30","Europe/Kiev","4:30 AM GMT on April 15, 2016","2016","04","15","04","30","UTC","8.0","46.4","7.0","44.6","93","25.2","15.7","-9999.0","-9999.0","20","NNE","7.0","4.3","1001","29.56","4.4","39.9","-9999","-9999","-9999.00","-9999.00","Light Rain Showers","rain","0","1","0","0","0","0","METAR UKKK 150430Z 02007MPS 7000 -SHRA BKN008 BKN030CB 08/07 Q1001 R08/290354 TEMPO VRB11G18MPS 2000 TSRAGR BKN005 BKN015CB"
"8:00 AM EEST on April 15, 2016","2016","04","15","08","00","Europe/Kiev","5:00 AM GMT on April 15, 2016","2016","04","15","05","00","UTC","7.0","44.6","7.0","44.6","100","32.4","20.1","-9999.0","-9999.0","20","NNE","7.0","4.3","1001","29.56","2.5","36.5","-9999","-9999","-9999.00","-9999.00","Light Rain Showers","rain","0","1","0","0","0","0","METAR UKKK 150500Z 02009MPS 7000 -SHRA BKN008 BKN030CB 07/07 Q1001 R08/290354 TEMPO VRB11G18MPS 2000 TSRAGR BKN005 BKN015CB"
"8:30 AM EEST on April 15, 2016","2016","04","15","08","30","Europe/Kiev","5:30 AM GMT on April 15, 2016","2016","04","15","05","30","UTC","7.0","44.6","7.0","44.6","100","28.8","17.9","-9999.0","-9999.0","20","NNE","7.0","4.3","1001","29.56","2.8","37.0","-9999","-9999","-9999.00","-9999.00","Light Rain Showers","rain","0","1","0","0","0","0","METAR UKKK 150530Z 02008MPS 7000 -SHRA SCT030CB BKN046 07/07 Q1001 R08/290354 TEMPO VRB11G18MPS 2000 TSRAGR BKN015CB"
"9:00 AM EEST on April 15, 2016","2016","04","15","09","00","Europe/Kiev","6:00 AM GMT on April 15, 2016","2016","04","15","06","00","UTC","7","45","6","44","92","14.4","8.9","","","10","North","10","6","1002","29.59","-999","-999","-9999","-9999","","","Rain","rain","0","1","0","0","0","0","AAXX 15061 33345 11497 80104 10071 20064 39817 40018 54000 60162 76362 8872/ 333 20070 88710 555 11008"
"9:00 AM EEST on April 15, 2016","2016","04","15","09","00","Europe/Kiev","6:00 AM GMT on April 15, 2016","2016","04","15","06","00","UTC","8.0","46.4","7.0","44.6","93","25.2","15.7","-9999.0","-9999.0","10","North","8.0","5.0","1001","29.56","4.4","39.9","-9999","-9999","-9999.00","-9999.00","Light Rain","rain","0","1","0","0","0","0","METAR UKKK 150600Z 01007MPS 8000 -RA BKN007 OVC025 08/07 Q1001 R08/290354 TEMPO VRB11G18MPS 2000 TSRAGR BKN015CB"
"9:30 AM EEST on April 15, 2016","2016","04","15","09","30","Europe/Kiev","6:30 AM GMT on April 15, 2016","2016","04","15","06","30","UTC","7.0","44.6","7.0","44.6","100","21.6","13.4","-9999.0","-9999.0","360","North","6.0","3.7","1001","29.56","3.4","38.2","-9999","-9999","-9999.00","-9999.00","Light Rain","rain","0","1","0","0","0","0","METAR UKKK 150630Z 36006MPS 340V040 6000 -RA BKN005 OVC025 07/07 Q1001 R08/290354 TEMPO VRB11G18MPS 2000 TSRAGR BKN004 BKN015CB"
"10:00 AM EEST on April 15, 2016","2016","04","15","10","00","Europe/Kiev","7:00 AM GMT on April 15, 2016","2016","04","15","07","00","UTC","8.0","46.4","7.0","44.6","93","21.6","13.4","-9999.0","-9999.0","360","North","8.0","5.0","1001","29.56","4.7","40.5","-9999","-9999","-9999.00","-9999.00","Light Rain","rain","0","1","0","0","0","0","METAR UKKK 150700Z 36006MPS 8000 -RA BKN006 OVC020 08/07 Q1001 R08/290354 TEMPO VRB11G18MPS 2000 TSRAGR BKN004 BKN015CB"
"10:30 AM EEST on April 15, 2016","2016","04","15","10","30","Europe/Kiev","7:30 AM GMT on April 15, 2016","2016","04","15","07","30","UTC","8.0","46.4","7.0","44.6","93","21.6","13.4","-9999.0","-9999.0","360","North","9.0","5.6","1002","29.59","4.7","40.5","-9999","-9999","-9999.00","-9999.00","Light Rain","rain","0","1","0","0","0","0","METAR UKKK 150730Z 36006MPS 9000 -RA BKN006 OVC020 08/07 Q1002 R08/290354 TEMPO VRB11G18MPS 2000 TSRAGR BKN004 BKN015CB"
"11:00 AM EEST on April 15, 2016","2016","04","15","11","00","Europe/Kiev","8:00 AM GMT on April 15, 2016","2016","04","15","08","00","UTC","7.0","44.6","7.0","44.6","100","21.6","13.4","-9999.0","-9999.0","350","North","9.0","5.6","1001","29.56","3.4","38.2","-9999","-9999","-9999.00","-9999.00","Light Rain","rain","0","1","0","0","0","0","METAR UKKK 150800Z 35006MPS 9000 -RA BKN006 OVC020 07/07 Q1001 R08/290354 TEMPO VRB11G18MPS 2000 TSRAGR BKN004 BKN015CB"
"11:30 AM EEST on April 15, 2016","2016","04","15","11","30","Europe/Kiev","8:30 AM GMT on April 15, 2016","2016","04","15","08","30","UTC","7.0","44.6","7.0","44.6","100","25.2","15.7","-9999.0","-9999.0","340","NNW","9.0","5.6","1002","29.59","3.1","37.6","-9999","-9999","-9999.00","-9999.00","Light Rain","rain","0","1","0","0","0","0","METAR UKKK 150830Z 34007MPS 9000 -RA BKN006 OVC020 07/07 Q1002 R08/290354 TEMPO VRB11G18MPS 2000 TSRAGR BKN004 BKN015CB"
"12:00 PM EEST on April 15, 2016","2016","04","15","12","00","Europe/Kiev","9:00 AM GMT on April 15, 2016","2016","04","15","09","00","UTC","7","45","7","44","94","14.4","8.9","","","340","NNW","4","2","1003","29.62","-999","-999","-9999","-9999","","","Rain","rain","0","1","0","0","0","0","AAXX 15091 33345 41396 83404 10070 20066 39826 40028 53009 76366 8872/ 333 88708 555 11008"
"12:00 PM EEST on April 15, 2016","2016","04","15","12","00","Europe/Kiev","9:00 AM GMT on April 15, 2016","2016","04","15","09","00","UTC","7.0","44.6","6.0","42.8","93","21.6","13.4","-9999.0","-9999.0","340","NNW","9.0","5.6","1002","29.59","3.4","38.2","-9999","-9999","-9999.00","-9999.00","Light Rain","rain","0","1","0","0","0","0","METAR UKKK 150900Z 34006MPS 9000 -RA BKN007 OVC020 07/06 Q1002 R26/290354 TEMPO VRB11G18MPS 2000 TSRAGR BKN015CB"
"12:30 PM EEST on April 15, 2016","2016","04","15","12","30","Europe/Kiev","9:30 AM GMT on April 15, 2016","2016","04","15","09","30","UTC","7.0","44.6","6.0","42.8","93","21.6","13.4","-9999.0","-9999.0","340","NNW","9.0","5.6","1002","29.59","3.4","38.2","-9999","-9999","-9999.00","-9999.00","Light Rain","rain","0","1","0","0","0","0","METAR UKKK 150930Z 34006MPS 9000 -RA BKN007 OVC020 07/06 Q1002 R26/290354 TEMPO VRB11G18MPS 2000 TSRAGR BKN015CB"
"1:00 PM EEST on April 15, 2016","2016","04","15","13","00","Europe/Kiev","10:00 AM GMT on April 15, 2016","2016","04","15","10","00","UTC","7.0","44.6","6.0","42.8","93","21.6","13.4","-9999.0","-9999.0","340","NNW","9.0","5.6","1003","29.62","3.4","38.2","-9999","-9999","-9999.00","-9999.00","Light Rain","rain","0","1","0","0","0","0","METAR UKKK 151000Z 34006MPS 310V010 9000 -RA BKN007 OVC020 07/06 Q1003 R26/290354 TEMPO VRB11G18MPS 2000 TSRAGR BKN015CB"
"1:30 PM EEST on April 15, 2016","2016","04","15","13","30","Europe/Kiev","10:30 AM GMT on April 15, 2016","2016","04","15","10","30","UTC","7.0","44.6","6.0","42.8","93","18.0","11.2","-9999.0","-9999.0","340","NNW","9.0","5.6","1003","29.62","3.8","38.9","-9999","-9999","-9999.00","-9999.00","Light Rain","rain","0","1","0","0","0","0","METAR UKKK 151030Z 34005MPS 310V010 9000 -RA BKN008 OVC017 07/06 Q1003 R26/290354 NOSIG"
"2:00 PM EEST on April 15, 2016","2016","04","15","14","00","Europe/Kiev","11:00 AM GMT on April 15, 2016","2016","04","15","11","00","UTC","7.0","44.6","6.0","42.8","93","21.6","13.4","-9999.0","-9999.0","340","NNW","9.0","5.6","1003","29.62","3.4","38.2","-9999","-9999","-9999.00","-9999.00","Light Rain","rain","0","1","0","0","0","0","METAR UKKK 151100Z 34006MPS 9000 -RA BKN007 OVC017 07/06 Q1003 R26/290354 NOSIG"
"2:30 PM EEST on April 15, 2016","2016","04","15","14","30","Europe/Kiev","11:30 AM GMT on April 15, 2016","2016","04","15","11","30","UTC","7.0","44.6","6.0","42.8","93","21.6","13.4","-9999.0","-9999.0","340","NNW","9.0","5.6","1003","29.62","3.4","38.2","-9999","-9999","-9999.00","-9999.00","Light Rain","rain","0","1","0","0","0","0","METAR UKKK 151130Z 34006MPS 9000 -RA BKN007 OVC017 07/06 Q1003 R26/290354 NOSIG"
"3:00 PM EEST on April 15, 2016","2016","04","15","15","00","Europe/Kiev","12:00 PM GMT on April 15, 2016","2016","04","15","12","00","UTC","7","44","6","43","96","18.0","11.2","","","330","NNW","4","2","1004","29.65","-999","-999","-9999","-9999","","","Light Rain","rain","0","1","0","0","0","0","AAXX 15121 33345 /1396 83305 10066 20062 39839 40041 52013 76166 8872/ 333 88709 555 12008 60241"
"3:00 PM EEST on April 15, 2016","2016","04","15","15","00","Europe/Kiev","12:00 PM GMT on April 15, 2016","2016","04","15","12","00","UTC","7.0","44.6","6.0","42.8","93","25.2","15.7","-9999.0","-9999.0","330","NNW","10.0","6.2","1004","29.65","3.1","37.6","-9999","-9999","-9999.00","-9999.00","Light Rain","rain","0","1","0","0","0","0","METAR UKKK 151200Z 33007MPS 9999 -RA BKN008 OVC022 07/06 Q1004 R26/290354 TEMPO 31011G18MPS"
"3:30 PM EEST on April 15, 2016","2016","04","15","15","30","Europe/Kiev","12:30 PM GMT on April 15, 2016","2016","04","15","12","30","UTC","7.0","44.6","6.0","42.8","93","28.8","17.9","-9999.0","-9999.0","330","NNW","9.0","5.6","1004","29.65","2.8","37.0","-9999","-9999","-9999.00","-9999.00","Light Rain","rain","0","1","0","0","0","0","METAR UKKK 151230Z 33008MPS 9000 -RA BKN008 OVC022 07/06 Q1004 R26/290354 TEMPO 31011G18MPS"
"4:00 PM EEST on April 15, 2016","2016","04","15","16","00","Europe/Kiev","1:00 PM GMT on April 15, 2016","2016","04","15","13","00","UTC","7.0","44.6","6.0","42.8","93","25.2","15.7","-9999.0","-9999.0","320","NW","10.0","6.2","1004","29.65","3.1","37.6","-9999","-9999","-9999.00","-9999.00","Light Rain","rain","0","1","0","0","0","0","METAR UKKK 151300Z 32007MPS 9999 -RA BKN009 OVC025 07/06 Q1004 R26/290354 TEMPO 31011G18MPS"
"4:30 PM EEST on April 15, 2016","2016","04","15","16","30","Europe/Kiev","1:30 PM GMT on April 15, 2016","2016","04","15","13","30","UTC","7.0","44.6","6.0","42.8","93","28.8","17.9","-9999.0","-9999.0","330","NNW","10.0","6.2","1004","29.65","2.8","37.0","-9999","-9999","-9999.00","-9999.00","Light Rain","rain","0","1","0","0","0","0","METAR UKKK 151330Z 33008MPS 9999 -RA BKN011 OVC025 07/06 Q1004 R26/290354 TEMPO 31011G18MPS"
"5:00 PM EEST on April 15, 2016","2016","04","15","17","00","Europe/Kiev","2:00 PM GMT on April 15, 2016","2016","04","15","14","00","UTC","7.0","44.6","6.0","42.8","93","25.2","15.7","-9999.0","-9999.0","330","NNW","10.0","6.2","1004","29.65","3.1","37.6","-9999","-9999","-9999.00","-9999.00","Light Rain","rain","0","1","0","0","0","0","METAR UKKK 151400Z 33007MPS 9999 -RA BKN011 OVC030 07/06 Q1004 R26/290354 TEMPO 31011G18MPS"
"5:30 PM EEST on April 15, 2016","2016","04","15","17","30","Europe/Kiev","2:30 PM GMT on April 15, 2016","2016","04","15","14","30","UTC","7.0","44.6","5.0","41.0","87","25.2","15.7","-9999.0","-9999.0","330","NNW","9.0","5.6","1005","29.68","3.1","37.6","-9999","-9999","-9999.00","-9999.00","Light Rain","rain","0","1","0","0","0","0","METAR UKKK 151430Z 33007MPS 310V010 9000 -RA BKN010 OVC030 07/05 Q1005 R26/290354 TEMPO 31011G18MPS"
"6:00 PM EEST on April 15, 2016","2016","04","15","18","00","Europe/Kiev","3:00 PM GMT on April 15, 2016","2016","04","15","15","00","UTC","6","43","5","41","89","18.0","11.2","","","340","NNW","4","2","1006","29.70","-999","-999","-9999","-9999","","","Light Rain","rain","0","1","0","0","0","0","AAXX 15151 33345 41496 83405 10063 20049 39855 40058 52016 76162 8872/ 333 88712 555 12008"
"6:00 PM EEST on April 15, 2016","2016","04","15","18","00","Europe/Kiev","3:00 PM GMT on April 15, 2016","2016","04","15","15","00","UTC","7.0","44.6","5.0","41.0","87","21.6","13.4","-9999.0","-9999.0","330","NNW","10.0","6.2","1005","29.68","3.4","38.2","-9999","-9999","-9999.00","-9999.00","Light Rain","rain","0","1","0","0","0","0","METAR UKKK 151500Z 33006MPS 9999 -RA BKN011 OVC030 07/05 Q1005 R26/290354 TEMPO 31011G18MPS"
"6:30 PM EEST on April 15, 2016","2016","04","15","18","30","Europe/Kiev","3:30 PM GMT on April 15, 2016","2016","04","15","15","30","UTC","7.0","44.6","5.0","41.0","87","21.6","13.4","-9999.0","-9999.0","330","NNW","10.0","6.2","1005","29.68","3.4","38.2","-9999","-9999","-9999.00","-9999.00","Overcast","cloudy","0","0","0","0","0","0","METAR UKKK 151530Z 33006MPS 9999 BKN010 OVC033 07/05 Q1005 R26/290256 TEMPO 31011G18MPS"
"7:00 PM EEST on April 15, 2016","2016","04","15","19","00","Europe/Kiev","4:00 PM GMT on April 15, 2016","2016","04","15","16","00","UTC","7.0","44.6","5.0","41.0","87","21.6","13.4","-9999.0","-9999.0","330","NNW","10.0","6.2","1006","29.71","3.4","38.2","-9999","-9999","-9999.00","-9999.00","Overcast","cloudy","0","0","0","0","0","0","METAR UKKK 151600Z 33006MPS 300V360 9999 BKN010 OVC033 07/05 Q1006 R26/290256 TEMPO 31011G18MPS"
"7:30 PM EEST on April 15, 2016","2016","04","15","19","30","Europe/Kiev","4:30 PM GMT on April 15, 2016","2016","04","15","16","30","UTC","7.0","44.6","5.0","41.0","87","21.6","13.4","-9999.0","-9999.0","330","NNW","10.0","6.2","1006","29.71","3.4","38.2","-9999","-9999","-9999.00","-9999.00","Overcast","cloudy","0","0","0","0","0","0","METAR UKKK 151630Z 33006MPS 9999 BKN013 OVC033 07/05 Q1006 R26/290256 TEMPO 31011G18MPS"
"8:00 PM EEST on April 15, 2016","2016","04","15","20","00","Europe/Kiev","5:00 PM GMT on April 15, 2016","2016","04","15","17","00","UTC","7.0","44.6","4.0","39.2","81","25.2","15.7","-9999.0","-9999.0","320","NW","10.0","6.2","1006","29.71","3.1","37.6","-9999","-9999","-9999.00","-9999.00","Overcast","cloudy","0","0","0","0","0","0","METAR UKKK 151700Z 32007MPS 9999 BKN016 OVC026 07/04 Q1006 R26/290256 TEMPO 31011G18MPS"
"8:30 PM EEST on April 15, 2016","2016","04","15","20","30","Europe/Kiev","5:30 PM GMT on April 15, 2016","2016","04","15","17","30","UTC","7.0","44.6","4.0","39.2","81","25.2","15.7","-9999.0","-9999.0","320","NW","10.0","6.2","1007","29.74","3.1","37.6","-9999","-9999","-9999.00","-9999.00","Overcast","cloudy","0","0","0","0","0","0","METAR UKKK 151730Z 32007MPS 290V350 9999 BKN019 OVC026 07/04 Q1007 R26/290256 NOSIG"
"9:00 PM EEST on April 15, 2016","2016","04","15","21","00","Europe/Kiev","6:00 PM GMT on April 15, 2016","2016","04","15","18","00","UTC","7","44","5","40","82","14.4","8.9","","","330","NNW","10","6","1008","29.77","-999","-999","-9999","-9999","","","Partly Cloudy","partlycloudy","0","0","0","0","0","0","AAXX 15181 33345 11597 73304 10066 20046 39877 40080 52022 60272 70262 87500 333 10074 87624 555 11007"
"9:00 PM EEST on April 15, 2016","2016","04","15","21","00","Europe/Kiev","6:00 PM GMT on April 15, 2016","2016","04","15","18","00","UTC","7.0","44.6","4.0","39.2","81","21.6","13.4","-9999.0","-9999.0","320","NW","10.0","6.2","1007","29.74","3.4","38.2","-9999","-9999","-9999.00","-9999.00","Overcast","cloudy","0","0","0","0","0","0","METAR UKKK 151800Z 32006MPS 9999 BKN019 OVC050 07/04 Q1007 R26/290158 NOSIG"
"9:30 PM EEST on April 15, 2016","2016","04","15","21","30","Europe/Kiev","6:30 PM GMT on April 15, 2016","2016","04","15","18","30","UTC","7.0","44.6","4.0","39.2","81","21.6","13.4","-9999.0","-9999.0","320","NW","10.0","6.2","1007","29.74","3.4","38.2","-9999","-9999","-9999.00","-9999.00","Overcast","cloudy","0","0","0","0","0","0","METAR UKKK 151830Z 32006MPS 9999 FEW019 OVC050 07/04 Q1007 R26/290158 NOSIG"
"10:00 PM EEST on April 15, 2016","2016","04","15","22","00","Europe/Kiev","7:00 PM GMT on April 15, 2016","2016","04","15","19","00","UTC","7.0","44.6","4.0","39.2","81","18.0","11.2","-9999.0","-9999.0","320","NW","10.0","6.2","1008","29.77","3.8","38.9","-9999","-9999","-9999.00","-9999.00","Mostly Cloudy","mostlycloudy","0","0","0","0","0","0","METAR UKKK 151900Z 32005MPS 9999 BKN048 07/04 Q1008 R26/290158 NOSIG"
"10:30 PM EEST on April 15, 2016","2016","04","15","22","30","Europe/Kiev","7:30 PM GMT on April 15, 2016","2016","04","15","19","30","UTC","6.0","42.8","4.0","39.2","87","18.0","11.2","-9999.0","-9999.0","310","NW","-9999.0","-9999.0","1008","29.77","2.6","36.7","-9999","-9999","-9999.00","-9999.00","Clear","clear","0","0","0","0","0","0","METAR UKKK 151930Z 31005MPS CAVOK 06/04 Q1008 R26/290158 NOSIG"
"11:00 PM EEST on April 15, 2016","2016","04","15","23","00","Europe/Kiev","8:00 PM GMT on April 15, 2016","2016","04","15","20","00","UTC","6.0","42.8","4.0","39.2","87","14.4","8.9","-9999.0","-9999.0","300","WNW","-9999.0","-9999.0","1008","29.77","3.1","37.6","-9999","-9999","-9999.00","-9999.00","Clear","clear","0","0","0","0","0","0","METAR UKKK 152000Z 30004MPS CAVOK 06/04 Q1008 R26/290158 NOSIG"
"11:30 PM EEST on April 15, 2016","2016","04","15","23","30","Europe/Kiev","8:30 PM GMT on April 15, 2016","2016","04","15","20","30","UTC","6.0","42.8","4.0","39.2","87","14.4","8.9","-9999.0","-9999.0","300","WNW","-9999.0","-9999.0","1008","29.77","3.1","37.6","-9999","-9999","-9999.00","-9999.00","Clear","clear","0","0","0","0","0","0","METAR UKKK 152030Z 30004MPS CAVOK 06/04 Q1008 R26/290158 NOSIG"
"12:00 AM EEST on April 16, 2016","2016","04","16","00","00","Europe/Kiev","9:00 PM GMT on April 15, 2016","2016","04","15","21","00","UTC","6","42","3","38","81","7.2","4.5","","","310","NW","20","12","1010","29.82","-999","-999","-9999","-9999","","","","","0","0","0","0","0","0","AAXX 15211 33345 42998 03102 10058 20034 39893 40097 52016 555 11004"
"12:00 AM EEST on April 16, 2016","2016","04","16","00","00","Europe/Kiev","9:00 PM GMT on April 15, 2016","2016","04","15","21","00","UTC","5.0","41.0","3.0","37.4","87","14.4","8.9","-9999.0","-9999.0","290","WNW","-9999.0","-9999.0","1009","29.80","1.9","35.4","-9999","-9999","-9999.00","-9999.00","Clear","clear","0","0","0","0","0","0","METAR UKKK 152100Z 29004MPS CAVOK 05/03 Q1009 R26/290158 NOSIG"
"12:30 AM EEST on April 16, 2016","2016","04","16","00","30","Europe/Kiev","9:30 PM GMT on April 15, 2016","2016","04","15","21","30","UTC","5.0","41.0","4.0","39.2","93","10.8","6.7","-9999.0","-9999.0","280","West","-9999.0","-9999.0","1009","29.80","2.5","36.5","-9999","-9999","-9999.00","-9999.00","Clear","clear","0","0","0","0","0","0","METAR UKKK 152130Z 28003MPS CAVOK 05/04 Q1009 R26/290158 NOSIG"
"1:00 AM EEST on April 16, 2016","2016","04","16","01","00","Europe/Kiev","10:00 PM GMT on April 15, 2016","2016","04","15","22","00","UTC","4.0","39.2","4.0","39.2","100","7.2","4.5","-9999.0","-9999.0","280","West","-9999.0","-9999.0","1010","29.83","2.2","36.0","-9999","-9999","-9999.00","-9999.00","Clear","clear","0","0","0","0","0","0","METAR UKKK 152200Z 28002MPS CAVOK 04/04 Q1010 R26/290158 NOSIG"
"1:30 AM EEST on April 16, 2016","2016","04","16","01","30","Europe/Kiev","10:30 PM GMT on April 15, 2016","2016","04","15","22","30","UTC","4.0","39.2","3.0","37.4","93","10.8","6.7","-9999.0","-9999.0","290","WNW","-9999.0","-9999.0","1010","29.83","1.3","34.4","-9999","-9999","-9999.00","-9999.00","Clear","clear","0","0","0","0","0","0","METAR UKKK 152230Z 29003MPS CAVOK 04/03 Q1010 R26/290158 NOSIG"
"2:00 AM EEST on April 16, 2016","2016","04","16","02","00","Europe/Kiev","11:00 PM GMT on April 15, 2016","2016","04","15","23","00","UTC","4.0","39.2","3.0","37.4","93","10.8","6.7","-9999.0","-9999.0","320","NW","-9999.0","-9999.0","1010","29.83","1.3","34.4","-9999","-9999","-9999.00","-9999.00","Clear","clear","0","0","0","0","0","0","METAR UKKK 152300Z 32003MPS CAVOK 04/03 Q1010 R26/290158 NOSIG"
"2:30 AM EEST on April 16, 2016","2016","04","16","02","30","Europe/Kiev","11:30 PM GMT on April 15, 2016","2016","04","15","23","30","UTC","4.0","39.2","2.0","35.6","87","10.8","6.7","-9999.0","-9999.0","310","NW","-9999.0","-9999.0","1010","29.83","1.3","34.4","-9999","-9999","-9999.00","-9999.00","Clear","clear","0","0","0","0","0","0","METAR UKKK 152330Z 31003MPS CAVOK 04/02 Q1010 R26/290158 NOSIG"
"3:00 AM EEST on April 16, 2016","2016","04","16","03","00","Europe/Kiev","12:00 AM GMT on April 16, 2016","2016","04","16","00","00","UTC","4","40","2","36","82","7.2","4.5","","","280","West","10","6","1011","29.85","-999","-999","-9999","-9999","","","","","0","0","0","0","0","0","AAXX 16001 33345 32997 02802 10045 20025 39903 40108 52010 555 11003"
"3:00 AM EEST on April 16, 2016","2016","04","16","03","00","Europe/Kiev","12:00 AM GMT on April 16, 2016","2016","04","16","00","00","UTC","3.0","37.4","2.0","35.6","93","10.8","6.7","-9999.0","-9999.0","290","WNW","-9999.0","-9999.0","1010","29.83","0.1","32.2","-9999","-9999","-9999.00","-9999.00","Clear","clear","0","0","0","0","0","0","METAR UKKK 160000Z 29003MPS CAVOK 03/02 Q1010 R26/290158 NOSIG"
"3:30 AM EEST on April 16, 2016","2016","04","16","03","30","Europe/Kiev","12:30 AM GMT on April 16, 2016","2016","04","16","00","30","UTC","3.0","37.4","2.0","35.6","93","7.2","4.5","-9999.0","-9999.0","260","West","-9999.0","-9999.0","1010","29.83","1.0","33.9","-9999","-9999","-9999.00","-9999.00","Clear","clear","0","0","0","0","0","0","METAR UKKK 160030Z 26002MPS CAVOK 03/02 Q1010 R26/290158 NOSIG"
"4:00 AM EEST on April 16, 2016","2016","04","16","04","00","Europe/Kiev","1:00 AM GMT on April 16, 2016","2016","04","16","01","00","UTC","3.0","37.4","2.0","35.6","93","14.4","8.9","-9999.0","-9999.0","260","West","-9999.0","-9999.0","1011","29.86","-0.6","30.9","-9999","-9999","-9999.00","-9999.00","Clear","clear","0","0","0","0","0","0","METAR UKKK 160100Z 26004MPS CAVOK 03/02 Q1011 R26/290158 NOSIG"
"4:30 AM EEST on April 16, 2016","2016","04","16","04","30","Europe/Kiev","1:30 AM GMT on April 16, 2016","2016","04","16","01","30","UTC","3.0","37.4","1.0","33.8","87","10.8","6.7","-9999.0","-9999.0","270","West","-9999.0","-9999.0","1011","29.86","0.1","32.2","-9999","-9999","-9999.00","-9999.00","Clear","clear","0","0","0","0","0","0","METAR UKKK 160130Z 27003MPS CAVOK 03/01 Q1011 R26/290158 NOSIG"
"5:00 AM EEST on April 16, 2016","2016","04","16","05","00","Europe/Kiev","2:00 AM GMT on April 16, 2016","2016","04","16","02","00","UTC","2.0","35.6","1.0","33.8","93","10.8","6.7","-9999.0","-9999.0","270","West","-9999.0","-9999.0","1011","29.86","-1.1","30.0","-9999","-9999","-9999.00","-9999.00","Clear","clear","0","0","0","0","0","0","METAR UKKK 160200Z 27003MPS CAVOK 02/01 Q1011 R26/290158 NOSIG"
"5:30 AM EEST on April 16, 2016","2016","04","16","05","30","Europe/Kiev","2:30 AM GMT on April 16, 2016","2016","04","16","02","30","UTC","2.0","35.6","1.0","33.8","93","10.8","6.7","-9999.0","-9999.0","260","West","-9999.0","-9999.0","1011","29.86","-1.1","30.0","-9999","-9999","-9999.00","-9999.00","Clear","clear","0","0","0","0","0","0","METAR UKKK 160230Z 26003MPS CAVOK 02/01 Q1011 R26/290158 NOSIG"
"6:00 AM EEST on April 16, 2016","2016","04","16","06","00","Europe/Kiev","3:00 AM GMT on April 16, 2016","2016","04","16","03","00","UTC","3","38","1","34","81","10.8","6.7","","","280","West","20","12","1012","29.90","-999","-999","-9999","-9999","","","","","0","0","0","0","0","0","AAXX 16031 33345 42998 02803 10033 20012 39919 40125 52016 555 11003"
"6:00 AM EEST on April 16, 2016","2016","04","16","06","00","Europe/Kiev","3:00 AM GMT on April 16, 2016","2016","04","16","03","00","UTC","1.0","33.8","0.0","32.0","93","10.8","6.7","-9999.0","-9999.0","260","West","-9999.0","-9999.0","1011","29.86","-2.3","27.9","-9999","-9999","-9999.00","-9999.00","Clear","clear","0","0","0","0","0","0","METAR UKKK 160300Z 26003MPS CAVOK 01/00 Q1011 R26/290058 NOSIG"
"6:30 AM EEST on April 16, 2016","2016","04","16","06","30","Europe/Kiev","3:30 AM GMT on April 16, 2016","2016","04","16","03","30","UTC","2.0","35.6","1.0","33.8","93","10.8","6.7","-9999.0","-9999.0","260","West","-9999.0","-9999.0","1012","29.89","-1.1","30.0","-9999","-9999","-9999.00","-9999.00","Clear","clear","0","0","0","0","0","0","METAR UKKK 160330Z 26003MPS CAVOK 02/01 Q1012 R26/290058 NOSIG"
"7:00 AM EEST on April 16, 2016","2016","04","16","07","00","Europe/Kiev","4:00 AM GMT on April 16, 2016","2016","04","16","04","00","UTC","2.0","35.6","1.0","33.8","93","10.8","6.7","-9999.0","-9999.0","270","West","-9999.0","-9999.0","1012","29.89","-1.1","30.0","-9999","-9999","-9999.00","-9999.00","Clear","clear","0","0","0","0","0","0","METAR UKKK 160400Z 27003MPS CAVOK 02/01 Q1012 R26/290058 NOSIG"
"7:30 AM EEST on April 16, 2016","2016","04","16","07","30","Europe/Kiev","4:30 AM GMT on April 16, 2016","2016","04","16","04","30","UTC","4.0","39.2","2.0","35.6","87","14.4","8.9","-9999.0","-9999.0","270","West","-9999.0","-9999.0","1012","29.89","0.6","33.1","-9999","-9999","-9999.00","-9999.00","Clear","clear","0","0","0","0","0","0","METAR UKKK 160430Z 27004MPS CAVOK 04/02 Q1012 R26/290058 NOSIG"
"8:00 AM EEST on April 16, 2016","2016","04","16","08","00","Europe/Kiev","5:00 AM GMT on April 16, 2016","2016","04","16","05","00","UTC","5.0","41.0","2.0","35.6","81","14.4","8.9","-9999.0","-9999.0","270","West","-9999.0","-9999.0","1013","29.92","1.9","35.4","-9999","-9999","-9999.00","-9999.00","Clear","clear","0","0","0","0","0","0","METAR UKKK 160500Z 27004MPS CAVOK 05/02 Q1013 R26/290058 NOSIG"
"8:30 AM EEST on April 16, 2016","2016","04","16","08","30","Europe/Kiev","5:30 AM GMT on April 16, 2016","2016","04","16","05","30","UTC","6.0","42.8","3.0","37.4","81","10.8","6.7","-9999.0","-9999.0","270","West","-9999.0","-9999.0","1013","29.92","3.7","38.7","-9999","-9999","-9999.00","-9999.00","Clear","clear","0","0","0","0","0","0","METAR UKKK 160530Z 27003MPS CAVOK 06/03 Q1013 R26/290058 NOSIG"
"9:00 AM EEST on April 16, 2016","2016","04","16","09","00","Europe/Kiev","6:00 AM GMT on April 16, 2016","2016","04","16","06","00","UTC","8","46","2","36","57","7.2","4.5","","","290","WNW","20","12","1014","29.96","-999","-999","-9999","-9999","","","Clear","clear","0","0","0","0","0","0","AAXX 16061 33345 32998 52902 10076 20020 39940 40144 52021 80001 333 20033 555 11011 31002 52002"
"9:00 AM EEST on April 16, 2016","2016","04","16","09","00","Europe/Kiev","6:00 AM GMT on April 16, 2016","2016","04","16","06","00","UTC","7.0","44.6","3.0","37.4","76","10.8","6.7","-9999.0","-9999.0","270","West","-9999.0","-9999.0","1014","29.95","4.9","40.8","-9999","-9999","-9999.00","-9999.00","Clear","clear","0","0","0","0","0","0","METAR UKKK 160600Z 27003MPS CAVOK 07/03 Q1014 R26/CLRD70 NOSIG"
"9:30 AM EEST on April 16, 2016","2016","04","16","09","30","Europe/Kiev","6:30 AM GMT on April 16, 2016","2016","04","16","06","30","UTC","9.0","48.2","3.0","37.4","66","10.8","6.7","-9999.0","-9999.0","270","West","-9999.0","-9999.0","1014","29.95","-999","-999","-9999","-9999","-9999.00","-9999.00","Clear","clear","0","0","0","0","0","0","METAR UKKK 160630Z 27003MPS CAVOK 09/03 Q1014 R26/CLRD70 NOSIG"
"10:00 AM EEST on April 16, 2016","2016","04","16","10","00","Europe/Kiev","7:00 AM GMT on April 16, 2016","2016","04","16","07","00","UTC","10.0","50.0","3.0","37.4","62","10.8","6.7","-9999.0","-9999.0","280","West","-9999.0","-9999.0","1014","29.95","-999","-999","-9999","-9999","-9999.00","-9999.00","Clear","clear","0","0","0","0","0","0","METAR UKKK 160700Z 28003MPS CAVOK 10/03 Q1014 R26/CLRD70 NOSIG"
"10:30 AM EEST on April 16, 2016","2016","04","16","10","30","Europe/Kiev","7:30 AM GMT on April 16, 2016","2016","04","16","07","30","UTC","11.0","51.8","3.0","37.4","58","14.4","8.9","-9999.0","-9999.0","280","West","-9999.0","-9999.0","1014","29.95","-999","-999","-9999","-9999","-9999.00","-9999.00","Clear","clear","0","0","0","0","0","0","METAR UKKK 160730Z 28004MPS CAVOK 11/03 Q1014 R26/CLRD70 NOSIG"
"11:00 AM EEST on April 16, 2016","2016","04","16","11","00","Europe/Kiev","8:00 AM GMT on April 16, 2016","2016","04","16","08","00","UTC","11.0","51.8","2.0","35.6","54","10.8","6.7","-9999.0","-9999.0","270","West","-9999.0","-9999.0","1014","29.95","-999","-999","-9999","-9999","-9999.00","-9999.00","Clear","clear","0","0","0","0","0","0","METAR UKKK 160800Z 27003MPS CAVOK 11/02 Q1014 R26/CLRD70 NOSIG"
"11:30 AM EEST on April 16, 2016","2016","04","16","11","30","Europe/Kiev","8:30 AM GMT on April 16, 2016","2016","04","16","08","30","UTC","11.0","51.8","2.0","35.6","54","10.8","6.7","-9999.0","-9999.0","260","West","-9999.0","-9999.0","1014","29.95","-999","-999","-9999","-9999","-9999.00","-9999.00","Clear","clear","0","0","0","0","0","0","METAR UKKK 160830Z 26003MPS 230V290 CAVOK 11/02 Q1014 R26/CLRD70 NOSIG"
"12:00 PM EEST on April 16, 2016","2016","04","16","12","00","Europe/Kiev","9:00 AM GMT on April 16, 2016","2016","04","16","09","00","UTC","11","52","3","37","44","7.2","4.5","","","260","West","20","12","1015","29.97","-999","-999","-9999","-9999","","","Overcast","cloudy","0","0","0","0","0","0","AAXX 16091 33345 42598 82602 10109 20026 39946 40147 51006 8497/ 555 11013"
"12:00 PM EEST on April 16, 2016","2016","04","16","12","00","Europe/Kiev","9:00 AM GMT on April 16, 2016","2016","04","16","09","00","UTC","11.0","51.8","3.0","37.4","58","10.8","6.7","-9999.0","-9999.0","260","West","-9999.0","-9999.0","1014","29.95","-999","-999","-9999","-9999","-9999.00","-9999.00","Clear","clear","0","0","0","0","0","0","METAR UKKK 160900Z 26003MPS 230V290 CAVOK 11/03 Q1014 R26/CLRD70 NOSIG"
"12:30 PM EEST on April 16, 2016","2016","04","16","12","30","Europe/Kiev","9:30 AM GMT on April 16, 2016","2016","04","16","09","30","UTC","11.0","51.8","3.0","37.4","58","10.8","6.7","-9999.0","-9999.0","230","SW","-9999.0","-9999.0","1014","29.95","-999","-999","-9999","-9999","-9999.00","-9999.00","Clear","clear","0","0","0","0","0","0","METAR UKKK 160930Z 23003MPS 200V260 CAVOK 11/03 Q1014 R26/CLRD70 NOSIG"
"1:00 PM EEST on April 16, 2016","2016","04","16","13","00","Europe/Kiev","10:00 AM GMT on April 16, 2016","2016","04","16","10","00","UTC","12.0","53.6","3.0","37.4","54","10.8","6.7","-9999.0","-9999.0","230","SW","-9999.0","-9999.0","1014","29.95","-999","-999","-9999","-9999","-9999.00","-9999.00","Clear","clear","0","0","0","0","0","0","METAR UKKK 161000Z 23003MPS CAVOK 12/03 Q1014 R26/CLRD70 NOSIG"
"1:30 PM EEST on April 16, 2016","2016","04","16","13","30","Europe/Kiev","10:30 AM GMT on April 16, 2016","2016","04","16","10","30","UTC","12.0","53.6","2.0","35.6","51","7.2","4.5","-9999.0","-9999.0","230","SW","-9999.0","-9999.0","1014","29.95","-999","-999","-9999","-9999","-9999.00","-9999.00","Clear","clear","0","0","0","0","0","0","METAR UKKK 161030Z 23002MPS 180V260 CAVOK 12/02 Q1014 R26/CLRD70 NOSIG"
"2:00 PM EEST on April 16, 2016","2016","04","16","14","00","Europe/Kiev","11:00 AM GMT on April 16, 2016","2016","04","16","11","00","UTC","13.0","55.4","2.0","35.6","47","7.2","4.5","-9999.0","-9999.0","240","WSW","-9999.0","-9999.0","1014","29.95","-999","-999","-9999","-9999","-9999.00","-9999.00","Clear","clear","0","0","0","0","0","0","METAR UKKK 161100Z 24002MPS CAVOK 13/02 Q1014 R26/CLRD70 NOSIG"
"2:30 PM EEST on April 16, 2016","2016","04","16","14","30","Europe/Kiev","11:30 AM GMT on April 16, 2016","2016","04","16","11","30","UTC","13.0","55.4","3.0","37.4","51","7.2","4.5","-9999.0","-9999.0","180","South","-9999.0","-9999.0","1014","29.95","-999","-999","-9999","-9999","-9999.00","-9999.00","Clear","clear","0","0","0","0","0","0","METAR UKKK 161130Z 18002MPS 130V260 CAVOK 13/03 Q1014 R26/CLRD70 NOSIG"
"3:00 PM EEST on April 16, 2016","2016","04","16","15","00","Europe/Kiev","12:00 PM GMT on April 16, 2016","2016","04","16","12","00","UTC","15","59","4","40","37","7.2","4.5","","","170","South","20","12","1014","29.94","-999","-999","-9999","-9999","","","Scattered Clouds","partlycloudy","0","0","0","0","0","0","AAXX 16121 33345 32698 71702 10152 20043 39939 40137 58007 82575 555 11021"
"3:00 PM EEST on April 16, 2016","2016","04","16","15","00","Europe/Kiev","12:00 PM GMT on April 16, 2016","2016","04","16","12","00","UTC","15.0","59.0","4.0","39.2","48","10.8","6.7","-9999.0","-9999.0","190","South","-9999.0","-9999.0","1013","29.92","-999","-999","-9999","-9999","-9999.00","-9999.00","Clear","clear","0","0","0","0","0","0","METAR UKKK 161200Z 19003MPS 150V260 CAVOK 15/04 Q1013 R26/CLRD70 NOSIG"
"3:30 PM EEST on April 16, 2016","2016","04","16","15","30","Europe/Kiev","12:30 PM GMT on April 16, 2016","2016","04","16","12","30","UTC","15.0","59.0","5.0","41.0","51","14.4","8.9","-9999.0","-9999.0","210","SSW","10.0","6.2","1013","29.92","-999","-999","-9999","-9999","-9999.00","-9999.00","Scattered Clouds","partlycloudy","0","0","0","0","0","0","METAR UKKK 161230Z 21004MPS 170V260 9999 SCT046 15/05 Q1013 R26/CLRD70 NOSIG"
"4:00 PM EEST on April 16, 2016","2016","04","16","16","00","Europe/Kiev","1:00 PM GMT on April 16, 2016","2016","04","16","13","00","UTC","16.0","60.8","6.0","42.8","52","10.8","6.7","-9999.0","-9999.0","200","SSW","-9999.0","-9999.0","1013","29.92","-999","-999","-9999","-9999","-9999.00","-9999.00","Clear","clear","0","0","0","0","0","0","METAR UKKK 161300Z 20003MPS 170V240 CAVOK 16/06 Q1013 R26/CLRD70 NOSIG"
"4:30 PM EEST on April 16, 2016","2016","04","16","16","30","Europe/Kiev","1:30 PM GMT on April 16, 2016","2016","04","16","13","30","UTC","16.0","60.8","6.0","42.8","52","10.8","6.7","-9999.0","-9999.0","160","SSE","10.0","6.2","1012","29.89","-999","-999","-9999","-9999","-9999.00","-9999.00","Mostly Cloudy","mostlycloudy","0","0","0","0","0","0","METAR UKKK 161330Z 16003MPS 110V200 9999 BKN048 16/06 Q1012 R26/CLRD70 NOSIG"
"5:00 PM EEST on April 16, 2016","2016","04","16","17","00","Europe/Kiev","2:00 PM GMT on April 16, 2016","2016","04","16","14","00","UTC","16.0","60.8","7.0","44.6","55","7.2","4.5","-9999.0","-9999.0","170","South","-9999.0","-9999.0","1012","29.89","-999","-999","-9999","-9999","-9999.00","-9999.00","Clear","clear","0","0","0","0","0","0","METAR UKKK 161400Z 17002MPS 150V220 CAVOK 16/07 Q1012 R26/CLRD70 NOSIG"
"5:30 PM EEST on April 16, 2016","2016","04","16","17","30","Europe/Kiev","2:30 PM GMT on April 16, 2016","2016","04","16","14","30","UTC","16.0","60.8","7.0","44.6","55","10.8","6.7","-9999.0","-9999.0","150","SSE","-9999.0","-9999.0","1012","29.89","-999","-999","-9999","-9999","-9999.00","-9999.00","Clear","clear","0","0","0","0","0","0","METAR UKKK 161430Z 15003MPS 120V180 CAVOK 16/07 Q1012 R26/CLRD70 NOSIG"
"6:00 PM EEST on April 16, 2016","2016","04","16","18","00","Europe/Kiev","3:00 PM GMT on April 16, 2016","2016","04","16","15","00","UTC","15","60","7","45","48","3.6","2.2","","","150","SSE","20","12","1013","29.91","-999","-999","-9999","-9999","","","Mostly Cloudy","mostlycloudy","0","0","0","0","0","0","AAXX 16151 33345 42498 71501 10154 20074 39929 40127 57010 86975 555 11015"
"6:00 PM EEST on April 16, 2016","2016","04","16","18","00","Europe/Kiev","3:00 PM GMT on April 16, 2016","2016","04","16","15","00","UTC","16.0","60.8","8.0","46.4","59","7.2","4.5","-9999.0","-9999.0","150","SSE","10.0","6.2","1012","29.89","-999","-999","-9999","-9999","-9999.00","-9999.00","Mostly Cloudy","mostlycloudy","0","0","0","0","0","0","METAR UKKK 161500Z 15002MPS 120V180 9999 BKN049 16/08 Q1012 R26/CLRD70 NOSIG"
"6:30 PM EEST on April 16, 2016","2016","04","16","18","30","Europe/Kiev","3:30 PM GMT on April 16, 2016","2016","04","16","15","30","UTC","15.0","59.0","8.0","46.4","63","7.2","4.5","-9999.0","-9999.0","160","SSE","10.0","6.2","1012","29.89","-999","-999","-9999","-9999","-9999.00","-9999.00","Mostly Cloudy","mostlycloudy","0","0","0","0","0","0","METAR UKKK 161530Z 16002MPS 140V200 9999 FEW025CB BKN049 15/08 Q1012 R26/CLRD70 NOSIG"
"7:00 PM EEST on April 16, 2016","2016","04","16","19","00","Europe/Kiev","4:00 PM GMT on April 16, 2016","2016","04","16","16","00","UTC","14.0","57.2","10.0","50.0","77","7.2","4.5","-9999.0","-9999.0","260","West","8.0","5.0","1013","29.92","-999","-999","-9999","-9999","-9999.00","-9999.00","Light Rain Showers","rain","0","1","0","0","0","0","METAR UKKK 161600Z 26002MPS 220V290 8000 -SHRA SCT025CB OVC049 14/10 Q1013 R08/290058 NOSIG"
"7:30 PM EEST on April 16, 2016","2016","04","16","19","30","Europe/Kiev","4:30 PM GMT on April 16, 2016","2016","04","16","16","30","UTC","13.0","55.4","11.0","51.8","88","0.0","0.0","-9999.0","-9999.0","0","North","10.0","6.2","1013","29.92","-999","-999","-9999","-9999","-9999.00","-9999.00","Light Rain Showers","rain","0","1","0","0","0","0","METAR UKKK 161630Z 00000MPS 9999 -SHRA SCT023CB OVC049 13/11 Q1013 R08/290058 NOSIG"
"8:00 PM EEST on April 16, 2016","2016","04","16","20","00","Europe/Kiev","5:00 PM GMT on April 16, 2016","2016","04","16","17","00","UTC","12.0","53.6","11.0","51.8","94","3.6","2.2","-9999.0","-9999.0","0","Variable","7.0","4.3","1013","29.92","-999","-999","-9999","-9999","-9999.00","-9999.00","Light Rain Showers","rain","0","1","0","0","0","0","METAR UKKK 161700Z VRB01MPS 7000 -SHRA SCT023CB OVC049 12/11 Q1013 R08/290058 NOSIG"
"8:30 PM EEST on April 16, 2016","2016","04","16","20","30","Europe/Kiev","5:30 PM GMT on April 16, 2016","2016","04","16","17","30","UTC","12.0","53.6","11.0","51.8","94","0.0","0.0","-9999.0","-9999.0","0","North","7.0","4.3","1013","29.92","-999","-999","-9999","-9999","-9999.00","-9999.00","Light Rain Showers","rain","0","1","0","0","0","0","METAR UKKK 161730Z 00000MPS 7000 -SHRA SCT025CB OVC049 12/11 Q1013 R08/290256 NOSIG"
"9:00 PM EEST on April 16, 2016","2016","04","16","21","00","Europe/Kiev","6:00 PM GMT on April 16, 2016","2016","04","16","18","00","UTC","12","54","11","51","86","0.0","0.0","","","","","4","2","1013","29.93","-999","-999","-9999","-9999","","","Light Rain Showers","rain","0","1","0","0","0","0","AAXX 16181 33345 11496 80000 10121 20106 39934 40134 53005 69962 78082 889// 333 10172 88918 555 11012"
"9:00 PM EEST on April 16, 2016","2016","04","16","21","00","Europe/Kiev","6:00 PM GMT on April 16, 2016","2016","04","16","18","00","UTC","12.0","53.6","11.0","51.8","94","3.6","2.2","-9999.0","-9999.0","150","SSE","8.0","5.0","1013","29.92","-999","-999","-9999","-9999","-9999.00","-9999.00","Light Rain Showers","rain","0","1","0","0","0","0","METAR UKKK 161800Z 15001MPS 8000 -SHRA SCT030CB OVC049 12/11 Q1013 R08/290256 NOSIG"
"9:30 PM EEST on April 16, 2016","2016","04","16","21","30","Europe/Kiev","6:30 PM GMT on April 16, 2016","2016","04","16","18","30","UTC","12.0","53.6","11.0","51.8","94","7.2","4.5","-9999.0","-9999.0","100","East","5.0","3.1","1013","29.92","-999","-999","-9999","-9999","-9999.00","-9999.00","Light Rain Showers","rain","0","1","0","0","0","0","METAR UKKK 161830Z 10002MPS 5000 -SHRA SCT030CB OVC049 12/11 Q1013 R08/290256 NOSIG"
"10:00 PM EEST on April 16, 2016","2016","04","16","22","00","Europe/Kiev","7:00 PM GMT on April 16, 2016","2016","04","16","19","00","UTC","12.0","53.6","11.0","51.8","94","7.2","4.5","-9999.0","-9999.0","100","East","5.0","3.1","1013","29.92","-999","-999","-9999","-9999","-9999.00","-9999.00","Light Rain Showers","rain","0","1","0","0","0","0","METAR UKKK 161900Z 10002MPS 5000 -SHRA BR SCT030CB OVC049 12/11 Q1013 R08/290256 NOSIG"
"10:30 PM EEST on April 16, 2016","2016","04","16","22","30","Europe/Kiev","7:30 PM GMT on April 16, 2016","2016","04","16","19","30","UTC","12.0","53.6","11.0","51.8","94","7.2","4.5","-9999.0","-9999.0","110","ESE","6.0","3.7","1012","29.89","-999","-999","-9999","-9999","-9999.00","-9999.00","Light Rain Showers","rain","0","1","0","0","0","0","METAR UKKK 161930Z 11002MPS 6000 -SHRA SCT030CB OVC049 12/11 Q1012 R08/290256 NOSIG"
"11:00 PM EEST on April 16, 2016","2016","04","16","23","00","Europe/Kiev","8:00 PM GMT on April 16, 2016","2016","04","16","20","00","UTC","12.0","53.6","10.0","50.0","88","10.8","6.7","-9999.0","-9999.0","120","ESE","10.0","6.2","1012","29.89","-999","-999","-9999","-9999","-9999.00","-9999.00","Overcast","cloudy","0","0","0","0","0","0","METAR UKKK 162000Z 12003MPS 9999 OVC040 12/10 Q1012 R08/290256 NOSIG"
"11:30 PM EEST on April 16, 2016","2016","04","16","23","30","Europe/Kiev","8:30 PM GMT on April 16, 2016","2016","04","16","20","30","UTC","12.0","53.6","10.0","50.0","88","10.8","6.7","-9999.0","-9999.0","120","ESE","-9999.0","-9999.0","1011","29.86","-999","-999","-9999","-9999","-9999.00","-9999.00","Clear","clear","0","0","0","0","0","0","METAR UKKK 162030Z 12003MPS CAVOK 12/10 Q1011 R08/290256 NOSIG"
"12:00 AM EEST on April 17, 2016","2016","04","17","00","00","Europe/Kiev","9:00 PM GMT on April 16, 2016","2016","04","16","21","00","UTC","11","52","10","51","93","0.0","0.0","","","","","4","2","1012","29.89","-999","-999","-9999","-9999","","","Mist","hazy","0","0","0","0","0","0","AAXX 16211 33345 41996 70000 10111 20103 39922 40122 58012 71086 87070 555 11011"
"12:00 AM EEST on April 17, 2016","2016","04","17","00","00","Europe/Kiev","9:00 PM GMT on April 16, 2016","2016","04","16","21","00","UTC","12.0","53.6","10.0","50.0","88","14.4","8.9","-9999.0","-9999.0","120","ESE","-9999.0","-9999.0","1011","29.86","-999","-999","-9999","-9999","-9999.00","-9999.00","Clear","clear","0","0","0","0","0","0","METAR UKKK 162100Z 12004MPS CAVOK 12/10 Q1011 R08/290256 NOSIG"
"12:30 AM EEST on April 17, 2016","2016","04","17","00","30","Europe/Kiev","9:30 PM GMT on April 16, 2016","2016","04","16","21","30","UTC","12.0","53.6","10.0","50.0","88","14.4","8.9","-9999.0","-9999.0","80","East","-9999.0","-9999.0","1012","29.89","-999","-999","-9999","-9999","-9999.00","-9999.00","Clear","clear","0","0","0","0","0","0","METAR UKKK 162130Z 08004MPS 040V120 CAVOK 12/10 Q1012 R08/290256 NOSIG"
"1:00 AM EEST on April 17, 2016","2016","04","17","01","00","Europe/Kiev","10:00 PM GMT on April 16, 2016","2016","04","16","22","00","UTC","11.0","51.8","10.0","50.0","94","10.8","6.7","-9999.0","-9999.0","90","East","9.0","5.6","1012","29.89","-999","-999","-9999","-9999","-9999.00","-9999.00","Unknown","unknown","0","0","0","0","0","0","METAR UKKK 162200Z 09003MPS 9000 NSC 11/10 Q1012 R08/290256 NOSIG"
"1:30 AM EEST on April 17, 2016","2016","04","17","01","30","Europe/Kiev","10:30 PM GMT on April 16, 2016","2016","04","16","22","30","UTC","11.0","51.8","10.0","50.0","94","14.4","8.9","-9999.0","-9999.0","90","East","9.0","5.6","1011","29.86","-999","-999","-9999","-9999","-9999.00","-9999.00","Mostly Cloudy","mostlycloudy","0","0","0","0","0","0","METAR UKKK 162230Z 09004MPS 9000 FEW030CB BKN046 11/10 Q1011 R08/290256 NOSIG"
"2:00 AM EEST on April 17, 2016","2016","04","17","02","00","Europe/Kiev","11:00 PM GMT on April 16, 2016","2016","04","16","23","00","UTC","11.0","51.8","10.0","50.0","94","14.4","8.9","-9999.0","-9999.0","100","East","8.0","5.0","1011","29.86","-999","-999","-9999","-9999","-9999.00","-9999.00","Mostly Cloudy","mostlycloudy","0","0","0","0","0","0","METAR UKKK 162300Z 10004MPS 8000 FEW030CB BKN046 11/10 Q1011 R08/290256 NOSIG"
"2:30 AM EEST on April 17, 2016","2016","04","17","02","30","Europe/Kiev","11:30 PM GMT on April 16, 2016","2016","04","16","23","30","UTC","11.0","51.8","10.0","50.0","94","14.4","8.9","-9999.0","-9999.0","90","East","9.0","5.6","1011","29.86","-999","-999","-9999","-9999","-9999.00","-9999.00","Overcast","cloudy","0","0","0","0","0","0","METAR UKKK 162330Z 09004MPS 9000 SCT030CB OVC046 11/10 Q1011 R08/290256 NOSIG"
"3:00 AM EEST on April 17, 2016","2016","04","17","03","00","Europe/Kiev","12:00 AM GMT on April 17, 2016","2016","04","17","00","00","UTC","10","51","9","48","87","3.6","2.2","","","120","ESE","4","2","1011","29.86","-999","-999","-9999","-9999","","","Mist","hazy","0","0","0","0","0","0","AAXX 17001 33345 /1596 51201 10103 20091 39910 40111 57012 71086 82540 555 11010 69961"
"3:00 AM EEST on April 17, 2016","2016","04","17","03","00","Europe/Kiev","12:00 AM GMT on April 17, 2016","2016","04","17","00","00","UTC","11.0","51.8","9.0","48.2","88","10.8","6.7","-9999.0","-9999.0","100","East","10.0","6.2","1010","29.83","-999","-999","-9999","-9999","-9999.00","-9999.00","Overcast","cloudy","0","0","0","0","0","0","METAR UKKK 170000Z 10003MPS 9999 FEW033CB OVC049 11/09 Q1010 R08/290256 NOSIG"
"3:30 AM EEST on April 17, 2016","2016","04","17","03","30","Europe/Kiev","12:30 AM GMT on April 17, 2016","2016","04","17","00","30","UTC","11.0","51.8","9.0","48.2","88","7.2","4.5","-9999.0","-9999.0","110","ESE","-9999.0","-9999.0","1010","29.83","-999","-999","-9999","-9999","-9999.00","-9999.00","Clear","clear","0","0","0","0","0","0","METAR UKKK 170030Z 11002MPS CAVOK 11/09 Q1010 R08/290256 NOSIG"
"4:00 AM EEST on April 17, 2016","2016","04","17","04","00","Europe/Kiev","1:00 AM GMT on April 17, 2016","2016","04","17","01","00","UTC","11.0","51.8","9.0","48.2","88","14.4","8.9","-9999.0","-9999.0","110","ESE","-9999.0","-9999.0","1010","29.83","-999","-999","-9999","-9999","-9999.00","-9999.00","Clear","clear","0","0","0","0","0","0","METAR UKKK 170100Z 11004MPS CAVOK 11/09 Q1010 R08/290256 NOSIG"
"4:30 AM EEST on April 17, 2016","2016","04","17","04","30","Europe/Kiev","1:30 AM GMT on April 17, 2016","2016","04","17","01","30","UTC","10.0","50.0","9.0","48.2","94","3.6","2.2","-9999.0","-9999.0","0","Variable","-9999.0","-9999.0","1010","29.83","-999","-999","-9999","-9999","-9999.00","-9999.00","Clear","clear","0","0","0","0","0","0","METAR UKKK 170130Z VRB01MPS CAVOK 10/09 Q1010 R08/290256 NOSIG"
"5:00 AM EEST on April 17, 2016","2016","04","17","05","00","Europe/Kiev","2:00 AM GMT on April 17, 2016","2016","04","17","02","00","UTC","11.0","51.8","9.0","48.2","88","7.2","4.5","-9999.0","-9999.0","130","SE","-9999.0","-9999.0","1010","29.83","-999","-999","-9999","-9999","-9999.00","-9999.00","Clear","clear","0","0","0","0","0","0","METAR UKKK 170200Z 13002MPS CAVOK 11/09 Q1010 R08/290256 NOSIG"
"5:30 AM EEST on April 17, 2016","2016","04","17","05","30","Europe/Kiev","2:30 AM GMT on April 17, 2016","2016","04","17","02","30","UTC","11.0","51.8","9.0","48.2","88","7.2","4.5","-9999.0","-9999.0","130","SE","10.0","6.2","1010","29.83","-999","-999","-9999","-9999","-9999.00","-9999.00","Mostly Cloudy","mostlycloudy","0","0","0","0","0","0","METAR UKKK 170230Z 13002MPS 120V180 9999 BKN049 11/09 Q1010 R08/290256 NOSIG"
"6:00 AM EEST on April 17, 2016","2016","04","17","06","00","Europe/Kiev","3:00 AM GMT on April 17, 2016","2016","04","17","03","00","UTC","10","50","9","47","88","7.2","4.5","","","190","South","4","2","1011","29.85","-999","-999","-9999","-9999","","","Mist","hazy","0","0","0","0","0","0","AAXX 17031 33345 41496 81902 10100 20086 39906 40107 56004 71022 8697/ 555 11009"
"6:00 AM EEST on April 17, 2016","2016","04","17","06","00","Europe/Kiev","3:00 AM GMT on April 17, 2016","2016","04","17","03","00","UTC","10.0","50.0","9.0","48.2","94","0.0","0.0","-9999.0","-9999.0","0","North","10.0","6.2","1010","29.83","-999","-999","-9999","-9999","-9999.00","-9999.00","Mostly Cloudy","mostlycloudy","0","0","0","0","0","0","METAR UKKK 170300Z 00000MPS 9999 FEW033CB BKN049 10/09 Q1010 R08/190060 NOSIG"
"6:30 AM EEST on April 17, 2016","2016","04","17","06","30","Europe/Kiev","3:30 AM GMT on April 17, 2016","2016","04","17","03","30","UTC","11.0","51.8","10.0","50.0","94","7.2","4.5","-9999.0","-9999.0","210","SSW","9.0","5.6","1010","29.83","-999","-999","-9999","-9999","-9999.00","-9999.00","Mostly Cloudy","mostlycloudy","0","0","0","0","0","0","METAR UKKK 170330Z 21002MPS 180V240 9000 FEW033CB BKN049 11/10 Q1010 R26/190060 NOSIG"
"7:00 AM EEST on April 17, 2016","2016","04","17","07","00","Europe/Kiev","4:00 AM GMT on April 17, 2016","2016","04","17","04","00","UTC","11.0","51.8","9.0","48.2","88","10.8","6.7","-9999.0","-9999.0","210","SSW","-9999.0","-9999.0","1010","29.83","-999","-999","-9999","-9999","-9999.00","-9999.00","Clear","clear","0","0","0","0","0","0","METAR UKKK 170400Z 21003MPS CAVOK 11/09 Q1010 R26/190060 NOSIG"
"7:30 AM EEST on April 17, 2016","2016","04","17","07","30","Europe/Kiev","4:30 AM GMT on April 17, 2016","2016","04","17","04","30","UTC","12.0","53.6","9.0","48.2","82","10.8","6.7","-9999.0","-9999.0","220","SW","-9999.0","-9999.0","1010","29.83","-999","-999","-9999","-9999","-9999.00","-9999.00","Clear","clear","0","0","0","0","0","0","METAR UKKK 170430Z 22003MPS CAVOK 12/09 Q1010 R26/290058 NOSIG"
"8:00 AM EEST on April 17, 2016","2016","04","17","08","00","Europe/Kiev","5:00 AM GMT on April 17, 2016","2016","04","17","05","00","UTC","12.0","53.6","9.0","48.2","82","7.2","4.5","-9999.0","-9999.0","200","SSW","-9999.0","-9999.0","1010","29.83","-999","-999","-9999","-9999","-9999.00","-9999.00","Clear","clear","0","0","0","0","0","0","METAR UKKK 170500Z 20002MPS 170V230 CAVOK 12/09 Q1010 R26/290058 NOSIG"
"8:30 AM EEST on April 17, 2016","2016","04","17","08","30","Europe/Kiev","5:30 AM GMT on April 17, 2016","2016","04","17","05","30","UTC","14.0","57.2","10.0","50.0","77","7.2","4.5","-9999.0","-9999.0","210","SSW","-9999.0","-9999.0","1010","29.83","-999","-999","-9999","-9999","-9999.00","-9999.00","Clear","clear","0","0","0","0","0","0","METAR UKKK 170530Z 21002MPS 160V240 CAVOK 14/10 Q1010 R26/290058 NOSIG"
"9:00 AM EEST on April 17, 2016","2016","04","17","09","00","Europe/Kiev","6:00 AM GMT on April 17, 2016","2016","04","17","06","00","UTC","14","58","11","51","71","7.2","4.5","","","190","South","10","6","1010","29.84","-999","-999","-9999","-9999","","","Partly Cloudy","partlycloudy","0","0","0","0","0","0","AAXX 17061 33345 11697 61902 10142 20106 39906 40104 54000 69972 70282 83585 333 20095 555 11015"
"9:00 AM EEST on April 17, 2016","2016","04","17","09","00","Europe/Kiev","6:00 AM GMT on April 17, 2016","2016","04","17","06","00","UTC","15.0","59.0","10.0","50.0","72","14.4","8.9","-9999.0","-9999.0","230","SW","-9999.0","-9999.0","1010","29.83","-999","-999","-9999","-9999","-9999.00","-9999.00","Clear","clear","0","0","0","0","0","0","METAR UKKK 170600Z 23004MPS CAVOK 15/10 Q1010 R26/290058 NOSIG"
"9:30 AM EEST on April 17, 2016","2016","04","17","09","30","Europe/Kiev","6:30 AM GMT on April 17, 2016","2016","04","17","06","30","UTC","17.0","62.6","10.0","50.0","63","18.0","11.2","-9999.0","-9999.0","240","WSW","-9999.0","-9999.0","1010","29.83","-999","-999","-9999","-9999","-9999.00","-9999.00","Clear","clear","0","0","0","0","0","0","METAR UKKK 170630Z 24005MPS 210V270 CAVOK 17/10 Q1010 R26/290058 NOSIG"
"10:00 AM EEST on April 17, 2016","2016","04","17","10","00","Europe/Kiev","7:00 AM GMT on April 17, 2016","2016","04","17","07","00","UTC","17.0","62.6","10.0","50.0","63","18.0","11.2","-9999.0","-9999.0","260","West","-9999.0","-9999.0","1010","29.83","-999","-999","-9999","-9999","-9999.00","-9999.00","Clear","clear","0","0","0","0","0","0","METAR UKKK 170700Z 26005MPS CAVOK 17/10 Q1010 R26/290058 NOSIG"
"10:30 AM EEST on April 17, 2016","2016","04","17","10","30","Europe/Kiev","7:30 AM GMT on April 17, 2016","2016","04","17","07","30","UTC","18.0","64.4","11.0","51.8","64","21.6","13.4","-9999.0","-9999.0","280","West","-9999.0","-9999.0","1011","29.86","-999","-999","-9999","-9999","-9999.00","-9999.00","Clear","clear","0","0","0","0","0","0","METAR UKKK 170730Z 28006MPS CAVOK 18/11 Q1011 R26/CLRD70 NOSIG"
"11:00 AM EEST on April 17, 2016","2016","04","17","11","00","Europe/Kiev","8:00 AM GMT on April 17, 2016","2016","04","17","08","00","UTC","18.0","64.4","11.0","51.8","64","18.0","11.2","-9999.0","-9999.0","280","West","-9999.0","-9999.0","1010","29.83","-999","-999","-9999","-9999","-9999.00","-9999.00","Clear","clear","0","0","0","0","0","0","METAR UKKK 170800Z 28005MPS CAVOK 18/11 Q1010 R26/CLRD70 NOSIG"
"11:30 AM EEST on April 17, 2016","2016","04","17","11","30","Europe/Kiev","8:30 AM GMT on April 17, 2016","2016","04","17","08","30","UTC","19.0","66.2","12.0","53.6","64","21.6","13.4","-9999.0","-9999.0","280","West","-9999.0","-9999.0","1011","29.86","-999","-999","-9999","-9999","-9999.00","-9999.00","Clear","clear","0","0","0","0","0","0","METAR UKKK 170830Z 28006MPS CAVOK 19/12 Q1011 R26/CLRD70 NOSIG"
"12:00 PM EEST on April 17, 2016","2016","04","17","12","00","Europe/Kiev","9:00 AM GMT on April 17, 2016","2016","04","17","09","00","UTC","20","69","10","50","40","10.8","6.7","","","260","West","20","12","1011","29.85","-999","-999","-9999","-9999","","","Clear","clear","0","0","0","0","0","0","AAXX 17091 33345 42998 32603 10203 20100 39914 40108 53008 80001 555 11025"
"12:00 PM EEST on April 17, 2016","2016","04","17","12","00","Europe/Kiev","9:00 AM GMT on April 17, 2016","2016","04","17","09","00","UTC","19.0","66.2","11.0","51.8","60","18.0","11.2","-9999.0","-9999.0","270","West","-9999.0","-9999.0","1011","29.86","-999","-999","-9999","-9999","-9999.00","-9999.00","Clear","clear","0","0","0","0","0","0","METAR UKKK 170900Z 27005MPS 240V300 CAVOK 19/11 Q1011 R26/CLRD70 NOSIG"
"12:30 PM EEST on April 17, 2016","2016","04","17","12","30","Europe/Kiev","9:30 AM GMT on April 17, 2016","2016","04","17","09","30","UTC","20.0","68.0","11.0","51.8","56","18.0","11.2","-9999.0","-9999.0","270","West","-9999.0","-9999.0","1011","29.86","-999","-999","-9999","-9999","-9999.00","-9999.00","Clear","clear","0","0","0","0","0","0","METAR UKKK 170930Z 27005MPS CAVOK 20/11 Q1011 R26/CLRD70 NOSIG"
"1:00 PM EEST on April 17, 2016","2016","04","17","13","00","Europe/Kiev","10:00 AM GMT on April 17, 2016","2016","04","17","10","00","UTC","21.0","69.8","10.0","50.0","49","18.0","11.2","-9999.0","-9999.0","270","West","-9999.0","-9999.0","1011","29.86","-999","-999","-9999","-9999","-9999.00","-9999.00","Clear","clear","0","0","0","0","0","0","METAR UKKK 171000Z 27005MPS 240V300 CAVOK 21/10 Q1011 R26/CLRD70 NOSIG"
"1:30 PM EEST on April 17, 2016","2016","04","17","13","30","Europe/Kiev","10:30 AM GMT on April 17, 2016","2016","04","17","10","30","UTC","21.0","69.8","10.0","50.0","49","14.4","8.9","-9999.0","-9999.0","290","WNW","-9999.0","-9999.0","1011","29.86","-999","-999","-9999","-9999","-9999.00","-9999.00","Clear","clear","0","0","0","0","0","0","METAR UKKK 171030Z 29004MPS 230V320 CAVOK 21/10 Q1011 R26/CLRD70 NOSIG"
"2:00 PM EEST on April 17, 2016","2016","04","17","14","00","Europe/Kiev","11:00 AM GMT on April 17, 2016","2016","04","17","11","00","UTC","22.0","71.6","9.0","48.2","43","18.0","11.2","-9999.0","-9999.0","270","West","-9999.0","-9999.0","1011","29.86","-999","-999","-9999","-9999","-9999.00","-9999.00","Clear","clear","0","0","0","0","0","0","METAR UKKK 171100Z 27005MPS 240V300 CAVOK 22/09 Q1011 R26/CLRD70 NOSIG"
"2:30 PM EEST on April 17, 2016","2016","04","17","14","30","Europe/Kiev","11:30 AM GMT on April 17, 2016","2016","04","17","11","30","UTC","22.0","71.6","9.0","48.2","43","14.4","8.9","-9999.0","-9999.0","270","West","-9999.0","-9999.0","1011","29.86","-999","-999","-9999","-9999","-9999.00","-9999.00","Clear","clear","0","0","0","0","0","0","METAR UKKK 171130Z 27004MPS 200V310 CAVOK 22/09 Q1011 R26/CLRD70 NOSIG"
"3:00 PM EEST on April 17, 2016","2016","04","17","15","00","Europe/Kiev","12:00 PM GMT on April 17, 2016","2016","04","17","12","00","UTC","23","73","7","45","26","14.4","8.9","","","280","West","20","12","1010","29.84","-999","-999","-9999","-9999","","","Partly Cloudy","partlycloudy","0","0","0","0","0","0","AAXX 17121 33345 32598 62804 10230 20074 39913 40105 58001 83204 555 11026"
"3:00 PM EEST on April 17, 2016","2016","04","17","15","00","Europe/Kiev","12:00 PM GMT on April 17, 2016","2016","04","17","12","00","UTC","22.0","71.6","9.0","48.2","43","18.0","11.2","-9999.0","-9999.0","260","West","-9999.0","-9999.0","1011","29.86","-999","-999","-9999","-9999","-9999.00","-9999.00","Clear","clear","0","0","0","0","0","0","METAR UKKK 171200Z 26005MPS CAVOK 22/09 Q1011 R26/CLRD70 NOSIG"
"3:30 PM EEST on April 17, 2016","2016","04","17","15","30","Europe/Kiev","12:30 PM GMT on April 17, 2016","2016","04","17","12","30","UTC","23.0","73.4","9.0","48.2","41","14.4","8.9","-9999.0","-9999.0","280","West","-9999.0","-9999.0","1010","29.83","-999","-999","-9999","-9999","-9999.00","-9999.00","Clear","clear","0","0","0","0","0","0","METAR UKKK 171230Z 28004MPS 250V320 CAVOK 23/09 Q1010 R26/CLRD70 NOSIG"
"4:00 PM EEST on April 17, 2016","2016","04","17","16","00","Europe/Kiev","1:00 PM GMT on April 17, 2016","2016","04","17","13","00","UTC","23.0","73.4","9.0","48.2","41","18.0","11.2","-9999.0","-9999.0","260","West","-9999.0","-9999.0","1010","29.83","-999","-999","-9999","-9999","-9999.00","-9999.00","Clear","clear","0","0","0","0","0","0","METAR UKKK 171300Z 26005MPS 230V300 CAVOK 23/09 Q1010 R26/CLRD70 NOSIG"
"4:30 PM EEST on April 17, 2016","2016","04","17","16","30","Europe/Kiev","1:30 PM GMT on April 17, 2016","2016","04","17","13","30","UTC","23.0","73.4","9.0","48.2","41","18.0","11.2","-9999.0","-9999.0","270","West","-9999.0","-9999.0","1010","29.83","-999","-999","-9999","-9999","-9999.00","-9999.00","Clear","clear","0","0","0","0","0","0","METAR UKKK 171330Z 27005MPS CAVOK 23/09 Q1010 R26/CLRD70 NOSIG"
"5:00 PM EEST on April 17, 2016","2016","04","17","17","00","Europe/Kiev","2:00 PM GMT on April 17, 2016","2016","04","17","14","00","UTC","24.0","75.2","8.0","46.4","36","10.8","6.7","-9999.0","-9999.0","210","SSW","-9999.0","-9999.0","1010","29.83","-999","-999","-9999","-9999","-9999.00","-9999.00","Clear","clear","0","0","0","0","0","0","METAR UKKK 171400Z 21003MPS 180V250 CAVOK 24/08 Q1010 R26/CLRD70 NOSIG"
"5:30 PM EEST on April 17, 2016","2016","04","17","17","30","Europe/Kiev","2:30 PM GMT on April 17, 2016","2016","04","17","14","30","UTC","23.0","73.4","7.0","44.6","36","10.8","6.7","-9999.0","-9999.0","230","SW","-9999.0","-9999.0","1010","29.83","-999","-999","-9999","-9999","-9999.00","-9999.00","Clear","clear","0","0","0","0","0","0","METAR UKKK 171430Z 23003MPS 190V260 CAVOK 23/07 Q1010 R26/CLRD70 NOSIG"
"6:00 PM EEST on April 17, 2016","2016","04","17","18","00","Europe/Kiev","3:00 PM GMT on April 17, 2016","2016","04","17","15","00","UTC","24","74","6","43","22","14.4","8.9","","","190","South","20","12","1010","29.82","-999","-999","-9999","-9999","","","Scattered Clouds","partlycloudy","0","0","0","0","0","0","AAXX 17151 33345 42698 61904 10235 20062 39905 40097 57008 82101 555 11023"
"6:00 PM EEST on April 17, 2016","2016","04","17","18","00","Europe/Kiev","3:00 PM GMT on April 17, 2016","2016","04","17","15","00","UTC","23.0","73.4","8.0","46.4","38","10.8","6.7","-9999.0","-9999.0","200","SSW","-9999.0","-9999.0","1010","29.83","-999","-999","-9999","-9999","-9999.00","-9999.00","Clear","clear","0","0","0","0","0","0","METAR UKKK 171500Z 20003MPS 160V250 CAVOK 23/08 Q1010 R26/CLRD70 NOSIG"
"6:30 PM EEST on April 17, 2016","2016","04","17","18","30","Europe/Kiev","3:30 PM GMT on April 17, 2016","2016","04","17","15","30","UTC","22.0","71.6","10.0","50.0","46","14.4","8.9","-9999.0","-9999.0","200","SSW","-9999.0","-9999.0","1010","29.83","-999","-999","-9999","-9999","-9999.00","-9999.00","Clear","clear","0","0","0","0","0","0","METAR UKKK 171530Z 20004MPS 160V250 CAVOK 22/10 Q1010 R26/CLRD70 NOSIG"
"7:00 PM EEST on April 17, 2016","2016","04","17","19","00","Europe/Kiev","4:00 PM GMT on April 17, 2016","2016","04","17","16","00","UTC","22.0","71.6","10.0","50.0","46","10.8","6.7","-9999.0","-9999.0","180","South","-9999.0","-9999.0","1010","29.83","-999","-999","-9999","-9999","-9999.00","-9999.00","Clear","clear","0","0","0","0","0","0","METAR UKKK 171600Z 18003MPS 140V210 CAVOK 22/10 Q1010 R26/CLRD70 NOSIG"
"7:30 PM EEST on April 17, 2016","2016","04","17","19","30","Europe/Kiev","4:30 PM GMT on April 17, 2016","2016","04","17","16","30","UTC","21.0","69.8","9.0","48.2","46","10.8","6.7","-9999.0","-9999.0","180","South","-9999.0","-9999.0","1010","29.83","-999","-999","-9999","-9999","-9999.00","-9999.00","Clear","clear","0","0","0","0","0","0","METAR UKKK 171630Z 18003MPS CAVOK 21/09 Q1010 R26/CLRD70 NOSIG"
"8:00 PM EEST on April 17, 2016","2016","04","17","20","00","Europe/Kiev","5:00 PM GMT on April 17, 2016","2016","04","17","17","00","UTC","21.0","69.8","9.0","48.2","46","10.8","6.7","-9999.0","-9999.0","160","SSE","-9999.0","-9999.0","1010","29.83","-999","-999","-9999","-9999","-9999.00","-9999.00","Clear","clear","0","0","0","0","0","0","METAR UKKK 171700Z 16003MPS 140V210 CAVOK 21/09 Q1010 R26/CLRD70 NOSIG"
"8:30 PM EEST on April 17, 2016","2016","04","17","20","30","Europe/Kiev","5:30 PM GMT on April 17, 2016","2016","04","17","17","30","UTC","20.0","68.0","9.0","48.2","49","10.8","6.7","-9999.0","-9999.0","170","South","-9999.0","-9999.0","1010","29.83","-999","-999","-9999","-9999","-9999.00","-9999.00","Clear","clear","0","0","0","0","0","0","METAR UKKK 171730Z 17003MPS 140V210 CAVOK 20/09 Q1010 R26/CLRD70 NOSIG"
"9:00 PM EEST on April 17, 2016","2016","04","17","21","00","Europe/Kiev","6:00 PM GMT on April 17, 2016","2016","04","17","18","00","UTC","20","67","9","49","41","10.8","6.7","","","180","South","20","12","1010","29.83","-999","-999","-9999","-9999","","","Scattered Clouds","partlycloudy","0","0","0","0","0","0","AAXX 17181 33345 32698 31803 10196 20093 39907 40101 53002 82401 333 10240 555 11014"
"9:00 PM EEST on April 17, 2016","2016","04","17","21","00","Europe/Kiev","6:00 PM GMT on April 17, 2016","2016","04","17","18","00","UTC","20.0","68.0","9.0","48.2","49","14.4","8.9","-9999.0","-9999.0","180","South","-9999.0","-9999.0","1010","29.83","-999","-999","-9999","-9999","-9999.00","-9999.00","Clear","clear","0","0","0","0","0","0","METAR UKKK 171800Z 18004MPS 140V210 CAVOK 20/09 Q1010 R26/CLRD70 NOSIG"
"9:30 PM EEST on April 17, 2016","2016","04","17","21","30","Europe/Kiev","6:30 PM GMT on April 17, 2016","2016","04","17","18","30","UTC","20.0","68.0","9.0","48.2","49","14.4","8.9","-9999.0","-9999.0","180","South","-9999.0","-9999.0","1010","29.83","-999","-999","-9999","-9999","-9999.00","-9999.00","Clear","clear","0","0","0","0","0","0","METAR UKKK 171830Z 18004MPS CAVOK 20/09 Q1010 R26/CLRD70 NOSIG"
"10:00 PM EEST on April 17, 2016","2016","04","17","22","00","Europe/Kiev","7:00 PM GMT on April 17, 2016","2016","04","17","19","00","UTC","20.0","68.0","9.0","48.2","49","14.4","8.9","-9999.0","-9999.0","180","South","-9999.0","-9999.0","1010","29.83","-999","-999","-9999","-9999","-9999.00","-9999.00","Clear","clear","0","0","0","0","0","0","METAR UKKK 171900Z 18004MPS 150V220 CAVOK 20/09 Q1010 R26/CLRD70 NOSIG"
"10:30 PM EEST on April 17, 2016","2016","04","17","22","30","Europe/Kiev","7:30 PM GMT on April 17, 2016","2016","04","17","19","30","UTC","19.0","66.2","9.0","48.2","52","10.8","6.7","-9999.0","-9999.0","180","South","-9999.0","-9999.0","1010","29.83","-999","-999","-9999","-9999","-9999.00","-9999.00","Clear","clear","0","0","0","0","0","0","METAR UKKK 171930Z 18003MPS 140V230 CAVOK 19/09 Q1010 R08/CLRD70 NOSIG"
"11:00 PM EEST on April 17, 2016","2016","04","17","23","00","Europe/Kiev","8:00 PM GMT on April 17, 2016","2016","04","17","20","00","UTC","19.0","66.2","9.0","48.2","52","10.8","6.7","-9999.0","-9999.0","190","South","-9999.0","-9999.0","1010","29.83","-999","-999","-9999","-9999","-9999.00","-9999.00","Clear","clear","0","0","0","0","0","0","METAR UKKK 172000Z 19003MPS 150V230 CAVOK 19/09 Q1010 R08/CLRD70 NOSIG"
"11:30 PM EEST on April 17, 2016","2016","04","17","23","30","Europe/Kiev","8:30 PM GMT on April 17, 2016","2016","04","17","20","30","UTC","18.0","64.4","10.0","50.0","59","10.8","6.7","-9999.0","-9999.0","210","SSW","-9999.0","-9999.0","1010","29.83","-999","-999","-9999","-9999","-9999.00","-9999.00","Clear","clear","0","0","0","0","0","0","METAR UKKK 172030Z 21003MPS 150V250 CAVOK 18/10 Q1010 R08/CLRD70 NOSIG"
"12:00 AM EEST on April 18, 2016","2016","04","18","00","00","Europe/Kiev","9:00 PM GMT on April 17, 2016","2016","04","17","21","00","UTC","18","64","9","49","47","10.8","6.7","","","210","SSW","20","12","1010","29.83","-999","-999","-9999","-9999","","","","","0","0","0","0","0","0","AAXX 17211 33345 42998 02103 10176 20092 39903 40099 58004 555 11013"
"12:00 AM EEST on April 18, 2016","2016","04","18","00","00","Europe/Kiev","9:00 PM GMT on April 17, 2016","2016","04","17","21","00","UTC","17.0","62.6","10.0","50.0","63","10.8","6.7","-9999.0","-9999.0","210","SSW","-9999.0","-9999.0","1010","29.83","-999","-999","-9999","-9999","-9999.00","-9999.00","Clear","clear","0","0","0","0","0","0","METAR UKKK 172100Z 21003MPS 140V250 CAVOK 17/10 Q1010 R08/CLRD70 NOSIG"
"12:30 AM EEST on April 18, 2016","2016","04","18","00","30","Europe/Kiev","9:30 PM GMT on April 17, 2016","2016","04","17","21","30","UTC","17.0","62.6","9.0","48.2","59","7.2","4.5","-9999.0","-9999.0","200","SSW","-9999.0","-9999.0","1010","29.83","-999","-999","-9999","-9999","-9999.00","-9999.00","Clear","clear","0","0","0","0","0","0","METAR UKKK 172130Z 20002MPS 150V240 CAVOK 17/09 Q1010 R08/CLRD70 NOSIG"
"1:00 AM EEST on April 18, 2016","2016","04","18","01","00","Europe/Kiev","10:00 PM GMT on April 17, 2016","2016","04","17","22","00","UTC","16.0","60.8","9.0","48.2","63","3.6","2.2","-9999.0","-9999.0","0","Variable","-9999.0","-9999.0","1010","29.83","-999","-999","-9999","-9999","-9999.00","-9999.00","Clear","clear","0","0","0","0","0","0","METAR UKKK 172200Z VRB01MPS CAVOK 16/09 Q1010 R08/CLRD70 NOSIG"
"1:30 AM EEST on April 18, 2016","2016","04","18","01","30","Europe/Kiev","10:30 PM GMT on April 17, 2016","2016","04","17","22","30","UTC","15.0","59.0","9.0","48.2","67","3.6","2.2","-9999.0","-9999.0","0","Variable","-9999.0","-9999.0","1010","29.83","-999","-999","-9999","-9999","-9999.00","-9999.00","Clear","clear","0","0","0","0","0","0","METAR UKKK 172230Z VRB01MPS CAVOK 15/09 Q1010 R08/CLRD70 NOSIG"
"2:00 AM EEST on April 18, 2016","2016","04","18","02","00","Europe/Kiev","11:00 PM GMT on April 17, 2016","2016","04","17","23","00","UTC","14.0","57.2","9.0","48.2","72","0.0","0.0","-9999.0","-9999.0","0","North","-9999.0","-9999.0","1009","29.80","-999","-999","-9999","-9999","-9999.00","-9999.00","Clear","clear","0","0","0","0","0","0","METAR UKKK 172300Z 00000MPS CAVOK 14/09 Q1009 R08/CLRD70 NOSIG"
"2:30 AM EEST on April 18, 2016","2016","04","18","02","30","Europe/Kiev","11:30 PM GMT on April 17, 2016","2016","04","17","23","30","UTC","13.0","55.4","9.0","48.2","77","3.6","2.2","-9999.0","-9999.0","0","Variable","-9999.0","-9999.0","1010","29.83","-999","-999","-9999","-9999","-9999.00","-9999.00","Clear","clear","0","0","0","0","0","0","METAR UKKK 172330Z VRB01MPS CAVOK 13/09 Q1010 R08/CLRD70 NOSIG"
"3:00 AM EEST on April 18, 2016","2016","04","18","03","00","Europe/Kiev","12:00 AM GMT on April 18, 2016","2016","04","18","00","00","UTC","16","61","8","47","50","7.2","4.5","","","240","WSW","20","12","1010","29.82","-999","-999","-9999","-9999","","","Scattered Clouds","partlycloudy","0","0","0","0","0","0","AAXX 18001 33345 32998 52402 10159 20085 39901 40098 57002 82036 555 11011"
"3:00 AM EEST on April 18, 2016","2016","04","18","03","00","Europe/Kiev","12:00 AM GMT on April 18, 2016","2016","04","18","00","00","UTC","13.0","55.4","9.0","48.2","77","0.0","0.0","-9999.0","-9999.0","0","North","-9999.0","-9999.0","1010","29.83","-999","-999","-9999","-9999","-9999.00","-9999.00","Clear","clear","0","0","0","0","0","0","METAR UKKK 180000Z 00000MPS CAVOK 13/09 Q1010 R08/CLRD70 NOSIG"
"3:30 AM EEST on April 18, 2016","2016","04","18","03","30","Europe/Kiev","12:30 AM GMT on April 18, 2016","2016","04","18","00","30","UTC","13.0","55.4","9.0","48.2","77","3.6","2.2","-9999.0","-9999.0","230","SW","-9999.0","-9999.0","1010","29.83","-999","-999","-9999","-9999","-9999.00","-9999.00","Clear","clear","0","0","0","0","0","0","METAR UKKK 180030Z 23001MPS CAVOK 13/09 Q1010 R08/CLRD70 NOSIG"
"4:00 AM EEST on April 18, 2016","2016","04","18","04","00","Europe/Kiev","1:00 AM GMT on April 18, 2016","2016","04","18","01","00","UTC","12.0","53.6","9.0","48.2","82","3.6","2.2","-9999.0","-9999.0","0","Variable","-9999.0","-9999.0","1010","29.83","-999","-999","-9999","-9999","-9999.00","-9999.00","Clear","clear","0","0","0","0","0","0","METAR UKKK 180100Z VRB01MPS CAVOK 12/09 Q1010 R08/CLRD70 NOSIG"
"4:30 AM EEST on April 18, 2016","2016","04","18","04","30","Europe/Kiev","1:30 AM GMT on April 18, 2016","2016","04","18","01","30","UTC","13.0","55.4","9.0","48.2","77","3.6","2.2","-9999.0","-9999.0","0","Variable","-9999.0","-9999.0","1010","29.83","-999","-999","-9999","-9999","-9999.00","-9999.00","Clear","clear","0","0","0","0","0","0","METAR UKKK 180130Z VRB01MPS CAVOK 13/09 Q1010 R08/CLRD70 NOSIG"
"5:00 AM EEST on April 18, 2016","2016","04","18","05","00","Europe/Kiev","2:00 AM GMT on April 18, 2016","2016","04","18","02","00","UTC","14.0","57.2","9.0","48.2","72","3.6","2.2","-9999.0","-9999.0","0","Variable","-9999.0","-9999.0","1009","29.80","-999","-999","-9999","-9999","-9999.00","-9999.00","Clear","clear","0","0","0","0","0","0","METAR UKKK 180200Z VRB01MPS CAVOK 14/09 Q1009 R08/CLRD70 NOSIG"
"5:30 AM EEST on April 18, 2016","2016","04","18","05","30","Europe/Kiev","2:30 AM GMT on April 18, 2016","2016","04","18","02","30","UTC","12.0","53.6","9.0","48.2","82","0.0","0.0","-9999.0","-9999.0","0","North","-9999.0","-9999.0","1009","29.80","-999","-999","-9999","-9999","-9999.00","-9999.00","Clear","clear","0","0","0","0","0","0","METAR UKKK 180230Z 00000MPS CAVOK 12/09 Q1009 R08/CLRD70 NOSIG"
"6:00 AM EEST on April 18, 2016","2016","04","18","06","00","Europe/Kiev","3:00 AM GMT on April 18, 2016","2016","04","18","03","00","UTC","14","58","9","48","59","3.6","2.2","","","270","West","20","12","1010","29.82","-999","-999","-9999","-9999","","","Clear","clear","0","0","0","0","0","0","AAXX 18031 33345 42998 72701 10144 20087 39898 40096 57003 80009 555 11011"
"6:00 AM EEST on April 18, 2016","2016","04","18","06","00","Europe/Kiev","3:00 AM GMT on April 18, 2016","2016","04","18","03","00","UTC","12.0","53.6","9.0","48.2","82","7.2","4.5","-9999.0","-9999.0","260","West","-9999.0","-9999.0","1009","29.80","-999","-999","-9999","-9999","-9999.00","-9999.00","Clear","clear","0","0","0","0","0","0","METAR UKKK 180300Z 26002MPS CAVOK 12/09 Q1009 R26/CLRD70 NOSIG"
"6:30 AM EEST on April 18, 2016","2016","04","18","06","30","Europe/Kiev","3:30 AM GMT on April 18, 2016","2016","04","18","03","30","UTC","11.0","51.8","10.0","50.0","94","10.8","6.7","-9999.0","-9999.0","250","WSW","-9999.0","-9999.0","1010","29.83","-999","-999","-9999","-9999","-9999.00","-9999.00","Clear","clear","0","0","0","0","0","0","METAR UKKK 180330Z 25003MPS CAVOK 11/10 Q1010 R26/CLRD70 NOSIG"
"7:00 AM EEST on April 18, 2016","2016","04","18","07","00","Europe/Kiev","4:00 AM GMT on April 18, 2016","2016","04","18","04","00","UTC","12.0","53.6","9.0","48.2","82","10.8","6.7","-9999.0","-9999.0","280","West","-9999.0","-9999.0","1010","29.83","-999","-999","-9999","-9999","-9999.00","-9999.00","Clear","clear","0","0","0","0","0","0","METAR UKKK 180400Z 28003MPS CAVOK 12/09 Q1010 R26/CLRD70 NOSIG"
"7:30 AM EEST on April 18, 2016","2016","04","18","07","30","Europe/Kiev","4:30 AM GMT on April 18, 2016","2016","04","18","04","30","UTC","14.0","57.2","10.0","50.0","77","7.2","4.5","-9999.0","-9999.0","280","West","-9999.0","-9999.0","1010","29.83","-999","-999","-9999","-9999","-9999.00","-9999.00","Clear","clear","0","0","0","0","0","0","METAR UKKK 180430Z 28002MPS CAVOK 14/10 Q1010 R26/CLRD70 NOSIG"
"8:00 AM EEST on April 18, 2016","2016","04","18","08","00","Europe/Kiev","5:00 AM GMT on April 18, 2016","2016","04","18","05","00","UTC","15.0","59.0","9.0","48.2","67","10.8","6.7","-9999.0","-9999.0","330","NNW","-9999.0","-9999.0","1011","29.86","-999","-999","-9999","-9999","-9999.00","-9999.00","Clear","clear","0","0","0","0","0","0","METAR UKKK 180500Z 33003MPS 300V360 CAVOK 15/09 Q1011 R26/CLRD70 NOSIG"
"8:30 AM EEST on April 18, 2016","2016","04","18","08","30","Europe/Kiev","5:30 AM GMT on April 18, 2016","2016","04","18","05","30","UTC","16.0","60.8","9.0","48.2","63","10.8","6.7","-9999.0","-9999.0","350","North","-9999.0","-9999.0","1011","29.86","-999","-999","-9999","-9999","-9999.00","-9999.00","Clear","clear","0","0","0","0","0","0","METAR UKKK 180530Z 35003MPS 320V020 CAVOK 16/09 Q1011 R26/CLRD70 NOSIG"
"9:00 AM EEST on April 18, 2016","2016","04","18","09","00","Europe/Kiev","6:00 AM GMT on April 18, 2016","2016","04","18","06","00","UTC","16","61","8","47","50","10.8","6.7","","","0","North","20","12","1011","29.86","-999","-999","-9999","-9999","","","Clear","clear","0","0","0","0","0","0","AAXX 18061 33345 32998 53603 10163 20085 39914 40111 53016 80009 333 20141 555 11016"
"9:00 AM EEST on April 18, 2016","2016","04","18","09","00","Europe/Kiev","6:00 AM GMT on April 18, 2016","2016","04","18","06","00","UTC","17.0","62.6","9.0","48.2","59","7.2","4.5","-9999.0","-9999.0","30","NNE","-9999.0","-9999.0","1011","29.86","-999","-999","-9999","-9999","-9999.00","-9999.00","Clear","clear","0","0","0","0","0","0","METAR UKKK 180600Z 03002MPS 310V060 CAVOK 17/09 Q1011 R26/CLRD70 NOSIG"
"9:30 AM EEST on April 18, 2016","2016","04","18","09","30","Europe/Kiev","6:30 AM GMT on April 18, 2016","2016","04","18","06","30","UTC","17.0","62.6","8.0","46.4","55","10.8","6.7","-9999.0","-9999.0","10","North","-9999.0","-9999.0","1011","29.86","-999","-999","-9999","-9999","-9999.00","-9999.00","Clear","clear","0","0","0","0","0","0","METAR UKKK 180630Z 01003MPS 340V040 CAVOK 17/08 Q1011 R26/CLRD70 NOSIG"
"10:00 AM EEST on April 18, 2016","2016","04","18","10","00","Europe/Kiev","7:00 AM GMT on April 18, 2016","2016","04","18","07","00","UTC","18.0","64.4","9.0","48.2","56","10.8","6.7","-9999.0","-9999.0","30","NNE","-9999.0","-9999.0","1011","29.86","-999","-999","-9999","-9999","-9999.00","-9999.00","Clear","clear","0","0","0","0","0","0","METAR UKKK 180700Z 03003MPS 340V060 CAVOK 18/09 Q1011 R26/CLRD70 NOSIG"
"10:30 AM EEST on April 18, 2016","2016","04","18","10","30","Europe/Kiev","7:30 AM GMT on April 18, 2016","2016","04","18","07","30","UTC","19.0","66.2","9.0","48.2","52","3.6","2.2","-9999.0","-9999.0","0","Variable","-9999.0","-9999.0","1011","29.86","-999","-999","-9999","-9999","-9999.00","-9999.00","Clear","clear","0","0","0","0","0","0","METAR UKKK 180730Z VRB01MPS CAVOK 19/09 Q1011 R26/CLRD70 NOSIG"
"11:00 AM EEST on April 18, 2016","2016","04","18","11","00","Europe/Kiev","8:00 AM GMT on April 18, 2016","2016","04","18","08","00","UTC","20.0","68.0","9.0","48.2","49","3.6","2.2","-9999.0","-9999.0","0","Variable","-9999.0","-9999.0","1011","29.86","-999","-999","-9999","-9999","-9999.00","-9999.00","Clear","clear","0","0","0","0","0","0","METAR UKKK 180800Z VRB01MPS CAVOK 20/09 Q1011 R26/CLRD70 NOSIG"
"11:30 AM EEST on April 18, 2016","2016","04","18","11","30","Europe/Kiev","8:30 AM GMT on April 18, 2016","2016","04","18","08","30","UTC","21.0","69.8","10.0","50.0","49","3.6","2.2","-9999.0","-9999.0","0","Variable","-9999.0","-9999.0","1011","29.86","-999","-999","-9999","-9999","-9999.00","-9999.00","Clear","clear","0","0","0","0","0","0","METAR UKKK 180830Z VRB01MPS CAVOK 21/10 Q1011 R26/CLRD70 NOSIG"
"12:00 PM EEST on April 18, 2016","2016","04","18","12","00","Europe/Kiev","9:00 AM GMT on April 18, 2016","2016","04","18","09","00","UTC","20","69","9","47","35","7.2","4.5","","","10","North","20","12","1011","29.87","-999","-999","-9999","-9999","","","Scattered Clouds","partlycloudy","0","0","0","0","0","0","AAXX 18091 33345 42998 50102 10205 20086 39919 40113 51005 82032 555 10032"
"12:00 PM EEST on April 18, 2016","2016","04","18","12","00","Europe/Kiev","9:00 AM GMT on April 18, 2016","2016","04","18","09","00","UTC","20.0","68.0","9.0","48.2","49","7.2","4.5","-9999.0","-9999.0","250","WSW","-9999.0","-9999.0","1011","29.86","-999","-999","-9999","-9999","-9999.00","-9999.00","Clear","clear","0","0","0","0","0","0","METAR UKKK 180900Z 25002MPS CAVOK 20/09 Q1011 R26/CLRD70 NOSIG"
"12:30 PM EEST on April 18, 2016","2016","04","18","12","30","Europe/Kiev","9:30 AM GMT on April 18, 2016","2016","04","18","09","30","UTC","21.0","69.8","9.0","48.2","46","3.6","2.2","-9999.0","-9999.0","0","Variable","-9999.0","-9999.0","1011","29.86","-999","-999","-9999","-9999","-9999.00","-9999.00","Clear","clear","0","0","0","0","0","0","METAR UKKK 180930Z VRB01MPS CAVOK 21/09 Q1011 R26/CLRD70 NOSIG"
"1:00 PM EEST on April 18, 2016","2016","04","18","13","00","Europe/Kiev","10:00 AM GMT on April 18, 2016","2016","04","18","10","00","UTC","22.0","71.6","9.0","48.2","43","7.2","4.5","-9999.0","-9999.0","260","West","-9999.0","-9999.0","1011","29.86","-999","-999","-9999","-9999","-9999.00","-9999.00","Clear","clear","0","0","0","0","0","0","METAR UKKK 181000Z 26002MPS 190V340 CAVOK 22/09 Q1011 R26/CLRD70 NOSIG"
"1:30 PM EEST on April 18, 2016","2016","04","18","13","30","Europe/Kiev","10:30 AM GMT on April 18, 2016","2016","04","18","10","30","UTC","22.0","71.6","9.0","48.2","43","10.8","6.7","-9999.0","-9999.0","290","WNW","-9999.0","-9999.0","1011","29.86","-999","-999","-9999","-9999","-9999.00","-9999.00","Clear","clear","0","0","0","0","0","0","METAR UKKK 181030Z 29003MPS 250V040 CAVOK 22/09 Q1011 R26/CLRD70 NOSIG"
"2:00 PM EEST on April 18, 2016","2016","04","18","14","00","Europe/Kiev","11:00 AM GMT on April 18, 2016","2016","04","18","11","00","UTC","21.0","69.8","8.0","46.4","43","14.4","8.9","-9999.0","-9999.0","310","NW","-9999.0","-9999.0","1012","29.89","-999","-999","-9999","-9999","-9999.00","-9999.00","Clear","clear","0","0","0","0","0","0","METAR UKKK 181100Z 31004MPS 270V360 CAVOK 21/08 Q1012 R26/CLRD70 NOSIG"
"2:30 PM EEST on April 18, 2016","2016","04","18","14","30","Europe/Kiev","11:30 AM GMT on April 18, 2016","2016","04","18","11","30","UTC","20.0","68.0","10.0","50.0","52","21.6","13.4","-9999.0","-9999.0","340","NNW","-9999.0","-9999.0","1012","29.89","-999","-999","-9999","-9999","-9999.00","-9999.00","Clear","clear","0","0","0","0","0","0","METAR UKKK 181130Z 34006MPS 310V010 CAVOK 20/10 Q1012 R26/CLRD70 NOSIG"
"3:00 PM EEST on April 18, 2016","2016","04","18","15","00","Europe/Kiev","12:00 PM GMT on April 18, 2016","2016","04","18","12","00","UTC","20","68","10","50","41","18.0","11.2","","","0","North","20","12","1012","29.88","-999","-999","-9999","-9999","","","Scattered Clouds","partlycloudy","0","0","0","0","0","0","AAXX 18121 33345 32598 63605 10199 20099 39925 40119 53006 81240 555 10027"
"3:00 PM EEST on April 18, 2016","2016","04","18","15","00","Europe/Kiev","12:00 PM GMT on April 18, 2016","2016","04","18","12","00","UTC","20.0","68.0","11.0","51.8","56","21.6","13.4","-9999.0","-9999.0","340","NNW","-9999.0","-9999.0","1012","29.89","-999","-999","-9999","-9999","-9999.00","-9999.00","Clear","clear","0","0","0","0","0","0","METAR UKKK 181200Z 34006MPS CAVOK 20/11 Q1012 R26/CLRD70 NOSIG"
"3:30 PM EEST on April 18, 2016","2016","04","18","15","30","Europe/Kiev","12:30 PM GMT on April 18, 2016","2016","04","18","12","30","UTC","20.0","68.0","11.0","51.8","56","21.6","13.4","-9999.0","-9999.0","330","NNW","-9999.0","-9999.0","1012","29.89","-999","-999","-9999","-9999","-9999.00","-9999.00","Clear","clear","0","0","0","0","0","0","METAR UKKK 181230Z 33006MPS 300V360 CAVOK 20/11 Q1012 R26/CLRD70 NOSIG"
"4:00 PM EEST on April 18, 2016","2016","04","18","16","00","Europe/Kiev","1:00 PM GMT on April 18, 2016","2016","04","18","13","00","UTC","18.0","64.4","10.0","50.0","59","18.0","11.2","-9999.0","-9999.0","360","North","-9999.0","-9999.0","1012","29.89","-999","-999","-9999","-9999","-9999.00","-9999.00","Clear","clear","0","0","0","0","0","0","METAR UKKK 181300Z 36005MPS 330V030 CAVOK 18/10 Q1012 R26/CLRD70 NOSIG"
"4:30 PM EEST on April 18, 2016","2016","04","18","16","30","Europe/Kiev","1:30 PM GMT on April 18, 2016","2016","04","18","13","30","UTC","18.0","64.4","10.0","50.0","59","18.0","11.2","-9999.0","-9999.0","360","North","-9999.0","-9999.0","1012","29.89","-999","-999","-9999","-9999","-9999.00","-9999.00","Clear","clear","0","0","0","0","0","0","METAR UKKK 181330Z 36005MPS 340V040 CAVOK 18/10 Q1012 R26/CLRD70 NOSIG"
"5:00 PM EEST on April 18, 2016","2016","04","18","17","00","Europe/Kiev","2:00 PM GMT on April 18, 2016","2016","04","18","14","00","UTC","16.0","60.8","10.0","50.0","68","21.6","13.4","-9999.0","-9999.0","30","NNE","-9999.0","-9999.0","1013","29.92","-999","-999","-9999","-9999","-9999.00","-9999.00","Clear","clear","0","0","0","0","0","0","METAR UKKK 181400Z 03006MPS CAVOK 16/10 Q1013 R26/CLRD70 NOSIG"
"5:30 PM EEST on April 18, 2016","2016","04","18","17","30","Europe/Kiev","2:30 PM GMT on April 18, 2016","2016","04","18","14","30","UTC","15.0","59.0","9.0","48.2","67","21.6","13.4","-9999.0","-9999.0","20","NNE","-9999.0","-9999.0","1013","29.92","-999","-999","-9999","-9999","-9999.00","-9999.00","Clear","clear","0","0","0","0","0","0","METAR UKKK 181430Z 02006MPS CAVOK 15/09 Q1013 R08/CLRD70 NOSIG"
"6:00 PM EEST on April 18, 2016","2016","04","18","18","00","Europe/Kiev","3:00 PM GMT on April 18, 2016","2016","04","18","15","00","UTC","16","60","8","47","52","14.4","8.9","","","0","North","20","12","1013","29.92","-999","-999","-9999","-9999","","","Scattered Clouds","partlycloudy","0","0","0","0","0","0","AAXX 18151 33345 42998 23604 10158 20083 39933 40130 52008 82030 555 10020"
"6:00 PM EEST on April 18, 2016","2016","04","18","18","00","Europe/Kiev","3:00 PM GMT on April 18, 2016","2016","04","18","15","00","UTC","15.0","59.0","9.0","48.2","67","18.0","11.2","-9999.0","-9999.0","10","North","-9999.0","-9999.0","1013","29.92","-999","-999","-9999","-9999","-9999.00","-9999.00","Clear","clear","0","0","0","0","0","0","METAR UKKK 181500Z 01005MPS CAVOK 15/09 Q1013 R08/CLRD70 NOSIG"
"6:30 PM EEST on April 18, 2016","2016","04","18","18","30","Europe/Kiev","3:30 PM GMT on April 18, 2016","2016","04","18","15","30","UTC","15.0","59.0","9.0","48.2","67","18.0","11.2","-9999.0","-9999.0","20","NNE","-9999.0","-9999.0","1013","29.92","-999","-999","-9999","-9999","-9999.00","-9999.00","Clear","clear","0","0","0","0","0","0","METAR UKKK 181530Z 02005MPS CAVOK 15/09 Q1013 R08/CLRD70 NOSIG"
"7:00 PM EEST on April 18, 2016","2016","04","18","19","00","Europe/Kiev","4:00 PM GMT on April 18, 2016","2016","04","18","16","00","UTC","14.0","57.2","9.0","48.2","72","14.4","8.9","-9999.0","-9999.0","20","NNE","-9999.0","-9999.0","1013","29.92","-999","-999","-9999","-9999","-9999.00","-9999.00","Clear","clear","0","0","0","0","0","0","METAR UKKK 181600Z 02004MPS CAVOK 14/09 Q1013 R08/CLRD70 NOSIG"
"7:30 PM EEST on April 18, 2016","2016","04","18","19","30","Europe/Kiev","4:30 PM GMT on April 18, 2016","2016","04","18","16","30","UTC","14.0","57.2","8.0","46.4","67","18.0","11.2","-9999.0","-9999.0","360","North","-9999.0","-9999.0","1013","29.92","-999","-999","-9999","-9999","-9999.00","-9999.00","Clear","clear","0","0","0","0","0","0","METAR UKKK 181630Z 36005MPS CAVOK 14/08 Q1013 R08/CLRD70 NOSIG"
"8:00 PM EEST on April 18, 2016","2016","04","18","20","00","Europe/Kiev","5:00 PM GMT on April 18, 2016","2016","04","18","17","00","UTC","13.0","55.4","8.0","46.4","72","14.4","8.9","-9999.0","-9999.0","10","North","-9999.0","-9999.0","1013","29.92","-999","-999","-9999","-9999","-9999.00","-9999.00","Clear","clear","0","0","0","0","0","0","METAR UKKK 181700Z 01004MPS CAVOK 13/08 Q1013 R08/CLRD70 NOSIG"
"8:30 PM EEST on April 18, 2016","2016","04","18","20","30","Europe/Kiev","5:30 PM GMT on April 18, 2016","2016","04","18","17","30","UTC","13.0","55.4","8.0","46.4","72","14.4","8.9","-9999.0","-9999.0","10","North","-9999.0","-9999.0","1013","29.92","-999","-999","-9999","-9999","-9999.00","-9999.00","Clear","clear","0","0","0","0","0","0","METAR UKKK 181730Z 01004MPS CAVOK 13/08 Q1013 R08/CLRD70 NOSIG"
"9:00 PM EEST on April 18, 2016","2016","04","18","21","00","Europe/Kiev","6:00 PM GMT on April 18, 2016","2016","04","18","18","00","UTC","13","55","8","46","62","14.4","8.9","","","0","North","20","12","1014","29.95","-999","-999","-9999","-9999","","","Scattered Clouds","partlycloudy","0","0","0","0","0","0","AAXX 18181 33345 32998 13604 10130 20075 39940 40140 52007 81040 333 10224 555 10011"
"9:00 PM EEST on April 18, 2016","2016","04","18","21","00","Europe/Kiev","6:00 PM GMT on April 18, 2016","2016","04","18","18","00","UTC","12.0","53.6","8.0","46.4","77","18.0","11.2","-9999.0","-9999.0","10","North","-9999.0","-9999.0","1014","29.95","-999","-999","-9999","-9999","-9999.00","-9999.00","Clear","clear","0","0","0","0","0","0","METAR UKKK 181800Z 01005MPS CAVOK 12/08 Q1014 R08/CLRD70 NOSIG"
"9:30 PM EEST on April 18, 2016","2016","04","18","21","30","Europe/Kiev","6:30 PM GMT on April 18, 2016","2016","04","18","18","30","UTC","12.0","53.6","8.0","46.4","77","18.0","11.2","-9999.0","-9999.0","360","North","-9999.0","-9999.0","1014","29.95","-999","-999","-9999","-9999","-9999.00","-9999.00","Clear","clear","0","0","0","0","0","0","METAR UKKK 181830Z 36005MPS CAVOK 12/08 Q1014 R08/CLRD70 NOSIG"
"10:00 PM EEST on April 18, 2016","2016","04","18","22","00","Europe/Kiev","7:00 PM GMT on April 18, 2016","2016","04","18","19","00","UTC","12.0","53.6","8.0","46.4","77","14.4","8.9","-9999.0","-9999.0","350","North","-9999.0","-9999.0","1014","29.95","-999","-999","-9999","-9999","-9999.00","-9999.00","Clear","clear","0","0","0","0","0","0","METAR UKKK 181900Z 35004MPS CAVOK 12/08 Q1014 R08/CLRD70 NOSIG"
"10:30 PM EEST on April 18, 2016","2016","04","18","22","30","Europe/Kiev","7:30 PM GMT on April 18, 2016","2016","04","18","19","30","UTC","12.0","53.6","8.0","46.4","77","14.4","8.9","-9999.0","-9999.0","350","North","-9999.0","-9999.0","1014","29.95","-999","-999","-9999","-9999","-9999.00","-9999.00","Clear","clear","0","0","0","0","0","0","METAR UKKK 181930Z 35004MPS CAVOK 12/08 Q1014 R08/CLRD70 NOSIG"
"11:00 PM EEST on April 18, 2016","2016","04","18","23","00","Europe/Kiev","8:00 PM GMT on April 18, 2016","2016","04","18","20","00","UTC","11.0","51.8","8.0","46.4","82","14.4","8.9","-9999.0","-9999.0","350","North","-9999.0","-9999.0","1014","29.95","-999","-999","-9999","-9999","-9999.00","-9999.00","Clear","clear","0","0","0","0","0","0","METAR UKKK 182000Z 35004MPS CAVOK 11/08 Q1014 R08/CLRD70 NOSIG"
"11:30 PM EEST on April 18, 2016","2016","04","18","23","30","Europe/Kiev","8:30 PM GMT on April 18, 2016","2016","04","18","20","30","UTC","11.0","51.8","7.0","44.6","76","10.8","6.7","-9999.0","-9999.0","340","NNW","-9999.0","-9999.0","1015","29.98","-999","-999","-9999","-9999","-9999.00","-9999.00","Clear","clear","0","0","0","0","0","0","METAR UKKK 182030Z 34003MPS 310V010 CAVOK 11/07 Q1015 R08/CLRD70 NOSIG"
"12:00 AM EEST on April 19, 2016","2016","04","19","00","00","Europe/Kiev","9:00 PM GMT on April 18, 2016","2016","04","18","21","00","UTC","11","52","7","45","70","7.2","4.5","","","310","NW","20","12","1016","30.01","-999","-999","-9999","-9999","","","Mostly Cloudy","mostlycloudy","0","0","0","0","0","0","AAXX 18211 33345 42998 63102 10112 20073 39960 40161 52020 86070 555 10011"
"12:00 AM EEST on April 19, 2016","2016","04","19","00","00","Europe/Kiev","9:00 PM GMT on April 18, 2016","2016","04","18","21","00","UTC","11.0","51.8","8.0","46.4","82","14.4","8.9","-9999.0","-9999.0","310","NW","-9999.0","-9999.0","1015","29.98","-999","-999","-9999","-9999","-9999.00","-9999.00","Clear","clear","0","0","0","0","0","0","METAR UKKK 182100Z 31004MPS CAVOK 11/08 Q1015 R26/CLRD70 NOSIG"
"12:30 AM EEST on April 19, 2016","2016","04","19","00","30","Europe/Kiev","9:30 PM GMT on April 18, 2016","2016","04","18","21","30","UTC","11.0","51.8","7.0","44.6","76","7.2","4.5","-9999.0","-9999.0","350","North","10.0","6.2","1015","29.98","-999","-999","-9999","-9999","-9999.00","-9999.00","Mostly Cloudy","mostlycloudy","0","0","0","0","0","0","METAR UKKK 182130Z 35002MPS 310V040 9999 BKN049 11/07 Q1015 R08/CLRD70 NOSIG"
"1:00 AM EEST on April 19, 2016","2016","04","19","01","00","Europe/Kiev","10:00 PM GMT on April 18, 2016","2016","04","18","22","00","UTC","11.0","51.8","7.0","44.6","76","7.2","4.5","-9999.0","-9999.0","350","North","10.0","6.2","1015","29.98","-999","-999","-9999","-9999","-9999.00","-9999.00","Mostly Cloudy","mostlycloudy","0","0","0","0","0","0","METAR UKKK 182200Z 35002MPS 9999 BKN048 11/07 Q1015 R08/CLRD70 NOSIG"
"1:30 AM EEST on April 19, 2016","2016","04","19","01","30","Europe/Kiev","10:30 PM GMT on April 18, 2016","2016","04","18","22","30","UTC","11.0","51.8","8.0","46.4","82","7.2","4.5","-9999.0","-9999.0","340","NNW","10.0","6.2","1015","29.98","-999","-999","-9999","-9999","-9999.00","-9999.00","Mostly Cloudy","mostlycloudy","0","0","0","0","0","0","METAR UKKK 182230Z 34002MPS 9999 BKN047 11/08 Q1015 R08/CLRD70 NOSIG"
"2:00 AM EEST on April 19, 2016","2016","04","19","02","00","Europe/Kiev","11:00 PM GMT on April 18, 2016","2016","04","18","23","00","UTC","11.0","51.8","8.0","46.4","82","10.8","6.7","-9999.0","-9999.0","350","North","10.0","6.2","1015","29.98","-999","-999","-9999","-9999","-9999.00","-9999.00","Mostly Cloudy","mostlycloudy","0","0","0","0","0","0","METAR UKKK 182300Z 35003MPS 9999 BKN047 11/08 Q1015 R08/CLRD70 NOSIG"
"2:30 AM EEST on April 19, 2016","2016","04","19","02","30","Europe/Kiev","11:30 PM GMT on April 18, 2016","2016","04","18","23","30","UTC","11.0","51.8","8.0","46.4","82","10.8","6.7","-9999.0","-9999.0","330","NNW","10.0","6.2","1015","29.98","-999","-999","-9999","-9999","-9999.00","-9999.00","Overcast","cloudy","0","0","0","0","0","0","METAR UKKK 182330Z 33003MPS 300V360 9999 OVC040 11/08 Q1015 R08/CLRD70 NOSIG"
"3:00 AM EEST on April 19, 2016","2016","04","19","03","00","Europe/Kiev","12:00 AM GMT on April 19, 2016","2016","04","19","00","00","UTC","11","52","8","46","74","10.8","6.7","","","340","NNW","20","12","1015","29.98","-999","-999","-9999","-9999","","","Mostly Cloudy","mostlycloudy","0","0","0","0","0","0","AAXX 19001 33345 32698 73403 10109 20078 39951 40152 58009 87500 333 87633 555 10011"
"3:00 AM EEST on April 19, 2016","2016","04","19","03","00","Europe/Kiev","12:00 AM GMT on April 19, 2016","2016","04","19","00","00","UTC","10.0","50.0","8.0","46.4","87","10.8","6.7","-9999.0","-9999.0","340","NNW","10.0","6.2","1015","29.98","-999","-999","-9999","-9999","-9999.00","-9999.00","Light Rain Showers","rain","0","1","0","0","0","0","METAR UKKK 190000Z 34003MPS 9999 -SHRA SCT030CB BKN046 10/08 Q1015 R08/CLRD70 NOSIG"
"3:30 AM EEST on April 19, 2016","2016","04","19","03","30","Europe/Kiev","12:30 AM GMT on April 19, 2016","2016","04","19","00","30","UTC","10.0","50.0","8.0","46.4","87","10.8","6.7","-9999.0","-9999.0","350","North","10.0","6.2","1015","29.98","-999","-999","-9999","-9999","-9999.00","-9999.00","Light Rain Showers","rain","0","1","0","0","0","0","METAR UKKK 190030Z 35003MPS 9999 -SHRA SCT030CB BKN043 10/08 Q1015 R08/CLRD70 NOSIG"
"4:00 AM EEST on April 19, 2016","2016","04","19","04","00","Europe/Kiev","1:00 AM GMT on April 19, 2016","2016","04","19","01","00","UTC","10.0","50.0","8.0","46.4","87","10.8","6.7","-9999.0","-9999.0","330","NNW","10.0","6.2","1015","29.98","-999","-999","-9999","-9999","-9999.00","-9999.00","Mostly Cloudy","mostlycloudy","0","0","0","0","0","0","METAR UKKK 190100Z 33003MPS 9999 BKN042 10/08 Q1015 R08/CLRD70 NOSIG"
"4:30 AM EEST on April 19, 2016","2016","04","19","04","30","Europe/Kiev","1:30 AM GMT on April 19, 2016","2016","04","19","01","30","UTC","10.0","50.0","8.0","46.4","87","14.4","8.9","-9999.0","-9999.0","320","NW","10.0","6.2","1015","29.98","-999","-999","-9999","-9999","-9999.00","-9999.00","Mostly Cloudy","mostlycloudy","0","0","0","0","0","0","METAR UKKK 190130Z 32004MPS 9999 BKN042 10/08 Q1015 R08/CLRD70 NOSIG"
"5:00 AM EEST on April 19, 2016","2016","04","19","05","00","Europe/Kiev","2:00 AM GMT on April 19, 2016","2016","04","19","02","00","UTC","10.0","50.0","7.0","44.6","82","10.8","6.7","-9999.0","-9999.0","320","NW","10.0","6.2","1015","29.98","-999","-999","-9999","-9999","-9999.00","-9999.00","Mostly Cloudy","mostlycloudy","0","0","0","0","0","0","METAR UKKK 190200Z 32003MPS 9999 BKN044 10/07 Q1015 R08/CLRD70 NOSIG"
"5:30 AM EEST on April 19, 2016","2016","04","19","05","30","Europe/Kiev","2:30 AM GMT on April 19, 2016","2016","04","19","02","30","UTC","10.0","50.0","7.0","44.6","82","14.4","8.9","-9999.0","-9999.0","320","NW","10.0","6.2","1015","29.98","-999","-999","-9999","-9999","-9999.00","-9999.00","Mostly Cloudy","mostlycloudy","0","0","0","0","0","0","METAR UKKK 190230Z 32004MPS 9999 BKN030 10/07 Q1015 R08/CLRD70 NOSIG"
"6:00 AM EEST on April 19, 2016","2016","04","19","06","00","Europe/Kiev","3:00 AM GMT on April 19, 2016","2016","04","19","03","00","UTC","10","50","7","44","73","10.8","6.7","","","330","NNW","20","12","1016","29.99","-999","-999","-9999","-9999","","","Overcast","cloudy","0","0","0","0","0","0","AAXX 19031 33345 42598 83303 10098 20066 39954 40156 53003 885// 333 88623 555 10010"
"6:00 AM EEST on April 19, 2016","2016","04","19","06","00","Europe/Kiev","3:00 AM GMT on April 19, 2016","2016","04","19","03","00","UTC","10.0","50.0","6.0","42.8","76","18.0","11.2","-9999.0","-9999.0","320","NW","10.0","6.2","1015","29.98","-999","-999","-9999","-9999","-9999.00","-9999.00","Mostly Cloudy","mostlycloudy","0","0","0","0","0","0","METAR UKKK 190300Z 32005MPS 9999 BKN027 10/06 Q1015 R08/CLRD70 NOSIG"
"6:30 AM EEST on April 19, 2016","2016","04","19","06","30","Europe/Kiev","3:30 AM GMT on April 19, 2016","2016","04","19","03","30","UTC","10.0","50.0","6.0","42.8","76","14.4","8.9","-9999.0","-9999.0","330","NNW","10.0","6.2","1015","29.98","-999","-999","-9999","-9999","-9999.00","-9999.00","Mostly Cloudy","mostlycloudy","0","0","0","0","0","0","METAR UKKK 190330Z 33004MPS 9999 BKN040 10/06 Q1015 R08/CLRD70 NOSIG"
"7:00 AM EEST on April 19, 2016","2016","04","19","07","00","Europe/Kiev","4:00 AM GMT on April 19, 2016","2016","04","19","04","00","UTC","10.0","50.0","6.0","42.8","76","10.8","6.7","-9999.0","-9999.0","320","NW","10.0","6.2","1016","30.01","-999","-999","-9999","-9999","-9999.00","-9999.00","Overcast","cloudy","0","0","0","0","0","0","METAR UKKK 190400Z 32003MPS 9999 OVC044 10/06 Q1016 R08/CLRD70 NOSIG"
"7:30 AM EEST on April 19, 2016","2016","04","19","07","30","Europe/Kiev","4:30 AM GMT on April 19, 2016","2016","04","19","04","30","UTC","10.0","50.0","7.0","44.6","82","10.8","6.7","-9999.0","-9999.0","310","NW","10.0","6.2","1016","30.01","-999","-999","-9999","-9999","-9999.00","-9999.00","Overcast","cloudy","0","0","0","0","0","0","METAR UKKK 190430Z 31003MPS 9999 FEW015 OVC046 10/07 Q1016 R26/CLRD70 NOSIG"
"8:00 AM EEST on April 19, 2016","2016","04","19","08","00","Europe/Kiev","5:00 AM GMT on April 19, 2016","2016","04","19","05","00","UTC","10.0","50.0","6.0","42.8","76","10.8","6.7","-9999.0","-9999.0","290","WNW","-9999.0","-9999.0","1016","30.01","-999","-999","-9999","-9999","-9999.00","-9999.00","Clear","clear","0","0","0","0","0","0","METAR UKKK 190500Z 29003MPS 280V340 CAVOK 10/06 Q1016 R26/CLRD70 NOSIG"
"8:30 AM EEST on April 19, 2016","2016","04","19","08","30","Europe/Kiev","5:30 AM GMT on April 19, 2016","2016","04","19","05","30","UTC","10.0","50.0","6.0","42.8","76","10.8","6.7","-9999.0","-9999.0","290","WNW","10.0","6.2","1016","30.01","-999","-999","-9999","-9999","-9999.00","-9999.00","Mostly Cloudy","mostlycloudy","0","0","0","0","0","0","METAR UKKK 190530Z 29003MPS 9999 FEW018 BKN100 10/06 Q1016 R26/CLRD70 NOSIG"
"9:00 AM EEST on April 19, 2016","2016","04","19","09","00","Europe/Kiev","6:00 AM GMT on April 19, 2016","2016","04","19","06","00","UTC","11","52","5","41","56","10.8","6.7","","","300","WNW","20","12","1016","30.01","-999","-999","-9999","-9999","","","Partly Cloudy","partlycloudy","0","0","0","0","0","0","AAXX 19061 33345 32998 33003 10110 20049 39960 40162 52006 83030 333 20098 555 10017"
"9:00 AM EEST on April 19, 2016","2016","04","19","09","00","Europe/Kiev","6:00 AM GMT on April 19, 2016","2016","04","19","06","00","UTC","11.0","51.8","6.0","42.8","71","14.4","8.9","-9999.0","-9999.0","310","NW","10.0","6.2","1016","30.01","-999","-999","-9999","-9999","-9999.00","-9999.00","Scattered Clouds","partlycloudy","0","0","0","0","0","0","METAR UKKK 190600Z 31004MPS 9999 SCT018 11/06 Q1016 R26/CLRD70 NOSIG"
"9:30 AM EEST on April 19, 2016","2016","04","19","09","30","Europe/Kiev","6:30 AM GMT on April 19, 2016","2016","04","19","06","30","UTC","11.0","51.8","7.0","44.6","76","14.4","8.9","-9999.0","-9999.0","290","WNW","10.0","6.2","1016","30.01","-999","-999","-9999","-9999","-9999.00","-9999.00","Scattered Clouds","partlycloudy","0","0","0","0","0","0","METAR UKKK 190630Z 29004MPS 9999 SCT024 11/07 Q1016 R26/CLRD70 NOSIG"
"10:00 AM EEST on April 19, 2016","2016","04","19","10","00","Europe/Kiev","7:00 AM GMT on April 19, 2016","2016","04","19","07","00","UTC","12.0","53.6","5.0","41.0","62","10.8","6.7","-9999.0","-9999.0","290","WNW","10.0","6.2","1016","30.01","-999","-999","-9999","-9999","-9999.00","-9999.00","Scattered Clouds","partlycloudy","0","0","0","0","0","0","METAR UKKK 190700Z 29003MPS 250V320 9999 SCT032 12/05 Q1016 R26/CLRD70 NOSIG"
"10:30 AM EEST on April 19, 2016","2016","04","19","10","30","Europe/Kiev","7:30 AM GMT on April 19, 2016","2016","04","19","07","30","UTC","13.0","55.4","4.0","39.2","54","18.0","11.2","-9999.0","-9999.0","300","WNW","10.0","6.2","1016","30.01","-999","-999","-9999","-9999","-9999.00","-9999.00","Mostly Cloudy","mostlycloudy","0","0","0","0","0","0","METAR UKKK 190730Z 30005MPS 9999 BKN032 13/04 Q1016 R26/CLRD70 NOSIG"
"11:00 AM EEST on April 19, 2016","2016","04","19","11","00","Europe/Kiev","8:00 AM GMT on April 19, 2016","2016","04","19","08","00","UTC","13.0","55.4","5.0","41.0","58","18.0","11.2","-9999.0","-9999.0","290","WNW","9.0","5.6","1015","29.98","-999","-999","-9999","-9999","-9999.00","-9999.00","Mostly Cloudy","mostlycloudy","0","0","0","0","0","0","METAR UKKK 190800Z 29005MPS 260V330 9000 BKN036 13/05 Q1015 R26/CLRD70 NOSIG"
"11:30 AM EEST on April 19, 2016","2016","04","19","11","30","Europe/Kiev","8:30 AM GMT on April 19, 2016","2016","04","19","08","30","UTC","13.0","55.4","3.0","37.4","51","21.6","13.4","-9999.0","-9999.0","300","WNW","10.0","6.2","1016","30.01","-999","-999","-9999","-9999","-9999.00","-9999.00","Mostly Cloudy","mostlycloudy","0","0","0","0","0","0","METAR UKKK 190830Z 30006MPS 9999 BKN043 13/03 Q1016 R26/CLRD70 NOSIG"
"12:00 PM EEST on April 19, 2016","2016","04","19","12","00","Europe/Kiev","9:00 AM GMT on April 19, 2016","2016","04","19","09","00","UTC","14","58","3","38","35","10.8","6.7","","","300","WNW","20","12","1015","29.99","-999","-999","-9999","-9999","","","Mostly Cloudy","mostlycloudy","0","0","0","0","0","0","AAXX 19091 33345 42698 63003 10142 20031 39955 40154 58005 86500 555 10028"
"12:00 PM EEST on April 19, 2016","2016","04","19","12","00","Europe/Kiev","9:00 AM GMT on April 19, 2016","2016","04","19","09","00","UTC","14.0","57.2","4.0","39.2","51","21.6","13.4","-9999.0","-9999.0","290","WNW","-9999.0","-9999.0","1015","29.98","-999","-999","-9999","-9999","-9999.00","-9999.00","Clear","clear","0","0","0","0","0","0","METAR UKKK 190900Z 29006MPS CAVOK 14/04 Q1015 R26/CLRD70 NOSIG"
"12:30 PM EEST on April 19, 2016","2016","04","19","12","30","Europe/Kiev","9:30 AM GMT on April 19, 2016","2016","04","19","09","30","UTC","14.0","57.2","4.0","39.2","51","21.6","13.4","-9999.0","-9999.0","320","NW","-9999.0","-9999.0","1015","29.98","-999","-999","-9999","-9999","-9999.00","-9999.00","Clear","clear","0","0","0","0","0","0","METAR UKKK 190930Z 32006MPS 290V360 CAVOK 14/04 Q1015 R26/CLRD70 NOSIG"
"1:00 PM EEST on April 19, 2016","2016","04","19","13","00","Europe/Kiev","10:00 AM GMT on April 19, 2016","2016","04","19","10","00","UTC","14.0","57.2","2.0","35.6","44","18.0","11.2","-9999.0","-9999.0","310","NW","-9999.0","-9999.0","1015","29.98","-999","-999","-9999","-9999","-9999.00","-9999.00","Clear","clear","0","0","0","0","0","0","METAR UKKK 191000Z 31005MPS 290V350 CAVOK 14/02 Q1015 R26/CLRD70 NOSIG"
"1:30 PM EEST on April 19, 2016","2016","04","19","13","30","Europe/Kiev","10:30 AM GMT on April 19, 2016","2016","04","19","10","30","UTC","14.0","57.2","3.0","37.4","48","18.0","11.2","-9999.0","-9999.0","310","NW","-9999.0","-9999.0","1015","29.98","-999","-999","-9999","-9999","-9999.00","-9999.00","Clear","clear","0","0","0","0","0","0","METAR UKKK 191030Z 31005MPS CAVOK 14/03 Q1015 R26/CLRD70 NOSIG"
"2:00 PM EEST on April 19, 2016","2016","04","19","14","00","Europe/Kiev","11:00 AM GMT on April 19, 2016","2016","04","19","11","00","UTC","14.0","57.2","1.0","33.8","41","18.0","11.2","-9999.0","-9999.0","310","NW","-9999.0","-9999.0","1015","29.98","-999","-999","-9999","-9999","-9999.00","-9999.00","Clear","clear","0","0","0","0","0","0","METAR UKKK 191100Z 31005MPS 250V360 CAVOK 14/01 Q1015 R26/CLRD70 NOSIG"
"2:30 PM EEST on April 19, 2016","2016","04","19","14","30","Europe/Kiev","11:30 AM GMT on April 19, 2016","2016","04","19","11","30","UTC","15.0","59.0","2.0","35.6","42","18.0","11.2","-9999.0","-9999.0","310","NW","-9999.0","-9999.0","1015","29.98","-999","-999","-9999","-9999","-9999.00","-9999.00","Clear","clear","0","0","0","0","0","0","METAR UKKK 191130Z 31005MPS 270V350 CAVOK 15/02 Q1015 R26/CLRD70 NOSIG"
"3:00 PM EEST on April 19, 2016","2016","04","19","15","00","Europe/Kiev","12:00 PM GMT on April 19, 2016","2016","04","19","12","00","UTC","15","60","1","34","25","10.8","6.7","","","310","NW","20","12","1014","29.96","-999","-999","-9999","-9999","","","Partly Cloudy","partlycloudy","0","0","0","0","0","0","AAXX 19121 33345 32698 53103 10154 20009 39946 40144 57009 83501 555 10029"
"3:00 PM EEST on April 19, 2016","2016","04","19","15","00","Europe/Kiev","12:00 PM GMT on April 19, 2016","2016","04","19","12","00","UTC","15.0","59.0","2.0","35.6","42","21.6","13.4","-9999.0","-9999.0","290","WNW","-9999.0","-9999.0","1014","29.95","-999","-999","-9999","-9999","-9999.00","-9999.00","Clear","clear","0","0","0","0","0","0","METAR UKKK 191200Z 29006MPS CAVOK 15/02 Q1014 R26/CLRD70 NOSIG"
"3:30 PM EEST on April 19, 2016","2016","04","19","15","30","Europe/Kiev","12:30 PM GMT on April 19, 2016","2016","04","19","12","30","UTC","15.0","59.0","1.0","33.8","39","21.6","13.4","-9999.0","-9999.0","290","WNW","-9999.0","-9999.0","1014","29.95","-999","-999","-9999","-9999","-9999.00","-9999.00","Clear","clear","0","0","0","0","0","0","METAR UKKK 191230Z 29006MPS 270V330 CAVOK 15/01 Q1014 R26/CLRD70 NOSIG"
"4:00 PM EEST on April 19, 2016","2016","04","19","16","00","Europe/Kiev","1:00 PM GMT on April 19, 2016","2016","04","19","13","00","UTC","15.0","59.0","1.0","33.8","39","21.6","13.4","-9999.0","-9999.0","300","WNW","-9999.0","-9999.0","1014","29.95","-999","-999","-9999","-9999","-9999.00","-9999.00","Clear","clear","0","0","0","0","0","0","METAR UKKK 191300Z 30006MPS CAVOK 15/01 Q1014 R26/CLRD70 NOSIG"
"4:30 PM EEST on April 19, 2016","2016","04","19","16","30","Europe/Kiev","1:30 PM GMT on April 19, 2016","2016","04","19","13","30","UTC","15.0","59.0","1.0","33.8","39","18.0","11.2","-9999.0","-9999.0","330","NNW","-9999.0","-9999.0","1014","29.95","-999","-999","-9999","-9999","-9999.00","-9999.00","Clear","clear","0","0","0","0","0","0","METAR UKKK 191330Z 33005MPS 300V010 CAVOK 15/01 Q1014 R26/CLRD70 NOSIG"
"5:00 PM EEST on April 19, 2016","2016","04","19","17","00","Europe/Kiev","2:00 PM GMT on April 19, 2016","2016","04","19","14","00","UTC","15.0","59.0","1.0","33.8","39","18.0","11.2","-9999.0","-9999.0","330","NNW","-9999.0","-9999.0","1014","29.95","-999","-999","-9999","-9999","-9999.00","-9999.00","Clear","clear","0","0","0","0","0","0","METAR UKKK 191400Z 33005MPS 280V040 CAVOK 15/01 Q1014 R26/CLRD70 NOSIG"
"5:30 PM EEST on April 19, 2016","2016","04","19","17","30","Europe/Kiev","2:30 PM GMT on April 19, 2016","2016","04","19","14","30","UTC","14.0","57.2","1.0","33.8","41","18.0","11.2","-9999.0","-9999.0","320","NW","-9999.0","-9999.0","1014","29.95","-999","-999","-9999","-9999","-9999.00","-9999.00","Clear","clear","0","0","0","0","0","0","METAR UKKK 191430Z 32005MPS 290V360 CAVOK 14/01 Q1014 R26/CLRD70 NOSIG"
"6:00 PM EEST on April 19, 2016","2016","04","19","18","00","Europe/Kiev","3:00 PM GMT on April 19, 2016","2016","04","19","15","00","UTC","15","59","-0","31","23","14.4","8.9","","","300","WNW","20","12","1014","29.96","-999","-999","-9999","-9999","","","Partly Cloudy","partlycloudy","0","0","0","0","0","0","AAXX 19151 33345 42698 43004 10149 21003 39945 40144 57001 84500 555 10021"
"6:00 PM EEST on April 19, 2016","2016","04","19","18","00","Europe/Kiev","3:00 PM GMT on April 19, 2016","2016","04","19","15","00","UTC","14.0","57.2","0.0","32.0","38","14.4","8.9","-9999.0","-9999.0","300","WNW","-9999.0","-9999.0","1014","29.95","-999","-999","-9999","-9999","-9999.00","-9999.00","Clear","clear","0","0","0","0","0","0","METAR UKKK 191500Z 30004MPS 270V340 CAVOK 14/00 Q1014 R26/CLRD70 NOSIG"
"6:30 PM EEST on April 19, 2016","2016","04","19","18","30","Europe/Kiev","3:30 PM GMT on April 19, 2016","2016","04","19","15","30","UTC","14.0","57.2","0.0","32.0","38","14.4","8.9","-9999.0","-9999.0","330","NNW","-9999.0","-9999.0","1014","29.95","-999","-999","-9999","-9999","-9999.00","-9999.00","Clear","clear","0","0","0","0","0","0","METAR UKKK 191530Z 33004MPS 290V350 CAVOK 14/00 Q1014 R26/CLRD70 NOSIG"
"7:00 PM EEST on April 19, 2016","2016","04","19","19","00","Europe/Kiev","4:00 PM GMT on April 19, 2016","2016","04","19","16","00","UTC","13.0","55.4","0.0","32.0","41","18.0","11.2","-9999.0","-9999.0","320","NW","-9999.0","-9999.0","1014","29.95","-999","-999","-9999","-9999","-9999.00","-9999.00","Clear","clear","0","0","0","0","0","0","METAR UKKK 191600Z 32005MPS CAVOK 13/00 Q1014 R26/CLRD70 NOSIG"
"7:30 PM EEST on April 19, 2016","2016","04","19","19","30","Europe/Kiev","4:30 PM GMT on April 19, 2016","2016","04","19","16","30","UTC","13.0","55.4","-1.0","30.2","38","14.4","8.9","-9999.0","-9999.0","330","NNW","-9999.0","-9999.0","1014","29.95","-999","-999","-9999","-9999","-9999.00","-9999.00","Clear","clear","0","0","0","0","0","0","METAR UKKK 191630Z 33004MPS 300V360 CAVOK 13/M01 Q1014 R26/CLRD70 NOSIG"
"8:00 PM EEST on April 19, 2016","2016","04","19","20","00","Europe/Kiev","5:00 PM GMT on April 19, 2016","2016","04","19","17","00","UTC","13.0","55.4","-1.0","30.2","38","14.4","8.9","-9999.0","-9999.0","330","NNW","-9999.0","-9999.0","1014","29.95","-999","-999","-9999","-9999","-9999.00","-9999.00","Clear","clear","0","0","0","0","0","0","METAR UKKK 191700Z 33004MPS 300V360 CAVOK 13/M01 Q1014 R26/CLRD70 NOSIG"
"8:30 PM EEST on April 19, 2016","2016","04","19","20","30","Europe/Kiev","5:30 PM GMT on April 19, 2016","2016","04","19","17","30","UTC","12.0","53.6","-1.0","30.2","41","14.4","8.9","-9999.0","-9999.0","330","NNW","-9999.0","-9999.0","1015","29.98","-999","-999","-9999","-9999","-9999.00","-9999.00","Clear","clear","0","0","0","0","0","0","METAR UKKK 191730Z 33004MPS CAVOK 12/M01 Q1015 R26/CLRD70 NOSIG"
"9:00 PM EEST on April 19, 2016","2016","04","19","21","00","Europe/Kiev","6:00 PM GMT on April 19, 2016","2016","04","19","18","00","UTC","12","54","-0","31","29","7.2","4.5","","","330","NNW","20","12","1015","29.98","-999","-999","-9999","-9999","","","Mostly Cloudy","mostlycloudy","0","0","0","0","0","0","AAXX 19181 33345 32598 63302 10122 21005 39950 40151 53005 86500 333 10159 555 10011"
"9:00 PM EEST on April 19, 2016","2016","04","19","21","00","Europe/Kiev","6:00 PM GMT on April 19, 2016","2016","04","19","18","00","UTC","11.0","51.8","-1.0","30.2","44","7.2","4.5","-9999.0","-9999.0","330","NNW","-9999.0","-9999.0","1015","29.98","-999","-999","-9999","-9999","-9999.00","-9999.00","Clear","clear","0","0","0","0","0","0","METAR UKKK 191800Z 33002MPS CAVOK 11/M01 Q1015 R26/CLRD70 NOSIG"
"9:30 PM EEST on April 19, 2016","2016","04","19","21","30","Europe/Kiev","6:30 PM GMT on April 19, 2016","2016","04","19","18","30","UTC","11.0","51.8","-1.0","30.2","44","10.8","6.7","-9999.0","-9999.0","350","North","-9999.0","-9999.0","1015","29.98","-999","-999","-9999","-9999","-9999.00","-9999.00","Clear","clear","0","0","0","0","0","0","METAR UKKK 191830Z 35003MPS 320V020 CAVOK 11/M01 Q1015 R26/CLRD70 NOSIG"
"10:00 PM EEST on April 19, 2016","2016","04","19","22","00","Europe/Kiev","7:00 PM GMT on April 19, 2016","2016","04","19","19","00","UTC","11.0","51.8","-1.0","30.2","44","10.8","6.7","-9999.0","-9999.0","340","NNW","-9999.0","-9999.0","1015","29.98","-999","-999","-9999","-9999","-9999.00","-9999.00","Clear","clear","0","0","0","0","0","0","METAR UKKK 191900Z 34003MPS 320V020 CAVOK 11/M01 Q1015 R26/CLRD70 NOSIG"
"10:30 PM EEST on April 19, 2016","2016","04","19","22","30","Europe/Kiev","7:30 PM GMT on April 19, 2016","2016","04","19","19","30","UTC","11.0","51.8","-1.0","30.2","44","7.2","4.5","-9999.0","-9999.0","340","NNW","-9999.0","-9999.0","1015","29.98","-999","-999","-9999","-9999","-9999.00","-9999.00","Clear","clear","0","0","0","0","0","0","METAR UKKK 191930Z 34002MPS CAVOK 11/M01 Q1015 R26/CLRD70 NOSIG"
"11:00 PM EEST on April 19, 2016","2016","04","19","23","00","Europe/Kiev","8:00 PM GMT on April 19, 2016","2016","04","19","20","00","UTC","11.0","51.8","-1.0","30.2","44","10.8","6.7","-9999.0","-9999.0","340","NNW","-9999.0","-9999.0","1015","29.98","-999","-999","-9999","-9999","-9999.00","-9999.00","Clear","clear","0","0","0","0","0","0","METAR UKKK 192000Z 34003MPS CAVOK 11/M01 Q1015 R26/CLRD70 NOSIG"
"11:30 PM EEST on April 19, 2016","2016","04","19","23","30","Europe/Kiev","8:30 PM GMT on April 19, 2016","2016","04","19","20","30","UTC","11.0","51.8","-1.0","30.2","44","10.8","6.7","-9999.0","-9999.0","330","NNW","-9999.0","-9999.0","1015","29.98","-999","-999","-9999","-9999","-9999.00","-9999.00","Clear","clear","0","0","0","0","0","0","METAR UKKK 192030Z 33003MPS CAVOK 11/M01 Q1015 R26/CLRD70 NOSIG"
"12:00 AM EEST on April 20, 2016","2016","04","20","00","00","Europe/Kiev","9:00 PM GMT on April 19, 2016","2016","04","19","21","00","UTC","11","51","-1","29","31","10.8","6.7","","","330","NNW","20","12","1016","30.00","-999","-999","-9999","-9999","","","Mostly Cloudy","mostlycloudy","0","0","0","0","0","0","AAXX 19211 33345 42498 73303 10108 21014 39955 40157 52005 87500 333 87619 555 10009"
"12:00 AM EEST on April 20, 2016","2016","04","20","00","00","Europe/Kiev","9:00 PM GMT on April 19, 2016","2016","04","19","21","00","UTC","11.0","51.8","-1.0","30.2","44","10.8","6.7","-9999.0","-9999.0","330","NNW","-9999.0","-9999.0","1015","29.98","-999","-999","-9999","-9999","-9999.00","-9999.00","Clear","clear","0","0","0","0","0","0","METAR UKKK 192100Z 33003MPS CAVOK 11/M01 Q1015 R26/CLRD70 NOSIG"
"12:30 AM EEST on April 20, 2016","2016","04","20","00","30","Europe/Kiev","9:30 PM GMT on April 19, 2016","2016","04","19","21","30","UTC","10.0","50.0","0.0","32.0","50","7.2","4.5","-9999.0","-9999.0","310","NW","-9999.0","-9999.0","1015","29.98","-999","-999","-9999","-9999","-9999.00","-9999.00","Clear","clear","0","0","0","0","0","0","METAR UKKK 192130Z 31002MPS CAVOK 10/M00 Q1015 R26/CLRD70 NOSIG"
"1:00 AM EEST on April 20, 2016","2016","04","20","01","00","Europe/Kiev","10:00 PM GMT on April 19, 2016","2016","04","19","22","00","UTC","9.0","48.2","1.0","33.8","58","3.6","2.2","-9999.0","-9999.0","0","Variable","-9999.0","-9999.0","1015","29.98","-999","-999","-9999","-9999","-9999.00","-9999.00","Clear","clear","0","0","0","0","0","0","METAR UKKK 192200Z VRB01MPS CAVOK 09/01 Q1015 R26/CLRD70 NOSIG"
"1:30 AM EEST on April 20, 2016","2016","04","20","01","30","Europe/Kiev","10:30 PM GMT on April 19, 2016","2016","04","19","22","30","UTC","9.0","48.2","2.0","35.6","62","7.2","4.5","-9999.0","-9999.0","240","WSW","-9999.0","-9999.0","1015","29.98","-999","-999","-9999","-9999","-9999.00","-9999.00","Clear","clear","0","0","0","0","0","0","METAR UKKK 192230Z 24002MPS CAVOK 09/02 Q1015 R26/CLRD70 NOSIG"
"2:00 AM EEST on April 20, 2016","2016","04","20","02","00","Europe/Kiev","11:00 PM GMT on April 19, 2016","2016","04","19","23","00","UTC","9.0","48.2","2.0","35.6","62","7.2","4.5","-9999.0","-9999.0","240","WSW","-9999.0","-9999.0","1015","29.98","-999","-999","-9999","-9999","-9999.00","-9999.00","Clear","clear","0","0","0","0","0","0","METAR UKKK 192300Z 24002MPS CAVOK 09/02 Q1015 R26/CLRD70 NOSIG"
"2:30 AM EEST on April 20, 2016","2016","04","20","02","30","Europe/Kiev","11:30 PM GMT on April 19, 2016","2016","04","19","23","30","UTC","9.0","48.2","2.0","35.6","62","7.2","4.5","-9999.0","-9999.0","240","WSW","-9999.0","-9999.0","1014","29.95","-999","-999","-9999","-9999","-9999.00","-9999.00","Clear","clear","0","0","0","0","0","0","METAR UKKK 192330Z 24002MPS CAVOK 09/02 Q1014 R26/CLRD70 NOSIG"
"3:00 AM EEST on April 20, 2016","2016","04","20","03","00","Europe/Kiev","12:00 AM GMT on April 20, 2016","2016","04","20","00","00","UTC","10","49","0","32","40","3.6","2.2","","","300","WNW","20","12","1015","29.98","-999","-999","-9999","-9999","","","Overcast","cloudy","0","0","0","0","0","0","AAXX 20001 33345 32498 83001 10097 20000 39948 40150 58007 885// 333 88619 555 10009"
"3:00 AM EEST on April 20, 2016","2016","04","20","03","00","Europe/Kiev","12:00 AM GMT on April 20, 2016","2016","04","20","00","00","UTC","9.0","48.2","2.0","35.6","62","7.2","4.5","-9999.0","-9999.0","250","WSW","-9999.0","-9999.0","1014","29.95","-999","-999","-9999","-9999","-9999.00","-9999.00","Clear","clear","0","0","0","0","0","0","METAR UKKK 200000Z 25002MPS CAVOK 09/02 Q1014 R26/CLRD70 NOSIG"
"3:30 AM EEST on April 20, 2016","2016","04","20","03","30","Europe/Kiev","12:30 AM GMT on April 20, 2016","2016","04","20","00","30","UTC","8.0","46.4","2.0","35.6","66","7.2","4.5","-9999.0","-9999.0","260","West","-9999.0","-9999.0","1014","29.95","6.9","44.4","-9999","-9999","-9999.00","-9999.00","Clear","clear","0","0","0","0","0","0","METAR UKKK 200030Z 26002MPS CAVOK 08/02 Q1014 R26/CLRD70 NOSIG"
"4:00 AM EEST on April 20, 2016","2016","04","20","04","00","Europe/Kiev","1:00 AM GMT on April 20, 2016","2016","04","20","01","00","UTC","8.0","46.4","2.0","35.6","66","7.2","4.5","-9999.0","-9999.0","230","SW","8.0","5.0","1014","29.95","6.9","44.4","-9999","-9999","-9999.00","-9999.00","Unknown","unknown","0","0","0","0","0","0","METAR UKKK 200100Z 23002MPS 8000 NSC 08/02 Q1014 R26/CLRD70 NOSIG"
"4:30 AM EEST on April 20, 2016","2016","04","20","04","30","Europe/Kiev","1:30 AM GMT on April 20, 2016","2016","04","20","01","30","UTC","8.0","46.4","3.0","37.4","71","7.2","4.5","-9999.0","-9999.0","240","WSW","-9999.0","-9999.0","1014","29.95","6.9","44.4","-9999","-9999","-9999.00","-9999.00","Clear","clear","0","0","0","0","0","0","METAR UKKK 200130Z 24002MPS CAVOK 08/03 Q1014 R26/CLRD70 NOSIG"
"5:00 AM EEST on April 20, 2016","2016","04","20","05","00","Europe/Kiev","2:00 AM GMT on April 20, 2016","2016","04","20","02","00","UTC","8.0","46.4","3.0","37.4","71","7.2","4.5","-9999.0","-9999.0","250","WSW","-9999.0","-9999.0","1014","29.95","6.9","44.4","-9999","-9999","-9999.00","-9999.00","Clear","clear","0","0","0","0","0","0","METAR UKKK 200200Z 25002MPS CAVOK 08/03 Q1014 R26/CLRD70 NOSIG"
"5:30 AM EEST on April 20, 2016","2016","04","20","05","30","Europe/Kiev","2:30 AM GMT on April 20, 2016","2016","04","20","02","30","UTC","8.0","46.4","3.0","37.4","71","7.2","4.5","-9999.0","-9999.0","250","WSW","-9999.0","-9999.0","1014","29.95","6.9","44.4","-9999","-9999","-9999.00","-9999.00","Clear","clear","0","0","0","0","0","0","METAR UKKK 200230Z 25002MPS CAVOK 08/03 Q1014 R26/CLRD70 NOSIG"
"6:00 AM EEST on April 20, 2016","2016","04","20","06","00","Europe/Kiev","3:00 AM GMT on April 20, 2016","2016","04","20","03","00","UTC","8","47","1","34","50","7.2","4.5","","","290","WNW","20","12","1015","29.97","-999","-999","-9999","-9999","","","Mostly Cloudy","mostlycloudy","0","0","0","0","0","0","AAXX 20031 33345 42498 72902 10085 20012 39944 40147 57004 87500 333 87619 555 10007"
"6:00 AM EEST on April 20, 2016","2016","04","20","06","00","Europe/Kiev","3:00 AM GMT on April 20, 2016","2016","04","20","03","00","UTC","8.0","46.4","2.0","35.6","66","7.2","4.5","-9999.0","-9999.0","270","West","-9999.0","-9999.0","1014","29.95","6.9","44.4","-9999","-9999","-9999.00","-9999.00","Clear","clear","0","0","0","0","0","0","METAR UKKK 200300Z 27002MPS CAVOK 08/02 Q1014 R26/CLRD70 NOSIG"
"6:30 AM EEST on April 20, 2016","2016","04","20","06","30","Europe/Kiev","3:30 AM GMT on April 20, 2016","2016","04","20","03","30","UTC","8.0","46.4","3.0","37.4","71","10.8","6.7","-9999.0","-9999.0","270","West","-9999.0","-9999.0","1014","29.95","6.1","43.0","-9999","-9999","-9999.00","-9999.00","Clear","clear","0","0","0","0","0","0","METAR UKKK 200330Z 27003MPS CAVOK 08/03 Q1014 R26/CLRD70 NOSIG"
"7:00 AM EEST on April 20, 2016","2016","04","20","07","00","Europe/Kiev","4:00 AM GMT on April 20, 2016","2016","04","20","04","00","UTC","8.0","46.4","3.0","37.4","71","10.8","6.7","-9999.0","-9999.0","280","West","-9999.0","-9999.0","1014","29.95","6.1","43.0","-9999","-9999","-9999.00","-9999.00","Clear","clear","0","0","0","0","0","0","METAR UKKK 200400Z 28003MPS CAVOK 08/03 Q1014 R26/CLRD70 NOSIG"
"7:30 AM EEST on April 20, 2016","2016","04","20","07","30","Europe/Kiev","4:30 AM GMT on April 20, 2016","2016","04","20","04","30","UTC","8.0","46.4","3.0","37.4","71","10.8","6.7","-9999.0","-9999.0","290","WNW","-9999.0","-9999.0","1014","29.95","6.1","43.0","-9999","-9999","-9999.00","-9999.00","Clear","clear","0","0","0","0","0","0","METAR UKKK 200430Z 29003MPS CAVOK 08/03 Q1014 R26/CLRD70 NOSIG"
"8:00 AM EEST on April 20, 2016","2016","04","20","08","00","Europe/Kiev","5:00 AM GMT on April 20, 2016","2016","04","20","05","00","UTC","9.0","48.2","2.0","35.6","62","14.4","8.9","-9999.0","-9999.0","300","WNW","-9999.0","-9999.0","1014","29.95","-999","-999","-9999","-9999","-9999.00","-9999.00","Clear","clear","0","0","0","0","0","0","METAR UKKK 200500Z 30004MPS CAVOK 09/02 Q1014 R26/CLRD70 NOSIG"
"8:30 AM EEST on April 20, 2016","2016","04","20","08","30","Europe/Kiev","5:30 AM GMT on April 20, 2016","2016","04","20","05","30","UTC","9.0","48.2","2.0","35.6","62","14.4","8.9","-9999.0","-9999.0","300","WNW","-9999.0","-9999.0","1014","29.95","-999","-999","-9999","-9999","-9999.00","-9999.00","Clear","clear","0","0","0","0","0","0","METAR UKKK 200530Z 30004MPS CAVOK 09/02 Q1014 R26/CLRD70 NOSIG"
"9:00 AM EEST on April 20, 2016","2016","04","20","09","00","Europe/Kiev","6:00 AM GMT on April 20, 2016","2016","04","20","06","00","UTC","10","50","2","36","46","10.8","6.7","","","340","NNW","20","12","1015","29.96","-999","-999","-9999","-9999","","","Clear","clear","0","0","0","0","0","0","AAXX 20061 33345 32998 63403 10100 20020 39944 40146 54000 80001 333 20084 555 10014"
"9:00 AM EEST on April 20, 2016","2016","04","20","09","00","Europe/Kiev","6:00 AM GMT on April 20, 2016","2016","04","20","06","00","UTC","10.0","50.0","2.0","35.6","58","14.4","8.9","-9999.0","-9999.0","300","WNW","-9999.0","-9999.0","1014","29.95","-999","-999","-9999","-9999","-9999.00","-9999.00","Clear","clear","0","0","0","0","0","0","METAR UKKK 200600Z 30004MPS 270V340 CAVOK 10/02 Q1014 R26/CLRD70 NOSIG"
"9:30 AM EEST on April 20, 2016","2016","04","20","09","30","Europe/Kiev","6:30 AM GMT on April 20, 2016","2016","04","20","06","30","UTC","10.0","50.0","2.0","35.6","58","10.8","6.7","-9999.0","-9999.0","280","West","-9999.0","-9999.0","1014","29.95","-999","-999","-9999","-9999","-9999.00","-9999.00","Clear","clear","0","0","0","0","0","0","METAR UKKK 200630Z 28003MPS 250V310 CAVOK 10/02 Q1014 R26/CLRD70 NOSIG"
"10:00 AM EEST on April 20, 2016","2016","04","20","10","00","Europe/Kiev","7:00 AM GMT on April 20, 2016","2016","04","20","07","00","UTC","11.0","51.8","3.0","37.4","58","14.4","8.9","-9999.0","-9999.0","280","West","-9999.0","-9999.0","1014","29.95","-999","-999","-9999","-9999","-9999.00","-9999.00","Clear","clear","0","0","0","0","0","0","METAR UKKK 200700Z 28004MPS CAVOK 11/03 Q1014 R26/CLRD70 NOSIG"
"10:30 AM EEST on April 20, 2016","2016","04","20","10","30","Europe/Kiev","7:30 AM GMT on April 20, 2016","2016","04","20","07","30","UTC","11.0","51.8","2.0","35.6","54","14.4","8.9","-9999.0","-9999.0","300","WNW","-9999.0","-9999.0","1014","29.95","-999","-999","-9999","-9999","-9999.00","-9999.00","Clear","clear","0","0","0","0","0","0","METAR UKKK 200730Z 30004MPS 250V330 CAVOK 11/02 Q1014 R26/CLRD70 NOSIG"
"11:00 AM EEST on April 20, 2016","2016","04","20","11","00","Europe/Kiev","8:00 AM GMT on April 20, 2016","2016","04","20","08","00","UTC","12.0","53.6","2.0","35.6","51","18.0","11.2","-9999.0","-9999.0","290","WNW","10.0","6.2","1013","29.92","-999","-999","-9999","-9999","-9999.00","-9999.00","Mostly Cloudy","mostlycloudy","0","0","0","0","0","0","METAR UKKK 200800Z 29005MPS 260V330 9999 SCT043 BKN200 12/02 Q1013 R26/CLRD70 NOSIG"
"11:30 AM EEST on April 20, 2016","2016","04","20","11","30","Europe/Kiev","8:30 AM GMT on April 20, 2016","2016","04","20","08","30","UTC","12.0","53.6","2.0","35.6","51","18.0","11.2","-9999.0","-9999.0","310","NW","-9999.0","-9999.0","1013","29.92","-999","-999","-9999","-9999","-9999.00","-9999.00","Clear","clear","0","0","0","0","0","0","METAR UKKK 200830Z 31005MPS 250V010 CAVOK 12/02 Q1013 R26/CLRD70 NOSIG"
"12:00 PM EEST on April 20, 2016","2016","04","20","12","00","Europe/Kiev","9:00 AM GMT on April 20, 2016","2016","04","20","09","00","UTC","12","53","-1","30","28","10.8","6.7","","","310","NW","20","12","1014","29.94","-999","-999","-9999","-9999","","","Mostly Cloudy","mostlycloudy","0","0","0","0","0","0","AAXX 20091 33345 42498 73103 10117 21013 39936 40137 58008 86909 555 10019"
"12:00 PM EEST on April 20, 2016","2016","04","20","12","00","Europe/Kiev","9:00 AM GMT on April 20, 2016","2016","04","20","09","00","UTC","11.0","51.8","1.0","33.8","50","14.4","8.9","-9999.0","-9999.0","300","WNW","-9999.0","-9999.0","1013","29.92","-999","-999","-9999","-9999","-9999.00","-9999.00","Clear","clear","0","0","0","0","0","0","METAR UKKK 200900Z 30004MPS CAVOK 11/01 Q1013 R26/CLRD70 NOSIG"
"12:30 PM EEST on April 20, 2016","2016","04","20","12","30","Europe/Kiev","9:30 AM GMT on April 20, 2016","2016","04","20","09","30","UTC","11.0","51.8","1.0","33.8","50","14.4","8.9","-9999.0","-9999.0","300","WNW","10.0","6.2","1013","29.92","-999","-999","-9999","-9999","-9999.00","-9999.00","Mostly Cloudy","mostlycloudy","0","0","0","0","0","0","METAR UKKK 200930Z 30004MPS 260V340 9999 SCT030CB BKN046 11/01 Q1013 R26/190060 NOSIG"
"1:00 PM EEST on April 20, 2016","2016","04","20","13","00","Europe/Kiev","10:00 AM GMT on April 20, 2016","2016","04","20","10","00","UTC","11.0","51.8","0.0","32.0","47","25.2","15.7","-9999.0","-9999.0","320","NW","10.0","6.2","1013","29.92","-999","-999","-9999","-9999","-9999.00","-9999.00","Mostly Cloudy","mostlycloudy","0","0","0","0","0","0","METAR UKKK 201000Z 32007MPS 9999 SCT030CB BKN049 11/M00 Q1013 R26/190060 NOSIG"
"1:30 PM EEST on April 20, 2016","2016","04","20","13","30","Europe/Kiev","10:30 AM GMT on April 20, 2016","2016","04","20","10","30","UTC","12.0","53.6","-1.0","30.2","41","21.6","13.4","-9999.0","-9999.0","290","WNW","-9999.0","-9999.0","1013","29.92","-999","-999","-9999","-9999","-9999.00","-9999.00","Clear","clear","0","0","0","0","0","0","METAR UKKK 201030Z 29006MPS CAVOK 12/M01 Q1013 R26/190060 NOSIG"
"2:00 PM EEST on April 20, 2016","2016","04","20","14","00","Europe/Kiev","11:00 AM GMT on April 20, 2016","2016","04","20","11","00","UTC","12.0","53.6","-2.0","28.4","38","18.0","11.2","-9999.0","-9999.0","310","NW","-9999.0","-9999.0","1013","29.92","-999","-999","-9999","-9999","-9999.00","-9999.00","Clear","clear","0","0","0","0","0","0","METAR UKKK 201100Z 31005MPS CAVOK 12/M02 Q1013 R26/CLRD70 NOSIG"
"2:30 PM EEST on April 20, 2016","2016","04","20","14","30","Europe/Kiev","11:30 AM GMT on April 20, 2016","2016","04","20","11","30","UTC","13.0","55.4","0.0","32.0","41","21.6","13.4","-9999.0","-9999.0","310","NW","-9999.0","-9999.0","1012","29.89","-999","-999","-9999","-9999","-9999.00","-9999.00","Clear","clear","0","0","0","0","0","0","METAR UKKK 201130Z 31006MPS CAVOK 13/M00 Q1012 R26/CLRD70 NOSIG"
"3:00 PM EEST on April 20, 2016","2016","04","20","15","00","Europe/Kiev","12:00 PM GMT on April 20, 2016","2016","04","20","12","00","UTC","13","55","-2","28","23","18.0","11.2","","","310","NW","20","12","1013","29.91","-999","-999","-9999","-9999","","","Mostly Cloudy","mostlycloudy","0","0","0","0","0","0","AAXX 20121 33345 32498 73105 10129 21023 39927 40127 57009 86979 555 10019"
"3:00 PM EEST on April 20, 2016","2016","04","20","15","00","Europe/Kiev","12:00 PM GMT on April 20, 2016","2016","04","20","12","00","UTC","12.0","53.6","0.0","32.0","44","25.2","15.7","-9999.0","-9999.0","320","NW","-9999.0","-9999.0","1012","29.89","-999","-999","-9999","-9999","-9999.00","-9999.00","Clear","clear","0","0","0","0","0","0","METAR UKKK 201200Z 32007MPS 290V360 CAVOK 12/M00 Q1012 R26/CLRD70 NOSIG"
"3:30 PM EEST on April 20, 2016","2016","04","20","15","30","Europe/Kiev","12:30 PM GMT on April 20, 2016","2016","04","20","12","30","UTC","11.0","51.8","0.0","32.0","47","25.2","15.7","-9999.0","-9999.0","330","NNW","10.0","6.2","1012","29.89","-999","-999","-9999","-9999","-9999.00","-9999.00","Mostly Cloudy","mostlycloudy","0","0","0","0","0","0","METAR UKKK 201230Z 33007MPS 9999 FEW028CB BKN046 11/M00 Q1012 R26/CLRD70 NOSIG"
"4:00 PM EEST on April 20, 2016","2016","04","20","16","00","Europe/Kiev","1:00 PM GMT on April 20, 2016","2016","04","20","13","00","UTC","12.0","53.6","-1.0","30.2","41","18.0","11.2","-9999.0","-9999.0","330","NNW","-9999.0","-9999.0","1012","29.89","-999","-999","-9999","-9999","-9999.00","-9999.00","Clear","clear","0","0","0","0","0","0","METAR UKKK 201300Z 33005MPS CAVOK 12/M01 Q1012 R26/CLRD70 NOSIG"
"4:30 PM EEST on April 20, 2016","2016","04","20","16","30","Europe/Kiev","1:30 PM GMT on April 20, 2016","2016","04","20","13","30","UTC","12.0","53.6","-1.0","30.2","41","21.6","13.4","39.6","24.6","330","NNW","-9999.0","-9999.0","1012","29.89","-999","-999","-9999","-9999","-9999.00","-9999.00","Clear","clear","0","0","0","0","0","0","METAR UKKK 201330Z 33006G11MPS 290V010 CAVOK 12/M01 Q1012 R26/CLRD70 NOSIG"
"5:00 PM EEST on April 20, 2016","2016","04","20","17","00","Europe/Kiev","2:00 PM GMT on April 20, 2016","2016","04","20","14","00","UTC","12.0","53.6","-1.0","30.2","41","14.4","8.9","-9999.0","-9999.0","290","WNW","-9999.0","-9999.0","1012","29.89","-999","-999","-9999","-9999","-9999.00","-9999.00","Clear","clear","0","0","0","0","0","0","METAR UKKK 201400Z 29004MPS 260V320 CAVOK 12/M01 Q1012 R26/CLRD70 NOSIG"
"5:30 PM EEST on April 20, 2016","2016","04","20","17","30","Europe/Kiev","2:30 PM GMT on April 20, 2016","2016","04","20","14","30","UTC","12.0","53.6","-1.0","30.2","41","21.6","13.4","-9999.0","-9999.0","320","NW","-9999.0","-9999.0","1012","29.89","-999","-999","-9999","-9999","-9999.00","-9999.00","Clear","clear","0","0","0","0","0","0","METAR UKKK 201430Z 32006MPS CAVOK 12/M01 Q1012 R26/CLRD70 NOSIG"
"6:00 PM EEST on April 20, 2016","2016","04","20","18","00","Europe/Kiev","3:00 PM GMT on April 20, 2016","2016","04","20","15","00","UTC","12","54","-3","27","23","10.8","6.7","","","330","NNW","20","12","1012","29.88","-999","-999","-9999","-9999","","","Mostly Cloudy","mostlycloudy","0","0","0","0","0","0","AAXX 20151 33345 42498 73303 10125 21026 39919 40119 57008 85975 555 10015"
"6:00 PM EEST on April 20, 2016","2016","04","20","18","00","Europe/Kiev","3:00 PM GMT on April 20, 2016","2016","04","20","15","00","UTC","12.0","53.6","-2.0","28.4","38","21.6","13.4","-9999.0","-9999.0","300","WNW","-9999.0","-9999.0","1011","29.86","-999","-999","-9999","-9999","-9999.00","-9999.00","Clear","clear","0","0","0","0","0","0","METAR UKKK 201500Z 30006MPS 270V330 CAVOK 12/M02 Q1011 R26/CLRD70 NOSIG"
"6:30 PM EEST on April 20, 2016","2016","04","20","18","30","Europe/Kiev","3:30 PM GMT on April 20, 2016","2016","04","20","15","30","UTC","12.0","53.6","-2.0","28.4","38","25.2","15.7","-9999.0","-9999.0","320","NW","-9999.0","-9999.0","1011","29.86","-999","-999","-9999","-9999","-9999.00","-9999.00","Clear","clear","0","0","0","0","0","0","METAR UKKK 201530Z 32007MPS CAVOK 12/M02 Q1011 R26/CLRD70 NOSIG"
"7:00 PM EEST on April 20, 2016","2016","04","20","19","00","Europe/Kiev","4:00 PM GMT on April 20, 2016","2016","04","20","16","00","UTC","12.0","53.6","-1.0","30.2","41","28.8","17.9","-9999.0","-9999.0","320","NW","-9999.0","-9999.0","1012","29.89","-999","-999","-9999","-9999","-9999.00","-9999.00","Clear","clear","0","0","0","0","0","0","METAR UKKK 201600Z 32008MPS 290V010 CAVOK 12/M01 Q1012 R26/CLRD70 NOSIG"
"7:30 PM EEST on April 20, 2016","2016","04","20","19","30","Europe/Kiev","4:30 PM GMT on April 20, 2016","2016","04","20","16","30","UTC","10.0","50.0","0.0","32.0","50","28.8","17.9","-9999.0","-9999.0","330","NNW","-9999.0","-9999.0","1012","29.89","-999","-999","-9999","-9999","-9999.00","-9999.00","Clear","clear","0","0","0","0","0","0","METAR UKKK 201630Z 33008MPS CAVOK 10/M00 Q1012 R26/CLRD70 NOSIG"
"8:00 PM EEST on April 20, 2016","2016","04","20","20","00","Europe/Kiev","5:00 PM GMT on April 20, 2016","2016","04","20","17","00","UTC","10.0","50.0","0.0","32.0","50","21.6","13.4","-9999.0","-9999.0","330","NNW","-9999.0","-9999.0","1012","29.89","-999","-999","-9999","-9999","-9999.00","-9999.00","Clear","clear","0","0","0","0","0","0","METAR UKKK 201700Z 33006MPS CAVOK 10/M00 Q1012 R26/CLRD70 NOSIG"
"8:30 PM EEST on April 20, 2016","2016","04","20","20","30","Europe/Kiev","5:30 PM GMT on April 20, 2016","2016","04","20","17","30","UTC","9.0","48.2","0.0","32.0","54","21.6","13.4","-9999.0","-9999.0","320","NW","-9999.0","-9999.0","1013","29.92","-999","-999","-9999","-9999","-9999.00","-9999.00","Clear","clear","0","0","0","0","0","0","METAR UKKK 201730Z 32006MPS CAVOK 09/M00 Q1013 R26/CLRD70 NOSIG"
"9:00 PM EEST on April 20, 2016","2016","04","20","21","00","Europe/Kiev","6:00 PM GMT on April 20, 2016","2016","04","20","18","00","UTC","9","49","-1","30","35","10.8","6.7","","","330","NNW","20","12","1013","29.93","-999","-999","-9999","-9999","","","Scattered Clouds","partlycloudy","0","0","0","0","0","0","AAXX 20181 33345 32998 33303 10093 21012 39932 40134 53013 82084 333 10134 555 10007"
"9:00 PM EEST on April 20, 2016","2016","04","20","21","00","Europe/Kiev","6:00 PM GMT on April 20, 2016","2016","04","20","18","00","UTC","9.0","48.2","-1.0","30.2","50","18.0","11.2","-9999.0","-9999.0","320","NW","-9999.0","-9999.0","1013","29.92","-999","-999","-9999","-9999","-9999.00","-9999.00","Clear","clear","0","0","0","0","0","0","METAR UKKK 201800Z 32005MPS CAVOK 09/M01 Q1013 R26/CLRD70 NOSIG"
"9:30 PM EEST on April 20, 2016","2016","04","20","21","30","Europe/Kiev","6:30 PM GMT on April 20, 2016","2016","04","20","18","30","UTC","8.0","46.4","0.0","32.0","57","14.4","8.9","-9999.0","-9999.0","320","NW","-9999.0","-9999.0","1013","29.92","5.6","42.0","-9999","-9999","-9999.00","-9999.00","Clear","clear","0","0","0","0","0","0","METAR UKKK 201830Z 32004MPS CAVOK 08/M00 Q1013 R26/CLRD70 NOSIG"
"10:00 PM EEST on April 20, 2016","2016","04","20","22","00","Europe/Kiev","7:00 PM GMT on April 20, 2016","2016","04","20","19","00","UTC","8.0","46.4","0.0","32.0","57","14.4","8.9","-9999.0","-9999.0","320","NW","-9999.0","-9999.0","1013","29.92","5.6","42.0","-9999","-9999","-9999.00","-9999.00","Clear","clear","0","0","0","0","0","0","METAR UKKK 201900Z 32004MPS CAVOK 08/M00 Q1013 R26/CLRD70 NOSIG"
"10:30 PM EEST on April 20, 2016","2016","04","20","22","30","Europe/Kiev","7:30 PM GMT on April 20, 2016","2016","04","20","19","30","UTC","8.0","46.4","0.0","32.0","57","14.4","8.9","-9999.0","-9999.0","310","NW","-9999.0","-9999.0","1013","29.92","5.6","42.0","-9999","-9999","-9999.00","-9999.00","Clear","clear","0","0","0","0","0","0","METAR UKKK 201930Z 31004MPS CAVOK 08/M00 Q1013 R26/CLRD70 NOSIG"
"11:00 PM EEST on April 20, 2016","2016","04","20","23","00","Europe/Kiev","8:00 PM GMT on April 20, 2016","2016","04","20","20","00","UTC","7.0","44.6","0.0","32.0","61","14.4","8.9","-9999.0","-9999.0","310","NW","-9999.0","-9999.0","1013","29.92","4.3","39.8","-9999","-9999","-9999.00","-9999.00","Clear","clear","0","0","0","0","0","0","METAR UKKK 202000Z 31004MPS CAVOK 07/M00 Q1013 R26/CLRD70 NOSIG"
"11:30 PM EEST on April 20, 2016","2016","04","20","23","30","Europe/Kiev","8:30 PM GMT on April 20, 2016","2016","04","20","20","30","UTC","7.0","44.6","0.0","32.0","61","14.4","8.9","-9999.0","-9999.0","290","WNW","-9999.0","-9999.0","1013","29.92","4.3","39.8","-9999","-9999","-9999.00","-9999.00","Clear","clear","0","0","0","0","0","0","METAR UKKK 202030Z 29004MPS CAVOK 07/00 Q1013 R26/CLRD70 NOSIG"
"12:00 AM EEST on April 21, 2016","2016","04","21","00","00","Europe/Kiev","9:00 PM GMT on April 20, 2016","2016","04","20","21","00","UTC","7","45","-1","30","43","7.2","4.5","","","300","WNW","20","12","1013","29.93","-999","-999","-9999","-9999","","","Scattered Clouds","partlycloudy","0","0","0","0","0","0","AAXX 20211 33345 42998 23002 10074 21013 39929 40133 58003 82080 555 10005"
"12:00 AM EEST on April 21, 2016","2016","04","21","00","00","Europe/Kiev","9:00 PM GMT on April 20, 2016","2016","04","20","21","00","UTC","6.0","42.8","0.0","32.0","66","14.4","8.9","-9999.0","-9999.0","300","WNW","-9999.0","-9999.0","1013","29.92","3.1","37.6","-9999","-9999","-9999.00","-9999.00","Clear","clear","0","0","0","0","0","0","METAR UKKK 202100Z 30004MPS CAVOK 06/M00 Q1013 R26/CLRD70 NOSIG"
"12:30 AM EEST on April 21, 2016","2016","04","21","00","30","Europe/Kiev","9:30 PM GMT on April 20, 2016","2016","04","20","21","30","UTC","6.0","42.8","-1.0","30.2","61","14.4","8.9","-9999.0","-9999.0","300","WNW","-9999.0","-9999.0","1013","29.92","3.1","37.6","-9999","-9999","-9999.00","-9999.00","Clear","clear","0","0","0","0","0","0","METAR UKKK 202130Z 30004MPS CAVOK 06/M01 Q1013 R26/CLRD70 NOSIG"
"1:00 AM EEST on April 21, 2016","2016","04","21","01","00","Europe/Kiev","10:00 PM GMT on April 20, 2016","2016","04","20","22","00","UTC","6.0","42.8","-1.0","30.2","61","18.0","11.2","-9999.0","-9999.0","300","WNW","-9999.0","-9999.0","1013","29.92","2.6","36.7","-9999","-9999","-9999.00","-9999.00","Clear","clear","0","0","0","0","0","0","METAR UKKK 202200Z 30005MPS CAVOK 06/M01 Q1013 R26/CLRD70 NOSIG"
"1:30 AM EEST on April 21, 2016","2016","04","21","01","30","Europe/Kiev","10:30 PM GMT on April 20, 2016","2016","04","20","22","30","UTC","6.0","42.8","0.0","32.0","66","25.2","15.7","-9999.0","-9999.0","310","NW","-9999.0","-9999.0","1013","29.92","1.8","35.2","-9999","-9999","-9999.00","-9999.00","Clear","clear","0","0","0","0","0","0","METAR UKKK 202230Z 31007MPS CAVOK 06/M00 Q1013 R26/CLRD70 NOSIG"
"2:00 AM EEST on April 21, 2016","2016","04","21","02","00","Europe/Kiev","11:00 PM GMT on April 20, 2016","2016","04","20","23","00","UTC","6.0","42.8","0.0","32.0","66","25.2","15.7","-9999.0","-9999.0","310","NW","-9999.0","-9999.0","1013","29.92","1.8","35.2","-9999","-9999","-9999.00","-9999.00","Clear","clear","0","0","0","0","0","0","METAR UKKK 202300Z 31007MPS CAVOK 06/M00 Q1013 R26/CLRD70 NOSIG"
"2:30 AM EEST on April 21, 2016","2016","04","21","02","30","Europe/Kiev","11:30 PM GMT on April 20, 2016","2016","04","20","23","30","UTC","5.0","41.0","0.0","32.0","70","25.2","15.7","-9999.0","-9999.0","320","NW","-9999.0","-9999.0","1013","29.92","0.5","32.9","-9999","-9999","-9999.00","-9999.00","Clear","clear","0","0","0","0","0","0","METAR UKKK 202330Z 32007MPS CAVOK 05/00 Q1013 R26/CLRD70 NOSIG"
"3:00 AM EEST on April 21, 2016","2016","04","21","03","00","Europe/Kiev","12:00 AM GMT on April 21, 2016","2016","04","21","00","00","UTC","5","41","0","32","62","18.0","11.2","","","320","NW","20","12","1014","29.93","-999","-999","-9999","-9999","","","Scattered Clouds","partlycloudy","0","0","0","0","0","0","AAXX 21001 33345 32998 23205 10051 20002 39930 40135 53001 82040 555 10003"
"3:00 AM EEST on April 21, 2016","2016","04","21","03","00","Europe/Kiev","12:00 AM GMT on April 21, 2016","2016","04","21","00","00","UTC","5.0","41.0","0.0","32.0","70","25.2","15.7","-9999.0","-9999.0","310","NW","-9999.0","-9999.0","1013","29.92","0.5","32.9","-9999","-9999","-9999.00","-9999.00","Clear","clear","0","0","0","0","0","0","METAR UKKK 210000Z 31007MPS CAVOK 05/00 Q1013 R26/CLRD70 NOSIG"
"3:30 AM EEST on April 21, 2016","2016","04","21","03","30","Europe/Kiev","12:30 AM GMT on April 21, 2016","2016","04","21","00","30","UTC","5.0","41.0","0.0","32.0","70","28.8","17.9","-9999.0","-9999.0","310","NW","-9999.0","-9999.0","1013","29.92","0.2","32.3","-9999","-9999","-9999.00","-9999.00","Clear","clear","0","0","0","0","0","0","METAR UKKK 210030Z 31008MPS CAVOK 05/00 Q1013 R26/CLRD70 NOSIG"
"4:00 AM EEST on April 21, 2016","2016","04","21","04","00","Europe/Kiev","1:00 AM GMT on April 21, 2016","2016","04","21","01","00","UTC","4.0","39.2","0.0","32.0","75","25.2","15.7","-9999.0","-9999.0","310","NW","-9999.0","-9999.0","1013","29.92","-0.8","30.6","-9999","-9999","-9999.00","-9999.00","Clear","clear","0","0","0","0","0","0","METAR UKKK 210100Z 31007MPS CAVOK 04/00 Q1013 R26/CLRD70 NOSIG"
"4:30 AM EEST on April 21, 2016","2016","04","21","04","30","Europe/Kiev","1:30 AM GMT on April 21, 2016","2016","04","21","01","30","UTC","4.0","39.2","1.0","33.8","81","21.6","13.4","-9999.0","-9999.0","300","WNW","-9999.0","-9999.0","1013","29.92","-0.4","31.3","-9999","-9999","-9999.00","-9999.00","Clear","clear","0","0","0","0","0","0","METAR UKKK 210130Z 30006MPS CAVOK 04/01 Q1013 R26/CLRD70 NOSIG"
"5:00 AM EEST on April 21, 2016","2016","04","21","05","00","Europe/Kiev","2:00 AM GMT on April 21, 2016","2016","04","21","02","00","UTC","4.0","39.2","1.0","33.8","81","21.6","13.4","-9999.0","-9999.0","310","NW","-9999.0","-9999.0","1013","29.92","-0.4","31.3","-9999","-9999","-9999.00","-9999.00","Clear","clear","0","0","0","0","0","0","METAR UKKK 210200Z 31006MPS CAVOK 04/01 Q1013 R26/CLRD70 NOSIG"
"5:30 AM EEST on April 21, 2016","2016","04","21","05","30","Europe/Kiev","2:30 AM GMT on April 21, 2016","2016","04","21","02","30","UTC","3.0","37.4","0.0","32.0","81","25.2","15.7","-9999.0","-9999.0","310","NW","-9999.0","-9999.0","1014","29.95","-2.1","28.3","-9999","-9999","-9999.00","-9999.00","Clear","clear","0","0","0","0","0","0","METAR UKKK 210230Z 31007MPS CAVOK 03/00 Q1014 R26/CLRD70 NOSIG"
"6:00 AM EEST on April 21, 2016","2016","04","21","06","00","Europe/Kiev","3:00 AM GMT on April 21, 2016","2016","04","21","03","00","UTC","4","38","0","32","73","18.0","11.2","","","320","NW","20","12","1015","29.97","-999","-999","-9999","-9999","","","Partly Cloudy","partlycloudy","0","0","0","0","0","0","AAXX 21031 33345 42598 33205 10036 20002 39941 40148 53011 83500 555 10002"
"6:00 AM EEST on April 21, 2016","2016","04","21","06","00","Europe/Kiev","3:00 AM GMT on April 21, 2016","2016","04","21","03","00","UTC","3.0","37.4","1.0","33.8","87","21.6","13.4","-9999.0","-9999.0","310","NW","10.0","6.2","1014","29.95","-1.6","29.1","-9999","-9999","-9999.00","-9999.00","Partly Cloudy","partlycloudy","0","0","0","0","0","0","METAR UKKK 210300Z 31006MPS 9999 FEW015 03/01 Q1014 R26/CLRD70 NOSIG"
"6:30 AM EEST on April 21, 2016","2016","04","21","06","30","Europe/Kiev","3:30 AM GMT on April 21, 2016","2016","04","21","03","30","UTC","3.0","37.4","1.0","33.8","87","25.2","15.7","-9999.0","-9999.0","310","NW","10.0","6.2","1014","29.95","-2.1","28.3","-9999","-9999","-9999.00","-9999.00","Scattered Clouds","partlycloudy","0","0","0","0","0","0","METAR UKKK 210330Z 31007MPS 9999 SCT015 03/01 Q1014 R26/CLRD70 NOSIG"
"7:00 AM EEST on April 21, 2016","2016","04","21","07","00","Europe/Kiev","4:00 AM GMT on April 21, 2016","2016","04","21","04","00","UTC","4.0","39.2","1.0","33.8","81","21.6","13.4","-9999.0","-9999.0","310","NW","10.0","6.2","1014","29.95","-0.4","31.3","-9999","-9999","-9999.00","-9999.00","Scattered Clouds","partlycloudy","0","0","0","0","0","0","METAR UKKK 210400Z 31006MPS 280V340 9999 SCT014 04/01 Q1014 R26/CLRD70 NOSIG"
"7:30 AM EEST on April 21, 2016","2016","04","21","07","30","Europe/Kiev","4:30 AM GMT on April 21, 2016","2016","04","21","04","30","UTC","4.0","39.2","1.0","33.8","81","25.2","15.7","-9999.0","-9999.0","310","NW","10.0","6.2","1015","29.98","-0.8","30.6","-9999","-9999","-9999.00","-9999.00","Mostly Cloudy","mostlycloudy","0","0","0","0","0","0","METAR UKKK 210430Z 31007MPS 9999 BKN014 04/01 Q1015 R26/CLRD70 NOSIG"
"8:00 AM EEST on April 21, 2016","2016","04","21","08","00","Europe/Kiev","5:00 AM GMT on April 21, 2016","2016","04","21","05","00","UTC","4.0","39.2","1.0","33.8","81","28.8","17.9","-9999.0","-9999.0","320","NW","10.0","6.2","1015","29.98","-1.1","30.0","-9999","-9999","-9999.00","-9999.00","Mostly Cloudy","mostlycloudy","0","0","0","0","0","0","METAR UKKK 210500Z 32008MPS 9999 BKN014 04/01 Q1015 R26/CLRD70 NOSIG"
"8:30 AM EEST on April 21, 2016","2016","04","21","08","30","Europe/Kiev","5:30 AM GMT on April 21, 2016","2016","04","21","05","30","UTC","4.0","39.2","1.0","33.8","81","25.2","15.7","-9999.0","-9999.0","310","NW","10.0","6.2","1015","29.98","-0.8","30.6","-9999","-9999","-9999.00","-9999.00","Light Rain","rain","0","1","0","0","0","0","METAR UKKK 210530Z 31007MPS 9999 -RA BKN016 OVC040 04/01 Q1015 R26/CLRD70 NOSIG"
"9:00 AM EEST on April 21, 2016","2016","04","21","09","00","Europe/Kiev","6:00 AM GMT on April 21, 2016","2016","04","21","06","00","UTC","5","40","1","33","69","14.4","8.9","","","320","NW","20","12","1016","30.01","-999","-999","-9999","-9999","","","Overcast","cloudy","0","0","0","0","0","0","AAXX 21061 33345 32498 83204 10047 20008 39956 40162 52015 8597/ 333 20033 555 10007 30002 52003"
"9:00 AM EEST on April 21, 2016","2016","04","21","09","00","Europe/Kiev","6:00 AM GMT on April 21, 2016","2016","04","21","06","00","UTC","5.0","41.0","1.0","33.8","76","25.2","15.7","-9999.0","-9999.0","320","NW","10.0","6.2","1015","29.98","0.5","32.9","-9999","-9999","-9999.00","-9999.00","Overcast","cloudy","0","0","0","0","0","0","METAR UKKK 210600Z 32007MPS 9999 BKN017 OVC033 05/01 Q1015 R26/CLRD70 NOSIG"
"9:30 AM EEST on April 21, 2016","2016","04","21","09","30","Europe/Kiev","6:30 AM GMT on April 21, 2016","2016","04","21","06","30","UTC","4.0","39.2","1.0","33.8","81","25.2","15.7","43.2","26.8","310","NW","10.0","6.2","1015","29.98","-0.8","30.6","-9999","-9999","-9999.00","-9999.00","Light Rain","rain","0","1","0","0","0","0","METAR UKKK 210630Z 31007G12MPS 9999 -RA BKN017 OVC033 04/01 Q1015 R26/CLRD70 NOSIG"
"10:00 AM EEST on April 21, 2016","2016","04","21","10","00","Europe/Kiev","7:00 AM GMT on April 21, 2016","2016","04","21","07","00","UTC","5.0","41.0","2.0","35.6","81","21.6","13.4","-9999.0","-9999.0","310","NW","10.0","6.2","1016","30.01","0.9","33.6","-9999","-9999","-9999.00","-9999.00","Mostly Cloudy","mostlycloudy","0","0","0","0","0","0","METAR UKKK 210700Z 31006MPS 9999 FEW018 SCT030CB BKN040 05/02 Q1016 R26/290058 TEMPO 2100 -SHRAGR BKN007 BKN015CB"
"10:30 AM EEST on April 21, 2016","2016","04","21","10","30","Europe/Kiev","7:30 AM GMT on April 21, 2016","2016","04","21","07","30","UTC","5.0","41.0","1.0","33.8","76","25.2","15.7","-9999.0","-9999.0","310","NW","10.0","6.2","1016","30.01","0.5","32.9","-9999","-9999","-9999.00","-9999.00","Mostly Cloudy","mostlycloudy","0","0","0","0","0","0","METAR UKKK 210730Z 31007MPS 9999 FEW019 SCT032CB BKN043 05/01 Q1016 R26/290058 TEMPO 2100 -SHRAGS BKN007 BKN015CB"
"11:00 AM EEST on April 21, 2016","2016","04","21","11","00","Europe/Kiev","8:00 AM GMT on April 21, 2016","2016","04","21","08","00","UTC","6.0","42.8","0.0","32.0","66","25.2","15.7","-9999.0","-9999.0","310","NW","10.0","6.2","1016","30.01","1.8","35.2","-9999","-9999","-9999.00","-9999.00","Mostly Cloudy","mostlycloudy","0","0","0","0","0","0","METAR UKKK 210800Z 31007MPS 9999 BKN031 06/00 Q1016 R26/290058 NOSIG"
"11:30 AM EEST on April 21, 2016","2016","04","21","11","30","Europe/Kiev","8:30 AM GMT on April 21, 2016","2016","04","21","08","30","UTC","6.0","42.8","0.0","32.0","66","28.8","17.9","-9999.0","-9999.0","310","NW","10.0","6.2","1016","30.01","1.5","34.7","-9999","-9999","-9999.00","-9999.00","Mostly Cloudy","mostlycloudy","0","0","0","0","0","0","METAR UKKK 210830Z 31008MPS 9999 BKN031 06/M00 Q1016 R26/290058 NOSIG"
"12:00 PM EEST on April 21, 2016","2016","04","21","12","00","Europe/Kiev","9:00 AM GMT on April 21, 2016","2016","04","21","09","00","UTC","7","44","-2","28","41","14.4","8.9","","","310","NW","20","12","1016","30.02","-999","-999","-9999","-9999","","","Partly Cloudy","partlycloudy","0","0","0","0","0","0","AAXX 21091 33345 41598 73104 10068 21021 39960 40165 51004 70282 87900 333 87920 555 10014"
"12:00 PM EEST on April 21, 2016","2016","04","21","12","00","Europe/Kiev","9:00 AM GMT on April 21, 2016","2016","04","21","09","00","UTC","6.0","42.8","-1.0","30.2","61","25.2","15.7","-9999.0","-9999.0","300","WNW","10.0","6.2","1016","30.01","1.8","35.2","-9999","-9999","-9999.00","-9999.00","Mostly Cloudy","mostlycloudy","0","0","0","0","0","0","METAR UKKK 210900Z 30007MPS 9999 BKN039 06/M01 Q1016 R26/190060 NOSIG"
"12:30 PM EEST on April 21, 2016","2016","04","21","12","30","Europe/Kiev","9:30 AM GMT on April 21, 2016","2016","04","21","09","30","UTC","7.0","44.6","-1.0","30.2","57","28.8","17.9","-9999.0","-9999.0","320","NW","10.0","6.2","1016","30.01","2.8","37.0","-9999","-9999","-9999.00","-9999.00","Mostly Cloudy","mostlycloudy","0","0","0","0","0","0","METAR UKKK 210930Z 32008MPS 9999 BKN043 07/M01 Q1016 R26/190060 NOSIG"
"1:00 PM EEST on April 21, 2016","2016","04","21","13","00","Europe/Kiev","10:00 AM GMT on April 21, 2016","2016","04","21","10","00","UTC","7.0","44.6","-2.0","28.4","53","32.4","20.1","-9999.0","-9999.0","300","WNW","10.0","6.2","1016","30.01","2.5","36.5","-9999","-9999","-9999.00","-9999.00","Mostly Cloudy","mostlycloudy","0","0","0","0","0","0","METAR UKKK 211000Z 30009MPS 9999 BKN040 07/M02 Q1016 R26/CLRD70 NOSIG"
"1:30 PM EEST on April 21, 2016","2016","04","21","13","30","Europe/Kiev","10:30 AM GMT on April 21, 2016","2016","04","21","10","30","UTC","7.0","44.6","-2.0","28.4","53","28.8","17.9","-9999.0","-9999.0","300","WNW","10.0","6.2","1016","30.01","2.8","37.0","-9999","-9999","-9999.00","-9999.00","Mostly Cloudy","mostlycloudy","0","0","0","0","0","0","METAR UKKK 211030Z 30008MPS 9999 BKN042 07/M02 Q1016 R26/CLRD70 NOSIG"
"2:00 PM EEST on April 21, 2016","2016","04","21","14","00","Europe/Kiev","11:00 AM GMT on April 21, 2016","2016","04","21","11","00","UTC","7.0","44.6","-2.0","28.4","53","28.8","17.9","-9999.0","-9999.0","320","NW","10.0","6.2","1017","30.04","2.8","37.0","-9999","-9999","-9999.00","-9999.00","Mostly Cloudy","mostlycloudy","0","0","0","0","0","0","METAR UKKK 211100Z 32008MPS 9999 BKN043 07/M02 Q1017 R26/CLRD70 NOSIG"
"2:30 PM EEST on April 21, 2016","2016","04","21","14","30","Europe/Kiev","11:30 AM GMT on April 21, 2016","2016","04","21","11","30","UTC","7.0","44.6","-1.0","30.2","57","25.2","15.7","-9999.0","-9999.0","290","WNW","10.0","6.2","1017","30.04","3.1","37.6","-9999","-9999","-9999.00","-9999.00","Mostly Cloudy","mostlycloudy","0","0","0","0","0","0","METAR UKKK 211130Z 29007MPS 9999 BKN042 07/M01 Q1017 R26/CLRD70 NOSIG"
"3:00 PM EEST on April 21, 2016","2016","04","21","15","00","Europe/Kiev","12:00 PM GMT on April 21, 2016","2016","04","21","12","00","UTC","7","44","-2","29","43","18.0","11.2","","","290","WNW","20","12","1018","30.06","-999","-999","-9999","-9999","","","Partly Cloudy","partlycloudy","0","0","0","0","0","0","AAXX 21121 33345 /1698 72905 10068 21018 39972 40177 52012 70282 87500 333 87635 555 10014 69901"
"3:00 PM EEST on April 21, 2016","2016","04","21","15","00","Europe/Kiev","12:00 PM GMT on April 21, 2016","2016","04","21","12","00","UTC","6.0","42.8","-2.0","28.4","57","32.4","20.1","-9999.0","-9999.0","290","WNW","10.0","6.2","1017","30.04","1.2","34.1","-9999","-9999","-9999.00","-9999.00","Mostly Cloudy","mostlycloudy","0","0","0","0","0","0","METAR UKKK 211200Z 29009MPS 9999 BKN035 06/M02 Q1017 R26/CLRD70 TEMPO 30010G16MPS"
"3:30 PM EEST on April 21, 2016","2016","04","21","15","30","Europe/Kiev","12:30 PM GMT on April 21, 2016","2016","04","21","12","30","UTC","6.0","42.8","-1.0","30.2","61","32.4","20.1","-9999.0","-9999.0","300","WNW","10.0","6.2","1017","30.04","1.2","34.1","-9999","-9999","-9999.00","-9999.00","Mostly Cloudy","mostlycloudy","0","0","0","0","0","0","METAR UKKK 211230Z 30009MPS 9999 BKN036 06/M01 Q1017 R26/CLRD70 TEMPO 30010G16MPS"
"4:00 PM EEST on April 21, 2016","2016","04","21","16","00","Europe/Kiev","1:00 PM GMT on April 21, 2016","2016","04","21","13","00","UTC","7.0","44.6","-1.0","30.2","57","28.8","17.9","46.8","29.1","300","WNW","10.0","6.2","1017","30.04","2.8","37.0","-9999","-9999","-9999.00","-9999.00","Mostly Cloudy","mostlycloudy","0","0","0","0","0","0","METAR UKKK 211300Z 30008G13MPS 9999 BKN039 07/M01 Q1017 R26/CLRD70 TEMPO 30010G16MPS"
"4:30 PM EEST on April 21, 2016","2016","04","21","16","30","Europe/Kiev","1:30 PM GMT on April 21, 2016","2016","04","21","13","30","UTC","7.0","44.6","-3.0","26.6","49","32.4","20.1","-9999.0","-9999.0","300","WNW","10.0","6.2","1017","30.04","2.5","36.5","-9999","-9999","-9999.00","-9999.00","Mostly Cloudy","mostlycloudy","0","0","0","0","0","0","METAR UKKK 211330Z 30009MPS 9999 BKN043 07/M03 Q1017 R26/CLRD70 TEMPO 30010G16MPS"
"5:00 PM EEST on April 21, 2016","2016","04","21","17","00","Europe/Kiev","2:00 PM GMT on April 21, 2016","2016","04","21","14","00","UTC","7.0","44.6","-2.0","28.4","53","25.2","15.7","43.2","26.8","310","NW","10.0","6.2","1017","30.04","3.1","37.6","-9999","-9999","-9999.00","-9999.00","Mostly Cloudy","mostlycloudy","0","0","0","0","0","0","METAR UKKK 211400Z 31007G12MPS 9999 BKN043 07/M02 Q1017 R26/CLRD70 TEMPO 30010G16MPS"
"5:30 PM EEST on April 21, 2016","2016","04","21","17","30","Europe/Kiev","2:30 PM GMT on April 21, 2016","2016","04","21","14","30","UTC","7.0","44.6","-3.0","26.6","49","25.2","15.7","-9999.0","-9999.0","300","WNW","10.0","6.2","1018","30.06","3.1","37.6","-9999","-9999","-9999.00","-9999.00","Mostly Cloudy","mostlycloudy","0","0","0","0","0","0","METAR UKKK 211430Z 30007MPS 9999 BKN046 07/M03 Q1018 R26/CLRD70 TEMPO 30010G16MPS"
"6:00 PM EEST on April 21, 2016","2016","04","21","18","00","Europe/Kiev","3:00 PM GMT on April 21, 2016","2016","04","21","15","00","UTC","7","45","-3","27","37","10.8","6.7","","","320","NW","20","12","1018","30.08","-999","-999","-9999","-9999","","","Overcast","cloudy","0","0","0","0","0","0","AAXX 21151 33345 42598 83203 10072 21026 39979 40184 52007 885// 333 88632 555 10009"
"6:00 PM EEST on April 21, 2016","2016","04","21","18","00","Europe/Kiev","3:00 PM GMT on April 21, 2016","2016","04","21","15","00","UTC","7.0","44.6","-2.0","28.4","53","25.2","15.7","-9999.0","-9999.0","310","NW","10.0","6.2","1018","30.06","3.1","37.6","-9999","-9999","-9999.00","-9999.00","Mostly Cloudy","mostlycloudy","0","0","0","0","0","0","METAR UKKK 211500Z 31007MPS 9999 BKN047 07/M02 Q1018 R26/CLRD70 TEMPO 30010G16MPS"
"6:30 PM EEST on April 21, 2016","2016","04","21","18","30","Europe/Kiev","3:30 PM GMT on April 21, 2016","2016","04","21","15","30","UTC","7.0","44.6","-2.0","28.4","53","28.8","17.9","-9999.0","-9999.0","310","NW","-9999.0","-9999.0","1018","30.06","2.8","37.0","-9999","-9999","-9999.00","-9999.00","Clear","clear","0","0","0","0","0","0","METAR UKKK 211530Z 31008MPS CAVOK 07/M02 Q1018 R26/CLRD70 TEMPO 30010G16MPS"
"7:00 PM EEST on April 21, 2016","2016","04","21","19","00","Europe/Kiev","4:00 PM GMT on April 21, 2016","2016","04","21","16","00","UTC","7.0","44.6","-2.0","28.4","53","21.6","13.4","-9999.0","-9999.0","310","NW","-9999.0","-9999.0","1018","30.06","3.4","38.2","-9999","-9999","-9999.00","-9999.00","Clear","clear","0","0","0","0","0","0","METAR UKKK 211600Z 31006MPS CAVOK 07/M02 Q1018 R26/CLRD70 TEMPO 30010G16MPS"
"7:30 PM EEST on April 21, 2016","2016","04","21","19","30","Europe/Kiev","4:30 PM GMT on April 21, 2016","2016","04","21","16","30","UTC","7.0","44.6","-3.0","26.6","49","21.6","13.4","-9999.0","-9999.0","300","WNW","-9999.0","-9999.0","1018","30.06","3.4","38.2","-9999","-9999","-9999.00","-9999.00","Clear","clear","0","0","0","0","0","0","METAR UKKK 211630Z 30006MPS CAVOK 07/M03 Q1018 R26/CLRD70 TEMPO 30010G16MPS"
"8:00 PM EEST on April 21, 2016","2016","04","21","20","00","Europe/Kiev","5:00 PM GMT on April 21, 2016","2016","04","21","17","00","UTC","6.0","42.8","-2.0","28.4","57","14.4","8.9","-9999.0","-9999.0","300","WNW","-9999.0","-9999.0","1018","30.06","3.1","37.6","-9999","-9999","-9999.00","-9999.00","Clear","clear","0","0","0","0","0","0","METAR UKKK 211700Z 30004MPS CAVOK 06/M02 Q1018 R26/CLRD70 TEMPO 30010G16MPS"
"8:30 PM EEST on April 21, 2016","2016","04","21","20","30","Europe/Kiev","5:30 PM GMT on April 21, 2016","2016","04","21","17","30","UTC","6.0","42.8","-2.0","28.4","57","10.8","6.7","-9999.0","-9999.0","270","West","-9999.0","-9999.0","1018","30.06","3.7","38.7","-9999","-9999","-9999.00","-9999.00","Clear","clear","0","0","0","0","0","0","METAR UKKK 211730Z 27003MPS CAVOK 06/M02 Q1018 R26/CLRD70 TEMPO 30010G16MPS"
"9:00 PM EEST on April 21, 2016","2016","04","21","21","00","Europe/Kiev","6:00 PM GMT on April 21, 2016","2016","04","21","18","00","UTC","6","42","-2","28","46","3.6","2.2","","","250","WSW","20","12","1019","30.09","-999","-999","-9999","-9999","","","","","0","0","0","0","0","0","AAXX 21181 33345 12998 02501 10056 21021 39981 40187 51002 69902 333 10078 555 10003"
"9:00 PM EEST on April 21, 2016","2016","04","21","21","00","Europe/Kiev","6:00 PM GMT on April 21, 2016","2016","04","21","18","00","UTC","5.0","41.0","-2.0","28.4","61","10.8","6.7","-9999.0","-9999.0","250","WSW","-9999.0","-9999.0","1018","30.06","2.5","36.5","-9999","-9999","-9999.00","-9999.00","Clear","clear","0","0","0","0","0","0","METAR UKKK 211800Z 25003MPS CAVOK 05/M02 Q1018 R26/CLRD70 NOSIG"
"9:30 PM EEST on April 21, 2016","2016","04","21","21","30","Europe/Kiev","6:30 PM GMT on April 21, 2016","2016","04","21","18","30","UTC","4.0","39.2","-2.0","28.4","65","7.2","4.5","-9999.0","-9999.0","240","WSW","-9999.0","-9999.0","1018","30.06","2.2","36.0","-9999","-9999","-9999.00","-9999.00","Clear","clear","0","0","0","0","0","0","METAR UKKK 211830Z 24002MPS CAVOK 04/M02 Q1018 R26/CLRD70 NOSIG"
"10:00 PM EEST on April 21, 2016","2016","04","21","22","00","Europe/Kiev","7:00 PM GMT on April 21, 2016","2016","04","21","19","00","UTC","3.0","37.4","-1.0","30.2","75","7.2","4.5","-9999.0","-9999.0","250","WSW","-9999.0","-9999.0","1018","30.06","1.0","33.9","-9999","-9999","-9999.00","-9999.00","Clear","clear","0","0","0","0","0","0","METAR UKKK 211900Z 25002MPS CAVOK 03/M01 Q1018 R26/CLRD70 NOSIG"
"10:30 PM EEST on April 21, 2016","2016","04","21","22","30","Europe/Kiev","7:30 PM GMT on April 21, 2016","2016","04","21","19","30","UTC","2.0","35.6","-1.0","30.2","81","7.2","4.5","-9999.0","-9999.0","230","SW","9.0","5.6","1018","30.06","-0.1","31.8","-9999","-9999","-9999.00","-9999.00","Clear","clear","0","0","0","0","0","0","METAR UKKK 211930Z 23002MPS 9000 SKC 02/M01 Q1018 R26/CLRD70 NOSIG"
"11:00 PM EEST on April 21, 2016","2016","04","21","23","00","Europe/Kiev","8:00 PM GMT on April 21, 2016","2016","04","21","20","00","UTC","2.0","35.6","-1.0","30.2","81","7.2","4.5","-9999.0","-9999.0","240","WSW","-9999.0","-9999.0","1017","30.04","-0.1","31.8","-9999","-9999","-9999.00","-9999.00","Clear","clear","0","0","0","0","0","0","METAR UKKK 212000Z 24002MPS CAVOK 02/M01 Q1017 R26/CLRD70 NOSIG"
"11:30 PM EEST on April 21, 2016","2016","04","21","23","30","Europe/Kiev","8:30 PM GMT on April 21, 2016","2016","04","21","20","30","UTC","2.0","35.6","-1.0","30.2","81","7.2","4.5","-9999.0","-9999.0","250","WSW","-9999.0","-9999.0","1017","30.04","-0.1","31.8","-9999","-9999","-9999.00","-9999.00","Clear","clear","0","0","0","0","0","0","METAR UKKK 212030Z 25002MPS CAVOK 02/M01 Q1017 R26/CLRD70 NOSIG"
"12:00 AM EEST on April 23, 2016","2016","04","23","00","00","Europe/Kiev","9:00 PM GMT on April 22, 2016","2016","04","22","21","00","UTC","8","47","-1","30","40","10.8","6.7","","","300","WNW","20","12","1010","29.84","-999","-999","-9999","-9999","","","","","0","0","0","0","0","0","AAXX 22211 33345 42998 03003 10081 21009 39901 40104 52016 555 10005"
"12:00 AM EEST on April 23, 2016","2016","04","23","00","00","Europe/Kiev","9:00 PM GMT on April 22, 2016","2016","04","22","21","00","UTC","6.0","42.8","-1.0","30.2","61","14.4","8.9","-9999.0","-9999.0","290","WNW","-9999.0","-9999.0","1010","29.83","3.1","37.6","-9999","-9999","-9999.00","-9999.00","Clear","clear","0","0","0","0","0","0","METAR UKKK 222100Z 29004MPS CAVOK 06/M01 Q1010 R26/CLRD70 NOSIG"
"12:30 AM EEST on April 23, 2016","2016","04","23","00","30","Europe/Kiev","9:30 PM GMT on April 22, 2016","2016","04","22","21","30","UTC","7.0","44.6","-1.0","30.2","57","18.0","11.2","-9999.0","-9999.0","310","NW","-9999.0","-9999.0","1010","29.83","3.8","38.9","-9999","-9999","-9999.00","-9999.00","Clear","clear","0","0","0","0","0","0","METAR UKKK 222130Z 31005MPS CAVOK 07/M01 Q1010 R26/CLRD70 NOSIG"
"1:00 AM EEST on April 23, 2016","2016","04","23","01","00","Europe/Kiev","10:00 PM GMT on April 22, 2016","2016","04","22","22","00","UTC","6.0","42.8","-1.0","30.2","61","14.4","8.9","-9999.0","-9999.0","280","West","-9999.0","-9999.0","1010","29.83","3.1","37.6","-9999","-9999","-9999.00","-9999.00","Clear","clear","0","0","0","0","0","0","METAR UKKK 222200Z 28004MPS CAVOK 06/M01 Q1010 R26/CLRD70 NOSIG"
"1:30 AM EEST on April 23, 2016","2016","04","23","01","30","Europe/Kiev","10:30 PM GMT on April 22, 2016","2016","04","22","22","30","UTC","5.0","41.0","-1.0","30.2","65","10.8","6.7","-9999.0","-9999.0","260","West","-9999.0","-9999.0","1010","29.83","2.5","36.5","-9999","-9999","-9999.00","-9999.00","Clear","clear","0","0","0","0","0","0","METAR UKKK 222230Z 26003MPS CAVOK 05/M01 Q1010 R26/CLRD70 NOSIG"
"2:00 AM EEST on April 23, 2016","2016","04","23","02","00","Europe/Kiev","11:00 PM GMT on April 22, 2016","2016","04","22","23","00","UTC","5.0","41.0","-1.0","30.2","65","7.2","4.5","-9999.0","-9999.0","250","WSW","-9999.0","-9999.0","1010","29.83","3.4","38.1","-9999","-9999","-9999.00","-9999.00","Clear","clear","0","0","0","0","0","0","METAR UKKK 222300Z 25002MPS CAVOK 05/M01 Q1010 R26/CLRD70 NOSIG"
"2:30 AM EEST on April 23, 2016","2016","04","23","02","30","Europe/Kiev","11:30 PM GMT on April 22, 2016","2016","04","22","23","30","UTC","5.0","41.0","-1.0","30.2","65","10.8","6.7","-9999.0","-9999.0","250","WSW","-9999.0","-9999.0","1011","29.86","2.5","36.5","-9999","-9999","-9999.00","-9999.00","Clear","clear","0","0","0","0","0","0","METAR UKKK 222330Z 25003MPS CAVOK 05/M01 Q1011 R26/CLRD70 NOSIG"
"3:00 AM EEST on April 23, 2016","2016","04","23","03","00","Europe/Kiev","12:00 AM GMT on April 23, 2016","2016","04","23","00","00","UTC","5","41","-1","30","55","7.2","4.5","","","270","West","20","12","1012","29.88","-999","-999","-9999","-9999","","","","","0","0","0","0","0","0","AAXX 23001 33345 32998 02702 10052 21009 39911 40116 52010 555 10002"
"3:00 AM EEST on April 23, 2016","2016","04","23","03","00","Europe/Kiev","12:00 AM GMT on April 23, 2016","2016","04","23","00","00","UTC","4.0","39.2","-1.0","30.2","70","10.8","6.7","-9999.0","-9999.0","260","West","-9999.0","-9999.0","1011","29.86","1.3","34.4","-9999","-9999","-9999.00","-9999.00","Clear","clear","0","0","0","0","0","0","METAR UKKK 230000Z 26003MPS CAVOK 04/M01 Q1011 R26/CLRD70 NOSIG"
"3:30 AM EEST on April 23, 2016","2016","04","23","03","30","Europe/Kiev","12:30 AM GMT on April 23, 2016","2016","04","23","00","30","UTC","4.0","39.2","-1.0","30.2","70","7.2","4.5","-9999.0","-9999.0","260","West","-9999.0","-9999.0","1011","29.86","2.2","36.0","-9999","-9999","-9999.00","-9999.00","Clear","clear","0","0","0","0","0","0","METAR UKKK 230030Z 26002MPS CAVOK 04/M01 Q1011 R26/CLRD70 NOSIG"
"4:00 AM EEST on April 23, 2016","2016","04","23","04","00","Europe/Kiev","1:00 AM GMT on April 23, 2016","2016","04","23","01","00","UTC","4.0","39.2","-1.0","30.2","70","7.2","4.5","-9999.0","-9999.0","240","WSW","-9999.0","-9999.0","1011","29.86","2.2","36.0","-9999","-9999","-9999.00","-9999.00","Clear","clear","0","0","0","0","0","0","METAR UKKK 230100Z 24002MPS CAVOK 04/M01 Q1011 R26/CLRD70 NOSIG"
"4:30 AM EEST on April 23, 2016","2016","04","23","04","30","Europe/Kiev","1:30 AM GMT on April 23, 2016","2016","04","23","01","30","UTC","4.0","39.2","-1.0","30.2","70","7.2","4.5","-9999.0","-9999.0","260","West","-9999.0","-9999.0","1011","29.86","2.2","36.0","-9999","-9999","-9999.00","-9999.00","Clear","clear","0","0","0","0","0","0","METAR UKKK 230130Z 26002MPS CAVOK 04/M01 Q1011 R26/CLRD70 NOSIG"
"5:00 AM EEST on April 23, 2016","2016","04","23","05","00","Europe/Kiev","2:00 AM GMT on April 23, 2016","2016","04","23","02","00","UTC","4.0","39.2","-1.0","30.2","70","10.8","6.7","-9999.0","-9999.0","260","West","-9999.0","-9999.0","1011","29.86","1.3","34.4","-9999","-9999","-9999.00","-9999.00","Clear","clear","0","0","0","0","0","0","METAR UKKK 230200Z 26003MPS CAVOK 04/M01 Q1011 R26/CLRD70 NOSIG"
"5:30 AM EEST on April 23, 2016","2016","04","23","05","30","Europe/Kiev","2:30 AM GMT on April 23, 2016","2016","04","23","02","30","UTC","3.0","37.4","-1.0","30.2","75","10.8","6.7","-9999.0","-9999.0","270","West","-9999.0","-9999.0","1011","29.86","0.1","32.2","-9999","-9999","-9999.00","-9999.00","Clear","clear","0","0","0","0","0","0","METAR UKKK 230230Z 27003MPS CAVOK 03/M01 Q1011 R26/CLRD70 NOSIG"
"6:00 AM EEST on April 23, 2016","2016","04","23","06","00","Europe/Kiev","3:00 AM GMT on April 23, 2016","2016","04","23","03","00","UTC","4","40","-1","31","59","7.2","4.5","","","310","NW","20","12","1012","29.89","-999","-999","-9999","-9999","","","","","0","0","0","0","0","0","AAXX 23031 33345 42998 03102 10044 21007 39914 40120 52003 555 10001"
"6:00 AM EEST on April 23, 2016","2016","04","23","06","00","Europe/Kiev","3:00 AM GMT on April 23, 2016","2016","04","23","03","00","UTC","3.0","37.4","-1.0","30.2","75","7.2","4.5","-9999.0","-9999.0","250","WSW","-9999.0","-9999.0","1011","29.86","1.0","33.9","-9999","-9999","-9999.00","-9999.00","Clear","clear","0","0","0","0","0","0","METAR UKKK 230300Z 25002MPS CAVOK 03/M01 Q1011 R26/CLRD70 NOSIG"
"6:30 AM EEST on April 23, 2016","2016","04","23","06","30","Europe/Kiev","3:30 AM GMT on April 23, 2016","2016","04","23","03","30","UTC","3.0","37.4","-1.0","30.2","75","10.8","6.7","-9999.0","-9999.0","270","West","-9999.0","-9999.0","1011","29.86","0.1","32.2","-9999","-9999","-9999.00","-9999.00","Clear","clear","0","0","0","0","0","0","METAR UKKK 230330Z 27003MPS CAVOK 03/M01 Q1011 R26/CLRD70 NOSIG"
"7:00 AM EEST on April 23, 2016","2016","04","23","07","00","Europe/Kiev","4:00 AM GMT on April 23, 2016","2016","04","23","04","00","UTC","3.0","37.4","-1.0","30.2","75","10.8","6.7","-9999.0","-9999.0","270","West","-9999.0","-9999.0","1011","29.86","0.1","32.2","-9999","-9999","-9999.00","-9999.00","Clear","clear","0","0","0","0","0","0","METAR UKKK 230400Z 27003MPS CAVOK 03/M01 Q1011 R26/CLRD70 NOSIG"
"7:30 AM EEST on April 23, 2016","2016","04","23","07","30","Europe/Kiev","4:30 AM GMT on April 23, 2016","2016","04","23","04","30","UTC","4.0","39.2","0.0","32.0","75","14.4","8.9","-9999.0","-9999.0","280","West","-9999.0","-9999.0","1012","29.89","0.6","33.1","-9999","-9999","-9999.00","-9999.00","Clear","clear","0","0","0","0","0","0","METAR UKKK 230430Z 28004MPS CAVOK 04/00 Q1012 R26/CLRD70 NOSIG"
"8:00 AM EEST on April 23, 2016","2016","04","23","08","00","Europe/Kiev","5:00 AM GMT on April 23, 2016","2016","04","23","05","00","UTC","6.0","42.8","1.0","33.8","70","18.0","11.2","-9999.0","-9999.0","310","NW","-9999.0","-9999.0","1012","29.89","2.6","36.7","-9999","-9999","-9999.00","-9999.00","Clear","clear","0","0","0","0","0","0","METAR UKKK 230500Z 31005MPS 280V340 CAVOK 06/01 Q1012 R26/CLRD70 NOSIG"
"8:30 AM EEST on April 23, 2016","2016","04","23","08","30","Europe/Kiev","5:30 AM GMT on April 23, 2016","2016","04","23","05","30","UTC","6.0","42.8","1.0","33.8","70","10.8","6.7","-9999.0","-9999.0","300","WNW","-9999.0","-9999.0","1012","29.89","3.7","38.7","-9999","-9999","-9999.00","-9999.00","Clear","clear","0","0","0","0","0","0","METAR UKKK 230530Z 30003MPS 280V350 CAVOK 06/01 Q1012 R26/CLRD70 NOSIG"
"9:00 AM EEST on April 23, 2016","2016","04","23","09","00","Europe/Kiev","6:00 AM GMT on April 23, 2016","2016","04","23","06","00","UTC","7","45","1","33","53","10.8","6.7","","","280","West","20","12","1013","29.91","-999","-999","-9999","-9999","","","Scattered Clouds","partlycloudy","0","0","0","0","0","0","AAXX 23061 33345 32998 22803 10073 20008 39925 40129 52011 82030 333 20041 555 10013 30001 52000"
"9:00 AM EEST on April 23, 2016","2016","04","23","09","00","Europe/Kiev","6:00 AM GMT on April 23, 2016","2016","04","23","06","00","UTC","7.0","44.6","1.0","33.8","66","14.4","8.9","-9999.0","-9999.0","310","NW","-9999.0","-9999.0","1012","29.89","4.3","39.8","-9999","-9999","-9999.00","-9999.00","Clear","clear","0","0","0","0","0","0","METAR UKKK 230600Z 31004MPS CAVOK 07/01 Q1012 R26/CLRD70 NOSIG"
"9:30 AM EEST on April 23, 2016","2016","04","23","09","30","Europe/Kiev","6:30 AM GMT on April 23, 2016","2016","04","23","06","30","UTC","8.0","46.4","2.0","35.6","66","14.4","8.9","-9999.0","-9999.0","280","West","-9999.0","-9999.0","1012","29.89","5.6","42.0","-9999","-9999","-9999.00","-9999.00","Clear","clear","0","0","0","0","0","0","METAR UKKK 230630Z 28004MPS CAVOK 08/02 Q1012 R26/CLRD70 NOSIG"
"10:00 AM EEST on April 23, 2016","2016","04","23","10","00","Europe/Kiev","7:00 AM GMT on April 23, 2016","2016","04","23","07","00","UTC","9.0","48.2","1.0","33.8","58","14.4","8.9","-9999.0","-9999.0","280","West","-9999.0","-9999.0","1012","29.89","-999","-999","-9999","-9999","-9999.00","-9999.00","Clear","clear","0","0","0","0","0","0","METAR UKKK 230700Z 28004MPS 250V340 CAVOK 09/01 Q1012 R26/CLRD70 NOSIG"
"10:30 AM EEST on April 23, 2016","2016","04","23","10","30","Europe/Kiev","7:30 AM GMT on April 23, 2016","2016","04","23","07","30","UTC","9.0","48.2","1.0","33.8","58","14.4","8.9","-9999.0","-9999.0","280","West","10.0","6.2","1012","29.89","-999","-999","-9999","-9999","-9999.00","-9999.00","Scattered Clouds","partlycloudy","0","0","0","0","0","0","METAR UKKK 230730Z 28004MPS 230V320 9999 SCT036 09/01 Q1012 R26/CLRD70 NOSIG"
"11:00 AM EEST on April 23, 2016","2016","04","23","11","00","Europe/Kiev","8:00 AM GMT on April 23, 2016","2016","04","23","08","00","UTC","9.0","48.2","0.0","32.0","54","10.8","6.7","-9999.0","-9999.0","290","WNW","10.0","6.2","1012","29.89","-999","-999","-9999","-9999","-9999.00","-9999.00","Scattered Clouds","partlycloudy","0","0","0","0","0","0","METAR UKKK 230800Z 29003MPS 230V040 9999 SCT036 09/00 Q1012 R26/CLRD70 NOSIG"
"11:30 AM EEST on April 23, 2016","2016","04","23","11","30","Europe/Kiev","8:30 AM GMT on April 23, 2016","2016","04","23","08","30","UTC","10.0","50.0","1.0","33.8","54","10.8","6.7","-9999.0","-9999.0","280","West","10.0","6.2","1012","29.89","-999","-999","-9999","-9999","-9999.00","-9999.00","Scattered Clouds","partlycloudy","0","0","0","0","0","0","METAR UKKK 230830Z 28003MPS 230V320 9999 SCT040 10/01 Q1012 R26/CLRD70 NOSIG"
"12:00 PM EEST on April 23, 2016","2016","04","23","12","00","Europe/Kiev","9:00 AM GMT on April 23, 2016","2016","04","23","09","00","UTC","11","52","-0","32","33","14.4","8.9","","","270","West","20","12","1013","29.91","-999","-999","-9999","-9999","","","Scattered Clouds","partlycloudy","0","0","0","0","0","0","AAXX 23091 33345 42698 32704 10111 21002 39926 40127 51001 82101 555 10027"
"12:00 PM EEST on April 23, 2016","2016","04","23","12","00","Europe/Kiev","9:00 AM GMT on April 23, 2016","2016","04","23","09","00","UTC","11.0","51.8","1.0","33.8","50","10.8","6.7","-9999.0","-9999.0","260","West","10.0","6.2","1012","29.89","-999","-999","-9999","-9999","-9999.00","-9999.00","Scattered Clouds","partlycloudy","0","0","0","0","0","0","METAR UKKK 230900Z 26003MPS 9999 SCT042 11/01 Q1012 R26/CLRD70 NOSIG"
"12:30 PM EEST on April 23, 2016","2016","04","23","12","30","Europe/Kiev","9:30 AM GMT on April 23, 2016","2016","04","23","09","30","UTC","11.0","51.8","0.0","32.0","47","14.4","8.9","36.0","22.4","260","West","10.0","6.2","1012","29.89","-999","-999","-9999","-9999","-9999.00","-9999.00","Scattered Clouds","partlycloudy","0","0","0","0","0","0","METAR UKKK 230930Z 26004G10MPS 180V330 9999 SCT045 11/M00 Q1012 R26/CLRD70 NOSIG"
"1:00 PM EEST on April 23, 2016","2016","04","23","13","00","Europe/Kiev","10:00 AM GMT on April 23, 2016","2016","04","23","10","00","UTC","11.0","51.8","1.0","33.8","50","10.8","6.7","-9999.0","-9999.0","290","WNW","10.0","6.2","1012","29.89","-999","-999","-9999","-9999","-9999.00","-9999.00","Scattered Clouds","partlycloudy","0","0","0","0","0","0","METAR UKKK 231000Z 29003MPS 9999 SCT045 11/01 Q1012 R26/CLRD70 NOSIG"
"1:30 PM EEST on April 23, 2016","2016","04","23","13","30","Europe/Kiev","10:30 AM GMT on April 23, 2016","2016","04","23","10","30","UTC","12.0","53.6","0.0","32.0","44","10.8","6.7","-9999.0","-9999.0","300","WNW","10.0","6.2","1012","29.89","-999","-999","-9999","-9999","-9999.00","-9999.00","Scattered Clouds","partlycloudy","0","0","0","0","0","0","METAR UKKK 231030Z 30003MPS 210V350 9999 SCT045 12/M00 Q1012 R26/CLRD70 NOSIG"
"2:00 PM EEST on April 23, 2016","2016","04","23","14","00","Europe/Kiev","11:00 AM GMT on April 23, 2016","2016","04","23","11","00","UTC","13.0","55.4","0.0","32.0","41","7.2","4.5","-9999.0","-9999.0","260","West","10.0","6.2","1012","29.89","-999","-999","-9999","-9999","-9999.00","-9999.00","Scattered Clouds","partlycloudy","0","0","0","0","0","0","METAR UKKK 231100Z 26002MPS 9999 SCT045 13/00 Q1012 R26/CLRD70 NOSIG"
"2:30 PM EEST on April 23, 2016","2016","04","23","14","30","Europe/Kiev","11:30 AM GMT on April 23, 2016","2016","04","23","11","30","UTC","12.0","53.6","-2.0","28.4","38","7.2","4.5","-9999.0","-9999.0","230","SW","-9999.0","-9999.0","1012","29.89","-999","-999","-9999","-9999","-9999.00","-9999.00","Clear","clear","0","0","0","0","0","0","METAR UKKK 231130Z 23002MPS CAVOK 12/M02 Q1012 R26/CLRD70 NOSIG"
"3:00 PM EEST on April 23, 2016","2016","04","23","15","00","Europe/Kiev","12:00 PM GMT on April 23, 2016","2016","04","23","12","00","UTC","13","56","-4","25","18","10.8","6.7","","","310","NW","20","12","1012","29.88","-999","-999","-9999","-9999","","","Scattered Clouds","partlycloudy","0","0","0","0","0","0","AAXX 23121 33345 32698 73103 10133 21039 39917 40116 58009 81009 555 10028"
"3:00 PM EEST on April 23, 2016","2016","04","23","15","00","Europe/Kiev","12:00 PM GMT on April 23, 2016","2016","04","23","12","00","UTC","13.0","55.4","-2.0","28.4","36","7.2","4.5","-9999.0","-9999.0","320","NW","-9999.0","-9999.0","1011","29.86","-999","-999","-9999","-9999","-9999.00","-9999.00","Clear","clear","0","0","0","0","0","0","METAR UKKK 231200Z 32002MPS 270V020 CAVOK 13/M02 Q1011 R26/CLRD70 NOSIG"
"3:30 PM EEST on April 23, 2016","2016","04","23","15","30","Europe/Kiev","12:30 PM GMT on April 23, 2016","2016","04","23","12","30","UTC","13.0","55.4","-1.0","30.2","38","7.2","4.5","-9999.0","-9999.0","310","NW","-9999.0","-9999.0","1011","29.86","-999","-999","-9999","-9999","-9999.00","-9999.00","Clear","clear","0","0","0","0","0","0","METAR UKKK 231230Z 31002MPS CAVOK 13/M01 Q1011 R26/CLRD70 NOSIG"
"4:00 PM EEST on April 23, 2016","2016","04","23","16","00","Europe/Kiev","1:00 PM GMT on April 23, 2016","2016","04","23","13","00","UTC","13.0","55.4","-3.0","26.6","33","7.2","4.5","-9999.0","-9999.0","250","WSW","-9999.0","-9999.0","1011","29.86","-999","-999","-9999","-9999","-9999.00","-9999.00","Clear","clear","0","0","0","0","0","0","METAR UKKK 231300Z 25002MPS 150V300 CAVOK 13/M03 Q1011 R26/CLRD70 NOSIG"
"4:30 PM EEST on April 23, 2016","2016","04","23","16","30","Europe/Kiev","1:30 PM GMT on April 23, 2016","2016","04","23","13","30","UTC","13.0","55.4","-4.0","24.8","31","3.6","2.2","-9999.0","-9999.0","0","Variable","-9999.0","-9999.0","1010","29.83","-999","-999","-9999","-9999","-9999.00","-9999.00","Clear","clear","0","0","0","0","0","0","METAR UKKK 231330Z VRB01MPS CAVOK 13/M04 Q1010 R26/CLRD70 NOSIG"
"5:00 PM EEST on April 23, 2016","2016","04","23","17","00","Europe/Kiev","2:00 PM GMT on April 23, 2016","2016","04","23","14","00","UTC","14.0","57.2","-2.0","28.4","33","7.2","4.5","-9999.0","-9999.0","260","West","-9999.0","-9999.0","1010","29.83","-999","-999","-9999","-9999","-9999.00","-9999.00","Clear","clear","0","0","0","0","0","0","METAR UKKK 231400Z 26002MPS CAVOK 14/M02 Q1010 R26/CLRD70 NOSIG"
"5:30 PM EEST on April 23, 2016","2016","04","23","17","30","Europe/Kiev","2:30 PM GMT on April 23, 2016","2016","04","23","14","30","UTC","13.0","55.4","-1.0","30.2","38","7.2","4.5","-9999.0","-9999.0","50","NE","-9999.0","-9999.0","1010","29.83","-999","-999","-9999","-9999","-9999.00","-9999.00","Clear","clear","0","0","0","0","0","0","METAR UKKK 231430Z 05002MPS 010V120 CAVOK 13/M01 Q1010 R08/CLRD70 NOSIG"
"6:00 PM EEST on April 23, 2016","2016","04","23","18","00","Europe/Kiev","3:00 PM GMT on April 23, 2016","2016","04","23","15","00","UTC","14","58","-3","27","19","3.6","2.2","","","240","WSW","20","12","1010","29.83","-999","-999","-9999","-9999","","","Mostly Cloudy","mostlycloudy","0","0","0","0","0","0","AAXX 23151 33345 42998 62401 10145 21028 39902 40100 57015 86040 555 10022"
"6:00 PM EEST on April 23, 2016","2016","04","23","18","00","Europe/Kiev","3:00 PM GMT on April 23, 2016","2016","04","23","15","00","UTC","13.0","55.4","-3.0","26.6","33","7.2","4.5","-9999.0","-9999.0","190","South","-9999.0","-9999.0","1010","29.83","-999","-999","-9999","-9999","-9999.00","-9999.00","Clear","clear","0","0","0","0","0","0","METAR UKKK 231500Z 19002MPS 120V250 CAVOK 13/M03 Q1010 R08/CLRD70 NOSIG"
"6:30 PM EEST on April 23, 2016","2016","04","23","18","30","Europe/Kiev","3:30 PM GMT on April 23, 2016","2016","04","23","15","30","UTC","13.0","55.4","-4.0","24.8","31","3.6","2.2","-9999.0","-9999.0","0","Variable","-9999.0","-9999.0","1009","29.80","-999","-999","-9999","-9999","-9999.00","-9999.00","Clear","clear","0","0","0","0","0","0","METAR UKKK 231530Z VRB01MPS CAVOK 13/M04 Q1009 R08/CLRD70 NOSIG"
"7:00 PM EEST on April 23, 2016","2016","04","23","19","00","Europe/Kiev","4:00 PM GMT on April 23, 2016","2016","04","23","16","00","UTC","13.0","55.4","-3.0","26.6","33","7.2","4.5","-9999.0","-9999.0","100","East","-9999.0","-9999.0","1009","29.80","-999","-999","-9999","-9999","-9999.00","-9999.00","Clear","clear","0","0","0","0","0","0","METAR UKKK 231600Z 10002MPS 070V140 CAVOK 13/M03 Q1009 R08/CLRD70 NOSIG"
"7:30 PM EEST on April 23, 2016","2016","04","23","19","30","Europe/Kiev","4:30 PM GMT on April 23, 2016","2016","04","23","16","30","UTC","12.0","53.6","-3.0","26.6","35","7.2","4.5","-9999.0","-9999.0","110","ESE","-9999.0","-9999.0","1009","29.80","-999","-999","-9999","-9999","-9999.00","-9999.00","Clear","clear","0","0","0","0","0","0","METAR UKKK 231630Z 11002MPS CAVOK 12/M03 Q1009 R08/CLRD70 NOSIG"
"8:00 PM EEST on April 23, 2016","2016","04","23","20","00","Europe/Kiev","5:00 PM GMT on April 23, 2016","2016","04","23","17","00","UTC","12.0","53.6","-3.0","26.6","35","10.8","6.7","-9999.0","-9999.0","120","ESE","-9999.0","-9999.0","1009","29.80","-999","-999","-9999","-9999","-9999.00","-9999.00","Clear","clear","0","0","0","0","0","0","METAR UKKK 231700Z 12003MPS CAVOK 12/M03 Q1009 R08/CLRD70 NOSIG"
"8:30 PM EEST on April 23, 2016","2016","04","23","20","30","Europe/Kiev","5:30 PM GMT on April 23, 2016","2016","04","23","17","30","UTC","11.0","51.8","-3.0","26.6","38","7.2","4.5","-9999.0","-9999.0","120","ESE","-9999.0","-9999.0","1009","29.80","-999","-999","-9999","-9999","-9999.00","-9999.00","Clear","clear","0","0","0","0","0","0","METAR UKKK 231730Z 12002MPS CAVOK 11/M03 Q1009 R08/CLRD70 NOSIG"
"9:00 PM EEST on April 23, 2016","2016","04","23","21","00","Europe/Kiev","6:00 PM GMT on April 23, 2016","2016","04","23","18","00","UTC","10","51","-1","30","33","0.0","0.0","","","","","20","12","1010","29.83","-999","-999","-9999","-9999","","","Mostly Cloudy","mostlycloudy","0","0","0","0","0","0","AAXX 23181 33345 32998 60000 10104 21009 39898 40099 56004 86040 333 10145 555 10010"
"9:00 PM EEST on April 23, 2016","2016","04","23","21","00","Europe/Kiev","6:00 PM GMT on April 23, 2016","2016","04","23","18","00","UTC","11.0","51.8","-2.0","28.4","41","10.8","6.7","-9999.0","-9999.0","120","ESE","-9999.0","-9999.0","1009","29.80","-999","-999","-9999","-9999","-9999.00","-9999.00","Clear","clear","0","0","0","0","0","0","METAR UKKK 231800Z 12003MPS CAVOK 11/M02 Q1009 R08/CLRD70 NOSIGTEXT"
"9:30 PM EEST on April 23, 2016","2016","04","23","21","30","Europe/Kiev","6:30 PM GMT on April 23, 2016","2016","04","23","18","30","UTC","11.0","51.8","-2.0","28.4","41","10.8","6.7","-9999.0","-9999.0","110","ESE","-9999.0","-9999.0","1009","29.80","-999","-999","-9999","-9999","-9999.00","-9999.00","Clear","clear","0","0","0","0","0","0","METAR UKKK 231830Z 11003MPS CAVOK 11/M02 Q1009 R08/CLRD70 NOSIG"
"10:00 PM EEST on April 23, 2016","2016","04","23","22","00","Europe/Kiev","7:00 PM GMT on April 23, 2016","2016","04","23","19","00","UTC","10.0","50.0","-2.0","28.4","43","10.8","6.7","-9999.0","-9999.0","120","ESE","-9999.0","-9999.0","1009","29.80","-999","-999","-9999","-9999","-9999.00","-9999.00","Clear","clear","0","0","0","0","0","0","METAR UKKK 231900Z 12003MPS CAVOK 10/M02 Q1009 R08/CLRD70 NOSIG"
"10:30 PM EEST on April 23, 2016","2016","04","23","22","30","Europe/Kiev","7:30 PM GMT on April 23, 2016","2016","04","23","19","30","UTC","10.0","50.0","-2.0","28.4","43","7.2","4.5","-9999.0","-9999.0","110","ESE","-9999.0","-9999.0","1009","29.80","-999","-999","-9999","-9999","-9999.00","-9999.00","Clear","clear","0","0","0","0","0","0","METAR UKKK 231930Z 11002MPS CAVOK 10/M02 Q1009 R08/CLRD70 NOSIG"
"11:00 PM EEST on April 23, 2016","2016","04","23","23","00","Europe/Kiev","8:00 PM GMT on April 23, 2016","2016","04","23","20","00","UTC","10.0","50.0","-2.0","28.4","43","10.8","6.7","-9999.0","-9999.0","120","ESE","-9999.0","-9999.0","1009","29.80","-999","-999","-9999","-9999","-9999.00","-9999.00","Clear","clear","0","0","0","0","0","0","METAR UKKK 232000Z 12003MPS CAVOK 10/M02 Q1009 R08/CLRD70 NOSIG"
"11:30 PM EEST on April 23, 2016","2016","04","23","23","30","Europe/Kiev","8:30 PM GMT on April 23, 2016","2016","04","23","20","30","UTC","10.0","50.0","-1.0","30.2","47","10.8","6.7","-9999.0","-9999.0","100","East","-9999.0","-9999.0","1009","29.80","-999","-999","-9999","-9999","-9999.00","-9999.00","Clear","clear","0","0","0","0","0","0","METAR UKKK 232030Z 10003MPS CAVOK 10/M01 Q1009 R08/CLRD70 NOSIG"
"12:00 AM EEST on April 24, 2016","2016","04","24","00","00","Europe/Kiev","9:00 PM GMT on April 23, 2016","2016","04","23","21","00","UTC","9","48","0","32","43","3.6","2.2","","","160","SSE","20","12","1010","29.82","-999","-999","-9999","-9999","","","Clear","clear","0","0","0","0","0","0","AAXX 23211 33345 42998 61601 10089 20002 39894 40096 58004 80005 555 10008"
"12:00 AM EEST on April 24, 2016","2016","04","24","00","00","Europe/Kiev","9:00 PM GMT on April 23, 2016","2016","04","23","21","00","UTC","10.0","50.0","-1.0","30.2","47","10.8","6.7","-9999.0","-9999.0","110","ESE","-9999.0","-9999.0","1009","29.80","-999","-999","-9999","-9999","-9999.00","-9999.00","Clear","clear","0","0","0","0","0","0","METAR UKKK 232100Z 11003MPS CAVOK 10/M01 Q1009 R08/CLRD70 NOSIG"
"12:30 AM EEST on April 24, 2016","2016","04","24","00","30","Europe/Kiev","9:30 PM GMT on April 23, 2016","2016","04","23","21","30","UTC","10.0","50.0","0.0","32.0","50","7.2","4.5","-9999.0","-9999.0","110","ESE","-9999.0","-9999.0","1009","29.80","-999","-999","-9999","-9999","-9999.00","-9999.00","Clear","clear","0","0","0","0","0","0","METAR UKKK 232130Z 11002MPS 090V160 CAVOK 10/M00 Q1009 R08/CLRD70 NOSIG"
"1:00 AM EEST on April 24, 2016","2016","04","24","01","00","Europe/Kiev","10:00 PM GMT on April 23, 2016","2016","04","23","22","00","UTC","9.0","48.2","1.0","33.8","58","10.8","6.7","-9999.0","-9999.0","90","East","-9999.0","-9999.0","1009","29.80","-999","-999","-9999","-9999","-9999.00","-9999.00","Clear","clear","0","0","0","0","0","0","METAR UKKK 232200Z 09003MPS CAVOK 09/01 Q1009 R08/CLRD70 NOSIG"
"1:30 AM EEST on April 24, 2016","2016","04","24","01","30","Europe/Kiev","10:30 PM GMT on April 23, 2016","2016","04","23","22","30","UTC","10.0","50.0","1.0","33.8","54","10.8","6.7","-9999.0","-9999.0","90","East","-9999.0","-9999.0","1008","29.77","-999","-999","-9999","-9999","-9999.00","-9999.00","Clear","clear","0","0","0","0","0","0","METAR UKKK 232230Z 09003MPS CAVOK 10/01 Q1008 R08/CLRD70 NOSIG"
"2:00 AM EEST on April 24, 2016","2016","04","24","02","00","Europe/Kiev","11:00 PM GMT on April 23, 2016","2016","04","23","23","00","UTC","10.0","50.0","0.0","32.0","50","14.4","8.9","-9999.0","-9999.0","110","ESE","-9999.0","-9999.0","1008","29.77","-999","-999","-9999","-9999","-9999.00","-9999.00","Clear","clear","0","0","0","0","0","0","METAR UKKK 232300Z 11004MPS CAVOK 10/00 Q1008 R08/CLRD70 NOSIG"
"2:30 AM EEST on April 24, 2016","2016","04","24","02","30","Europe/Kiev","11:30 PM GMT on April 23, 2016","2016","04","23","23","30","UTC","10.0","50.0","0.0","32.0","50","14.4","8.9","-9999.0","-9999.0","100","East","-9999.0","-9999.0","1008","29.77","-999","-999","-9999","-9999","-9999.00","-9999.00","Clear","clear","0","0","0","0","0","0","METAR UKKK 232330Z 10004MPS CAVOK 10/00 Q1008 R08/CLRD70 NOSIG"
"3:00 AM EEST on April 24, 2016","2016","04","24","03","00","Europe/Kiev","12:00 AM GMT on April 24, 2016","2016","04","24","00","00","UTC","10","49","0","33","41","7.2","4.5","","","100","East","20","12","1008","29.78","-999","-999","-9999","-9999","","","Mostly Cloudy","mostlycloudy","0","0","0","0","0","0","AAXX 24001 33345 32998 71002 10095 20004 39882 40083 57012 87070 555 10008"
"3:00 AM EEST on April 24, 2016","2016","04","24","03","00","Europe/Kiev","12:00 AM GMT on April 24, 2016","2016","04","24","00","00","UTC","10.0","50.0","0.0","32.0","50","18.0","11.2","-9999.0","-9999.0","100","East","-9999.0","-9999.0","1007","29.74","-999","-999","-9999","-9999","-9999.00","-9999.00","Clear","clear","0","0","0","0","0","0","METAR UKKK 240000Z 10005MPS CAVOK 10/00 Q1007 R08/CLRD70 NOSIG"
"3:30 AM EEST on April 24, 2016","2016","04","24","03","30","Europe/Kiev","12:30 AM GMT on April 24, 2016","2016","04","24","00","30","UTC","10.0","50.0","0.0","32.0","50","18.0","11.2","-9999.0","-9999.0","100","East","-9999.0","-9999.0","1007","29.74","-999","-999","-9999","-9999","-9999.00","-9999.00","Clear","clear","0","0","0","0","0","0","METAR UKKK 240030Z 10005MPS CAVOK 10/00 Q1007 R08/CLRD70 NOSIG"
"4:00 AM EEST on April 24, 2016","2016","04","24","04","00","Europe/Kiev","1:00 AM GMT on April 24, 2016","2016","04","24","01","00","UTC","10.0","50.0","0.0","32.0","50","18.0","11.2","-9999.0","-9999.0","100","East","-9999.0","-9999.0","1007","29.74","-999","-999","-9999","-9999","-9999.00","-9999.00","Clear","clear","0","0","0","0","0","0","METAR UKKK 240100Z 10005MPS CAVOK 10/00 Q1007 R08/CLRD70 NOSIG"
"4:30 AM EEST on April 24, 2016","2016","04","24","04","30","Europe/Kiev","1:30 AM GMT on April 24, 2016","2016","04","24","01","30","UTC","9.0","48.2","0.0","32.0","54","18.0","11.2","-9999.0","-9999.0","100","East","10.0","6.2","1006","29.71","-999","-999","-9999","-9999","-9999.00","-9999.00","Overcast","cloudy","0","0","0","0","0","0","METAR UKKK 240130Z 10005MPS 9999 OVC041 09/00 Q1006 R08/CLRD70 NOSIG"
"5:00 AM EEST on April 24, 2016","2016","04","24","05","00","Europe/Kiev","2:00 AM GMT on April 24, 2016","2016","04","24","02","00","UTC","9.0","48.2","1.0","33.8","58","18.0","11.2","-9999.0","-9999.0","100","East","10.0","6.2","1006","29.71","-999","-999","-9999","-9999","-9999.00","-9999.00","Mostly Cloudy","mostlycloudy","0","0","0","0","0","0","METAR UKKK 240200Z 10005MPS 9999 BKN048 09/01 Q1006 R08/CLRD70 NOSIG"
"5:30 AM EEST on April 24, 2016","2016","04","24","05","30","Europe/Kiev","2:30 AM GMT on April 24, 2016","2016","04","24","02","30","UTC","9.0","48.2","1.0","33.8","58","18.0","11.2","-9999.0","-9999.0","100","East","10.0","6.2","1006","29.71","-999","-999","-9999","-9999","-9999.00","-9999.00","Scattered Clouds","partlycloudy","0","0","0","0","0","0","METAR UKKK 240230Z 10005MPS 9999 SCT049 09/01 Q1006 R08/CLRD70 NOSIG"
"6:00 AM EEST on April 24, 2016","2016","04","24","06","00","Europe/Kiev","3:00 AM GMT on April 24, 2016","2016","04","24","03","00","UTC","8","47","1","34","50","7.2","4.5","","","100","East","20","12","1007","29.73","-999","-999","-9999","-9999","","","Mostly Cloudy","mostlycloudy","0","0","0","0","0","0","AAXX 24031 33345 42998 71002 10081 20013 39865 40067 57017 87070 555 10006"
"6:00 AM EEST on April 24, 2016","2016","04","24","06","00","Europe/Kiev","3:00 AM GMT on April 24, 2016","2016","04","24","03","00","UTC","8.0","46.4","1.0","33.8","62","18.0","11.2","-9999.0","-9999.0","100","East","-9999.0","-9999.0","1006","29.71","5.1","41.2","-9999","-9999","-9999.00","-9999.00","Clear","clear","0","0","0","0","0","0","METAR UKKK 240300Z 10005MPS CAVOK 08/01 Q1006 R08/CLRD70 NOSIG"
"6:30 AM EEST on April 24, 2016","2016","04","24","06","30","Europe/Kiev","3:30 AM GMT on April 24, 2016","2016","04","24","03","30","UTC","8.0","46.4","1.0","33.8","62","18.0","11.2","-9999.0","-9999.0","100","East","-9999.0","-9999.0","1006","29.71","5.1","41.2","-9999","-9999","-9999.00","-9999.00","Clear","clear","0","0","0","0","0","0","METAR UKKK 240330Z 10005MPS CAVOK 08/01 Q1006 R08/CLRD70 NOSIG"
"7:00 AM EEST on April 24, 2016","2016","04","24","07","00","Europe/Kiev","4:00 AM GMT on April 24, 2016","2016","04","24","04","00","UTC","9.0","48.2","2.0","35.6","62","18.0","11.2","-9999.0","-9999.0","100","East","-9999.0","-9999.0","1005","29.68","-999","-999","-9999","-9999","-9999.00","-9999.00","Clear","clear","0","0","0","0","0","0","METAR UKKK 240400Z 10005MPS CAVOK 09/02 Q1005 R08/CLRD70 NOSIG"
"7:30 AM EEST on April 24, 2016","2016","04","24","07","30","Europe/Kiev","4:30 AM GMT on April 24, 2016","2016","04","24","04","30","UTC","9.0","48.2","2.0","35.6","62","21.6","13.4","-9999.0","-9999.0","110","ESE","-9999.0","-9999.0","1005","29.68","-999","-999","-9999","-9999","-9999.00","-9999.00","Clear","clear","0","0","0","0","0","0","METAR UKKK 240430Z 11006MPS CAVOK 09/02 Q1005 R08/CLRD70 NOSIG"
"8:00 AM EEST on April 24, 2016","2016","04","24","08","00","Europe/Kiev","5:00 AM GMT on April 24, 2016","2016","04","24","05","00","UTC","10.0","50.0","2.0","35.6","58","14.4","8.9","-9999.0","-9999.0","120","ESE","-9999.0","-9999.0","1005","29.68","-999","-999","-9999","-9999","-9999.00","-9999.00","Clear","clear","0","0","0","0","0","0","METAR UKKK 240500Z 12004MPS 100V170 CAVOK 10/02 Q1005 R08/CLRD70 NOSIG"
"8:30 AM EEST on April 24, 2016","2016","04","24","08","30","Europe/Kiev","5:30 AM GMT on April 24, 2016","2016","04","24","05","30","UTC","11.0","51.8","2.0","35.6","54","14.4","8.9","-9999.0","-9999.0","130","SE","-9999.0","-9999.0","1005","29.68","-999","-999","-9999","-9999","-9999.00","-9999.00","Clear","clear","0","0","0","0","0","0","METAR UKKK 240530Z 13004MPS CAVOK 11/02 Q1005 R08/CLRD70 NOSIG"
"9:00 AM EEST on April 24, 2016","2016","04","24","09","00","Europe/Kiev","6:00 AM GMT on April 24, 2016","2016","04","24","06","00","UTC","11","51","3","37","48","10.8","6.7","","","150","SSE","20","12","1006","29.70","-999","-999","-9999","-9999","","","Mostly Cloudy","mostlycloudy","0","0","0","0","0","0","AAXX 24061 33345 32998 71503 10106 20028 39855 40055 57010 87070 333 20080 555 10014"
"9:00 AM EEST on April 24, 2016","2016","04","24","09","00","Europe/Kiev","6:00 AM GMT on April 24, 2016","2016","04","24","06","00","UTC","11.0","51.8","2.0","35.6","54","14.4","8.9","-9999.0","-9999.0","140","SE","-9999.0","-9999.0","1005","29.68","-999","-999","-9999","-9999","-9999.00","-9999.00","Clear","clear","0","0","0","0","0","0","METAR UKKK 240600Z 14004MPS 100V180 CAVOK 11/02 Q1005 R08/CLRD70 NOSIG"
"9:30 AM EEST on April 24, 2016","2016","04","24","09","30","Europe/Kiev","6:30 AM GMT on April 24, 2016","2016","04","24","06","30","UTC","12.0","53.6","3.0","37.4","54","18.0","11.2","-9999.0","-9999.0","130","SE","-9999.0","-9999.0","1004","29.65","-999","-999","-9999","-9999","-9999.00","-9999.00","Clear","clear","0","0","0","0","0","0","METAR UKKK 240630Z 13005MPS 100V160 CAVOK 12/03 Q1004 R08/CLRD70 NOSIG"
"10:00 AM EEST on April 24, 2016","2016","04","24","10","00","Europe/Kiev","7:00 AM GMT on April 24, 2016","2016","04","24","07","00","UTC","13.0","55.4","3.0","37.4","51","14.4","8.9","-9999.0","-9999.0","130","SE","-9999.0","-9999.0","1004","29.65","-999","-999","-9999","-9999","-9999.00","-9999.00","Clear","clear","0","0","0","0","0","0","METAR UKKK 240700Z 13004MPS CAVOK 13/03 Q1004 R08/CLRD70 NOSIG"
"10:30 AM EEST on April 24, 2016","2016","04","24","10","30","Europe/Kiev","7:30 AM GMT on April 24, 2016","2016","04","24","07","30","UTC","14.0","57.2","3.0","37.4","48","14.4","8.9","-9999.0","-9999.0","130","SE","-9999.0","-9999.0","1004","29.65","-999","-999","-9999","-9999","-9999.00","-9999.00","Clear","clear","0","0","0","0","0","0","METAR UKKK 240730Z 13004MPS 090V190 CAVOK 14/03 Q1004 R08/CLRD70 NOSIG"
"11:00 AM EEST on April 24, 2016","2016","04","24","11","00","Europe/Kiev","8:00 AM GMT on April 24, 2016","2016","04","24","08","00","UTC","15.0","59.0","4.0","39.2","48","14.4","8.9","-9999.0","-9999.0","120","ESE","-9999.0","-9999.0","1004","29.65","-999","-999","-9999","-9999","-9999.00","-9999.00","Clear","clear","0","0","0","0","0","0","METAR UKKK 240800Z 12004MPS 090V170 CAVOK 15/04 Q1004 R08/CLRD70 NOSIG"
"11:30 AM EEST on April 24, 2016","2016","04","24","11","30","Europe/Kiev","8:30 AM GMT on April 24, 2016","2016","04","24","08","30","UTC","16.0","60.8","4.0","39.2","45","14.4","8.9","-9999.0","-9999.0","140","SE","-9999.0","-9999.0","1004","29.65","-999","-999","-9999","-9999","-9999.00","-9999.00","Clear","clear","0","0","0","0","0","0","METAR UKKK 240830Z 14004MPS 090V260 CAVOK 16/04 Q1004 R08/CLRD70 NOSIG"
"12:00 PM EEST on April 24, 2016","2016","04","24","12","00","Europe/Kiev","9:00 AM GMT on April 24, 2016","2016","04","24","09","00","UTC","17","63","6","43","37","14.4","8.9","","","140","SE","20","12","1004","29.65","-999","-999","-9999","-9999","","","Partly Cloudy","partlycloudy","0","0","0","0","0","0","AAXX 24091 33345 42998 71404 10173 20062 39846 40041 57009 84019 555 10028"
"12:00 PM EEST on April 24, 2016","2016","04","24","12","00","Europe/Kiev","9:00 AM GMT on April 24, 2016","2016","04","24","09","00","UTC","17.0","62.6","4.0","39.2","42","18.0","11.2","-9999.0","-9999.0","150","SSE","-9999.0","-9999.0","1004","29.65","-999","-999","-9999","-9999","-9999.00","-9999.00","Clear","clear","0","0","0","0","0","0","METAR UKKK 240900Z 15005MPS 100V210 CAVOK 17/04 Q1004 R08/CLRD70 NOSIG"
"12:30 PM EEST on April 24, 2016","2016","04","24","12","30","Europe/Kiev","9:30 AM GMT on April 24, 2016","2016","04","24","09","30","UTC","17.0","62.6","5.0","41.0","45","18.0","11.2","-9999.0","-9999.0","120","ESE","-9999.0","-9999.0","1004","29.65","-999","-999","-9999","-9999","-9999.00","-9999.00","Clear","clear","0","0","0","0","0","0","METAR UKKK 240930Z 12005MPS 090V160 CAVOK 17/05 Q1004 R08/CLRD70 NOSIG"
"1:00 PM EEST on April 24, 2016","2016","04","24","13","00","Europe/Kiev","10:00 AM GMT on April 24, 2016","2016","04","24","10","00","UTC","18.0","64.4","1.0","33.8","32","14.4","8.9","-9999.0","-9999.0","140","SE","-9999.0","-9999.0","1003","29.62","-999","-999","-9999","-9999","-9999.00","-9999.00","Clear","clear","0","0","0","0","0","0","METAR UKKK 241000Z 14004MPS 120V210 CAVOK 18/01 Q1003 R08/CLRD70 NOSIG"
"1:30 PM EEST on April 24, 2016","2016","04","24","13","30","Europe/Kiev","10:30 AM GMT on April 24, 2016","2016","04","24","10","30","UTC","18.0","64.4","1.0","33.8","32","14.4","8.9","-9999.0","-9999.0","160","SSE","-9999.0","-9999.0","1003","29.62","-999","-999","-9999","-9999","-9999.00","-9999.00","Clear","clear","0","0","0","0","0","0","METAR UKKK 241030Z 16004MPS 090V230 CAVOK 18/01 Q1003 R08/CLRD70 NOSIG"
"2:00 PM EEST on April 24, 2016","2016","04","24","14","00","Europe/Kiev","11:00 AM GMT on April 24, 2016","2016","04","24","11","00","UTC","18.0","64.4","1.0","33.8","32","18.0","11.2","-9999.0","-9999.0","150","SSE","-9999.0","-9999.0","1003","29.62","-999","-999","-9999","-9999","-9999.00","-9999.00","Clear","clear","0","0","0","0","0","0","METAR UKKK 241100Z 15005MPS 120V220 CAVOK 18/01 Q1003 R08/CLRD70 NOSIG"
"2:30 PM EEST on April 24, 2016","2016","04","24","14","30","Europe/Kiev","11:30 AM GMT on April 24, 2016","2016","04","24","11","30","UTC","19.0","66.2","2.0","35.6","32","14.4","8.9","-9999.0","-9999.0","160","SSE","-9999.0","-9999.0","1003","29.62","-999","-999","-9999","-9999","-9999.00","-9999.00","Clear","clear","0","0","0","0","0","0","METAR UKKK 241130Z 16004MPS 100V220 CAVOK 19/02 Q1003 R08/CLRD70 NOSIG"
"3:00 PM EEST on April 24, 2016","2016","04","24","15","00","Europe/Kiev","12:00 PM GMT on April 24, 2016","2016","04","24","12","00","UTC","20","67","3","38","23","14.4","8.9","","","150","SSE","20","12","1002","29.61","-999","-999","-9999","-9999","","","Partly Cloudy","partlycloudy","0","0","0","0","0","0","AAXX 24121 33345 32698 61504 10196 20032 39832 40025 57014 83815 555 10030"
"3:00 PM EEST on April 24, 2016","2016","04","24","15","00","Europe/Kiev","12:00 PM GMT on April 24, 2016","2016","04","24","12","00","UTC","18.0","64.4","3.0","37.4","37","18.0","11.2","-9999.0","-9999.0","150","SSE","-9999.0","-9999.0","1002","29.59","-999","-999","-9999","-9999","-9999.00","-9999.00","Clear","clear","0","0","0","0","0","0","METAR UKKK 241200Z 15005MPS 110V200 CAVOK 18/03 Q1002 R08/CLRD70 NOSIG"
"3:30 PM EEST on April 24, 2016","2016","04","24","15","30","Europe/Kiev","12:30 PM GMT on April 24, 2016","2016","04","24","12","30","UTC","19.0","66.2","3.0","37.4","35","18.0","11.2","-9999.0","-9999.0","140","SE","-9999.0","-9999.0","1002","29.59","-999","-999","-9999","-9999","-9999.00","-9999.00","Clear","clear","0","0","0","0","0","0","METAR UKKK 241230Z 14005MPS 110V190 CAVOK 19/03 Q1002 R08/CLRD70 NOSIG"
"4:00 PM EEST on April 24, 2016","2016","04","24","16","00","Europe/Kiev","1:00 PM GMT on April 24, 2016","2016","04","24","13","00","UTC","19.0","66.2","3.0","37.4","35","14.4","8.9","-9999.0","-9999.0","150","SSE","-9999.0","-9999.0","1002","29.59","-999","-999","-9999","-9999","-9999.00","-9999.00","Clear","clear","0","0","0","0","0","0","METAR UKKK 241300Z 15004MPS 110V210 CAVOK 19/03 Q1002 R08/CLRD70 NOSIG"
"4:30 PM EEST on April 24, 2016","2016","04","24","16","30","Europe/Kiev","1:30 PM GMT on April 24, 2016","2016","04","24","13","30","UTC","20.0","68.0","3.0","37.4","33","14.4","8.9","-9999.0","-9999.0","150","SSE","-9999.0","-9999.0","1002","29.59","-999","-999","-9999","-9999","-9999.00","-9999.00","Clear","clear","0","0","0","0","0","0","METAR UKKK 241330Z 15004MPS 120V220 CAVOK 20/03 Q1002 R08/CLRD70 NOSIG"
"5:00 PM EEST on April 24, 2016","2016","04","24","17","00","Europe/Kiev","2:00 PM GMT on April 24, 2016","2016","04","24","14","00","UTC","19.0","66.2","4.0","39.2","37","18.0","11.2","-9999.0","-9999.0","120","ESE","-9999.0","-9999.0","1001","29.56","-999","-999","-9999","-9999","-9999.00","-9999.00","Clear","clear","0","0","0","0","0","0","METAR UKKK 241400Z 12005MPS 100V160 CAVOK 19/04 Q1001 R08/CLRD70 NOSIG"
"5:30 PM EEST on April 24, 2016","2016","04","24","17","30","Europe/Kiev","2:30 PM GMT on April 24, 2016","2016","04","24","14","30","UTC","19.0","66.2","4.0","39.2","37","18.0","11.2","36.0","22.4","130","SE","-9999.0","-9999.0","1001","29.56","-999","-999","-9999","-9999","-9999.00","-9999.00","Clear","clear","0","0","0","0","0","0","METAR UKKK 241430Z 13005G10MPS 100V160 CAVOK 19/04 Q1001 R08/CLRD70 NOSIG"
"6:00 PM EEST on April 24, 2016","2016","04","24","18","00","Europe/Kiev","3:00 PM GMT on April 24, 2016","2016","04","24","15","00","UTC","19","65","3","38","25","10.8","6.7","","","160","SSE","20","12","1001","29.57","-999","-999","-9999","-9999","","","Partly Cloudy","partlycloudy","0","0","0","0","0","0","AAXX 24151 33345 42698 71603 10186 20031 39820 40014 57012 83816 555 10022"
"6:00 PM EEST on April 24, 2016","2016","04","24","18","00","Europe/Kiev","3:00 PM GMT on April 24, 2016","2016","04","24","15","00","UTC","19.0","66.2","4.0","39.2","37","14.4","8.9","32.4","20.1","140","SE","-9999.0","-9999.0","1001","29.56","-999","-999","-9999","-9999","-9999.00","-9999.00","Clear","clear","0","0","0","0","0","0","METAR UKKK 241500Z 14004G09MPS 110V180 CAVOK 19/04 Q1001 R08/CLRD70 NOSIG"
"6:30 PM EEST on April 24, 2016","2016","04","24","18","30","Europe/Kiev","3:30 PM GMT on April 24, 2016","2016","04","24","15","30","UTC","18.0","64.4","4.0","39.2","40","18.0","11.2","-9999.0","-9999.0","130","SE","-9999.0","-9999.0","1001","29.56","-999","-999","-9999","-9999","-9999.00","-9999.00","Clear","clear","0","0","0","0","0","0","METAR UKKK 241530Z 13005MPS 100V160 CAVOK 18/04 Q1001 R08/CLRD70 NOSIG"
"7:00 PM EEST on April 24, 2016","2016","04","24","19","00","Europe/Kiev","4:00 PM GMT on April 24, 2016","2016","04","24","16","00","UTC","18.0","64.4","4.0","39.2","40","18.0","11.2","-9999.0","-9999.0","130","SE","-9999.0","-9999.0","1001","29.56","-999","-999","-9999","-9999","-9999.00","-9999.00","Clear","clear","0","0","0","0","0","0","METAR UKKK 241600Z 13005MPS 090V170 CAVOK 18/04 Q1001 R08/CLRD70 NOSIG"
"7:30 PM EEST on April 24, 2016","2016","04","24","19","30","Europe/Kiev","4:30 PM GMT on April 24, 2016","2016","04","24","16","30","UTC","17.0","62.6","3.0","37.4","39","21.6","13.4","-9999.0","-9999.0","130","SE","-9999.0","-9999.0","1001","29.56","-999","-999","-9999","-9999","-9999.00","-9999.00","Clear","clear","0","0","0","0","0","0","METAR UKKK 241630Z 13006MPS CAVOK 17/03 Q1001 R08/CLRD70 NOSIG"
"8:00 PM EEST on April 24, 2016","2016","04","24","20","00","Europe/Kiev","5:00 PM GMT on April 24, 2016","2016","04","24","17","00","UTC","16.0","60.8","4.0","39.2","45","18.0","11.2","-9999.0","-9999.0","130","SE","-9999.0","-9999.0","1002","29.59","-999","-999","-9999","-9999","-9999.00","-9999.00","Clear","clear","0","0","0","0","0","0","METAR UKKK 241700Z 13005MPS 090V180 CAVOK 16/04 Q1002 R08/CLRD70 NOSIG"
"8:30 PM EEST on April 24, 2016","2016","04","24","20","30","Europe/Kiev","5:30 PM GMT on April 24, 2016","2016","04","24","17","30","UTC","15.0","59.0","3.0","37.4","45","18.0","11.2","-9999.0","-9999.0","130","SE","-9999.0","-9999.0","1002","29.59","-999","-999","-9999","-9999","-9999.00","-9999.00","Clear","clear","0","0","0","0","0","0","METAR UKKK 241730Z 13005MPS 110V170 CAVOK 15/03 Q1002 R08/CLRD70 NOSIG"
"9:00 PM EEST on April 24, 2016","2016","04","24","21","00","Europe/Kiev","6:00 PM GMT on April 24, 2016","2016","04","24","18","00","UTC","14","58","4","39","37","7.2","4.5","","","140","SE","20","12","1003","29.61","-999","-999","-9999","-9999","","","Partly Cloudy","partlycloudy","0","0","0","0","0","0","AAXX 24181 33345 32998 51402 10142 20038 39830 40027 53010 83015 333 10203 555 10011"
"9:00 PM EEST on April 24, 2016","2016","04","24","21","00","Europe/Kiev","6:00 PM GMT on April 24, 2016","2016","04","24","18","00","UTC","15.0","59.0","4.0","39.2","48","14.4","8.9","-9999.0","-9999.0","130","SE","-9999.0","-9999.0","1002","29.59","-999","-999","-9999","-9999","-9999.00","-9999.00","Clear","clear","0","0","0","0","0","0","METAR UKKK 241800Z 13004MPS CAVOK 15/04 Q1002 R08/CLRD70 NOSIG"
"9:30 PM EEST on April 24, 2016","2016","04","24","21","30","Europe/Kiev","6:30 PM GMT on April 24, 2016","2016","04","24","18","30","UTC","14.0","57.2","4.0","39.2","51","14.4","8.9","-9999.0","-9999.0","120","ESE","-9999.0","-9999.0","1002","29.59","-999","-999","-9999","-9999","-9999.00","-9999.00","Clear","clear","0","0","0","0","0","0","METAR UKKK 241830Z 12004MPS CAVOK 14/04 Q1002 R08/CLRD70 NOSIG"
"10:00 PM EEST on April 24, 2016","2016","04","24","22","00","Europe/Kiev","7:00 PM GMT on April 24, 2016","2016","04","24","19","00","UTC","14.0","57.2","4.0","39.2","51","18.0","11.2","-9999.0","-9999.0","120","ESE","-9999.0","-9999.0","1002","29.59","-999","-999","-9999","-9999","-9999.00","-9999.00","Clear","clear","0","0","0","0","0","0","METAR UKKK 241900Z 12005MPS CAVOK 14/04 Q1002 R08/CLRD70 NOSIG"
"10:30 PM EEST on April 24, 2016","2016","04","24","22","30","Europe/Kiev","7:30 PM GMT on April 24, 2016","2016","04","24","19","30","UTC","13.0","55.4","5.0","41.0","58","14.4","8.9","-9999.0","-9999.0","110","ESE","-9999.0","-9999.0","1002","29.59","-999","-999","-9999","-9999","-9999.00","-9999.00","Clear","clear","0","0","0","0","0","0","METAR UKKK 241930Z 11004MPS CAVOK 13/05 Q1002 R08/CLRD70 NOSIG"
"11:00 PM EEST on April 24, 2016","2016","04","24","23","00","Europe/Kiev","8:00 PM GMT on April 24, 2016","2016","04","24","20","00","UTC","13.0","55.4","5.0","41.0","58","18.0","11.2","-9999.0","-9999.0","110","ESE","-9999.0","-9999.0","1002","29.59","-999","-999","-9999","-9999","-9999.00","-9999.00","Clear","clear","0","0","0","0","0","0","METAR UKKK 242000Z 11005MPS CAVOK 13/05 Q1002 R08/CLRD70 NOSIG"
"11:30 PM EEST on April 24, 2016","2016","04","24","23","30","Europe/Kiev","8:30 PM GMT on April 24, 2016","2016","04","24","20","30","UTC","12.0","53.6","5.0","41.0","62","18.0","11.2","-9999.0","-9999.0","110","ESE","-9999.0","-9999.0","1002","29.59","-999","-999","-9999","-9999","-9999.00","-9999.00","Clear","clear","0","0","0","0","0","0","METAR UKKK 242030Z 11005MPS CAVOK 12/05 Q1002 R08/CLRD70 NOSIG"
"12:00 AM EEST on April 25, 2016","2016","04","25","00","00","Europe/Kiev","9:00 PM GMT on April 24, 2016","2016","04","24","21","00","UTC","11","51","6","42","63","3.6","2.2","","","150","SSE","20","12","1002","29.60","-999","-999","-9999","-9999","","","Clear","clear","0","0","0","0","0","0","AAXX 24211 33345 42998 51501 10108 20057 39825 40024 58005 80006 555 10008"
"12:00 AM EEST on April 25, 2016","2016","04","25","00","00","Europe/Kiev","9:00 PM GMT on April 24, 2016","2016","04","24","21","00","UTC","12.0","53.6","6.0","42.8","67","18.0","11.2","-9999.0","-9999.0","100","East","-9999.0","-9999.0","1002","29.59","-999","-999","-9999","-9999","-9999.00","-9999.00","Clear","clear","0","0","0","0","0","0","METAR UKKK 242100Z 10005MPS CAVOK 12/06 Q1002 R08/CLRD70 NOSIG"
"12:30 AM EEST on April 25, 2016","2016","04","25","00","30","Europe/Kiev","9:30 PM GMT on April 24, 2016","2016","04","24","21","30","UTC","11.0","51.8","6.0","42.8","71","14.4","8.9","-9999.0","-9999.0","110","ESE","-9999.0","-9999.0","1002","29.59","-999","-999","-9999","-9999","-9999.00","-9999.00","Clear","clear","0","0","0","0","0","0","METAR UKKK 242130Z 11004MPS CAVOK 11/06 Q1002 R08/CLRD70 NOSIG"
"1:00 AM EEST on April 25, 2016","2016","04","25","01","00","Europe/Kiev","10:00 PM GMT on April 24, 2016","2016","04","24","22","00","UTC","10.0","50.0","6.0","42.8","76","14.4","8.9","-9999.0","-9999.0","100","East","-9999.0","-9999.0","1001","29.56","-999","-999","-9999","-9999","-9999.00","-9999.00","Clear","clear","0","0","0","0","0","0","METAR UKKK 242200Z 10004MPS CAVOK 10/06 Q1001 R08/CLRD70 NOSIG"
"1:30 AM EEST on April 25, 2016","2016","04","25","01","30","Europe/Kiev","10:30 PM GMT on April 24, 2016","2016","04","24","22","30","UTC","10.0","50.0","6.0","42.8","76","14.4","8.9","-9999.0","-9999.0","100","East","-9999.0","-9999.0","1001","29.56","-999","-999","-9999","-9999","-9999.00","-9999.00","Clear","clear","0","0","0","0","0","0","METAR UKKK 242230Z 10004MPS CAVOK 10/06 Q1001 R08/CLRD70 NOSIG"
"2:00 AM EEST on April 25, 2016","2016","04","25","02","00","Europe/Kiev","11:00 PM GMT on April 24, 2016","2016","04","24","23","00","UTC","8.0","46.4","6.0","42.8","87","10.8","6.7","-9999.0","-9999.0","100","East","-9999.0","-9999.0","1001","29.56","6.1","43.0","-9999","-9999","-9999.00","-9999.00","Clear","clear","0","0","0","0","0","0","METAR UKKK 242300Z 10003MPS CAVOK 08/06 Q1001 R08/CLRD70 NOSIG"
"2:30 AM EEST on April 25, 2016","2016","04","25","02","30","Europe/Kiev","11:30 PM GMT on April 24, 2016","2016","04","24","23","30","UTC","7.0","44.6","5.0","41.0","87","10.8","6.7","-9999.0","-9999.0","80","East","-9999.0","-9999.0","1001","29.56","4.9","40.8","-9999","-9999","-9999.00","-9999.00","Clear","clear","0","0","0","0","0","0","METAR UKKK 242330Z 08003MPS CAVOK 07/05 Q1001 R08/CLRD70 NOSIG"
"3:00 AM EEST on April 25, 2016","2016","04","25","03","00","Europe/Kiev","12:00 AM GMT on April 25, 2016","2016","04","25","00","00","UTC","9","48","6","43","77","3.6","2.2","","","90","East","10","6","1001","29.57","-999","-999","-9999","-9999","","","Clear","clear","0","0","0","0","0","0","AAXX 25001 33345 32997 30901 10090 20062 39813 40013 57012 80004 555 10006"
"3:00 AM EEST on April 25, 2016","2016","04","25","03","00","Europe/Kiev","12:00 AM GMT on April 25, 2016","2016","04","25","00","00","UTC","7.0","44.6","6.0","42.8","93","10.8","6.7","-9999.0","-9999.0","80","East","-9999.0","-9999.0","1001","29.56","4.9","40.8","-9999","-9999","-9999.00","-9999.00","Clear","clear","0","0","0","0","0","0","METAR UKKK 250000Z 08003MPS CAVOK 07/06 Q1001 R08/CLRD70 NOSIG"
"3:30 AM EEST on April 25, 2016","2016","04","25","03","30","Europe/Kiev","12:30 AM GMT on April 25, 2016","2016","04","25","00","30","UTC","8.0","46.4","6.0","42.8","87","10.8","6.7","-9999.0","-9999.0","90","East","-9999.0","-9999.0","1000","29.53","6.1","43.0","-9999","-9999","-9999.00","-9999.00","Clear","clear","0","0","0","0","0","0","METAR UKKK 250030Z 09003MPS CAVOK 08/06 Q1000 R08/CLRD70 NOSIG"
"4:00 AM EEST on April 25, 2016","2016","04","25","04","00","Europe/Kiev","1:00 AM GMT on April 25, 2016","2016","04","25","01","00","UTC","8.0","46.4","6.0","42.8","87","10.8","6.7","-9999.0","-9999.0","90","East","-9999.0","-9999.0","1000","29.53","6.1","43.0","-9999","-9999","-9999.00","-9999.00","Clear","clear","0","0","0","0","0","0","METAR UKKK 250100Z 09003MPS CAVOK 08/06 Q1000 R08/CLRD70 NOSIG"
"4:30 AM EEST on April 25, 2016","2016","04","25","04","30","Europe/Kiev","1:30 AM GMT on April 25, 2016","2016","04","25","01","30","UTC","6.0","42.8","5.0","41.0","93","10.8","6.7","-9999.0","-9999.0","90","East","-9999.0","-9999.0","1000","29.53","3.7","38.7","-9999","-9999","-9999.00","-9999.00","Clear","clear","0","0","0","0","0","0","METAR UKKK 250130Z 09003MPS CAVOK 06/05 Q1000 R08/CLRD70 NOSIG"
"5:00 AM EEST on April 25, 2016","2016","04","25","05","00","Europe/Kiev","2:00 AM GMT on April 25, 2016","2016","04","25","02","00","UTC","8.0","46.4","6.0","42.8","87","7.2","4.5","-9999.0","-9999.0","90","East","-9999.0","-9999.0","1000","29.53","6.9","44.4","-9999","-9999","-9999.00","-9999.00","Clear","clear","0","0","0","0","0","0","METAR UKKK 250200Z 09002MPS CAVOK 08/06 Q1000 R08/CLRD70 NOSIG"
"5:30 AM EEST on April 25, 2016","2016","04","25","05","30","Europe/Kiev","2:30 AM GMT on April 25, 2016","2016","04","25","02","30","UTC","6.0","42.8","5.0","41.0","93","7.2","4.5","-9999.0","-9999.0","90","East","-9999.0","-9999.0","1000","29.53","4.5","40.2","-9999","-9999","-9999.00","-9999.00","Clear","clear","0","0","0","0","0","0","METAR UKKK 250230Z 09002MPS CAVOK 06/05 Q1000 R08/CLRD70 NOSIG"
"6:00 AM EEST on April 25, 2016","2016","04","25","06","00","Europe/Kiev","3:00 AM GMT on April 25, 2016","2016","04","25","03","00","UTC","8","47","6","42","79","3.6","2.2","","","40","NE","10","6","1000","29.54","-999","-999","-9999","-9999","","","Partly Cloudy","partlycloudy","0","0","0","0","0","0","AAXX 25031 33345 42997 60401 10084 20058 39803 40003 57010 83074 555 10005"
"6:00 AM EEST on April 25, 2016","2016","04","25","06","00","Europe/Kiev","3:00 AM GMT on April 25, 2016","2016","04","25","03","00","UTC","6.0","42.8","5.0","41.0","93","10.8","6.7","-9999.0","-9999.0","80","East","-9999.0","-9999.0","1000","29.53","3.7","38.7","-9999","-9999","-9999.00","-9999.00","Clear","clear","0","0","0","0","0","0","METAR UKKK 250300Z 08003MPS CAVOK 06/05 Q1000 R08/CLRD70 NOSIG"
"6:30 AM EEST on April 25, 2016","2016","04","25","06","30","Europe/Kiev","3:30 AM GMT on April 25, 2016","2016","04","25","03","30","UTC","8.0","46.4","6.0","42.8","87","10.8","6.7","-9999.0","-9999.0","90","East","-9999.0","-9999.0","999","29.50","6.1","43.0","-9999","-9999","-9999.00","-9999.00","Clear","clear","0","0","0","0","0","0","METAR UKKK 250330Z 09003MPS CAVOK 08/06 Q0999 R08/CLRD70 NOSIG"
"7:00 AM EEST on April 25, 2016","2016","04","25","07","00","Europe/Kiev","4:00 AM GMT on April 25, 2016","2016","04","25","04","00","UTC","9.0","48.2","7.0","44.6","87","10.8","6.7","-9999.0","-9999.0","80","East","-9999.0","-9999.0","999","29.50","-999","-999","-9999","-9999","-9999.00","-9999.00","Clear","clear","0","0","0","0","0","0","METAR UKKK 250400Z 08003MPS CAVOK 09/07 Q0999 R08/CLRD70 NOSIG"
"7:30 AM EEST on April 25, 2016","2016","04","25","07","30","Europe/Kiev","4:30 AM GMT on April 25, 2016","2016","04","25","04","30","UTC","10.0","50.0","8.0","46.4","87","10.8","6.7","-9999.0","-9999.0","90","East","-9999.0","-9999.0","999","29.50","-999","-999","-9999","-9999","-9999.00","-9999.00","Clear","clear","0","0","0","0","0","0","METAR UKKK 250430Z 09003MPS CAVOK 10/08 Q0999 R08/CLRD70 NOSIG"
"8:00 AM EEST on April 25, 2016","2016","04","25","08","00","Europe/Kiev","5:00 AM GMT on April 25, 2016","2016","04","25","05","00","UTC","11.0","51.8","7.0","44.6","76","7.2","4.5","-9999.0","-9999.0","80","East","-9999.0","-9999.0","999","29.50","-999","-999","-9999","-9999","-9999.00","-9999.00","Clear","clear","0","0","0","0","0","0","METAR UKKK 250500Z 08002MPS CAVOK 11/07 Q0999 R08/CLRD70 NOSIG"
"8:30 AM EEST on April 25, 2016","2016","04","25","08","30","Europe/Kiev","5:30 AM GMT on April 25, 2016","2016","04","25","05","30","UTC","12.0","53.6","7.0","44.6","72","7.2","4.5","-9999.0","-9999.0","90","East","-9999.0","-9999.0","999","29.50","-999","-999","-9999","-9999","-9999.00","-9999.00","Clear","clear","0","0","0","0","0","0","METAR UKKK 250530Z 09002MPS 060V120 CAVOK 12/07 Q0999 R08/CLRD70 NOSIG"
"9:00 AM EEST on April 25, 2016","2016","04","25","09","00","Europe/Kiev","6:00 AM GMT on April 25, 2016","2016","04","25","06","00","UTC","12","54","7","44","60","3.6","2.2","","","60","ENE","20","12","1000","29.52","-999","-999","-9999","-9999","","","Partly Cloudy","partlycloudy","0","0","0","0","0","0","AAXX 25061 33345 32998 60601 10120 20068 39799 49996 56004 83039 333 20082 555 10015 52004"
"9:00 AM EEST on April 25, 2016","2016","04","25","09","00","Europe/Kiev","6:00 AM GMT on April 25, 2016","2016","04","25","06","00","UTC","12.0","53.6","7.0","44.6","72","10.8","6.7","-9999.0","-9999.0","70","ENE","-9999.0","-9999.0","999","29.50","-999","-999","-9999","-9999","-9999.00","-9999.00","Clear","clear","0","0","0","0","0","0","METAR UKKK 250600Z 07003MPS CAVOK 12/07 Q0999 R08/CLRD70 NOSIG"
"9:30 AM EEST on April 25, 2016","2016","04","25","09","30","Europe/Kiev","6:30 AM GMT on April 25, 2016","2016","04","25","06","30","UTC","13.0","55.4","7.0","44.6","67","7.2","4.5","-9999.0","-9999.0","60","ENE","-9999.0","-9999.0","999","29.50","-999","-999","-9999","-9999","-9999.00","-9999.00","Clear","clear","0","0","0","0","0","0","METAR UKKK 250630Z 06002MPS 010V100 CAVOK 13/07 Q0999 R08/CLRD70 NOSIG"
"10:00 AM EEST on April 25, 2016","2016","04","25","10","00","Europe/Kiev","7:00 AM GMT on April 25, 2016","2016","04","25","07","00","UTC","14.0","57.2","7.0","44.6","63","7.2","4.5","-9999.0","-9999.0","100","East","-9999.0","-9999.0","999","29.50","-999","-999","-9999","-9999","-9999.00","-9999.00","Clear","clear","0","0","0","0","0","0","METAR UKKK 250700Z 10002MPS 060V150 CAVOK 14/07 Q0999 R08/CLRD70 NOSIG"
"10:30 AM EEST on April 25, 2016","2016","04","25","10","30","Europe/Kiev","7:30 AM GMT on April 25, 2016","2016","04","25","07","30","UTC","15.0","59.0","7.0","44.6","59","7.2","4.5","-9999.0","-9999.0","30","NNE","-9999.0","-9999.0","999","29.50","-999","-999","-9999","-9999","-9999.00","-9999.00","Clear","clear","0","0","0","0","0","0","METAR UKKK 250730Z 03002MPS CAVOK 15/07 Q0999 R08/CLRD70 NOSIG"
"11:00 AM EEST on April 25, 2016","2016","04","25","11","00","Europe/Kiev","8:00 AM GMT on April 25, 2016","2016","04","25","08","00","UTC","16.0","60.8","7.0","44.6","55","7.2","4.5","-9999.0","-9999.0","360","North","-9999.0","-9999.0","999","29.50","-999","-999","-9999","-9999","-9999.00","-9999.00","Clear","clear","0","0","0","0","0","0","METAR UKKK 250800Z 36002MPS 320V030 CAVOK 16/07 Q0999 R08/CLRD70 NOSIG"
"11:30 AM EEST on April 25, 2016","2016","04","25","11","30","Europe/Kiev","8:30 AM GMT on April 25, 2016","2016","04","25","08","30","UTC","17.0","62.6","8.0","46.4","55","10.8","6.7","-9999.0","-9999.0","30","NNE","-9999.0","-9999.0","999","29.50","-999","-999","-9999","-9999","-9999.00","-9999.00","Clear","clear","0","0","0","0","0","0","METAR UKKK 250830Z 03003MPS 350V070 CAVOK 17/08 Q0999 R08/CLRD70 NOSIG"
"12:00 PM EEST on April 25, 2016","2016","04","25","12","00","Europe/Kiev","9:00 AM GMT on April 25, 2016","2016","04","25","09","00","UTC","17","63","7","45","40","10.8","6.7","","","80","East","20","12","999","29.49","-999","-999","-9999","-9999","","","Scattered Clouds","partlycloudy","0","0","0","0","0","0","AAXX 25091 33345 42698 70803 10171 20070 39792 49986 57007 82104 555 10017"
"12:00 PM EEST on April 25, 2016","2016","04","25","12","00","Europe/Kiev","9:00 AM GMT on April 25, 2016","2016","04","25","09","00","UTC","17.0","62.6","6.0","42.8","48","10.8","6.7","-9999.0","-9999.0","50","NE","-9999.0","-9999.0","999","29.50","-999","-999","-9999","-9999","-9999.00","-9999.00","Clear","clear","0","0","0","0","0","0","METAR UKKK 250900Z 05003MPS 010V090 CAVOK 17/06 Q0999 R08/CLRD70 NOSIG"
"12:30 PM EEST on April 25, 2016","2016","04","25","12","30","Europe/Kiev","9:30 AM GMT on April 25, 2016","2016","04","25","09","30","UTC","17.0","62.6","7.0","44.6","52","10.8","6.7","-9999.0","-9999.0","50","NE","-9999.0","-9999.0","998","29.47","-999","-999","-9999","-9999","-9999.00","-9999.00","Clear","clear","0","0","0","0","0","0","METAR UKKK 250930Z 05003MPS 010V080 CAVOK 17/07 Q0998 R08/CLRD70 NOSIG"
"1:00 PM EEST on April 25, 2016","2016","04","25","13","00","Europe/Kiev","10:00 AM GMT on April 25, 2016","2016","04","25","10","00","UTC","17.0","62.6","7.0","44.6","52","10.8","6.7","-9999.0","-9999.0","30","NNE","-9999.0","-9999.0","998","29.47","-999","-999","-9999","-9999","-9999.00","-9999.00","Clear","clear","0","0","0","0","0","0","METAR UKKK 251000Z 03003MPS 360V080 CAVOK 17/07 Q0998 R08/CLRD70 NOSIG"
"1:30 PM EEST on April 25, 2016","2016","04","25","13","30","Europe/Kiev","10:30 AM GMT on April 25, 2016","2016","04","25","10","30","UTC","18.0","64.4","7.0","44.6","49","10.8","6.7","-9999.0","-9999.0","80","East","-9999.0","-9999.0","998","29.47","-999","-999","-9999","-9999","-9999.00","-9999.00","Clear","clear","0","0","0","0","0","0","METAR UKKK 251030Z 08003MPS 350V120 CAVOK 18/07 Q0998 R08/CLRD70 NOSIG"
"2:00 PM EEST on April 25, 2016","2016","04","25","14","00","Europe/Kiev","11:00 AM GMT on April 25, 2016","2016","04","25","11","00","UTC","19.0","66.2","7.0","44.6","46","7.2","4.5","-9999.0","-9999.0","80","East","-9999.0","-9999.0","998","29.47","-999","-999","-9999","-9999","-9999.00","-9999.00","Clear","clear","0","0","0","0","0","0","METAR UKKK 251100Z 08002MPS CAVOK 19/07 Q0998 R08/CLRD70 NOSIG"
"2:30 PM EEST on April 25, 2016","2016","04","25","14","30","Europe/Kiev","11:30 AM GMT on April 25, 2016","2016","04","25","11","30","UTC","18.0","64.4","7.0","44.6","49","10.8","6.7","-9999.0","-9999.0","80","East","-9999.0","-9999.0","998","29.47","-999","-999","-9999","-9999","-9999.00","-9999.00","Clear","clear","0","0","0","0","0","0","METAR UKKK 251130Z 08003MPS CAVOK 18/07 Q0998 R08/CLRD70 NOSIG"
"3:00 PM EEST on April 25, 2016","2016","04","25","15","00","Europe/Kiev","12:00 PM GMT on April 25, 2016","2016","04","25","12","00","UTC","20","67","6","42","29","7.2","4.5","","","140","SE","20","12","997","29.46","-999","-999","-9999","-9999","","","Mostly Cloudy","mostlycloudy","0","0","0","0","0","0","AAXX 25121 33345 32698 61402 10196 20058 39782 49974 57010 86201 555 10037"
"3:00 PM EEST on April 25, 2016","2016","04","25","15","00","Europe/Kiev","12:00 PM GMT on April 25, 2016","2016","04","25","12","00","UTC","18.0","64.4","6.0","42.8","45","10.8","6.7","-9999.0","-9999.0","60","ENE","-9999.0","-9999.0","997","29.44","-999","-999","-9999","-9999","-9999.00","-9999.00","Clear","clear","0","0","0","0","0","0","METAR UKKK 251200Z 06003MPS 360V090 CAVOK 18/06 Q0997 R08/CLRD70 NOSIG"
"3:30 PM EEST on April 25, 2016","2016","04","25","15","30","Europe/Kiev","12:30 PM GMT on April 25, 2016","2016","04","25","12","30","UTC","19.0","66.2","6.0","42.8","43","3.6","2.2","-9999.0","-9999.0","0","Variable","-9999.0","-9999.0","997","29.44","-999","-999","-9999","-9999","-9999.00","-9999.00","Clear","clear","0","0","0","0","0","0","METAR UKKK 251230Z VRB01MPS CAVOK 19/06 Q0997 R08/CLRD70 NOSIG"
"4:00 PM EEST on April 25, 2016","2016","04","25","16","00","Europe/Kiev","1:00 PM GMT on April 25, 2016","2016","04","25","13","00","UTC","19.0","66.2","6.0","42.8","43","7.2","4.5","-9999.0","-9999.0","130","SE","-9999.0","-9999.0","997","29.44","-999","-999","-9999","-9999","-9999.00","-9999.00","Clear","clear","0","0","0","0","0","0","METAR UKKK 251300Z 13002MPS 080V180 CAVOK 19/06 Q0997 R08/CLRD70 NOSIG"
"4:30 PM EEST on April 25, 2016","2016","04","25","16","30","Europe/Kiev","1:30 PM GMT on April 25, 2016","2016","04","25","13","30","UTC","20.0","68.0","6.0","42.8","40","7.2","4.5","-9999.0","-9999.0","150","SSE","-9999.0","-9999.0","997","29.44","-999","-999","-9999","-9999","-9999.00","-9999.00","Clear","clear","0","0","0","0","0","0","METAR UKKK 251330Z 15002MPS 100V200 CAVOK 20/06 Q0997 R08/CLRD70 NOSIG"
"5:00 PM EEST on April 25, 2016","2016","04","25","17","00","Europe/Kiev","2:00 PM GMT on April 25, 2016","2016","04","25","14","00","UTC","19.0","66.2","7.0","44.6","46","7.2","4.5","-9999.0","-9999.0","10","North","10.0","6.2","997","29.44","-999","-999","-9999","-9999","-9999.00","-9999.00","Mostly Cloudy","mostlycloudy","0","0","0","0","0","0","METAR UKKK 251400Z 01002MPS 9999 SCT033CB BKN046 19/07 Q0997 R08/CLRD70 TEMPO 14009G16MPS -TSRA BKN015CB"
"5:30 PM EEST on April 25, 2016","2016","04","25","17","30","Europe/Kiev","2:30 PM GMT on April 25, 2016","2016","04","25","14","30","UTC","15.0","59.0","10.0","50.0","72","14.4","8.9","-9999.0","-9999.0","60","ENE","9.0","5.6","997","29.44","-999","-999","-9999","-9999","-9999.00","-9999.00","Light Rain Showers","rain","0","1","0","0","0","0","METAR UKKK 251430Z 06004MPS 9000 -SHRA SCT033CB BKN046 15/10 Q0997 R08/290058 TEMPO 14009G16MPS -TSRA BKN015CB"
"6:00 PM EEST on April 25, 2016","2016","04","25","18","00","Europe/Kiev","3:00 PM GMT on April 25, 2016","2016","04","25","15","00","UTC","15","59","9","49","59","7.2","4.5","","","350","North","20","12","997","29.45","-999","-999","-9999","-9999","","","Light Rain Showers","rain","0","1","0","0","0","0","AAXX 25151 33345 41698 73502 10152 20092 39777 49972 57005 72582 85963 555 11018"
"6:00 PM EEST on April 25, 2016","2016","04","25","18","00","Europe/Kiev","3:00 PM GMT on April 25, 2016","2016","04","25","15","00","UTC","15.0","59.0","10.0","50.0","72","14.4","8.9","-9999.0","-9999.0","20","NNE","10.0","6.2","997","29.44","-999","-999","-9999","-9999","-9999.00","-9999.00","Mostly Cloudy","mostlycloudy","0","0","0","0","0","0","METAR UKKK 251500Z 02004MPS 350V060 9999 FEW033CB BKN046 15/10 Q0997 R08/290058 TEMPO 14009G16MPS -TSRA BKN015CB"
"6:30 PM EEST on April 25, 2016","2016","04","25","18","30","Europe/Kiev","3:30 PM GMT on April 25, 2016","2016","04","25","15","30","UTC","16.0","60.8","10.0","50.0","68","14.4","8.9","-9999.0","-9999.0","20","NNE","10.0","6.2","997","29.44","-999","-999","-9999","-9999","-9999.00","-9999.00","Mostly Cloudy","mostlycloudy","0","0","0","0","0","0","METAR UKKK 251530Z 02004MPS 9999 FEW033CB BKN046 16/10 Q0997 R08/290058 TEMPO 14009G16MPS -TSRA BKN015CB"
"7:00 PM EEST on April 25, 2016","2016","04","25","19","00","Europe/Kiev","4:00 PM GMT on April 25, 2016","2016","04","25","16","00","UTC","16.0","60.8","10.0","50.0","68","10.8","6.7","-9999.0","-9999.0","10","North","-9999.0","-9999.0","997","29.44","-999","-999","-9999","-9999","-9999.00","-9999.00","Clear","clear","0","0","0","0","0","0","METAR UKKK 251600Z 01003MPS CAVOK 16/10 Q0997 R08/290058 NOSIG"
"7:30 PM EEST on April 25, 2016","2016","04","25","19","30","Europe/Kiev","4:30 PM GMT on April 25, 2016","2016","04","25","16","30","UTC","15.0","59.0","10.0","50.0","72","14.4","8.9","-9999.0","-9999.0","20","NNE","-9999.0","-9999.0","997","29.44","-999","-999","-9999","-9999","-9999.00","-9999.00","Clear","clear","0","0","0","0","0","0","METAR UKKK 251630Z 02004MPS CAVOK 15/10 Q0997 R08/290058 NOSIG"
"8:00 PM EEST on April 25, 2016","2016","04","25","20","00","Europe/Kiev","5:00 PM GMT on April 25, 2016","2016","04","25","17","00","UTC","15.0","59.0","9.0","48.2","67","14.4","8.9","-9999.0","-9999.0","20","NNE","-9999.0","-9999.0","997","29.44","-999","-999","-9999","-9999","-9999.00","-9999.00","Clear","clear","0","0","0","0","0","0","METAR UKKK 251700Z 02004MPS CAVOK 15/09 Q0997 R08/190060 NOSIG"
"8:30 PM EEST on April 25, 2016","2016","04","25","20","30","Europe/Kiev","5:30 PM GMT on April 25, 2016","2016","04","25","17","30","UTC","14.0","57.2","10.0","50.0","77","14.4","8.9","-9999.0","-9999.0","30","NNE","-9999.0","-9999.0","997","29.44","-999","-999","-9999","-9999","-9999.00","-9999.00","Clear","clear","0","0","0","0","0","0","METAR UKKK 251730Z 03004MPS CAVOK 14/10 Q0997 R08/190060 NOSIG"
"9:00 PM EEST on April 25, 2016","2016","04","25","21","00","Europe/Kiev","6:00 PM GMT on April 25, 2016","2016","04","25","18","00","UTC","15","59","10","49","62","10.8","6.7","","","60","ENE","20","12","997","29.46","-999","-999","-9999","-9999","","","Partly Cloudy","partlycloudy","0","0","0","0","0","0","AAXX 25181 33345 11998 60603 10150 20097 39779 49974 53002 60012 70282 83043 333 10209 555 11014"
"9:00 PM EEST on April 25, 2016","2016","04","25","21","00","Europe/Kiev","6:00 PM GMT on April 25, 2016","2016","04","25","18","00","UTC","15.0","59.0","10.0","50.0","72","14.4","8.9","-9999.0","-9999.0","50","NE","-9999.0","-9999.0","997","29.44","-999","-999","-9999","-9999","-9999.00","-9999.00","Clear","clear","0","0","0","0","0","0","METAR UKKK 251800Z 05004MPS CAVOK 15/10 Q0997 R08/190060 NOSIG"
"9:30 PM EEST on April 25, 2016","2016","04","25","21","30","Europe/Kiev","6:30 PM GMT on April 25, 2016","2016","04","25","18","30","UTC","15.0","59.0","10.0","50.0","72","14.4","8.9","-9999.0","-9999.0","60","ENE","-9999.0","-9999.0","997","29.44","-999","-999","-9999","-9999","-9999.00","-9999.00","Clear","clear","0","0","0","0","0","0","METAR UKKK 251830Z 06004MPS CAVOK 15/10 Q0997 R08/190060 NOSIG"
"10:00 PM EEST on April 25, 2016","2016","04","25","22","00","Europe/Kiev","7:00 PM GMT on April 25, 2016","2016","04","25","19","00","UTC","14.0","57.2","10.0","50.0","77","14.4","8.9","-9999.0","-9999.0","60","ENE","-9999.0","-9999.0","997","29.44","-999","-999","-9999","-9999","-9999.00","-9999.00","Clear","clear","0","0","0","0","0","0","METAR UKKK 251900Z 06004MPS CAVOK 14/10 Q0997 R08/190060 NOSIG"
"10:30 PM EEST on April 25, 2016","2016","04","25","22","30","Europe/Kiev","7:30 PM GMT on April 25, 2016","2016","04","25","19","30","UTC","14.0","57.2","9.0","48.2","72","18.0","11.2","-9999.0","-9999.0","60","ENE","-9999.0","-9999.0","997","29.44","-999","-999","-9999","-9999","-9999.00","-9999.00","Clear","clear","0","0","0","0","0","0","METAR UKKK 251930Z 06005MPS CAVOK 14/09 Q0997 R08/190060 NOSIG"
"11:00 PM EEST on April 25, 2016","2016","04","25","23","00","Europe/Kiev","8:00 PM GMT on April 25, 2016","2016","04","25","20","00","UTC","14.0","57.2","10.0","50.0","77","25.2","15.7","-9999.0","-9999.0","60","ENE","-9999.0","-9999.0","997","29.44","-999","-999","-9999","-9999","-9999.00","-9999.00","Clear","clear","0","0","0","0","0","0","METAR UKKK 252000Z 06007MPS CAVOK 14/10 Q0997 R08/190060 NOSIG"
"11:30 PM EEST on April 25, 2016","2016","04","25","23","30","Europe/Kiev","8:30 PM GMT on April 25, 2016","2016","04","25","20","30","UTC","13.0","55.4","10.0","50.0","82","21.6","13.4","-9999.0","-9999.0","60","ENE","-9999.0","-9999.0","997","29.44","-999","-999","-9999","-9999","-9999.00","-9999.00","Clear","clear","0","0","0","0","0","0","METAR UKKK 252030Z 06006MPS CAVOK 13/10 Q0997 R08/CLRD70 NOSIG"
"12:00 AM EEST on April 26, 2016","2016","04","26","00","00","Europe/Kiev","9:00 PM GMT on April 25, 2016","2016","04","25","21","00","UTC","13","55","10","50","76","10.8","6.7","","","60","ENE","10","6","998","29.46","-999","-999","-9999","-9999","","","Overcast","cloudy","0","0","0","0","0","0","AAXX 25211 33345 42997 80603 10129 20098 39779 49975 54000 8807/ 555 11012"
"12:00 AM EEST on April 26, 2016","2016","04","26","00","00","Europe/Kiev","9:00 PM GMT on April 25, 2016","2016","04","25","21","00","UTC","13.0","55.4","10.0","50.0","82","18.0","11.2","-9999.0","-9999.0","60","ENE","-9999.0","-9999.0","997","29.44","-999","-999","-9999","-9999","-9999.00","-9999.00","Clear","clear","0","0","0","0","0","0","METAR UKKK 252100Z 06005MPS CAVOK 13/10 Q0997 R08/CLRD70 NOSIG"
"12:30 AM EEST on April 26, 2016","2016","04","26","00","30","Europe/Kiev","9:30 PM GMT on April 25, 2016","2016","04","25","21","30","UTC","13.0","55.4","10.0","50.0","82","18.0","11.2","-9999.0","-9999.0","70","ENE","10.0","6.2","997","29.44","-999","-999","-9999","-9999","-9999.00","-9999.00","Light Rain","rain","0","1","0","0","0","0","METAR UKKK 252130Z 07005MPS 9999 -RA OVC043 13/10 Q0997 R08/190060 NOSIG"
"1:00 AM EEST on April 26, 2016","2016","04","26","01","00","Europe/Kiev","10:00 PM GMT on April 25, 2016","2016","04","25","22","00","UTC","12.0","53.6","11.0","51.8","94","14.4","8.9","-9999.0","-9999.0","70","ENE","10.0","6.2","997","29.44","-999","-999","-9999","-9999","-9999.00","-9999.00","Light Rain","rain","0","1","0","0","0","0","METAR UKKK 252200Z 07004MPS 9999 -RA OVC043 12/11 Q0997 R08/190060 NOSIG"
"1:30 AM EEST on April 26, 2016","2016","04","26","01","30","Europe/Kiev","10:30 PM GMT on April 25, 2016","2016","04","25","22","30","UTC","12.0","53.6","11.0","51.8","94","7.2","4.5","-9999.0","-9999.0","90","East","9.0","5.6","997","29.44","-999","-999","-9999","-9999","-9999.00","-9999.00","Light Rain","rain","0","1","0","0","0","0","METAR UKKK 252230Z 09002MPS 060V120 9000 -RA OVC043 12/11 Q0997 R08/190060 NOSIG"
"2:00 AM EEST on April 26, 2016","2016","04","26","02","00","Europe/Kiev","11:00 PM GMT on April 25, 2016","2016","04","25","23","00","UTC","11.0","51.8","11.0","51.8","100","7.2","4.5","-9999.0","-9999.0","80","East","9.0","5.6","997","29.44","-999","-999","-9999","-9999","-9999.00","-9999.00","Light Rain","rain","0","1","0","0","0","0","METAR UKKK 252300Z 08002MPS 9000 -RA OVC043 11/11 Q0997 R08/190060 NOSIG"
"2:30 AM EEST on April 26, 2016","2016","04","26","02","30","Europe/Kiev","11:30 PM GMT on April 25, 2016","2016","04","25","23","30","UTC","11.0","51.8","11.0","51.8","100","7.2","4.5","-9999.0","-9999.0","280","West","7.0","4.3","997","29.44","-999","-999","-9999","-9999","-9999.00","-9999.00","Light Rain","rain","0","1","0","0","0","0","METAR UKKK 252330Z 28002MPS 7000 -RA OVC043 11/11 Q0997 R08/190060 NOSIG"
"3:00 AM EEST on April 26, 2016","2016","04","26","03","00","Europe/Kiev","12:00 AM GMT on April 26, 2016","2016","04","26","00","00","UTC","12","53","11","51","91","3.6","2.2","","","320","NW","10","6","997","29.44","-999","-999","-9999","-9999","","","Light Rain","rain","0","1","0","0","0","0","AAXX 26001 33345 /1497 83201 10116 20106 39772 49969 58007 76162 8872/ 333 88713 555 11012 60011"
"3:00 AM EEST on April 26, 2016","2016","04","26","03","00","Europe/Kiev","12:00 AM GMT on April 26, 2016","2016","04","26","00","00","UTC","11.0","51.8","11.0","51.8","100","7.2","4.5","-9999.0","-9999.0","290","WNW","-9999.0","-9999.0","996","29.42","-999","-999","-9999","-9999","-9999.00","-9999.00","Light Rain","rain","0","1","0","0","0","0","METAR UKKK 260000Z 29002MPS 3600 -RA BR OVC043 11/11 Q0996 R26/190060 TEMPO 1200 -SHRA BR SCT020CB"
"3:30 AM EEST on April 26, 2016","2016","04","26","03","30","Europe/Kiev","12:30 AM GMT on April 26, 2016","2016","04","26","00","30","UTC","12.0","53.6","12.0","53.6","100","10.8","6.7","-9999.0","-9999.0","300","WNW","-9999.0","-9999.0","996","29.42","-999","-999","-9999","-9999","-9999.00","-9999.00","Light Rain","rain","0","1","0","0","0","0","METAR UKKK 260030Z 30003MPS 4900 -RA BR OVC046 12/12 Q0996 R26/190060 TEMPO 1200 -SHRA BR SCT020CB"
"4:00 AM EEST on April 26, 2016","2016","04","26","04","00","Europe/Kiev","1:00 AM GMT on April 26, 2016","2016","04","26","01","00","UTC","11.0","51.8","11.0","51.8","100","14.4","8.9","-9999.0","-9999.0","340","NNW","8.0","5.0","997","29.44","-999","-999","-9999","-9999","-9999.00","-9999.00","Light Rain","rain","0","1","0","0","0","0","METAR UKKK 260100Z 34004MPS 8000 -RA SCT006 OVC018 11/11 Q0997 R26/190060 TEMPO 1200 -SHRA BR SCT020CB"
"4:30 AM EEST on April 26, 2016","2016","04","26","04","30","Europe/Kiev","1:30 AM GMT on April 26, 2016","2016","04","26","01","30","UTC","11.0","51.8","11.0","51.8","100","7.2","4.5","-9999.0","-9999.0","340","NNW","7.0","4.3","997","29.44","-999","-999","-9999","-9999","-9999.00","-9999.00","Light Rain","rain","0","1","0","0","0","0","METAR UKKK 260130Z 34002MPS 310V010 7000 -RA SCT006 OVC018 11/11 Q0997 R26/190060 TEMPO 1200 -SHRA BR SCT020CB"
"5:00 AM EEST on April 26, 2016","2016","04","26","05","00","Europe/Kiev","2:00 AM GMT on April 26, 2016","2016","04","26","02","00","UTC","11.0","51.8","11.0","51.8","100","10.8","6.7","-9999.0","-9999.0","330","NNW","9.0","5.6","997","29.44","-999","-999","-9999","-9999","-9999.00","-9999.00","Light Rain","rain","0","1","0","0","0","0","METAR UKKK 260200Z 33003MPS 9000 -RA BKN006 OVC015 11/11 Q0997 R26/190060 TEMPO 1200 -SHRA BR SCT020CB"
"5:30 AM EEST on April 26, 2016","2016","04","26","05","30","Europe/Kiev","2:30 AM GMT on April 26, 2016","2016","04","26","02","30","UTC","11.0","51.8","11.0","51.8","100","10.8","6.7","-9999.0","-9999.0","320","NW","7.0","4.3","997","29.44","-999","-999","-9999","-9999","-9999.00","-9999.00","Light Rain","rain","0","1","0","0","0","0","METAR UKKK 260230Z 32003MPS 7000 -RA BKN006 OVC022 11/11 Q0997 R26/290256 TEMPO BKN004"
"6:00 AM EEST on April 26, 2016","2016","04","26","06","00","Europe/Kiev","3:00 AM GMT on April 26, 2016","2016","04","26","03","00","UTC","11","52","10","51","93","7.2","4.5","","","330","NNW","4","2","997","29.44","-999","-999","-9999","-9999","","","Light Rain","rain","0","1","0","0","0","0","AAXX 26031 33345 41496 83302 10111 20103 39771 49968 56001 76162 8872/ 333 88711 555 11012"
"6:00 AM EEST on April 26, 2016","2016","04","26","06","00","Europe/Kiev","3:00 AM GMT on April 26, 2016","2016","04","26","03","00","UTC","11.0","51.8","11.0","51.8","100","10.8","6.7","-9999.0","-9999.0","310","NW","6.0","3.7","996","29.42","-999","-999","-9999","-9999","-9999.00","-9999.00","Light Rain","rain","0","1","0","0","0","0","METAR UKKK 260300Z 31003MPS 6000 -RA BKN005 OVC022 11/11 Q0996 R26/290256 TEMPO BKN004"
"6:30 AM EEST on April 26, 2016","2016","04","26","06","30","Europe/Kiev","3:30 AM GMT on April 26, 2016","2016","04","26","03","30","UTC","11.0","51.8","11.0","51.8","100","10.8","6.7","-9999.0","-9999.0","320","NW","9.0","5.6","997","29.44","-999","-999","-9999","-9999","-9999.00","-9999.00","Light Rain","rain","0","1","0","0","0","0","METAR UKKK 260330Z 32003MPS 9000 -RA OVC005 11/11 Q0997 R26/290256 TEMPO BKN004"
"7:00 AM EEST on April 26, 2016","2016","04","26","07","00","Europe/Kiev","4:00 AM GMT on April 26, 2016","2016","04","26","04","00","UTC","11.0","51.8","10.0","50.0","94","14.4","8.9","-9999.0","-9999.0","310","NW","10.0","6.2","997","29.44","-999","-999","-9999","-9999","-9999.00","-9999.00","Light Rain","rain","0","1","0","0","0","0","METAR UKKK 260400Z 31004MPS 9999 -RA OVC005 11/10 Q0997 R26/290256 TEMPO BKN004"
"7:30 AM EEST on April 26, 2016","2016","04","26","07","30","Europe/Kiev","4:30 AM GMT on April 26, 2016","2016","04","26","04","30","UTC","10.0","50.0","10.0","50.0","100","18.0","11.2","-9999.0","-9999.0","280","West","9.0","5.6","997","29.44","-999","-999","-9999","-9999","-9999.00","-9999.00","Light Rain","rain","0","1","0","0","0","0","METAR UKKK 260430Z 28005MPS 9000 -RA OVC004 10/10 Q0997 R26/290256 TEMPO BKN003"
"8:00 AM EEST on April 26, 2016","2016","04","26","08","00","Europe/Kiev","5:00 AM GMT on April 26, 2016","2016","04","26","05","00","UTC","9.0","48.2","9.0","48.2","100","18.0","11.2","-9999.0","-9999.0","290","WNW","10.0","6.2","997","29.44","-999","-999","-9999","-9999","-9999.00","-9999.00","Light Rain","rain","0","1","0","0","0","0","METAR UKKK 260500Z 29005MPS 9999 -RA OVC003 09/09 Q0997 R26/290256 TEMPO BKN003"
"8:30 AM EEST on April 26, 2016","2016","04","26","08","30","Europe/Kiev","5:30 AM GMT on April 26, 2016","2016","04","26","05","30","UTC","8.0","46.4","8.0","46.4","100","21.6","13.4","-9999.0","-9999.0","280","West","9.0","5.6","997","29.44","4.7","40.5","-9999","-9999","-9999.00","-9999.00","Light Rain","rain","0","1","0","0","0","0","METAR UKKK 260530Z 28006MPS 9000 -RA OVC003 08/08 Q0997 R26/290256 TEMPO BKN003"
"9:00 AM EEST on April 26, 2016","2016","04","26","09","00","Europe/Kiev","6:00 AM GMT on April 26, 2016","2016","04","26","06","00","UTC","9","47","8","46","95","14.4","8.9","","","270","West","4","2","998","29.48","-999","-999","-9999","-9999","","","Light Rain","rain","0","1","0","0","0","0","AAXX 26061 33345 11296 82704 10086 20078 39783 49982 53012 60052 72162 8872/ 333 20086 88706 555 11012"
"9:00 AM EEST on April 26, 2016","2016","04","26","09","00","Europe/Kiev","6:00 AM GMT on April 26, 2016","2016","04","26","06","00","UTC","8.0","46.4","7.0","44.6","93","21.6","13.4","-9999.0","-9999.0","270","West","7.0","4.3","998","29.47","4.7","40.5","-9999","-9999","-9999.00","-9999.00","Overcast","cloudy","0","0","0","0","0","0","METAR UKKK 260600Z 27006MPS 7000 OVC004 08/07 Q0998 R26/290256 TEMPO BKN002"
"9:30 AM EEST on April 26, 2016","2016","04","26","09","30","Europe/Kiev","6:30 AM GMT on April 26, 2016","2016","04","26","06","30","UTC","7.0","44.6","7.0","44.6","100","21.6","13.4","-9999.0","-9999.0","270","West","7.0","4.3","998","29.47","3.4","38.2","-9999","-9999","-9999.00","-9999.00","Overcast","cloudy","0","0","0","0","0","0","METAR UKKK 260630Z 27006MPS 7000 OVC003 07/07 Q0998 R26/290158 TEMPO BKN002"
"10:00 AM EEST on April 26, 2016","2016","04","26","10","00","Europe/Kiev","7:00 AM GMT on April 26, 2016","2016","04","26","07","00","UTC","7.0","44.6","7.0","44.6","100","21.6","13.4","-9999.0","-9999.0","280","West","-9999.0","-9999.0","998","29.47","3.4","38.2","-9999","-9999","-9999.00","-9999.00","Overcast","cloudy","0","0","0","0","0","0","METAR UKKK 260700Z 28006MPS 4400 BR OVC002 07/07 Q0998 R26/290158 TEMPO 1200 BR BKN002"
"10:30 AM EEST on April 26, 2016","2016","04","26","10","30","Europe/Kiev","7:30 AM GMT on April 26, 2016","2016","04","26","07","30","UTC","7.0","44.6","7.0","44.6","100","21.6","13.4","-9999.0","-9999.0","280","West","7.0","4.3","999","29.50","3.4","38.2","-9999","-9999","-9999.00","-9999.00","Overcast","cloudy","0","0","0","0","0","0","METAR UKKK 260730Z 28006MPS 7000 OVC003 07/07 Q0999 R26/290158 TEMPO 1200 BR BKN002"
"11:00 AM EEST on April 26, 2016","2016","04","26","11","00","Europe/Kiev","8:00 AM GMT on April 26, 2016","2016","04","26","08","00","UTC","7.0","44.6","7.0","44.6","100","21.6","13.4","-9999.0","-9999.0","270","West","5.0","3.1","999","29.50","3.4","38.2","-9999","-9999","-9999.00","-9999.00","Overcast","cloudy","0","0","0","0","0","0","METAR UKKK 260800Z 27006MPS 5000 BR OVC003 07/07 Q0999 R26/290158 TEMPO BKN002"
"11:30 AM EEST on April 26, 2016","2016","04","26","11","30","Europe/Kiev","8:30 AM GMT on April 26, 2016","2016","04","26","08","30","UTC","7.0","44.6","7.0","44.6","100","21.6","13.4","-9999.0","-9999.0","270","West","9.0","5.6","999","29.50","3.4","38.2","-9999","-9999","-9999.00","-9999.00","Overcast","cloudy","0","0","0","0","0","0","METAR UKKK 260830Z 27006MPS 9000 OVC004 07/07 Q0999 R26/290158 TEMPO BKN002"
"12:00 PM EEST on April 26, 2016","2016","04","26","12","00","Europe/Kiev","9:00 AM GMT on April 26, 2016","2016","04","26","09","00","UTC","8","46","7","44","89","10.8","6.7","","","270","West","4","2","1000","29.54","-999","-999","-9999","-9999","","","Mist","hazy","0","0","0","0","0","0","AAXX 26091 33345 41396 82703 10077 20066 39802 40003 52019 71022 886// 333 88709 555 11012"
"12:00 PM EEST on April 26, 2016","2016","04","26","12","00","Europe/Kiev","9:00 AM GMT on April 26, 2016","2016","04","26","09","00","UTC","8.0","46.4","7.0","44.6","93","18.0","11.2","-9999.0","-9999.0","270","West","9.0","5.6","1000","29.53","5.1","41.2","-9999","-9999","-9999.00","-9999.00","Overcast","cloudy","0","0","0","0","0","0","METAR UKKK 260900Z 27005MPS 9000 OVC005 08/07 Q1000 R26/190060 TEMPO BKN002"
"12:30 PM EEST on April 26, 2016","2016","04","26","12","30","Europe/Kiev","9:30 AM GMT on April 26, 2016","2016","04","26","09","30","UTC","8.0","46.4","7.0","44.6","93","21.6","13.4","-9999.0","-9999.0","270","West","10.0","6.2","1000","29.53","4.7","40.5","-9999","-9999","-9999.00","-9999.00","Overcast","cloudy","0","0","0","0","0","0","METAR UKKK 260930Z 27006MPS 9999 OVC006 08/07 Q1000 R26/190060 TEMPO BKN002"
"1:00 PM EEST on April 26, 2016","2016","04","26","13","00","Europe/Kiev","10:00 AM GMT on April 26, 2016","2016","04","26","10","00","UTC","8.0","46.4","7.0","44.6","93","18.0","11.2","-9999.0","-9999.0","260","West","10.0","6.2","1000","29.53","5.1","41.2","-9999","-9999","-9999.00","-9999.00","Overcast","cloudy","0","0","0","0","0","0","METAR UKKK 261000Z 26005MPS 9999 OVC007 08/07 Q1000 R26/190060 NOSIG"
"1:30 PM EEST on April 26, 2016","2016","04","26","13","30","Europe/Kiev","10:30 AM GMT on April 26, 2016","2016","04","26","10","30","UTC","8.0","46.4","7.0","44.6","93","18.0","11.2","-9999.0","-9999.0","260","West","10.0","6.2","1000","29.53","5.1","41.2","-9999","-9999","-9999.00","-9999.00","Overcast","cloudy","0","0","0","0","0","0","METAR UKKK 261030Z 26005MPS 9999 OVC007 08/07 Q1000 R26/190060 NOSIG"
"2:00 PM EEST on April 26, 2016","2016","04","26","14","00","Europe/Kiev","11:00 AM GMT on April 26, 2016","2016","04","26","11","00","UTC","8.0","46.4","7.0","44.6","93","21.6","13.4","-9999.0","-9999.0","280","West","10.0","6.2","1001","29.56","4.7","40.5","-9999","-9999","-9999.00","-9999.00","Overcast","cloudy","0","0","0","0","0","0","METAR UKKK 261100Z 28006MPS 9999 OVC007 08/07 Q1001 R26/CLRD70 NOSIG"
"2:30 PM EEST on April 26, 2016","2016","04","26","14","30","Europe/Kiev","11:30 AM GMT on April 26, 2016","2016","04","26","11","30","UTC","8.0","46.4","7.0","44.6","93","21.6","13.4","-9999.0","-9999.0","280","West","10.0","6.2","1001","29.56","4.7","40.5","-9999","-9999","-9999.00","-9999.00","Overcast","cloudy","0","0","0","0","0","0","METAR UKKK 261130Z 28006MPS 9999 OVC008 08/07 Q1001 R26/CLRD70 NOSIG"
"3:00 PM EEST on April 26, 2016","2016","04","26","15","00","Europe/Kiev","12:00 PM GMT on April 26, 2016","2016","04","26","12","00","UTC","8","47","6","43","81","10.8","6.7","","","290","WNW","20","12","1002","29.59","-999","-999","-9999","-9999","","","Overcast","cloudy","0","0","0","0","0","0","AAXX 26121 33345 32498 82903 10085 20061 39818 40018 52016 886// 333 88712 555 11014"
"3:00 PM EEST on April 26, 2016","2016","04","26","15","00","Europe/Kiev","12:00 PM GMT on April 26, 2016","2016","04","26","12","00","UTC","8.0","46.4","6.0","42.8","87","21.6","13.4","-9999.0","-9999.0","280","West","10.0","6.2","1001","29.56","4.7","40.5","-9999","-9999","-9999.00","-9999.00","Overcast","cloudy","0","0","0","0","0","0","METAR UKKK 261200Z 28006MPS 9999 OVC010 08/06 Q1001 R26/CLRD70 NOSIG"
"3:30 PM EEST on April 26, 2016","2016","04","26","15","30","Europe/Kiev","12:30 PM GMT on April 26, 2016","2016","04","26","12","30","UTC","9.0","48.2","6.0","42.8","82","18.0","11.2","-9999.0","-9999.0","280","West","10.0","6.2","1001","29.56","-999","-999","-9999","-9999","-9999.00","-9999.00","Overcast","cloudy","0","0","0","0","0","0","METAR UKKK 261230Z 28005MPS 9999 OVC010 09/06 Q1001 R26/CLRD70 NOSIG"
"4:00 PM EEST on April 26, 2016","2016","04","26","16","00","Europe/Kiev","1:00 PM GMT on April 26, 2016","2016","04","26","13","00","UTC","8.0","46.4","6.0","42.8","87","21.6","13.4","-9999.0","-9999.0","280","West","10.0","6.2","1002","29.59","4.7","40.5","-9999","-9999","-9999.00","-9999.00","Overcast","cloudy","0","0","0","0","0","0","METAR UKKK 261300Z 28006MPS 9999 OVC010 08/06 Q1002 R26/CLRD70 NOSIG"
"4:30 PM EEST on April 26, 2016","2016","04","26","16","30","Europe/Kiev","1:30 PM GMT on April 26, 2016","2016","04","26","13","30","UTC","8.0","46.4","6.0","42.8","87","21.6","13.4","-9999.0","-9999.0","280","West","10.0","6.2","1002","29.59","4.7","40.5","-9999","-9999","-9999.00","-9999.00","Overcast","cloudy","0","0","0","0","0","0","METAR UKKK 261330Z 28006MPS 9999 OVC010 08/06 Q1002 R26/CLRD70 NOSIG"
"5:00 PM EEST on April 26, 2016","2016","04","26","17","00","Europe/Kiev","2:00 PM GMT on April 26, 2016","2016","04","26","14","00","UTC","8.0","46.4","6.0","42.8","87","18.0","11.2","-9999.0","-9999.0","270","West","10.0","6.2","1002","29.59","5.1","41.2","-9999","-9999","-9999.00","-9999.00","Overcast","cloudy","0","0","0","0","0","0","METAR UKKK 261400Z 27005MPS 9999 OVC010 08/06 Q1002 R26/CLRD70 NOSIG"
"5:30 PM EEST on April 26, 2016","2016","04","26","17","30","Europe/Kiev","2:30 PM GMT on April 26, 2016","2016","04","26","14","30","UTC","8.0","46.4","6.0","42.8","87","18.0","11.2","-9999.0","-9999.0","280","West","10.0","6.2","1003","29.62","5.1","41.2","-9999","-9999","-9999.00","-9999.00","Overcast","cloudy","0","0","0","0","0","0","METAR UKKK 261430Z 28005MPS 9999 OVC010 08/06 Q1003 R26/CLRD70 NOSIG"
"6:00 PM EEST on April 26, 2016","2016","04","26","18","00","Europe/Kiev","3:00 PM GMT on April 26, 2016","2016","04","26","15","00","UTC","8","46","5","42","79","14.4","8.9","","","260","West","20","12","1004","29.65","-999","-999","-9999","-9999","","","Overcast","cloudy","0","0","0","0","0","0","AAXX 26151 33345 42498 82604 10080 20053 39838 40039 52020 886// 333 88711 555 11010"
"6:00 PM EEST on April 26, 2016","2016","04","26","18","00","Europe/Kiev","3:00 PM GMT on April 26, 2016","2016","04","26","15","00","UTC","8.0","46.4","5.0","41.0","81","21.6","13.4","-9999.0","-9999.0","270","West","10.0","6.2","1003","29.62","4.7","40.5","-9999","-9999","-9999.00","-9999.00","Overcast","cloudy","0","0","0","0","0","0","METAR UKKK 261500Z 27006MPS 9999 OVC010 08/05 Q1003 R26/CLRD70 NOSIG"
"6:30 PM EEST on April 26, 2016","2016","04","26","18","30","Europe/Kiev","3:30 PM GMT on April 26, 2016","2016","04","26","15","30","UTC","7.0","44.6","5.0","41.0","87","18.0","11.2","-9999.0","-9999.0","290","WNW","10.0","6.2","1004","29.65","3.8","38.9","-9999","-9999","-9999.00","-9999.00","Overcast","cloudy","0","0","0","0","0","0","METAR UKKK 261530Z 29005MPS 9999 OVC013 07/05 Q1004 R26/CLRD70 NOSIG"
"7:00 PM EEST on April 26, 2016","2016","04","26","19","00","Europe/Kiev","4:00 PM GMT on April 26, 2016","2016","04","26","16","00","UTC","7.0","44.6","5.0","41.0","87","21.6","13.4","-9999.0","-9999.0","280","West","10.0","6.2","1004","29.65","3.4","38.2","-9999","-9999","-9999.00","-9999.00","Overcast","cloudy","0","0","0","0","0","0","METAR UKKK 261600Z 28006MPS 9999 OVC014 07/05 Q1004 R26/CLRD70 NOSIG"
"7:30 PM EEST on April 26, 2016","2016","04","26","19","30","Europe/Kiev","4:30 PM GMT on April 26, 2016","2016","04","26","16","30","UTC","7.0","44.6","5.0","41.0","87","14.4","8.9","-9999.0","-9999.0","290","WNW","10.0","6.2","1004","29.65","4.3","39.8","-9999","-9999","-9999.00","-9999.00","Overcast","cloudy","0","0","0","0","0","0","METAR UKKK 261630Z 29004MPS 9999 OVC014 07/05 Q1004 R26/CLRD70 NOSIG"
"8:00 PM EEST on April 26, 2016","2016","04","26","20","00","Europe/Kiev","5:00 PM GMT on April 26, 2016","2016","04","26","17","00","UTC","7.0","44.6","4.0","39.2","81","18.0","11.2","-9999.0","-9999.0","290","WNW","10.0","6.2","1005","29.68","3.8","38.9","-9999","-9999","-9999.00","-9999.00","Overcast","cloudy","0","0","0","0","0","0","METAR UKKK 261700Z 29005MPS 9999 OVC014 07/04 Q1005 R26/CLRD70 NOSIG"
"8:30 PM EEST on April 26, 2016","2016","04","26","20","30","Europe/Kiev","5:30 PM GMT on April 26, 2016","2016","04","26","17","30","UTC","7.0","44.6","4.0","39.2","81","21.6","13.4","-9999.0","-9999.0","280","West","10.0","6.2","1006","29.71","3.4","38.2","-9999","-9999","-9999.00","-9999.00","Overcast","cloudy","0","0","0","0","0","0","METAR UKKK 261730Z 28006MPS 9999 OVC014 07/04 Q1006 R26/CLRD70 NOSIG"
"9:00 PM EEST on April 26, 2016","2016","04","26","21","00","Europe/Kiev","6:00 PM GMT on April 26, 2016","2016","04","26","18","00","UTC","7","45","4","40","76","10.8","6.7","","","310","NW","20","12","1006","29.73","-999","-999","-9999","-9999","","","Overcast","cloudy","0","0","0","0","0","0","AAXX 26181 33345 32498 83103 10071 20044 39863 40065 52025 885// 333 10088 88618 555 11008"
"9:00 PM EEST on April 26, 2016","2016","04","26","21","00","Europe/Kiev","6:00 PM GMT on April 26, 2016","2016","04","26","18","00","UTC","7.0","44.6","4.0","39.2","81","21.6","13.4","-9999.0","-9999.0","290","WNW","10.0","6.2","1006","29.71","3.4","38.2","-9999","-9999","-9999.00","-9999.00","Overcast","cloudy","0","0","0","0","0","0","METAR UKKK 261800Z 29006MPS 9999 OVC013 07/04 Q1006 R26/CLRD70 NOSIG"
"9:30 PM EEST on April 26, 2016","2016","04","26","21","30","Europe/Kiev","6:30 PM GMT on April 26, 2016","2016","04","26","18","30","UTC","6.0","42.8","4.0","39.2","87","21.6","13.4","-9999.0","-9999.0","300","WNW","10.0","6.2","1006","29.71","2.2","35.9","-9999","-9999","-9999.00","-9999.00","Overcast","cloudy","0","0","0","0","0","0","METAR UKKK 261830Z 30006MPS 9999 OVC013 06/04 Q1006 R26/CLRD70 NOSIG"
"10:00 PM EEST on April 26, 2016","2016","04","26","22","00","Europe/Kiev","7:00 PM GMT on April 26, 2016","2016","04","26","19","00","UTC","6.0","42.8","4.0","39.2","87","21.6","13.4","-9999.0","-9999.0","300","WNW","10.0","6.2","1006","29.71","2.2","35.9","-9999","-9999","-9999.00","-9999.00","Overcast","cloudy","0","0","0","0","0","0","METAR UKKK 261900Z 30006MPS 9999 OVC017 06/04 Q1006 R26/CLRD70 NOSIG"
"10:30 PM EEST on April 26, 2016","2016","04","26","22","30","Europe/Kiev","7:30 PM GMT on April 26, 2016","2016","04","26","19","30","UTC","6.0","42.8","4.0","39.2","87","21.6","13.4","-9999.0","-9999.0","310","NW","10.0","6.2","1006","29.71","2.2","35.9","-9999","-9999","-9999.00","-9999.00","Overcast","cloudy","0","0","0","0","0","0","METAR UKKK 261930Z 31006MPS 9999 OVC014 06/04 Q1006 R26/CLRD70 NOSIG"
"11:00 PM EEST on April 26, 2016","2016","04","26","23","00","Europe/Kiev","8:00 PM GMT on April 26, 2016","2016","04","26","20","00","UTC","6.0","42.8","3.0","37.4","81","18.0","11.2","-9999.0","-9999.0","310","NW","10.0","6.2","1007","29.74","2.6","36.7","-9999","-9999","-9999.00","-9999.00","Overcast","cloudy","0","0","0","0","0","0","METAR UKKK 262000Z 31005MPS 9999 OVC014 06/03 Q1007 R26/CLRD70 NOSIG"
"11:30 PM EEST on April 26, 2016","2016","04","26","23","30","Europe/Kiev","8:30 PM GMT on April 26, 2016","2016","04","26","20","30","UTC","6.0","42.8","3.0","37.4","81","18.0","11.2","-9999.0","-9999.0","310","NW","10.0","6.2","1007","29.74","2.6","36.7","-9999","-9999","-9999.00","-9999.00","Overcast","cloudy","0","0","0","0","0","0","METAR UKKK 262030Z 31005MPS 9999 BKN016 OVC036 06/03 Q1007 R26/CLRD70 NOSIG"
"12:00 AM EEST on April 27, 2016","2016","04","27","00","00","Europe/Kiev","9:00 PM GMT on April 26, 2016","2016","04","26","21","00","UTC","6","43","3","37","71","10.8","6.7","","","320","NW","20","12","1008","29.78","-999","-999","-9999","-9999","","","Overcast","cloudy","0","0","0","0","0","0","AAXX 26211 33345 42498 83203 10060 20026 39879 40083 52016 885// 333 88619 555 11007"
"12:00 AM EEST on April 27, 2016","2016","04","27","00","00","Europe/Kiev","9:00 PM GMT on April 26, 2016","2016","04","26","21","00","UTC","6.0","42.8","3.0","37.4","81","18.0","11.2","-9999.0","-9999.0","300","WNW","10.0","6.2","1007","29.74","2.6","36.7","-9999","-9999","-9999.00","-9999.00","Mostly Cloudy","mostlycloudy","0","0","0","0","0","0","METAR UKKK 262100Z 30005MPS 9999 SCT016 BKN036 06/03 Q1007 R26/CLRD70 NOSIG"
"12:30 AM EEST on April 27, 2016","2016","04","27","00","30","Europe/Kiev","9:30 PM GMT on April 26, 2016","2016","04","26","21","30","UTC","6.0","42.8","3.0","37.4","81","14.4","8.9","-9999.0","-9999.0","300","WNW","10.0","6.2","1008","29.77","3.1","37.6","-9999","-9999","-9999.00","-9999.00","Mostly Cloudy","mostlycloudy","0","0","0","0","0","0","METAR UKKK 262130Z 30004MPS 9999 SCT015 BKN036 06/03 Q1008 R26/CLRD70 NOSIG"
"1:00 AM EEST on April 27, 2016","2016","04","27","01","00","Europe/Kiev","10:00 PM GMT on April 26, 2016","2016","04","26","22","00","UTC","6.0","42.8","3.0","37.4","81","14.4","8.9","-9999.0","-9999.0","300","WNW","10.0","6.2","1008","29.77","3.1","37.6","-9999","-9999","-9999.00","-9999.00","Mostly Cloudy","mostlycloudy","0","0","0","0","0","0","METAR UKKK 262200Z 30004MPS 9999 SCT015 BKN036 06/03 Q1008 R26/CLRD70 NOSIG"
"1:30 AM EEST on April 27, 2016","2016","04","27","01","30","Europe/Kiev","10:30 PM GMT on April 26, 2016","2016","04","26","22","30","UTC","6.0","42.8","3.0","37.4","81","14.4","8.9","-9999.0","-9999.0","310","NW","10.0","6.2","1008","29.77","3.1","37.6","-9999","-9999","-9999.00","-9999.00","Overcast","cloudy","0","0","0","0","0","0","METAR UKKK 262230Z 31004MPS 9999 BKN014 OVC033 06/03 Q1008 R26/CLRD70 NOSIG"
"2:00 AM EEST on April 27, 2016","2016","04","27","02","00","Europe/Kiev","11:00 PM GMT on April 26, 2016","2016","04","26","23","00","UTC","6.0","42.8","3.0","37.4","81","10.8","6.7","-9999.0","-9999.0","310","NW","10.0","6.2","1008","29.77","3.7","38.7","-9999","-9999","-9999.00","-9999.00","Overcast","cloudy","0","0","0","0","0","0","METAR UKKK 262300Z 31003MPS 9999 BKN013 OVC033 06/03 Q1008 R26/CLRD70 NOSIG"
"2:30 AM EEST on April 27, 2016","2016","04","27","02","30","Europe/Kiev","11:30 PM GMT on April 26, 2016","2016","04","26","23","30","UTC","6.0","42.8","3.0","37.4","81","10.8","6.7","-9999.0","-9999.0","300","WNW","10.0","6.2","1008","29.77","3.7","38.7","-9999","-9999","-9999.00","-9999.00","Overcast","cloudy","0","0","0","0","0","0","METAR UKKK 262330Z 30003MPS 9999 BKN013 OVC033 06/03 Q1008 R26/CLRD70 NOSIG"
"3:00 AM EEST on April 27, 2016","2016","04","27","03","00","Europe/Kiev","12:00 AM GMT on April 27, 2016","2016","04","27","00","00","UTC","6","42","3","37","75","10.8","6.7","","","340","NNW","20","12","1010","29.81","-999","-999","-9999","-9999","","","Overcast","cloudy","0","0","0","0","0","0","AAXX 27001 33345 32498 83403 10058 20027 39891 40095 52012 885// 333 88618 555 11006"
"3:00 AM EEST on April 27, 2016","2016","04","27","03","00","Europe/Kiev","12:00 AM GMT on April 27, 2016","2016","04","27","00","00","UTC","6.0","42.8","3.0","37.4","81","14.4","8.9","-9999.0","-9999.0","300","WNW","10.0","6.2","1009","29.80","3.1","37.6","-9999","-9999","-9999.00","-9999.00","Overcast","cloudy","0","0","0","0","0","0","METAR UKKK 270000Z 30004MPS 9999 BKN013 OVC040 06/03 Q1009 R26/CLRD70 NOSIG"
"3:30 AM EEST on April 27, 2016","2016","04","27","03","30","Europe/Kiev","12:30 AM GMT on April 27, 2016","2016","04","27","00","30","UTC","6.0","42.8","3.0","37.4","81","10.8","6.7","-9999.0","-9999.0","300","WNW","10.0","6.2","1009","29.80","3.7","38.7","-9999","-9999","-9999.00","-9999.00","Overcast","cloudy","0","0","0","0","0","0","METAR UKKK 270030Z 30003MPS 9999 BKN013 OVC040 06/03 Q1009 R26/CLRD70 NOSIG"
"4:00 AM EEST on April 27, 2016","2016","04","27","04","00","Europe/Kiev","1:00 AM GMT on April 27, 2016","2016","04","27","01","00","UTC","6.0","42.8","3.0","37.4","81","14.4","8.9","-9999.0","-9999.0","300","WNW","10.0","6.2","1009","29.80","3.1","37.6","-9999","-9999","-9999.00","-9999.00","Overcast","cloudy","0","0","0","0","0","0","METAR UKKK 270100Z 30004MPS 9999 BKN013 OVC040 06/03 Q1009 R26/CLRD70 NOSIG"
"4:30 AM EEST on April 27, 2016","2016","04","27","04","30","Europe/Kiev","1:30 AM GMT on April 27, 2016","2016","04","27","01","30","UTC","5.0","41.0","3.0","37.4","87","14.4","8.9","-9999.0","-9999.0","310","NW","10.0","6.2","1009","29.80","1.9","35.4","-9999","-9999","-9999.00","-9999.00","Overcast","cloudy","0","0","0","0","0","0","METAR UKKK 270130Z 31004MPS 9999 BKN013 OVC040 05/03 Q1009 R26/CLRD70 NOSIG"
"5:00 AM EEST on April 27, 2016","2016","04","27","05","00","Europe/Kiev","2:00 AM GMT on April 27, 2016","2016","04","27","02","00","UTC","5.0","41.0","3.0","37.4","87","14.4","8.9","-9999.0","-9999.0","310","NW","10.0","6.2","1010","29.83","1.9","35.4","-9999","-9999","-9999.00","-9999.00","Overcast","cloudy","0","0","0","0","0","0","METAR UKKK 270200Z 31004MPS 9999 BKN012 OVC040 05/03 Q1010 R26/CLRD70 NOSIG"
"5:30 AM EEST on April 27, 2016","2016","04","27","05","30","Europe/Kiev","2:30 AM GMT on April 27, 2016","2016","04","27","02","30","UTC","5.0","41.0","3.0","37.4","87","10.8","6.7","-9999.0","-9999.0","320","NW","10.0","6.2","1010","29.83","2.5","36.5","-9999","-9999","-9999.00","-9999.00","Mostly Cloudy","mostlycloudy","0","0","0","0","0","0","METAR UKKK 270230Z 32003MPS 9999 BKN040 05/03 Q1010 R26/CLRD70 NOSIG"
"6:00 AM EEST on April 27, 2016","2016","04","27","06","00","Europe/Kiev","3:00 AM GMT on April 27, 2016","2016","04","27","03","00","UTC","5","41","2","36","78","10.8","6.7","","","330","NNW","20","12","1011","29.85","-999","-999","-9999","-9999","","","Scattered Clouds","partlycloudy","0","0","0","0","0","0","AAXX 27031 33345 42998 23303 10052 20025 39901 40106 52010 82030 555 11005"
"6:00 AM EEST on April 27, 2016","2016","04","27","06","00","Europe/Kiev","3:00 AM GMT on April 27, 2016","2016","04","27","03","00","UTC","5.0","41.0","3.0","37.4","87","10.8","6.7","-9999.0","-9999.0","330","NNW","10.0","6.2","1010","29.83","2.5","36.5","-9999","-9999","-9999.00","-9999.00","Scattered Clouds","partlycloudy","0","0","0","0","0","0","METAR UKKK 270300Z 33003MPS 9999 SCT040 05/03 Q1010 R26/CLRD70 NOSIG"
"6:30 AM EEST on April 27, 2016","2016","04","27","06","30","Europe/Kiev","3:30 AM GMT on April 27, 2016","2016","04","27","03","30","UTC","5.0","41.0","3.0","37.4","87","10.8","6.7","-9999.0","-9999.0","320","NW","-9999.0","-9999.0","1010","29.83","2.5","36.5","-9999","-9999","-9999.00","-9999.00","Clear","clear","0","0","0","0","0","0","METAR UKKK 270330Z 32003MPS CAVOK 05/03 Q1010 R26/CLRD70 NOSIG"
"7:00 AM EEST on April 27, 2016","2016","04","27","07","00","Europe/Kiev","4:00 AM GMT on April 27, 2016","2016","04","27","04","00","UTC","6.0","42.8","4.0","39.2","87","14.4","8.9","-9999.0","-9999.0","320","NW","-9999.0","-9999.0","1010","29.83","3.1","37.6","-9999","-9999","-9999.00","-9999.00","Clear","clear","0","0","0","0","0","0","METAR UKKK 270400Z 32004MPS CAVOK 06/04 Q1010 R26/CLRD70 NOSIG"
"7:30 AM EEST on April 27, 2016","2016","04","27","07","30","Europe/Kiev","4:30 AM GMT on April 27, 2016","2016","04","27","04","30","UTC","6.0","42.8","3.0","37.4","81","14.4","8.9","-9999.0","-9999.0","340","NNW","-9999.0","-9999.0","1010","29.83","3.1","37.6","-9999","-9999","-9999.00","-9999.00","Clear","clear","0","0","0","0","0","0","METAR UKKK 270430Z 34004MPS 310V020 CAVOK 06/03 Q1010 R26/CLRD70 NOSIG"
"8:00 AM EEST on April 27, 2016","2016","04","27","08","00","Europe/Kiev","5:00 AM GMT on April 27, 2016","2016","04","27","05","00","UTC","7.0","44.6","3.0","37.4","76","18.0","11.2","-9999.0","-9999.0","360","North","-9999.0","-9999.0","1010","29.83","3.8","38.9","-9999","-9999","-9999.00","-9999.00","Clear","clear","0","0","0","0","0","0","METAR UKKK 270500Z 36005MPS 330V030 CAVOK 07/03 Q1010 R26/CLRD70 NOSIG"
"8:30 AM EEST on April 27, 2016","2016","04","27","08","30","Europe/Kiev","5:30 AM GMT on April 27, 2016","2016","04","27","05","30","UTC","7.0","44.6","3.0","37.4","76","18.0","11.2","-9999.0","-9999.0","360","North","10.0","6.2","1011","29.86","3.8","38.9","-9999","-9999","-9999.00","-9999.00","Mostly Cloudy","mostlycloudy","0","0","0","0","0","0","METAR UKKK 270530Z 36005MPS 330V050 9999 FEW020 BKN100 07/03 Q1011 R26/CLRD70 NOSIG"
"9:00 AM EEST on April 27, 2016","2016","04","27","09","00","Europe/Kiev","6:00 AM GMT on April 27, 2016","2016","04","27","06","00","UTC","8","46","3","37","63","10.8","6.7","","","0","North","20","12","1012","29.88","-999","-999","-9999","-9999","","","Mostly Cloudy","mostlycloudy","0","0","0","0","0","0","AAXX 27061 33345 32598 63603 10077 20030 39914 40117 52013 86500 333 20051 555 11013 31004 52004"
"9:00 AM EEST on April 27, 2016","2016","04","27","09","00","Europe/Kiev","6:00 AM GMT on April 27, 2016","2016","04","27","06","00","UTC","8.0","46.4","3.0","37.4","71","14.4","8.9","-9999.0","-9999.0","10","North","10.0","6.2","1011","29.86","5.6","42.0","-9999","-9999","-9999.00","-9999.00","Mostly Cloudy","mostlycloudy","0","0","0","0","0","0","METAR UKKK 270600Z 01004MPS 310V050 9999 BKN022 08/03 Q1011 R26/CLRD70 NOSIG"
"9:30 AM EEST on April 27, 2016","2016","04","27","09","30","Europe/Kiev","6:30 AM GMT on April 27, 2016","2016","04","27","06","30","UTC","8.0","46.4","3.0","37.4","71","10.8","6.7","-9999.0","-9999.0","350","North","10.0","6.2","1011","29.86","6.1","43.0","-9999","-9999","-9999.00","-9999.00","Mostly Cloudy","mostlycloudy","0","0","0","0","0","0","METAR UKKK 270630Z 35003MPS 310V040 9999 FEW020 BKN053 08/03 Q1011 R26/CLRD70 NOSIG"
"10:00 AM EEST on April 27, 2016","2016","04","27","10","00","Europe/Kiev","7:00 AM GMT on April 27, 2016","2016","04","27","07","00","UTC","9.0","48.2","4.0","39.2","71","14.4","8.9","-9999.0","-9999.0","360","North","10.0","6.2","1011","29.86","-999","-999","-9999","-9999","-9999.00","-9999.00","Partly Cloudy","partlycloudy","0","0","0","0","0","0","METAR UKKK 270700Z 36004MPS 320V060 9999 FEW020 09/04 Q1011 R26/CLRD70 NOSIG"
"10:30 AM EEST on April 27, 2016","2016","04","27","10","30","Europe/Kiev","7:30 AM GMT on April 27, 2016","2016","04","27","07","30","UTC","10.0","50.0","3.0","37.4","62","14.4","8.9","-9999.0","-9999.0","360","North","10.0","6.2","1011","29.86","-999","-999","-9999","-9999","-9999.00","-9999.00","Partly Cloudy","partlycloudy","0","0","0","0","0","0","METAR UKKK 270730Z 36004MPS 320V040 9999 FEW028 10/03 Q1011 R08/CLRD70 NOSIG"
"11:00 AM EEST on April 27, 2016","2016","04","27","11","00","Europe/Kiev","8:00 AM GMT on April 27, 2016","2016","04","27","08","00","UTC","11.0","51.8","2.0","35.6","54","18.0","11.2","-9999.0","-9999.0","10","North","10.0","6.2","1011","29.86","-999","-999","-9999","-9999","-9999.00","-9999.00","Partly Cloudy","partlycloudy","0","0","0","0","0","0","METAR UKKK 270800Z 01005MPS 340V040 9999 FEW039 11/02 Q1011 R08/CLRD70 NOSIG"
"11:30 AM EEST on April 27, 2016","2016","04","27","11","30","Europe/Kiev","8:30 AM GMT on April 27, 2016","2016","04","27","08","30","UTC","12.0","53.6","3.0","37.4","54","14.4","8.9","-9999.0","-9999.0","30","NNE","10.0","6.2","1011","29.86","-999","-999","-9999","-9999","-9999.00","-9999.00","Partly Cloudy","partlycloudy","0","0","0","0","0","0","METAR UKKK 270830Z 03004MPS 340V090 9999 FEW037 12/03 Q1011 R08/CLRD70 NOSIG"
"12:00 PM EEST on April 27, 2016","2016","04","27","12","00","Europe/Kiev","9:00 AM GMT on April 27, 2016","2016","04","27","09","00","UTC","10","51","1","34","39","14.4","8.9","","","10","North","20","12","1012","29.88","-999","-999","-9999","-9999","","","Scattered Clouds","partlycloudy","0","0","0","0","0","0","AAXX 27091 33345 42698 10104 10105 20009 39918 40119 51004 81100 555 10025"
"12:00 PM EEST on April 27, 2016","2016","04","27","12","00","Europe/Kiev","9:00 AM GMT on April 27, 2016","2016","04","27","09","00","UTC","11.0","51.8","3.0","37.4","58","14.4","8.9","-9999.0","-9999.0","320","NW","10.0","6.2","1011","29.86","-999","-999","-9999","-9999","-9999.00","-9999.00","Partly Cloudy","partlycloudy","0","0","0","0","0","0","METAR UKKK 270900Z 32004MPS 280V010 9999 FEW037 11/03 Q1011 R08/CLRD70 NOSIG"
"12:30 PM EEST on April 27, 2016","2016","04","27","12","30","Europe/Kiev","9:30 AM GMT on April 27, 2016","2016","04","27","09","30","UTC","13.0","55.4","4.0","39.2","54","14.4","8.9","-9999.0","-9999.0","10","North","10.0","6.2","1011","29.86","-999","-999","-9999","-9999","-9999.00","-9999.00","Scattered Clouds","partlycloudy","0","0","0","0","0","0","METAR UKKK 270930Z 01004MPS 310V050 9999 SCT042 13/04 Q1011 R08/CLRD70 NOSIG"
"1:00 PM EEST on April 27, 2016","2016","04","27","13","00","Europe/Kiev","10:00 AM GMT on April 27, 2016","2016","04","27","10","00","UTC","13.0","55.4","4.0","39.2","54","14.4","8.9","-9999.0","-9999.0","50","NE","10.0","6.2","1011","29.86","-999","-999","-9999","-9999","-9999.00","-9999.00","Scattered Clouds","partlycloudy","0","0","0","0","0","0","METAR UKKK 271000Z 05004MPS 010V100 9999 SCT040 13/04 Q1011 R08/CLRD70 NOSIG"
"1:30 PM EEST on April 27, 2016","2016","04","27","13","30","Europe/Kiev","10:30 AM GMT on April 27, 2016","2016","04","27","10","30","UTC","13.0","55.4","3.0","37.4","51","14.4","8.9","-9999.0","-9999.0","20","NNE","10.0","6.2","1011","29.86","-999","-999","-9999","-9999","-9999.00","-9999.00","Scattered Clouds","partlycloudy","0","0","0","0","0","0","METAR UKKK 271030Z 02004MPS 340V080 9999 SCT040 13/03 Q1011 R08/CLRD70 NOSIG"
"2:00 PM EEST on April 27, 2016","2016","04","27","14","00","Europe/Kiev","11:00 AM GMT on April 27, 2016","2016","04","27","11","00","UTC","13.0","55.4","3.0","37.4","51","14.4","8.9","-9999.0","-9999.0","20","NNE","10.0","6.2","1012","29.89","-999","-999","-9999","-9999","-9999.00","-9999.00","Scattered Clouds","partlycloudy","0","0","0","0","0","0","METAR UKKK 271100Z 02004MPS 350V050 9999 SCT043 13/03 Q1012 R08/CLRD70 NOSIG"
"2:30 PM EEST on April 27, 2016","2016","04","27","14","30","Europe/Kiev","11:30 AM GMT on April 27, 2016","2016","04","27","11","30","UTC","13.0","55.4","3.0","37.4","51","14.4","8.9","-9999.0","-9999.0","20","NNE","10.0","6.2","1011","29.86","-999","-999","-9999","-9999","-9999.00","-9999.00","Scattered Clouds","partlycloudy","0","0","0","0","0","0","METAR UKKK 271130Z 02004MPS 340V070 9999 SCT043 13/03 Q1011 R08/CLRD70 NOSIG"
"3:00 PM EEST on April 27, 2016","2016","04","27","15","00","Europe/Kiev","12:00 PM GMT on April 27, 2016","2016","04","27","12","00","UTC","14","57","2","36","33","14.4","8.9","","","0","North","20","12","1012","29.88","-999","-999","-9999","-9999","","","Scattered Clouds","partlycloudy","0","0","0","0","0","0","AAXX 27121 33345 32698 13604 10138 20020 39919 40118 53001 81100 555 10031"
"3:00 PM EEST on April 27, 2016","2016","04","27","15","00","Europe/Kiev","12:00 PM GMT on April 27, 2016","2016","04","27","12","00","UTC","14.0","57.2","3.0","37.4","48","18.0","11.2","-9999.0","-9999.0","10","North","10.0","6.2","1011","29.86","-999","-999","-9999","-9999","-9999.00","-9999.00","Scattered Clouds","partlycloudy","0","0","0","0","0","0","METAR UKKK 271200Z 01005MPS 310V040 9999 SCT047 14/03 Q1011 R08/CLRD70 NOSIG"
"3:30 PM EEST on April 27, 2016","2016","04","27","15","30","Europe/Kiev","12:30 PM GMT on April 27, 2016","2016","04","27","12","30","UTC","13.0","55.4","3.0","37.4","51","18.0","11.2","-9999.0","-9999.0","30","NNE","10.0","6.2","1011","29.86","-999","-999","-9999","-9999","-9999.00","-9999.00","Scattered Clouds","partlycloudy","0","0","0","0","0","0","METAR UKKK 271230Z 03005MPS 9999 SCT047 13/03 Q1011 R08/CLRD70 NOSIG"
"4:00 PM EEST on April 27, 2016","2016","04","27","16","00","Europe/Kiev","1:00 PM GMT on April 27, 2016","2016","04","27","13","00","UTC","14.0","57.2","4.0","39.2","51","14.4","8.9","-9999.0","-9999.0","10","North","10.0","6.2","1011","29.86","-999","-999","-9999","-9999","-9999.00","-9999.00","Scattered Clouds","partlycloudy","0","0","0","0","0","0","METAR UKKK 271300Z 01004MPS 340V040 9999 SCT047 14/04 Q1011 R08/CLRD70 NOSIG"
"4:30 PM EEST on April 27, 2016","2016","04","27","16","30","Europe/Kiev","1:30 PM GMT on April 27, 2016","2016","04","27","13","30","UTC","14.0","57.2","3.0","37.4","48","10.8","6.7","-9999.0","-9999.0","10","North","-9999.0","-9999.0","1011","29.86","-999","-999","-9999","-9999","-9999.00","-9999.00","Clear","clear","0","0","0","0","0","0","METAR UKKK 271330Z 01003MPS 300V080 CAVOK 14/03 Q1011 R08/CLRD70 NOSIG"
"5:00 PM EEST on April 27, 2016","2016","04","27","17","00","Europe/Kiev","2:00 PM GMT on April 27, 2016","2016","04","27","14","00","UTC","14.0","57.2","3.0","37.4","48","14.4","8.9","-9999.0","-9999.0","30","NNE","10.0","6.2","1011","29.86","-999","-999","-9999","-9999","-9999.00","-9999.00","Scattered Clouds","partlycloudy","0","0","0","0","0","0","METAR UKKK 271400Z 03004MPS 360V080 9999 SCT049 14/03 Q1011 R08/CLRD70 NOSIG"
"5:30 PM EEST on April 27, 2016","2016","04","27","17","30","Europe/Kiev","2:30 PM GMT on April 27, 2016","2016","04","27","14","30","UTC","14.0","57.2","3.0","37.4","48","14.4","8.9","-9999.0","-9999.0","10","North","10.0","6.2","1011","29.86","-999","-999","-9999","-9999","-9999.00","-9999.00","Scattered Clouds","partlycloudy","0","0","0","0","0","0","METAR UKKK 271430Z 01004MPS 320V060 9999 SCT048 14/03 Q1011 R08/CLRD70 NOSIG"
"6:00 PM EEST on April 27, 2016","2016","04","27","18","00","Europe/Kiev","3:00 PM GMT on April 27, 2016","2016","04","27","15","00","UTC","14","57","3","37","36","10.8","6.7","","","30","NNE","20","12","1012","29.88","-999","-999","-9999","-9999","","","Scattered Clouds","partlycloudy","0","0","0","0","0","0","AAXX 27151 33345 42698 20303 10137 20030 39917 40116 58002 82100 555 10021"
"6:00 PM EEST on April 27, 2016","2016","04","27","18","00","Europe/Kiev","3:00 PM GMT on April 27, 2016","2016","04","27","15","00","UTC","14.0","57.2","3.0","37.4","48","14.4","8.9","-9999.0","-9999.0","30","NNE","-9999.0","-9999.0","1011","29.86","-999","-999","-9999","-9999","-9999.00","-9999.00","Clear","clear","0","0","0","0","0","0","METAR UKKK 271500Z 03004MPS CAVOK 14/03 Q1011 R08/CLRD70 NOSIG"
"6:30 PM EEST on April 27, 2016","2016","04","27","18","30","Europe/Kiev","3:30 PM GMT on April 27, 2016","2016","04","27","15","30","UTC","14.0","57.2","3.0","37.4","48","10.8","6.7","-9999.0","-9999.0","40","NE","-9999.0","-9999.0","1011","29.86","-999","-999","-9999","-9999","-9999.00","-9999.00","Clear","clear","0","0","0","0","0","0","METAR UKKK 271530Z 04003MPS 360V070 CAVOK 14/03 Q1011 R08/CLRD70 NOSIG"
"7:00 PM EEST on April 27, 2016","2016","04","27","19","00","Europe/Kiev","4:00 PM GMT on April 27, 2016","2016","04","27","16","00","UTC","13.0","55.4","3.0","37.4","51","10.8","6.7","-9999.0","-9999.0","40","NE","-9999.0","-9999.0","1011","29.86","-999","-999","-9999","-9999","-9999.00","-9999.00","Clear","clear","0","0","0","0","0","0","METAR UKKK 271600Z 04003MPS CAVOK 13/03 Q1011 R08/CLRD70 NOSIG"
"7:30 PM EEST on April 27, 2016","2016","04","27","19","30","Europe/Kiev","4:30 PM GMT on April 27, 2016","2016","04","27","16","30","UTC","13.0","55.4","4.0","39.2","54","10.8","6.7","-9999.0","-9999.0","30","NNE","-9999.0","-9999.0","1012","29.89","-999","-999","-9999","-9999","-9999.00","-9999.00","Clear","clear","0","0","0","0","0","0","METAR UKKK 271630Z 03003MPS 360V060 CAVOK 13/04 Q1012 R08/CLRD70 NOSIG"
"8:00 PM EEST on April 27, 2016","2016","04","27","20","00","Europe/Kiev","5:00 PM GMT on April 27, 2016","2016","04","27","17","00","UTC","11.0","51.8","4.0","39.2","62","10.8","6.7","-9999.0","-9999.0","40","NE","-9999.0","-9999.0","1012","29.89","-999","-999","-9999","-9999","-9999.00","-9999.00","Clear","clear","0","0","0","0","0","0","METAR UKKK 271700Z 04003MPS CAVOK 11/04 Q1012 R08/CLRD70 NOSIG"
"8:30 PM EEST on April 27, 2016","2016","04","27","20","30","Europe/Kiev","5:30 PM GMT on April 27, 2016","2016","04","27","17","30","UTC","11.0","51.8","4.0","39.2","62","10.8","6.7","-9999.0","-9999.0","40","NE","-9999.0","-9999.0","1012","29.89","-999","-999","-9999","-9999","-9999.00","-9999.00","Clear","clear","0","0","0","0","0","0","METAR UKKK 271730Z 04003MPS CAVOK 11/04 Q1012 R08/CLRD70 NOSIG"
"9:00 PM EEST on April 27, 2016","2016","04","27","21","00","Europe/Kiev","6:00 PM GMT on April 27, 2016","2016","04","27","18","00","UTC","10","51","5","41","58","0.0","0.0","","","","","20","12","1013","29.91","-999","-999","-9999","-9999","","","","","0","0","0","0","0","0","AAXX 27181 33345 32998 00000 10103 20048 39927 40128 53010 333 10142 555 10010"
"9:00 PM EEST on April 27, 2016","2016","04","27","21","00","Europe/Kiev","6:00 PM GMT on April 27, 2016","2016","04","27","18","00","UTC","10.0","50.0","4.0","39.2","66","7.2","4.5","-9999.0","-9999.0","30","NNE","-9999.0","-9999.0","1012","29.89","-999","-999","-9999","-9999","-9999.00","-9999.00","Clear","clear","0","0","0","0","0","0","METAR UKKK 271800Z 03002MPS CAVOK 10/04 Q1012 R08/CLRD70 NOSIG"
"9:30 PM EEST on April 27, 2016","2016","04","27","21","30","Europe/Kiev","6:30 PM GMT on April 27, 2016","2016","04","27","18","30","UTC","9.0","48.2","4.0","39.2","71","7.2","4.5","-9999.0","-9999.0","30","NNE","-9999.0","-9999.0","1012","29.89","-999","-999","-9999","-9999","-9999.00","-9999.00","Clear","clear","0","0","0","0","0","0","METAR UKKK 271830Z 03002MPS 360V080 CAVOK 09/04 Q1012 R08/CLRD70 NOSIG"
"10:00 PM EEST on April 27, 2016","2016","04","27","22","00","Europe/Kiev","7:00 PM GMT on April 27, 2016","2016","04","27","19","00","UTC","9.0","48.2","5.0","41.0","76","7.2","4.5","-9999.0","-9999.0","80","East","-9999.0","-9999.0","1012","29.89","-999","-999","-9999","-9999","-9999.00","-9999.00","Clear","clear","0","0","0","0","0","0","METAR UKKK 271900Z 08002MPS CAVOK 09/05 Q1012 R08/CLRD70 NOSIG"
"10:30 PM EEST on April 27, 2016","2016","04","27","22","30","Europe/Kiev","7:30 PM GMT on April 27, 2016","2016","04","27","19","30","UTC","8.0","46.4","5.0","41.0","81","3.6","2.2","-9999.0","-9999.0","60","ENE","8.0","5.0","1012","29.89","-999","-999","-9999","-9999","-9999.00","-9999.00","Unknown","unknown","0","0","0","0","0","0","METAR UKKK 271930Z 06001MPS 8000 NSC 08/05 Q1012 R08/CLRD70 NOSIG"
"11:00 PM EEST on April 27, 2016","2016","04","27","23","00","Europe/Kiev","8:00 PM GMT on April 27, 2016","2016","04","27","20","00","UTC","7.0","44.6","5.0","41.0","87","0.0","0.0","-9999.0","-9999.0","0","North","7.0","4.3","1012","29.89","-999","-999","-9999","-9999","-9999.00","-9999.00","Unknown","unknown","0","0","0","0","0","0","METAR UKKK 272000Z 00000MPS 7000 NSC 07/05 Q1012 R08/CLRD70 NOSIG"
"11:30 PM EEST on April 27, 2016","2016","04","27","23","30","Europe/Kiev","8:30 PM GMT on April 27, 2016","2016","04","27","20","30","UTC","8.0","46.4","6.0","42.8","87","7.2","4.5","-9999.0","-9999.0","80","East","-9999.0","-9999.0","1013","29.92","6.9","44.4","-9999","-9999","-9999.00","-9999.00","Clear","clear","0","0","0","0","0","0","METAR UKKK 272030Z 08002MPS CAVOK 08/06 Q1013 R08/CLRD70 NOSIG"
"12:00 AM EEST on April 28, 2016","2016","04","28","00","00","Europe/Kiev","9:00 PM GMT on April 27, 2016","2016","04","27","21","00","UTC","8","47","6","43","80","3.6","2.2","","","20","NNE","20","12","1014","29.93","-999","-999","-9999","-9999","","","","","0","0","0","0","0","0","AAXX 27211 33345 42998 00201 10082 20060 39932 40135 52005 555 10007"
"12:00 AM EEST on April 28, 2016","2016","04","28","00","00","Europe/Kiev","9:00 PM GMT on April 27, 2016","2016","04","27","21","00","UTC","7.0","44.6","5.0","41.0","87","7.2","4.5","-9999.0","-9999.0","80","East","-9999.0","-9999.0","1013","29.92","5.7","42.3","-9999","-9999","-9999.00","-9999.00","Clear","clear","0","0","0","0","0","0","METAR UKKK 272100Z 08002MPS CAVOK 07/05 Q1013 R08/CLRD70 NOSIG"
"12:30 AM EEST on April 28, 2016","2016","04","28","00","30","Europe/Kiev","9:30 PM GMT on April 27, 2016","2016","04","27","21","30","UTC","5.0","41.0","5.0","41.0","100","3.6","2.2","-9999.0","-9999.0","90","East","9.0","5.6","1013","29.92","-999","-999","-9999","-9999","-9999.00","-9999.00","Clear","clear","0","0","0","0","0","0","METAR UKKK 272130Z 09001MPS 9000 SKC 05/05 Q1013 R08/CLRD70 NOSIG"
"1:00 AM EEST on April 28, 2016","2016","04","28","01","00","Europe/Kiev","10:00 PM GMT on April 27, 2016","2016","04","27","22","00","UTC","6.0","42.8","5.0","41.0","93","3.6","2.2","-9999.0","-9999.0","60","ENE","9.0","5.6","1013","29.92","-999","-999","-9999","-9999","-9999.00","-9999.00","Clear","clear","0","0","0","0","0","0","METAR UKKK 272200Z 06001MPS 9000 SKC 06/05 Q1013 R08/CLRD70 NOSIG"
"1:30 AM EEST on April 28, 2016","2016","04","28","01","30","Europe/Kiev","10:30 PM GMT on April 27, 2016","2016","04","27","22","30","UTC","5.0","41.0","5.0","41.0","100","0.0","0.0","-9999.0","-9999.0","0","North","-9999.0","-9999.0","1013","29.92","-999","-999","-9999","-9999","-9999.00","-9999.00","Clear","clear","0","0","0","0","0","0","METAR UKKK 272230Z 00000MPS 0650 R08/P2000D PRFG SKC 05/05 Q1013 R08/CLRD70 TEMPO 0400 FG VV001"
"2:00 AM EEST on April 28, 2016","2016","04","28","02","00","Europe/Kiev","11:00 PM GMT on April 27, 2016","2016","04","27","23","00","UTC","5.0","41.0","5.0","41.0","100","3.6","2.2","-9999.0","-9999.0","260","West","7.0","4.3","1012","29.89","-999","-999","-9999","-9999","-9999.00","-9999.00","Unknown","unknown","0","0","0","0","0","0","METAR UKKK 272300Z 26001MPS 7000 NSC 05/05 Q1012 R08/CLRD70 TEMPO 0400 FG VV001"
"2:30 AM EEST on April 28, 2016","2016","04","28","02","30","Europe/Kiev","11:30 PM GMT on April 27, 2016","2016","04","27","23","30","UTC","5.0","41.0","4.0","39.2","93","3.6","2.2","-9999.0","-9999.0","250","WSW","-9999.0","-9999.0","1012","29.89","-999","-999","-9999","-9999","-9999.00","-9999.00","Mist","hazy","0","0","0","0","0","0","METAR UKKK 272330Z 25001MPS 4900 BR NSC 05/04 Q1012 R08/CLRD70 TEMPO 0400 FG BKN001"
"3:00 AM EEST on April 28, 2016","2016","04","28","03","00","Europe/Kiev","12:00 AM GMT on April 28, 2016","2016","04","28","00","00","UTC","7","45","5","42","84","0.0","0.0","","","","","4","2","1013","29.92","-999","-999","-9999","-9999","","","Mist","hazy","0","0","0","0","0","0","AAXX 28001 33345 31996 00000 10070 20054 39928 40132 58004 71000 555 10005"
"3:00 AM EEST on April 28, 2016","2016","04","28","03","00","Europe/Kiev","12:00 AM GMT on April 28, 2016","2016","04","28","00","00","UTC","4.0","39.2","4.0","39.2","100","3.6","2.2","-9999.0","-9999.0","230","SW","-9999.0","-9999.0","1012","29.89","-999","-999","-9999","-9999","-9999.00","-9999.00","Mist","hazy","0","0","0","0","0","0","METAR UKKK 280000Z 23001MPS 3100 BR NSC 04/04 Q1012 R08/CLRD70 TEMPO 0400 FG BKN001"
"3:30 AM EEST on April 28, 2016","2016","04","28","03","30","Europe/Kiev","12:30 AM GMT on April 28, 2016","2016","04","28","00","30","UTC","4.0","39.2","4.0","39.2","100","3.6","2.2","-9999.0","-9999.0","210","SSW","2.1","1.3","1012","29.89","-999","-999","-9999","-9999","-9999.00","-9999.00","Mist","hazy","0","0","0","0","0","0","METAR UKKK 280030Z 21001MPS 2100 BR NSC 04/04 Q1012 R08/CLRD70 TEMPO 0400 FG BKN001"
"4:00 AM EEST on April 28, 2016","2016","04","28","04","00","Europe/Kiev","1:00 AM GMT on April 28, 2016","2016","04","28","01","00","UTC","3.0","37.4","3.0","37.4","100","3.6","2.2","-9999.0","-9999.0","230","SW","-9999.0","-9999.0","1013","29.92","-999","-999","-9999","-9999","-9999.00","-9999.00","Mist","hazy","0","0","0","0","0","0","METAR UKKK 280100Z 23001MPS 3100 BR NSC 03/03 Q1013 R08/CLRD70 TEMPO 0400 FG BKN001"
"4:30 AM EEST on April 28, 2016","2016","04","28","04","30","Europe/Kiev","1:30 AM GMT on April 28, 2016","2016","04","28","01","30","UTC","3.0","37.4","3.0","37.4","100","3.6","2.2","-9999.0","-9999.0","230","SW","5.0","3.1","1013","29.92","-999","-999","-9999","-9999","-9999.00","-9999.00","Mist","hazy","0","0","0","0","0","0","METAR UKKK 280130Z 23001MPS 5000 BR NSC 03/03 Q1013 R08/CLRD70 TEMPO 0400 FG BKN001"
"5:00 AM EEST on April 28, 2016","2016","04","28","05","00","Europe/Kiev","2:00 AM GMT on April 28, 2016","2016","04","28","02","00","UTC","3.0","37.4","3.0","37.4","100","3.6","2.2","-9999.0","-9999.0","240","WSW","-9999.0","-9999.0","1013","29.92","-999","-999","-9999","-9999","-9999.00","-9999.00","Mist","hazy","0","0","0","0","0","0","METAR UKKK 280200Z 24001MPS 3900 BR NSC 03/03 Q1013 R08/CLRD70 TEMPO 0400 FG BKN001"
"5:30 AM EEST on April 28, 2016","2016","04","28","05","30","Europe/Kiev","2:30 AM GMT on April 28, 2016","2016","04","28","02","30","UTC","3.0","37.4","3.0","37.4","100","3.6","2.2","-9999.0","-9999.0","240","WSW","1.3","0.8","1013","29.92","-999","-999","-9999","-9999","-9999.00","-9999.00","Mist","hazy","0","0","0","0","0","0","METAR UKKK 280230Z 24001MPS 1300 R08/1200VP2000D BR NSC 03/03 Q1013 R08/CLRD70 TEMPO 0400 FG BKN001"
"6:00 AM EEST on April 28, 2016","2016","04","28","06","00","Europe/Kiev","3:00 AM GMT on April 28, 2016","2016","04","28","03","00","UTC","7","44","5","41","83","7.2","4.5","","","280","West","4","2","1014","29.93","-999","-999","-9999","-9999","","","Mist","hazy","0","0","0","0","0","0","AAXX 28031 33345 41996 02802 10066 20048 39931 40135 53003 71000 555 11004"
"6:00 AM EEST on April 28, 2016","2016","04","28","06","00","Europe/Kiev","3:00 AM GMT on April 28, 2016","2016","04","28","03","00","UTC","3.0","37.4","3.0","37.4","100","0.0","0.0","-9999.0","-9999.0","0","North","2.8","1.7","1013","29.92","-999","-999","-9999","-9999","-9999.00","-9999.00","Mist","hazy","0","0","0","0","0","0","METAR UKKK 280300Z 00000MPS 2800 BR NSC 03/03 Q1013 R08/CLRD70 TEMPO 0400 FG BKN001"
"6:30 AM EEST on April 28, 2016","2016","04","28","06","30","Europe/Kiev","3:30 AM GMT on April 28, 2016","2016","04","28","03","30","UTC","4.0","39.2","4.0","39.2","100","3.6","2.2","-9999.0","-9999.0","240","WSW","5.0","3.1","1013","29.92","-999","-999","-9999","-9999","-9999.00","-9999.00","Mist","hazy","0","0","0","0","0","0","METAR UKKK 280330Z 24001MPS 5000 BR NSC 04/04 Q1013 R08/CLRD70 TEMPO 0400 FG BKN001"
"7:00 AM EEST on April 28, 2016","2016","04","28","07","00","Europe/Kiev","4:00 AM GMT on April 28, 2016","2016","04","28","04","00","UTC","6.0","42.8","6.0","42.8","100","0.0","0.0","-9999.0","-9999.0","0","North","7.0","4.3","1013","29.92","-999","-999","-9999","-9999","-9999.00","-9999.00","Clear","clear","0","0","0","0","0","0","METAR UKKK 280400Z 00000MPS 7000 SKC 06/06 Q1013 R08/CLRD70 NOSIG"
"7:30 AM EEST on April 28, 2016","2016","04","28","07","30","Europe/Kiev","4:30 AM GMT on April 28, 2016","2016","04","28","04","30","UTC","7.0","44.6","6.0","42.8","93","3.6","2.2","-9999.0","-9999.0","0","Variable","9.0","5.6","1013","29.92","-999","-999","-9999","-9999","-9999.00","-9999.00","Clear","clear","0","0","0","0","0","0","METAR UKKK 280430Z VRB01MPS 9000 SKC 07/06 Q1013 R08/CLRD70 NOSIG"
"8:00 AM EEST on April 28, 2016","2016","04","28","08","00","Europe/Kiev","5:00 AM GMT on April 28, 2016","2016","04","28","05","00","UTC","9.0","48.2","7.0","44.6","87","3.6","2.2","-9999.0","-9999.0","0","Variable","-9999.0","-9999.0","1013","29.92","-999","-999","-9999","-9999","-9999.00","-9999.00","Clear","clear","0","0","0","0","0","0","METAR UKKK 280500Z VRB01MPS CAVOK 09/07 Q1013 R08/CLRD70 NOSIG"
"8:30 AM EEST on April 28, 2016","2016","04","28","08","30","Europe/Kiev","5:30 AM GMT on April 28, 2016","2016","04","28","05","30","UTC","10.0","50.0","7.0","44.6","82","3.6","2.2","-9999.0","-9999.0","0","Variable","-9999.0","-9999.0","1013","29.92","-999","-999","-9999","-9999","-9999.00","-9999.00","Clear","clear","0","0","0","0","0","0","METAR UKKK 280530Z VRB01MPS CAVOK 10/07 Q1013 R26/CLRD70 NOSIG"
"9:00 AM EEST on April 28, 2016","2016","04","28","09","00","Europe/Kiev","6:00 AM GMT on April 28, 2016","2016","04","28","06","00","UTC","12","54","6","42","55","7.2","4.5","","","290","WNW","20","12","1014","29.94","-999","-999","-9999","-9999","","","","","0","0","0","0","0","0","AAXX 28061 33345 32998 02902 10120 20058 39938 40138 52007 333 20064 555 11017 31004 52002"
"9:00 AM EEST on April 28, 2016","2016","04","28","09","00","Europe/Kiev","6:00 AM GMT on April 28, 2016","2016","04","28","06","00","UTC","12.0","53.6","6.0","42.8","67","10.8","6.7","-9999.0","-9999.0","280","West","-9999.0","-9999.0","1013","29.92","-999","-999","-9999","-9999","-9999.00","-9999.00","Clear","clear","0","0","0","0","0","0","METAR UKKK 280600Z 28003MPS CAVOK 12/06 Q1013 R26/CLRD70 NOSIG"
"9:30 AM EEST on April 28, 2016","2016","04","28","09","30","Europe/Kiev","6:30 AM GMT on April 28, 2016","2016","04","28","06","30","UTC","12.0","53.6","5.0","41.0","62","7.2","4.5","-9999.0","-9999.0","290","WNW","-9999.0","-9999.0","1013","29.92","-999","-999","-9999","-9999","-9999.00","-9999.00","Clear","clear","0","0","0","0","0","0","METAR UKKK 280630Z 29002MPS 250V340 CAVOK 12/05 Q1013 R26/CLRD70 NOSIG"
"10:00 AM EEST on April 28, 2016","2016","04","28","10","00","Europe/Kiev","7:00 AM GMT on April 28, 2016","2016","04","28","07","00","UTC","13.0","55.4","4.0","39.2","54","10.8","6.7","-9999.0","-9999.0","280","West","10.0","6.2","1013","29.92","-999","-999","-9999","-9999","-9999.00","-9999.00","Scattered Clouds","partlycloudy","0","0","0","0","0","0","METAR UKKK 280700Z 28003MPS 230V320 9999 SCT033 13/04 Q1013 R26/CLRD70 NOSIG"
"10:30 AM EEST on April 28, 2016","2016","04","28","10","30","Europe/Kiev","7:30 AM GMT on April 28, 2016","2016","04","28","07","30","UTC","14.0","57.2","4.0","39.2","51","14.4","8.9","-9999.0","-9999.0","270","West","10.0","6.2","1013","29.92","-999","-999","-9999","-9999","-9999.00","-9999.00","Scattered Clouds","partlycloudy","0","0","0","0","0","0","METAR UKKK 280730Z 27004MPS 9999 SCT033 14/04 Q1013 R26/CLRD70 NOSIG"
"11:00 AM EEST on April 28, 2016","2016","04","28","11","00","Europe/Kiev","8:00 AM GMT on April 28, 2016","2016","04","28","08","00","UTC","14.0","57.2","4.0","39.2","51","7.2","4.5","-9999.0","-9999.0","280","West","-9999.0","-9999.0","1013","29.92","-999","-999","-9999","-9999","-9999.00","-9999.00","Clear","clear","0","0","0","0","0","0","METAR UKKK 280800Z 28002MPS CAVOK 14/04 Q1013 R26/CLRD70 NOSIG"
"11:30 AM EEST on April 28, 2016","2016","04","28","11","30","Europe/Kiev","8:30 AM GMT on April 28, 2016","2016","04","28","08","30","UTC","15.0","59.0","4.0","39.2","48","14.4","8.9","-9999.0","-9999.0","330","NNW","-9999.0","-9999.0","1013","29.92","-999","-999","-9999","-9999","-9999.00","-9999.00","Clear","clear","0","0","0","0","0","0","METAR UKKK 280830Z 33004MPS 270V010 CAVOK 15/04 Q1013 R26/CLRD70 NOSIG"
"12:00 PM EEST on April 28, 2016","2016","04","28","12","00","Europe/Kiev","9:00 AM GMT on April 28, 2016","2016","04","28","09","00","UTC","16","61","1","34","24","10.8","6.7","","","320","NW","20","12","1014","29.94","-999","-999","-9999","-9999","","","","","0","0","0","0","0","0","AAXX 28091 33345 42998 03203 10160 20009 39938 40136 54000 555 10031"
"12:00 PM EEST on April 28, 2016","2016","04","28","12","00","Europe/Kiev","9:00 AM GMT on April 28, 2016","2016","04","28","09","00","UTC","16.0","60.8","3.0","37.4","42","10.8","6.7","-9999.0","-9999.0","270","West","-9999.0","-9999.0","1013","29.92","-999","-999","-9999","-9999","-9999.00","-9999.00","Clear","clear","0","0","0","0","0","0","METAR UKKK 280900Z 27003MPS 240V340 CAVOK 16/03 Q1013 R26/CLRD70 NOSIG"
"12:30 PM EEST on April 28, 2016","2016","04","28","12","30","Europe/Kiev","9:30 AM GMT on April 28, 2016","2016","04","28","09","30","UTC","16.0","60.8","2.0","35.6","39","14.4","8.9","-9999.0","-9999.0","330","NNW","-9999.0","-9999.0","1013","29.92","-999","-999","-9999","-9999","-9999.00","-9999.00","Clear","clear","0","0","0","0","0","0","METAR UKKK 280930Z 33004MPS 270V360 CAVOK 16/02 Q1013 R26/CLRD70 NOSIG"
"1:00 PM EEST on April 28, 2016","2016","04","28","13","00","Europe/Kiev","10:00 AM GMT on April 28, 2016","2016","04","28","10","00","UTC","16.0","60.8","2.0","35.6","39","14.4","8.9","-9999.0","-9999.0","280","West","-9999.0","-9999.0","1014","29.95","-999","-999","-9999","-9999","-9999.00","-9999.00","Clear","clear","0","0","0","0","0","0","METAR UKKK 281000Z 28004MPS 250V340 CAVOK 16/02 Q1014 R26/CLRD70 NOSIG"
"1:30 PM EEST on April 28, 2016","2016","04","28","13","30","Europe/Kiev","10:30 AM GMT on April 28, 2016","2016","04","28","10","30","UTC","17.0","62.6","2.0","35.6","37","14.4","8.9","-9999.0","-9999.0","280","West","-9999.0","-9999.0","1014","29.95","-999","-999","-9999","-9999","-9999.00","-9999.00","Clear","clear","0","0","0","0","0","0","METAR UKKK 281030Z 28004MPS 230V320 CAVOK 17/02 Q1014 R26/CLRD70 NOSIG"
"2:00 PM EEST on April 28, 2016","2016","04","28","14","00","Europe/Kiev","11:00 AM GMT on April 28, 2016","2016","04","28","11","00","UTC","17.0","62.6","3.0","37.4","39","21.6","13.4","-9999.0","-9999.0","280","West","-9999.0","-9999.0","1014","29.95","-999","-999","-9999","-9999","-9999.00","-9999.00","Clear","clear","0","0","0","0","0","0","METAR UKKK 281100Z 28006MPS 190V320 CAVOK 17/03 Q1014 R26/CLRD70 NOSIG"
"2:30 PM EEST on April 28, 2016","2016","04","28","14","30","Europe/Kiev","11:30 AM GMT on April 28, 2016","2016","04","28","11","30","UTC","18.0","64.4","2.0","35.6","34","18.0","11.2","-9999.0","-9999.0","280","West","-9999.0","-9999.0","1014","29.95","-999","-999","-9999","-9999","-9999.00","-9999.00","Clear","clear","0","0","0","0","0","0","METAR UKKK 281130Z 28005MPS 190V320 CAVOK 18/02 Q1014 R26/CLRD70 NOSIG"
"3:00 PM EEST on April 28, 2016","2016","04","28","15","00","Europe/Kiev","12:00 PM GMT on April 28, 2016","2016","04","28","12","00","UTC","18","65","-1","31","17","14.4","8.9","","","260","West","20","12","1014","29.94","-999","-999","-9999","-9999","","","","","0","0","0","0","0","0","AAXX 28121 33345 32998 02604 10185 21007 39942 40138 53004 555 10033"
"3:00 PM EEST on April 28, 2016","2016","04","28","15","00","Europe/Kiev","12:00 PM GMT on April 28, 2016","2016","04","28","12","00","UTC","18.0","64.4","1.0","33.8","32","18.0","11.2","-9999.0","-9999.0","280","West","-9999.0","-9999.0","1014","29.95","-999","-999","-9999","-9999","-9999.00","-9999.00","Clear","clear","0","0","0","0","0","0","METAR UKKK 281200Z 28005MPS 240V300 CAVOK 18/01 Q1014 R26/CLRD70 NOSIG"
"3:30 PM EEST on April 28, 2016","2016","04","28","15","30","Europe/Kiev","12:30 PM GMT on April 28, 2016","2016","04","28","12","30","UTC","19.0","66.2","1.0","33.8","30","14.4","8.9","32.4","20.1","250","WSW","-9999.0","-9999.0","1014","29.95","-999","-999","-9999","-9999","-9999.00","-9999.00","Clear","clear","0","0","0","0","0","0","METAR UKKK 281230Z 25004G09MPS 210V280 CAVOK 19/01 Q1014 R26/CLRD70 NOSIG"
"4:00 PM EEST on April 28, 2016","2016","04","28","16","00","Europe/Kiev","1:00 PM GMT on April 28, 2016","2016","04","28","13","00","UTC","19.0","66.2","0.0","32.0","28","18.0","11.2","-9999.0","-9999.0","260","West","-9999.0","-9999.0","1014","29.95","-999","-999","-9999","-9999","-9999.00","-9999.00","Clear","clear","0","0","0","0","0","0","METAR UKKK 281300Z 26005MPS 210V300 CAVOK 19/00 Q1014 R26/CLRD70 NOSIG"
"4:30 PM EEST on April 28, 2016","2016","04","28","16","30","Europe/Kiev","1:30 PM GMT on April 28, 2016","2016","04","28","13","30","UTC","19.0","66.2","1.0","33.8","30","14.4","8.9","-9999.0","-9999.0","250","WSW","-9999.0","-9999.0","1014","29.95","-999","-999","-9999","-9999","-9999.00","-9999.00","Clear","clear","0","0","0","0","0","0","METAR UKKK 281330Z 25004MPS 220V290 CAVOK 19/01 Q1014 R26/CLRD70 NOSIG"
"5:00 PM EEST on April 28, 2016","2016","04","28","17","00","Europe/Kiev","2:00 PM GMT on April 28, 2016","2016","04","28","14","00","UTC","19.0","66.2","0.0","32.0","28","14.4","8.9","-9999.0","-9999.0","250","WSW","-9999.0","-9999.0","1014","29.95","-999","-999","-9999","-9999","-9999.00","-9999.00","Clear","clear","0","0","0","0","0","0","METAR UKKK 281400Z 25004MPS 210V280 CAVOK 19/M00 Q1014 R26/CLRD70 NOSIG"
"5:30 PM EEST on April 28, 2016","2016","04","28","17","30","Europe/Kiev","2:30 PM GMT on April 28, 2016","2016","04","28","14","30","UTC","19.0","66.2","1.0","33.8","30","10.8","6.7","-9999.0","-9999.0","300","WNW","-9999.0","-9999.0","1014","29.95","-999","-999","-9999","-9999","-9999.00","-9999.00","Clear","clear","0","0","0","0","0","0","METAR UKKK 281430Z 30003MPS 260V360 CAVOK 19/01 Q1014 R26/CLRD70 NOSIG"
"6:00 PM EEST on April 28, 2016","2016","04","28","18","00","Europe/Kiev","3:00 PM GMT on April 28, 2016","2016","04","28","15","00","UTC","20","67","0","33","17","10.8","6.7","","","320","NW","20","12","1014","29.96","-999","-999","-9999","-9999","","","Scattered Clouds","partlycloudy","0","0","0","0","0","0","AAXX 28151 33345 42698 23203 10197 20005 39948 40143 52006 82000 555 10024"
"6:00 PM EEST on April 28, 2016","2016","04","28","18","00","Europe/Kiev","3:00 PM GMT on April 28, 2016","2016","04","28","15","00","UTC","19.0","66.2","1.0","33.8","30","18.0","11.2","-9999.0","-9999.0","290","WNW","-9999.0","-9999.0","1014","29.95","-999","-999","-9999","-9999","-9999.00","-9999.00","Clear","clear","0","0","0","0","0","0","METAR UKKK 281500Z 29005MPS 260V360 CAVOK 19/01 Q1014 R26/CLRD70 NOSIG"
"6:30 PM EEST on April 28, 2016","2016","04","28","18","30","Europe/Kiev","3:30 PM GMT on April 28, 2016","2016","04","28","15","30","UTC","18.0","64.4","2.0","35.6","34","14.4","8.9","-9999.0","-9999.0","310","NW","-9999.0","-9999.0","1014","29.95","-999","-999","-9999","-9999","-9999.00","-9999.00","Clear","clear","0","0","0","0","0","0","METAR UKKK 281530Z 31004MPS 270V340 CAVOK 18/02 Q1014 R26/CLRD70 NOSIG"
"7:00 PM EEST on April 28, 2016","2016","04","28","19","00","Europe/Kiev","4:00 PM GMT on April 28, 2016","2016","04","28","16","00","UTC","19.0","66.2","3.0","37.4","35","21.6","13.4","-9999.0","-9999.0","310","NW","-9999.0","-9999.0","1015","29.98","-999","-999","-9999","-9999","-9999.00","-9999.00","Clear","clear","0","0","0","0","0","0","METAR UKKK 281600Z 31006MPS CAVOK 19/03 Q1015 R26/CLRD70 NOSIG"
"7:30 PM EEST on April 28, 2016","2016","04","28","19","30","Europe/Kiev","4:30 PM GMT on April 28, 2016","2016","04","28","16","30","UTC","18.0","64.4","4.0","39.2","40","21.6","13.4","-9999.0","-9999.0","320","NW","-9999.0","-9999.0","1015","29.98","-999","-999","-9999","-9999","-9999.00","-9999.00","Clear","clear","0","0","0","0","0","0","METAR UKKK 281630Z 32006MPS CAVOK 18/04 Q1015 R26/CLRD70 NOSIG"
"8:00 PM EEST on April 28, 2016","2016","04","28","20","00","Europe/Kiev","5:00 PM GMT on April 28, 2016","2016","04","28","17","00","UTC","17.0","62.6","4.0","39.2","42","18.0","11.2","-9999.0","-9999.0","330","NNW","-9999.0","-9999.0","1016","30.01","-999","-999","-9999","-9999","-9999.00","-9999.00","Clear","clear","0","0","0","0","0","0","METAR UKKK 281700Z 33005MPS CAVOK 17/04 Q1016 R26/CLRD70 NOSIG"
"8:30 PM EEST on April 28, 2016","2016","04","28","20","30","Europe/Kiev","5:30 PM GMT on April 28, 2016","2016","04","28","17","30","UTC","16.0","60.8","5.0","41.0","48","14.4","8.9","-9999.0","-9999.0","320","NW","-9999.0","-9999.0","1016","30.01","-999","-999","-9999","-9999","-9999.00","-9999.00","Clear","clear","0","0","0","0","0","0","METAR UKKK 281730Z 32004MPS CAVOK 16/05 Q1016 R26/CLRD70 NOSIG"
"9:00 PM EEST on April 28, 2016","2016","04","28","21","00","Europe/Kiev","6:00 PM GMT on April 28, 2016","2016","04","28","18","00","UTC","16","61","5","40","35","10.8","6.7","","","320","NW","20","12","1017","30.03","-999","-999","-9999","-9999","","","Scattered Clouds","partlycloudy","0","0","0","0","0","0","AAXX 28181 33345 32698 33203 10159 20047 39971 40169 52023 82460 333 10199 555 10013"
"9:00 PM EEST on April 28, 2016","2016","04","28","21","00","Europe/Kiev","6:00 PM GMT on April 28, 2016","2016","04","28","18","00","UTC","15.0","59.0","5.0","41.0","51","14.4","8.9","-9999.0","-9999.0","310","NW","-9999.0","-9999.0","1017","30.04","-999","-999","-9999","-9999","-9999.00","-9999.00","Clear","clear","0","0","0","0","0","0","METAR UKKK 281800Z 31004MPS CAVOK 15/05 Q1017 R26/CLRD70 NOSIG"
"9:30 PM EEST on April 28, 2016","2016","04","28","21","30","Europe/Kiev","6:30 PM GMT on April 28, 2016","2016","04","28","18","30","UTC","15.0","59.0","5.0","41.0","51","10.8","6.7","-9999.0","-9999.0","330","NNW","-9999.0","-9999.0","1017","30.04","-999","-999","-9999","-9999","-9999.00","-9999.00","Clear","clear","0","0","0","0","0","0","METAR UKKK 281830Z 33003MPS 300V360 CAVOK 15/05 Q1017 R26/CLRD70 NOSIG"
"10:00 PM EEST on April 28, 2016","2016","04","28","22","00","Europe/Kiev","7:00 PM GMT on April 28, 2016","2016","04","28","19","00","UTC","15.0","59.0","5.0","41.0","51","14.4","8.9","-9999.0","-9999.0","340","NNW","-9999.0","-9999.0","1017","30.04","-999","-999","-9999","-9999","-9999.00","-9999.00","Clear","clear","0","0","0","0","0","0","METAR UKKK 281900Z 34004MPS CAVOK 15/05 Q1017 R26/CLRD70 NOSIG"
"10:30 PM EEST on April 28, 2016","2016","04","28","22","30","Europe/Kiev","7:30 PM GMT on April 28, 2016","2016","04","28","19","30","UTC","14.0","57.2","4.0","39.2","51","14.4","8.9","-9999.0","-9999.0","340","NNW","-9999.0","-9999.0","1017","30.04","-999","-999","-9999","-9999","-9999.00","-9999.00","Clear","clear","0","0","0","0","0","0","METAR UKKK 281930Z 34004MPS CAVOK 14/04 Q1017 R26/CLRD70 NOSIG"
"11:00 PM EEST on April 28, 2016","2016","04","28","23","00","Europe/Kiev","8:00 PM GMT on April 28, 2016","2016","04","28","20","00","UTC","13.0","55.4","4.0","39.2","54","10.8","6.7","-9999.0","-9999.0","340","NNW","-9999.0","-9999.0","1018","30.06","-999","-999","-9999","-9999","-9999.00","-9999.00","Clear","clear","0","0","0","0","0","0","METAR UKKK 282000Z 34003MPS 300V010 CAVOK 13/04 Q1018 R26/CLRD70 NOSIG"
"11:30 PM EEST on April 28, 2016","2016","04","28","23","30","Europe/Kiev","8:30 PM GMT on April 28, 2016","2016","04","28","20","30","UTC","12.0","53.6","4.0","39.2","58","14.4","8.9","-9999.0","-9999.0","330","NNW","-9999.0","-9999.0","1018","30.06","-999","-999","-9999","-9999","-9999.00","-9999.00","Clear","clear","0","0","0","0","0","0","METAR UKKK 282030Z 33004MPS CAVOK 12/04 Q1018 R26/CLRD70 NOSIG"
"12:00 AM EEST on April 29, 2016","2016","04","29","00","00","Europe/Kiev","9:00 PM GMT on April 28, 2016","2016","04","28","21","00","UTC","12","54","2","36","39","14.4","8.9","","","350","North","20","12","1019","30.08","-999","-999","-9999","-9999","","","Mostly Cloudy","mostlycloudy","0","0","0","0","0","0","AAXX 28211 33345 42998 53504 10124 20023 39985 40186 52014 85030 555 10010"
"12:00 AM EEST on April 29, 2016","2016","04","29","00","00","Europe/Kiev","9:00 PM GMT on April 28, 2016","2016","04","28","21","00","UTC","12.0","53.6","2.0","35.6","51","18.0","11.2","-9999.0","-9999.0","340","NNW","-9999.0","-9999.0","1018","30.06","-999","-999","-9999","-9999","-9999.00","-9999.00","Clear","clear","0","0","0","0","0","0","METAR UKKK 282100Z 34005MPS CAVOK 12/02 Q1018 R26/CLRD70 NOSIG"
"12:30 AM EEST on April 29, 2016","2016","04","29","00","30","Europe/Kiev","9:30 PM GMT on April 28, 2016","2016","04","28","21","30","UTC","11.0","51.8","2.0","35.6","54","18.0","11.2","-9999.0","-9999.0","350","North","-9999.0","-9999.0","1019","30.09","-999","-999","-9999","-9999","-9999.00","-9999.00","Clear","clear","0","0","0","0","0","0","METAR UKKK 282130Z 35005MPS CAVOK 11/02 Q1019 R26/CLRD70 NOSIG"
"1:00 AM EEST on April 29, 2016","2016","04","29","01","00","Europe/Kiev","10:00 PM GMT on April 28, 2016","2016","04","28","22","00","UTC","11.0","51.8","2.0","35.6","54","14.4","8.9","-9999.0","-9999.0","340","NNW","-9999.0","-9999.0","1019","30.09","-999","-999","-9999","-9999","-9999.00","-9999.00","Clear","clear","0","0","0","0","0","0","METAR UKKK 282200Z 34004MPS 320V020 CAVOK 11/02 Q1019 R26/CLRD70 NOSIG"
"1:30 AM EEST on April 29, 2016","2016","04","29","01","30","Europe/Kiev","10:30 PM GMT on April 28, 2016","2016","04","28","22","30","UTC","10.0","50.0","2.0","35.6","58","14.4","8.9","-9999.0","-9999.0","340","NNW","-9999.0","-9999.0","1019","30.09","-999","-999","-9999","-9999","-9999.00","-9999.00","Clear","clear","0","0","0","0","0","0","METAR UKKK 282230Z 34004MPS 300V010 CAVOK 10/02 Q1019 R26/CLRD70 NOSIG"
"2:00 AM EEST on April 29, 2016","2016","04","29","02","00","Europe/Kiev","11:00 PM GMT on April 28, 2016","2016","04","28","23","00","UTC","10.0","50.0","2.0","35.6","58","10.8","6.7","-9999.0","-9999.0","350","North","-9999.0","-9999.0","1019","30.09","-999","-999","-9999","-9999","-9999.00","-9999.00","Clear","clear","0","0","0","0","0","0","METAR UKKK 282300Z 35003MPS 310V020 CAVOK 10/02 Q1019 R26/CLRD70 NOSIG"
"2:30 AM EEST on April 29, 2016","2016","04","29","02","30","Europe/Kiev","11:30 PM GMT on April 28, 2016","2016","04","28","23","30","UTC","9.0","48.2","2.0","35.6","62","14.4","8.9","-9999.0","-9999.0","350","North","-9999.0","-9999.0","1019","30.09","-999","-999","-9999","-9999","-9999.00","-9999.00","Clear","clear","0","0","0","0","0","0","METAR UKKK 282330Z 35004MPS 320V020 CAVOK 09/02 Q1019 R26/CLRD70 NOSIG"
"3:00 AM EEST on April 29, 2016","2016","04","29","03","00","Europe/Kiev","12:00 AM GMT on April 29, 2016","2016","04","29","00","00","UTC","9","49","3","37","52","10.8","6.7","","","350","North","20","12","1020","30.13","-999","-999","-9999","-9999","","","Scattered Clouds","partlycloudy","0","0","0","0","0","0","AAXX 29001 33345 32998 23503 10094 20026 39999 40203 52014 82040 555 10008"
"3:00 AM EEST on April 29, 2016","2016","04","29","03","00","Europe/Kiev","12:00 AM GMT on April 29, 2016","2016","04","29","00","00","UTC","9.0","48.2","2.0","35.6","62","10.8","6.7","-9999.0","-9999.0","340","NNW","-9999.0","-9999.0","1020","30.12","-999","-999","-9999","-9999","-9999.00","-9999.00","Clear","clear","0","0","0","0","0","0","METAR UKKK 290000Z 34003MPS 310V010 CAVOK 09/02 Q1020 R26/CLRD70 NOSIG"
"3:30 AM EEST on April 29, 2016","2016","04","29","03","30","Europe/Kiev","12:30 AM GMT on April 29, 2016","2016","04","29","00","30","UTC","8.0","46.4","2.0","35.6","66","10.8","6.7","-9999.0","-9999.0","340","NNW","-9999.0","-9999.0","1020","30.12","6.1","43.0","-9999","-9999","-9999.00","-9999.00","Clear","clear","0","0","0","0","0","0","METAR UKKK 290030Z 34003MPS 300V020 CAVOK 08/02 Q1020 R26/CLRD70 NOSIG"
"4:00 AM EEST on April 29, 2016","2016","04","29","04","00","Europe/Kiev","1:00 AM GMT on April 29, 2016","2016","04","29","01","00","UTC","8.0","46.4","2.0","35.6","66","10.8","6.7","-9999.0","-9999.0","330","NNW","-9999.0","-9999.0","1020","30.12","6.1","43.0","-9999","-9999","-9999.00","-9999.00","Clear","clear","0","0","0","0","0","0","METAR UKKK 290100Z 33003MPS 300V360 CAVOK 08/02 Q1020 R26/CLRD70 NOSIG"
"4:30 AM EEST on April 29, 2016","2016","04","29","04","30","Europe/Kiev","1:30 AM GMT on April 29, 2016","2016","04","29","01","30","UTC","7.0","44.6","2.0","35.6","71","10.8","6.7","-9999.0","-9999.0","350","North","-9999.0","-9999.0","1020","30.12","4.9","40.8","-9999","-9999","-9999.00","-9999.00","Clear","clear","0","0","0","0","0","0","METAR UKKK 290130Z 35003MPS 320V020 CAVOK 07/02 Q1020 R26/CLRD70 NOSIG"
"5:00 AM EEST on April 29, 2016","2016","04","29","05","00","Europe/Kiev","2:00 AM GMT on April 29, 2016","2016","04","29","02","00","UTC","6.0","42.8","2.0","35.6","76","7.2","4.5","-9999.0","-9999.0","350","North","-9999.0","-9999.0","1020","30.12","4.5","40.2","-9999","-9999","-9999.00","-9999.00","Clear","clear","0","0","0","0","0","0","METAR UKKK 290200Z 35002MPS 320V030 CAVOK 06/02 Q1020 R26/CLRD70 NOSIG"
"5:30 AM EEST on April 29, 2016","2016","04","29","05","30","Europe/Kiev","2:30 AM GMT on April 29, 2016","2016","04","29","02","30","UTC","6.0","42.8","2.0","35.6","76","3.6","2.2","-9999.0","-9999.0","0","Variable","-9999.0","-9999.0","1020","30.12","-999","-999","-9999","-9999","-9999.00","-9999.00","Clear","clear","0","0","0","0","0","0","METAR UKKK 290230Z VRB01MPS CAVOK 06/02 Q1020 R26/CLRD70 NOSIG"
"6:00 AM EEST on April 29, 2016","2016","04","29","06","00","Europe/Kiev","3:00 AM GMT on April 29, 2016","2016","04","29","03","00","UTC","7","44","2","36","66","7.2","4.5","","","320","NW","20","12","1021","30.15","-999","-999","-9999","-9999","","","Scattered Clouds","partlycloudy","0","0","0","0","0","0","AAXX 29031 33345 42998 53202 10068 20024 30003 40209 52004 82034 555 10006"
"6:00 AM EEST on April 29, 2016","2016","04","29","06","00","Europe/Kiev","3:00 AM GMT on April 29, 2016","2016","04","29","03","00","UTC","6.0","42.8","2.0","35.6","76","10.8","6.7","-9999.0","-9999.0","310","NW","-9999.0","-9999.0","1020","30.12","3.7","38.7","-9999","-9999","-9999.00","-9999.00","Clear","clear","0","0","0","0","0","0","METAR UKKK 290300Z 31003MPS CAVOK 06/02 Q1020 R26/CLRD70 NOSIG"
"6:30 AM EEST on April 29, 2016","2016","04","29","06","30","Europe/Kiev","3:30 AM GMT on April 29, 2016","2016","04","29","03","30","UTC","6.0","42.8","2.0","35.6","76","7.2","4.5","-9999.0","-9999.0","320","NW","-9999.0","-9999.0","1020","30.12","4.5","40.2","-9999","-9999","-9999.00","-9999.00","Clear","clear","0","0","0","0","0","0","METAR UKKK 290330Z 32002MPS 290V350 CAVOK 06/02 Q1020 R26/CLRD70 NOSIG"
"7:00 AM EEST on April 29, 2016","2016","04","29","07","00","Europe/Kiev","4:00 AM GMT on April 29, 2016","2016","04","29","04","00","UTC","7.0","44.6","2.0","35.6","71","10.8","6.7","-9999.0","-9999.0","310","NW","-9999.0","-9999.0","1020","30.12","4.9","40.8","-9999","-9999","-9999.00","-9999.00","Clear","clear","0","0","0","0","0","0","METAR UKKK 290400Z 31003MPS CAVOK 07/02 Q1020 R26/CLRD70 NOSIG"
"7:30 AM EEST on April 29, 2016","2016","04","29","07","30","Europe/Kiev","4:30 AM GMT on April 29, 2016","2016","04","29","04","30","UTC","8.0","46.4","2.0","35.6","66","10.8","6.7","-9999.0","-9999.0","340","NNW","-9999.0","-9999.0","1021","30.15","6.1","43.0","-9999","-9999","-9999.00","-9999.00","Clear","clear","0","0","0","0","0","0","METAR UKKK 290430Z 34003MPS 300V020 CAVOK 08/02 Q1021 R26/CLRD70 NOSIG"
"8:00 AM EEST on April 29, 2016","2016","04","29","08","00","Europe/Kiev","5:00 AM GMT on April 29, 2016","2016","04","29","05","00","UTC","8.0","46.4","3.0","37.4","71","7.2","4.5","-9999.0","-9999.0","320","NW","-9999.0","-9999.0","1021","30.15","6.9","44.4","-9999","-9999","-9999.00","-9999.00","Clear","clear","0","0","0","0","0","0","METAR UKKK 290500Z 32002MPS CAVOK 08/03 Q1021 R26/CLRD70 NOSIG"
"8:30 AM EEST on April 29, 2016","2016","04","29","08","30","Europe/Kiev","5:30 AM GMT on April 29, 2016","2016","04","29","05","30","UTC","10.0","50.0","3.0","37.4","62","7.2","4.5","-9999.0","-9999.0","320","NW","-9999.0","-9999.0","1021","30.15","-999","-999","-9999","-9999","-9999.00","-9999.00","Clear","clear","0","0","0","0","0","0","METAR UKKK 290530Z 32002MPS 280V340 CAVOK 10/03 Q1021 R26/CLRD70 NOSIG"
"9:00 AM EEST on April 29, 2016","2016","04","29","09","00","Europe/Kiev","6:00 AM GMT on April 29, 2016","2016","04","29","06","00","UTC","10","51","3","38","50","7.2","4.5","","","320","NW","20","12","1022","30.17","-999","-999","-9999","-9999","","","Scattered Clouds","partlycloudy","0","0","0","0","0","0","AAXX 29061 33345 32998 33202 10103 20032 30013 40216 52010 82031 333 20066 555 10018"
"9:00 AM EEST on April 29, 2016","2016","04","29","09","00","Europe/Kiev","6:00 AM GMT on April 29, 2016","2016","04","29","06","00","UTC","11.0","51.8","4.0","39.2","62","7.2","4.5","-9999.0","-9999.0","330","NNW","-9999.0","-9999.0","1021","30.15","-999","-999","-9999","-9999","-9999.00","-9999.00","Clear","clear","0","0","0","0","0","0","METAR UKKK 290600Z 33002MPS 250V050 CAVOK 11/04 Q1021 R26/CLRD70 NOSIG"
"9:30 AM EEST on April 29, 2016","2016","04","29","09","30","Europe/Kiev","6:30 AM GMT on April 29, 2016","2016","04","29","06","30","UTC","11.0","51.8","4.0","39.2","62","7.2","4.5","-9999.0","-9999.0","310","NW","-9999.0","-9999.0","1021","30.15","-999","-999","-9999","-9999","-9999.00","-9999.00","Clear","clear","0","0","0","0","0","0","METAR UKKK 290630Z 31002MPS 270V360 CAVOK 11/04 Q1021 R26/CLRD70 NOSIG"
"10:00 AM EEST on April 29, 2016","2016","04","29","10","00","Europe/Kiev","7:00 AM GMT on April 29, 2016","2016","04","29","07","00","UTC","12.0","53.6","4.0","39.2","58","10.8","6.7","-9999.0","-9999.0","320","NW","-9999.0","-9999.0","1021","30.15","-999","-999","-9999","-9999","-9999.00","-9999.00","Clear","clear","0","0","0","0","0","0","METAR UKKK 290700Z 32003MPS 280V350 CAVOK 12/04 Q1021 R26/CLRD70 NOSIG"
"10:30 AM EEST on April 29, 2016","2016","04","29","10","30","Europe/Kiev","7:30 AM GMT on April 29, 2016","2016","04","29","07","30","UTC","13.0","55.4","4.0","39.2","54","14.4","8.9","-9999.0","-9999.0","290","WNW","-9999.0","-9999.0","1021","30.15","-999","-999","-9999","-9999","-9999.00","-9999.00","Clear","clear","0","0","0","0","0","0","METAR UKKK 290730Z 29004MPS CAVOK 13/04 Q1021 R26/CLRD70 NOSIG"
"11:00 AM EEST on April 29, 2016","2016","04","29","11","00","Europe/Kiev","8:00 AM GMT on April 29, 2016","2016","04","29","08","00","UTC","13.0","55.4","3.0","37.4","51","10.8","6.7","-9999.0","-9999.0","300","WNW","-9999.0","-9999.0","1021","30.15","-999","-999","-9999","-9999","-9999.00","-9999.00","Clear","clear","0","0","0","0","0","0","METAR UKKK 290800Z 30003MPS 280V340 CAVOK 13/03 Q1021 R26/CLRD70 NOSIG"
"11:30 AM EEST on April 29, 2016","2016","04","29","11","30","Europe/Kiev","8:30 AM GMT on April 29, 2016","2016","04","29","08","30","UTC","14.0","57.2","2.0","35.6","44","14.4","8.9","-9999.0","-9999.0","310","NW","-9999.0","-9999.0","1021","30.15","-999","-999","-9999","-9999","-9999.00","-9999.00","Clear","clear","0","0","0","0","0","0","METAR UKKK 290830Z 31004MPS 260V360 CAVOK 14/02 Q1021 R26/CLRD70 NOSIG"
"12:00 PM EEST on April 29, 2016","2016","04","29","12","00","Europe/Kiev","9:00 AM GMT on April 29, 2016","2016","04","29","09","00","UTC","16","60","0","33","24","10.8","6.7","","","290","WNW","20","12","1021","30.16","-999","-999","-9999","-9999","","","Clear","clear","0","0","0","0","0","0","AAXX 29091 33345 42998 12903 10155 20003 30013 40213 54000 80001 555 10032"
"12:00 PM EEST on April 29, 2016","2016","04","29","12","00","Europe/Kiev","9:00 AM GMT on April 29, 2016","2016","04","29","09","00","UTC","15.0","59.0","2.0","35.6","42","10.8","6.7","-9999.0","-9999.0","320","NW","-9999.0","-9999.0","1021","30.15","-999","-999","-9999","-9999","-9999.00","-9999.00","Clear","clear","0","0","0","0","0","0","METAR UKKK 290900Z 32003MPS 270V360 CAVOK 15/02 Q1021 R26/CLRD70 NOSIG"
"12:30 PM EEST on April 29, 2016","2016","04","29","12","30","Europe/Kiev","9:30 AM GMT on April 29, 2016","2016","04","29","09","30","UTC","16.0","60.8","1.0","33.8","36","10.8","6.7","-9999.0","-9999.0","300","WNW","-9999.0","-9999.0","1021","30.15","-999","-999","-9999","-9999","-9999.00","-9999.00","Clear","clear","0","0","0","0","0","0","METAR UKKK 290930Z 30003MPS 270V340 CAVOK 16/01 Q1021 R26/CLRD70 NOSIG"
"1:00 PM EEST on April 29, 2016","2016","04","29","13","00","Europe/Kiev","10:00 AM GMT on April 29, 2016","2016","04","29","10","00","UTC","16.0","60.8","0.0","32.0","34","7.2","4.5","-9999.0","-9999.0","290","WNW","-9999.0","-9999.0","1021","30.15","-999","-999","-9999","-9999","-9999.00","-9999.00","Clear","clear","0","0","0","0","0","0","METAR UKKK 291000Z 29002MPS 240V030 CAVOK 16/00 Q1021 R26/CLRD70 NOSIG"
"1:30 PM EEST on April 29, 2016","2016","04","29","13","30","Europe/Kiev","10:30 AM GMT on April 29, 2016","2016","04","29","10","30","UTC","17.0","62.6","-1.0","30.2","30","10.8","6.7","-9999.0","-9999.0","310","NW","-9999.0","-9999.0","1021","30.15","-999","-999","-9999","-9999","-9999.00","-9999.00","Clear","clear","0","0","0","0","0","0","METAR UKKK 291030Z 31003MPS 270V340 CAVOK 17/M01 Q1021 R26/CLRD70 NOSIG"
"2:00 PM EEST on April 29, 2016","2016","04","29","14","00","Europe/Kiev","11:00 AM GMT on April 29, 2016","2016","04","29","11","00","UTC","18.0","64.4","0.0","32.0","30","10.8","6.7","-9999.0","-9999.0","290","WNW","-9999.0","-9999.0","1021","30.15","-999","-999","-9999","-9999","-9999.00","-9999.00","Clear","clear","0","0","0","0","0","0","METAR UKKK 291100Z 29003MPS 240V360 CAVOK 18/00 Q1021 R26/CLRD70 NOSIG"
"2:30 PM EEST on April 29, 2016","2016","04","29","14","30","Europe/Kiev","11:30 AM GMT on April 29, 2016","2016","04","29","11","30","UTC","18.0","64.4","0.0","32.0","30","10.8","6.7","-9999.0","-9999.0","350","North","-9999.0","-9999.0","1020","30.12","-999","-999","-9999","-9999","-9999.00","-9999.00","Clear","clear","0","0","0","0","0","0","METAR UKKK 291130Z 35003MPS 310V050 CAVOK 18/M00 Q1020 R26/CLRD70 NOSIG"
"3:00 PM EEST on April 29, 2016","2016","04","29","15","00","Europe/Kiev","12:00 PM GMT on April 29, 2016","2016","04","29","12","00","UTC","18","65","-3","27","14","10.8","6.7","","","340","NNW","20","12","1020","30.14","-999","-999","-9999","-9999","","","","","0","0","0","0","0","0","AAXX 29121 33345 32998 03403 10184 21026 30006 40204 58007 555 10036"
"3:00 PM EEST on April 29, 2016","2016","04","29","15","00","Europe/Kiev","12:00 PM GMT on April 29, 2016","2016","04","29","12","00","UTC","19.0","66.2","-1.0","30.2","26","10.8","6.7","-9999.0","-9999.0","310","NW","-9999.0","-9999.0","1020","30.12","-999","-999","-9999","-9999","-9999.00","-9999.00","Clear","clear","0","0","0","0","0","0","METAR UKKK 291200Z 31003MPS 280V360 CAVOK 19/M01 Q1020 R26/CLRD70 NOSIG"
"3:30 PM EEST on April 29, 2016","2016","04","29","15","30","Europe/Kiev","12:30 PM GMT on April 29, 2016","2016","04","29","12","30","UTC","19.0","66.2","0.0","32.0","28","10.8","6.7","-9999.0","-9999.0","270","West","-9999.0","-9999.0","1020","30.12","-999","-999","-9999","-9999","-9999.00","-9999.00","Clear","clear","0","0","0","0","0","0","METAR UKKK 291230Z 27003MPS 220V310 CAVOK 19/00 Q1020 R26/CLRD70 NOSIG"
"4:00 PM EEST on April 29, 2016","2016","04","29","16","00","Europe/Kiev","1:00 PM GMT on April 29, 2016","2016","04","29","13","00","UTC","19.0","66.2","0.0","32.0","28","10.8","6.7","-9999.0","-9999.0","360","North","-9999.0","-9999.0","1020","30.12","-999","-999","-9999","-9999","-9999.00","-9999.00","Clear","clear","0","0","0","0","0","0","METAR UKKK 291300Z 36003MPS 320V070 CAVOK 19/M00 Q1020 R26/CLRD70 NOSIG"
"4:30 PM EEST on April 29, 2016","2016","04","29","16","30","Europe/Kiev","1:30 PM GMT on April 29, 2016","2016","04","29","13","30","UTC","19.0","66.2","-1.0","30.2","26","10.8","6.7","-9999.0","-9999.0","40","NE","-9999.0","-9999.0","1020","30.12","-999","-999","-9999","-9999","-9999.00","-9999.00","Clear","clear","0","0","0","0","0","0","METAR UKKK 291330Z 04003MPS 360V110 CAVOK 19/M01 Q1020 R08/CLRD70 NOSIG"
"5:00 PM EEST on April 29, 2016","2016","04","29","17","00","Europe/Kiev","2:00 PM GMT on April 29, 2016","2016","04","29","14","00","UTC","19.0","66.2","-1.0","30.2","26","10.8","6.7","-9999.0","-9999.0","80","East","-9999.0","-9999.0","1020","30.12","-999","-999","-9999","-9999","-9999.00","-9999.00","Clear","clear","0","0","0","0","0","0","METAR UKKK 291400Z 08003MPS 050V110 CAVOK 19/M01 Q1020 R08/CLRD70 NOSIG"
"5:30 PM EEST on April 29, 2016","2016","04","29","17","30","Europe/Kiev","2:30 PM GMT on April 29, 2016","2016","04","29","14","30","UTC","19.0","66.2","1.0","33.8","30","10.8","6.7","-9999.0","-9999.0","20","NNE","-9999.0","-9999.0","1020","30.12","-999","-999","-9999","-9999","-9999.00","-9999.00","Clear","clear","0","0","0","0","0","0","METAR UKKK 291430Z 02003MPS 340V060 CAVOK 19/01 Q1020 R08/CLRD70 NOSIG"
"6:00 PM EEST on April 29, 2016","2016","04","29","18","00","Europe/Kiev","3:00 PM GMT on April 29, 2016","2016","04","29","15","00","UTC","18","65","-3","27","13","10.8","6.7","","","30","NNE","20","12","1020","30.12","-999","-999","-9999","-9999","","","","","0","0","0","0","0","0","AAXX 29151 33345 42998 00303 10185 21028 30003 40200 57003 555 10025"
"6:00 PM EEST on April 29, 2016","2016","04","29","18","00","Europe/Kiev","3:00 PM GMT on April 29, 2016","2016","04","29","15","00","UTC","19.0","66.2","0.0","32.0","28","14.4","8.9","-9999.0","-9999.0","40","NE","-9999.0","-9999.0","1020","30.12","-999","-999","-9999","-9999","-9999.00","-9999.00","Clear","clear","0","0","0","0","0","0","METAR UKKK 291500Z 04004MPS CAVOK 19/M00 Q1020 R08/CLRD70 NOSIG"
"6:30 PM EEST on April 29, 2016","2016","04","29","18","30","Europe/Kiev","3:30 PM GMT on April 29, 2016","2016","04","29","15","30","UTC","18.0","64.4","0.0","32.0","30","14.4","8.9","-9999.0","-9999.0","40","NE","-9999.0","-9999.0","1020","30.12","-999","-999","-9999","-9999","-9999.00","-9999.00","Clear","clear","0","0","0","0","0","0","METAR UKKK 291530Z 04004MPS 010V070 CAVOK 18/M00 Q1020 R08/CLRD70 NOSIG"
"7:00 PM EEST on April 29, 2016","2016","04","29","19","00","Europe/Kiev","4:00 PM GMT on April 29, 2016","2016","04","29","16","00","UTC","17.0","62.6","1.0","33.8","34","10.8","6.7","-9999.0","-9999.0","30","NNE","-9999.0","-9999.0","1020","30.12","-999","-999","-9999","-9999","-9999.00","-9999.00","Clear","clear","0","0","0","0","0","0","METAR UKKK 291600Z 03003MPS CAVOK 17/01 Q1020 R08/CLRD70 NOSIG"
"7:30 PM EEST on April 29, 2016","2016","04","29","19","30","Europe/Kiev","4:30 PM GMT on April 29, 2016","2016","04","29","16","30","UTC","16.0","60.8","0.0","32.0","34","10.8","6.7","-9999.0","-9999.0","20","NNE","-9999.0","-9999.0","1020","30.12","-999","-999","-9999","-9999","-9999.00","-9999.00","Clear","clear","0","0","0","0","0","0","METAR UKKK 291630Z 02003MPS CAVOK 16/M00 Q1020 R08/CLRD70 NOSIG"
"8:00 PM EEST on April 29, 2016","2016","04","29","20","00","Europe/Kiev","5:00 PM GMT on April 29, 2016","2016","04","29","17","00","UTC","15.0","59.0","-1.0","30.2","34","14.4","8.9","-9999.0","-9999.0","20","NNE","-9999.0","-9999.0","1020","30.12","-999","-999","-9999","-9999","-9999.00","-9999.00","Clear","clear","0","0","0","0","0","0","METAR UKKK 291700Z 02004MPS CAVOK 15/M01 Q1020 R08/CLRD70 NOSIG"
"8:30 PM EEST on April 29, 2016","2016","04","29","20","30","Europe/Kiev","5:30 PM GMT on April 29, 2016","2016","04","29","17","30","UTC","14.0","57.2","-1.0","30.2","36","10.8","6.7","-9999.0","-9999.0","20","NNE","-9999.0","-9999.0","1020","30.12","-999","-999","-9999","-9999","-9999.00","-9999.00","Clear","clear","0","0","0","0","0","0","METAR UKKK 291730Z 02003MPS CAVOK 14/M01 Q1020 R08/CLRD70 NOSIG"
"9:00 PM EEST on April 29, 2016","2016","04","29","21","00","Europe/Kiev","6:00 PM GMT on April 29, 2016","2016","04","29","18","00","UTC","14","58","-2","28","20","0.0","0.0","","","","","20","12","1021","30.14","-999","-999","-9999","-9999","","","","","0","0","0","0","0","0","AAXX 29181 33345 32998 00000 10144 21024 30007 40207 53004 333 10190 555 10011"
"9:00 PM EEST on April 29, 2016","2016","04","29","21","00","Europe/Kiev","6:00 PM GMT on April 29, 2016","2016","04","29","18","00","UTC","13.0","55.4","-2.0","28.4","36","7.2","4.5","-9999.0","-9999.0","10","North","-9999.0","-9999.0","1020","30.12","-999","-999","-9999","-9999","-9999.00","-9999.00","Clear","clear","0","0","0","0","0","0","METAR UKKK 291800Z 01002MPS CAVOK 13/M02 Q1020 R08/CLRD70 NOSIG"
"9:30 PM EEST on April 29, 2016","2016","04","29","21","30","Europe/Kiev","6:30 PM GMT on April 29, 2016","2016","04","29","18","30","UTC","11.0","51.8","-1.0","30.2","44","0.0","0.0","-9999.0","-9999.0","0","North","7.0","4.3","1020","30.12","-999","-999","-9999","-9999","-9999.00","-9999.00","Clear","clear","0","0","0","0","0","0","METAR UKKK 291830Z 00000MPS 7000 SKC 11/M01 Q1020 R08/CLRD70 NOSIG"
"10:00 PM EEST on April 29, 2016","2016","04","29","22","00","Europe/Kiev","7:00 PM GMT on April 29, 2016","2016","04","29","19","00","UTC","10.0","50.0","2.0","35.6","58","0.0","0.0","-9999.0","-9999.0","0","North","7.0","4.3","1020","30.12","-999","-999","-9999","-9999","-9999.00","-9999.00","Clear","clear","0","0","0","0","0","0","METAR UKKK 291900Z 00000MPS 7000 SKC 10/02 Q1020 R08/CLRD70 NOSIG"
"10:30 PM EEST on April 29, 2016","2016","04","29","22","30","Europe/Kiev","7:30 PM GMT on April 29, 2016","2016","04","29","19","30","UTC","10.0","50.0","0.0","32.0","50","0.0","0.0","-9999.0","-9999.0","0","North","9.0","5.6","1020","30.12","-999","-999","-9999","-9999","-9999.00","-9999.00","Clear","clear","0","0","0","0","0","0","METAR UKKK 291930Z 00000MPS 9000 SKC 10/M00 Q1020 R08/CLRD70 NOSIG"
"11:00 PM EEST on April 29, 2016","2016","04","29","23","00","Europe/Kiev","8:00 PM GMT on April 29, 2016","2016","04","29","20","00","UTC","9.0","48.2","2.0","35.6","62","0.0","0.0","-9999.0","-9999.0","0","North","7.0","4.3","1020","30.12","-999","-999","-9999","-9999","-9999.00","-9999.00","Clear","clear","0","0","0","0","0","0","METAR UKKK 292000Z 00000MPS 7000 SKC 09/02 Q1020 R08/CLRD70 NOSIG"
"11:30 PM EEST on April 29, 2016","2016","04","29","23","30","Europe/Kiev","8:30 PM GMT on April 29, 2016","2016","04","29","20","30","UTC","10.0","50.0","0.0","32.0","50","3.6","2.2","-9999.0","-9999.0","80","East","8.0","5.0","1020","30.12","-999","-999","-9999","-9999","-9999.00","-9999.00","Clear","clear","0","0","0","0","0","0","METAR UKKK 292030Z 08001MPS 8000 SKC 10/00 Q1020 R26/CLRD70 NOSIG"
"12:00 AM EEST on April 30, 2016","2016","04","30","00","00","Europe/Kiev","9:00 PM GMT on April 29, 2016","2016","04","29","21","00","UTC","12","54","-3","27","22","3.6","2.2","","","330","NNW","20","12","1021","30.15","-999","-999","-9999","-9999","","","","","0","0","0","0","0","0","AAXX 29211 33345 42998 03301 10123 21030 30008 40210 51001 555 10008"
"12:00 AM EEST on April 30, 2016","2016","04","30","00","00","Europe/Kiev","9:00 PM GMT on April 29, 2016","2016","04","29","21","00","UTC","7.0","44.6","1.0","33.8","66","0.0","0.0","-9999.0","-9999.0","0","North","-9999.0","-9999.0","1020","30.12","-999","-999","-9999","-9999","-9999.00","-9999.00","Clear","clear","0","0","0","0","0","0","METAR UKKK 292100Z 00000MPS CAVOK 07/01 Q1020 R08/CLRD70 NOSIG"
"12:30 AM EEST on April 30, 2016","2016","04","30","00","30","Europe/Kiev","9:30 PM GMT on April 29, 2016","2016","04","29","21","30","UTC","7.0","44.6","2.0","35.6","71","0.0","0.0","-9999.0","-9999.0","0","North","9.0","5.6","1020","30.12","-999","-999","-9999","-9999","-9999.00","-9999.00","Clear","clear","0","0","0","0","0","0","METAR UKKK 292130Z 00000MPS 9000 SKC 07/02 Q1020 R08/CLRD70 NOSIG"
"1:00 AM EEST on April 30, 2016","2016","04","30","01","00","Europe/Kiev","10:00 PM GMT on April 29, 2016","2016","04","29","22","00","UTC","6.0","42.8","2.0","35.6","76","0.0","0.0","-9999.0","-9999.0","0","North","9.0","5.6","1021","30.15","-999","-999","-9999","-9999","-9999.00","-9999.00","Clear","clear","0","0","0","0","0","0","METAR UKKK 292200Z 00000MPS 9000 SKC 06/02 Q1021 R08/CLRD70 NOSIG"
"1:30 AM EEST on April 30, 2016","2016","04","30","01","30","Europe/Kiev","10:30 PM GMT on April 29, 2016","2016","04","29","22","30","UTC","6.0","42.8","1.0","33.8","70","0.0","0.0","-9999.0","-9999.0","0","North","-9999.0","-9999.0","1020","30.12","-999","-999","-9999","-9999","-9999.00","-9999.00","Clear","clear","0","0","0","0","0","0","METAR UKKK 292230Z 00000MPS CAVOK 06/01 Q1020 R08/CLRD70 NOSIG"
"2:00 AM EEST on April 30, 2016","2016","04","30","02","00","Europe/Kiev","11:00 PM GMT on April 29, 2016","2016","04","29","23","00","UTC","5.0","41.0","2.0","35.6","81","0.0","0.0","-9999.0","-9999.0","0","North","8.0","5.0","1020","30.12","-999","-999","-9999","-9999","-9999.00","-9999.00","Clear","clear","0","0","0","0","0","0","METAR UKKK 292300Z 00000MPS 8000 SKC 05/02 Q1020 R08/CLRD70 NOSIG"
"2:30 AM EEST on April 30, 2016","2016","04","30","02","30","Europe/Kiev","11:30 PM GMT on April 29, 2016","2016","04","29","23","30","UTC","6.0","42.8","2.0","35.6","76","0.0","0.0","-9999.0","-9999.0","0","North","-9999.0","-9999.0","1020","30.12","-999","-999","-9999","-9999","-9999.00","-9999.00","Clear","clear","0","0","0","0","0","0","METAR UKKK 292330Z 00000MPS CAVOK 06/02 Q1020 R08/CLRD70 NOSIG"
"3:00 AM EEST on April 30, 2016","2016","04","30","03","00","Europe/Kiev","12:00 AM GMT on April 30, 2016","2016","04","30","00","00","UTC","12","53","-1","30","29","7.2","4.5","","","20","NNE","20","12","1021","30.15","-999","-999","-9999","-9999","","","","","0","0","0","0","0","0","AAXX 30001 33345 32998 00202 10117 21010 30006 40208 58002 555 10007"
"3:00 AM EEST on April 30, 2016","2016","04","30","03","00","Europe/Kiev","12:00 AM GMT on April 30, 2016","2016","04","30","00","00","UTC","5.0","41.0","2.0","35.6","81","0.0","0.0","-9999.0","-9999.0","0","North","-9999.0","-9999.0","1020","30.12","-999","-999","-9999","-9999","-9999.00","-9999.00","Clear","clear","0","0","0","0","0","0","METAR UKKK 300000Z 00000MPS CAVOK 05/02 Q1020 R08/CLRD70 NOSIG"
"3:30 AM EEST on April 30, 2016","2016","04","30","03","30","Europe/Kiev","12:30 AM GMT on April 30, 2016","2016","04","30","00","30","UTC","6.0","42.8","1.0","33.8","70","3.6","2.2","-9999.0","-9999.0","0","Variable","9.0","5.6","1020","30.12","-999","-999","-9999","-9999","-9999.00","-9999.00","Clear","clear","0","0","0","0","0","0","METAR UKKK 300030Z VRB01MPS 9000 SKC 06/01 Q1020 R08/CLRD70 NOSIG"
"4:00 AM EEST on April 30, 2016","2016","04","30","04","00","Europe/Kiev","1:00 AM GMT on April 30, 2016","2016","04","30","01","00","UTC","5.0","41.0","2.0","35.6","81","0.0","0.0","-9999.0","-9999.0","0","North","-9999.0","-9999.0","1020","30.12","-999","-999","-9999","-9999","-9999.00","-9999.00","Clear","clear","0","0","0","0","0","0","METAR UKKK 300100Z 00000MPS CAVOK 05/02 Q1020 R08/CLRD70 NOSIG"
"4:30 AM EEST on April 30, 2016","2016","04","30","04","30","Europe/Kiev","1:30 AM GMT on April 30, 2016","2016","04","30","01","30","UTC","5.0","41.0","2.0","35.6","81","0.0","0.0","-9999.0","-9999.0","0","North","9.0","5.6","1020","30.12","-999","-999","-9999","-9999","-9999.00","-9999.00","Clear","clear","0","0","0","0","0","0","METAR UKKK 300130Z 00000MPS 9000 SKC 05/02 Q1020 R08/CLRD70 NOSIG"
"5:00 AM EEST on April 30, 2016","2016","04","30","05","00","Europe/Kiev","2:00 AM GMT on April 30, 2016","2016","04","30","02","00","UTC","5.0","41.0","2.0","35.6","81","0.0","0.0","-9999.0","-9999.0","0","North","-9999.0","-9999.0","1020","30.12","-999","-999","-9999","-9999","-9999.00","-9999.00","Clear","clear","0","0","0","0","0","0","METAR UKKK 300200Z 00000MPS CAVOK 05/02 Q1020 R08/CLRD70 NOSIG"
"5:30 AM EEST on April 30, 2016","2016","04","30","05","30","Europe/Kiev","2:30 AM GMT on April 30, 2016","2016","04","30","02","30","UTC","5.0","41.0","2.0","35.6","81","3.6","2.2","-9999.0","-9999.0","0","Variable","-9999.0","-9999.0","1020","30.12","-999","-999","-9999","-9999","-9999.00","-9999.00","Clear","clear","0","0","0","0","0","0","METAR UKKK 300230Z VRB01MPS CAVOK 05/02 Q1020 R08/CLRD70 NOSIG"
"6:00 AM EEST on April 30, 2016","2016","04","30","06","00","Europe/Kiev","3:00 AM GMT on April 30, 2016","2016","04","30","03","00","UTC","10","49","1","33","43","3.6","2.2","","","290","WNW","20","12","1021","30.15","-999","-999","-9999","-9999","","","Clear","clear","0","0","0","0","0","0","AAXX 30031 33345 42998 22901 10096 20008 30004 40208 57002 80004 555 10006"
"6:00 AM EEST on April 30, 2016","2016","04","30","06","00","Europe/Kiev","3:00 AM GMT on April 30, 2016","2016","04","30","03","00","UTC","5.0","41.0","2.0","35.6","81","0.0","0.0","-9999.0","-9999.0","0","North","9.0","5.6","1020","30.12","-999","-999","-9999","-9999","-9999.00","-9999.00","Clear","clear","0","0","0","0","0","0","METAR UKKK 300300Z 00000MPS 9000 SKC 05/02 Q1020 R08/CLRD70 NOSIG"
"6:30 AM EEST on April 30, 2016","2016","04","30","06","30","Europe/Kiev","3:30 AM GMT on April 30, 2016","2016","04","30","03","30","UTC","7.0","44.6","3.0","37.4","76","3.6","2.2","-9999.0","-9999.0","30","NNE","-9999.0","-9999.0","1020","30.12","-999","-999","-9999","-9999","-9999.00","-9999.00","Clear","clear","0","0","0","0","0","0","METAR UKKK 300330Z 03001MPS CAVOK 07/03 Q1020 R08/CLRD70 NOSIG"
"7:00 AM EEST on April 30, 2016","2016","04","30","07","00","Europe/Kiev","4:00 AM GMT on April 30, 2016","2016","04","30","04","00","UTC","8.0","46.4","4.0","39.2","76","3.6","2.2","-9999.0","-9999.0","0","Variable","-9999.0","-9999.0","1020","30.12","-999","-999","-9999","-9999","-9999.00","-9999.00","Clear","clear","0","0","0","0","0","0","METAR UKKK 300400Z VRB01MPS CAVOK 08/04 Q1020 R26/CLRD70 NOSIG"
"7:30 AM EEST on April 30, 2016","2016","04","30","07","30","Europe/Kiev","4:30 AM GMT on April 30, 2016","2016","04","30","04","30","UTC","12.0","53.6","6.0","42.8","67","0.0","0.0","-9999.0","-9999.0","0","North","-9999.0","-9999.0","1021","30.15","-999","-999","-9999","-9999","-9999.00","-9999.00","Clear","clear","0","0","0","0","0","0","METAR UKKK 300430Z 00000MPS CAVOK 12/06 Q1021 R26/CLRD70 NOSIG"
"8:00 AM EEST on April 30, 2016","2016","04","30","08","00","Europe/Kiev","5:00 AM GMT on April 30, 2016","2016","04","30","05","00","UTC","13.0","55.4","5.0","41.0","58","7.2","4.5","-9999.0","-9999.0","20","NNE","-9999.0","-9999.0","1021","30.15","-999","-999","-9999","-9999","-9999.00","-9999.00","Clear","clear","0","0","0","0","0","0","METAR UKKK 300500Z 02002MPS 360V060 CAVOK 13/05 Q1021 R08/CLRD70 NOSIG"
"8:30 AM EEST on April 30, 2016","2016","04","30","08","30","Europe/Kiev","5:30 AM GMT on April 30, 2016","2016","04","30","05","30","UTC","14.0","57.2","5.0","41.0","55","7.2","4.5","-9999.0","-9999.0","40","NE","-9999.0","-9999.0","1021","30.15","-999","-999","-9999","-9999","-9999.00","-9999.00","Clear","clear","0","0","0","0","0","0","METAR UKKK 300530Z 04002MPS 010V110 CAVOK 14/05 Q1021 R08/CLRD70 NOSIG"
"9:00 AM EEST on April 30, 2016","2016","04","30","09","00","Europe/Kiev","6:00 AM GMT on April 30, 2016","2016","04","30","06","00","UTC","14","56","5","42","47","7.2","4.5","","","60","ENE","20","12","1021","30.16","-999","-999","-9999","-9999","","","Clear","clear","0","0","0","0","0","0","AAXX 30061 33345 32998 30602 10136 20053 30012 40213 53008 80005 333 20093 555 10020 52003"
"9:00 AM EEST on April 30, 2016","2016","04","30","09","00","Europe/Kiev","6:00 AM GMT on April 30, 2016","2016","04","30","06","00","UTC","14.0","57.2","6.0","42.8","59","7.2","4.5","-9999.0","-9999.0","60","ENE","-9999.0","-9999.0","1021","30.15","-999","-999","-9999","-9999","-9999.00","-9999.00","Clear","clear","0","0","0","0","0","0","METAR UKKK 300600Z 06002MPS CAVOK 14/06 Q1021 R08/CLRD70 NOSIG"
"9:30 AM EEST on April 30, 2016","2016","04","30","09","30","Europe/Kiev","6:30 AM GMT on April 30, 2016","2016","04","30","06","30","UTC","15.0","59.0","6.0","42.8","55","7.2","4.5","-9999.0","-9999.0","50","NE","-9999.0","-9999.0","1021","30.15","-999","-999","-9999","-9999","-9999.00","-9999.00","Clear","clear","0","0","0","0","0","0","METAR UKKK 300630Z 05002MPS 350V100 CAVOK 15/06 Q1021 R08/CLRD70 NOSIG"
"10:00 AM EEST on April 30, 2016","2016","04","30","10","00","Europe/Kiev","7:00 AM GMT on April 30, 2016","2016","04","30","07","00","UTC","16.0","60.8","8.0","46.4","59","10.8","6.7","-9999.0","-9999.0","60","ENE","-9999.0","-9999.0","1021","30.15","-999","-999","-9999","-9999","-9999.00","-9999.00","Clear","clear","0","0","0","0","0","0","METAR UKKK 300700Z 06003MPS 030V090 CAVOK 16/08 Q1021 R08/CLRD70 NOSIG"
"10:30 AM EEST on April 30, 2016","2016","04","30","10","30","Europe/Kiev","7:30 AM GMT on April 30, 2016","2016","04","30","07","30","UTC","16.0","60.8","8.0","46.4","59","14.4","8.9","-9999.0","-9999.0","70","ENE","-9999.0","-9999.0","1021","30.15","-999","-999","-9999","-9999","-9999.00","-9999.00","Clear","clear","0","0","0","0","0","0","METAR UKKK 300730Z 07004MPS 050V110 CAVOK 16/08 Q1021 R08/CLRD70 NOSIG"
"11:00 AM EEST on April 30, 2016","2016","04","30","11","00","Europe/Kiev","8:00 AM GMT on April 30, 2016","2016","04","30","08","00","UTC","16.0","60.8","9.0","48.2","63","18.0","11.2","-9999.0","-9999.0","80","East","-9999.0","-9999.0","1021","30.15","-999","-999","-9999","-9999","-9999.00","-9999.00","Clear","clear","0","0","0","0","0","0","METAR UKKK 300800Z 08005MPS CAVOK 16/09 Q1021 R08/CLRD70 NOSIG"
"11:30 AM EEST on April 30, 2016","2016","04","30","11","30","Europe/Kiev","8:30 AM GMT on April 30, 2016","2016","04","30","08","30","UTC","17.0","62.6","9.0","48.2","59","14.4","8.9","-9999.0","-9999.0","80","East","-9999.0","-9999.0","1021","30.15","-999","-999","-9999","-9999","-9999.00","-9999.00","Clear","clear","0","0","0","0","0","0","METAR UKKK 300830Z 08004MPS 050V120 CAVOK 17/09 Q1021 R08/CLRD70 NOSIG"
"12:00 PM EEST on April 30, 2016","2016","04","30","12","00","Europe/Kiev","9:00 AM GMT on April 30, 2016","2016","04","30","09","00","UTC","18","64","8","47","43","7.2","4.5","","","60","ENE","20","12","1021","30.16","-999","-999","-9999","-9999","","","Mostly Cloudy","mostlycloudy","0","0","0","0","0","0","AAXX 30091 33345 42598 60602 10179 20082 30013 40211 52001 86200 555 10031"
"12:00 PM EEST on April 30, 2016","2016","04","30","12","00","Europe/Kiev","9:00 AM GMT on April 30, 2016","2016","04","30","09","00","UTC","18.0","64.4","9.0","48.2","56","10.8","6.7","-9999.0","-9999.0","90","East","10.0","6.2","1021","30.15","-999","-999","-9999","-9999","-9999.00","-9999.00","Mostly Cloudy","mostlycloudy","0","0","0","0","0","0","METAR UKKK 300900Z 09003MPS 010V140 9999 BKN039 18/09 Q1021 R08/CLRD70 NOSIG"
"12:30 PM EEST on April 30, 2016","2016","04","30","12","30","Europe/Kiev","9:30 AM GMT on April 30, 2016","2016","04","30","09","30","UTC","18.0","64.4","8.0","46.4","52","10.8","6.7","-9999.0","-9999.0","110","ESE","10.0","6.2","1021","30.15","-999","-999","-9999","-9999","-9999.00","-9999.00","Mostly Cloudy","mostlycloudy","0","0","0","0","0","0","METAR UKKK 300930Z 11003MPS 9999 BKN043 18/08 Q1021 R08/CLRD70 NOSIG"
"1:00 PM EEST on April 30, 2016","2016","04","30","13","00","Europe/Kiev","10:00 AM GMT on April 30, 2016","2016","04","30","10","00","UTC","18.0","64.4","7.0","44.6","49","10.8","6.7","-9999.0","-9999.0","80","East","-9999.0","-9999.0","1021","30.15","-999","-999","-9999","-9999","-9999.00","-9999.00","Clear","clear","0","0","0","0","0","0","METAR UKKK 301000Z 08003MPS 050V120 CAVOK 18/07 Q1021 R08/CLRD70 NOSIG"
"1:30 PM EEST on April 30, 2016","2016","04","30","13","30","Europe/Kiev","10:30 AM GMT on April 30, 2016","2016","04","30","10","30","UTC","19.0","66.2","7.0","44.6","46","10.8","6.7","-9999.0","-9999.0","70","ENE","-9999.0","-9999.0","1021","30.15","-999","-999","-9999","-9999","-9999.00","-9999.00","Clear","clear","0","0","0","0","0","0","METAR UKKK 301030Z 07003MPS 360V160 CAVOK 19/07 Q1021 R08/CLRD70 NOSIG"
"2:00 PM EEST on April 30, 2016","2016","04","30","14","00","Europe/Kiev","11:00 AM GMT on April 30, 2016","2016","04","30","11","00","UTC","18.0","64.4","7.0","44.6","49","10.8","6.7","-9999.0","-9999.0","80","East","-9999.0","-9999.0","1021","30.15","-999","-999","-9999","-9999","-9999.00","-9999.00","Clear","clear","0","0","0","0","0","0","METAR UKKK 301100Z 08003MPS 010V130 CAVOK 18/07 Q1021 R08/CLRD70 NOSIG"
"2:30 PM EEST on April 30, 2016","2016","04","30","14","30","Europe/Kiev","11:30 AM GMT on April 30, 2016","2016","04","30","11","30","UTC","18.0","64.4","7.0","44.6","49","14.4","8.9","-9999.0","-9999.0","70","ENE","-9999.0","-9999.0","1021","30.15","-999","-999","-9999","-9999","-9999.00","-9999.00","Clear","clear","0","0","0","0","0","0","METAR UKKK 301130Z 07004MPS CAVOK 18/07 Q1021 R08/CLRD70 NOSIG"
"3:00 PM EEST on April 30, 2016","2016","04","30","15","00","Europe/Kiev","12:00 PM GMT on April 30, 2016","2016","04","30","12","00","UTC","19","66","6","44","33","7.2","4.5","","","60","ENE","20","12","1021","30.14","-999","-999","-9999","-9999","","","Scattered Clouds","partlycloudy","0","0","0","0","0","0","AAXX 30121 33345 32698 60602 10187 20065 30009 40206 58004 82130 555 10027"
"3:00 PM EEST on April 30, 2016","2016","04","30","15","00","Europe/Kiev","12:00 PM GMT on April 30, 2016","2016","04","30","12","00","UTC","18.0","64.4","6.0","42.8","45","14.4","8.9","-9999.0","-9999.0","70","ENE","-9999.0","-9999.0","1021","30.15","-999","-999","-9999","-9999","-9999.00","-9999.00","Clear","clear","0","0","0","0","0","0","METAR UKKK 301200Z 07004MPS 010V110 CAVOK 18/06 Q1021 R08/CLRD70 NOSIG"
"3:30 PM EEST on April 30, 2016","2016","04","30","15","30","Europe/Kiev","12:30 PM GMT on April 30, 2016","2016","04","30","12","30","UTC","18.0","64.4","6.0","42.8","45","14.4","8.9","-9999.0","-9999.0","70","ENE","-9999.0","-9999.0","1020","30.12","-999","-999","-9999","-9999","-9999.00","-9999.00","Clear","clear","0","0","0","0","0","0","METAR UKKK 301230Z 07004MPS 040V110 CAVOK 18/06 Q1020 R08/CLRD70 NOSIG"
"4:00 PM EEST on April 30, 2016","2016","04","30","16","00","Europe/Kiev","1:00 PM GMT on April 30, 2016","2016","04","30","13","00","UTC","18.0","64.4","7.0","44.6","49","18.0","11.2","-9999.0","-9999.0","40","NE","-9999.0","-9999.0","1020","30.12","-999","-999","-9999","-9999","-9999.00","-9999.00","Clear","clear","0","0","0","0","0","0","METAR UKKK 301300Z 04005MPS 360V070 CAVOK 18/07 Q1020 R08/CLRD70 NOSIG"
"4:30 PM EEST on April 30, 2016","2016","04","30","16","30","Europe/Kiev","1:30 PM GMT on April 30, 2016","2016","04","30","13","30","UTC","18.0","64.4","6.0","42.8","45","14.4","8.9","-9999.0","-9999.0","20","NNE","-9999.0","-9999.0","1021","30.15","-999","-999","-9999","-9999","-9999.00","-9999.00","Clear","clear","0","0","0","0","0","0","METAR UKKK 301330Z 02004MPS CAVOK 18/06 Q1021 R08/CLRD70 NOSIG"
"5:00 PM EEST on April 30, 2016","2016","04","30","17","00","Europe/Kiev","2:00 PM GMT on April 30, 2016","2016","04","30","14","00","UTC","18.0","64.4","6.0","42.8","45","14.4","8.9","-9999.0","-9999.0","40","NE","-9999.0","-9999.0","1020","30.12","-999","-999","-9999","-9999","-9999.00","-9999.00","Clear","clear","0","0","0","0","0","0","METAR UKKK 301400Z 04004MPS CAVOK 18/06 Q1020 R08/CLRD70 NOSIG"
"5:30 PM EEST on April 30, 2016","2016","04","30","17","30","Europe/Kiev","2:30 PM GMT on April 30, 2016","2016","04","30","14","30","UTC","18.0","64.4","6.0","42.8","45","18.0","11.2","-9999.0","-9999.0","40","NE","-9999.0","-9999.0","1020","30.12","-999","-999","-9999","-9999","-9999.00","-9999.00","Clear","clear","0","0","0","0","0","0","METAR UKKK 301430Z 04005MPS CAVOK 18/06 Q1020 R08/CLRD70 NOSIG"
"6:00 PM EEST on April 30, 2016","2016","04","30","18","00","Europe/Kiev","3:00 PM GMT on April 30, 2016","2016","04","30","15","00","UTC","18","65","4","39","27","10.8","6.7","","","40","NE","20","12","1020","30.14","-999","-999","-9999","-9999","","","Mostly Cloudy","mostlycloudy","0","0","0","0","0","0","AAXX 30151 33345 42998 70403 10181 20039 30007 40205 57002 86031 555 10023"
"6:00 PM EEST on April 30, 2016","2016","04","30","18","00","Europe/Kiev","3:00 PM GMT on April 30, 2016","2016","04","30","15","00","UTC","17.0","62.6","4.0","39.2","42","21.6","13.4","-9999.0","-9999.0","60","ENE","-9999.0","-9999.0","1020","30.12","-999","-999","-9999","-9999","-9999.00","-9999.00","Clear","clear","0","0","0","0","0","0","METAR UKKK 301500Z 06006MPS CAVOK 17/04 Q1020 R08/CLRD70 NOSIG"
"6:30 PM EEST on April 30, 2016","2016","04","30","18","30","Europe/Kiev","3:30 PM GMT on April 30, 2016","2016","04","30","15","30","UTC","17.0","62.6","5.0","41.0","45","18.0","11.2","-9999.0","-9999.0","70","ENE","-9999.0","-9999.0","1020","30.12","-999","-999","-9999","-9999","-9999.00","-9999.00","Clear","clear","0","0","0","0","0","0","METAR UKKK 301530Z 07005MPS CAVOK 17/05 Q1020 R08/CLRD70 NOSIG"
"7:00 PM EEST on April 30, 2016","2016","04","30","19","00","Europe/Kiev","4:00 PM GMT on April 30, 2016","2016","04","30","16","00","UTC","16.0","60.8","3.0","37.4","42","18.0","11.2","-9999.0","-9999.0","70","ENE","-9999.0","-9999.0","1021","30.15","-999","-999","-9999","-9999","-9999.00","-9999.00","Clear","clear","0","0","0","0","0","0","METAR UKKK 301600Z 07005MPS CAVOK 16/03 Q1021 R08/CLRD70 NOSIG"
"7:30 PM EEST on April 30, 2016","2016","04","30","19","30","Europe/Kiev","4:30 PM GMT on April 30, 2016","2016","04","30","16","30","UTC","16.0","60.8","4.0","39.2","45","18.0","11.2","-9999.0","-9999.0","70","ENE","-9999.0","-9999.0","1021","30.15","-999","-999","-9999","-9999","-9999.00","-9999.00","Clear","clear","0","0","0","0","0","0","METAR UKKK 301630Z 07005MPS CAVOK 16/04 Q1021 R08/CLRD70 NOSIG"
"8:00 PM EEST on April 30, 2016","2016","04","30","20","00","Europe/Kiev","5:00 PM GMT on April 30, 2016","2016","04","30","17","00","UTC","15.0","59.0","3.0","37.4","45","14.4","8.9","-9999.0","-9999.0","60","ENE","-9999.0","-9999.0","1021","30.15","-999","-999","-9999","-9999","-9999.00","-9999.00","Clear","clear","0","0","0","0","0","0","METAR UKKK 301700Z 06004MPS CAVOK 15/03 Q1021 R08/CLRD70 NOSIG"
"8:30 PM EEST on April 30, 2016","2016","04","30","20","30","Europe/Kiev","5:30 PM GMT on April 30, 2016","2016","04","30","17","30","UTC","15.0","59.0","3.0","37.4","45","10.8","6.7","-9999.0","-9999.0","60","ENE","-9999.0","-9999.0","1021","30.15","-999","-999","-9999","-9999","-9999.00","-9999.00","Clear","clear","0","0","0","0","0","0","METAR UKKK 301730Z 06003MPS CAVOK 15/03 Q1021 R08/CLRD70 NOSIG"
"9:00 PM EEST on April 30, 2016","2016","04","30","21","00","Europe/Kiev","6:00 PM GMT on April 30, 2016","2016","04","30","18","00","UTC","15","58","3","37","33","7.2","4.5","","","40","NE","20","12","1022","30.17","-999","-999","-9999","-9999","","","Partly Cloudy","partlycloudy","0","0","0","0","0","0","AAXX 30181 33345 32998 60402 10147 20026 30016 40216 53009 84031 333 10194 555 10013"
"9:00 PM EEST on April 30, 2016","2016","04","30","21","00","Europe/Kiev","6:00 PM GMT on April 30, 2016","2016","04","30","18","00","UTC","13.0","55.4","4.0","39.2","54","10.8","6.7","-9999.0","-9999.0","60","ENE","-9999.0","-9999.0","1021","30.15","-999","-999","-9999","-9999","-9999.00","-9999.00","Clear","clear","0","0","0","0","0","0","METAR UKKK 301800Z 06003MPS CAVOK 13/04 Q1021 R08/CLRD70 NOSIG"
"9:30 PM EEST on April 30, 2016","2016","04","30","21","30","Europe/Kiev","6:30 PM GMT on April 30, 2016","2016","04","30","18","30","UTC","13.0","55.4","4.0","39.2","54","10.8","6.7","-9999.0","-9999.0","70","ENE","-9999.0","-9999.0","1021","30.15","-999","-999","-9999","-9999","-9999.00","-9999.00","Clear","clear","0","0","0","0","0","0","METAR UKKK 301830Z 07003MPS CAVOK 13/04 Q1021 R08/CLRD70 NOSIG"
"10:00 PM EEST on April 30, 2016","2016","04","30","22","00","Europe/Kiev","7:00 PM GMT on April 30, 2016","2016","04","30","19","00","UTC","13.0","55.4","3.0","37.4","51","3.6","2.2","-9999.0","-9999.0","0","Variable","-9999.0","-9999.0","1021","30.15","-999","-999","-9999","-9999","-9999.00","-9999.00","Clear","clear","0","0","0","0","0","0","METAR UKKK 301900Z VRB01MPS CAVOK 13/03 Q1021 R08/CLRD70 NOSIG"
"10:30 PM EEST on April 30, 2016","2016","04","30","22","30","Europe/Kiev","7:30 PM GMT on April 30, 2016","2016","04","30","19","30","UTC","11.0","51.8","4.0","39.2","62","3.6","2.2","-9999.0","-9999.0","80","East","9.0","5.6","1021","30.15","-999","-999","-9999","-9999","-9999.00","-9999.00","Unknown","unknown","0","0","0","0","0","0","METAR UKKK 301930Z 08001MPS 9000 NSC 11/04 Q1021 R08/CLRD70 NOSIG"
"11:00 PM EEST on April 30, 2016","2016","04","30","23","00","Europe/Kiev","8:00 PM GMT on April 30, 2016","2016","04","30","20","00","UTC","11.0","51.8","4.0","39.2","62","3.6","2.2","-9999.0","-9999.0","80","East","-9999.0","-9999.0","1021","30.15","-999","-999","-9999","-9999","-9999.00","-9999.00","Clear","clear","0","0","0","0","0","0","METAR UKKK 302000Z 08001MPS CAVOK 11/04 Q1021 R08/CLRD70 NOSIG"
"11:30 PM EEST on April 30, 2016","2016","04","30","23","30","Europe/Kiev","8:30 PM GMT on April 30, 2016","2016","04","30","20","30","UTC","11.0","51.8","4.0","39.2","62","7.2","4.5","-9999.0","-9999.0","90","East","-9999.0","-9999.0","1021","30.15","-999","-999","-9999","-9999","-9999.00","-9999.00","Clear","clear","0","0","0","0","0","0","METAR UKKK 302030Z 09002MPS CAVOK 11/04 Q1021 R08/CLRD70 NOSIG"
