"date.pretty","date.year","date.mon","date.mday","date.hour","date.min","date.tzname","utcdate.pretty","utcdate.year","utcdate.mon","utcdate.mday","utcdate.hour","utcdate.min","utcdate.tzname","tempm","tempi","dewptm","dewpti","hum","wspdm","wspdi","wgustm","wgusti","wdird","wdire","vism","visi","pressurem","pressurei","windchillm","windchilli","heatindexm","heatindexi","precipm","precipi","conds","icon","fog","rain","snow","hail","thunder","tornado","metar"
"12:00 AM EET on December 01, 2016","2016","12","01","00","00","Europe/Kiev","10:00 PM GMT on November 30, 2016","2016","11","30","22","00","UTC","-2.0","28.4","-3.0","26.6","93","14.4","8.9","-9999.0","-9999.0","230","SW","4.5","2.8","1013","29.92","-6.7","19.9","-9999","-9999","-9999.00","-9999.00","Light Snow","snow","0","0","1","0","0","0","METAR UKKK 302200Z 23004MPS 4500 -SN SCT010 OVC016 M02/M03 Q1013 R26/490150 TEMPO 2000 -SHSN BR SCT015CB"
"12:30 AM EET on December 01, 2016","2016","12","01","00","30","Europe/Kiev","10:30 PM GMT on November 30, 2016","2016","11","30","22","30","UTC","-1.0","30.2","-3.0","26.6","86","14.4","8.9","-9999.0","-9999.0","240","WSW","-9999.0","-9999.0","1012","29.89","-5.5","22.1","-9999","-9999","-9999.00","-9999.00","Light Snow Showers","snow","0","0","1","0","0","0","METAR UKKK 302230Z 24004MPS 4200 -SHSN FEW007 SCT018CB OVC021 M01/M03 Q1012 RESHSN R26/490150 TEMPO 2000 -SHSN BR SCT015CB"
"1:00 AM EET on December 01, 2016","2016","12","01","01","00","Europe/Kiev","11:00 PM GMT on November 30, 2016","2016","11","30","23","00","UTC","-1.0","30.2","-3.0","26.6","86","14.4","8.9","-9999.0","-9999.0","240","WSW","8.0","5.0","1012","29.89","-5.5","22.1","-9999","-9999","-9999.00","-9999.00","Light Snow","snow","0","0","1","0","0","0","METAR UKKK 302300Z 24004MPS 8000 -SN SCT010 OVC019 M01/M03 Q1012 R26/490150 TEMPO 2000 -SHSN BR SCT015CB"
"1:30 AM EET on December 01, 2016","2016","12","01","01","30","Europe/Kiev","11:30 PM GMT on November 30, 2016","2016","11","30","23","30","UTC","-1.0","30.2","-3.0","26.6","86","14.4","8.9","-9999.0","-9999.0","240","WSW","9.0","5.6","1012","29.89","-5.5","22.1","-9999","-9999","-9999.00","-9999.00","Light Snow","snow","0","0","1","0","0","0","METAR UKKK 302330Z 24004MPS 9000 -SN OVC020 M01/M03 Q1012 R26/490150 TEMPO 2000 -SHSN BR SCT015CB"
"1:42 AM EET on December 01, 2016","2016","12","01","01","42","Europe/Kiev","11:42 PM GMT on November 30, 2016","2016","11","30","23","42","UTC","-1.0","30.2","-3.0","26.6","86","14.4","8.9","-9999.0","-9999.0","240","WSW","1.7","1.1","1012","29.89","-5.5","22.1","-9999","-9999","-9999.00","-9999.00","Snow Showers","snow","0","0","1","0","0","0","SPECI UKKK 302342Z 24004MPS 1700 R26/P2000D SHSN SCT011CB OVC022 M01/M03 Q1012 R26/490150 TEMPO 2000 -SHSN BR SCT015CB"
"2:00 AM EET on December 01, 2016","2016","12","01","02","00","Europe/Kiev","12:00 AM GMT on December 01, 2016","2016","12","01","00","00","UTC","-1","30","-2","28","89","10.8","6.7","","","250","WSW","4","2","1013","29.92","-999","-999","-9999","-9999","","","Light Snow","snow","0","0","1","0","0","0","AAXX 01001 33345 /1496 82503 11012 21022 39921 40131 57018 77172 8872/ 333 88712 555 1/102 69941"
"2:00 AM EET on December 01, 2016","2016","12","01","02","00","Europe/Kiev","12:00 AM GMT on December 01, 2016","2016","12","01","00","00","UTC","-1.0","30.2","-2.0","28.4","93","14.4","8.9","-9999.0","-9999.0","240","WSW","2.7","1.7","1011","29.86","-5.5","22.1","-9999","-9999","-9999.00","-9999.00","Light Snow Showers","snow","0","0","1","0","0","0","METAR UKKK 010000Z 24004MPS 2700 -SHSN SCT007 BKN016CB OVC027 M01/M02 Q1011 RESHSN R26/490150 TEMPO 1000 SHSN SCT015CB"
"2:30 AM EET on December 01, 2016","2016","12","01","02","30","Europe/Kiev","12:30 AM GMT on December 01, 2016","2016","12","01","00","30","UTC","-1.0","30.2","-2.0","28.4","93","14.4","8.9","-9999.0","-9999.0","240","WSW","2.2","1.4","1011","29.86","-5.5","22.1","-9999","-9999","-9999.00","-9999.00","Light Snow Showers","snow","0","0","1","0","0","0","METAR UKKK 010030Z 24004MPS 2200 -SHSN SCT008 BKN017CB OVC022 M01/M02 Q1011 R26/490150 TEMPO 1000 SHSN BKN007 SCT015CB"
"3:00 AM EET on December 01, 2016","2016","12","01","03","00","Europe/Kiev","1:00 AM GMT on December 01, 2016","2016","12","01","01","00","UTC","-1.0","30.2","-2.0","28.4","93","14.4","8.9","-9999.0","-9999.0","250","WSW","1.9","1.2","1011","29.86","-5.5","22.1","-9999","-9999","-9999.00","-9999.00","Snow Showers","snow","0","0","1","0","0","0","METAR UKKK 010100Z 25004MPS 1900 SHSN SCT007 BKN021CB OVC026 M01/M02 Q1011 R26/590340 TEMPO 1000 SHSN BKN007 SCT015CB"
"3:20 AM EET on December 01, 2016","2016","12","01","03","20","Europe/Kiev","1:20 AM GMT on December 01, 2016","2016","12","01","01","20","UTC","-1.0","30.2","-2.0","28.4","93","10.8","6.7","-9999.0","-9999.0","250","WSW","1.9","1.2","1011","29.86","-4.7","23.5","-9999","-9999","-9999.00","-9999.00","Snow Showers","snow","0","0","1","0","0","0","SPECI UKKK 010120Z 25003MPS 1900 R26/P2000D SHSN SCT005 BKN021CB OVC026 M01/M02 Q1011 R26/590340 TEMPO 1000 SHSN BR BKN005 SCT015CB"
"3:30 AM EET on December 01, 2016","2016","12","01","03","30","Europe/Kiev","1:30 AM GMT on December 01, 2016","2016","12","01","01","30","UTC","-1.0","30.2","-2.0","28.4","93","10.8","6.7","-9999.0","-9999.0","240","WSW","-9999.0","-9999.0","1011","29.86","-4.7","23.5","-9999","-9999","-9999.00","-9999.00","Light Snow","snow","0","0","1","0","0","0","METAR UKKK 010130Z 24003MPS 3100 -SN SCT005 OVC010 M01/M02 Q1011 R26/590340 TEMPO 1000 SHSN BR BKN005 SCT015CB"
"4:00 AM EET on December 01, 2016","2016","12","01","04","00","Europe/Kiev","2:00 AM GMT on December 01, 2016","2016","12","01","02","00","UTC","-1.0","30.2","-2.0","28.4","93","10.8","6.7","-9999.0","-9999.0","250","WSW","-9999.0","-9999.0","1011","29.86","-4.7","23.5","-9999","-9999","-9999.00","-9999.00","Light Snow","snow","0","0","1","0","0","0","METAR UKKK 010200Z 25003MPS 4700 -SN BKN005 OVC011 M01/M02 Q1011 R26/590340 TEMPO 1000 SHSN BR BKN005 SCT015CB"
"4:30 AM EET on December 01, 2016","2016","12","01","04","30","Europe/Kiev","2:30 AM GMT on December 01, 2016","2016","12","01","02","30","UTC","-1.0","30.2","-2.0","28.4","93","14.4","8.9","-9999.0","-9999.0","250","WSW","8.0","5.0","1011","29.86","-5.5","22.1","-9999","-9999","-9999.00","-9999.00","Overcast","cloudy","0","0","0","0","0","0","METAR UKKK 010230Z 25004MPS 8000 BKN005 OVC020 M01/M02 Q1011 R26/590340 TEMPO BKN004"
"5:00 AM EET on December 01, 2016","2016","12","01","05","00","Europe/Kiev","3:00 AM GMT on December 01, 2016","2016","12","01","03","00","UTC","-1","30","-2","29","92","10.8","6.7","","","280","West","4","2","1012","29.89","-999","-999","-9999","-9999","","","Mist","hazy","0","0","0","0","0","0","AAXX 01031 33345 41396 82803 11012 21019 39911 40121 57010 71072 887// 333 88708 555 1/101"
"5:00 AM EET on December 01, 2016","2016","12","01","05","00","Europe/Kiev","3:00 AM GMT on December 01, 2016","2016","12","01","03","00","UTC","-1.0","30.2","-2.0","28.4","93","14.4","8.9","-9999.0","-9999.0","250","WSW","8.0","5.0","1010","29.83","-5.5","22.1","-9999","-9999","-9999.00","-9999.00","Light Snow","snow","0","0","1","0","0","0","METAR UKKK 010300Z 25004MPS 8000 -SN BKN006 OVC020 M01/M02 Q1010 R26/590340 TEMPO BKN004"
"5:30 AM EET on December 01, 2016","2016","12","01","05","30","Europe/Kiev","3:30 AM GMT on December 01, 2016","2016","12","01","03","30","UTC","-1.0","30.2","-2.0","28.4","93","14.4","8.9","-9999.0","-9999.0","260","West","8.0","5.0","1010","29.83","-5.5","22.1","-9999","-9999","-9999.00","-9999.00","Light Snow","snow","0","0","1","0","0","0","METAR UKKK 010330Z 26004MPS 8000 -SN BKN007 OVC021 M01/M02 Q1010 R26/590340 TEMPO BKN004"
"6:00 AM EET on December 01, 2016","2016","12","01","06","00","Europe/Kiev","4:00 AM GMT on December 01, 2016","2016","12","01","04","00","UTC","-1.0","30.2","-2.0","28.4","93","14.4","8.9","-9999.0","-9999.0","250","WSW","9.0","5.6","1010","29.83","-5.5","22.1","-9999","-9999","-9999.00","-9999.00","Light Snow","snow","0","0","1","0","0","0","METAR UKKK 010400Z 25004MPS 9000 -SN BKN007 OVC021 M01/M02 Q1010 R26/590340 TEMPO BKN004"
"6:30 AM EET on December 01, 2016","2016","12","01","06","30","Europe/Kiev","4:30 AM GMT on December 01, 2016","2016","12","01","04","30","UTC","-1.0","30.2","-2.0","28.4","93","14.4","8.9","-9999.0","-9999.0","250","WSW","9.0","5.6","1010","29.83","-5.5","22.1","-9999","-9999","-9999.00","-9999.00","Overcast","cloudy","0","0","0","0","0","0","METAR UKKK 010430Z 25004MPS 9000 OVC007 M01/M02 Q1010 R26/590340 TEMPO BKN004"
"7:00 AM EET on December 01, 2016","2016","12","01","07","00","Europe/Kiev","5:00 AM GMT on December 01, 2016","2016","12","01","05","00","UTC","-1.0","30.2","-2.0","28.4","93","14.4","8.9","-9999.0","-9999.0","250","WSW","6.0","3.7","1010","29.83","-5.5","22.1","-9999","-9999","-9999.00","-9999.00","Light Snow Showers","snow","0","0","1","0","0","0","METAR UKKK 010500Z 25004MPS 6000 -SHSN BKN007 BKN017CB M01/M02 Q1010 R26/590340 TEMPO 2000 -SHSN BR BKN005 SCT015CB"
"7:20 AM EET on December 01, 2016","2016","12","01","07","20","Europe/Kiev","5:20 AM GMT on December 01, 2016","2016","12","01","05","20","UTC","-1.0","30.2","-2.0","28.4","93","14.4","8.9","-9999.0","-9999.0","250","WSW","2.6","1.6","1010","29.83","-5.5","22.1","-9999","-9999","-9999.00","-9999.00","Light Snow Showers","snow","0","0","1","0","0","0","SPECI UKKK 010520Z 25004MPS 2600 -SHSN BR BKN004 BKN019CB M01/M02 Q1010 R26/590340 TEMPO 1000 SHSN BR BKN005 SCT015CB"
"7:30 AM EET on December 01, 2016","2016","12","01","07","30","Europe/Kiev","5:30 AM GMT on December 01, 2016","2016","12","01","05","30","UTC","-1.0","30.2","-2.0","28.4","93","14.4","8.9","-9999.0","-9999.0","250","WSW","3.0","1.9","1010","29.83","-5.5","22.1","-9999","-9999","-9999.00","-9999.00","Light Snow Showers","snow","0","0","1","0","0","0","METAR UKKK 010530Z 25004MPS 3000 -SHSN BR SCT007 BKN015CB OVC033 M01/M02 Q1010 R26/590340 TEMPO 1000 SHSN BR BKN003 SCT015CB"
"8:00 AM EET on December 01, 2016","2016","12","01","08","00","Europe/Kiev","6:00 AM GMT on December 01, 2016","2016","12","01","06","00","UTC","-1","30","-2","29","92","7.2","4.5","","","260","West","4","2","1011","29.86","-999","-999","-9999","-9999","","","Light Snow","snow","0","0","1","0","0","0","AAXX 01061 33345 11396 82602 11009 21019 39902 40111 57009 69982 77172 8872/ 333 21035 47007 88709 555 1/101"
"8:00 AM EET on December 01, 2016","2016","12","01","08","00","Europe/Kiev","6:00 AM GMT on December 01, 2016","2016","12","01","06","00","UTC","-1.0","30.2","-2.0","28.4","93","14.4","8.9","-9999.0","-9999.0","250","WSW","8.0","5.0","1010","29.83","-5.5","22.1","-9999","-9999","-9999.00","-9999.00","Mostly Cloudy","mostlycloudy","0","0","0","0","0","0","METAR UKKK 010600Z 25004MPS 8000 BKN007 BKN027 M01/M02 Q1010 R26/590340 TEMPO 1000 SHSN BR BKN005 SCT015CB"
"8:30 AM EET on December 01, 2016","2016","12","01","08","30","Europe/Kiev","6:30 AM GMT on December 01, 2016","2016","12","01","06","30","UTC","-1.0","30.2","-2.0","28.4","93","10.8","6.7","-9999.0","-9999.0","240","WSW","8.0","5.0","1010","29.83","-4.7","23.5","-9999","-9999","-9999.00","-9999.00","Overcast","cloudy","0","0","0","0","0","0","METAR UKKK 010630Z 24003MPS 8000 BKN008 OVC027 M01/M02 Q1010 R26/590340 NOSIG"
"9:00 AM EET on December 01, 2016","2016","12","01","09","00","Europe/Kiev","7:00 AM GMT on December 01, 2016","2016","12","01","07","00","UTC","-1.0","30.2","-2.0","28.4","93","10.8","6.7","-9999.0","-9999.0","230","SW","8.0","5.0","1010","29.83","-4.7","23.5","-9999","-9999","-9999.00","-9999.00","Light Snow","snow","0","0","1","0","0","0","METAR UKKK 010700Z 23003MPS 8000 -SN BKN007 OVC022 M01/M02 Q1010 R26/590340 NOSIG"
"9:30 AM EET on December 01, 2016","2016","12","01","09","30","Europe/Kiev","7:30 AM GMT on December 01, 2016","2016","12","01","07","30","UTC","-1.0","30.2","-2.0","28.4","93","10.8","6.7","-9999.0","-9999.0","240","WSW","7.0","4.3","1009","29.80","-4.7","23.5","-9999","-9999","-9999.00","-9999.00","Light Snow","snow","0","0","1","0","0","0","METAR UKKK 010730Z 24003MPS 7000 -SN BKN008 OVC022 M01/M02 Q1009 R26/810345 TEMPO 1500 SHSN BKN003 BKN012CB"
"10:00 AM EET on December 01, 2016","2016","12","01","10","00","Europe/Kiev","8:00 AM GMT on December 01, 2016","2016","12","01","08","00","UTC","0.0","32.0","-2.0","28.4","87","10.8","6.7","-9999.0","-9999.0","240","WSW","-9999.0","-9999.0","1009","29.80","-3.5","25.7","-9999","-9999","-9999.00","-9999.00","Light Snow","snow","0","0","1","0","0","0","METAR UKKK 010800Z 24003MPS 200V270 4200 -SN BR BKN006 OVC026 M00/M02 Q1009 R26/810345 TEMPO 1500 SHSN BKN003 BKN012CB"
"10:30 AM EET on December 01, 2016","2016","12","01","10","30","Europe/Kiev","8:30 AM GMT on December 01, 2016","2016","12","01","08","30","UTC","0.0","32.0","-1.0","30.2","93","10.8","6.7","-9999.0","-9999.0","230","SW","-9999.0","-9999.0","1009","29.80","-3.5","25.7","-9999","-9999","-9999.00","-9999.00","Light Snow","snow","0","0","1","0","0","0","METAR UKKK 010830Z 23003MPS 4900 -SN BR BKN006 OVC027 M00/M01 Q1009 R26/810345 TEMPO 1000 SHSN BKN003 BKN012CB"
"11:00 AM EET on December 01, 2016","2016","12","01","11","00","Europe/Kiev","9:00 AM GMT on December 01, 2016","2016","12","01","09","00","UTC","-0","31","-2","29","91","7.2","4.5","","","240","WSW","2","1","1010","29.83","-999","-999","-9999","-9999","","","Snow","snow","0","0","1","0","0","0","AAXX 01091 33345 41395 82402 11003 21015 39893 40102 57009 77377 8872/ 333 88707 555 1/100"
"11:00 AM EET on December 01, 2016","2016","12","01","11","00","Europe/Kiev","9:00 AM GMT on December 01, 2016","2016","12","01","09","00","UTC","0.0","32.0","-2.0","28.4","87","10.8","6.7","-9999.0","-9999.0","230","SW","-9999.0","-9999.0","1009","29.80","-3.5","25.7","-9999","-9999","-9999.00","-9999.00","Light Snow","snow","0","0","1","0","0","0","METAR UKKK 010900Z 23003MPS 3600 -SN BR BKN007 OVC027 M00/M02 Q1009 R26/810345 TEMPO 1000 SHSN BKN003 BKN012CB"
"11:30 AM EET on December 01, 2016","2016","12","01","11","30","Europe/Kiev","9:30 AM GMT on December 01, 2016","2016","12","01","09","30","UTC","0.0","32.0","-1.0","30.2","93","10.8","6.7","-9999.0","-9999.0","230","SW","1.9","1.2","1008","29.77","-3.5","25.7","-9999","-9999","-9999.00","-9999.00","Light Snow","snow","0","0","1","0","0","0","METAR UKKK 010930Z 23003MPS 1900 -SN BR BKN005 OVC022 M00/M01 Q1008 R26/810345 TEMPO 1000 SHSN BKN003 BKN012CB"
"11:34 AM EET on December 01, 2016","2016","12","01","11","34","Europe/Kiev","9:34 AM GMT on December 01, 2016","2016","12","01","09","34","UTC","0.0","32.0","-1.0","30.2","93","10.8","6.7","-9999.0","-9999.0","240","WSW","2.2","1.4","1008","29.77","-3.5","25.7","-9999","-9999","-9999.00","-9999.00","Light Snow","snow","0","0","1","0","0","0","SPECI UKKK 010934Z 24003MPS 2200 -SN BR BKN004 OVC022 M00/M01 Q1008 R26/810345 TEMPO 1000 SHSN BKN003 BKN012CB"
"12:00 PM EET on December 01, 2016","2016","12","01","12","00","Europe/Kiev","10:00 AM GMT on December 01, 2016","2016","12","01","10","00","UTC","0.0","32.0","-1.0","30.2","93","10.8","6.7","-9999.0","-9999.0","240","WSW","2.3","1.4","1008","29.77","-3.5","25.7","-9999","-9999","-9999.00","-9999.00","Light Snow","snow","0","0","1","0","0","0","METAR UKKK 011000Z 24003MPS 2300 -SN BR BKN006 OVC027 M00/M01 Q1008 R26/810345 TEMPO BKN004"
"12:30 PM EET on December 01, 2016","2016","12","01","12","30","Europe/Kiev","10:30 AM GMT on December 01, 2016","2016","12","01","10","30","UTC","0.0","32.0","-1.0","30.2","93","10.8","6.7","-9999.0","-9999.0","240","WSW","7.0","4.3","1008","29.77","-3.5","25.7","-9999","-9999","-9999.00","-9999.00","Light Snow","snow","0","0","1","0","0","0","METAR UKKK 011030Z 24003MPS 200V270 7000 -SN BKN009 OVC027 00/M01 Q1008 R26/810345 NOSIG"
"1:00 PM EET on December 01, 2016","2016","12","01","13","00","Europe/Kiev","11:00 AM GMT on December 01, 2016","2016","12","01","11","00","UTC","0.0","32.0","-1.0","30.2","93","10.8","6.7","-9999.0","-9999.0","240","WSW","-9999.0","-9999.0","1007","29.74","-3.5","25.7","-9999","-9999","-9999.00","-9999.00","Light Snow","snow","0","0","1","0","0","0","METAR UKKK 011100Z 24003MPS 210V270 3800 -SN BR BKN007 OVC027 00/M01 Q1007 R26/810345 NOSIG"
"1:30 PM EET on December 01, 2016","2016","12","01","13","30","Europe/Kiev","11:30 AM GMT on December 01, 2016","2016","12","01","11","30","UTC","0.0","32.0","-1.0","30.2","93","10.8","6.7","-9999.0","-9999.0","250","WSW","-9999.0","-9999.0","1007","29.74","-3.5","25.7","-9999","-9999","-9999.00","-9999.00","Light Snow","snow","0","0","1","0","0","0","METAR UKKK 011130Z 25003MPS 210V270 4300 -SN BR BKN007 OVC020 00/M01 Q1007 R26/810345 NOSIG"
"2:00 PM EET on December 01, 2016","2016","12","01","14","00","Europe/Kiev","12:00 PM GMT on December 01, 2016","2016","12","01","12","00","UTC","0","32","-1","30","91","10.8","6.7","","","270","West","4","2","1008","29.78","-999","-999","-9999","-9999","","","Light Snow","snow","0","0","1","0","0","0","AAXX 01121 33345 /1396 82703 10002 21009 39874 40082 57019 77177 8872/ 333 88709 555 1/100 60011"
"2:00 PM EET on December 01, 2016","2016","12","01","14","00","Europe/Kiev","12:00 PM GMT on December 01, 2016","2016","12","01","12","00","UTC","0.0","32.0","-1.0","30.2","93","14.4","8.9","-9999.0","-9999.0","250","WSW","7.0","4.3","1007","29.74","-4.3","24.3","-9999","-9999","-9999.00","-9999.00","Light Snow","snow","0","0","1","0","0","0","METAR UKKK 011200Z 25004MPS 7000 -SN BKN008 OVC020 00/M01 Q1007 R26/810345 NOSIG"
"2:30 PM EET on December 01, 2016","2016","12","01","14","30","Europe/Kiev","12:30 PM GMT on December 01, 2016","2016","12","01","12","30","UTC","0.0","32.0","-1.0","30.2","93","14.4","8.9","-9999.0","-9999.0","250","WSW","7.0","4.3","1006","29.71","-4.3","24.3","-9999","-9999","-9999.00","-9999.00","Light Snow","snow","0","0","1","0","0","0","METAR UKKK 011230Z 25004MPS 7000 -SN BKN007 OVC020 00/M01 Q1006 R26/810345 NOSIG"
"3:00 PM EET on December 01, 2016","2016","12","01","15","00","Europe/Kiev","1:00 PM GMT on December 01, 2016","2016","12","01","13","00","UTC","0.0","32.0","-1.0","30.2","93","10.8","6.7","-9999.0","-9999.0","240","WSW","6.0","3.7","1006","29.71","-3.5","25.7","-9999","-9999","-9999.00","-9999.00","Light Snow","snow","0","0","1","0","0","0","METAR UKKK 011300Z 24003MPS 6000 -SN BKN007 OVC020 00/M01 Q1006 R26/810345 NOSIG"
"3:30 PM EET on December 01, 2016","2016","12","01","15","30","Europe/Kiev","1:30 PM GMT on December 01, 2016","2016","12","01","13","30","UTC","0.0","32.0","-1.0","30.2","93","14.4","8.9","-9999.0","-9999.0","240","WSW","5.0","3.1","1006","29.71","-4.3","24.3","-9999","-9999","-9999.00","-9999.00","Light Snow","snow","0","0","1","0","0","0","METAR UKKK 011330Z 24004MPS 5000 -SN BR BKN007 OVC023 00/M01 Q1006 R26/810345 TEMPO 1000 SHSN BKN003 BKN015CB"
"4:00 PM EET on December 01, 2016","2016","12","01","16","00","Europe/Kiev","2:00 PM GMT on December 01, 2016","2016","12","01","14","00","UTC","0.0","32.0","-1.0","30.2","93","14.4","8.9","-9999.0","-9999.0","250","WSW","6.0","3.7","1006","29.71","-4.3","24.3","-9999","-9999","-9999.00","-9999.00","Light Snow","snow","0","0","1","0","0","0","METAR UKKK 011400Z 25004MPS 6000 -SN BKN006 OVC020 00/M01 Q1006 R26/810345 NOSIG"
"4:30 PM EET on December 01, 2016","2016","12","01","16","30","Europe/Kiev","2:30 PM GMT on December 01, 2016","2016","12","01","14","30","UTC","0.0","32.0","-1.0","30.2","93","14.4","8.9","-9999.0","-9999.0","260","West","7.0","4.3","1006","29.71","-4.3","24.3","-9999","-9999","-9999.00","-9999.00","Light Snow","snow","0","0","1","0","0","0","METAR UKKK 011430Z 26004MPS 7000 -SN BKN007 OVC020 00/M01 Q1006 R26/810345 NOSIG"
"5:00 PM EET on December 01, 2016","2016","12","01","17","00","Europe/Kiev","3:00 PM GMT on December 01, 2016","2016","12","01","15","00","UTC","0","32","-1","30","91","10.8","6.7","","","290","WNW","4","2","1008","29.76","-999","-999","-9999","-9999","","","Light Snow","snow","0","0","1","0","0","0","AAXX 01151 33345 41396 82903 10002 21009 39868 40076 56006 72272 885// 333 87709 555 1/101"
"5:00 PM EET on December 01, 2016","2016","12","01","17","00","Europe/Kiev","3:00 PM GMT on December 01, 2016","2016","12","01","15","00","UTC","0.0","32.0","-1.0","30.2","93","14.4","8.9","-9999.0","-9999.0","260","West","7.0","4.3","1006","29.71","-4.3","24.3","-9999","-9999","-9999.00","-9999.00","Light Snow","snow","0","0","1","0","0","0","METAR UKKK 011500Z 26004MPS 7000 -SN BKN006 OVC020 00/M01 Q1006 R26/810345 NOSIG"
"5:30 PM EET on December 01, 2016","2016","12","01","17","30","Europe/Kiev","3:30 PM GMT on December 01, 2016","2016","12","01","15","30","UTC","0.0","32.0","-1.0","30.2","93","14.4","8.9","-9999.0","-9999.0","260","West","7.0","4.3","1006","29.71","-4.3","24.3","-9999","-9999","-9999.00","-9999.00","Overcast","cloudy","0","0","0","0","0","0","METAR UKKK 011530Z 26004MPS 7000 BKN006 OVC027 00/M01 Q1006 R26/810345 NOSIG"
"6:00 PM EET on December 01, 2016","2016","12","01","18","00","Europe/Kiev","4:00 PM GMT on December 01, 2016","2016","12","01","16","00","UTC","0.0","32.0","-1.0","30.2","93","10.8","6.7","-9999.0","-9999.0","260","West","6.0","3.7","1006","29.71","-3.5","25.7","-9999","-9999","-9999.00","-9999.00","Overcast","cloudy","0","0","0","0","0","0","METAR UKKK 011600Z 26003MPS 6000 BKN006 OVC027 00/M01 Q1006 R26/810345 TEMPO BKN003"
"6:30 PM EET on December 01, 2016","2016","12","01","18","30","Europe/Kiev","4:30 PM GMT on December 01, 2016","2016","12","01","16","30","UTC","0.0","32.0","-1.0","30.2","93","10.8","6.7","-9999.0","-9999.0","250","WSW","6.0","3.7","1006","29.71","-3.5","25.7","-9999","-9999","-9999.00","-9999.00","Overcast","cloudy","0","0","0","0","0","0","METAR UKKK 011630Z 25003MPS 6000 BKN006 OVC030 00/M01 Q1006 R26/810345 TEMPO BKN003"
"7:00 PM EET on December 01, 2016","2016","12","01","19","00","Europe/Kiev","5:00 PM GMT on December 01, 2016","2016","12","01","17","00","UTC","0.0","32.0","-1.0","30.2","93","10.8","6.7","-9999.0","-9999.0","240","WSW","6.0","3.7","1005","29.68","-3.5","25.7","-9999","-9999","-9999.00","-9999.00","Overcast","cloudy","0","0","0","0","0","0","METAR UKKK 011700Z 24003MPS 6000 OVC019 00/M01 Q1005 R26/810345 TEMPO BKN003"
"7:30 PM EET on December 01, 2016","2016","12","01","19","30","Europe/Kiev","5:30 PM GMT on December 01, 2016","2016","12","01","17","30","UTC","0.0","32.0","-1.0","30.2","93","10.8","6.7","-9999.0","-9999.0","240","WSW","-9999.0","-9999.0","1005","29.68","-3.5","25.7","-9999","-9999","-9999.00","-9999.00","Light Snow","snow","0","0","1","0","0","0","METAR UKKK 011730Z 24003MPS 4400 -SN BR SCT008 OVC026 00/M01 Q1005 R26/810345 TEMPO BKN003"
"8:00 PM EET on December 01, 2016","2016","12","01","20","00","Europe/Kiev","6:00 PM GMT on December 01, 2016","2016","12","01","18","00","UTC","0","32","-1","31","94","10.8","6.7","","","270","West","4","2","1006","29.72","-999","-999","-9999","-9999","","","Mist","hazy","0","0","0","0","0","0","AAXX 01181 33345 11496 82703 10002 21006 39855 40063 58013 60022 71072 885// 333 10003 84713 555 1/101"
"8:00 PM EET on December 01, 2016","2016","12","01","20","00","Europe/Kiev","6:00 PM GMT on December 01, 2016","2016","12","01","18","00","UTC","0.0","32.0","-1.0","30.2","93","10.8","6.7","-9999.0","-9999.0","240","WSW","5.0","3.1","1005","29.68","-3.5","25.7","-9999","-9999","-9999.00","-9999.00","Light Snow","snow","0","0","1","0","0","0","METAR UKKK 011800Z 24003MPS 5000 -SN BR SCT008 OVC026 M00/M01 Q1005 R26/810345 TEMPO BKN003"
"8:30 PM EET on December 01, 2016","2016","12","01","20","30","Europe/Kiev","6:30 PM GMT on December 01, 2016","2016","12","01","18","30","UTC","0.0","32.0","-1.0","30.2","93","10.8","6.7","-9999.0","-9999.0","230","SW","5.0","3.1","1005","29.68","-3.5","25.7","-9999","-9999","-9999.00","-9999.00","Light Snow","snow","0","0","1","0","0","0","METAR UKKK 011830Z 23003MPS 5000 -SN BR SCT006 OVC026 M00/M01 Q1005 R26/810345 TEMPO BKN003"
"9:00 PM EET on December 01, 2016","2016","12","01","21","00","Europe/Kiev","7:00 PM GMT on December 01, 2016","2016","12","01","19","00","UTC","0.0","32.0","-1.0","30.2","93","10.8","6.7","-9999.0","-9999.0","230","SW","5.0","3.1","1004","29.65","-3.5","25.7","-9999","-9999","-9999.00","-9999.00","Light Snow","snow","0","0","1","0","0","0","METAR UKKK 011900Z 23003MPS 5000 -SN BR SCT006 OVC026 M00/M01 Q1004 R26/810345 TEMPO BKN005"
"9:30 PM EET on December 01, 2016","2016","12","01","21","30","Europe/Kiev","7:30 PM GMT on December 01, 2016","2016","12","01","19","30","UTC","0.0","32.0","-1.0","30.2","93","10.8","6.7","-9999.0","-9999.0","230","SW","-9999.0","-9999.0","1004","29.65","-3.5","25.7","-9999","-9999","-9999.00","-9999.00","Light Snow","snow","0","0","1","0","0","0","METAR UKKK 011930Z 23003MPS 4900 -SN BR SCT006 OVC026 M00/M01 Q1004 R26/810345 TEMPO BKN005"
"10:00 PM EET on December 01, 2016","2016","12","01","22","00","Europe/Kiev","8:00 PM GMT on December 01, 2016","2016","12","01","20","00","UTC","0.0","32.0","-1.0","30.2","93","10.8","6.7","-9999.0","-9999.0","240","WSW","-9999.0","-9999.0","1004","29.65","-3.5","25.7","-9999","-9999","-9999.00","-9999.00","Light Snow","snow","0","0","1","0","0","0","METAR UKKK 012000Z 24003MPS 4700 -SN BR SCT006 OVC020 M00/M01 Q1004 R26/810345 TEMPO BKN005"
"10:30 PM EET on December 01, 2016","2016","12","01","22","30","Europe/Kiev","8:30 PM GMT on December 01, 2016","2016","12","01","20","30","UTC","0.0","32.0","-1.0","30.2","93","7.2","4.5","-9999.0","-9999.0","240","WSW","6.0","3.7","1004","29.65","-2.5","27.6","-9999","-9999","-9999.00","-9999.00","Light Snow","snow","0","0","1","0","0","0","METAR UKKK 012030Z 24002MPS 6000 -SN OVC008 M00/M01 Q1004 R26/810345 TEMPO BKN005"
"11:00 PM EET on December 01, 2016","2016","12","01","23","00","Europe/Kiev","9:00 PM GMT on December 01, 2016","2016","12","01","21","00","UTC","0","32","-1","31","92","7.2","4.5","","","260","West","4","2","1005","29.68","-999","-999","-9999","-9999","","","Light Snow","snow","0","0","1","0","0","0","AAXX 01211 33345 41396 82602 10000 21008 39841 40048 57014 77172 885// 333 86708 555 1/102"
"11:00 PM EET on December 01, 2016","2016","12","01","23","00","Europe/Kiev","9:00 PM GMT on December 01, 2016","2016","12","01","21","00","UTC","0.0","32.0","-1.0","30.2","93","7.2","4.5","-9999.0","-9999.0","220","SW","-9999.0","-9999.0","1003","29.62","-2.5","27.6","-9999","-9999","-9999.00","-9999.00","Overcast","cloudy","0","0","0","0","0","0","METAR UKKK 012100Z 22002MPS 4900 BR SCT010 OVC053 M00/M01 Q1003 R26/810345 NOSIG"
"11:30 PM EET on December 01, 2016","2016","12","01","23","30","Europe/Kiev","9:30 PM GMT on December 01, 2016","2016","12","01","21","30","UTC","-1.0","30.2","-1.0","30.2","100","7.2","4.5","-9999.0","-9999.0","220","SW","-9999.0","-9999.0","1003","29.62","-3.6","25.5","-9999","-9999","-9999.00","-9999.00","Overcast","cloudy","0","0","0","0","0","0","METAR UKKK 012130Z 22002MPS 180V250 4700 BR SCT010 OVC050 M01/M01 Q1003 R26/810345 NOSIG"
"12:00 AM EET on December 02, 2016","2016","12","02","00","00","Europe/Kiev","10:00 PM GMT on December 01, 2016","2016","12","01","22","00","UTC","-1.0","30.2","-1.0","30.2","100","10.8","6.7","-9999.0","-9999.0","230","SW","-9999.0","-9999.0","1003","29.62","-4.7","23.5","-9999","-9999","-9999.00","-9999.00","Overcast","cloudy","0","0","0","0","0","0","METAR UKKK 012200Z 23003MPS 4800 BR SCT010 OVC053 M01/M01 Q1003 R26/810345 NOSIG"
"12:30 AM EET on December 02, 2016","2016","12","02","00","30","Europe/Kiev","10:30 PM GMT on December 01, 2016","2016","12","01","22","30","UTC","-1.0","30.2","-1.0","30.2","100","7.2","4.5","-9999.0","-9999.0","220","SW","-9999.0","-9999.0","1002","29.59","-3.6","25.5","-9999","-9999","-9999.00","-9999.00","Overcast","cloudy","0","0","0","0","0","0","METAR UKKK 012230Z 22002MPS 190V250 4900 BR SCT007 OVC053 M01/M01 Q1002 R26/810345 NOSIG"
"1:00 AM EET on December 02, 2016","2016","12","02","01","00","Europe/Kiev","11:00 PM GMT on December 01, 2016","2016","12","01","23","00","UTC","-1.0","30.2","-1.0","30.2","100","7.2","4.5","-9999.0","-9999.0","220","SW","5.0","3.1","1002","29.59","-3.6","25.5","-9999","-9999","-9999.00","-9999.00","Overcast","cloudy","0","0","0","0","0","0","METAR UKKK 012300Z 22002MPS 5000 BR FEW007 OVC045 M01/M01 Q1002 R26/810345 NOSIG"
"1:30 AM EET on December 02, 2016","2016","12","02","01","30","Europe/Kiev","11:30 PM GMT on December 01, 2016","2016","12","01","23","30","UTC","-1.0","30.2","-2.0","28.4","93","7.2","4.5","-9999.0","-9999.0","220","SW","-9999.0","-9999.0","1001","29.56","-3.6","25.5","-9999","-9999","-9999.00","-9999.00","Overcast","cloudy","0","0","0","0","0","0","METAR UKKK 012330Z 22002MPS 4800 BR FEW007 OVC045 M01/M02 Q1001 R26/810345 NOSIG"
"2:00 AM EET on December 02, 2016","2016","12","02","02","00","Europe/Kiev","12:00 AM GMT on December 02, 2016","2016","12","02","00","00","UTC","-1","31","-1","29","92","7.2","4.5","","","240","WSW","4","2","1002","29.61","-999","-999","-9999","-9999","","","Mist","hazy","0","0","0","0","0","0","AAXX 02001 33345 /1696 82402 11007 21014 39818 40025 57023 71072 8655/ 333 86646 555 1/103 69901"
"2:00 AM EET on December 02, 2016","2016","12","02","02","00","Europe/Kiev","12:00 AM GMT on December 02, 2016","2016","12","02","00","00","UTC","-1.0","30.2","-1.0","30.2","100","10.8","6.7","-9999.0","-9999.0","210","SSW","5.0","3.1","1001","29.56","-4.7","23.5","-9999","-9999","-9999.00","-9999.00","Overcast","cloudy","0","0","0","0","0","0","METAR UKKK 020000Z 21003MPS 5000 BR FEW007 OVC045 M01/M01 Q1001 R26/810345 NOSIG"
"2:30 AM EET on December 02, 2016","2016","12","02","02","30","Europe/Kiev","12:30 AM GMT on December 02, 2016","2016","12","02","00","30","UTC","-1.0","30.2","-2.0","28.4","93","10.8","6.7","-9999.0","-9999.0","200","SSW","7.0","4.3","1001","29.56","-4.7","23.5","-9999","-9999","-9999.00","-9999.00","Overcast","cloudy","0","0","0","0","0","0","METAR UKKK 020030Z 20003MPS 7000 OVC045 M01/M02 Q1001 R26/810345 NOSIG"
"3:00 AM EET on December 02, 2016","2016","12","02","03","00","Europe/Kiev","1:00 AM GMT on December 02, 2016","2016","12","02","01","00","UTC","-1.0","30.2","-2.0","28.4","93","10.8","6.7","-9999.0","-9999.0","200","SSW","7.0","4.3","1000","29.53","-4.7","23.5","-9999","-9999","-9999.00","-9999.00","Overcast","cloudy","0","0","0","0","0","0","METAR UKKK 020100Z 20003MPS 7000 OVC045 M01/M02 Q1000 R26/810345 NOSIG"
"3:30 AM EET on December 02, 2016","2016","12","02","03","30","Europe/Kiev","1:30 AM GMT on December 02, 2016","2016","12","02","01","30","UTC","-1.0","30.2","-2.0","28.4","93","7.2","4.5","-9999.0","-9999.0","190","South","5.0","3.1","999","29.50","-3.6","25.5","-9999","-9999","-9999.00","-9999.00","Light Snow","snow","0","0","1","0","0","0","METAR UKKK 020130Z 19002MPS 160V230 5000 -SN BR SCT007 OVC030 M01/M02 Q0999 R26/810345 NOSIG"
"4:00 AM EET on December 02, 2016","2016","12","02","04","00","Europe/Kiev","2:00 AM GMT on December 02, 2016","2016","12","02","02","00","UTC","-1.0","30.2","-2.0","28.4","93","7.2","4.5","-9999.0","-9999.0","180","South","6.0","3.7","999","29.50","-3.6","25.5","-9999","-9999","-9999.00","-9999.00","Light Snow","snow","0","0","1","0","0","0","METAR UKKK 020200Z 18002MPS 150V210 6000 -SN SCT008 OVC030 M01/M02 Q0999 R26/810345 NOSIG"
"4:30 AM EET on December 02, 2016","2016","12","02","04","30","Europe/Kiev","2:30 AM GMT on December 02, 2016","2016","12","02","02","30","UTC","-1.0","30.2","-2.0","28.4","93","7.2","4.5","-9999.0","-9999.0","160","SSE","5.0","3.1","999","29.50","-3.6","25.5","-9999","-9999","-9999.00","-9999.00","Light Snow","snow","0","0","1","0","0","0","METAR UKKK 020230Z 16002MPS 130V190 5000 -SN BR SCT006 OVC025 M01/M02 Q0999 R26/810345 TEMPO BKN005"
"5:00 AM EET on December 02, 2016","2016","12","02","05","00","Europe/Kiev","3:00 AM GMT on December 02, 2016","2016","12","02","03","00","UTC","-1","30","-2","29","92","7.2","4.5","","","180","South","4","2","1000","29.53","-999","-999","-9999","-9999","","","Light Snow","snow","0","0","1","0","0","0","AAXX 02031 33345 41396 81802 11012 21019 39791 49998 57027 77172 8872/ 333 88707 555 1/102"
"5:00 AM EET on December 02, 2016","2016","12","02","05","00","Europe/Kiev","3:00 AM GMT on December 02, 2016","2016","12","02","03","00","UTC","-1.0","30.2","-2.0","28.4","93","7.2","4.5","-9999.0","-9999.0","140","SE","5.0","3.1","998","29.47","-3.6","25.5","-9999","-9999","-9999.00","-9999.00","Light Snow","snow","0","0","1","0","0","0","METAR UKKK 020300Z 14002MPS 120V180 5000 -SN BR BKN005 OVC023 M01/M02 Q0998 R08/810345 TEMPO BKN005"
"5:30 AM EET on December 02, 2016","2016","12","02","05","30","Europe/Kiev","3:30 AM GMT on December 02, 2016","2016","12","02","03","30","UTC","-1.0","30.2","-2.0","28.4","93","10.8","6.7","-9999.0","-9999.0","140","SE","1.4","0.9","998","29.47","-4.7","23.5","-9999","-9999","-9999.00","-9999.00","Snow","snow","0","0","1","0","0","0","METAR UKKK 020330Z 14003MPS 110V180 1400 R08/P2000U SN BR BKN005 OVC023 M01/M02 Q0998 R08/810345 TEMPO 1200 SHSN BKN004 BKN012CB"
"5:41 AM EET on December 02, 2016","2016","12","02","05","41","Europe/Kiev","3:41 AM GMT on December 02, 2016","2016","12","02","03","41","UTC","-1.0","30.2","-2.0","28.4","93","10.8","6.7","-9999.0","-9999.0","140","SE","0.8","0.5","997","29.44","-4.7","23.5","-9999","-9999","-9999.00","-9999.00","Heavy Snow Showers","snow","0","0","1","0","0","0","SPECI UKKK 020341Z 14003MPS 110V170 0800 R08/1600VP2000D +SHSN BKN005 BKN021CB M01/M02 Q0997 R08/590145 TEMPO 0500 +SHSN BKN002 BKN012CB"
"5:45 AM EET on December 02, 2016","2016","12","02","05","45","Europe/Kiev","3:45 AM GMT on December 02, 2016","2016","12","02","03","45","UTC","-1.0","30.2","-2.0","28.4","93","10.8","6.7","-9999.0","-9999.0","140","SE","-9999.0","-9999.0","997","29.44","-4.7","23.5","-9999","-9999","-9999.00","-9999.00","Heavy Snow Showers","snow","0","0","1","0","0","0","SPECI UKKK 020345Z 14003MPS 110V170 0650 R08/1400VP2000D +SHSN BKN005 BKN021CB M01/M02 Q0997 R08/590145 TEMPO 0500 +SHSN BKN002 BKN012CB"
"5:52 AM EET on December 02, 2016","2016","12","02","05","52","Europe/Kiev","3:52 AM GMT on December 02, 2016","2016","12","02","03","52","UTC","-1.0","30.2","-2.0","28.4","93","10.8","6.7","-9999.0","-9999.0","140","SE","0.7","0.4","997","29.44","-4.7","23.5","-9999","-9999","-9999.00","-9999.00","Heavy Snow Showers","snow","0","0","1","0","0","0","SPECI UKKK 020352Z 14003MPS 0700 R08/1600D +SHSN BKN004 BKN021CB M01/M02 Q0997 R08/590145 TEMPO 0500 +SHSN BKN002 BKN012CB"
"6:00 AM EET on December 02, 2016","2016","12","02","06","00","Europe/Kiev","4:00 AM GMT on December 02, 2016","2016","12","02","04","00","UTC","-1.0","30.2","-2.0","28.4","93","10.8","6.7","-9999.0","-9999.0","130","SE","0.8","0.5","997","29.44","-4.7","23.5","-9999","-9999","-9999.00","-9999.00","Heavy Snow Showers","snow","0","0","1","0","0","0","METAR UKKK 020400Z 13003MPS 100V160 0800 R08/1900N +SHSN BKN004 BKN021CB M01/M02 Q0997 R08/590145 TEMPO 0500 +SHSN BKN002 BKN012CB"
"6:14 AM EET on December 02, 2016","2016","12","02","06","14","Europe/Kiev","4:14 AM GMT on December 02, 2016","2016","12","02","04","14","UTC","-1.0","30.2","-2.0","28.4","93","10.8","6.7","-9999.0","-9999.0","120","ESE","-9999.0","-9999.0","997","29.44","-4.7","23.5","-9999","-9999","-9999.00","-9999.00","Heavy Snow Showers","snow","0","0","1","0","0","0","SPECI UKKK 020414Z 12003MPS 0750 R08/2000N +SHSN BKN004 BKN023CB M01/M02 Q0997 R08/590340 TEMPO 0500 +SHSN BKN002 BKN012CB"
"6:30 AM EET on December 02, 2016","2016","12","02","06","30","Europe/Kiev","4:30 AM GMT on December 02, 2016","2016","12","02","04","30","UTC","-1.0","30.2","-2.0","28.4","93","10.8","6.7","-9999.0","-9999.0","120","ESE","0.7","0.4","997","29.44","-4.7","23.5","-9999","-9999","-9999.00","-9999.00","Heavy Snow Showers","snow","0","0","1","0","0","0","METAR UKKK 020430Z 12003MPS 0700 R08/P2000N +SHSN BKN003 BKN020CB M01/M02 Q0997 R08/590340 TEMPO 0500 +SHSN BKN002 BKN012CB"
"6:49 AM EET on December 02, 2016","2016","12","02","06","49","Europe/Kiev","4:49 AM GMT on December 02, 2016","2016","12","02","04","49","UTC","-1.0","30.2","-2.0","28.4","93","10.8","6.7","-9999.0","-9999.0","130","SE","1.5","0.9","997","29.44","-4.7","23.5","-9999","-9999","-9999.00","-9999.00","Snow Showers","snow","0","0","1","0","0","0","SPECI UKKK 020449Z 13003MPS 1500 SHSN BR BKN004 BKN020CB M01/M02 Q0997 RESHSN R08/590340 TEMPO 0500 +SHSN BKN002 BKN012CB"
"7:00 AM EET on December 02, 2016","2016","12","02","07","00","Europe/Kiev","5:00 AM GMT on December 02, 2016","2016","12","02","05","00","UTC","-1.0","30.2","-2.0","28.4","93","10.8","6.7","-9999.0","-9999.0","150","SSE","2.4","1.5","996","29.42","-4.7","23.5","-9999","-9999","-9999.00","-9999.00","Light Snow Showers","snow","0","0","1","0","0","0","METAR UKKK 020500Z 15003MPS 120V190 2400 -SHSN BR BKN005 BKN026CB M01/M02 Q0996 RESHSN R08/590340 TEMPO 0500 +SHSN BKN002 BKN012CB"
"7:14 AM EET on December 02, 2016","2016","12","02","07","14","Europe/Kiev","5:14 AM GMT on December 02, 2016","2016","12","02","05","14","UTC","-1.0","30.2","-2.0","28.4","93","10.8","6.7","-9999.0","-9999.0","140","SE","1.9","1.2","996","29.42","-4.7","23.5","-9999","-9999","-9999.00","-9999.00","Snow","snow","0","0","1","0","0","0","SPECI UKKK 020514Z 14003MPS 110V180 1900 SN BR OVC005 M01/M02 Q0996 R08/590340 TEMPO 0500 +SHSN BKN002 BKN012CB"
"7:16 AM EET on December 02, 2016","2016","12","02","07","16","Europe/Kiev","5:16 AM GMT on December 02, 2016","2016","12","02","05","16","UTC","-1.0","30.2","-2.0","28.4","93","10.8","6.7","-9999.0","-9999.0","150","SSE","1.7","1.1","996","29.42","-4.7","23.5","-9999","-9999","-9999.00","-9999.00","Snow","snow","0","0","1","0","0","0","SPECI UKKK 020516Z 15003MPS 120V180 1700 SN BR OVC004 M01/M02 Q0996 R08/590340 TEMPO 0500 +SHSN BKN002 BKN012CB"
"7:30 AM EET on December 02, 2016","2016","12","02","07","30","Europe/Kiev","5:30 AM GMT on December 02, 2016","2016","12","02","05","30","UTC","-1.0","30.2","-2.0","28.4","93","10.8","6.7","-9999.0","-9999.0","150","SSE","1.8","1.1","996","29.42","-4.7","23.5","-9999","-9999","-9999.00","-9999.00","Snow","snow","0","0","1","0","0","0","METAR UKKK 020530Z 15003MPS 1800 SN BR OVC005 M01/M02 Q0996 R08/590335 TEMPO 1400 SHSN BKN004 BKN012CB"
"7:47 AM EET on December 02, 2016","2016","12","02","07","47","Europe/Kiev","5:47 AM GMT on December 02, 2016","2016","12","02","05","47","UTC","-1.0","30.2","-2.0","28.4","93","10.8","6.7","-9999.0","-9999.0","140","SE","3.0","1.9","996","29.42","-4.7","23.5","-9999","-9999","-9999.00","-9999.00","Light Snow","snow","0","0","1","0","0","0","SPECI UKKK 020547Z 14003MPS 120V180 3000 -SN BR OVC005 M01/M02 Q0996 RESN R08/590335 TEMPO 1400 SHSN BKN004 BKN012CB"
"8:00 AM EET on December 02, 2016","2016","12","02","08","00","Europe/Kiev","6:00 AM GMT on December 02, 2016","2016","12","02","06","00","UTC","-1","30","-2","29","93","10.8","6.7","","","180","South","1","1","998","29.46","-999","-999","-9999","-9999","","","Snow","snow","0","0","1","0","0","0","AAXX 02061 33345 11294 81803 11013 21018 39768 49975 57023 60032 77387 8872/ 333 21014 47010 88704 555 1/102"
"8:00 AM EET on December 02, 2016","2016","12","02","08","00","Europe/Kiev","6:00 AM GMT on December 02, 2016","2016","12","02","06","00","UTC","-1.0","30.2","-2.0","28.4","93","10.8","6.7","-9999.0","-9999.0","150","SSE","-9999.0","-9999.0","996","29.42","-4.7","23.5","-9999","-9999","-9999.00","-9999.00","Light Snow","snow","0","0","1","0","0","0","METAR UKKK 020600Z 15003MPS 110V190 3300 -SN BR BKN006 OVC015 M01/M02 Q0996 R08/590335 TEMPO 1400 SHSN BKN004 BKN012CB"
"8:30 AM EET on December 02, 2016","2016","12","02","08","30","Europe/Kiev","6:30 AM GMT on December 02, 2016","2016","12","02","06","30","UTC","-1.0","30.2","-2.0","28.4","93","10.8","6.7","-9999.0","-9999.0","140","SE","-9999.0","-9999.0","996","29.42","-4.7","23.5","-9999","-9999","-9999.00","-9999.00","Light Snow","snow","0","0","1","0","0","0","METAR UKKK 020630Z 14003MPS 100V170 3100 -SN BR BKN005 OVC015 M01/M02 Q0996 R08/590335 TEMPO 1400 SHSN BKN004 BKN012CB"
"9:00 AM EET on December 02, 2016","2016","12","02","09","00","Europe/Kiev","7:00 AM GMT on December 02, 2016","2016","12","02","07","00","UTC","-1.0","30.2","-2.0","28.4","93","14.4","8.9","-9999.0","-9999.0","150","SSE","-9999.0","-9999.0","995","29.39","-5.5","22.1","-9999","-9999","-9999.00","-9999.00","Light Snow","snow","0","0","1","0","0","0","METAR UKKK 020700Z 15004MPS 120V180 3600 -SN BR BKN005 OVC015 M01/M02 Q0995 R08/590335 TEMPO 1400 SHSN BKN004 BKN012CB"
"9:30 AM EET on December 02, 2016","2016","12","02","09","30","Europe/Kiev","7:30 AM GMT on December 02, 2016","2016","12","02","07","30","UTC","-1.0","30.2","-2.0","28.4","93","14.4","8.9","-9999.0","-9999.0","140","SE","-9999.0","-9999.0","995","29.39","-5.5","22.1","-9999","-9999","-9999.00","-9999.00","Light Snow","snow","0","0","1","0","0","0","METAR UKKK 020730Z 14004MPS 110V190 3700 -SN BR BKN005 OVC017 M01/M02 Q0995 R08/590335 TEMPO 1400 SHSN BKN004 BKN012CB"
"10:00 AM EET on December 02, 2016","2016","12","02","10","00","Europe/Kiev","8:00 AM GMT on December 02, 2016","2016","12","02","08","00","UTC","-1.0","30.2","-2.0","28.4","93","14.4","8.9","-9999.0","-9999.0","140","SE","-9999.0","-9999.0","995","29.39","-5.5","22.1","-9999","-9999","-9999.00","-9999.00","Light Snow","snow","0","0","1","0","0","0","METAR UKKK 020800Z 14004MPS 110V190 3300 -SN BR BKN006 OVC017 M01/M02 Q0995 R08/590335 TEMPO 1400 SHSN BKN004 BKN012CB"
"10:30 AM EET on December 02, 2016","2016","12","02","10","30","Europe/Kiev","8:30 AM GMT on December 02, 2016","2016","12","02","08","30","UTC","-1.0","30.2","-2.0","28.4","93","14.4","8.9","-9999.0","-9999.0","140","SE","-9999.0","-9999.0","995","29.39","-5.5","22.1","-9999","-9999","-9999.00","-9999.00","Light Snow","snow","0","0","1","0","0","0","METAR UKKK 020830Z 14004MPS 100V180 4900 -SN BR OVC006 M01/M02 Q0995 R08/590335 TEMPO 1400 SHSN BKN004 BKN012CB"
"11:00 AM EET on December 02, 2016","2016","12","02","11","00","Europe/Kiev","9:00 AM GMT on December 02, 2016","2016","12","02","09","00","UTC","-2","29","-2","28","97","10.8","6.7","","","170","South","1","1","997","29.43","-999","-999","-9999","-9999","","","Light Snow","snow","0","0","1","0","0","0","AAXX 02091 33345 41394 81703 11015 21020 39759 49966 57009 77177 8872/ 333 47010 88708 555 1/102"
"11:00 AM EET on December 02, 2016","2016","12","02","11","00","Europe/Kiev","9:00 AM GMT on December 02, 2016","2016","12","02","09","00","UTC","-1.0","30.2","-3.0","26.6","86","10.8","6.7","-9999.0","-9999.0","140","SE","5.0","3.1","995","29.39","-4.7","23.5","-9999","-9999","-9999.00","-9999.00","Light Snow","snow","0","0","1","0","0","0","METAR UKKK 020900Z 14003MPS 100V170 5000 -SN BR OVC006 M01/M03 Q0995 R08/590335 TEMPO 1400 SHSN BKN004 BKN012CB"
"11:30 AM EET on December 02, 2016","2016","12","02","11","30","Europe/Kiev","9:30 AM GMT on December 02, 2016","2016","12","02","09","30","UTC","-1.0","30.2","-3.0","26.6","86","10.8","6.7","-9999.0","-9999.0","140","SE","5.0","3.1","995","29.39","-4.7","23.5","-9999","-9999","-9999.00","-9999.00","Light Snow","snow","0","0","1","0","0","0","METAR UKKK 020930Z 14003MPS 090V180 5000 -SN BR OVC007 M01/M03 Q0995 R08/590335 TEMPO 0500 +SHSN BKN001 BKN012CB"
"12:00 PM EET on December 02, 2016","2016","12","02","12","00","Europe/Kiev","10:00 AM GMT on December 02, 2016","2016","12","02","10","00","UTC","-1.0","30.2","-3.0","26.6","86","10.8","6.7","-9999.0","-9999.0","130","SE","-9999.0","-9999.0","995","29.39","-4.7","23.5","-9999","-9999","-9999.00","-9999.00","Light Snow","snow","0","0","1","0","0","0","METAR UKKK 021000Z 13003MPS 090V170 4600 -SN BR OVC007 M01/M03 Q0995 R08/590335 NOSIG"
"12:30 PM EET on December 02, 2016","2016","12","02","12","30","Europe/Kiev","10:30 AM GMT on December 02, 2016","2016","12","02","10","30","UTC","-1.0","30.2","-3.0","26.6","86","7.2","4.5","-9999.0","-9999.0","120","ESE","-9999.0","-9999.0","995","29.39","-3.6","25.5","-9999","-9999","-9999.00","-9999.00","Light Snow","snow","0","0","1","0","0","0","METAR UKKK 021030Z 12002MPS 090V160 3900 -SN BR OVC007 M01/M03 Q0995 R08/590335 NOSIG"
"1:00 PM EET on December 02, 2016","2016","12","02","13","00","Europe/Kiev","11:00 AM GMT on December 02, 2016","2016","12","02","11","00","UTC","-1.0","30.2","-3.0","26.6","86","10.8","6.7","-9999.0","-9999.0","100","East","2.8","1.7","995","29.39","-4.7","23.5","-9999","-9999","-9999.00","-9999.00","Light Snow","snow","0","0","1","0","0","0","METAR UKKK 021100Z 10003MPS 080V140 2800 -SN BR OVC007 M01/M03 Q0995 R08/590335 TEMPO 0500 +SHSN BKN001 BKN012CB"
"1:30 PM EET on December 02, 2016","2016","12","02","13","30","Europe/Kiev","11:30 AM GMT on December 02, 2016","2016","12","02","11","30","UTC","-1.0","30.2","-2.0","28.4","93","7.2","4.5","-9999.0","-9999.0","100","East","1.9","1.2","995","29.39","-3.6","25.5","-9999","-9999","-9999.00","-9999.00","Snow","snow","0","0","1","0","0","0","METAR UKKK 021130Z 10002MPS 080V140 1900 SN BR BKN006 OVC015 M01/M02 Q0995 R08/590335 TEMPO 0500 +SHSN BKN001 BKN012CB"
"1:33 PM EET on December 02, 2016","2016","12","02","13","33","Europe/Kiev","11:33 AM GMT on December 02, 2016","2016","12","02","11","33","UTC","-1.0","30.2","-2.0","28.4","93","7.2","4.5","-9999.0","-9999.0","100","East","1.8","1.1","995","29.39","-3.6","25.5","-9999","-9999","-9999.00","-9999.00","Snow","snow","0","0","1","0","0","0","SPECI UKKK 021133Z 10002MPS 1800 SN BR BKN004 OVC015 M01/M02 Q0995 R08/590335 TEMPO 0500 +SHSN BKN001 BKN012CB"
"1:39 PM EET on December 02, 2016","2016","12","02","13","39","Europe/Kiev","11:39 AM GMT on December 02, 2016","2016","12","02","11","39","UTC","-1.0","30.2","-2.0","28.4","93","10.8","6.7","-9999.0","-9999.0","90","East","1.4","0.9","995","29.39","-4.7","23.5","-9999","-9999","-9999.00","-9999.00","Snow","snow","0","0","1","0","0","0","SPECI UKKK 021139Z 09003MPS 1400 R08/1600D SN BR BKN004 OVC015 M01/M02 Q0995 R08/590335 TEMPO 0500 +SHSN BKN001 BKN012CB"
"2:00 PM EET on December 02, 2016","2016","12","02","14","00","Europe/Kiev","12:00 PM GMT on December 02, 2016","2016","12","02","12","00","UTC","-1","30","-2","29","92","3.6","2.2","","","120","ESE","1","1","997","29.43","-999","-999","-9999","-9999","","","Light Snow","snow","0","0","1","0","0","0","AAXX 02121 33345 /1294 81201 11012 21019 39759 49966 54000 77177 8872/ 333 47011 88705 555 1/101 60011"
"2:00 PM EET on December 02, 2016","2016","12","02","14","00","Europe/Kiev","12:00 PM GMT on December 02, 2016","2016","12","02","12","00","UTC","-1.0","30.2","-2.0","28.4","93","10.8","6.7","-9999.0","-9999.0","80","East","1.4","0.9","995","29.39","-4.7","23.5","-9999","-9999","-9999.00","-9999.00","Snow","snow","0","0","1","0","0","0","METAR UKKK 021200Z 08003MPS 1400 R08/1400D SN BR BKN004 OVC015 M01/M02 Q0995 R08/590335 TEMPO 0500 +SHSN BKN001 BKN012CB"
"2:30 PM EET on December 02, 2016","2016","12","02","14","30","Europe/Kiev","12:30 PM GMT on December 02, 2016","2016","12","02","12","30","UTC","-1.0","30.2","-2.0","28.4","93","10.8","6.7","-9999.0","-9999.0","70","ENE","0.9","0.6","995","29.39","-4.7","23.5","-9999","-9999","-9999.00","-9999.00","Heavy Snow","snow","0","0","1","0","0","0","METAR UKKK 021230Z 07003MPS 0900 R08/1200U +SN BKN004 OVC015 M01/M02 Q0995 R08/590335 TEMPO 0500 +SHSN BKN001 BKN012CB"
"2:51 PM EET on December 02, 2016","2016","12","02","14","51","Europe/Kiev","12:51 PM GMT on December 02, 2016","2016","12","02","12","51","UTC","-1.0","30.2","-2.0","28.4","93","10.8","6.7","-9999.0","-9999.0","60","ENE","1.1","0.7","996","29.42","-4.7","23.5","-9999","-9999","-9999.00","-9999.00","Snow","snow","0","0","1","0","0","0","SPECI UKKK 021251Z 06003MPS 1100 R08/1400N SN BR BKN003 OVC015 M01/M02 Q0996 RESN R08/590335 TEMPO 0500 +SHSN BKN001 BKN012CB"
"3:00 PM EET on December 02, 2016","2016","12","02","15","00","Europe/Kiev","1:00 PM GMT on December 02, 2016","2016","12","02","13","00","UTC","-1.0","30.2","-2.0","28.4","93","10.8","6.7","-9999.0","-9999.0","50","NE","1.5","0.9","996","29.42","-4.7","23.5","-9999","-9999","-9999.00","-9999.00","Snow","snow","0","0","1","0","0","0","METAR UKKK 021300Z 05003MPS 1500 SN BR BKN004 OVC015 M01/M02 Q0996 R08/590335 TEMPO 0500 +SHSN BKN001 BKN012CB"
"3:03 PM EET on December 02, 2016","2016","12","02","15","03","Europe/Kiev","1:03 PM GMT on December 02, 2016","2016","12","02","13","03","UTC","-1.0","30.2","-2.0","28.4","93","10.8","6.7","-9999.0","-9999.0","50","NE","1.3","0.8","996","29.42","-4.7","23.5","-9999","-9999","-9999.00","-9999.00","Snow","snow","0","0","1","0","0","0","SPECI UKKK 021303Z 05003MPS 1300 R08/1600U SN BR BKN004 OVC015 M01/M02 Q0996 R08/590335 TEMPO 0500 +SHSN BKN001 BKN012CB"
"3:30 PM EET on December 02, 2016","2016","12","02","15","30","Europe/Kiev","1:30 PM GMT on December 02, 2016","2016","12","02","13","30","UTC","-1.0","30.2","-2.0","28.4","93","10.8","6.7","-9999.0","-9999.0","50","NE","1.0","0.6","996","29.42","-4.7","23.5","-9999","-9999","-9999.00","-9999.00","Snow","snow","0","0","1","0","0","0","METAR UKKK 021330Z 05003MPS 1000 R08/1300U SN BR BKN004 OVC018 M01/M02 Q0996 R08/590335 TEMPO 0500 +SHSN BKN001 BKN012CB"
"4:00 PM EET on December 02, 2016","2016","12","02","16","00","Europe/Kiev","2:00 PM GMT on December 02, 2016","2016","12","02","14","00","UTC","-1.0","30.2","-2.0","28.4","93","10.8","6.7","-9999.0","-9999.0","40","NE","1.5","0.9","997","29.44","-4.7","23.5","-9999","-9999","-9999.00","-9999.00","Snow","snow","0","0","1","0","0","0","METAR UKKK 021400Z 04003MPS 1500 SN BR BKN006 OVC020 M01/M02 Q0997 R08/590335 TEMPO 0500 +SHSN BKN001 BKN012CB"
"4:06 PM EET on December 02, 2016","2016","12","02","16","06","Europe/Kiev","2:06 PM GMT on December 02, 2016","2016","12","02","14","06","UTC","-1.0","30.2","-2.0","28.4","93","10.8","6.7","-9999.0","-9999.0","40","NE","1.5","0.9","997","29.44","-4.7","23.5","-9999","-9999","-9999.00","-9999.00","Snow","snow","0","0","1","0","0","0","SPECI UKKK 021406Z 04003MPS 1500 SN BR BKN004 OVC020 M01/M02 Q0997 R08/590335 TEMPO 0500 +SHSN BKN001 BKN012CB"
"4:30 PM EET on December 02, 2016","2016","12","02","16","30","Europe/Kiev","2:30 PM GMT on December 02, 2016","2016","12","02","14","30","UTC","-1.0","30.2","-2.0","28.4","93","10.8","6.7","-9999.0","-9999.0","30","NNE","1.6","1.0","997","29.44","-4.7","23.5","-9999","-9999","-9999.00","-9999.00","Snow","snow","0","0","1","0","0","0","METAR UKKK 021430Z 03003MPS 1600 SN BR BKN004 OVC020 M01/M02 Q0997 R08/590335 TEMPO 0500 +SHSN BKN001 BKN012CB"
"5:00 PM EET on December 02, 2016","2016","12","02","17","00","Europe/Kiev","3:00 PM GMT on December 02, 2016","2016","12","02","15","00","UTC","-1","29","-2","29","98","7.2","4.5","","","50","NE","1","1","999","29.50","-999","-999","-9999","-9999","","","Light Snow","snow","0","0","1","0","0","0","AAXX 02151 33345 41294 80502 11014 21019 39781 49988 53022 77177 8872/ 333 47013 88706 555 1/101"
"5:00 PM EET on December 02, 2016","2016","12","02","17","00","Europe/Kiev","3:00 PM GMT on December 02, 2016","2016","12","02","15","00","UTC","-1.0","30.2","-2.0","28.4","93","18.0","11.2","-9999.0","-9999.0","20","NNE","1.7","1.1","997","29.44","-6.2","20.9","-9999","-9999","-9999.00","-9999.00","Snow","snow","0","0","1","0","0","0","METAR UKKK 021500Z 02005MPS 1700 SN BR BKN004 OVC020 M01/M02 Q0997 R08/590335 TEMPO 0500 +SHSN BKN001 BKN012CB"
"5:07 PM EET on December 02, 2016","2016","12","02","17","07","Europe/Kiev","3:07 PM GMT on December 02, 2016","2016","12","02","15","07","UTC","-1.0","30.2","-2.0","28.4","93","14.4","8.9","-9999.0","-9999.0","20","NNE","1.4","0.9","997","29.44","-5.5","22.1","-9999","-9999","-9999.00","-9999.00","Snow","snow","0","0","1","0","0","0","SPECI UKKK 021507Z 02004MPS 1400 R08/1800U SN BR BKN004 OVC020 M01/M02 Q0997 R08/590335 TEMPO 36014G20MPS 0500 +SHSN BKN001 BKN012CB"
"5:25 PM EET on December 02, 2016","2016","12","02","17","25","Europe/Kiev","3:25 PM GMT on December 02, 2016","2016","12","02","15","25","UTC","-1.0","30.2","-2.0","28.4","93","18.0","11.2","-9999.0","-9999.0","20","NNE","-9999.0","-9999.0","998","29.47","-6.2","20.9","-9999","-9999","-9999.00","-9999.00","Light Snow","snow","0","0","1","0","0","0","SPECI UKKK 021525Z 02005MPS 3200 -SN BR BKN004 OVC020 M01/M02 Q0998 RESN R08/590335 TEMPO 36014G20MPS 0500 +SHSN BKN001 BKN012CB"
"5:30 PM EET on December 02, 2016","2016","12","02","17","30","Europe/Kiev","3:30 PM GMT on December 02, 2016","2016","12","02","15","30","UTC","-1.0","30.2","-2.0","28.4","93","18.0","11.2","-9999.0","-9999.0","20","NNE","2.5","1.6","998","29.47","-6.2","20.9","-9999","-9999","-9999.00","-9999.00","Light Snow","snow","0","0","1","0","0","0","METAR UKKK 021530Z 02005MPS 2500 -SN BR BKN004 OVC020 M01/M02 Q0998 R08/590335 TEMPO 36014G20MPS 0500 +SHSN BKN001 BKN012CB"
"6:00 PM EET on December 02, 2016","2016","12","02","18","00","Europe/Kiev","4:00 PM GMT on December 02, 2016","2016","12","02","16","00","UTC","-1.0","30.2","-2.0","28.4","93","18.0","11.2","-9999.0","-9999.0","10","North","2.4","1.5","998","29.47","-6.2","20.9","-9999","-9999","-9999.00","-9999.00","Light Snow","snow","0","0","1","0","0","0","METAR UKKK 021600Z 01005MPS 2400 -SN BR BKN004 OVC020 M01/M02 Q0998 R08/590335 TEMPO 36014G20MPS 1400 SHSN BKN003 BKN012CB"
"6:06 PM EET on December 02, 2016","2016","12","02","18","06","Europe/Kiev","4:06 PM GMT on December 02, 2016","2016","12","02","16","06","UTC","-1.0","30.2","-2.0","28.4","93","18.0","11.2","-9999.0","-9999.0","10","North","1.2","0.7","998","29.47","-6.2","20.9","-9999","-9999","-9999.00","-9999.00","Snow","snow","0","0","1","0","0","0","SPECI UKKK 021606Z 01005MPS 1200 R08/1900D SN BR BKN004 OVC020 M01/M02 Q0998 R08/590335 TEMPO 36014G20MPS 1400 SHSN BKN003 BKN012CB"
"6:30 PM EET on December 02, 2016","2016","12","02","18","30","Europe/Kiev","4:30 PM GMT on December 02, 2016","2016","12","02","16","30","UTC","-1.0","30.2","-2.0","28.4","93","18.0","11.2","-9999.0","-9999.0","10","North","1.7","1.1","999","29.50","-6.2","20.9","-9999","-9999","-9999.00","-9999.00","Snow","snow","0","0","1","0","0","0","METAR UKKK 021630Z 01005MPS 1700 SN BR BKN004 OVC020 M01/M02 Q0999 R08/590335 TEMPO 36014G20MPS 0500 +SHSN BKN001 BKN012CB"
"7:00 PM EET on December 02, 2016","2016","12","02","19","00","Europe/Kiev","5:00 PM GMT on December 02, 2016","2016","12","02","17","00","UTC","-1.0","30.2","-2.0","28.4","93","18.0","11.2","-9999.0","-9999.0","10","North","2.3","1.4","999","29.50","-6.2","20.9","-9999","-9999","-9999.00","-9999.00","Light Snow","snow","0","0","1","0","0","0","METAR UKKK 021700Z 01005MPS 2300 -SN BR BKN005 OVC020 M01/M02 Q0999 RESN R08/590335 TEMPO 36014G20MPS 0500 +SHSN BKN001 BKN012CB"
"7:30 PM EET on December 02, 2016","2016","12","02","19","30","Europe/Kiev","5:30 PM GMT on December 02, 2016","2016","12","02","17","30","UTC","-1.0","30.2","-2.0","28.4","93","21.6","13.4","-9999.0","-9999.0","10","North","1.9","1.2","999","29.50","-6.7","19.9","-9999","-9999","-9999.00","-9999.00","Light Snow","snow","0","0","1","0","0","0","METAR UKKK 021730Z 01006MPS 1900 -SN BR BKN005 OVC020 M01/M02 Q0999 R08/590335 TEMPO 36014G20MPS 0500 +SHSN BKN001 BKN012CB"
"8:00 PM EET on December 02, 2016","2016","12","02","20","00","Europe/Kiev","6:00 PM GMT on December 02, 2016","2016","12","02","18","00","UTC","-1","29","-2","29","98","14.4","8.9","","","30","NNE","1","1","1001","29.56","-999","-999","-9999","-9999","","","Light Snow","snow","0","0","1","0","0","0","AAXX 02181 33345 11294 80304 11014 21019 39802 40010 52021 60042 77172 8872/ 333 11010 47015 88705 555 1/102"
"8:00 PM EET on December 02, 2016","2016","12","02","20","00","Europe/Kiev","6:00 PM GMT on December 02, 2016","2016","12","02","18","00","UTC","-1.0","30.2","-2.0","28.4","93","21.6","13.4","-9999.0","-9999.0","360","North","2.2","1.4","1000","29.53","-6.7","19.9","-9999","-9999","-9999.00","-9999.00","Light Snow","snow","0","0","1","0","0","0","METAR UKKK 021800Z 36006MPS 2200 -SN BR BKN005 OVC020 M01/M02 Q1000 R08/590335 TEMPO 36014G20MPS 0500 +SHSN BKN001 BKN012CB"
"8:30 PM EET on December 02, 2016","2016","12","02","20","30","Europe/Kiev","6:30 PM GMT on December 02, 2016","2016","12","02","18","30","UTC","-1.0","30.2","-2.0","28.4","93","25.2","15.7","-9999.0","-9999.0","350","North","2.1","1.3","1000","29.53","-7.2","19.1","-9999","-9999","-9999.00","-9999.00","Light Snow","snow","0","0","1","0","0","0","METAR UKKK 021830Z 35007MPS 2100 -SN BR BKN005 OVC020 M01/M02 Q1000 R08/590335 TEMPO 36014G20MPS 0500 +SHSN BKN001 BKN012CB"
"8:44 PM EET on December 02, 2016","2016","12","02","20","44","Europe/Kiev","6:44 PM GMT on December 02, 2016","2016","12","02","18","44","UTC","-1.0","30.2","-2.0","28.4","93","21.6","13.4","-9999.0","-9999.0","350","North","1.3","0.8","1000","29.53","-6.7","19.9","-9999","-9999","-9999.00","-9999.00","Snow","snow","0","0","1","0","0","0","SPECI UKKK 021844Z 35006MPS 1300 R08/P2000U SN BR BKN005 OVC020 M01/M02 Q1000 R08/590335 TEMPO 36014G20MPS 0500 +SHSN BKN001 BKN012CB"
"9:00 PM EET on December 02, 2016","2016","12","02","21","00","Europe/Kiev","7:00 PM GMT on December 02, 2016","2016","12","02","19","00","UTC","-1.0","30.2","-2.0","28.4","93","21.6","13.4","-9999.0","-9999.0","350","North","1.2","0.7","1000","29.53","-6.7","19.9","-9999","-9999","-9999.00","-9999.00","Snow","snow","0","0","1","0","0","0","METAR UKKK 021900Z 35006MPS 1200 R08/P2000N SN BR BKN005 OVC022 M01/M02 Q1000 R08/590335 TEMPO 36014G20MPS 0500 +SHSN BKN001 BKN012CB"
"9:30 PM EET on December 02, 2016","2016","12","02","21","30","Europe/Kiev","7:30 PM GMT on December 02, 2016","2016","12","02","19","30","UTC","-1.0","30.2","-2.0","28.4","93","21.6","13.4","-9999.0","-9999.0","350","North","1.7","1.1","1000","29.53","-6.7","19.9","-9999","-9999","-9999.00","-9999.00","Snow","snow","0","0","1","0","0","0","METAR UKKK 021930Z 35006MPS 1700 SN BR BKN006 OVC022 M01/M02 Q1000 R08/590335 TEMPO 36014G20MPS 0500 +SHSN BKN001 BKN012CB"
"9:50 PM EET on December 02, 2016","2016","12","02","21","50","Europe/Kiev","7:50 PM GMT on December 02, 2016","2016","12","02","19","50","UTC","-1.0","30.2","-2.0","28.4","93","21.6","13.4","-9999.0","-9999.0","350","North","-9999.0","-9999.0","1001","29.56","-6.7","19.9","-9999","-9999","-9999.00","-9999.00","Light Snow","snow","0","0","1","0","0","0","SPECI UKKK 021950Z 35006MPS 3100 -SN BR BKN006 OVC022 M01/M02 Q1001 RESN R08/590335 TEMPO 36014G20MPS 0500 +SHSN BKN001 BKN012CB"
"10:00 PM EET on December 02, 2016","2016","12","02","22","00","Europe/Kiev","8:00 PM GMT on December 02, 2016","2016","12","02","20","00","UTC","-1.0","30.2","-2.0","28.4","93","25.2","15.7","-9999.0","-9999.0","350","North","-9999.0","-9999.0","1001","29.56","-7.2","19.1","-9999","-9999","-9999.00","-9999.00","Light Snow","snow","0","0","1","0","0","0","METAR UKKK 022000Z 35007MPS 4700 -SN BR BKN006 OVC022 M01/M02 Q1001 R08/590335 TEMPO 36014G20MPS 0500 +SHSN BKN001 BKN012CB"
"10:30 PM EET on December 02, 2016","2016","12","02","22","30","Europe/Kiev","8:30 PM GMT on December 02, 2016","2016","12","02","20","30","UTC","-1.0","30.2","-2.0","28.4","93","21.6","13.4","-9999.0","-9999.0","350","North","2.8","1.7","1001","29.56","-6.7","19.9","-9999","-9999","-9999.00","-9999.00","Light Snow","snow","0","0","1","0","0","0","METAR UKKK 022030Z 35006MPS 2800 -SN BR BKN007 OVC022 M01/M02 Q1001 R08/590335 TEMPO 36014G20MPS"
"11:00 PM EET on December 02, 2016","2016","12","02","23","00","Europe/Kiev","9:00 PM GMT on December 02, 2016","2016","12","02","21","00","UTC","-1","30","-2","29","92","18.0","11.2","","","30","NNE","1","1","1003","29.61","-999","-999","-9999","-9999","","","Light Snow","snow","0","0","1","0","0","0","AAXX 02211 33345 41394 80305 11012 21019 39818 40026 52016 77177 8872/ 333 88708 555 1/102"
"11:00 PM EET on December 02, 2016","2016","12","02","23","00","Europe/Kiev","9:00 PM GMT on December 02, 2016","2016","12","02","21","00","UTC","-1.0","30.2","-2.0","28.4","93","25.2","15.7","-9999.0","-9999.0","340","NNW","-9999.0","-9999.0","1001","29.56","-7.2","19.1","-9999","-9999","-9999.00","-9999.00","Light Snow","snow","0","0","1","0","0","0","METAR UKKK 022100Z 34007MPS 3800 -SN BR BKN007 OVC022 M01/M02 Q1001 R08/590335 TEMPO 36014G20MPS"
"11:30 PM EET on December 02, 2016","2016","12","02","23","30","Europe/Kiev","9:30 PM GMT on December 02, 2016","2016","12","02","21","30","UTC","-1.0","30.2","-3.0","26.6","86","21.6","13.4","-9999.0","-9999.0","350","North","8.0","5.0","1002","29.59","-6.7","19.9","-9999","-9999","-9999.00","-9999.00","Light Snow","snow","0","0","1","0","0","0","METAR UKKK 022130Z 35006MPS 8000 -SN OVC008 M01/M03 Q1002 R26/590335 NOSIG"
"12:00 AM EET on December 03, 2016","2016","12","03","00","00","Europe/Kiev","10:00 PM GMT on December 02, 2016","2016","12","02","22","00","UTC","-1.0","30.2","-3.0","26.6","86","25.2","15.7","-9999.0","-9999.0","350","North","9.0","5.6","1002","29.59","-7.2","19.1","-9999","-9999","-9999.00","-9999.00","Light Snow","snow","0","0","1","0","0","0","METAR UKKK 022200Z 35007MPS 9000 -SN OVC007 M01/M03 Q1002 R26/890335 NOSIG"
"12:30 AM EET on December 03, 2016","2016","12","03","00","30","Europe/Kiev","10:30 PM GMT on December 02, 2016","2016","12","02","22","30","UTC","-2.0","28.4","-3.0","26.6","93","21.6","13.4","-9999.0","-9999.0","340","NNW","8.0","5.0","1002","29.59","-8.0","17.6","-9999","-9999","-9999.00","-9999.00","Light Snow","snow","0","0","1","0","0","0","METAR UKKK 022230Z 34006MPS 8000 -SN OVC008 M02/M03 Q1002 R26/890335 NOSIG"
"1:00 AM EET on December 03, 2016","2016","12","03","01","00","Europe/Kiev","11:00 PM GMT on December 02, 2016","2016","12","02","23","00","UTC","-2.0","28.4","-3.0","26.6","93","21.6","13.4","-9999.0","-9999.0","340","NNW","8.0","5.0","1002","29.59","-8.0","17.6","-9999","-9999","-9999.00","-9999.00","Light Snow","snow","0","0","1","0","0","0","METAR UKKK 022300Z 34006MPS 8000 -SN OVC009 M02/M03 Q1002 R26/890335 NOSIG"
"1:30 AM EET on December 03, 2016","2016","12","03","01","30","Europe/Kiev","11:30 PM GMT on December 02, 2016","2016","12","02","23","30","UTC","-2.0","28.4","-4.0","24.8","86","21.6","13.4","-9999.0","-9999.0","330","NNW","8.0","5.0","1003","29.62","-8.0","17.6","-9999","-9999","-9999.00","-9999.00","Light Snow","snow","0","0","1","0","0","0","METAR UKKK 022330Z 33006MPS 8000 -SN OVC009 M02/M04 Q1003 R26/890335 NOSIG"
"2:00 AM EET on December 03, 2016","2016","12","03","02","00","Europe/Kiev","12:00 AM GMT on December 03, 2016","2016","12","03","00","00","UTC","-2","28","-3","26","89","18.0","11.2","","","10","North","4","2","1004","29.66","-999","-999","-9999","-9999","","","Mist","hazy","0","0","0","0","0","0","AAXX 03001 33345 /1496 80105 11021 21033 39833 40042 52015 71072 886// 333 88711 555 1/103 60011"
"2:00 AM EET on December 03, 2016","2016","12","03","02","00","Europe/Kiev","12:00 AM GMT on December 03, 2016","2016","12","03","00","00","UTC","-3.0","26.6","-4.0","24.8","93","21.6","13.4","-9999.0","-9999.0","330","NNW","10.0","6.2","1003","29.62","-9.3","15.3","-9999","-9999","-9999.00","-9999.00","Light Snow","snow","0","0","1","0","0","0","METAR UKKK 030000Z 33006MPS 9999 -SN OVC009 M03/M04 Q1003 R26/890335 NOSIG"
"2:30 AM EET on December 03, 2016","2016","12","03","02","30","Europe/Kiev","12:30 AM GMT on December 03, 2016","2016","12","03","00","30","UTC","-3.0","26.6","-5.0","23.0","86","25.2","15.7","-9999.0","-9999.0","320","NW","9.0","5.6","1003","29.62","-9.8","14.4","-9999","-9999","-9999.00","-9999.00","Mostly Cloudy","mostlycloudy","0","0","0","0","0","0","METAR UKKK 030030Z 32007MPS 300V360 9000 BKN008 BKN028 M03/M05 Q1003 R26/890335 NOSIG"
"3:00 AM EET on December 03, 2016","2016","12","03","03","00","Europe/Kiev","1:00 AM GMT on December 03, 2016","2016","12","03","01","00","UTC","-3.0","26.6","-5.0","23.0","86","25.2","15.7","-9999.0","-9999.0","320","NW","10.0","6.2","1003","29.62","-9.8","14.4","-9999","-9999","-9999.00","-9999.00","Mostly Cloudy","mostlycloudy","0","0","0","0","0","0","METAR UKKK 030100Z 32007MPS 9999 BKN008 BKN028 M03/M05 Q1003 R26/890335 NOSIG"
"3:30 AM EET on December 03, 2016","2016","12","03","03","30","Europe/Kiev","1:30 AM GMT on December 03, 2016","2016","12","03","01","30","UTC","-3.0","26.6","-5.0","23.0","86","21.6","13.4","39.6","24.6","330","NNW","10.0","6.2","1003","29.62","-9.3","15.3","-9999","-9999","-9999.00","-9999.00","Mostly Cloudy","mostlycloudy","0","0","0","0","0","0","METAR UKKK 030130Z 33006G11MPS 9999 BKN011 BKN028 M03/M05 Q1003 R26/890335 NOSIG"
"4:00 AM EET on December 03, 2016","2016","12","03","04","00","Europe/Kiev","2:00 AM GMT on December 03, 2016","2016","12","03","02","00","UTC","-4.0","24.8","-6.0","21.2","86","21.6","13.4","-9999.0","-9999.0","330","NNW","9.0","5.6","1004","29.65","-10.5","13.1","-9999","-9999","-9999.00","-9999.00","Mostly Cloudy","mostlycloudy","0","0","0","0","0","0","METAR UKKK 030200Z 33006MPS 9000 BKN011 BKN028 M04/M06 Q1004 R26/890335 NOSIG"
"4:30 AM EET on December 03, 2016","2016","12","03","04","30","Europe/Kiev","2:30 AM GMT on December 03, 2016","2016","12","03","02","30","UTC","-4.0","24.8","-7.0","19.4","80","21.6","13.4","-9999.0","-9999.0","320","NW","10.0","6.2","1004","29.65","-10.5","13.1","-9999","-9999","-9999.00","-9999.00","Mostly Cloudy","mostlycloudy","0","0","0","0","0","0","METAR UKKK 030230Z 32006MPS 9999 BKN028 M04/M07 Q1004 R26/890335 NOSIG"
"5:00 AM EET on December 03, 2016","2016","12","03","05","00","Europe/Kiev","3:00 AM GMT on December 03, 2016","2016","12","03","03","00","UTC","-4","26","-6","22","78","14.4","8.9","","","0","North","20","12","1006","29.70","-999","-999","-9999","-9999","","","Mostly Cloudy","mostlycloudy","0","0","0","0","0","0","AAXX 03031 33345 42598 73604 11035 21056 39847 40057 52014 87500 333 87621 555 1/106"
"5:00 AM EET on December 03, 2016","2016","12","03","05","00","Europe/Kiev","3:00 AM GMT on December 03, 2016","2016","12","03","03","00","UTC","-5.0","23.0","-7.0","19.4","86","21.6","13.4","-9999.0","-9999.0","320","NW","10.0","6.2","1004","29.65","-11.8","10.8","-9999","-9999","-9999.00","-9999.00","Mostly Cloudy","mostlycloudy","0","0","0","0","0","0","METAR UKKK 030300Z 32006MPS 9999 BKN025 M05/M07 Q1004 R26/890335 NOSIG"
"5:30 AM EET on December 03, 2016","2016","12","03","05","30","Europe/Kiev","3:30 AM GMT on December 03, 2016","2016","12","03","03","30","UTC","-5.0","23.0","-7.0","19.4","86","21.6","13.4","-9999.0","-9999.0","320","NW","9.0","5.6","1004","29.65","-11.8","10.8","-9999","-9999","-9999.00","-9999.00","Mostly Cloudy","mostlycloudy","0","0","0","0","0","0","METAR UKKK 030330Z 32006MPS 9000 BKN026 M05/M07 Q1004 R26/890345 NOSIG"
"6:00 AM EET on December 03, 2016","2016","12","03","06","00","Europe/Kiev","4:00 AM GMT on December 03, 2016","2016","12","03","04","00","UTC","-5.0","23.0","-7.0","19.4","86","21.6","13.4","-9999.0","-9999.0","320","NW","10.0","6.2","1005","29.68","-11.8","10.8","-9999","-9999","-9999.00","-9999.00","Scattered Clouds","partlycloudy","0","0","0","0","0","0","METAR UKKK 030400Z 32006MPS 9999 SCT027 M05/M07 Q1005 R26/890345 NOSIG"
"6:30 AM EET on December 03, 2016","2016","12","03","06","30","Europe/Kiev","4:30 AM GMT on December 03, 2016","2016","12","03","04","30","UTC","-5.0","23.0","-7.0","19.4","86","21.6","13.4","-9999.0","-9999.0","330","NNW","-9999.0","-9999.0","1005","29.68","-11.8","10.8","-9999","-9999","-9999.00","-9999.00","Clear","clear","0","0","0","0","0","0","METAR UKKK 030430Z 33006MPS CAVOK M05/M07 Q1005 R26/890345 NOSIG"
"7:00 AM EET on December 03, 2016","2016","12","03","07","00","Europe/Kiev","5:00 AM GMT on December 03, 2016","2016","12","03","05","00","UTC","-5.0","23.0","-7.0","19.4","86","18.0","11.2","-9999.0","-9999.0","330","NNW","-9999.0","-9999.0","1005","29.68","-11.2","11.9","-9999","-9999","-9999.00","-9999.00","Clear","clear","0","0","0","0","0","0","METAR UKKK 030500Z 33005MPS CAVOK M05/M07 Q1005 R26/890345 NOSIG"
"7:30 AM EET on December 03, 2016","2016","12","03","07","30","Europe/Kiev","5:30 AM GMT on December 03, 2016","2016","12","03","05","30","UTC","-5.0","23.0","-7.0","19.4","86","21.6","13.4","-9999.0","-9999.0","320","NW","-9999.0","-9999.0","1006","29.71","-11.8","10.8","-9999","-9999","-9999.00","-9999.00","Clear","clear","0","0","0","0","0","0","METAR UKKK 030530Z 32006MPS CAVOK M05/M07 Q1006 R26/890345 NOSIG"
"8:00 AM EET on December 03, 2016","2016","12","03","08","00","Europe/Kiev","6:00 AM GMT on December 03, 2016","2016","12","03","06","00","UTC","-5","23","-7","20","83","14.4","8.9","","","10","North","20","12","1008","29.76","-999","-999","-9999","-9999","","","Scattered Clouds","partlycloudy","0","0","0","0","0","0","AAXX 03061 33345 12998 20104 11050 21067 39864 40076 52017 60012 82030 333 21050 47015 555 1/109"
"8:00 AM EET on December 03, 2016","2016","12","03","08","00","Europe/Kiev","6:00 AM GMT on December 03, 2016","2016","12","03","06","00","UTC","-5.0","23.0","-7.0","19.4","86","18.0","11.2","-9999.0","-9999.0","320","NW","-9999.0","-9999.0","1006","29.71","-11.2","11.9","-9999","-9999","-9999.00","-9999.00","Clear","clear","0","0","0","0","0","0","METAR UKKK 030600Z 32005MPS CAVOK M05/M07 Q1006 R26/890345 NOSIG"
"8:30 AM EET on December 03, 2016","2016","12","03","08","30","Europe/Kiev","6:30 AM GMT on December 03, 2016","2016","12","03","06","30","UTC","-5.0","23.0","-7.0","19.4","86","18.0","11.2","-9999.0","-9999.0","320","NW","-9999.0","-9999.0","1006","29.71","-11.2","11.9","-9999","-9999","-9999.00","-9999.00","Clear","clear","0","0","0","0","0","0","METAR UKKK 030630Z 32005MPS CAVOK M05/M07 Q1006 R26/890345 NOSIG"
"9:00 AM EET on December 03, 2016","2016","12","03","09","00","Europe/Kiev","7:00 AM GMT on December 03, 2016","2016","12","03","07","00","UTC","-5.0","23.0","-7.0","19.4","86","18.0","11.2","-9999.0","-9999.0","330","NNW","-9999.0","-9999.0","1007","29.74","-11.2","11.9","-9999","-9999","-9999.00","-9999.00","Clear","clear","0","0","0","0","0","0","METAR UKKK 030700Z 33005MPS CAVOK M05/M07 Q1007 R26/890345 NOSIG"
"9:30 AM EET on December 03, 2016","2016","12","03","09","30","Europe/Kiev","7:30 AM GMT on December 03, 2016","2016","12","03","07","30","UTC","-4.0","24.8","-7.0","19.4","80","14.4","8.9","-9999.0","-9999.0","330","NNW","9.0","5.6","1007","29.74","-9.2","15.5","-9999","-9999","-9999.00","-9999.00","Unknown","unknown","0","0","0","0","0","0","METAR UKKK 030730Z 33004MPS 9000 NSC M04/M07 Q1007 R26/890345 NOSIG"
"10:00 AM EET on December 03, 2016","2016","12","03","10","00","Europe/Kiev","8:00 AM GMT on December 03, 2016","2016","12","03","08","00","UTC","-4.0","24.8","-7.0","19.4","80","18.0","11.2","-9999.0","-9999.0","330","NNW","-9999.0","-9999.0","1007","29.74","-9.9","14.2","-9999","-9999","-9999.00","-9999.00","Clear","clear","0","0","0","0","0","0","METAR UKKK 030800Z 33005MPS CAVOK M04/M07 Q1007 R26/890345 NOSIG"
"10:30 AM EET on December 03, 2016","2016","12","03","10","30","Europe/Kiev","8:30 AM GMT on December 03, 2016","2016","12","03","08","30","UTC","-3.0","26.6","-7.0","19.4","74","18.0","11.2","-9999.0","-9999.0","330","NNW","9.0","5.6","1007","29.74","-8.7","16.4","-9999","-9999","-9999.00","-9999.00","Unknown","unknown","0","0","0","0","0","0","METAR UKKK 030830Z 33005MPS 9000 NSC M03/M07 Q1007 R26/890345 NOSIG"
"11:00 AM EET on December 03, 2016","2016","12","03","11","00","Europe/Kiev","9:00 AM GMT on December 03, 2016","2016","12","03","09","00","UTC","-3","27","-6","20","67","14.4","8.9","","","350","North","20","12","1009","29.80","-999","-999","-9999","-9999","","","","","0","0","0","0","0","0","AAXX 03091 33345 42998 03504 11027 21064 39880 40090 52016 555 1/103"
"11:00 AM EET on December 03, 2016","2016","12","03","11","00","Europe/Kiev","9:00 AM GMT on December 03, 2016","2016","12","03","09","00","UTC","-3.0","26.6","-7.0","19.4","74","21.6","13.4","-9999.0","-9999.0","330","NNW","-9999.0","-9999.0","1008","29.77","-9.3","15.3","-9999","-9999","-9999.00","-9999.00","Clear","clear","0","0","0","0","0","0","METAR UKKK 030900Z 33006MPS CAVOK M03/M07 Q1008 R26/890345 NOSIG"
"11:30 AM EET on December 03, 2016","2016","12","03","11","30","Europe/Kiev","9:30 AM GMT on December 03, 2016","2016","12","03","09","30","UTC","-3.0","26.6","-7.0","19.4","74","18.0","11.2","-9999.0","-9999.0","330","NNW","-9999.0","-9999.0","1008","29.77","-8.7","16.4","-9999","-9999","-9999.00","-9999.00","Clear","clear","0","0","0","0","0","0","METAR UKKK 030930Z 33005MPS CAVOK M03/M07 Q1008 R26/890345 NOSIG"
"12:00 PM EET on December 03, 2016","2016","12","03","12","00","Europe/Kiev","10:00 AM GMT on December 03, 2016","2016","12","03","10","00","UTC","-3.0","26.6","-7.0","19.4","74","18.0","11.2","-9999.0","-9999.0","320","NW","-9999.0","-9999.0","1008","29.77","-8.7","16.4","-9999","-9999","-9999.00","-9999.00","Clear","clear","0","0","0","0","0","0","METAR UKKK 031000Z 32005MPS CAVOK M03/M07 Q1008 R26/890345 NOSIG"
"12:30 PM EET on December 03, 2016","2016","12","03","12","30","Europe/Kiev","10:30 AM GMT on December 03, 2016","2016","12","03","10","30","UTC","-2.0","28.4","-7.0","19.4","69","18.0","11.2","-9999.0","-9999.0","330","NNW","-9999.0","-9999.0","1008","29.77","-7.4","18.7","-9999","-9999","-9999.00","-9999.00","Clear","clear","0","0","0","0","0","0","METAR UKKK 031030Z 33005MPS CAVOK M02/M07 Q1008 R26/890345 NOSIG"
"1:00 PM EET on December 03, 2016","2016","12","03","13","00","Europe/Kiev","11:00 AM GMT on December 03, 2016","2016","12","03","11","00","UTC","-2.0","28.4","-6.0","21.2","74","21.6","13.4","-9999.0","-9999.0","310","NW","-9999.0","-9999.0","1008","29.77","-8.0","17.6","-9999","-9999","-9999.00","-9999.00","Clear","clear","0","0","0","0","0","0","METAR UKKK 031100Z 31006MPS CAVOK M02/M06 Q1008 R26/890345 NOSIG"
"1:30 PM EET on December 03, 2016","2016","12","03","13","30","Europe/Kiev","11:30 AM GMT on December 03, 2016","2016","12","03","11","30","UTC","-2.0","28.4","-6.0","21.2","74","14.4","8.9","-9999.0","-9999.0","320","NW","10.0","6.2","1009","29.80","-6.7","19.9","-9999","-9999","-9999.00","-9999.00","Scattered Clouds","partlycloudy","0","0","0","0","0","0","METAR UKKK 031130Z 32004MPS 9999 FEW033 SCT100 M02/M06 Q1009 R26/890345 NOSIG"
"2:00 PM EET on December 03, 2016","2016","12","03","14","00","Europe/Kiev","12:00 PM GMT on December 03, 2016","2016","12","03","12","00","UTC","-1","30","-6","21","58","10.8","6.7","","","330","NNW","20","12","1010","29.83","-999","-999","-9999","-9999","","","Mostly Cloudy","mostlycloudy","0","0","0","0","0","0","AAXX 03121 33345 32698 73303 11011 21061 39892 40101 52012 87500 333 87633 555 1/100"
"2:00 PM EET on December 03, 2016","2016","12","03","14","00","Europe/Kiev","12:00 PM GMT on December 03, 2016","2016","12","03","12","00","UTC","-2.0","28.4","-6.0","21.2","74","14.4","8.9","-9999.0","-9999.0","310","NW","10.0","6.2","1009","29.80","-6.7","19.9","-9999","-9999","-9999.00","-9999.00","Mostly Cloudy","mostlycloudy","0","0","0","0","0","0","METAR UKKK 031200Z 31004MPS 9999 SCT030 BKN100 M02/M06 Q1009 R26/890345 NOSIG"
"2:30 PM EET on December 03, 2016","2016","12","03","14","30","Europe/Kiev","12:30 PM GMT on December 03, 2016","2016","12","03","12","30","UTC","-2.0","28.4","-6.0","21.2","74","14.4","8.9","-9999.0","-9999.0","290","WNW","10.0","6.2","1009","29.80","-6.7","19.9","-9999","-9999","-9999.00","-9999.00","Mostly Cloudy","mostlycloudy","0","0","0","0","0","0","METAR UKKK 031230Z 29004MPS 9999 SCT026 BKN100 M02/M06 Q1009 R26/890345 NOSIG"
"3:00 PM EET on December 03, 2016","2016","12","03","15","00","Europe/Kiev","1:00 PM GMT on December 03, 2016","2016","12","03","13","00","UTC","-2.0","28.4","-5.0","23.0","80","18.0","11.2","-9999.0","-9999.0","300","WNW","10.0","6.2","1009","29.80","-7.4","18.7","-9999","-9999","-9999.00","-9999.00","Mostly Cloudy","mostlycloudy","0","0","0","0","0","0","METAR UKKK 031300Z 30005MPS 9999 SCT026 BKN100 M02/M05 Q1009 R26/890345 NOSIG"
"3:30 PM EET on December 03, 2016","2016","12","03","15","30","Europe/Kiev","1:30 PM GMT on December 03, 2016","2016","12","03","13","30","UTC","-2.0","28.4","-5.0","23.0","80","14.4","8.9","-9999.0","-9999.0","300","WNW","9.0","5.6","1010","29.83","-6.7","19.9","-9999","-9999","-9999.00","-9999.00","Mostly Cloudy","mostlycloudy","0","0","0","0","0","0","METAR UKKK 031330Z 30004MPS 9000 SCT026 BKN100 M02/M05 Q1010 R26/890345 NOSIG"
"4:00 PM EET on December 03, 2016","2016","12","03","16","00","Europe/Kiev","2:00 PM GMT on December 03, 2016","2016","12","03","14","00","UTC","-2.0","28.4","-5.0","23.0","80","10.8","6.7","-9999.0","-9999.0","300","WNW","10.0","6.2","1010","29.83","-5.9","21.4","-9999","-9999","-9999.00","-9999.00","Mostly Cloudy","mostlycloudy","0","0","0","0","0","0","METAR UKKK 031400Z 30003MPS 9999 SCT026 BKN100 M02/M05 Q1010 R26/890345 NOSIG"
"4:30 PM EET on December 03, 2016","2016","12","03","16","30","Europe/Kiev","2:30 PM GMT on December 03, 2016","2016","12","03","14","30","UTC","-2.0","28.4","-5.0","23.0","80","10.8","6.7","-9999.0","-9999.0","290","WNW","10.0","6.2","1010","29.83","-5.9","21.4","-9999","-9999","-9999.00","-9999.00","Overcast","cloudy","0","0","0","0","0","0","METAR UKKK 031430Z 29003MPS 9999 SCT014 OVC040 M02/M05 Q1010 R26/890345 NOSIG"
"5:00 PM EET on December 03, 2016","2016","12","03","17","00","Europe/Kiev","3:00 PM GMT on December 03, 2016","2016","12","03","15","00","UTC","-2","29","-4","24","76","7.2","4.5","","","330","NNW","20","12","1012","29.88","-999","-999","-9999","-9999","","","Overcast","cloudy","0","0","0","0","0","0","AAXX 03151 33345 42598 83302 11018 21042 39909 40119 52017 885// 333 88631 555 1/103"
"5:00 PM EET on December 03, 2016","2016","12","03","17","00","Europe/Kiev","3:00 PM GMT on December 03, 2016","2016","12","03","15","00","UTC","-2.0","28.4","-4.0","24.8","86","7.2","4.5","-9999.0","-9999.0","270","West","8.0","5.0","1010","29.83","-4.8","23.4","-9999","-9999","-9999.00","-9999.00","Light Snow","snow","0","0","1","0","0","0","METAR UKKK 031500Z 27002MPS 8000 -SN SCT015 OVC027 M02/M04 Q1010 R26/850345 NOSIG"
"5:30 PM EET on December 03, 2016","2016","12","03","17","30","Europe/Kiev","3:30 PM GMT on December 03, 2016","2016","12","03","15","30","UTC","-2.0","28.4","-4.0","24.8","86","7.2","4.5","-9999.0","-9999.0","280","West","5.0","3.1","1011","29.86","-4.8","23.4","-9999","-9999","-9999.00","-9999.00","Light Snow","snow","0","0","1","0","0","0","METAR UKKK 031530Z 28002MPS 5000 -SN SCT018 OVC027 M02/M04 Q1011 R26/850345 NOSIG"
"5:37 PM EET on December 03, 2016","2016","12","03","17","37","Europe/Kiev","3:37 PM GMT on December 03, 2016","2016","12","03","15","37","UTC","-2.0","28.4","-4.0","24.8","86","7.2","4.5","-9999.0","-9999.0","280","West","1.1","0.7","1011","29.86","-4.8","23.4","-9999","-9999","-9999.00","-9999.00","Snow","snow","0","0","1","0","0","0","SPECI UKKK 031537Z 28002MPS 1100 R26/P2000D SN SCT018 OVC027 M02/M04 Q1011 R26/850345 TEMPO 1000 SHSN BKN015CB"
"6:00 PM EET on December 03, 2016","2016","12","03","18","00","Europe/Kiev","4:00 PM GMT on December 03, 2016","2016","12","03","16","00","UTC","-2.0","28.4","-3.0","26.6","93","7.2","4.5","-9999.0","-9999.0","260","West","2.0","1.2","1011","29.86","-4.8","23.4","-9999","-9999","-9999.00","-9999.00","Snow","snow","0","0","1","0","0","0","METAR UKKK 031600Z 26002MPS 2000 SN SCT010 OVC023 M02/M03 Q1011 R26/850345 TEMPO 1000 SHSN BKN015CB"
"6:30 PM EET on December 03, 2016","2016","12","03","18","30","Europe/Kiev","4:30 PM GMT on December 03, 2016","2016","12","03","16","30","UTC","-2.0","28.4","-3.0","26.6","93","7.2","4.5","-9999.0","-9999.0","260","West","1.3","0.8","1011","29.86","-4.8","23.4","-9999","-9999","-9999.00","-9999.00","Snow","snow","0","0","1","0","0","0","METAR UKKK 031630Z 26002MPS 1300 R26/1900VP2000U SN BKN006 OVC023 M02/M03 Q1011 R26/850345 TEMPO 0700 +SHSN BKN004 BKN015CB"
"6:37 PM EET on December 03, 2016","2016","12","03","18","37","Europe/Kiev","4:37 PM GMT on December 03, 2016","2016","12","03","16","37","UTC","-2.0","28.4","-3.0","26.6","93","7.2","4.5","-9999.0","-9999.0","270","West","1.2","0.7","1011","29.86","-4.8","23.4","-9999","-9999","-9999.00","-9999.00","Snow","snow","0","0","1","0","0","0","SPECI UKKK 031637Z 27002MPS 1200 R26/1800VP2000D SN BKN004 OVC023 M02/M03 Q1011 R26/850345 TEMPO 0700 +SHSN BKN002 BKN015CB"
"7:00 PM EET on December 03, 2016","2016","12","03","19","00","Europe/Kiev","5:00 PM GMT on December 03, 2016","2016","12","03","17","00","UTC","-2.0","28.4","-2.0","28.4","100","10.8","6.7","-9999.0","-9999.0","290","WNW","1.5","0.9","1011","29.86","-5.9","21.4","-9999","-9999","-9999.00","-9999.00","Snow","snow","0","0","1","0","0","0","METAR UKKK 031700Z 29003MPS 1500 SN BKN005 OVC015 M02/M02 Q1011 R26/850336 TEMPO 0400 +SHSN BKN002 BKN015CB"
"7:22 PM EET on December 03, 2016","2016","12","03","19","22","Europe/Kiev","5:22 PM GMT on December 03, 2016","2016","12","03","17","22","UTC","-2.0","28.4","-2.0","28.4","100","18.0","11.2","-9999.0","-9999.0","300","WNW","1.4","0.9","1012","29.89","-7.4","18.7","-9999","-9999","-9999.00","-9999.00","Snow","snow","0","0","1","0","0","0","SPECI UKKK 031722Z 30005MPS 1400 R26/P2000N SN OVC006 M02/M02 Q1012 R26/850336 TEMPO 0400 +SHSN BKN002 BKN015CB"
"7:30 PM EET on December 03, 2016","2016","12","03","19","30","Europe/Kiev","5:30 PM GMT on December 03, 2016","2016","12","03","17","30","UTC","-1.0","30.2","-2.0","28.4","93","18.0","11.2","-9999.0","-9999.0","310","NW","1.4","0.9","1012","29.89","-6.2","20.9","-9999","-9999","-9999.00","-9999.00","Snow","snow","0","0","1","0","0","0","METAR UKKK 031730Z 31005MPS 1400 R26/P2000D SN OVC005 M01/M02 Q1012 R26/850336 TEMPO 0400 +SHSN BKN002 BKN015CB"
"8:00 PM EET on December 03, 2016","2016","12","03","20","00","Europe/Kiev","6:00 PM GMT on December 03, 2016","2016","12","03","18","00","UTC","-2","28","-3","26","91","0.0","0.0","","","","","4","2","1014","29.94","-999","-999","-9999","-9999","","","Light Snow","snow","0","0","1","0","0","0","AAXX 03181 33345 11296 80000 11022 21031 39927 40138 52018 60022 77172 8872/ 333 11011 88705 555 1/102"
"8:00 PM EET on December 03, 2016","2016","12","03","20","00","Europe/Kiev","6:00 PM GMT on December 03, 2016","2016","12","03","18","00","UTC","-2.0","28.4","-3.0","26.6","93","18.0","11.2","-9999.0","-9999.0","320","NW","2.4","1.5","1012","29.89","-7.4","18.7","-9999","-9999","-9999.00","-9999.00","Light Snow","snow","0","0","1","0","0","0","METAR UKKK 031800Z 32005MPS 2400 -SN OVC007 M02/M03 Q1012 RESN R26/850336 TEMPO 0400 +SHSN BKN002 BKN015CB"
"8:30 PM EET on December 03, 2016","2016","12","03","20","30","Europe/Kiev","6:30 PM GMT on December 03, 2016","2016","12","03","18","30","UTC","-2.0","28.4","-3.0","26.6","93","14.4","8.9","-9999.0","-9999.0","330","NNW","2.8","1.7","1013","29.92","-6.7","19.9","-9999","-9999","-9999.00","-9999.00","Light Snow","snow","0","0","1","0","0","0","METAR UKKK 031830Z 33004MPS 300V360 2800 -SN OVC008 M02/M03 Q1013 R26/850336 TEMPO 0400 +SHSN BKN002 BKN015CB"
"8:46 PM EET on December 03, 2016","2016","12","03","20","46","Europe/Kiev","6:46 PM GMT on December 03, 2016","2016","12","03","18","46","UTC","-2.0","28.4","-3.0","26.6","93","18.0","11.2","-9999.0","-9999.0","320","NW","1.8","1.1","1013","29.92","-7.4","18.7","-9999","-9999","-9999.00","-9999.00","Snow","snow","0","0","1","0","0","0","SPECI UKKK 031846Z 32005MPS 1800 SN BKN005 OVC020 M02/M03 Q1013 R26/850336 TEMPO 0400 +SHSN BKN002 BKN015CB"
"9:00 PM EET on December 03, 2016","2016","12","03","21","00","Europe/Kiev","7:00 PM GMT on December 03, 2016","2016","12","03","19","00","UTC","-2.0","28.4","-3.0","26.6","93","21.6","13.4","-9999.0","-9999.0","310","NW","-9999.0","-9999.0","1013","29.92","-8.0","17.6","-9999","-9999","-9999.00","-9999.00","Light Snow","snow","0","0","1","0","0","0","METAR UKKK 031900Z 31006MPS 4600 -SN BKN005 OVC020 M02/M03 Q1013 RESN R26/850336 TEMPO 0400 +SHSN BKN002 BKN015CB"
"9:18 PM EET on December 03, 2016","2016","12","03","21","18","Europe/Kiev","7:18 PM GMT on December 03, 2016","2016","12","03","19","18","UTC","-2.0","28.4","-4.0","24.8","86","25.2","15.7","-9999.0","-9999.0","310","NW","1.4","0.9","1013","29.92","-8.5","16.7","-9999","-9999","-9999.00","-9999.00","Snow","snow","0","0","1","0","0","0","SPECI UKKK 031918Z 31007MPS 1400 R26/P2000D SN BKN005 OVC021 M02/M04 Q1013 R26/850336 TEMPO 0400 +SHSN BKN002 BKN015CB"
"9:30 PM EET on December 03, 2016","2016","12","03","21","30","Europe/Kiev","7:30 PM GMT on December 03, 2016","2016","12","03","19","30","UTC","-2.0","28.4","-4.0","24.8","86","25.2","15.7","-9999.0","-9999.0","310","NW","1.6","1.0","1013","29.92","-8.5","16.7","-9999","-9999","-9999.00","-9999.00","Snow","snow","0","0","1","0","0","0","METAR UKKK 031930Z 31007MPS 1600 SN BKN006 OVC021 M02/M04 Q1013 R26/850336 TEMPO 0400 +SHSN BKN002 BKN015CB"
"9:42 PM EET on December 03, 2016","2016","12","03","21","42","Europe/Kiev","7:42 PM GMT on December 03, 2016","2016","12","03","19","42","UTC","-2.0","28.4","-4.0","24.8","86","28.8","17.9","-9999.0","-9999.0","300","WNW","-9999.0","-9999.0","1014","29.95","-8.9","15.9","-9999","-9999","-9999.00","-9999.00","Light Snow","snow","0","0","1","0","0","0","SPECI UKKK 031942Z 30008MPS 4900 -SN BKN006 OVC021 M02/M04 Q1014 RESN R26/850336 TEMPO 0400 +SHSN BKN002 BKN015CB"
"9:50 PM EET on December 03, 2016","2016","12","03","21","50","Europe/Kiev","7:50 PM GMT on December 03, 2016","2016","12","03","19","50","UTC","-2.0","28.4","-4.0","24.8","86","28.8","17.9","-9999.0","-9999.0","300","WNW","1.6","1.0","1014","29.95","-8.9","15.9","-9999","-9999","-9999.00","-9999.00","Snow","snow","0","0","1","0","0","0","SPECI UKKK 031950Z 30008MPS 1600 SN BKN006 OVC021 M02/M04 Q1014 R26/850336 TEMPO 0400 +SHSN BKN002 BKN015CB"
"10:00 PM EET on December 03, 2016","2016","12","03","22","00","Europe/Kiev","8:00 PM GMT on December 03, 2016","2016","12","03","20","00","UTC","-2.0","28.4","-4.0","24.8","86","28.8","17.9","-9999.0","-9999.0","300","WNW","4.0","2.5","1014","29.95","-8.9","15.9","-9999","-9999","-9999.00","-9999.00","Light Snow","snow","0","0","1","0","0","0","METAR UKKK 032000Z 30008MPS 4000 -SN BKN008 OVC023 M02/M04 Q1014 RESN R26/850336 TEMPO 0400 +SHSN BKN002 BKN015CB"
"10:09 PM EET on December 03, 2016","2016","12","03","22","09","Europe/Kiev","8:09 PM GMT on December 03, 2016","2016","12","03","20","09","UTC","-3.0","26.6","-4.0","24.8","93","25.2","15.7","-9999.0","-9999.0","300","WNW","1.5","0.9","1014","29.95","-9.8","14.4","-9999","-9999","-9999.00","-9999.00","Snow","snow","0","0","1","0","0","0","SPECI UKKK 032009Z 30007MPS 1500 SN BKN008 OVC023 M03/M04 Q1014 R26/850336 TEMPO 0400 +SHSN BKN002 BKN015CB"
"10:12 PM EET on December 03, 2016","2016","12","03","22","12","Europe/Kiev","8:12 PM GMT on December 03, 2016","2016","12","03","20","12","UTC","-3.0","26.6","-4.0","24.8","93","25.2","15.7","-9999.0","-9999.0","300","WNW","1.1","0.7","1014","29.95","-9.8","14.4","-9999","-9999","-9999.00","-9999.00","Snow","snow","0","0","1","0","0","0","SPECI UKKK 032012Z 30007MPS 1100 R26/P2000D SN BKN008 OVC023 M03/M04 Q1014 R26/850336 TEMPO 0400 +SHSN BKN002 BKN015CB"
"10:30 PM EET on December 03, 2016","2016","12","03","22","30","Europe/Kiev","8:30 PM GMT on December 03, 2016","2016","12","03","20","30","UTC","-3.0","26.6","-4.0","24.8","93","25.2","15.7","-9999.0","-9999.0","300","WNW","1.7","1.1","1014","29.95","-9.8","14.4","-9999","-9999","-9999.00","-9999.00","Snow","snow","0","0","1","0","0","0","METAR UKKK 032030Z 30007MPS 1700 SN BKN008 OVC019 M03/M04 Q1014 R26/850336 TEMPO 0400 +SHSN BKN002 BKN015CB"
"10:37 PM EET on December 03, 2016","2016","12","03","22","37","Europe/Kiev","8:37 PM GMT on December 03, 2016","2016","12","03","20","37","UTC","-3.0","26.6","-4.0","24.8","93","25.2","15.7","-9999.0","-9999.0","300","WNW","1.4","0.9","1014","29.95","-9.8","14.4","-9999","-9999","-9999.00","-9999.00","Snow","snow","0","0","1","0","0","0","SPECI UKKK 032037Z 30007MPS 1400 R26/1700VP2000U SN BKN008 OVC019 M03/M04 Q1014 R26/850336 TEMPO 0400 +SHSN BKN002 BKN015CB"
"11:00 PM EET on December 03, 2016","2016","12","03","23","00","Europe/Kiev","9:00 PM GMT on December 03, 2016","2016","12","03","21","00","UTC","-3","27","-4","24","86","14.4","8.9","","","340","NNW","4","2","1016","30.00","-999","-999","-9999","-9999","","","Light Snow","snow","0","0","1","0","0","0","AAXX 03211 33345 41296 83404 11029 21042 39947 40159 52020 77172 8872/ 333 88705 555 1/103"
"11:00 PM EET on December 03, 2016","2016","12","03","23","00","Europe/Kiev","9:00 PM GMT on December 03, 2016","2016","12","03","21","00","UTC","-3.0","26.6","-5.0","23.0","86","25.2","15.7","-9999.0","-9999.0","300","WNW","-9999.0","-9999.0","1014","29.95","-9.8","14.4","-9999","-9999","-9999.00","-9999.00","Light Snow","snow","0","0","1","0","0","0","METAR UKKK 032100Z 30007MPS 4100 -SN BKN009 OVC023 M03/M05 Q1014 RESN R26/850336 TEMPO 0400 +SHSN BKN002 BKN015CB"
"11:30 PM EET on December 03, 2016","2016","12","03","23","30","Europe/Kiev","9:30 PM GMT on December 03, 2016","2016","12","03","21","30","UTC","-3.0","26.6","-5.0","23.0","86","21.6","13.4","-9999.0","-9999.0","300","WNW","-9999.0","-9999.0","1015","29.98","-9.3","15.3","-9999","-9999","-9999.00","-9999.00","Light Snow","snow","0","0","1","0","0","0","METAR UKKK 032130Z 30006MPS 4800 -SN BKN010 OVC026 M03/M05 Q1015 R26/850336 TEMPO 0400 +SHSN BKN002 BKN015CB"
"12:00 AM EET on December 04, 2016","2016","12","04","00","00","Europe/Kiev","10:00 PM GMT on December 03, 2016","2016","12","03","22","00","UTC","-3.0","26.6","-6.0","21.2","80","28.8","17.9","-9999.0","-9999.0","300","WNW","8.0","5.0","1015","29.98","-10.2","13.6","-9999","-9999","-9999.00","-9999.00","Light Snow","snow","0","0","1","0","0","0","METAR UKKK 032200Z 30008MPS 8000 -SN BKN012 OVC028 M03/M06 Q1015 R26/850336 TEMPO 0400 +SHSN BKN002 BKN015CB"
"12:08 AM EET on December 04, 2016","2016","12","04","00","08","Europe/Kiev","10:08 PM GMT on December 03, 2016","2016","12","03","22","08","UTC","-3.0","26.6","-6.0","21.2","80","28.8","17.9","46.8","29.1","310","NW","9.0","5.6","1015","29.98","-10.2","13.6","-9999","-9999","-9999.00","-9999.00","Light Snow","snow","0","0","1","0","0","0","SPECI UKKK 032208Z 31008G13MPS 9000 -SN BKN012 OVC028 M03/M06 Q1015 R26/850336 TEMPO 0400 +SHSN BKN002 BKN015CB"
"12:30 AM EET on December 04, 2016","2016","12","04","00","30","Europe/Kiev","10:30 PM GMT on December 03, 2016","2016","12","03","22","30","UTC","-4.0","24.8","-7.0","19.4","80","25.2","15.7","-9999.0","-9999.0","300","WNW","9.0","5.6","1015","29.98","-11.0","12.1","-9999","-9999","-9999.00","-9999.00","Mostly Cloudy","mostlycloudy","0","0","0","0","0","0","METAR UKKK 032230Z 30007MPS 9000 SCT016 BKN043 M04/M07 Q1015 R26/850336 TEMPO 0400 +SHSN BKN002 BKN015CB"
"1:00 AM EET on December 04, 2016","2016","12","04","01","00","Europe/Kiev","11:00 PM GMT on December 03, 2016","2016","12","03","23","00","UTC","-4.0","24.8","-7.0","19.4","80","25.2","15.7","-9999.0","-9999.0","300","WNW","10.0","6.2","1016","30.01","-11.0","12.1","-9999","-9999","-9999.00","-9999.00","Scattered Clouds","partlycloudy","0","0","0","0","0","0","METAR UKKK 032300Z 30007MPS 9999 FEW016 SCT046 M04/M07 Q1016 R26/850336 TEMPO 32010G17MPS"
"1:30 AM EET on December 04, 2016","2016","12","04","01","30","Europe/Kiev","11:30 PM GMT on December 03, 2016","2016","12","03","23","30","UTC","-4.0","24.8","-7.0","19.4","80","21.6","13.4","-9999.0","-9999.0","300","WNW","10.0","6.2","1016","30.01","-10.5","13.1","-9999","-9999","-9999.00","-9999.00","Scattered Clouds","partlycloudy","0","0","0","0","0","0","METAR UKKK 032330Z 30006MPS 9999 FEW014 SCT040 M04/M07 Q1016 R26/850336 TEMPO 32010G17MPS"
"2:00 AM EET on December 04, 2016","2016","12","04","02","00","Europe/Kiev","12:00 AM GMT on December 04, 2016","2016","12","04","00","00","UTC","-4","24","-7","20","77","14.4","8.9","","","350","North","10","6","1018","30.07","-999","-999","-9999","-9999","","","Partly Cloudy","partlycloudy","0","0","0","0","0","0","AAXX 04001 33345 /1597 43504 11042 21068 39967 40181 52020 70271 84500 333 84623 555 1/107 69971"
"2:00 AM EET on December 04, 2016","2016","12","04","02","00","Europe/Kiev","12:00 AM GMT on December 04, 2016","2016","12","04","00","00","UTC","-4.0","24.8","-7.0","19.4","80","21.6","13.4","-9999.0","-9999.0","300","WNW","10.0","6.2","1016","30.01","-10.5","13.1","-9999","-9999","-9999.00","-9999.00","Light Snow","snow","0","0","1","0","0","0","METAR UKKK 040000Z 30006MPS 9999 -SN SCT016 OVC042 M04/M07 Q1016 R26/850336 TEMPO 32010G17MPS"
"2:30 AM EET on December 04, 2016","2016","12","04","02","30","Europe/Kiev","12:30 AM GMT on December 04, 2016","2016","12","04","00","30","UTC","-5.0","23.0","-7.0","19.4","86","18.0","11.2","-9999.0","-9999.0","300","WNW","10.0","6.2","1017","30.04","-11.2","11.9","-9999","-9999","-9999.00","-9999.00","Mostly Cloudy","mostlycloudy","0","0","0","0","0","0","METAR UKKK 040030Z 30005MPS 9999 FEW016 BKN035 M05/M07 Q1017 R26/850336 TEMPO 32010G17MPS"
"3:00 AM EET on December 04, 2016","2016","12","04","03","00","Europe/Kiev","1:00 AM GMT on December 04, 2016","2016","12","04","01","00","UTC","-5.0","23.0","-7.0","19.4","86","18.0","11.2","-9999.0","-9999.0","290","WNW","10.0","6.2","1017","30.04","-11.2","11.9","-9999","-9999","-9999.00","-9999.00","Mostly Cloudy","mostlycloudy","0","0","0","0","0","0","METAR UKKK 040100Z 29005MPS 9999 SCT015 BKN032 M05/M07 Q1017 R26/850336 TEMPO 32010G17MPS"
"3:30 AM EET on December 04, 2016","2016","12","04","03","30","Europe/Kiev","1:30 AM GMT on December 04, 2016","2016","12","04","01","30","UTC","-6.0","21.2","-7.0","19.4","93","14.4","8.9","-9999.0","-9999.0","270","West","10.0","6.2","1017","30.04","-11.6","11.0","-9999","-9999","-9999.00","-9999.00","Scattered Clouds","partlycloudy","0","0","0","0","0","0","METAR UKKK 040130Z 27004MPS 9999 SCT010 M06/M07 Q1017 R26/850336 TEMPO 32010G17MPS"
"4:00 AM EET on December 04, 2016","2016","12","04","04","00","Europe/Kiev","2:00 AM GMT on December 04, 2016","2016","12","04","02","00","UTC","-7.0","19.4","-8.0","17.6","93","14.4","8.9","-9999.0","-9999.0","260","West","10.0","6.2","1017","30.04","-12.9","8.8","-9999","-9999","-9999.00","-9999.00","Scattered Clouds","partlycloudy","0","0","0","0","0","0","METAR UKKK 040200Z 26004MPS 9999 SCT010 M07/M08 Q1017 R26/850336 NOSIG"
"4:30 AM EET on December 04, 2016","2016","12","04","04","30","Europe/Kiev","2:30 AM GMT on December 04, 2016","2016","12","04","02","30","UTC","-8.0","17.6","-9.0","15.8","93","10.8","6.7","-9999.0","-9999.0","260","West","-9999.0","-9999.0","1017","30.04","-13.1","8.4","-9999","-9999","-9999.00","-9999.00","Clear","clear","0","0","0","0","0","0","METAR UKKK 040230Z 26003MPS CAVOK M08/M09 Q1017 R26/850336 NOSIG"
"5:00 AM EET on December 04, 2016","2016","12","04","05","00","Europe/Kiev","3:00 AM GMT on December 04, 2016","2016","12","04","03","00","UTC","-6","21","-8","18","85","10.8","6.7","","","310","NW","10","6","1019","30.09","-999","-999","-9999","-9999","","","","","0","0","0","0","0","0","AAXX 04031 33345 42997 03103 11061 21076 39975 40190 52008 555 1/111"
"5:00 AM EET on December 04, 2016","2016","12","04","05","00","Europe/Kiev","3:00 AM GMT on December 04, 2016","2016","12","04","03","00","UTC","-8.0","17.6","-9.0","15.8","93","14.4","8.9","-9999.0","-9999.0","270","West","9.0","5.6","1017","30.04","-14.1","6.6","-9999","-9999","-9999.00","-9999.00","Clear","clear","0","0","0","0","0","0","METAR UKKK 040300Z 27004MPS 9000 SKC M08/M09 Q1017 R26/850336 NOSIG"
"5:30 AM EET on December 04, 2016","2016","12","04","05","30","Europe/Kiev","3:30 AM GMT on December 04, 2016","2016","12","04","03","30","UTC","-8.0","17.6","-9.0","15.8","93","7.2","4.5","-9999.0","-9999.0","260","West","-9999.0","-9999.0","1017","30.04","-11.8","10.8","-9999","-9999","-9999.00","-9999.00","Clear","clear","0","0","0","0","0","0","METAR UKKK 040330Z 26002MPS CAVOK M08/M09 Q1017 R26/850336 NOSIG"
"6:00 AM EET on December 04, 2016","2016","12","04","06","00","Europe/Kiev","4:00 AM GMT on December 04, 2016","2016","12","04","04","00","UTC","-9.0","15.8","-10.0","14.0","93","10.8","6.7","-9999.0","-9999.0","240","WSW","-9999.0","-9999.0","1017","30.04","-14.3","6.2","-9999","-9999","-9999.00","-9999.00","Clear","clear","0","0","0","0","0","0","METAR UKKK 040400Z 24003MPS CAVOK M09/M10 Q1017 R26/850336 NOSIG"
"6:30 AM EET on December 04, 2016","2016","12","04","06","30","Europe/Kiev","4:30 AM GMT on December 04, 2016","2016","12","04","04","30","UTC","-8.0","17.6","-10.0","14.0","86","10.8","6.7","-9999.0","-9999.0","260","West","-9999.0","-9999.0","1017","30.04","-13.1","8.4","-9999","-9999","-9999.00","-9999.00","Clear","clear","0","0","0","0","0","0","METAR UKKK 040430Z 26003MPS CAVOK M08/M10 Q1017 R26/850340 NOSIG"
"7:00 AM EET on December 04, 2016","2016","12","04","07","00","Europe/Kiev","5:00 AM GMT on December 04, 2016","2016","12","04","05","00","UTC","-8.0","17.6","-9.0","15.8","93","10.8","6.7","-9999.0","-9999.0","260","West","-9999.0","-9999.0","1017","30.04","-13.1","8.4","-9999","-9999","-9999.00","-9999.00","Clear","clear","0","0","0","0","0","0","METAR UKKK 040500Z 26003MPS CAVOK M08/M09 Q1017 R26/850340 NOSIG"
"7:30 AM EET on December 04, 2016","2016","12","04","07","30","Europe/Kiev","5:30 AM GMT on December 04, 2016","2016","12","04","05","30","UTC","-8.0","17.6","-9.0","15.8","93","7.2","4.5","-9999.0","-9999.0","270","West","10.0","6.2","1017","30.04","-11.8","10.8","-9999","-9999","-9999.00","-9999.00","Mostly Cloudy","mostlycloudy","0","0","0","0","0","0","METAR UKKK 040530Z 27002MPS 9999 SCT041 BKN090 M08/M09 Q1017 R26/850340 NOSIG"
"8:00 AM EET on December 04, 2016","2016","12","04","08","00","Europe/Kiev","6:00 AM GMT on December 04, 2016","2016","12","04","06","00","UTC","-6","20","-8","17","83","7.2","4.5","","","330","NNW","10","6","1019","30.10","-999","-999","-9999","-9999","","","Mostly Cloudy","mostlycloudy","0","0","0","0","0","0","AAXX 04061 33345 12597 63302 11064 21083 39976 40192 51001 69972 86500 333 21067 47016 86626 555 1/108"
"8:00 AM EET on December 04, 2016","2016","12","04","08","00","Europe/Kiev","6:00 AM GMT on December 04, 2016","2016","12","04","06","00","UTC","-7.0","19.4","-9.0","15.8","86","10.8","6.7","-9999.0","-9999.0","260","West","-9999.0","-9999.0","1017","30.04","-11.9","10.6","-9999","-9999","-9999.00","-9999.00","Clear","clear","0","0","0","0","0","0","METAR UKKK 040600Z 26003MPS CAVOK M07/M09 Q1017 R26/850340 NOSIG"
"8:30 AM EET on December 04, 2016","2016","12","04","08","30","Europe/Kiev","6:30 AM GMT on December 04, 2016","2016","12","04","06","30","UTC","-8.0","17.6","-9.0","15.8","93","10.8","6.7","-9999.0","-9999.0","270","West","-9999.0","-9999.0","1017","30.04","-13.1","8.4","-9999","-9999","-9999.00","-9999.00","Clear","clear","0","0","0","0","0","0","METAR UKKK 040630Z 27003MPS CAVOK M08/M09 Q1017 R26/850340 NOSIG"
"9:00 AM EET on December 04, 2016","2016","12","04","09","00","Europe/Kiev","7:00 AM GMT on December 04, 2016","2016","12","04","07","00","UTC","-8.0","17.6","-9.0","15.8","93","10.8","6.7","-9999.0","-9999.0","270","West","-9999.0","-9999.0","1018","30.06","-13.1","8.4","-9999","-9999","-9999.00","-9999.00","Clear","clear","0","0","0","0","0","0","METAR UKKK 040700Z 27003MPS CAVOK M08/M09 Q1018 R26/850340 NOSIG"
"9:30 AM EET on December 04, 2016","2016","12","04","09","30","Europe/Kiev","7:30 AM GMT on December 04, 2016","2016","12","04","07","30","UTC","-8.0","17.6","-10.0","14.0","86","10.8","6.7","-9999.0","-9999.0","260","West","-9999.0","-9999.0","1018","30.06","-13.1","8.4","-9999","-9999","-9999.00","-9999.00","Clear","clear","0","0","0","0","0","0","METAR UKKK 040730Z 26003MPS CAVOK M08/M10 Q1018 R26/850340 NOSIG"
"10:00 AM EET on December 04, 2016","2016","12","04","10","00","Europe/Kiev","8:00 AM GMT on December 04, 2016","2016","12","04","08","00","UTC","-8.0","17.6","-9.0","15.8","93","10.8","6.7","-9999.0","-9999.0","250","WSW","9.0","5.6","1019","30.09","-13.1","8.4","-9999","-9999","-9999.00","-9999.00","Unknown","unknown","0","0","0","0","0","0","METAR UKKK 040800Z 25003MPS 9000 NSC M08/M09 Q1019 R26/850340 NOSIG"
"10:30 AM EET on December 04, 2016","2016","12","04","10","30","Europe/Kiev","8:30 AM GMT on December 04, 2016","2016","12","04","08","30","UTC","-7.0","19.4","-9.0","15.8","86","10.8","6.7","-9999.0","-9999.0","260","West","9.0","5.6","1019","30.09","-11.9","10.6","-9999","-9999","-9999.00","-9999.00","Unknown","unknown","0","0","0","0","0","0","METAR UKKK 040830Z 26003MPS 9000 NSC M07/M09 Q1019 R26/850340 NOSIG"
"11:00 AM EET on December 04, 2016","2016","12","04","11","00","Europe/Kiev","9:00 AM GMT on December 04, 2016","2016","12","04","09","00","UTC","-5","23","-7","19","77","7.2","4.5","","","320","NW","20","12","1021","30.14","-999","-999","-9999","-9999","","","Scattered Clouds","partlycloudy","0","0","0","0","0","0","AAXX 04091 33345 42698 53202 11050 21074 39992 40207 53016 82179 555 1/108"
"11:00 AM EET on December 04, 2016","2016","12","04","11","00","Europe/Kiev","9:00 AM GMT on December 04, 2016","2016","12","04","09","00","UTC","-6.0","21.2","-8.0","17.6","86","10.8","6.7","-9999.0","-9999.0","280","West","10.0","6.2","1019","30.09","-10.7","12.7","-9999","-9999","-9999.00","-9999.00","Mostly Cloudy","mostlycloudy","0","0","0","0","0","0","METAR UKKK 040900Z 28003MPS 9999 SCT040 BKN200 M06/M08 Q1019 R26/850340 NOSIG"
"11:30 AM EET on December 04, 2016","2016","12","04","11","30","Europe/Kiev","9:30 AM GMT on December 04, 2016","2016","12","04","09","30","UTC","-5.0","23.0","-8.0","17.6","80","14.4","8.9","-9999.0","-9999.0","300","WNW","10.0","6.2","1019","30.09","-10.4","13.2","-9999","-9999","-9999.00","-9999.00","Mostly Cloudy","mostlycloudy","0","0","0","0","0","0","METAR UKKK 040930Z 30004MPS 9999 FEW046 BKN200 M05/M08 Q1019 R26/850340 NOSIG"
"12:00 PM EET on December 04, 2016","2016","12","04","12","00","Europe/Kiev","10:00 AM GMT on December 04, 2016","2016","12","04","10","00","UTC","-4.0","24.8","-7.0","19.4","80","18.0","11.2","-9999.0","-9999.0","300","WNW","7.0","4.3","1020","30.12","-9.9","14.2","-9999","-9999","-9999.00","-9999.00","Light Snow","snow","0","0","1","0","0","0","METAR UKKK 041000Z 30005MPS 7000 -SN SCT013 OVC033 M04/M07 Q1020 R26/850340 NOSIG"
"12:30 PM EET on December 04, 2016","2016","12","04","12","30","Europe/Kiev","10:30 AM GMT on December 04, 2016","2016","12","04","10","30","UTC","-4.0","24.8","-7.0","19.4","80","18.0","11.2","-9999.0","-9999.0","330","NNW","6.0","3.7","1020","30.12","-9.9","14.2","-9999","-9999","-9999.00","-9999.00","Light Snow","snow","0","0","1","0","0","0","METAR UKKK 041030Z 33005MPS 6000 -SN SCT013 OVC033 M04/M07 Q1020 R26/850340 NOSIG"
"1:00 PM EET on December 04, 2016","2016","12","04","13","00","Europe/Kiev","11:00 AM GMT on December 04, 2016","2016","12","04","11","00","UTC","-4.0","24.8","-7.0","19.4","80","18.0","11.2","-9999.0","-9999.0","330","NNW","6.0","3.7","1020","30.12","-9.9","14.2","-9999","-9999","-9999.00","-9999.00","Light Snow","snow","0","0","1","0","0","0","METAR UKKK 041100Z 33005MPS 6000 -SN SCT012 OVC025 M04/M07 Q1020 R26/850340 NOSIG"
"1:30 PM EET on December 04, 2016","2016","12","04","13","30","Europe/Kiev","11:30 AM GMT on December 04, 2016","2016","12","04","11","30","UTC","-4.0","24.8","-8.0","17.6","74","25.2","15.7","-9999.0","-9999.0","330","NNW","5.0","3.1","1020","30.12","-11.0","12.1","-9999","-9999","-9999.00","-9999.00","Light Snow","snow","0","0","1","0","0","0","METAR UKKK 041130Z 33007MPS 300V360 5000 -SN OVC018 M04/M08 Q1020 R26/850340 NOSIG"
"2:00 PM EET on December 04, 2016","2016","12","04","14","00","Europe/Kiev","12:00 PM GMT on December 04, 2016","2016","12","04","12","00","UTC","-4","24","-8","17","67","14.4","8.9","","","350","North","20","12","1022","30.20","-999","-999","-9999","-9999","","","Light Snow Showers","snow","0","0","1","0","0","0","AAXX 04121 33345 /1498 63504 11043 21081 30010 40225 52018 72682 84972 555 1/105 69901"
"2:00 PM EET on December 04, 2016","2016","12","04","14","00","Europe/Kiev","12:00 PM GMT on December 04, 2016","2016","12","04","12","00","UTC","-4.0","24.8","-8.0","17.6","74","21.6","13.4","-9999.0","-9999.0","310","NW","6.0","3.7","1021","30.15","-10.5","13.1","-9999","-9999","-9999.00","-9999.00","Light Snow","snow","0","0","1","0","0","0","METAR UKKK 041200Z 31006MPS 6000 -SN OVC015 M04/M08 Q1021 R26/850340 NOSIG"
"2:30 PM EET on December 04, 2016","2016","12","04","14","30","Europe/Kiev","12:30 PM GMT on December 04, 2016","2016","12","04","12","30","UTC","-5.0","23.0","-8.0","17.6","80","25.2","15.7","-9999.0","-9999.0","310","NW","7.0","4.3","1021","30.15","-12.3","9.8","-9999","-9999","-9999.00","-9999.00","Light Snow","snow","0","0","1","0","0","0","METAR UKKK 041230Z 31007MPS 7000 -SN SCT016 OVC040 M05/M08 Q1021 R26/850340 NOSIG"
"2:58 PM EET on December 04, 2016","2016","12","04","14","58","Europe/Kiev","12:58 PM GMT on December 04, 2016","2016","12","04","12","58","UTC","-5.0","23.0","-7.0","19.4","86","18.0","11.2","-9999.0","-9999.0","320","NW","1.4","0.9","1021","30.15","-11.2","11.9","-9999","-9999","-9999.00","-9999.00","Snow","snow","0","0","1","0","0","0","SPECI UKKK 041258Z 32005MPS 1400 R26/1400VP2000D SN SCT012 OVC026 M05/M07 Q1021 R26/850340 TEMPO 1000 SHSN BKN015CB"
"3:00 PM EET on December 04, 2016","2016","12","04","15","00","Europe/Kiev","1:00 PM GMT on December 04, 2016","2016","12","04","13","00","UTC","-5.0","23.0","-7.0","19.4","86","18.0","11.2","-9999.0","-9999.0","320","NW","1.3","0.8","1022","30.18","-11.2","11.9","-9999","-9999","-9999.00","-9999.00","Snow","snow","0","0","1","0","0","0","METAR UKKK 041300Z 32005MPS 1300 R26/1300VP2000D SN SCT012 OVC026 M05/M07 Q1022 R26/850340 TEMPO 1000 SHSN BKN015CB"
"3:30 PM EET on December 04, 2016","2016","12","04","15","30","Europe/Kiev","1:30 PM GMT on December 04, 2016","2016","12","04","13","30","UTC","-5.0","23.0","-7.0","19.4","86","18.0","11.2","-9999.0","-9999.0","320","NW","3.5","2.2","1022","30.18","-11.2","11.9","-9999","-9999","-9999.00","-9999.00","Light Snow","snow","0","0","1","0","0","0","METAR UKKK 041330Z 32005MPS 3500 -SN SCT010 OVC030 M05/M07 Q1022 RESN R26/850340 TEMPO 2000 SHSN BKN015CB"
"4:00 PM EET on December 04, 2016","2016","12","04","16","00","Europe/Kiev","2:00 PM GMT on December 04, 2016","2016","12","04","14","00","UTC","-5.0","23.0","-8.0","17.6","80","21.6","13.4","-9999.0","-9999.0","310","NW","-9999.0","-9999.0","1022","30.18","-11.8","10.8","-9999","-9999","-9999.00","-9999.00","Light Snow","snow","0","0","1","0","0","0","METAR UKKK 041400Z 31006MPS 3800 -SN SCT013 OVC039 M05/M08 Q1022 R26/850340 TEMPO 2000 SHSN BKN015CB"
"4:30 PM EET on December 04, 2016","2016","12","04","16","30","Europe/Kiev","2:30 PM GMT on December 04, 2016","2016","12","04","14","30","UTC","-6.0","21.2","-8.0","17.6","86","21.6","13.4","-9999.0","-9999.0","310","NW","6.0","3.7","1023","30.21","-13.1","8.5","-9999","-9999","-9999.00","-9999.00","Light Snow","snow","0","0","1","0","0","0","METAR UKKK 041430Z 31006MPS 6000 -SN SCT013 OVC039 M06/M08 Q1023 R26/490340 TEMPO 2000 SHSN BKN015CB"
"5:00 PM EET on December 04, 2016","2016","12","04","17","00","Europe/Kiev","3:00 PM GMT on December 04, 2016","2016","12","04","15","00","UTC","-5","22","-8","18","78","10.8","6.7","","","340","NNW","10","6","1025","30.27","-999","-999","-9999","-9999","","","Light Snow","snow","0","0","1","0","0","0","AAXX 04151 33345 41697 73403 11053 21078 30033 40249 52023 72287 86512 333 86634 555 1/108"
"5:00 PM EET on December 04, 2016","2016","12","04","17","00","Europe/Kiev","3:00 PM GMT on December 04, 2016","2016","12","04","15","00","UTC","-5.0","23.0","-8.0","17.6","80","21.6","13.4","-9999.0","-9999.0","310","NW","9.0","5.6","1023","30.21","-11.8","10.8","-9999","-9999","-9999.00","-9999.00","Light Snow","snow","0","0","1","0","0","0","METAR UKKK 041500Z 31006MPS 9000 -SN SCT013 OVC036 M05/M08 Q1023 R26/490340 NOSIG"
"5:30 PM EET on December 04, 2016","2016","12","04","17","30","Europe/Kiev","3:30 PM GMT on December 04, 2016","2016","12","04","15","30","UTC","-5.0","23.0","-8.0","17.6","80","21.6","13.4","-9999.0","-9999.0","310","NW","10.0","6.2","1024","30.24","-11.8","10.8","-9999","-9999","-9999.00","-9999.00","Light Snow","snow","0","0","1","0","0","0","METAR UKKK 041530Z 31006MPS 9999 -SN OVC038 M05/M08 Q1024 R26/490340 NOSIG"
"6:00 PM EET on December 04, 2016","2016","12","04","18","00","Europe/Kiev","4:00 PM GMT on December 04, 2016","2016","12","04","16","00","UTC","-5.0","23.0","-9.0","15.8","74","21.6","13.4","-9999.0","-9999.0","320","NW","9.0","5.6","1024","30.24","-11.8","10.8","-9999","-9999","-9999.00","-9999.00","Light Snow","snow","0","0","1","0","0","0","METAR UKKK 041600Z 32006MPS 9000 -SN OVC038 M05/M09 Q1024 R26/490340 NOSIG"
"6:30 PM EET on December 04, 2016","2016","12","04","18","30","Europe/Kiev","4:30 PM GMT on December 04, 2016","2016","12","04","16","30","UTC","-5.0","23.0","-8.0","17.6","80","25.2","15.7","-9999.0","-9999.0","320","NW","8.0","5.0","1024","30.24","-12.3","9.8","-9999","-9999","-9999.00","-9999.00","Light Snow","snow","0","0","1","0","0","0","METAR UKKK 041630Z 32007MPS 8000 -SN OVC030 M05/M08 Q1024 R26/490340 NOSIG"
"7:00 PM EET on December 04, 2016","2016","12","04","19","00","Europe/Kiev","5:00 PM GMT on December 04, 2016","2016","12","04","17","00","UTC","-5.0","23.0","-9.0","15.8","74","21.6","13.4","-9999.0","-9999.0","320","NW","9.0","5.6","1025","30.27","-11.8","10.8","-9999","-9999","-9999.00","-9999.00","Light Snow","snow","0","0","1","0","0","0","METAR UKKK 041700Z 32006MPS 9000 -SN OVC036 M05/M09 Q1025 R26/490340 NOSIG"
"7:30 PM EET on December 04, 2016","2016","12","04","19","30","Europe/Kiev","5:30 PM GMT on December 04, 2016","2016","12","04","17","30","UTC","-5.0","23.0","-9.0","15.8","74","21.6","13.4","-9999.0","-9999.0","320","NW","7.0","4.3","1025","30.27","-11.8","10.8","-9999","-9999","-9999.00","-9999.00","Light Snow","snow","0","0","1","0","0","0","METAR UKKK 041730Z 32006MPS 7000 -SN OVC034 M05/M09 Q1025 R26/490340 NOSIG"
"8:00 PM EET on December 04, 2016","2016","12","04","20","00","Europe/Kiev","6:00 PM GMT on December 04, 2016","2016","12","04","18","00","UTC","-5","23","-8","17","71","10.8","6.7","","","0","North","10","6","1027","30.33","-999","-999","-9999","-9999","","","Light Snow","snow","0","0","1","0","0","0","AAXX 04181 33345 11697 83603 11052 21081 30055 40271 52022 69922 72287 8652/ 333 11034 555 1/107"
"8:00 PM EET on December 04, 2016","2016","12","04","20","00","Europe/Kiev","6:00 PM GMT on December 04, 2016","2016","12","04","18","00","UTC","-5.0","23.0","-9.0","15.8","74","21.6","13.4","-9999.0","-9999.0","320","NW","9.0","5.6","1025","30.27","-11.8","10.8","-9999","-9999","-9999.00","-9999.00","Light Snow","snow","0","0","1","0","0","0","METAR UKKK 041800Z 32006MPS 9000 -SN OVC035 M05/M09 Q1025 R26/490340 NOSIG"
"8:30 PM EET on December 04, 2016","2016","12","04","20","30","Europe/Kiev","6:30 PM GMT on December 04, 2016","2016","12","04","18","30","UTC","-5.0","23.0","-9.0","15.8","74","14.4","8.9","-9999.0","-9999.0","330","NNW","9.0","5.6","1026","30.30","-10.4","13.2","-9999","-9999","-9999.00","-9999.00","Light Snow","snow","0","0","1","0","0","0","METAR UKKK 041830Z 33004MPS 9000 -SN OVC034 M05/M09 Q1026 R26/490340 NOSIG"
"9:00 PM EET on December 04, 2016","2016","12","04","21","00","Europe/Kiev","7:00 PM GMT on December 04, 2016","2016","12","04","19","00","UTC","-5.0","23.0","-10.0","14.0","68","18.0","11.2","-9999.0","-9999.0","330","NNW","10.0","6.2","1026","30.30","-11.2","11.9","-9999","-9999","-9999.00","-9999.00","Light Snow","snow","0","0","1","0","0","0","METAR UKKK 041900Z 33005MPS 300V360 9999 -SN OVC030 M05/M10 Q1026 R26/810340 NOSIG"
"9:30 PM EET on December 04, 2016","2016","12","04","21","30","Europe/Kiev","7:30 PM GMT on December 04, 2016","2016","12","04","19","30","UTC","-5.0","23.0","-10.0","14.0","68","18.0","11.2","-9999.0","-9999.0","330","NNW","9.0","5.6","1026","30.30","-11.2","11.9","-9999","-9999","-9999.00","-9999.00","Light Snow","snow","0","0","1","0","0","0","METAR UKKK 041930Z 33005MPS 9000 -SN OVC030 M05/M10 Q1026 R26/810340 NOSIG"
"10:00 PM EET on December 04, 2016","2016","12","04","22","00","Europe/Kiev","8:00 PM GMT on December 04, 2016","2016","12","04","20","00","UTC","-5.0","23.0","-10.0","14.0","68","18.0","11.2","-9999.0","-9999.0","320","NW","10.0","6.2","1027","30.33","-11.2","11.9","-9999","-9999","-9999.00","-9999.00","Light Snow","snow","0","0","1","0","0","0","METAR UKKK 042000Z 32005MPS 9999 -SN OVC021 M05/M10 Q1027 R26/810340 NOSIG"
"10:30 PM EET on December 04, 2016","2016","12","04","22","30","Europe/Kiev","8:30 PM GMT on December 04, 2016","2016","12","04","20","30","UTC","-6.0","21.2","-10.0","14.0","74","21.6","13.4","-9999.0","-9999.0","320","NW","10.0","6.2","1027","30.33","-13.1","8.5","-9999","-9999","-9999.00","-9999.00","Light Snow","snow","0","0","1","0","0","0","METAR UKKK 042030Z 32006MPS 9999 -SN OVC030 M06/M10 Q1027 R26/810340 NOSIG"
"11:00 PM EET on December 04, 2016","2016","12","04","23","00","Europe/Kiev","9:00 PM GMT on December 04, 2016","2016","12","04","21","00","UTC","-6","22","-10","14","61","14.4","8.9","","","0","North","20","12","1029","30.39","-999","-999","-9999","-9999","","","Mostly Cloudy","mostlycloudy","0","0","0","0","0","0","AAXX 04211 33345 42598 73604 11056 21099 30072 40289 52017 87500 333 87626 555 1/108"
"11:00 PM EET on December 04, 2016","2016","12","04","23","00","Europe/Kiev","9:00 PM GMT on December 04, 2016","2016","12","04","21","00","UTC","-6.0","21.2","-11.0","12.2","68","21.6","13.4","-9999.0","-9999.0","320","NW","10.0","6.2","1027","30.33","-13.1","8.5","-9999","-9999","-9999.00","-9999.00","Light Snow","snow","0","0","1","0","0","0","METAR UKKK 042100Z 32006MPS 9999 -SN OVC029 M06/M11 Q1027 R26/810340 NOSIG"
"11:30 PM EET on December 04, 2016","2016","12","04","23","30","Europe/Kiev","9:30 PM GMT on December 04, 2016","2016","12","04","21","30","UTC","-6.0","21.2","-11.0","12.2","68","21.6","13.4","-9999.0","-9999.0","320","NW","10.0","6.2","1027","30.33","-13.1","8.5","-9999","-9999","-9999.00","-9999.00","Light Snow","snow","0","0","1","0","0","0","METAR UKKK 042130Z 32006MPS 9999 -SN OVC028 M06/M11 Q1027 R26/810340 NOSIG"
"12:00 AM EET on December 05, 2016","2016","12","05","00","00","Europe/Kiev","10:00 PM GMT on December 04, 2016","2016","12","04","22","00","UTC","-6.0","21.2","-11.0","12.2","68","18.0","11.2","-9999.0","-9999.0","340","NNW","10.0","6.2","1028","30.36","-12.4","9.7","-9999","-9999","-9999.00","-9999.00","Light Snow","snow","0","0","1","0","0","0","METAR UKKK 042200Z 34005MPS 310V010 9999 -SN OVC028 M06/M11 Q1028 R26/810340 NOSIG"
"12:30 AM EET on December 05, 2016","2016","12","05","00","30","Europe/Kiev","10:30 PM GMT on December 04, 2016","2016","12","04","22","30","UTC","-6.0","21.2","-11.0","12.2","68","10.8","6.7","-9999.0","-9999.0","330","NNW","10.0","6.2","1028","30.36","-10.7","12.7","-9999","-9999","-9999.00","-9999.00","Light Snow","snow","0","0","1","0","0","0","METAR UKKK 042230Z 33003MPS 310V010 9999 -SN OVC022 M06/M11 Q1028 R26/810340 NOSIG"
"1:00 AM EET on December 05, 2016","2016","12","05","01","00","Europe/Kiev","11:00 PM GMT on December 04, 2016","2016","12","04","23","00","UTC","-6.0","21.2","-10.0","14.0","74","14.4","8.9","-9999.0","-9999.0","330","NNW","10.0","6.2","1028","30.36","-11.6","11.0","-9999","-9999","-9999.00","-9999.00","Light Snow","snow","0","0","1","0","0","0","METAR UKKK 042300Z 33004MPS 9999 -SN OVC019 M06/M10 Q1028 R26/810340 NOSIG"
"1:30 AM EET on December 05, 2016","2016","12","05","01","30","Europe/Kiev","11:30 PM GMT on December 04, 2016","2016","12","04","23","30","UTC","-6.0","21.2","-10.0","14.0","74","10.8","6.7","-9999.0","-9999.0","330","NNW","10.0","6.2","1028","30.36","-10.7","12.7","-9999","-9999","-9999.00","-9999.00","Light Snow","snow","0","0","1","0","0","0","METAR UKKK 042330Z 33003MPS 9999 -SN OVC017 M06/M10 Q1028 R26/810340 NOSIG"
"2:00 AM EET on December 05, 2016","2016","12","05","02","00","Europe/Kiev","12:00 AM GMT on December 05, 2016","2016","12","05","00","00","UTC","-6","21","-9","15","70","10.8","6.7","","","0","North","20","12","1030","30.43","-999","-999","-9999","-9999","","","Light Snow Showers","snow","0","0","1","0","0","0","AAXX 05001 33345 /1598 83603 11062 21093 30087 40305 52015 72622 889// 333 88921 555 1/107 69901"
"2:00 AM EET on December 05, 2016","2016","12","05","02","00","Europe/Kiev","12:00 AM GMT on December 05, 2016","2016","12","05","00","00","UTC","-6.0","21.2","-10.0","14.0","74","21.6","13.4","-9999.0","-9999.0","330","NNW","10.0","6.2","1029","30.39","-13.1","8.5","-9999","-9999","-9999.00","-9999.00","Light Snow","snow","0","0","1","0","0","0","METAR UKKK 050000Z 33006MPS 9999 -SN OVC021 M06/M10 Q1029 R26/810340 NOSIG"
"2:30 AM EET on December 05, 2016","2016","12","05","02","30","Europe/Kiev","12:30 AM GMT on December 05, 2016","2016","12","05","00","30","UTC","-6.0","21.2","-10.0","14.0","74","18.0","11.2","-9999.0","-9999.0","330","NNW","10.0","6.2","1029","30.39","-12.4","9.7","-9999","-9999","-9999.00","-9999.00","Light Snow","snow","0","0","1","0","0","0","METAR UKKK 050030Z 33005MPS 9999 -SN OVC022 M06/M10 Q1029 R26/810340 NOSIG"
"3:00 AM EET on December 05, 2016","2016","12","05","03","00","Europe/Kiev","1:00 AM GMT on December 05, 2016","2016","12","05","01","00","UTC","-7.0","19.4","-11.0","12.2","74","18.0","11.2","-9999.0","-9999.0","330","NNW","10.0","6.2","1029","30.39","-13.7","7.4","-9999","-9999","-9999.00","-9999.00","Light Snow","snow","0","0","1","0","0","0","METAR UKKK 050100Z 33005MPS 9999 -SN OVC022 M07/M11 Q1029 R26/810340 NOSIG"
"3:30 AM EET on December 05, 2016","2016","12","05","03","30","Europe/Kiev","1:30 AM GMT on December 05, 2016","2016","12","05","01","30","UTC","-7.0","19.4","-11.0","12.2","74","14.4","8.9","-9999.0","-9999.0","330","NNW","10.0","6.2","1029","30.39","-12.9","8.8","-9999","-9999","-9999.00","-9999.00","Overcast","cloudy","0","0","0","0","0","0","METAR UKKK 050130Z 33004MPS 9999 OVC022 M07/M11 Q1029 R26/810340 NOSIG"
"4:00 AM EET on December 05, 2016","2016","12","05","04","00","Europe/Kiev","2:00 AM GMT on December 05, 2016","2016","12","05","02","00","UTC","-7.0","19.4","-10.0","14.0","80","10.8","6.7","-9999.0","-9999.0","320","NW","10.0","6.2","1029","30.39","-11.9","10.6","-9999","-9999","-9999.00","-9999.00","Overcast","cloudy","0","0","0","0","0","0","METAR UKKK 050200Z 32003MPS 9999 OVC021 M07/M10 Q1029 R26/810340 NOSIG"
"4:30 AM EET on December 05, 2016","2016","12","05","04","30","Europe/Kiev","2:30 AM GMT on December 05, 2016","2016","12","05","02","30","UTC","-7.0","19.4","-10.0","14.0","80","14.4","8.9","-9999.0","-9999.0","310","NW","10.0","6.2","1029","30.39","-12.9","8.8","-9999","-9999","-9999.00","-9999.00","Overcast","cloudy","0","0","0","0","0","0","METAR UKKK 050230Z 31004MPS 9999 OVC018 M07/M10 Q1029 R26/810340 NOSIG"
"5:00 AM EET on December 05, 2016","2016","12","05","05","00","Europe/Kiev","3:00 AM GMT on December 05, 2016","2016","12","05","03","00","UTC","-6","20","-10","15","71","7.2","4.5","","","330","NNW","20","12","1031","30.45","-999","-999","-9999","-9999","","","Partly Cloudy","partlycloudy","0","0","0","0","0","0","AAXX 05031 33345 41498 73302 11065 21097 30091 40309 51004 70282 86570 333 86618 555 1/109"
"5:00 AM EET on December 05, 2016","2016","12","05","05","00","Europe/Kiev","3:00 AM GMT on December 05, 2016","2016","12","05","03","00","UTC","-7.0","19.4","-11.0","12.2","74","14.4","8.9","-9999.0","-9999.0","290","WNW","10.0","6.2","1029","30.39","-12.9","8.8","-9999","-9999","-9999.00","-9999.00","Overcast","cloudy","0","0","0","0","0","0","METAR UKKK 050300Z 29004MPS 9999 OVC020 M07/M11 Q1029 R26/810340 NOSIG"
"5:30 AM EET on December 05, 2016","2016","12","05","05","30","Europe/Kiev","3:30 AM GMT on December 05, 2016","2016","12","05","03","30","UTC","-8.0","17.6","-11.0","12.2","79","14.4","8.9","-9999.0","-9999.0","290","WNW","10.0","6.2","1029","30.39","-14.1","6.6","-9999","-9999","-9999.00","-9999.00","Mostly Cloudy","mostlycloudy","0","0","0","0","0","0","METAR UKKK 050330Z 29004MPS 9999 BKN020 M08/M11 Q1029 R26/810340 NOSIG"
"6:00 AM EET on December 05, 2016","2016","12","05","06","00","Europe/Kiev","4:00 AM GMT on December 05, 2016","2016","12","05","04","00","UTC","-9.0","15.8","-11.0","12.2","86","10.8","6.7","-9999.0","-9999.0","270","West","-9999.0","-9999.0","1029","30.39","-14.3","6.2","-9999","-9999","-9999.00","-9999.00","Clear","clear","0","0","0","0","0","0","METAR UKKK 050400Z 27003MPS CAVOK M09/M11 Q1029 R26/810340 NOSIG"
"6:30 AM EET on December 05, 2016","2016","12","05","06","30","Europe/Kiev","4:30 AM GMT on December 05, 2016","2016","12","05","04","30","UTC","-10.0","14.0","-12.0","10.4","86","10.8","6.7","-9999.0","-9999.0","260","West","-9999.0","-9999.0","1029","30.39","-15.5","4.1","-9999","-9999","-9999.00","-9999.00","Clear","clear","0","0","0","0","0","0","METAR UKKK 050430Z 26003MPS CAVOK M10/M12 Q1029 R26/810340 NOSIG"
"7:00 AM EET on December 05, 2016","2016","12","05","07","00","Europe/Kiev","5:00 AM GMT on December 05, 2016","2016","12","05","05","00","UTC","-10.0","14.0","-12.0","10.4","86","10.8","6.7","-9999.0","-9999.0","260","West","-9999.0","-9999.0","1029","30.39","-15.5","4.1","-9999","-9999","-9999.00","-9999.00","Clear","clear","0","0","0","0","0","0","METAR UKKK 050500Z 26003MPS CAVOK M10/M12 Q1029 R26/810340 NOSIG"
"7:30 AM EET on December 05, 2016","2016","12","05","07","30","Europe/Kiev","5:30 AM GMT on December 05, 2016","2016","12","05","05","30","UTC","-10.0","14.0","-12.0","10.4","86","14.4","8.9","-9999.0","-9999.0","260","West","10.0","6.2","1029","30.39","-16.6","2.2","-9999","-9999","-9999.00","-9999.00","Scattered Clouds","partlycloudy","0","0","0","0","0","0","METAR UKKK 050530Z 26004MPS 9999 SCT004 M10/M12 Q1029 R26/810340 TEMPO BKN003"
"7:40 AM EET on December 05, 2016","2016","12","05","07","40","Europe/Kiev","5:40 AM GMT on December 05, 2016","2016","12","05","05","40","UTC","-10.0","14.0","-11.0","12.2","93","14.4","8.9","-9999.0","-9999.0","250","WSW","10.0","6.2","1029","30.39","-16.6","2.2","-9999","-9999","-9999.00","-9999.00","Mostly Cloudy","mostlycloudy","0","0","0","0","0","0","SPECI UKKK 050540Z 25004MPS 9999 BKN004 M10/M11 Q1029 R26/810340 TEMPO BKN003"
"8:00 AM EET on December 05, 2016","2016","12","05","08","00","Europe/Kiev","6:00 AM GMT on December 05, 2016","2016","12","05","06","00","UTC","-10","15","-11","12","82","14.4","8.9","","","300","WNW","10","6","1031","30.45","-999","-999","-9999","-9999","","","Partly Cloudy","partlycloudy","0","0","0","0","0","0","AAXX 05061 33345 11597 43004 11095 21111 30091 40312 50000 69902 70281 82585 333 21096 47014 555 1/115"
"8:00 AM EET on December 05, 2016","2016","12","05","08","00","Europe/Kiev","6:00 AM GMT on December 05, 2016","2016","12","05","06","00","UTC","-10.0","14.0","-12.0","10.4","86","18.0","11.2","-9999.0","-9999.0","260","West","8.0","5.0","1029","30.39","-17.4","0.7","-9999","-9999","-9999.00","-9999.00","Mostly Cloudy","mostlycloudy","0","0","0","0","0","0","METAR UKKK 050600Z 26005MPS 8000 BKN003 M10/M12 Q1029 R26/810340 TEMPO BKN003"
"8:30 AM EET on December 05, 2016","2016","12","05","08","30","Europe/Kiev","6:30 AM GMT on December 05, 2016","2016","12","05","06","30","UTC","-10.0","14.0","-12.0","10.4","86","18.0","11.2","-9999.0","-9999.0","260","West","6.0","3.7","1029","30.39","-17.4","0.7","-9999","-9999","-9999.00","-9999.00","Mostly Cloudy","mostlycloudy","0","0","0","0","0","0","METAR UKKK 050630Z 26005MPS 6000 BKN003 M10/M12 Q1029 R26/810340 TEMPO 1400 BR BKN002"
"9:00 AM EET on December 05, 2016","2016","12","05","09","00","Europe/Kiev","7:00 AM GMT on December 05, 2016","2016","12","05","07","00","UTC","-10.0","14.0","-11.0","12.2","93","14.4","8.9","-9999.0","-9999.0","250","WSW","9.0","5.6","1029","30.39","-16.6","2.2","-9999","-9999","-9999.00","-9999.00","Mostly Cloudy","mostlycloudy","0","0","0","0","0","0","METAR UKKK 050700Z 25004MPS 9000 FEW004 BKN100 M10/M11 Q1029 R26/810340 TEMPO 1400 BR BKN002"
"9:30 AM EET on December 05, 2016","2016","12","05","09","30","Europe/Kiev","7:30 AM GMT on December 05, 2016","2016","12","05","07","30","UTC","-10.0","14.0","-11.0","12.2","93","18.0","11.2","-9999.0","-9999.0","250","WSW","10.0","6.2","1029","30.39","-17.4","0.7","-9999","-9999","-9999.00","-9999.00","Light Snow","snow","0","0","1","0","0","0","METAR UKKK 050730Z 25005MPS 9999 -SN BKN021 BKN100 M10/M11 Q1029 R26/810340 NOSIG"
"10:00 AM EET on December 05, 2016","2016","12","05","10","00","Europe/Kiev","8:00 AM GMT on December 05, 2016","2016","12","05","08","00","UTC","-9.0","15.8","-11.0","12.2","86","14.4","8.9","-9999.0","-9999.0","240","WSW","10.0","6.2","1029","30.39","-15.3","4.4","-9999","-9999","-9999.00","-9999.00","Mostly Cloudy","mostlycloudy","0","0","0","0","0","0","METAR UKKK 050800Z 24004MPS 9999 FEW026 BKN079 M09/M11 Q1029 R26/810340 NOSIG"
"10:30 AM EET on December 05, 2016","2016","12","05","10","30","Europe/Kiev","8:30 AM GMT on December 05, 2016","2016","12","05","08","30","UTC","-9.0","15.8","-10.0","14.0","93","18.0","11.2","-9999.0","-9999.0","240","WSW","-9999.0","-9999.0","1028","30.36","-16.2","2.9","-9999","-9999","-9999.00","-9999.00","Clear","clear","0","0","0","0","0","0","METAR UKKK 050830Z 24005MPS CAVOK M09/M10 Q1028 R26/810340 NOSIG"
"11:00 AM EET on December 05, 2016","2016","12","05","11","00","Europe/Kiev","9:00 AM GMT on December 05, 2016","2016","12","05","09","00","UTC","-8","18","-10","13","73","14.4","8.9","","","260","West","20","12","1030","30.41","-999","-999","-9999","-9999","","","Overcast","cloudy","0","0","0","0","0","0","AAXX 05091 33345 42998 82604 11075 21105 30079 40298 57012 8807/ 555 1/107"
"11:00 AM EET on December 05, 2016","2016","12","05","11","00","Europe/Kiev","9:00 AM GMT on December 05, 2016","2016","12","05","09","00","UTC","-8.0","17.6","-10.0","14.0","86","18.0","11.2","-9999.0","-9999.0","240","WSW","-9999.0","-9999.0","1028","30.36","-14.9","5.2","-9999","-9999","-9999.00","-9999.00","Clear","clear","0","0","0","0","0","0","METAR UKKK 050900Z 24005MPS CAVOK M08/M10 Q1028 R26/810340 NOSIG"
"11:30 AM EET on December 05, 2016","2016","12","05","11","30","Europe/Kiev","9:30 AM GMT on December 05, 2016","2016","12","05","09","30","UTC","-7.0","19.4","-10.0","14.0","80","18.0","11.2","-9999.0","-9999.0","250","WSW","-9999.0","-9999.0","1027","30.33","-13.7","7.4","-9999","-9999","-9999.00","-9999.00","Clear","clear","0","0","0","0","0","0","METAR UKKK 050930Z 25005MPS CAVOK M07/M10 Q1027 R26/810340 NOSIG"
"12:00 PM EET on December 05, 2016","2016","12","05","12","00","Europe/Kiev","10:00 AM GMT on December 05, 2016","2016","12","05","10","00","UTC","-6.0","21.2","-10.0","14.0","74","21.6","13.4","-9999.0","-9999.0","250","WSW","-9999.0","-9999.0","1026","30.30","-13.1","8.5","-9999","-9999","-9999.00","-9999.00","Clear","clear","0","0","0","0","0","0","METAR UKKK 051000Z 25006MPS CAVOK M06/M10 Q1026 R26/810350 NOSIG"
"12:30 PM EET on December 05, 2016","2016","12","05","12","30","Europe/Kiev","10:30 AM GMT on December 05, 2016","2016","12","05","10","30","UTC","-6.0","21.2","-10.0","14.0","74","21.6","13.4","-9999.0","-9999.0","250","WSW","-9999.0","-9999.0","1026","30.30","-13.1","8.5","-9999","-9999","-9999.00","-9999.00","Clear","clear","0","0","0","0","0","0","METAR UKKK 051030Z 25006MPS CAVOK M06/M10 Q1026 R26/810350 NOSIG"
"1:00 PM EET on December 05, 2016","2016","12","05","13","00","Europe/Kiev","11:00 AM GMT on December 05, 2016","2016","12","05","11","00","UTC","-5.0","23.0","-9.0","15.8","74","21.6","13.4","-9999.0","-9999.0","250","WSW","-9999.0","-9999.0","1025","30.27","-11.8","10.8","-9999","-9999","-9999.00","-9999.00","Clear","clear","0","0","0","0","0","0","METAR UKKK 051100Z 25006MPS CAVOK M05/M09 Q1025 R26/810350 NOSIG"
"1:30 PM EET on December 05, 2016","2016","12","05","13","30","Europe/Kiev","11:30 AM GMT on December 05, 2016","2016","12","05","11","30","UTC","-5.0","23.0","-9.0","15.8","74","25.2","15.7","-9999.0","-9999.0","240","WSW","-9999.0","-9999.0","1025","30.27","-12.3","9.8","-9999","-9999","-9999.00","-9999.00","Clear","clear","0","0","0","0","0","0","METAR UKKK 051130Z 24007MPS CAVOK M05/M09 Q1025 R26/810350 NOSIG"
"2:00 PM EET on December 05, 2016","2016","12","05","14","00","Europe/Kiev","12:00 PM GMT on December 05, 2016","2016","12","05","12","00","UTC","-3","26","-8","18","63","21.6","13.4","","","270","West","20","12","1026","30.29","-999","-999","-9999","-9999","","","Scattered Clouds","partlycloudy","0","0","0","0","0","0","AAXX 05121 33345 32998 42706 11032 21075 30043 40257 57036 82034 555 1/105"
"2:00 PM EET on December 05, 2016","2016","12","05","14","00","Europe/Kiev","12:00 PM GMT on December 05, 2016","2016","12","05","12","00","UTC","-4.0","24.8","-8.0","17.6","74","21.6","13.4","-9999.0","-9999.0","240","WSW","10.0","6.2","1024","30.24","-10.5","13.1","-9999","-9999","-9999.00","-9999.00","Scattered Clouds","partlycloudy","0","0","0","0","0","0","METAR UKKK 051200Z 24006MPS 9999 FEW016 SCT200 M04/M08 Q1024 R26/810350 NOSIG"
"2:30 PM EET on December 05, 2016","2016","12","05","14","30","Europe/Kiev","12:30 PM GMT on December 05, 2016","2016","12","05","12","30","UTC","-4.0","24.8","-8.0","17.6","74","25.2","15.7","-9999.0","-9999.0","250","WSW","10.0","6.2","1024","30.24","-11.0","12.1","-9999","-9999","-9999.00","-9999.00","Scattered Clouds","partlycloudy","0","0","0","0","0","0","METAR UKKK 051230Z 25007MPS 9999 FEW016 SCT200 M04/M08 Q1024 R26/810350 NOSIG"
"3:00 PM EET on December 05, 2016","2016","12","05","15","00","Europe/Kiev","1:00 PM GMT on December 05, 2016","2016","12","05","13","00","UTC","-4.0","24.8","-8.0","17.6","74","28.8","17.9","-9999.0","-9999.0","250","WSW","-9999.0","-9999.0","1023","30.21","-11.5","11.3","-9999","-9999","-9999.00","-9999.00","Clear","clear","0","0","0","0","0","0","METAR UKKK 051300Z 25008MPS CAVOK M04/M08 Q1023 R26/810350 NOSIG"
"3:30 PM EET on December 05, 2016","2016","12","05","15","30","Europe/Kiev","1:30 PM GMT on December 05, 2016","2016","12","05","13","30","UTC","-4.0","24.8","-8.0","17.6","74","21.6","13.4","-9999.0","-9999.0","250","WSW","-9999.0","-9999.0","1023","30.21","-10.5","13.1","-9999","-9999","-9999.00","-9999.00","Clear","clear","0","0","0","0","0","0","METAR UKKK 051330Z 25006MPS CAVOK M04/M08 Q1023 R26/810350 NOSIG"
"4:00 PM EET on December 05, 2016","2016","12","05","16","00","Europe/Kiev","2:00 PM GMT on December 05, 2016","2016","12","05","14","00","UTC","-4.0","24.8","-8.0","17.6","74","21.6","13.4","-9999.0","-9999.0","250","WSW","-9999.0","-9999.0","1023","30.21","-10.5","13.1","-9999","-9999","-9999.00","-9999.00","Clear","clear","0","0","0","0","0","0","METAR UKKK 051400Z 25006MPS CAVOK M04/M08 Q1023 R26/810350 NOSIG"
"4:30 PM EET on December 05, 2016","2016","12","05","16","30","Europe/Kiev","2:30 PM GMT on December 05, 2016","2016","12","05","14","30","UTC","-4.0","24.8","-8.0","17.6","74","21.6","13.4","-9999.0","-9999.0","250","WSW","-9999.0","-9999.0","1022","30.18","-10.5","13.1","-9999","-9999","-9999.00","-9999.00","Clear","clear","0","0","0","0","0","0","METAR UKKK 051430Z 25006MPS CAVOK M04/M08 Q1022 R26/810350 NOSIG"
"5:00 PM EET on December 05, 2016","2016","12","05","17","00","Europe/Kiev","3:00 PM GMT on December 05, 2016","2016","12","05","15","00","UTC","-4","24","-8","18","71","21.6","13.4","","","270","West","20","12","1024","30.23","-999","-999","-9999","-9999","","","Low Drifting Snow","snow","0","0","1","0","0","0","AAXX 05151 33345 41998 62706 11044 21075 30022 40237 57021 73631 80005 555 1/109"
"5:00 PM EET on December 05, 2016","2016","12","05","17","00","Europe/Kiev","3:00 PM GMT on December 05, 2016","2016","12","05","15","00","UTC","-4.0","24.8","-8.0","17.6","74","25.2","15.7","-9999.0","-9999.0","250","WSW","-9999.0","-9999.0","1022","30.18","-11.0","12.1","-9999","-9999","-9999.00","-9999.00","Clear","clear","0","0","0","0","0","0","METAR UKKK 051500Z 25007MPS CAVOK M04/M08 Q1022 R26/810350 NOSIG"
"5:30 PM EET on December 05, 2016","2016","12","05","17","30","Europe/Kiev","3:30 PM GMT on December 05, 2016","2016","12","05","15","30","UTC","-4.0","24.8","-8.0","17.6","74","28.8","17.9","-9999.0","-9999.0","250","WSW","-9999.0","-9999.0","1022","30.18","-11.5","11.3","-9999","-9999","-9999.00","-9999.00","Clear","clear","0","0","0","0","0","0","METAR UKKK 051530Z 25008MPS CAVOK M04/M08 Q1022 R26/810350 NOSIG"
"6:00 PM EET on December 05, 2016","2016","12","05","18","00","Europe/Kiev","4:00 PM GMT on December 05, 2016","2016","12","05","16","00","UTC","-4.0","24.8","-8.0","17.6","74","28.8","17.9","-9999.0","-9999.0","260","West","-9999.0","-9999.0","1021","30.15","-11.5","11.3","-9999","-9999","-9999.00","-9999.00","Clear","clear","0","0","0","0","0","0","METAR UKKK 051600Z 26008MPS CAVOK M04/M08 Q1021 R26/810350 NOSIG"
"6:30 PM EET on December 05, 2016","2016","12","05","18","30","Europe/Kiev","4:30 PM GMT on December 05, 2016","2016","12","05","16","30","UTC","-4.0","24.8","-8.0","17.6","74","28.8","17.9","-9999.0","-9999.0","260","West","-9999.0","-9999.0","1021","30.15","-11.5","11.3","-9999","-9999","-9999.00","-9999.00","Clear","clear","0","0","0","0","0","0","METAR UKKK 051630Z 26008MPS CAVOK M04/M08 Q1021 R26/810350 NOSIG"
"7:00 PM EET on December 05, 2016","2016","12","05","19","00","Europe/Kiev","5:00 PM GMT on December 05, 2016","2016","12","05","17","00","UTC","-4.0","24.8","-7.0","19.4","80","32.4","20.1","-9999.0","-9999.0","260","West","-9999.0","-9999.0","1020","30.12","-11.9","10.5","-9999","-9999","-9999.00","-9999.00","Clear","clear","0","0","0","0","0","0","METAR UKKK 051700Z 26009MPS CAVOK M04/M07 Q1020 R26/810350 NOSIG"
"7:30 PM EET on December 05, 2016","2016","12","05","19","30","Europe/Kiev","5:30 PM GMT on December 05, 2016","2016","12","05","17","30","UTC","-4.0","24.8","-7.0","19.4","80","32.4","20.1","-9999.0","-9999.0","250","WSW","-9999.0","-9999.0","1020","30.12","-11.9","10.5","-9999","-9999","-9999.00","-9999.00","Clear","clear","0","0","0","0","0","0","METAR UKKK 051730Z 25009MPS CAVOK M04/M07 Q1020 R26/810350 NOSIG"
"8:00 PM EET on December 05, 2016","2016","12","05","20","00","Europe/Kiev","6:00 PM GMT on December 05, 2016","2016","12","05","18","00","UTC","-3","27","-7","20","64","21.6","13.4","","","280","West","20","12","1021","30.16","-999","-999","-9999","-9999","","","Low Drifting Snow","snow","0","0","1","0","0","0","AAXX 05181 33345 31998 62806 11030 21068 39999 40212 57023 73631 80005 333 11030 555 1/108"
"8:00 PM EET on December 05, 2016","2016","12","05","20","00","Europe/Kiev","6:00 PM GMT on December 05, 2016","2016","12","05","18","00","UTC","-3.0","26.6","-8.0","17.6","69","28.8","17.9","-9999.0","-9999.0","260","West","-9999.0","-9999.0","1020","30.12","-10.2","13.6","-9999","-9999","-9999.00","-9999.00","Clear","clear","0","0","0","0","0","0","METAR UKKK 051800Z 26008MPS CAVOK M03/M08 Q1020 R26/810350 NOSIG"
"8:30 PM EET on December 05, 2016","2016","12","05","20","30","Europe/Kiev","6:30 PM GMT on December 05, 2016","2016","12","05","18","30","UTC","-3.0","26.6","-8.0","17.6","69","28.8","17.9","-9999.0","-9999.0","260","West","-9999.0","-9999.0","1019","30.09","-10.2","13.6","-9999","-9999","-9999.00","-9999.00","Clear","clear","0","0","0","0","0","0","METAR UKKK 051830Z 26008MPS CAVOK M03/M08 Q1019 R26/810350 NOSIG"
"9:00 PM EET on December 05, 2016","2016","12","05","21","00","Europe/Kiev","7:00 PM GMT on December 05, 2016","2016","12","05","19","00","UTC","-3.0","26.6","-8.0","17.6","69","28.8","17.9","-9999.0","-9999.0","260","West","-9999.0","-9999.0","1019","30.09","-10.2","13.6","-9999","-9999","-9999.00","-9999.00","Clear","clear","0","0","0","0","0","0","METAR UKKK 051900Z 26008MPS CAVOK M03/M08 Q1019 R26/810350 NOSIG"
"9:30 PM EET on December 05, 2016","2016","12","05","21","30","Europe/Kiev","7:30 PM GMT on December 05, 2016","2016","12","05","19","30","UTC","-3.0","26.6","-8.0","17.6","69","28.8","17.9","-9999.0","-9999.0","260","West","-9999.0","-9999.0","1018","30.06","-10.2","13.6","-9999","-9999","-9999.00","-9999.00","Clear","clear","0","0","0","0","0","0","METAR UKKK 051930Z 26008MPS CAVOK M03/M08 Q1018 R26/810350 NOSIG"
"10:00 PM EET on December 05, 2016","2016","12","05","22","00","Europe/Kiev","8:00 PM GMT on December 05, 2016","2016","12","05","20","00","UTC","-3.0","26.6","-8.0","17.6","69","32.4","20.1","-9999.0","-9999.0","260","West","-9999.0","-9999.0","1018","30.06","-10.6","12.9","-9999","-9999","-9999.00","-9999.00","Clear","clear","0","0","0","0","0","0","METAR UKKK 052000Z 26009MPS CAVOK M03/M08 Q1018 R26/810350 NOSIG"
"10:30 PM EET on December 05, 2016","2016","12","05","22","30","Europe/Kiev","8:30 PM GMT on December 05, 2016","2016","12","05","20","30","UTC","-3.0","26.6","-8.0","17.6","69","28.8","17.9","-9999.0","-9999.0","260","West","-9999.0","-9999.0","1018","30.06","-10.2","13.6","-9999","-9999","-9999.00","-9999.00","Clear","clear","0","0","0","0","0","0","METAR UKKK 052030Z 26008MPS CAVOK M03/M08 Q1018 R26/810350 NOSIG"
"11:00 PM EET on December 05, 2016","2016","12","05","23","00","Europe/Kiev","9:00 PM GMT on December 05, 2016","2016","12","05","21","00","UTC","-3","27","-8","17","54","21.6","13.4","","","280","West","20","12","1019","30.10","-999","-999","-9999","-9999","","","Low Drifting Snow","snow","0","0","1","0","0","0","AAXX 05211 33345 41998 22806 11027 21084 39979 40192 57020 73631 80004 555 1/108"
"11:00 PM EET on December 05, 2016","2016","12","05","23","00","Europe/Kiev","9:00 PM GMT on December 05, 2016","2016","12","05","21","00","UTC","-3.0","26.6","-8.0","17.6","69","28.8","17.9","-9999.0","-9999.0","260","West","-9999.0","-9999.0","1017","30.04","-10.2","13.6","-9999","-9999","-9999.00","-9999.00","Clear","clear","0","0","0","0","0","0","METAR UKKK 052100Z 26008MPS CAVOK M03/M08 Q1017 R26/810350 NOSIG"
"11:30 PM EET on December 05, 2016","2016","12","05","23","30","Europe/Kiev","9:30 PM GMT on December 05, 2016","2016","12","05","21","30","UTC","-3.0","26.6","-9.0","15.8","64","28.8","17.9","-9999.0","-9999.0","260","West","-9999.0","-9999.0","1017","30.04","-10.2","13.6","-9999","-9999","-9999.00","-9999.00","Clear","clear","0","0","0","0","0","0","METAR UKKK 052130Z 26008MPS CAVOK M03/M09 Q1017 R26/810350 NOSIG"
"12:00 AM EET on December 06, 2016","2016","12","06","00","00","Europe/Kiev","10:00 PM GMT on December 05, 2016","2016","12","05","22","00","UTC","-3.0","26.6","-9.0","15.8","64","28.8","17.9","-9999.0","-9999.0","260","West","-9999.0","-9999.0","1017","30.04","-10.2","13.6","-9999","-9999","-9999.00","-9999.00","Clear","clear","0","0","0","0","0","0","METAR UKKK 052200Z 26008MPS CAVOK M03/M09 Q1017 R26/810350 NOSIG"
"12:30 AM EET on December 06, 2016","2016","12","06","00","30","Europe/Kiev","10:30 PM GMT on December 05, 2016","2016","12","05","22","30","UTC","-3.0","26.6","-9.0","15.8","64","28.8","17.9","-9999.0","-9999.0","260","West","-9999.0","-9999.0","1017","30.04","-10.2","13.6","-9999","-9999","-9999.00","-9999.00","Clear","clear","0","0","0","0","0","0","METAR UKKK 052230Z 26008MPS CAVOK M03/M09 Q1017 R26/810350 NOSIG"
"1:00 AM EET on December 06, 2016","2016","12","06","01","00","Europe/Kiev","11:00 PM GMT on December 05, 2016","2016","12","05","23","00","UTC","-3.0","26.6","-9.0","15.8","64","32.4","20.1","-9999.0","-9999.0","260","West","-9999.0","-9999.0","1016","30.01","-10.6","12.9","-9999","-9999","-9999.00","-9999.00","Clear","clear","0","0","0","0","0","0","METAR UKKK 052300Z 26009MPS CAVOK M03/M09 Q1016 R26/810350 NOSIG"
"1:30 AM EET on December 06, 2016","2016","12","06","01","30","Europe/Kiev","11:30 PM GMT on December 05, 2016","2016","12","05","23","30","UTC","-3.0","26.6","-9.0","15.8","64","32.4","20.1","-9999.0","-9999.0","260","West","-9999.0","-9999.0","1016","30.01","-10.6","12.9","-9999","-9999","-9999.00","-9999.00","Clear","clear","0","0","0","0","0","0","METAR UKKK 052330Z 26009MPS CAVOK M03/M09 Q1016 R26/810350 NOSIG"
"2:00 AM EET on December 06, 2016","2016","12","06","02","00","Europe/Kiev","12:00 AM GMT on December 06, 2016","2016","12","06","00","00","UTC","-2","28","-8","17","50","18.0","11.2","","","290","WNW","20","12","1017","30.04","-999","-999","-9999","-9999","","","Low Drifting Snow","snow","0","0","1","0","0","0","AAXX 06001 33345 31998 22905 11025 21085 39960 40172 57019 73631 80001 555 1/107"
"2:00 AM EET on December 06, 2016","2016","12","06","02","00","Europe/Kiev","12:00 AM GMT on December 06, 2016","2016","12","06","00","00","UTC","-3.0","26.6","-9.0","15.8","64","32.4","20.1","-9999.0","-9999.0","260","West","-9999.0","-9999.0","1016","30.01","-10.6","12.9","-9999","-9999","-9999.00","-9999.00","Clear","clear","0","0","0","0","0","0","METAR UKKK 060000Z 26009MPS CAVOK M03/M09 Q1016 R26/810350 NOSIG"
"2:30 AM EET on December 06, 2016","2016","12","06","02","30","Europe/Kiev","12:30 AM GMT on December 06, 2016","2016","12","06","00","30","UTC","-3.0","26.6","-9.0","15.8","64","32.4","20.1","-9999.0","-9999.0","260","West","-9999.0","-9999.0","1016","30.01","-10.6","12.9","-9999","-9999","-9999.00","-9999.00","Clear","clear","0","0","0","0","0","0","METAR UKKK 060030Z 26009MPS CAVOK M03/M09 Q1016 R26/810350 NOSIG"
"3:00 AM EET on December 06, 2016","2016","12","06","03","00","Europe/Kiev","1:00 AM GMT on December 06, 2016","2016","12","06","01","00","UTC","-3.0","26.6","-9.0","15.8","64","32.4","20.1","-9999.0","-9999.0","260","West","-9999.0","-9999.0","1015","29.98","-10.6","12.9","-9999","-9999","-9999.00","-9999.00","Clear","clear","0","0","0","0","0","0","METAR UKKK 060100Z 26009MPS CAVOK M03/M09 Q1015 R26/810350 NOSIG"
"3:30 AM EET on December 06, 2016","2016","12","06","03","30","Europe/Kiev","1:30 AM GMT on December 06, 2016","2016","12","06","01","30","UTC","-3.0","26.6","-9.0","15.8","64","32.4","20.1","-9999.0","-9999.0","270","West","10.0","6.2","1015","29.98","-10.6","12.9","-9999","-9999","-9999.00","-9999.00","Mostly Cloudy","mostlycloudy","0","0","0","0","0","0","METAR UKKK 060130Z 27009MPS 9999 SCT020 BKN200 M03/M09 Q1015 R26/810350 NOSIG"
"4:00 AM EET on December 06, 2016","2016","12","06","04","00","Europe/Kiev","2:00 AM GMT on December 06, 2016","2016","12","06","02","00","UTC","-3.0","26.6","-9.0","15.8","64","28.8","17.9","-9999.0","-9999.0","260","West","10.0","6.2","1015","29.98","-10.2","13.6","-9999","-9999","-9999.00","-9999.00","Mostly Cloudy","mostlycloudy","0","0","0","0","0","0","METAR UKKK 060200Z 26008MPS 9999 FEW026 BKN200 M03/M09 Q1015 R26/810350 NOSIG"
"4:30 AM EET on December 06, 2016","2016","12","06","04","30","Europe/Kiev","2:30 AM GMT on December 06, 2016","2016","12","06","02","30","UTC","-3.0","26.6","-9.0","15.8","64","28.8","17.9","-9999.0","-9999.0","270","West","10.0","6.2","1015","29.98","-10.2","13.6","-9999","-9999","-9999.00","-9999.00","Mostly Cloudy","mostlycloudy","0","0","0","0","0","0","METAR UKKK 060230Z 27008MPS 9999 FEW026 BKN200 M03/M09 Q1015 R26/810350 NOSIG"
"5:00 AM EET on December 06, 2016","2016","12","06","05","00","Europe/Kiev","3:00 AM GMT on December 06, 2016","2016","12","06","03","00","UTC","-3","27","-8","17","54","21.6","13.4","","","290","WNW","20","12","1016","30.00","-999","-999","-9999","-9999","","","Partly Cloudy","partlycloudy","0","0","0","0","0","0","AAXX 06031 33345 41598 52906 11030 21084 39945 40157 57015 70231 85500 333 85628 555 1/107"
"5:00 AM EET on December 06, 2016","2016","12","06","05","00","Europe/Kiev","3:00 AM GMT on December 06, 2016","2016","12","06","03","00","UTC","-3.0","26.6","-9.0","15.8","64","28.8","17.9","-9999.0","-9999.0","270","West","10.0","6.2","1014","29.95","-10.2","13.6","-9999","-9999","-9999.00","-9999.00","Mostly Cloudy","mostlycloudy","0","0","0","0","0","0","METAR UKKK 060300Z 27008MPS 9999 FEW026 BKN200 M03/M09 Q1014 R26/810350 NOSIG"
"5:30 AM EET on December 06, 2016","2016","12","06","05","30","Europe/Kiev","3:30 AM GMT on December 06, 2016","2016","12","06","03","30","UTC","-3.0","26.6","-9.0","15.8","64","28.8","17.9","-9999.0","-9999.0","260","West","-9999.0","-9999.0","1014","29.95","-10.2","13.6","-9999","-9999","-9999.00","-9999.00","Clear","clear","0","0","0","0","0","0","METAR UKKK 060330Z 26008MPS CAVOK M03/M09 Q1014 R26/810350 NOSIG"
"6:00 AM EET on December 06, 2016","2016","12","06","06","00","Europe/Kiev","4:00 AM GMT on December 06, 2016","2016","12","06","04","00","UTC","-3.0","26.6","-8.0","17.6","69","28.8","17.9","-9999.0","-9999.0","270","West","10.0","6.2","1014","29.95","-10.2","13.6","-9999","-9999","-9999.00","-9999.00","Mostly Cloudy","mostlycloudy","0","0","0","0","0","0","METAR UKKK 060400Z 27008MPS 9999 SCT019 BKN100 M03/M08 Q1014 R26/810350 NOSIG"
"6:30 AM EET on December 06, 2016","2016","12","06","06","30","Europe/Kiev","4:30 AM GMT on December 06, 2016","2016","12","06","04","30","UTC","-3.0","26.6","-8.0","17.6","69","32.4","20.1","-9999.0","-9999.0","270","West","10.0","6.2","1013","29.92","-10.6","12.9","-9999","-9999","-9999.00","-9999.00","Mostly Cloudy","mostlycloudy","0","0","0","0","0","0","METAR UKKK 060430Z 27009MPS 9999 SCT019 BKN100 M03/M08 Q1013 R26/810350 NOSIG"
"7:00 AM EET on December 06, 2016","2016","12","06","07","00","Europe/Kiev","5:00 AM GMT on December 06, 2016","2016","12","06","05","00","UTC","-3.0","26.6","-8.0","17.6","69","32.4","20.1","-9999.0","-9999.0","270","West","9.0","5.6","1013","29.92","-10.6","12.9","-9999","-9999","-9999.00","-9999.00","Light Snow Showers","snow","0","0","1","0","0","0","METAR UKKK 060500Z 27009MPS 9000 -SHSN SCT026CB BKN040 M03/M08 Q1013 R26/810350 NOSIG"
"7:30 AM EET on December 06, 2016","2016","12","06","07","30","Europe/Kiev","5:30 AM GMT on December 06, 2016","2016","12","06","05","30","UTC","-3.0","26.6","-6.0","21.2","80","28.8","17.9","-9999.0","-9999.0","270","West","8.0","5.0","1013","29.92","-10.2","13.6","-9999","-9999","-9999.00","-9999.00","Light Snow Showers","snow","0","0","1","0","0","0","METAR UKKK 060530Z 27008MPS 8000 -SHSN SCT025CB OVC036 M03/M06 Q1013 R26/810350 NOSIG"
"8:00 AM EET on December 06, 2016","2016","12","06","08","00","Europe/Kiev","6:00 AM GMT on December 06, 2016","2016","12","06","06","00","UTC","-3","26","-6","22","79","18.0","11.2","","","300","WNW","4","2","1015","29.98","-999","-999","-9999","-9999","","","Light Snow","snow","0","0","1","0","0","0","AAXX 06061 33345 11496 83005 11034 21055 39939 40151 56006 69902 77173 8872/ 333 21034 47010 88713 555 1/104"
"8:00 AM EET on December 06, 2016","2016","12","06","08","00","Europe/Kiev","6:00 AM GMT on December 06, 2016","2016","12","06","06","00","UTC","-4.0","24.8","-6.0","21.2","86","25.2","15.7","-9999.0","-9999.0","270","West","2.1","1.3","1014","29.95","-11.0","12.1","-9999","-9999","-9999.00","-9999.00","Light Snow","snow","0","0","1","0","0","0","METAR UKKK 060600Z 27007MPS 2100 -SN OVC025 M04/M06 Q1014 R26/810350 TEMPO 1700 SHSN SCT012CB"
"8:30 AM EET on December 06, 2016","2016","12","06","08","30","Europe/Kiev","6:30 AM GMT on December 06, 2016","2016","12","06","06","30","UTC","-3.0","26.6","-5.0","23.0","86","21.6","13.4","-9999.0","-9999.0","270","West","10.0","6.2","1014","29.95","-9.3","15.3","-9999","-9999","-9999.00","-9999.00","Overcast","cloudy","0","0","0","0","0","0","METAR UKKK 060630Z 27006MPS 9999 OVC023 M03/M05 Q1014 R26/810350 NOSIG"
"9:00 AM EET on December 06, 2016","2016","12","06","09","00","Europe/Kiev","7:00 AM GMT on December 06, 2016","2016","12","06","07","00","UTC","-3.0","26.6","-5.0","23.0","86","25.2","15.7","-9999.0","-9999.0","260","West","10.0","6.2","1014","29.95","-9.8","14.4","-9999","-9999","-9999.00","-9999.00","Overcast","cloudy","0","0","0","0","0","0","METAR UKKK 060700Z 26007MPS 9999 OVC025 M03/M05 Q1014 R26/810350 NOSIG"
"9:30 AM EET on December 06, 2016","2016","12","06","09","30","Europe/Kiev","7:30 AM GMT on December 06, 2016","2016","12","06","07","30","UTC","-2.0","28.4","-5.0","23.0","80","25.2","15.7","-9999.0","-9999.0","270","West","6.0","3.7","1014","29.95","-8.5","16.7","-9999","-9999","-9999.00","-9999.00","Light Snow","snow","0","0","1","0","0","0","METAR UKKK 060730Z 27007MPS 6000 -SN OVC034 M02/M05 Q1014 R26/810350 NOSIG"
"10:00 AM EET on December 06, 2016","2016","12","06","10","00","Europe/Kiev","8:00 AM GMT on December 06, 2016","2016","12","06","08","00","UTC","-2.0","28.4","-5.0","23.0","80","25.2","15.7","-9999.0","-9999.0","270","West","2.9","1.8","1014","29.95","-8.5","16.7","-9999","-9999","-9999.00","-9999.00","Light Snow","snow","0","0","1","0","0","0","METAR UKKK 060800Z 27007MPS 2900 -SN FEW011 OVC028 M02/M05 Q1014 R26/810350 TEMPO 1500 SHSN BKN005 SCT015CB"
"10:30 AM EET on December 06, 2016","2016","12","06","10","30","Europe/Kiev","8:30 AM GMT on December 06, 2016","2016","12","06","08","30","UTC","-2.0","28.4","-4.0","24.8","86","25.2","15.7","-9999.0","-9999.0","270","West","1.9","1.2","1014","29.95","-8.5","16.7","-9999","-9999","-9999.00","-9999.00","Snow","snow","0","0","1","0","0","0","METAR UKKK 060830Z 27007MPS 1900 SN SCT007 OVC030 M02/M04 Q1014 R26/810345 TEMPO 1500 SHSN BKN005 SCT015CB"
"10:50 AM EET on December 06, 2016","2016","12","06","10","50","Europe/Kiev","8:50 AM GMT on December 06, 2016","2016","12","06","08","50","UTC","-2.0","28.4","-4.0","24.8","86","25.2","15.7","-9999.0","-9999.0","270","West","2.5","1.6","1014","29.95","-8.5","16.7","-9999","-9999","-9999.00","-9999.00","Light Snow","snow","0","0","1","0","0","0","SPECI UKKK 060850Z 27007MPS 2500 -SN SCT009 OVC033 M02/M04 Q1014 RESN R26/810345 TEMPO 1500 SHSN BKN005 SCT015CB"
"11:00 AM EET on December 06, 2016","2016","12","06","11","00","Europe/Kiev","9:00 AM GMT on December 06, 2016","2016","12","06","09","00","UTC","-2","28","-4","24","81","14.4","8.9","","","310","NW","4","2","1015","29.98","-999","-999","-9999","-9999","","","Light Snow Showers","snow","0","0","1","0","0","0","AAXX 06091 33345 41596 83104 11023 21042 39941 40152 53002 78587 889// 333 88927 555 1/102"
"11:00 AM EET on December 06, 2016","2016","12","06","11","00","Europe/Kiev","9:00 AM GMT on December 06, 2016","2016","12","06","09","00","UTC","-2.0","28.4","-4.0","24.8","86","25.2","15.7","-9999.0","-9999.0","270","West","-9999.0","-9999.0","1014","29.95","-8.5","16.7","-9999","-9999","-9999.00","-9999.00","Light Snow","snow","0","0","1","0","0","0","METAR UKKK 060900Z 27007MPS 4100 -SN SCT009 OVC033 M02/M04 Q1014 R26/810345 TEMPO 1500 SHSN BKN005 SCT015CB"
"11:04 AM EET on December 06, 2016","2016","12","06","11","04","Europe/Kiev","9:04 AM GMT on December 06, 2016","2016","12","06","09","04","UTC","-2.0","28.4","-4.0","24.8","86","25.2","15.7","-9999.0","-9999.0","270","West","1.4","0.9","1014","29.95","-8.5","16.7","-9999","-9999","-9999.00","-9999.00","Snow","snow","0","0","1","0","0","0","SPECI UKKK 060904Z 27007MPS 1400 R26/1400VP2000D SN SCT009 OVC033 M02/M04 Q1014 R26/810345 TEMPO 1000 SHSN BKN005 SCT015CB"
"11:23 AM EET on December 06, 2016","2016","12","06","11","23","Europe/Kiev","9:23 AM GMT on December 06, 2016","2016","12","06","09","23","UTC","-2.0","28.4","-4.0","24.8","86","25.2","15.7","-9999.0","-9999.0","270","West","3.0","1.9","1014","29.95","-8.5","16.7","-9999","-9999","-9999.00","-9999.00","Light Snow","snow","0","0","1","0","0","0","SPECI UKKK 060923Z 27007MPS 3000 -SN SCT009 OVC033 M02/M04 Q1014 RESN R26/810345 TEMPO 1000 SHSN BKN005 SCT015CB"
"11:30 AM EET on December 06, 2016","2016","12","06","11","30","Europe/Kiev","9:30 AM GMT on December 06, 2016","2016","12","06","09","30","UTC","-2.0","28.4","-4.0","24.8","86","25.2","15.7","-9999.0","-9999.0","270","West","-9999.0","-9999.0","1014","29.95","-8.5","16.7","-9999","-9999","-9999.00","-9999.00","Light Snow","snow","0","0","1","0","0","0","METAR UKKK 060930Z 27007MPS 3800 -SN SCT009 OVC033 M02/M04 Q1014 R26/810345 TEMPO 1000 SHSN BKN005 SCT015CB"
"12:00 PM EET on December 06, 2016","2016","12","06","12","00","Europe/Kiev","10:00 AM GMT on December 06, 2016","2016","12","06","10","00","UTC","-2.0","28.4","-4.0","24.8","86","25.2","15.7","-9999.0","-9999.0","270","West","-9999.0","-9999.0","1014","29.95","-8.5","16.7","-9999","-9999","-9999.00","-9999.00","Light Snow","snow","0","0","1","0","0","0","METAR UKKK 061000Z 27007MPS 4200 -SN SCT009 OVC033 M02/M04 Q1014 R26/810345 TEMPO 1000 SHSN BKN005 SCT015CB"
"12:30 PM EET on December 06, 2016","2016","12","06","12","30","Europe/Kiev","10:30 AM GMT on December 06, 2016","2016","12","06","10","30","UTC","-2.0","28.4","-3.0","26.6","93","21.6","13.4","-9999.0","-9999.0","280","West","-9999.0","-9999.0","1014","29.95","-8.0","17.6","-9999","-9999","-9999.00","-9999.00","Light Snow","snow","0","0","1","0","0","0","METAR UKKK 061030Z 28006MPS 3100 -SN SCT010 OVC033 M02/M03 Q1014 R26/810345 TEMPO 1000 SHSN BKN005 SCT015CB"
"1:00 PM EET on December 06, 2016","2016","12","06","13","00","Europe/Kiev","11:00 AM GMT on December 06, 2016","2016","12","06","11","00","UTC","-1.0","30.2","-3.0","26.6","86","21.6","13.4","-9999.0","-9999.0","280","West","5.0","3.1","1014","29.95","-6.7","19.9","-9999","-9999","-9999.00","-9999.00","Light Snow","snow","0","0","1","0","0","0","METAR UKKK 061100Z 28006MPS 5000 -SN OVC009 M01/M03 Q1014 R26/810345 TEMPO 2000 SHSN SCT015CB"
"1:30 PM EET on December 06, 2016","2016","12","06","13","30","Europe/Kiev","11:30 AM GMT on December 06, 2016","2016","12","06","11","30","UTC","-1.0","30.2","-3.0","26.6","86","21.6","13.4","-9999.0","-9999.0","280","West","7.0","4.3","1014","29.95","-6.7","19.9","-9999","-9999","-9999.00","-9999.00","Light Snow","snow","0","0","1","0","0","0","METAR UKKK 061130Z 28006MPS 7000 -SN OVC010 M01/M03 Q1014 R26/810345 TEMPO 2000 SHSN SCT015CB"
"2:00 PM EET on December 06, 2016","2016","12","06","14","00","Europe/Kiev","12:00 PM GMT on December 06, 2016","2016","12","06","12","00","UTC","-1","31","-3","27","78","14.4","8.9","","","320","NW","10","6","1016","29.99","-999","-999","-9999","-9999","","","Light Snow Showers","snow","0","0","1","0","0","0","AAXX 06121 33345 /1497 83204 11007 21029 39945 40155 52004 72687 886// 333 88711 555 1/101 69901"
"2:00 PM EET on December 06, 2016","2016","12","06","14","00","Europe/Kiev","12:00 PM GMT on December 06, 2016","2016","12","06","12","00","UTC","-1.0","30.2","-3.0","26.6","86","25.2","15.7","-9999.0","-9999.0","300","WNW","9.0","5.6","1014","29.95","-7.2","19.1","-9999","-9999","-9999.00","-9999.00","Overcast","cloudy","0","0","0","0","0","0","METAR UKKK 061200Z 30007MPS 9000 OVC010 M01/M03 Q1014 R26/810345 NOSIG"
"2:30 PM EET on December 06, 2016","2016","12","06","14","30","Europe/Kiev","12:30 PM GMT on December 06, 2016","2016","12","06","12","30","UTC","-1.0","30.2","-3.0","26.6","86","28.8","17.9","46.8","29.1","310","NW","9.0","5.6","1015","29.98","-7.6","18.3","-9999","-9999","-9999.00","-9999.00","Overcast","cloudy","0","0","0","0","0","0","METAR UKKK 061230Z 31008G13MPS 9000 OVC011 M01/M03 Q1015 R26/810345 NOSIG"
"3:00 PM EET on December 06, 2016","2016","12","06","15","00","Europe/Kiev","1:00 PM GMT on December 06, 2016","2016","12","06","13","00","UTC","0.0","32.0","-3.0","26.6","80","25.2","15.7","-9999.0","-9999.0","300","WNW","10.0","6.2","1015","29.98","-5.9","21.4","-9999","-9999","-9999.00","-9999.00","Overcast","cloudy","0","0","0","0","0","0","METAR UKKK 061300Z 30007MPS 9999 OVC011 M00/M03 Q1015 R26/810345 NOSIG"
"3:30 PM EET on December 06, 2016","2016","12","06","15","30","Europe/Kiev","1:30 PM GMT on December 06, 2016","2016","12","06","13","30","UTC","0.0","32.0","-3.0","26.6","80","21.6","13.4","-9999.0","-9999.0","290","WNW","10.0","6.2","1015","29.98","-5.4","22.2","-9999","-9999","-9999.00","-9999.00","Mostly Cloudy","mostlycloudy","0","0","0","0","0","0","METAR UKKK 061330Z 29006MPS 9999 SCT013 BKN033 M00/M03 Q1015 R26/810345 NOSIG"
"4:00 PM EET on December 06, 2016","2016","12","06","16","00","Europe/Kiev","2:00 PM GMT on December 06, 2016","2016","12","06","14","00","UTC","0.0","32.0","-3.0","26.6","80","21.6","13.4","-9999.0","-9999.0","290","WNW","10.0","6.2","1015","29.98","-5.4","22.2","-9999","-9999","-9999.00","-9999.00","Mostly Cloudy","mostlycloudy","0","0","0","0","0","0","METAR UKKK 061400Z 29006MPS 9999 BKN025 M00/M03 Q1015 R26/810345 NOSIG"
"4:30 PM EET on December 06, 2016","2016","12","06","16","30","Europe/Kiev","2:30 PM GMT on December 06, 2016","2016","12","06","14","30","UTC","-1.0","30.2","-3.0","26.6","86","21.6","13.4","-9999.0","-9999.0","280","West","10.0","6.2","1015","29.98","-6.7","19.9","-9999","-9999","-9999.00","-9999.00","Mostly Cloudy","mostlycloudy","0","0","0","0","0","0","METAR UKKK 061430Z 28006MPS 9999 BKN025 M01/M03 Q1015 R26/810345 NOSIG"
"5:00 PM EET on December 06, 2016","2016","12","06","17","00","Europe/Kiev","3:00 PM GMT on December 06, 2016","2016","12","06","15","00","UTC","-1","31","-3","26","76","14.4","8.9","","","310","NW","20","12","1017","30.03","-999","-999","-9999","-9999","","","Mostly Cloudy","mostlycloudy","0","0","0","0","0","0","AAXX 06151 33345 42598 63104 11007 21032 39957 40167 52012 86500 333 86631 555 1/104"
"5:00 PM EET on December 06, 2016","2016","12","06","17","00","Europe/Kiev","3:00 PM GMT on December 06, 2016","2016","12","06","15","00","UTC","-1.0","30.2","-3.0","26.6","86","21.6","13.4","-9999.0","-9999.0","280","West","10.0","6.2","1015","29.98","-6.7","19.9","-9999","-9999","-9999.00","-9999.00","Mostly Cloudy","mostlycloudy","0","0","0","0","0","0","METAR UKKK 061500Z 28006MPS 9999 BKN034 M01/M03 Q1015 R26/810345 NOSIG"
"5:30 PM EET on December 06, 2016","2016","12","06","17","30","Europe/Kiev","3:30 PM GMT on December 06, 2016","2016","12","06","15","30","UTC","-1.0","30.2","-3.0","26.6","86","21.6","13.4","-9999.0","-9999.0","280","West","10.0","6.2","1016","30.01","-6.7","19.9","-9999","-9999","-9999.00","-9999.00","Mostly Cloudy","mostlycloudy","0","0","0","0","0","0","METAR UKKK 061530Z 28006MPS 9999 FEW013 BKN026 M01/M03 Q1016 R26/810345 NOSIG"
"6:00 PM EET on December 06, 2016","2016","12","06","18","00","Europe/Kiev","4:00 PM GMT on December 06, 2016","2016","12","06","16","00","UTC","-1.0","30.2","-3.0","26.6","86","21.6","13.4","-9999.0","-9999.0","280","West","6.0","3.7","1016","30.01","-6.7","19.9","-9999","-9999","-9999.00","-9999.00","Light Snow","snow","0","0","1","0","0","0","METAR UKKK 061600Z 28006MPS 6000 -SN SCT011 BKN033 M01/M03 Q1016 R26/810345 TEMPO 0400 +SHSN BKN002 BKN010CB"
"6:30 PM EET on December 06, 2016","2016","12","06","18","30","Europe/Kiev","4:30 PM GMT on December 06, 2016","2016","12","06","16","30","UTC","-1.0","30.2","-2.0","28.4","93","21.6","13.4","-9999.0","-9999.0","290","WNW","-9999.0","-9999.0","1016","30.01","-6.7","19.9","-9999","-9999","-9999.00","-9999.00","Light Snow","snow","0","0","1","0","0","0","METAR UKKK 061630Z 29006MPS 4400 -SN SCT007 OVC032 M01/M02 Q1016 R26/810345 TEMPO 0400 +SHSN BKN002 BKN010CB"
"6:54 PM EET on December 06, 2016","2016","12","06","18","54","Europe/Kiev","4:54 PM GMT on December 06, 2016","2016","12","06","16","54","UTC","-1.0","30.2","-2.0","28.4","93","21.6","13.4","-9999.0","-9999.0","310","NW","1.8","1.1","1017","30.04","-6.7","19.9","-9999","-9999","-9999.00","-9999.00","Snow","snow","0","0","1","0","0","0","SPECI UKKK 061654Z 31006MPS 1800 SN SCT007 OVC031 M01/M02 Q1017 R26/810345 TEMPO 0400 +SHSN BKN002 BKN010CB"
"7:00 PM EET on December 06, 2016","2016","12","06","19","00","Europe/Kiev","5:00 PM GMT on December 06, 2016","2016","12","06","17","00","UTC","-1.0","30.2","-2.0","28.4","93","18.0","11.2","-9999.0","-9999.0","320","NW","2.2","1.4","1017","30.04","-6.2","20.9","-9999","-9999","-9999.00","-9999.00","Light Snow","snow","0","0","1","0","0","0","METAR UKKK 061700Z 32005MPS 2200 -SN SCT007 OVC031 M01/M02 Q1017 RESN R26/810345 TEMPO 0400 +SHSN BKN002 BKN010CB"
"7:03 PM EET on December 06, 2016","2016","12","06","19","03","Europe/Kiev","5:03 PM GMT on December 06, 2016","2016","12","06","17","03","UTC","-1.0","30.2","-2.0","28.4","93","18.0","11.2","-9999.0","-9999.0","320","NW","1.4","0.9","1017","30.04","-6.2","20.9","-9999","-9999","-9999.00","-9999.00","Snow","snow","0","0","1","0","0","0","SPECI UKKK 061703Z 32005MPS 1400 R26/1900U SN SCT007 OVC031 M01/M02 Q1017 R26/810345 TEMPO 0400 +SHSN BKN002 BKN010CB"
"7:07 PM EET on December 06, 2016","2016","12","06","19","07","Europe/Kiev","5:07 PM GMT on December 06, 2016","2016","12","06","17","07","UTC","-1.0","30.2","-2.0","28.4","93","18.0","11.2","-9999.0","-9999.0","310","NW","0.9","0.6","1017","30.04","-6.2","20.9","-9999","-9999","-9999.00","-9999.00","Heavy Snow","snow","0","0","1","0","0","0","SPECI UKKK 061707Z 31005MPS 0900 R26/2000N +SN SCT003 OVC031 M01/M02 Q1017 R26/810345 TEMPO 0400 +SHSN BKN002 BKN010CB"
"7:09 PM EET on December 06, 2016","2016","12","06","19","09","Europe/Kiev","5:09 PM GMT on December 06, 2016","2016","12","06","17","09","UTC","-1.0","30.2","-2.0","28.4","93","18.0","11.2","-9999.0","-9999.0","310","NW","-9999.0","-9999.0","1017","30.04","-6.2","20.9","-9999","-9999","-9999.00","-9999.00","Heavy Snow","snow","0","0","1","0","0","0","SPECI UKKK 061709Z 31005MPS 0650 R26/1800N +SN SCT005 OVC031 M01/M02 Q1017 R26/810345 TEMPO 0400 +SHSN BKN002 BKN010CB"
"7:30 PM EET on December 06, 2016","2016","12","06","19","30","Europe/Kiev","5:30 PM GMT on December 06, 2016","2016","12","06","17","30","UTC","-1.0","30.2","-1.0","30.2","100","21.6","13.4","-9999.0","-9999.0","330","NNW","1.0","0.6","1017","30.04","-6.7","19.9","-9999","-9999","-9999.00","-9999.00","Snow Showers","snow","0","0","1","0","0","0","METAR UKKK 061730Z 33006MPS 1000 R26/1200VP2000U SHSN BKN006 BKN021CB M01/M01 Q1017 RESN R26/810345 TEMPO 0400 +SHSN BKN002 BKN010CB"
"7:42 PM EET on December 06, 2016","2016","12","06","19","42","Europe/Kiev","5:42 PM GMT on December 06, 2016","2016","12","06","17","42","UTC","-1.0","30.2","-1.0","30.2","100","18.0","11.2","-9999.0","-9999.0","340","NNW","0.8","0.5","1018","30.06","-6.2","20.9","-9999","-9999","-9999.00","-9999.00","Heavy Snow Showers","snow","0","0","1","0","0","0","SPECI UKKK 061742Z 34005MPS 0800 R26/1600VP2000D +SHSN BKN003 BKN021CB M01/M01 Q1018 R26/590335 TEMPO 0400 +SHSN BKN002 BKN010CB"
"7:44 PM EET on December 06, 2016","2016","12","06","19","44","Europe/Kiev","5:44 PM GMT on December 06, 2016","2016","12","06","17","44","UTC","-1.0","30.2","-1.0","30.2","100","18.0","11.2","-9999.0","-9999.0","350","North","-9999.0","-9999.0","1018","30.06","-6.2","20.9","-9999","-9999","-9999.00","-9999.00","Heavy Snow Showers","snow","0","0","1","0","0","0","SPECI UKKK 061744Z 35005MPS 310V030 0550 R26/1200VP2000D +SHSN BKN003 BKN021CB M01/M01 Q1018 R26/590335 TEMPO 0400 +SHSN BKN002 BKN010CB"
"8:00 PM EET on December 06, 2016","2016","12","06","20","00","Europe/Kiev","6:00 PM GMT on December 06, 2016","2016","12","06","18","00","UTC","-1","30","-3","27","85","21.6","13.4","","","30","NNE","1","1","1020","30.11","-999","-999","-9999","-9999","","","Snow","snow","0","0","1","0","0","0","AAXX 06181 33345 11394 80306 11011 21027 39985 40196 52028 69952 77372 8862/ 333 11005 88708 555 1/102"
"8:00 PM EET on December 06, 2016","2016","12","06","20","00","Europe/Kiev","6:00 PM GMT on December 06, 2016","2016","12","06","18","00","UTC","-1.0","30.2","-2.0","28.4","93","25.2","15.7","-9999.0","-9999.0","10","North","4.5","2.8","1018","30.06","-7.2","19.1","-9999","-9999","-9999.00","-9999.00","Light Snow Showers","snow","0","0","1","0","0","0","METAR UKKK 061800Z 01007MPS 4500 -SHSN BKN006 BKN021CB M01/M02 Q1018 RESHSN R26/590335 TEMPO 0400 +SHSN BKN002 BKN010CB"
"8:30 PM EET on December 06, 2016","2016","12","06","20","30","Europe/Kiev","6:30 PM GMT on December 06, 2016","2016","12","06","18","30","UTC","-2.0","28.4","-4.0","24.8","86","28.8","17.9","-9999.0","-9999.0","10","North","6.0","3.7","1019","30.09","-8.9","15.9","-9999","-9999","-9999.00","-9999.00","Light Snow","snow","0","0","1","0","0","0","METAR UKKK 061830Z 01008MPS 6000 -SN BKN010 OVC020 M02/M04 Q1019 R08/590335 TEMPO 0700 +SHSN BKN003 BKN010CB"
"8:32 PM EET on December 06, 2016","2016","12","06","20","32","Europe/Kiev","6:32 PM GMT on December 06, 2016","2016","12","06","18","32","UTC","-2.0","28.4","-4.0","24.8","86","25.2","15.7","43.2","26.8","10","North","7.0","4.3","1019","30.09","-8.5","16.7","-9999","-9999","-9999.00","-9999.00","Light Snow","snow","0","0","1","0","0","0","SPECI UKKK 061832Z 01007G12MPS 7000 -SN BKN010 OVC020 M02/M04 Q1019 R08/590335 TEMPO 0700 +SHSN BKN003 BKN010CB"
"9:00 PM EET on December 06, 2016","2016","12","06","21","00","Europe/Kiev","7:00 PM GMT on December 06, 2016","2016","12","06","19","00","UTC","-2.0","28.4","-5.0","23.0","80","28.8","17.9","-9999.0","-9999.0","360","North","9.0","5.6","1020","30.12","-8.9","15.9","-9999","-9999","-9999.00","-9999.00","Light Snow","snow","0","0","1","0","0","0","METAR UKKK 061900Z 36008MPS 9000 -SN BKN010 OVC020 M02/M05 Q1020 WS RWY08 R08/590335 TEMPO 0700 +SHSN BKN003 BKN010CB"
"9:30 PM EET on December 06, 2016","2016","12","06","21","30","Europe/Kiev","7:30 PM GMT on December 06, 2016","2016","12","06","19","30","UTC","-2.0","28.4","-6.0","21.2","74","25.2","15.7","-9999.0","-9999.0","360","North","9.0","5.6","1021","30.15","-8.5","16.7","-9999","-9999","-9999.00","-9999.00","Light Snow","snow","0","0","1","0","0","0","METAR UKKK 061930Z 36007MPS 330V030 9000 -SN BKN010 OVC020 M02/M06 Q1021 R08/590335 TEMPO 0700 +SHSN BKN003 BKN010CB"
"10:00 PM EET on December 06, 2016","2016","12","06","22","00","Europe/Kiev","8:00 PM GMT on December 06, 2016","2016","12","06","20","00","UTC","-3.0","26.6","-7.0","19.4","74","28.8","17.9","-9999.0","-9999.0","360","North","9.0","5.6","1021","30.15","-10.2","13.6","-9999","-9999","-9999.00","-9999.00","Light Snow","snow","0","0","1","0","0","0","METAR UKKK 062000Z 36008MPS 9000 -SN BKN010 OVC025 M03/M07 Q1021 R08/590335 TEMPO 2100 -SHSN SCT012CB"
"10:30 PM EET on December 06, 2016","2016","12","06","22","30","Europe/Kiev","8:30 PM GMT on December 06, 2016","2016","12","06","20","30","UTC","-4.0","24.8","-8.0","17.6","74","28.8","17.9","-9999.0","-9999.0","10","North","9.0","5.6","1022","30.18","-11.5","11.3","-9999","-9999","-9999.00","-9999.00","Overcast","cloudy","0","0","0","0","0","0","METAR UKKK 062030Z 01008MPS 9000 OVC022 M04/M08 Q1022 R08/590335 TEMPO 2100 -SHSN SCT012CB"
"10:36 PM EET on December 06, 2016","2016","12","06","22","36","Europe/Kiev","8:36 PM GMT on December 06, 2016","2016","12","06","20","36","UTC","-5.0","23.0","-9.0","15.8","74","28.8","17.9","46.8","29.1","20","NNE","8.0","5.0","1022","30.18","-12.8","8.9","-9999","-9999","-9999.00","-9999.00","Light Snow","snow","0","0","1","0","0","0","SPECI UKKK 062036Z 02008G13MPS 8000 -SN OVC026 M05/M09 Q1022 R08/590335 TEMPO 2100 -SHSN SCT012CB"
"11:00 PM EET on December 06, 2016","2016","12","06","23","00","Europe/Kiev","9:00 PM GMT on December 06, 2016","2016","12","06","21","00","UTC","-5","23","-10","15","59","18.0","11.2","","","40","NE","20","12","1025","30.27","-999","-999","-9999","-9999","","","Partly Cloudy","partlycloudy","0","0","0","0","0","0","AAXX 06211 33345 41698 50405 11051 21096 30033 40249 52048 70272 85500 555 1/107"
"11:00 PM EET on December 06, 2016","2016","12","06","23","00","Europe/Kiev","9:00 PM GMT on December 06, 2016","2016","12","06","21","00","UTC","-6.0","21.2","-10.0","14.0","74","32.4","20.1","-9999.0","-9999.0","10","North","9.0","5.6","1023","30.21","-14.6","5.8","-9999","-9999","-9999.00","-9999.00","Light Snow","snow","0","0","1","0","0","0","METAR UKKK 062100Z 01009MPS 9000 -SN OVC033 M06/M10 Q1023 R08/810335 TEMPO 36010G17MPS"
"11:30 PM EET on December 06, 2016","2016","12","06","23","30","Europe/Kiev","9:30 PM GMT on December 06, 2016","2016","12","06","21","30","UTC","-6.0","21.2","-11.0","12.2","68","28.8","17.9","-9999.0","-9999.0","20","NNE","9.0","5.6","1024","30.24","-14.1","6.6","-9999","-9999","-9999.00","-9999.00","Overcast","cloudy","0","0","0","0","0","0","METAR UKKK 062130Z 02008MPS 9000 OVC033 M06/M11 Q1024 R08/810345 TEMPO 36010G17MPS"
"12:00 AM EET on December 07, 2016","2016","12","07","00","00","Europe/Kiev","10:00 PM GMT on December 06, 2016","2016","12","06","22","00","UTC","-7.0","19.4","-11.0","12.2","74","25.2","15.7","-9999.0","-9999.0","360","North","10.0","6.2","1025","30.27","-14.9","5.2","-9999","-9999","-9999.00","-9999.00","Mostly Cloudy","mostlycloudy","0","0","0","0","0","0","METAR UKKK 062200Z 36007MPS 9999 BKN020 M07/M11 Q1025 R08/810345 TEMPO 36010G17MPS"
"12:30 AM EET on December 07, 2016","2016","12","07","00","30","Europe/Kiev","10:30 PM GMT on December 06, 2016","2016","12","06","22","30","UTC","-7.0","19.4","-11.0","12.2","74","21.6","13.4","-9999.0","-9999.0","360","North","10.0","6.2","1025","30.27","-14.3","6.2","-9999","-9999","-9999.00","-9999.00","Mostly Cloudy","mostlycloudy","0","0","0","0","0","0","METAR UKKK 062230Z 36006MPS 9999 BKN022 M07/M11 Q1025 R08/810345 TEMPO 36010G17MPS"
"1:00 AM EET on December 07, 2016","2016","12","07","01","00","Europe/Kiev","11:00 PM GMT on December 06, 2016","2016","12","06","23","00","UTC","-7.0","19.4","-11.0","12.2","74","21.6","13.4","-9999.0","-9999.0","350","North","10.0","6.2","1025","30.27","-14.3","6.2","-9999","-9999","-9999.00","-9999.00","Mostly Cloudy","mostlycloudy","0","0","0","0","0","0","METAR UKKK 062300Z 35006MPS 9999 BKN022 M07/M11 Q1025 R08/810345 TEMPO 36010G17MPS"
"1:30 AM EET on December 07, 2016","2016","12","07","01","30","Europe/Kiev","11:30 PM GMT on December 06, 2016","2016","12","06","23","30","UTC","-7.0","19.4","-11.0","12.2","74","18.0","11.2","-9999.0","-9999.0","350","North","10.0","6.2","1026","30.30","-13.7","7.4","-9999","-9999","-9999.00","-9999.00","Overcast","cloudy","0","0","0","0","0","0","METAR UKKK 062330Z 35005MPS 9999 OVC022 M07/M11 Q1026 R08/810345 TEMPO 36010G17MPS"
"2:00 AM EET on December 07, 2016","2016","12","07","02","00","Europe/Kiev","12:00 AM GMT on December 07, 2016","2016","12","07","00","00","UTC","-7","19","-11","11","62","18.0","11.2","","","40","NE","20","12","1028","30.38","-999","-999","-9999","-9999","","","Partly Cloudy","partlycloudy","0","0","0","0","0","0","AAXX 07001 33345 /1598 60405 11071 21114 30067 40285 52034 70272 86500 333 86625 555 1/109 69921"
"2:00 AM EET on December 07, 2016","2016","12","07","02","00","Europe/Kiev","12:00 AM GMT on December 07, 2016","2016","12","07","00","00","UTC","-7.0","19.4","-12.0","10.4","68","21.6","13.4","-9999.0","-9999.0","350","North","10.0","6.2","1027","30.33","-14.3","6.2","-9999","-9999","-9999.00","-9999.00","Light Snow","snow","0","0","1","0","0","0","METAR UKKK 070000Z 35006MPS 320V020 9999 -SN OVC022 M07/M12 Q1027 R08/810345 NOSIG"
"2:30 AM EET on December 07, 2016","2016","12","07","02","30","Europe/Kiev","12:30 AM GMT on December 07, 2016","2016","12","07","00","30","UTC","-8.0","17.6","-12.0","10.4","73","21.6","13.4","-9999.0","-9999.0","350","North","10.0","6.2","1027","30.33","-15.6","3.9","-9999","-9999","-9999.00","-9999.00","Overcast","cloudy","0","0","0","0","0","0","METAR UKKK 070030Z 35006MPS 9999 OVC022 M08/M12 Q1027 R08/810345 NOSIG"
"3:00 AM EET on December 07, 2016","2016","12","07","03","00","Europe/Kiev","1:00 AM GMT on December 07, 2016","2016","12","07","01","00","UTC","-8.0","17.6","-13.0","8.6","68","18.0","11.2","-9999.0","-9999.0","340","NNW","10.0","6.2","1028","30.36","-14.9","5.2","-9999","-9999","-9999.00","-9999.00","Mostly Cloudy","mostlycloudy","0","0","0","0","0","0","METAR UKKK 070100Z 34005MPS 9999 BKN015 M08/M13 Q1028 R08/810345 NOSIG"
"3:30 AM EET on December 07, 2016","2016","12","07","03","30","Europe/Kiev","1:30 AM GMT on December 07, 2016","2016","12","07","01","30","UTC","-9.0","15.8","-13.0","8.6","73","14.4","8.9","-9999.0","-9999.0","350","North","10.0","6.2","1028","30.36","-15.3","4.4","-9999","-9999","-9999.00","-9999.00","Scattered Clouds","partlycloudy","0","0","0","0","0","0","METAR UKKK 070130Z 35004MPS 9999 SCT015 M09/M13 Q1028 R26/810345 NOSIG"
"4:00 AM EET on December 07, 2016","2016","12","07","04","00","Europe/Kiev","2:00 AM GMT on December 07, 2016","2016","12","07","02","00","UTC","-9.0","15.8","-13.0","8.6","73","14.4","8.9","-9999.0","-9999.0","350","North","10.0","6.2","1029","30.39","-15.3","4.4","-9999","-9999","-9999.00","-9999.00","Scattered Clouds","partlycloudy","0","0","0","0","0","0","METAR UKKK 070200Z 35004MPS 9999 SCT017 M09/M13 Q1029 R26/810345 NOSIG"
"4:30 AM EET on December 07, 2016","2016","12","07","04","30","Europe/Kiev","2:30 AM GMT on December 07, 2016","2016","12","07","02","30","UTC","-9.0","15.8","-13.0","8.6","73","14.4","8.9","-9999.0","-9999.0","350","North","10.0","6.2","1029","30.39","-15.3","4.4","-9999","-9999","-9999.00","-9999.00","Partly Cloudy","partlycloudy","0","0","0","0","0","0","METAR UKKK 070230Z 35004MPS 9999 FEW019 M09/M13 Q1029 R26/810345 NOSIG"
"5:00 AM EET on December 07, 2016","2016","12","07","05","00","Europe/Kiev","3:00 AM GMT on December 07, 2016","2016","12","07","03","00","UTC","-9","16","-12","10","68","10.8","6.7","","","350","North","20","12","1032","30.47","-999","-999","-9999","-9999","","","","","0","0","0","0","0","0","AAXX 07031 33345 42998 03503 11088 21122 30098 40318 52031 555 1/116"
"5:00 AM EET on December 07, 2016","2016","12","07","05","00","Europe/Kiev","3:00 AM GMT on December 07, 2016","2016","12","07","03","00","UTC","-10.0","14.0","-13.0","8.6","79","18.0","11.2","-9999.0","-9999.0","330","NNW","-9999.0","-9999.0","1030","30.42","-17.4","0.7","-9999","-9999","-9999.00","-9999.00","Clear","clear","0","0","0","0","0","0","METAR UKKK 070300Z 33005MPS CAVOK M10/M13 Q1030 R26/810345 NOSIG"
"5:30 AM EET on December 07, 2016","2016","12","07","05","30","Europe/Kiev","3:30 AM GMT on December 07, 2016","2016","12","07","03","30","UTC","-10.0","14.0","-13.0","8.6","79","14.4","8.9","-9999.0","-9999.0","340","NNW","-9999.0","-9999.0","1030","30.42","-16.6","2.2","-9999","-9999","-9999.00","-9999.00","Clear","clear","0","0","0","0","0","0","METAR UKKK 070330Z 34004MPS 310V010 CAVOK M10/M13 Q1030 R26/810345 NOSIG"
"6:00 AM EET on December 07, 2016","2016","12","07","06","00","Europe/Kiev","4:00 AM GMT on December 07, 2016","2016","12","07","04","00","UTC","-10.0","14.0","-13.0","8.6","79","14.4","8.9","-9999.0","-9999.0","340","NNW","-9999.0","-9999.0","1031","30.45","-16.6","2.2","-9999","-9999","-9999.00","-9999.00","Clear","clear","0","0","0","0","0","0","METAR UKKK 070400Z 34004MPS CAVOK M10/M13 Q1031 R26/810345 NOSIG"
"6:30 AM EET on December 07, 2016","2016","12","07","06","30","Europe/Kiev","4:30 AM GMT on December 07, 2016","2016","12","07","04","30","UTC","-11.0","12.2","-13.0","8.6","85","14.4","8.9","-9999.0","-9999.0","320","NW","-9999.0","-9999.0","1031","30.45","-17.8","-0.0","-9999","-9999","-9999.00","-9999.00","Clear","clear","0","0","0","0","0","0","METAR UKKK 070430Z 32004MPS CAVOK M11/M13 Q1031 R26/810345 NOSIG"
"7:00 AM EET on December 07, 2016","2016","12","07","07","00","Europe/Kiev","5:00 AM GMT on December 07, 2016","2016","12","07","05","00","UTC","-12.0","10.4","-14.0","6.8","85","14.4","8.9","-9999.0","-9999.0","310","NW","-9999.0","-9999.0","1031","30.45","-19.0","-2.2","-9999","-9999","-9999.00","-9999.00","Clear","clear","0","0","0","0","0","0","METAR UKKK 070500Z 31004MPS CAVOK M12/M14 Q1031 R26/810345 NOSIG"
"7:30 AM EET on December 07, 2016","2016","12","07","07","30","Europe/Kiev","5:30 AM GMT on December 07, 2016","2016","12","07","05","30","UTC","-12.0","10.4","-14.0","6.8","85","14.4","8.9","-9999.0","-9999.0","280","West","-9999.0","-9999.0","1032","30.48","-19.0","-2.2","-9999","-9999","-9999.00","-9999.00","Clear","clear","0","0","0","0","0","0","METAR UKKK 070530Z 28004MPS CAVOK M12/M14 Q1032 R26/810345 NOSIG"
"8:00 AM EET on December 07, 2016","2016","12","07","08","00","Europe/Kiev","6:00 AM GMT on December 07, 2016","2016","12","07","06","00","UTC","-11","12","-13","9","81","10.8","6.7","","","320","NW","20","12","1034","30.55","-999","-999","-9999","-9999","","","","","0","0","0","0","0","0","AAXX 07061 33345 12998 03203 11109 21129 30120 40343 52022 69922 333 21109 47010 555 1/117"
"8:00 AM EET on December 07, 2016","2016","12","07","08","00","Europe/Kiev","6:00 AM GMT on December 07, 2016","2016","12","07","06","00","UTC","-12.0","10.4","-13.0","8.6","92","14.4","8.9","-9999.0","-9999.0","290","WNW","-9999.0","-9999.0","1032","30.48","-19.0","-2.2","-9999","-9999","-9999.00","-9999.00","Clear","clear","0","0","0","0","0","0","METAR UKKK 070600Z 29004MPS CAVOK M12/M13 Q1032 R26/810345 NOSIG"
"8:30 AM EET on December 07, 2016","2016","12","07","08","30","Europe/Kiev","6:30 AM GMT on December 07, 2016","2016","12","07","06","30","UTC","-11.0","12.2","-14.0","6.8","79","18.0","11.2","-9999.0","-9999.0","310","NW","-9999.0","-9999.0","1033","30.51","-18.7","-1.6","-9999","-9999","-9999.00","-9999.00","Clear","clear","0","0","0","0","0","0","METAR UKKK 070630Z 31005MPS CAVOK M11/M14 Q1033 R26/810345 NOSIG"
"9:00 AM EET on December 07, 2016","2016","12","07","09","00","Europe/Kiev","7:00 AM GMT on December 07, 2016","2016","12","07","07","00","UTC","-10.0","14.0","-13.0","8.6","79","18.0","11.2","-9999.0","-9999.0","310","NW","-9999.0","-9999.0","1033","30.51","-17.4","0.7","-9999","-9999","-9999.00","-9999.00","Clear","clear","0","0","0","0","0","0","METAR UKKK 070700Z 31005MPS CAVOK M10/M13 Q1033 R26/810345 NOSIG"
"9:30 AM EET on December 07, 2016","2016","12","07","09","30","Europe/Kiev","7:30 AM GMT on December 07, 2016","2016","12","07","07","30","UTC","-10.0","14.0","-13.0","8.6","79","21.6","13.4","-9999.0","-9999.0","310","NW","-9999.0","-9999.0","1034","30.54","-18.1","-0.6","-9999","-9999","-9999.00","-9999.00","Clear","clear","0","0","0","0","0","0","METAR UKKK 070730Z 31006MPS CAVOK M10/M13 Q1034 R26/810345 NOSIG"
"10:00 AM EET on December 07, 2016","2016","12","07","10","00","Europe/Kiev","8:00 AM GMT on December 07, 2016","2016","12","07","08","00","UTC","-9.0","15.8","-13.0","8.6","73","21.6","13.4","-9999.0","-9999.0","310","NW","-9999.0","-9999.0","1034","30.54","-16.9","1.6","-9999","-9999","-9999.00","-9999.00","Clear","clear","0","0","0","0","0","0","METAR UKKK 070800Z 31006MPS CAVOK M09/M13 Q1034 R26/810345 NOSIG"
"10:30 AM EET on December 07, 2016","2016","12","07","10","30","Europe/Kiev","8:30 AM GMT on December 07, 2016","2016","12","07","08","30","UTC","-9.0","15.8","-13.0","8.6","73","14.4","8.9","-9999.0","-9999.0","290","WNW","-9999.0","-9999.0","1035","30.57","-15.3","4.4","-9999","-9999","-9999.00","-9999.00","Clear","clear","0","0","0","0","0","0","METAR UKKK 070830Z 29004MPS CAVOK M09/M13 Q1035 R26/810345 NOSIG"
"11:00 AM EET on December 07, 2016","2016","12","07","11","00","Europe/Kiev","9:00 AM GMT on December 07, 2016","2016","12","07","09","00","UTC","-7","19","-13","8","50","10.8","6.7","","","350","North","20","12","1036","30.61","-999","-999","-9999","-9999","","","","","0","0","0","0","0","0","AAXX 07091 33345 42998 03503 11072 21131 30144 40364 52024 555 1/109"
"11:00 AM EET on December 07, 2016","2016","12","07","11","00","Europe/Kiev","9:00 AM GMT on December 07, 2016","2016","12","07","09","00","UTC","-8.0","17.6","-13.0","8.6","68","14.4","8.9","-9999.0","-9999.0","300","WNW","-9999.0","-9999.0","1035","30.57","-14.1","6.6","-9999","-9999","-9999.00","-9999.00","Clear","clear","0","0","0","0","0","0","METAR UKKK 070900Z 30004MPS CAVOK M08/M13 Q1035 R26/810345 NOSIG"
"11:30 AM EET on December 07, 2016","2016","12","07","11","30","Europe/Kiev","9:30 AM GMT on December 07, 2016","2016","12","07","09","30","UTC","-7.0","19.4","-13.0","8.6","63","14.4","8.9","-9999.0","-9999.0","290","WNW","-9999.0","-9999.0","1035","30.57","-12.9","8.8","-9999","-9999","-9999.00","-9999.00","Clear","clear","0","0","0","0","0","0","METAR UKKK 070930Z 29004MPS CAVOK M07/M13 Q1035 R26/810345 NOSIG"
"12:00 PM EET on December 07, 2016","2016","12","07","12","00","Europe/Kiev","10:00 AM GMT on December 07, 2016","2016","12","07","10","00","UTC","-7.0","19.4","-14.0","6.8","58","14.4","8.9","-9999.0","-9999.0","300","WNW","9.0","5.6","1035","30.57","-12.9","8.8","-9999","-9999","-9999.00","-9999.00","Clear","clear","0","0","0","0","0","0","METAR UKKK 071000Z 30004MPS 9000 SKC M07/M14 Q1035 R26/810345 NOSIG"
"12:30 PM EET on December 07, 2016","2016","12","07","12","30","Europe/Kiev","10:30 AM GMT on December 07, 2016","2016","12","07","10","30","UTC","-7.0","19.4","-14.0","6.8","58","18.0","11.2","-9999.0","-9999.0","300","WNW","-9999.0","-9999.0","1035","30.57","-13.7","7.4","-9999","-9999","-9999.00","-9999.00","Clear","clear","0","0","0","0","0","0","METAR UKKK 071030Z 30005MPS CAVOK M07/M14 Q1035 R26/810345 NOSIG"
"1:00 PM EET on December 07, 2016","2016","12","07","13","00","Europe/Kiev","11:00 AM GMT on December 07, 2016","2016","12","07","11","00","UTC","-7.0","19.4","-13.0","8.6","63","14.4","8.9","-9999.0","-9999.0","290","WNW","-9999.0","-9999.0","1035","30.57","-12.9","8.8","-9999","-9999","-9999.00","-9999.00","Clear","clear","0","0","0","0","0","0","METAR UKKK 071100Z 29004MPS CAVOK M07/M13 Q1035 R26/810345 NOSIG"
"1:30 PM EET on December 07, 2016","2016","12","07","13","30","Europe/Kiev","11:30 AM GMT on December 07, 2016","2016","12","07","11","30","UTC","-6.0","21.2","-14.0","6.8","54","14.4","8.9","-9999.0","-9999.0","280","West","-9999.0","-9999.0","1035","30.57","-11.6","11.0","-9999","-9999","-9999.00","-9999.00","Clear","clear","0","0","0","0","0","0","METAR UKKK 071130Z 28004MPS CAVOK M06/M14 Q1035 R26/810345 NOSIG"
"2:00 PM EET on December 07, 2016","2016","12","07","14","00","Europe/Kiev","12:00 PM GMT on December 07, 2016","2016","12","07","12","00","UTC","-5","23","-13","8","38","10.8","6.7","","","300","WNW","20","12","1036","30.61","-999","-999","-9999","-9999","","","Clear","clear","0","0","0","0","0","0","AAXX 07121 33345 32998 23003 11049 21133 30147 40365 51003 80005 555 1/108"
"2:00 PM EET on December 07, 2016","2016","12","07","14","00","Europe/Kiev","12:00 PM GMT on December 07, 2016","2016","12","07","12","00","UTC","-6.0","21.2","-14.0","6.8","54","18.0","11.2","-9999.0","-9999.0","290","WNW","-9999.0","-9999.0","1035","30.57","-12.4","9.7","-9999","-9999","-9999.00","-9999.00","Clear","clear","0","0","0","0","0","0","METAR UKKK 071200Z 29005MPS CAVOK M06/M14 Q1035 R26/810345 NOSIG"
"2:30 PM EET on December 07, 2016","2016","12","07","14","30","Europe/Kiev","12:30 PM GMT on December 07, 2016","2016","12","07","12","30","UTC","-6.0","21.2","-14.0","6.8","54","18.0","11.2","-9999.0","-9999.0","290","WNW","-9999.0","-9999.0","1035","30.57","-12.4","9.7","-9999","-9999","-9999.00","-9999.00","Clear","clear","0","0","0","0","0","0","METAR UKKK 071230Z 29005MPS CAVOK M06/M14 Q1035 R26/810345 NOSIG"
"3:00 PM EET on December 07, 2016","2016","12","07","15","00","Europe/Kiev","1:00 PM GMT on December 07, 2016","2016","12","07","13","00","UTC","-7.0","19.4","-14.0","6.8","58","18.0","11.2","-9999.0","-9999.0","270","West","-9999.0","-9999.0","1035","30.57","-13.7","7.4","-9999","-9999","-9999.00","-9999.00","Clear","clear","0","0","0","0","0","0","METAR UKKK 071300Z 27005MPS CAVOK M07/M14 Q1035 R26/810345 NOSIG"
"3:30 PM EET on December 07, 2016","2016","12","07","15","30","Europe/Kiev","1:30 PM GMT on December 07, 2016","2016","12","07","13","30","UTC","-7.0","19.4","-14.0","6.8","58","14.4","8.9","-9999.0","-9999.0","270","West","-9999.0","-9999.0","1035","30.57","-12.9","8.8","-9999","-9999","-9999.00","-9999.00","Clear","clear","0","0","0","0","0","0","METAR UKKK 071330Z 27004MPS CAVOK M07/M14 Q1035 R26/810345 NOSIG"
"4:00 PM EET on December 07, 2016","2016","12","07","16","00","Europe/Kiev","2:00 PM GMT on December 07, 2016","2016","12","07","14","00","UTC","-8.0","17.6","-14.0","6.8","63","14.4","8.9","-9999.0","-9999.0","260","West","-9999.0","-9999.0","1035","30.57","-14.1","6.6","-9999","-9999","-9999.00","-9999.00","Clear","clear","0","0","0","0","0","0","METAR UKKK 071400Z 26004MPS CAVOK M08/M14 Q1035 R26/810345 NOSIG"
"4:30 PM EET on December 07, 2016","2016","12","07","16","30","Europe/Kiev","2:30 PM GMT on December 07, 2016","2016","12","07","14","30","UTC","-8.0","17.6","-13.0","8.6","68","10.8","6.7","-9999.0","-9999.0","260","West","-9999.0","-9999.0","1035","30.57","-13.1","8.4","-9999","-9999","-9999.00","-9999.00","Clear","clear","0","0","0","0","0","0","METAR UKKK 071430Z 26003MPS CAVOK M08/M13 Q1035 R26/810345 NOSIG"
"5:00 PM EET on December 07, 2016","2016","12","07","17","00","Europe/Kiev","3:00 PM GMT on December 07, 2016","2016","12","07","15","00","UTC","-7","19","-13","9","53","10.8","6.7","","","290","WNW","20","12","1037","30.63","-999","-999","-9999","-9999","","","Clear","clear","0","0","0","0","0","0","AAXX 07151 33345 42998 32903 11073 21127 30151 40371 52004 80005 555 1/114"
"5:00 PM EET on December 07, 2016","2016","12","07","17","00","Europe/Kiev","3:00 PM GMT on December 07, 2016","2016","12","07","15","00","UTC","-8.0","17.6","-14.0","6.8","63","14.4","8.9","-9999.0","-9999.0","260","West","-9999.0","-9999.0","1035","30.57","-14.1","6.6","-9999","-9999","-9999.00","-9999.00","Clear","clear","0","0","0","0","0","0","METAR UKKK 071500Z 26004MPS CAVOK M08/M14 Q1035 R26/810345 NOSIG"
"5:30 PM EET on December 07, 2016","2016","12","07","17","30","Europe/Kiev","3:30 PM GMT on December 07, 2016","2016","12","07","15","30","UTC","-9.0","15.8","-14.0","6.8","68","10.8","6.7","-9999.0","-9999.0","250","WSW","-9999.0","-9999.0","1035","30.57","-14.3","6.2","-9999","-9999","-9999.00","-9999.00","Clear","clear","0","0","0","0","0","0","METAR UKKK 071530Z 25003MPS CAVOK M09/M14 Q1035 R26/810345 NOSIG"
"6:00 PM EET on December 07, 2016","2016","12","07","18","00","Europe/Kiev","4:00 PM GMT on December 07, 2016","2016","12","07","16","00","UTC","-9.0","15.8","-14.0","6.8","68","14.4","8.9","-9999.0","-9999.0","250","WSW","-9999.0","-9999.0","1035","30.57","-15.3","4.4","-9999","-9999","-9999.00","-9999.00","Clear","clear","0","0","0","0","0","0","METAR UKKK 071600Z 25004MPS CAVOK M09/M14 Q1035 R26/810345 NOSIG"
"6:30 PM EET on December 07, 2016","2016","12","07","18","30","Europe/Kiev","4:30 PM GMT on December 07, 2016","2016","12","07","16","30","UTC","-9.0","15.8","-14.0","6.8","68","10.8","6.7","-9999.0","-9999.0","250","WSW","-9999.0","-9999.0","1035","30.57","-14.3","6.2","-9999","-9999","-9999.00","-9999.00","Clear","clear","0","0","0","0","0","0","METAR UKKK 071630Z 25003MPS CAVOK M09/M14 Q1035 R26/810345 NOSIG"
"7:00 PM EET on December 07, 2016","2016","12","07","19","00","Europe/Kiev","5:00 PM GMT on December 07, 2016","2016","12","07","17","00","UTC","-9.0","15.8","-14.0","6.8","68","14.4","8.9","-9999.0","-9999.0","250","WSW","-9999.0","-9999.0","1035","30.57","-15.3","4.4","-9999","-9999","-9999.00","-9999.00","Clear","clear","0","0","0","0","0","0","METAR UKKK 071700Z 25004MPS CAVOK M09/M14 Q1035 R26/810345 NOSIG"
"7:30 PM EET on December 07, 2016","2016","12","07","19","30","Europe/Kiev","5:30 PM GMT on December 07, 2016","2016","12","07","17","30","UTC","-10.0","14.0","-14.0","6.8","73","14.4","8.9","-9999.0","-9999.0","250","WSW","-9999.0","-9999.0","1035","30.57","-16.6","2.2","-9999","-9999","-9999.00","-9999.00","Clear","clear","0","0","0","0","0","0","METAR UKKK 071730Z 25004MPS CAVOK M10/M14 Q1035 R26/810345 NOSIG"
"8:00 PM EET on December 07, 2016","2016","12","07","20","00","Europe/Kiev","6:00 PM GMT on December 07, 2016","2016","12","07","18","00","UTC","-9","16","-13","8","60","14.4","8.9","","","290","WNW","20","12","1037","30.61","-999","-999","-9999","-9999","","","","","0","0","0","0","0","0","AAXX 07181 33345 32998 02904 11088 21132 30145 40366 58006 333 11048 555 1/115"
"8:00 PM EET on December 07, 2016","2016","12","07","20","00","Europe/Kiev","6:00 PM GMT on December 07, 2016","2016","12","07","18","00","UTC","-10.0","14.0","-13.0","8.6","79","14.4","8.9","-9999.0","-9999.0","250","WSW","-9999.0","-9999.0","1035","30.57","-16.6","2.2","-9999","-9999","-9999.00","-9999.00","Clear","clear","0","0","0","0","0","0","METAR UKKK 071800Z 25004MPS CAVOK M10/M13 Q1035 R26/810345 NOSIG"
"8:30 PM EET on December 07, 2016","2016","12","07","20","30","Europe/Kiev","6:30 PM GMT on December 07, 2016","2016","12","07","18","30","UTC","-10.0","14.0","-14.0","6.8","73","14.4","8.9","-9999.0","-9999.0","260","West","-9999.0","-9999.0","1034","30.54","-16.6","2.2","-9999","-9999","-9999.00","-9999.00","Clear","clear","0","0","0","0","0","0","METAR UKKK 071830Z 26004MPS CAVOK M10/M14 Q1034 R26/810345 NOSIG"
"9:00 PM EET on December 07, 2016","2016","12","07","21","00","Europe/Kiev","7:00 PM GMT on December 07, 2016","2016","12","07","19","00","UTC","-10.0","14.0","-13.0","8.6","79","14.4","8.9","-9999.0","-9999.0","250","WSW","-9999.0","-9999.0","1034","30.54","-16.6","2.2","-9999","-9999","-9999.00","-9999.00","Clear","clear","0","0","0","0","0","0","METAR UKKK 071900Z 25004MPS CAVOK M10/M13 Q1034 R26/810345 NOSIG"
"9:30 PM EET on December 07, 2016","2016","12","07","21","30","Europe/Kiev","7:30 PM GMT on December 07, 2016","2016","12","07","19","30","UTC","-11.0","12.2","-14.0","6.8","79","14.4","8.9","-9999.0","-9999.0","250","WSW","-9999.0","-9999.0","1034","30.54","-17.8","-0.0","-9999","-9999","-9999.00","-9999.00","Clear","clear","0","0","0","0","0","0","METAR UKKK 071930Z 25004MPS CAVOK M11/M14 Q1034 R26/810345 NOSIG"
"10:00 PM EET on December 07, 2016","2016","12","07","22","00","Europe/Kiev","8:00 PM GMT on December 07, 2016","2016","12","07","20","00","UTC","-10.0","14.0","-13.0","8.6","79","14.4","8.9","-9999.0","-9999.0","250","WSW","9.0","5.6","1034","30.54","-16.6","2.2","-9999","-9999","-9999.00","-9999.00","Unknown","unknown","0","0","0","0","0","0","METAR UKKK 072000Z 25004MPS 9000 NSC M10/M13 Q1034 R26/810345 NOSIG"
"10:30 PM EET on December 07, 2016","2016","12","07","22","30","Europe/Kiev","8:30 PM GMT on December 07, 2016","2016","12","07","20","30","UTC","-10.0","14.0","-13.0","8.6","79","14.4","8.9","-9999.0","-9999.0","240","WSW","-9999.0","-9999.0","1033","30.51","-16.6","2.2","-9999","-9999","-9999.00","-9999.00","Clear","clear","0","0","0","0","0","0","METAR UKKK 072030Z 24004MPS CAVOK M10/M13 Q1033 R26/810345 NOSIG"
"11:00 PM EET on December 07, 2016","2016","12","07","23","00","Europe/Kiev","9:00 PM GMT on December 07, 2016","2016","12","07","21","00","UTC","-10","15","-12","10","73","10.8","6.7","","","300","WNW","20","12","1036","30.58","-999","-999","-9999","-9999","","","","","0","0","0","0","0","0","AAXX 07211 33345 42998 03003 11095 21121 30133 40355 57012 555 1/114"
"11:00 PM EET on December 07, 2016","2016","12","07","23","00","Europe/Kiev","9:00 PM GMT on December 07, 2016","2016","12","07","21","00","UTC","-10.0","14.0","-13.0","8.6","79","18.0","11.2","-9999.0","-9999.0","260","West","-9999.0","-9999.0","1033","30.51","-17.4","0.7","-9999","-9999","-9999.00","-9999.00","Clear","clear","0","0","0","0","0","0","METAR UKKK 072100Z 26005MPS CAVOK M10/M13 Q1033 R26/810345 NOSIG"
"11:30 PM EET on December 07, 2016","2016","12","07","23","30","Europe/Kiev","9:30 PM GMT on December 07, 2016","2016","12","07","21","30","UTC","-10.0","14.0","-13.0","8.6","79","14.4","8.9","-9999.0","-9999.0","260","West","-9999.0","-9999.0","1033","30.51","-16.6","2.2","-9999","-9999","-9999.00","-9999.00","Clear","clear","0","0","0","0","0","0","METAR UKKK 072130Z 26004MPS CAVOK M10/M13 Q1033 R26/810345 NOSIG"
"12:00 AM EET on December 08, 2016","2016","12","08","00","00","Europe/Kiev","10:00 PM GMT on December 07, 2016","2016","12","07","22","00","UTC","-10.0","14.0","-13.0","8.6","79","21.6","13.4","-9999.0","-9999.0","260","West","-9999.0","-9999.0","1033","30.51","-18.1","-0.6","-9999","-9999","-9999.00","-9999.00","Clear","clear","0","0","0","0","0","0","METAR UKKK 072200Z 26006MPS CAVOK M10/M13 Q1033 R26/810345 NOSIG"
"12:30 AM EET on December 08, 2016","2016","12","08","00","30","Europe/Kiev","10:30 PM GMT on December 07, 2016","2016","12","07","22","30","UTC","-10.0","14.0","-12.0","10.4","86","18.0","11.2","-9999.0","-9999.0","250","WSW","-9999.0","-9999.0","1032","30.48","-17.4","0.7","-9999","-9999","-9999.00","-9999.00","Clear","clear","0","0","0","0","0","0","METAR UKKK 072230Z 25005MPS CAVOK M10/M12 Q1032 R26/810345 NOSIG"
"1:00 AM EET on December 08, 2016","2016","12","08","01","00","Europe/Kiev","11:00 PM GMT on December 07, 2016","2016","12","07","23","00","UTC","-10.0","14.0","-13.0","8.6","79","18.0","11.2","-9999.0","-9999.0","260","West","-9999.0","-9999.0","1031","30.45","-17.4","0.7","-9999","-9999","-9999.00","-9999.00","Clear","clear","0","0","0","0","0","0","METAR UKKK 072300Z 26005MPS CAVOK M10/M13 Q1031 R26/810345 NOSIG"
"1:30 AM EET on December 08, 2016","2016","12","08","01","30","Europe/Kiev","11:30 PM GMT on December 07, 2016","2016","12","07","23","30","UTC","-9.0","15.8","-12.0","10.4","79","14.4","8.9","-9999.0","-9999.0","250","WSW","-9999.0","-9999.0","1031","30.45","-15.3","4.4","-9999","-9999","-9999.00","-9999.00","Clear","clear","0","0","0","0","0","0","METAR UKKK 072330Z 25004MPS CAVOK M09/M12 Q1031 R26/810345 NOSIG"
"2:00 AM EET on December 08, 2016","2016","12","08","02","00","Europe/Kiev","12:00 AM GMT on December 08, 2016","2016","12","08","00","00","UTC","-9","16","-11","12","77","3.6","2.2","","","260","West","20","12","1033","30.52","-999","-999","-9999","-9999","","","Partly Cloudy","partlycloudy","0","0","0","0","0","0","AAXX 08001 33345 32598 32601 11091 21111 30112 40333 57021 83500 555 1/116"
"2:00 AM EET on December 08, 2016","2016","12","08","02","00","Europe/Kiev","12:00 AM GMT on December 08, 2016","2016","12","08","00","00","UTC","-9.0","15.8","-11.0","12.2","86","10.8","6.7","-9999.0","-9999.0","240","WSW","-9999.0","-9999.0","1031","30.45","-14.3","6.2","-9999","-9999","-9999.00","-9999.00","Clear","clear","0","0","0","0","0","0","METAR UKKK 080000Z 24003MPS CAVOK M09/M11 Q1031 R26/810345 NOSIG"
"2:30 AM EET on December 08, 2016","2016","12","08","02","30","Europe/Kiev","12:30 AM GMT on December 08, 2016","2016","12","08","00","30","UTC","-8.0","17.6","-11.0","12.2","79","18.0","11.2","-9999.0","-9999.0","250","WSW","-9999.0","-9999.0","1031","30.45","-14.9","5.2","-9999","-9999","-9999.00","-9999.00","Clear","clear","0","0","0","0","0","0","METAR UKKK 080030Z 25005MPS CAVOK M08/M11 Q1031 R26/810345 NOSIG"
"3:00 AM EET on December 08, 2016","2016","12","08","03","00","Europe/Kiev","1:00 AM GMT on December 08, 2016","2016","12","08","01","00","UTC","-8.0","17.6","-10.0","14.0","86","18.0","11.2","-9999.0","-9999.0","260","West","-9999.0","-9999.0","1030","30.42","-14.9","5.2","-9999","-9999","-9999.00","-9999.00","Clear","clear","0","0","0","0","0","0","METAR UKKK 080100Z 26005MPS CAVOK M08/M10 Q1030 R26/810345 NOSIG"
"3:30 AM EET on December 08, 2016","2016","12","08","03","30","Europe/Kiev","1:30 AM GMT on December 08, 2016","2016","12","08","01","30","UTC","-8.0","17.6","-10.0","14.0","86","18.0","11.2","-9999.0","-9999.0","250","WSW","-9999.0","-9999.0","1029","30.39","-14.9","5.2","-9999","-9999","-9999.00","-9999.00","Clear","clear","0","0","0","0","0","0","METAR UKKK 080130Z 25005MPS CAVOK M08/M10 Q1029 R26/810345 NOSIG"
"4:00 AM EET on December 08, 2016","2016","12","08","04","00","Europe/Kiev","2:00 AM GMT on December 08, 2016","2016","12","08","02","00","UTC","-9.0","15.8","-11.0","12.2","86","18.0","11.2","-9999.0","-9999.0","240","WSW","-9999.0","-9999.0","1029","30.39","-16.2","2.9","-9999","-9999","-9999.00","-9999.00","Clear","clear","0","0","0","0","0","0","METAR UKKK 080200Z 24005MPS CAVOK M09/M11 Q1029 R26/810345 NOSIG"
"4:30 AM EET on December 08, 2016","2016","12","08","04","30","Europe/Kiev","2:30 AM GMT on December 08, 2016","2016","12","08","02","30","UTC","-9.0","15.8","-11.0","12.2","86","18.0","11.2","-9999.0","-9999.0","250","WSW","-9999.0","-9999.0","1028","30.36","-16.2","2.9","-9999","-9999","-9999.00","-9999.00","Clear","clear","0","0","0","0","0","0","METAR UKKK 080230Z 25005MPS CAVOK M09/M11 Q1028 R26/810345 NOSIG"
"5:00 AM EET on December 08, 2016","2016","12","08","05","00","Europe/Kiev","3:00 AM GMT on December 08, 2016","2016","12","08","03","00","UTC","-8","17","-10","14","82","10.8","6.7","","","260","West","10","6","1030","30.41","-999","-999","-9999","-9999","","","","","0","0","0","0","0","0","AAXX 08031 33345 42997 02603 11082 21101 30079 40298 57033 555 1/115"
"5:00 AM EET on December 08, 2016","2016","12","08","05","00","Europe/Kiev","3:00 AM GMT on December 08, 2016","2016","12","08","03","00","UTC","-9.0","15.8","-10.0","14.0","93","18.0","11.2","-9999.0","-9999.0","240","WSW","-9999.0","-9999.0","1028","30.36","-16.2","2.9","-9999","-9999","-9999.00","-9999.00","Clear","clear","0","0","0","0","0","0","METAR UKKK 080300Z 24005MPS CAVOK M09/M10 Q1028 R26/810345 NOSIG"
"5:30 AM EET on December 08, 2016","2016","12","08","05","30","Europe/Kiev","3:30 AM GMT on December 08, 2016","2016","12","08","03","30","UTC","-8.0","17.6","-10.0","14.0","86","14.4","8.9","-9999.0","-9999.0","230","SW","-9999.0","-9999.0","1027","30.33","-14.1","6.6","-9999","-9999","-9999.00","-9999.00","Clear","clear","0","0","0","0","0","0","METAR UKKK 080330Z 23004MPS CAVOK M08/M10 Q1027 R26/810345 NOSIG"
"6:00 AM EET on December 08, 2016","2016","12","08","06","00","Europe/Kiev","4:00 AM GMT on December 08, 2016","2016","12","08","04","00","UTC","-7.0","19.4","-9.0","15.8","86","14.4","8.9","-9999.0","-9999.0","240","WSW","-9999.0","-9999.0","1026","30.30","-12.9","8.8","-9999","-9999","-9999.00","-9999.00","Clear","clear","0","0","0","0","0","0","METAR UKKK 080400Z 24004MPS CAVOK M07/M09 Q1026 R26/810345 NOSIG"
"6:30 AM EET on December 08, 2016","2016","12","08","06","30","Europe/Kiev","4:30 AM GMT on December 08, 2016","2016","12","08","04","30","UTC","-6.0","21.2","-9.0","15.8","80","18.0","11.2","-9999.0","-9999.0","250","WSW","-9999.0","-9999.0","1025","30.27","-12.4","9.7","-9999","-9999","-9999.00","-9999.00","Clear","clear","0","0","0","0","0","0","METAR UKKK 080430Z 25005MPS CAVOK M06/M09 Q1025 R26/810345 NOSIG"
"7:00 AM EET on December 08, 2016","2016","12","08","07","00","Europe/Kiev","5:00 AM GMT on December 08, 2016","2016","12","08","05","00","UTC","-5.0","23.0","-9.0","15.8","74","21.6","13.4","-9999.0","-9999.0","250","WSW","-9999.0","-9999.0","1024","30.24","-11.8","10.8","-9999","-9999","-9999.00","-9999.00","Clear","clear","0","0","0","0","0","0","METAR UKKK 080500Z 25006MPS CAVOK M05/M09 Q1024 R26/810345 NOSIG"
"7:30 AM EET on December 08, 2016","2016","12","08","07","30","Europe/Kiev","5:30 AM GMT on December 08, 2016","2016","12","08","05","30","UTC","-5.0","23.0","-8.0","17.6","80","25.2","15.7","-9999.0","-9999.0","240","WSW","-9999.0","-9999.0","1024","30.24","-12.3","9.8","-9999","-9999","-9999.00","-9999.00","Clear","clear","0","0","0","0","0","0","METAR UKKK 080530Z 24007MPS CAVOK M05/M08 Q1024 R26/810345 NOSIG"
"8:00 AM EET on December 08, 2016","2016","12","08","08","00","Europe/Kiev","6:00 AM GMT on December 08, 2016","2016","12","08","06","00","UTC","-4","24","-8","18","67","21.6","13.4","","","270","West","20","12","1025","30.27","-999","-999","-9999","-9999","","","Scattered Clouds","partlycloudy","0","0","0","0","0","0","AAXX 08061 33345 32998 42706 11042 21080 30033 40248 57046 82085 333 21096 47009 555 1/107"
"8:00 AM EET on December 08, 2016","2016","12","08","08","00","Europe/Kiev","6:00 AM GMT on December 08, 2016","2016","12","08","06","00","UTC","-4.0","24.8","-8.0","17.6","74","28.8","17.9","46.8","29.1","240","WSW","-9999.0","-9999.0","1023","30.21","-11.5","11.3","-9999","-9999","-9999.00","-9999.00","Clear","clear","0","0","0","0","0","0","METAR UKKK 080600Z 24008G13MPS CAVOK M04/M08 Q1023 R26/810345 NOSIG"
"8:30 AM EET on December 08, 2016","2016","12","08","08","30","Europe/Kiev","6:30 AM GMT on December 08, 2016","2016","12","08","06","30","UTC","-4.0","24.8","-8.0","17.6","74","28.8","17.9","-9999.0","-9999.0","250","WSW","-9999.0","-9999.0","1022","30.18","-11.5","11.3","-9999","-9999","-9999.00","-9999.00","Clear","clear","0","0","0","0","0","0","METAR UKKK 080630Z 25008MPS CAVOK M04/M08 Q1022 R26/810345 NOSIG"
"9:00 AM EET on December 08, 2016","2016","12","08","09","00","Europe/Kiev","7:00 AM GMT on December 08, 2016","2016","12","08","07","00","UTC","-3.0","26.6","-8.0","17.6","69","28.8","17.9","-9999.0","-9999.0","240","WSW","-9999.0","-9999.0","1021","30.15","-10.2","13.6","-9999","-9999","-9999.00","-9999.00","Clear","clear","0","0","0","0","0","0","METAR UKKK 080700Z 24008MPS CAVOK M03/M08 Q1021 R26/810345 NOSIG"
"9:30 AM EET on December 08, 2016","2016","12","08","09","30","Europe/Kiev","7:30 AM GMT on December 08, 2016","2016","12","08","07","30","UTC","-3.0","26.6","-8.0","17.6","69","28.8","17.9","-9999.0","-9999.0","240","WSW","-9999.0","-9999.0","1020","30.12","-10.2","13.6","-9999","-9999","-9999.00","-9999.00","Clear","clear","0","0","0","0","0","0","METAR UKKK 080730Z 24008MPS CAVOK M03/M08 Q1020 R26/810345 NOSIG"
"10:00 AM EET on December 08, 2016","2016","12","08","10","00","Europe/Kiev","8:00 AM GMT on December 08, 2016","2016","12","08","08","00","UTC","-2.0","28.4","-8.0","17.6","64","28.8","17.9","-9999.0","-9999.0","240","WSW","-9999.0","-9999.0","1019","30.09","-8.9","15.9","-9999","-9999","-9999.00","-9999.00","Clear","clear","0","0","0","0","0","0","METAR UKKK 080800Z 24008MPS CAVOK M02/M08 Q1019 R26/810345 NOSIG"
"10:16 AM EET on December 08, 2016","2016","12","08","10","16","Europe/Kiev","8:16 AM GMT on December 08, 2016","2016","12","08","08","16","UTC","-2.0","28.4","-7.0","19.4","69","25.2","15.7","-9999.0","-9999.0","240","WSW","10.0","6.2","1019","30.09","-8.5","16.7","-9999","-9999","-9999.00","-9999.00","Light Freezing Rain","snow","0","1","1","0","0","0","SPECI UKKK 080816Z 24007MPS 9999 -FZRASN OVC046 M02/M07 Q1019 R26/810345 TEMPO 26012G18MPS 1000 FZRASN BKN012CB"
"10:30 AM EET on December 08, 2016","2016","12","08","10","30","Europe/Kiev","8:30 AM GMT on December 08, 2016","2016","12","08","08","30","UTC","-2.0","28.4","-6.0","21.2","74","25.2","15.7","-9999.0","-9999.0","240","WSW","9.0","5.6","1018","30.06","-8.5","16.7","-9999","-9999","-9999.00","-9999.00","Light Freezing Rain","snow","0","1","1","0","0","0","METAR UKKK 080830Z 24007MPS 9000 -FZRASN OVC036 M02/M06 Q1018 R26/810345 TEMPO 26012G18MPS 1000 FZRASN BKN012CB"
"10:39 AM EET on December 08, 2016","2016","12","08","10","39","Europe/Kiev","8:39 AM GMT on December 08, 2016","2016","12","08","08","39","UTC","-1.0","30.2","-6.0","21.2","69","25.2","15.7","46.8","29.1","240","WSW","7.0","4.3","1018","30.06","-7.2","19.1","-9999","-9999","-9999.00","-9999.00","Light Freezing Rain","sleet","0","1","0","0","0","0","SPECI UKKK 080839Z 24007G13MPS 7000 -FZRA OVC027 M01/M06 Q1018 R26/810345 TEMPO 26012G18MPS 1000 FZRASN BKN012CB"
"11:00 AM EET on December 08, 2016","2016","12","08","11","00","Europe/Kiev","9:00 AM GMT on December 08, 2016","2016","12","08","09","00","UTC","-2","29","-5","23","71","21.6","13.4","","","260","West","10","6","1019","30.09","-999","-999","-9999","-9999","","","Light Freezing Rain","sleet","0","0","0","0","0","0","AAXX 08091 33345 41497 82606 11017 21048 39975 40187 57058 76663 8472/ 555 1/100"
"11:00 AM EET on December 08, 2016","2016","12","08","11","00","Europe/Kiev","9:00 AM GMT on December 08, 2016","2016","12","08","09","00","UTC","-1.0","30.2","-4.0","24.8","80","25.2","15.7","-9999.0","-9999.0","240","WSW","7.0","4.3","1017","30.04","-7.2","19.1","-9999","-9999","-9999.00","-9999.00","Light Freezing Rain","sleet","0","1","0","0","0","0","METAR UKKK 080900Z 24007MPS 7000 -FZRA OVC019 M01/M04 Q1017 R26/790214 TEMPO 26012G18MPS 1000 FZRASN BKN012CB"
"11:27 AM EET on December 08, 2016","2016","12","08","11","27","Europe/Kiev","9:27 AM GMT on December 08, 2016","2016","12","08","09","27","UTC","-1.0","30.2","-3.0","26.6","86","28.8","17.9","50.4","31.3","250","WSW","8.0","5.0","1017","30.04","-7.6","18.3","-9999","-9999","-9999.00","-9999.00","Light Freezing Rain","sleet","0","1","0","0","0","0","SPECI UKKK 080927Z 25008G14MPS 8000 -FZRA OVC013 M01/M03 Q1017 R26/790214 TEMPO 26012G18MPS 2000 FZRASN BKN012CB"
"11:30 AM EET on December 08, 2016","2016","12","08","11","30","Europe/Kiev","9:30 AM GMT on December 08, 2016","2016","12","08","09","30","UTC","-1.0","30.2","-3.0","26.6","86","32.4","20.1","50.4","31.3","250","WSW","7.0","4.3","1017","30.04","-8.0","17.6","-9999","-9999","-9999.00","-9999.00","Light Freezing Rain","sleet","0","1","0","0","0","0","METAR UKKK 080930Z 25009G14MPS 7000 -FZRA OVC012 M01/M03 Q1017 R26/790214 TEMPO 26012G18MPS 2000 FZRASN BKN012CB"
"12:00 PM EET on December 08, 2016","2016","12","08","12","00","Europe/Kiev","10:00 AM GMT on December 08, 2016","2016","12","08","10","00","UTC","-1.0","30.2","-2.0","28.4","93","28.8","17.9","-9999.0","-9999.0","250","WSW","5.0","3.1","1016","30.01","-7.6","18.3","-9999","-9999","-9999.00","-9999.00","Light Freezing Rain","sleet","0","1","0","0","0","0","METAR UKKK 081000Z 25008MPS 5000 -FZRA OVC008 M01/M02 Q1016 R26/790214 TEMPO 26012G18MPS 2000 FZRASN BKN012CB"
"12:30 PM EET on December 08, 2016","2016","12","08","12","30","Europe/Kiev","10:30 AM GMT on December 08, 2016","2016","12","08","10","30","UTC","0.0","32.0","-2.0","28.4","87","32.4","20.1","-9999.0","-9999.0","260","West","10.0","6.2","1015","29.98","-6.7","20.0","-9999","-9999","-9999.00","-9999.00","Overcast","cloudy","0","0","0","0","0","0","METAR UKKK 081030Z 26009MPS 9999 OVC008 M00/M02 Q1015 REFZRA R26/////// TEMPO 26012G18MPS 1000 FZRASN BKN012CB"
"1:00 PM EET on December 08, 2016","2016","12","08","13","00","Europe/Kiev","11:00 AM GMT on December 08, 2016","2016","12","08","11","00","UTC","0.0","32.0","-2.0","28.4","87","32.4","20.1","-9999.0","-9999.0","260","West","7.0","4.3","1014","29.95","-6.7","20.0","-9999","-9999","-9999.00","-9999.00","Overcast","cloudy","0","0","0","0","0","0","METAR UKKK 081100Z 26009MPS 7000 OVC007 M00/M02 Q1014 R26/////// TEMPO 26012G18MPS 2000 FZRASN BKN012CB"
"1:05 PM EET on December 08, 2016","2016","12","08","13","05","Europe/Kiev","11:05 AM GMT on December 08, 2016","2016","12","08","11","05","UTC","0.0","32.0","-1.0","30.2","93","32.4","20.1","-9999.0","-9999.0","260","West","5.0","3.1","1015","29.98","-6.7","20.0","-9999","-9999","-9999.00","-9999.00","Light Freezing Drizzle","rain","0","0","0","0","0","0","SPECI UKKK 081105Z 26009MPS 5000 -FZDZ BR OVC006 M00/M01 Q1015 R26/////// TEMPO 26012G18MPS 2000 FZRASN BKN012CB"
"1:26 PM EET on December 08, 2016","2016","12","08","13","26","Europe/Kiev","11:26 AM GMT on December 08, 2016","2016","12","08","11","26","UTC","0.0","32.0","-1.0","30.2","93","32.4","20.1","-9999.0","-9999.0","260","West","5.0","3.1","1014","29.95","-6.7","20.0","-9999","-9999","-9999.00","-9999.00","Light Drizzle","rain","0","0","0","0","0","0","SPECI UKKK 081126Z 26009MPS 5000 -DZ BR OVC006 00/M01 Q1014 REFZDZ R26/////// TEMPO 26012G18MPS 2000 FZRASN BKN005 BKN012CB"
"1:30 PM EET on December 08, 2016","2016","12","08","13","30","Europe/Kiev","11:30 AM GMT on December 08, 2016","2016","12","08","11","30","UTC","0.0","32.0","-1.0","30.2","93","32.4","20.1","-9999.0","-9999.0","260","West","2.8","1.7","1014","29.95","-6.7","20.0","-9999","-9999","-9999.00","-9999.00","Light Drizzle","rain","0","0","0","0","0","0","METAR UKKK 081130Z 26009MPS 2800 -DZ BR OVC006 00/M01 Q1014 R26/////// TEMPO 26012G18MPS 2000 FZRASN BKN004 BKN012CB"
"1:47 PM EET on December 08, 2016","2016","12","08","13","47","Europe/Kiev","11:47 AM GMT on December 08, 2016","2016","12","08","11","47","UTC","1.0","33.8","-1.0","30.2","87","32.4","20.1","50.4","31.3","260","West","7.0","4.3","1013","29.92","-5.4","22.3","-9999","-9999","-9999.00","-9999.00","Light Drizzle","rain","0","0","0","0","0","0","SPECI UKKK 081147Z 26009G14MPS 7000 -DZ OVC006 01/M01 Q1013 R26/////// TEMPO 26012G18MPS 2000 FZRASN BKN004 BKN012CB"
"2:00 PM EET on December 08, 2016","2016","12","08","14","00","Europe/Kiev","12:00 PM GMT on December 08, 2016","2016","12","08","12","00","UTC","0","33","-1","31","89","18.0","11.2","","","280","West","4","2","1014","29.96","-999","-999","-9999","-9999","","","Light Rain","rain","0","1","0","0","0","0","AAXX 08121 33345 /1396 82805 10005 21006 39934 40143 57041 72163 885// 333 88708 555 1/000 60011"
"2:00 PM EET on December 08, 2016","2016","12","08","14","00","Europe/Kiev","12:00 PM GMT on December 08, 2016","2016","12","08","12","00","UTC","1.0","33.8","0.0","32.0","93","36.0","22.4","-9999.0","-9999.0","260","West","-9999.0","-9999.0","1013","29.92","-5.7","21.7","-9999","-9999","-9999.00","-9999.00","Light Drizzle","rain","0","0","0","0","0","0","METAR UKKK 081200Z 26010MPS 3600 -DZ BR OVC006 01/M00 Q1013 R26/////// TEMPO 26011G17MPS 2000 FZRA BKN005 BKN012CB"
"2:30 PM EET on December 08, 2016","2016","12","08","14","30","Europe/Kiev","12:30 PM GMT on December 08, 2016","2016","12","08","12","30","UTC","1.0","33.8","0.0","32.0","93","36.0","22.4","-9999.0","-9999.0","260","West","4.5","2.8","1013","29.92","-5.7","21.7","-9999","-9999","-9999.00","-9999.00","Light Drizzle","rain","0","0","0","0","0","0","METAR UKKK 081230Z 26010MPS 4500 -DZ BR OVC005 01/M00 Q1013 R26/////// TEMPO 26011G17MPS 2000 FZRA BKN004 BKN012CB"
"3:00 PM EET on December 08, 2016","2016","12","08","15","00","Europe/Kiev","1:00 PM GMT on December 08, 2016","2016","12","08","13","00","UTC","1.0","33.8","0.0","32.0","93","32.4","20.1","-9999.0","-9999.0","260","West","7.0","4.3","1013","29.92","-5.4","22.3","-9999","-9999","-9999.00","-9999.00","Light Drizzle","rain","0","0","0","0","0","0","METAR UKKK 081300Z 26009MPS 7000 -DZ OVC006 01/00 Q1013 R26/////// TEMPO 26011G17MPS 2000 FZRA BKN004 BKN012CB"
"3:30 PM EET on December 08, 2016","2016","12","08","15","30","Europe/Kiev","1:30 PM GMT on December 08, 2016","2016","12","08","13","30","UTC","1.0","33.8","0.0","32.0","93","32.4","20.1","-9999.0","-9999.0","260","West","6.0","3.7","1012","29.89","-5.4","22.3","-9999","-9999","-9999.00","-9999.00","Light Drizzle","rain","0","0","0","0","0","0","METAR UKKK 081330Z 26009MPS 6000 -DZ OVC006 01/00 Q1012 R26/690135 TEMPO 26011G17MPS 2000 FZRA BKN004 BKN012CB"
"4:00 PM EET on December 08, 2016","2016","12","08","16","00","Europe/Kiev","2:00 PM GMT on December 08, 2016","2016","12","08","14","00","UTC","2.0","35.6","1.0","33.8","93","32.4","20.1","-9999.0","-9999.0","260","West","-9999.0","-9999.0","1011","29.86","-4.1","24.7","-9999","-9999","-9999.00","-9999.00","Light Drizzle","rain","0","0","0","0","0","0","METAR UKKK 081400Z 26009MPS 4900 -DZ BR OVC006 02/01 Q1011 R26/690135 TEMPO 26011G17MPS 2000 BR OVC004"
"4:30 PM EET on December 08, 2016","2016","12","08","16","30","Europe/Kiev","2:30 PM GMT on December 08, 2016","2016","12","08","14","30","UTC","2.0","35.6","1.0","33.8","93","36.0","22.4","-9999.0","-9999.0","260","West","6.0","3.7","1011","29.86","-4.4","24.1","-9999","-9999","-9999.00","-9999.00","Light Rain","rain","0","1","0","0","0","0","METAR UKKK 081430Z 26010MPS 6000 -RA OVC005 02/01 Q1011 R26/690135 TEMPO 26011G17MPS 2000 BR OVC004"
"5:00 PM EET on December 08, 2016","2016","12","08","17","00","Europe/Kiev","3:00 PM GMT on December 08, 2016","2016","12","08","15","00","UTC","2","35","1","33","92","21.6","13.4","","","290","WNW","4","2","1011","29.87","-999","-999","-9999","-9999","","","Light Rain","rain","0","1","0","0","0","0","AAXX 08151 33345 41396 72906 10019 20008 39906 40113 57028 72162 87500 333 87709 555 1/000"
"5:00 PM EET on December 08, 2016","2016","12","08","17","00","Europe/Kiev","3:00 PM GMT on December 08, 2016","2016","12","08","15","00","UTC","2.0","35.6","1.0","33.8","93","36.0","22.4","-9999.0","-9999.0","270","West","6.0","3.7","1010","29.83","-4.4","24.1","-9999","-9999","-9999.00","-9999.00","Light Rain","rain","0","1","0","0","0","0","METAR UKKK 081500Z 27010MPS 6000 -RA OVC007 02/01 Q1010 R26/690135 TEMPO 26011G17MPS 2000 BR OVC004"
"5:30 PM EET on December 08, 2016","2016","12","08","17","30","Europe/Kiev","3:30 PM GMT on December 08, 2016","2016","12","08","15","30","UTC","2.0","35.6","1.0","33.8","93","36.0","22.4","-9999.0","-9999.0","270","West","5.0","3.1","1009","29.80","-4.4","24.1","-9999","-9999","-9999.00","-9999.00","Light Rain","rain","0","1","0","0","0","0","METAR UKKK 081530Z 27010MPS 5000 -RA BR OVC006 02/01 Q1009 R26/690135 TEMPO 26011G17MPS 2000 BR OVC005"
"6:00 PM EET on December 08, 2016","2016","12","08","18","00","Europe/Kiev","4:00 PM GMT on December 08, 2016","2016","12","08","16","00","UTC","2.0","35.6","1.0","33.8","93","36.0","22.4","-9999.0","-9999.0","270","West","7.0","4.3","1009","29.80","-4.4","24.1","-9999","-9999","-9999.00","-9999.00","Overcast","cloudy","0","0","0","0","0","0","METAR UKKK 081600Z 27010MPS 7000 OVC006 02/01 Q1009 R26/690135 TEMPO 26011G17MPS 2000 BR OVC005"
"6:30 PM EET on December 08, 2016","2016","12","08","18","30","Europe/Kiev","4:30 PM GMT on December 08, 2016","2016","12","08","16","30","UTC","2.0","35.6","1.0","33.8","93","39.6","24.6","-9999.0","-9999.0","280","West","9.0","5.6","1009","29.80","-4.7","23.6","-9999","-9999","-9999.00","-9999.00","Light Drizzle","rain","0","0","0","0","0","0","METAR UKKK 081630Z 28011MPS 9000 -DZ OVC006 02/01 Q1009 R26/690135 TEMPO 26011G17MPS 2000 BR OVC005"
"7:00 PM EET on December 08, 2016","2016","12","08","19","00","Europe/Kiev","5:00 PM GMT on December 08, 2016","2016","12","08","17","00","UTC","2.0","35.6","1.0","33.8","93","36.0","22.4","-9999.0","-9999.0","270","West","5.0","3.1","1009","29.80","-4.4","24.1","-9999","-9999","-9999.00","-9999.00","Light Drizzle","rain","0","0","0","0","0","0","METAR UKKK 081700Z 27010MPS 5000 -DZ BR OVC005 02/01 Q1009 R26/690135 TEMPO 26011G17MPS 2000 BR OVC005"
"7:07 PM EET on December 08, 2016","2016","12","08","19","07","Europe/Kiev","5:07 PM GMT on December 08, 2016","2016","12","08","17","07","UTC","2.0","35.6","1.0","33.8","93","36.0","22.4","-9999.0","-9999.0","270","West","2.3","1.4","1009","29.80","-4.4","24.1","-9999","-9999","-9999.00","-9999.00","Light Drizzle","rain","0","0","0","0","0","0","SPECI UKKK 081707Z 27010MPS 2300 -DZ BR OVC004 02/01 Q1009 R26/690135 TEMPO 26011G17MPS 1700 BR OVC003"
"7:30 PM EET on December 08, 2016","2016","12","08","19","30","Europe/Kiev","5:30 PM GMT on December 08, 2016","2016","12","08","17","30","UTC","3.0","37.4","2.0","35.6","93","32.4","20.1","-9999.0","-9999.0","280","West","-9999.0","-9999.0","1009","29.80","-2.8","27.0","-9999","-9999","-9999.00","-9999.00","Overcast","cloudy","0","0","0","0","0","0","METAR UKKK 081730Z 28009MPS 4600 BR OVC005 03/02 Q1009 R26/690135 TEMPO 26011G17MPS 1700 BR OVC003"
"7:49 PM EET on December 08, 2016","2016","12","08","19","49","Europe/Kiev","5:49 PM GMT on December 08, 2016","2016","12","08","17","49","UTC","3.0","37.4","2.0","35.6","93","32.4","20.1","-9999.0","-9999.0","270","West","5.0","3.1","1008","29.77","-2.8","27.0","-9999","-9999","-9999.00","-9999.00","Overcast","cloudy","0","0","0","0","0","0","SPECI UKKK 081749Z 27009MPS 5000 BR OVC004 03/02 Q1008 R26/690135 TEMPO 26011G17MPS 1700 BR OVC003"
"8:00 PM EET on December 08, 2016","2016","12","08","20","00","Europe/Kiev","6:00 PM GMT on December 08, 2016","2016","12","08","18","00","UTC","3","37","2","35","92","21.6","13.4","","","300","WNW","4","2","1009","29.80","-999","-999","-9999","-9999","","","Drizzle","rain","0","1","0","0","0","0","AAXX 08181 33345 11296 83006 10027 20019 39883 40089 57023 60032 75365 886// 333 10027 88706 555 1/000"
"8:00 PM EET on December 08, 2016","2016","12","08","20","00","Europe/Kiev","6:00 PM GMT on December 08, 2016","2016","12","08","18","00","UTC","3.0","37.4","2.0","35.6","93","32.4","20.1","-9999.0","-9999.0","280","West","-9999.0","-9999.0","1008","29.77","-2.8","27.0","-9999","-9999","-9999.00","-9999.00","Light Drizzle","rain","0","0","0","0","0","0","METAR UKKK 081800Z 28009MPS 3900 -DZ BR OVC004 03/02 Q1008 R26/690135 TEMPO 26011G17MPS 1700 BR OVC003"
"8:30 PM EET on December 08, 2016","2016","12","08","20","30","Europe/Kiev","6:30 PM GMT on December 08, 2016","2016","12","08","18","30","UTC","3.0","37.4","2.0","35.6","93","36.0","22.4","-9999.0","-9999.0","280","West","4.5","2.8","1008","29.77","-3.1","26.5","-9999","-9999","-9999.00","-9999.00","Light Drizzle","rain","0","0","0","0","0","0","METAR UKKK 081830Z 28010MPS 4500 -DZ BR OVC005 03/02 Q1008 R26/690135 TEMPO 26011G17MPS 1700 BR OVC003"
"9:00 PM EET on December 08, 2016","2016","12","08","21","00","Europe/Kiev","7:00 PM GMT on December 08, 2016","2016","12","08","19","00","UTC","3.0","37.4","2.0","35.6","93","36.0","22.4","-9999.0","-9999.0","280","West","2.4","1.5","1009","29.80","-3.1","26.5","-9999","-9999","-9999.00","-9999.00","Light Drizzle","rain","0","0","0","0","0","0","METAR UKKK 081900Z 28010MPS 2400 -DZ BR OVC005 03/02 Q1009 R26/690135 TEMPO 26011G17MPS 1700 BR OVC003"
"9:04 PM EET on December 08, 2016","2016","12","08","21","04","Europe/Kiev","7:04 PM GMT on December 08, 2016","2016","12","08","19","04","UTC","3.0","37.4","2.0","35.6","93","36.0","22.4","-9999.0","-9999.0","280","West","2.0","1.2","1009","29.80","-3.1","26.5","-9999","-9999","-9999.00","-9999.00","Light Drizzle","rain","0","0","0","0","0","0","SPECI UKKK 081904Z 28010MPS 2000 -DZ BR OVC004 03/02 Q1009 R26/690135 TEMPO 26011G17MPS 1700 BR OVC003"
"9:30 PM EET on December 08, 2016","2016","12","08","21","30","Europe/Kiev","7:30 PM GMT on December 08, 2016","2016","12","08","19","30","UTC","3.0","37.4","2.0","35.6","93","36.0","22.4","-9999.0","-9999.0","280","West","-9999.0","-9999.0","1008","29.77","-3.1","26.5","-9999","-9999","-9999.00","-9999.00","Light Drizzle","rain","0","0","0","0","0","0","METAR UKKK 081930Z 28010MPS 3100 -DZ BR OVC004 03/02 Q1008 R26/690135 TEMPO 26011G17MPS 1700 BR OVC003"
"10:00 PM EET on December 08, 2016","2016","12","08","22","00","Europe/Kiev","8:00 PM GMT on December 08, 2016","2016","12","08","20","00","UTC","3.0","37.4","2.0","35.6","93","36.0","22.4","-9999.0","-9999.0","280","West","7.0","4.3","1008","29.77","-3.1","26.5","-9999","-9999","-9999.00","-9999.00","Light Drizzle","rain","0","0","0","0","0","0","METAR UKKK 082000Z 28010MPS 7000 -DZ OVC005 03/02 Q1008 R26/810340 TEMPO 29010G17MPS OVC003"
"10:30 PM EET on December 08, 2016","2016","12","08","22","30","Europe/Kiev","8:30 PM GMT on December 08, 2016","2016","12","08","20","30","UTC","3.0","37.4","2.0","35.6","93","32.4","20.1","-9999.0","-9999.0","270","West","8.0","5.0","1008","29.77","-2.8","27.0","-9999","-9999","-9999.00","-9999.00","Overcast","cloudy","0","0","0","0","0","0","METAR UKKK 082030Z 27009MPS 8000 OVC005 03/02 Q1008 R26/810340 TEMPO 29010G17MPS OVC003"
"10:37 PM EET on December 08, 2016","2016","12","08","22","37","Europe/Kiev","8:37 PM GMT on December 08, 2016","2016","12","08","20","37","UTC","3.0","37.4","3.0","37.4","100","32.4","20.1","-9999.0","-9999.0","280","West","5.0","3.1","1008","29.77","-2.8","27.0","-9999","-9999","-9999.00","-9999.00","Light Drizzle","rain","0","0","0","0","0","0","SPECI UKKK 082037Z 28009MPS 5000 -DZ BR OVC004 03/03 Q1008 R26/810340 TEMPO 29010G17MPS OVC003"
"11:00 PM EET on December 08, 2016","2016","12","08","23","00","Europe/Kiev","9:00 PM GMT on December 08, 2016","2016","12","08","21","00","UTC","4","38","3","37","95","18.0","11.2","","","320","NW","4","2","1009","29.81","-999","-999","-9999","-9999","","","Mist","hazy","0","0","0","0","0","0","AAXX 08211 33345 41296 83205 10035 20028 39886 40092 53003 71052 886// 333 88706 555 1/001"
"11:00 PM EET on December 08, 2016","2016","12","08","23","00","Europe/Kiev","9:00 PM GMT on December 08, 2016","2016","12","08","21","00","UTC","3.0","37.4","3.0","37.4","100","32.4","20.1","-9999.0","-9999.0","280","West","7.0","4.3","1008","29.77","-2.8","27.0","-9999","-9999","-9999.00","-9999.00","Overcast","cloudy","0","0","0","0","0","0","METAR UKKK 082100Z 28009MPS 7000 OVC005 03/03 Q1008 R26/810340 TEMPO 29010G17MPS OVC003"
"11:30 PM EET on December 08, 2016","2016","12","08","23","30","Europe/Kiev","9:30 PM GMT on December 08, 2016","2016","12","08","21","30","UTC","4.0","39.2","3.0","37.4","93","32.4","20.1","-9999.0","-9999.0","280","West","10.0","6.2","1008","29.77","-1.4","29.4","-9999","-9999","-9999.00","-9999.00","Overcast","cloudy","0","0","0","0","0","0","METAR UKKK 082130Z 28009MPS 9999 OVC007 04/03 Q1008 R26/810340 TEMPO 29010G17MPS"
"12:00 AM EET on December 09, 2016","2016","12","09","00","00","Europe/Kiev","10:00 PM GMT on December 08, 2016","2016","12","08","22","00","UTC","4.0","39.2","3.0","37.4","93","32.4","20.1","-9999.0","-9999.0","280","West","10.0","6.2","1008","29.77","-1.4","29.4","-9999","-9999","-9999.00","-9999.00","Overcast","cloudy","0","0","0","0","0","0","METAR UKKK 082200Z 28009MPS 9999 OVC008 04/03 Q1008 R26/810340 TEMPO 29010G17MPS"
"12:21 AM EET on December 09, 2016","2016","12","09","00","21","Europe/Kiev","10:21 PM GMT on December 08, 2016","2016","12","08","22","21","UTC","4.0","39.2","3.0","37.4","93","32.4","20.1","50.4","31.3","280","West","10.0","6.2","1008","29.77","-1.4","29.4","-9999","-9999","-9999.00","-9999.00","Overcast","cloudy","0","0","0","0","0","0","SPECI UKKK 082221Z 28009G14MPS 9999 OVC008 04/03 Q1008 R26/810340 TEMPO 29010G17MPS"
"12:30 AM EET on December 09, 2016","2016","12","09","00","30","Europe/Kiev","10:30 PM GMT on December 08, 2016","2016","12","08","22","30","UTC","4.0","39.2","3.0","37.4","93","32.4","20.1","-9999.0","-9999.0","280","West","10.0","6.2","1008","29.77","-1.4","29.4","-9999","-9999","-9999.00","-9999.00","Overcast","cloudy","0","0","0","0","0","0","METAR UKKK 082230Z 28009MPS 9999 OVC008 04/03 Q1008 R26/810340 TEMPO 29010G17MPS"
"1:00 AM EET on December 09, 2016","2016","12","09","01","00","Europe/Kiev","11:00 PM GMT on December 08, 2016","2016","12","08","23","00","UTC","4.0","39.2","3.0","37.4","93","36.0","22.4","-9999.0","-9999.0","280","West","10.0","6.2","1008","29.77","-1.7","28.9","-9999","-9999","-9999.00","-9999.00","Overcast","cloudy","0","0","0","0","0","0","METAR UKKK 082300Z 28010MPS 9999 OVC008 04/03 Q1008 R26/810340 TEMPO 29010G17MPS"
"1:30 AM EET on December 09, 2016","2016","12","09","01","30","Europe/Kiev","11:30 PM GMT on December 08, 2016","2016","12","08","23","30","UTC","4.0","39.2","3.0","37.4","93","32.4","20.1","-9999.0","-9999.0","280","West","10.0","6.2","1008","29.77","-1.4","29.4","-9999","-9999","-9999.00","-9999.00","Overcast","cloudy","0","0","0","0","0","0","METAR UKKK 082330Z 28009MPS 9999 OVC008 04/03 Q1008 R26/810340 TEMPO 29010G17MPS"
"2:00 AM EET on December 09, 2016","2016","12","09","02","00","Europe/Kiev","12:00 AM GMT on December 09, 2016","2016","12","09","00","00","UTC","5","40","3","38","89","18.0","11.2","","","320","NW","4","2","1009","29.79","-999","-999","-9999","-9999","","","Mist","hazy","0","0","0","0","0","0","AAXX 09001 33345 /1396 83205 10047 20033 39883 40088 58003 71065 885// 333 88709 555 1/002 69931"
"2:00 AM EET on December 09, 2016","2016","12","09","02","00","Europe/Kiev","12:00 AM GMT on December 09, 2016","2016","12","09","00","00","UTC","4.0","39.2","3.0","37.4","93","32.4","20.1","-9999.0","-9999.0","280","West","10.0","6.2","1008","29.77","-1.4","29.4","-9999","-9999","-9999.00","-9999.00","Overcast","cloudy","0","0","0","0","0","0","METAR UKKK 090000Z 28009MPS 9999 OVC008 04/03 Q1008 R26/810340 TEMPO 30011G18MPS"
"2:30 AM EET on December 09, 2016","2016","12","09","02","30","Europe/Kiev","12:30 AM GMT on December 09, 2016","2016","12","09","00","30","UTC","4.0","39.2","3.0","37.4","93","32.4","20.1","50.4","31.3","280","West","10.0","6.2","1008","29.77","-1.4","29.4","-9999","-9999","-9999.00","-9999.00","Overcast","cloudy","0","0","0","0","0","0","METAR UKKK 090030Z 28009G14MPS 9999 OVC009 04/03 Q1008 R26/810340 TEMPO 30011G18MPS"
"3:00 AM EET on December 09, 2016","2016","12","09","03","00","Europe/Kiev","1:00 AM GMT on December 09, 2016","2016","12","09","01","00","UTC","5.0","41.0","3.0","37.4","87","36.0","22.4","-9999.0","-9999.0","290","WNW","10.0","6.2","1008","29.77","-0.4","31.3","-9999","-9999","-9999.00","-9999.00","Overcast","cloudy","0","0","0","0","0","0","METAR UKKK 090100Z 29010MPS 9999 OVC010 05/03 Q1008 R26/810340 TEMPO 30011G18MPS"
"3:30 AM EET on December 09, 2016","2016","12","09","03","30","Europe/Kiev","1:30 AM GMT on December 09, 2016","2016","12","09","01","30","UTC","5.0","41.0","3.0","37.4","87","32.4","20.1","-9999.0","-9999.0","290","WNW","10.0","6.2","1008","29.77","-0.1","31.8","-9999","-9999","-9999.00","-9999.00","Overcast","cloudy","0","0","0","0","0","0","METAR UKKK 090130Z 29009MPS 9999 OVC010 05/03 Q1008 R26/810340 TEMPO 30011G18MPS"
"3:33 AM EET on December 09, 2016","2016","12","09","03","33","Europe/Kiev","1:33 AM GMT on December 09, 2016","2016","12","09","01","33","UTC","5.0","41.0","3.0","37.4","87","32.4","20.1","50.4","31.3","290","WNW","10.0","6.2","1008","29.77","-0.1","31.8","-9999","-9999","-9999.00","-9999.00","Overcast","cloudy","0","0","0","0","0","0","SPECI UKKK 090133Z 29009G14MPS 9999 OVC010 05/03 Q1008 R26/810340 TEMPO 30011G18MPS"
"4:00 AM EET on December 09, 2016","2016","12","09","04","00","Europe/Kiev","2:00 AM GMT on December 09, 2016","2016","12","09","02","00","UTC","5.0","41.0","3.0","37.4","87","32.4","20.1","-9999.0","-9999.0","290","WNW","10.0","6.2","1008","29.77","-0.1","31.8","-9999","-9999","-9999.00","-9999.00","Overcast","cloudy","0","0","0","0","0","0","METAR UKKK 090200Z 29009MPS 9999 OVC010 05/03 Q1008 R26/810340 TEMPO 30011G18MPS"
"4:30 AM EET on December 09, 2016","2016","12","09","04","30","Europe/Kiev","2:30 AM GMT on December 09, 2016","2016","12","09","02","30","UTC","5.0","41.0","3.0","37.4","87","28.8","17.9","-9999.0","-9999.0","280","West","10.0","6.2","1008","29.77","0.2","32.3","-9999","-9999","-9999.00","-9999.00","Overcast","cloudy","0","0","0","0","0","0","METAR UKKK 090230Z 28008MPS 9999 OVC010 05/03 Q1008 R26/810340 TEMPO 30011G18MPS"
"5:00 AM EET on December 09, 2016","2016","12","09","05","00","Europe/Kiev","3:00 AM GMT on December 09, 2016","2016","12","09","03","00","UTC","5","41","3","38","83","18.0","11.2","","","320","NW","4","2","1009","29.80","-999","-999","-9999","-9999","","","Mist","hazy","0","0","0","0","0","0","AAXX 09031 33345 41496 83205 10048 20031 39886 40091 53003 71022 885// 333 88711 555 1/001"
"5:00 AM EET on December 09, 2016","2016","12","09","05","00","Europe/Kiev","3:00 AM GMT on December 09, 2016","2016","12","09","03","00","UTC","4.0","39.2","3.0","37.4","93","28.8","17.9","-9999.0","-9999.0","280","West","9.0","5.6","1008","29.77","-1.1","30.0","-9999","-9999","-9999.00","-9999.00","Overcast","cloudy","0","0","0","0","0","0","METAR UKKK 090300Z 28008MPS 9000 OVC010 04/03 Q1008 R26/810340 TEMPO 30011G18MPS"
"5:30 AM EET on December 09, 2016","2016","12","09","05","30","Europe/Kiev","3:30 AM GMT on December 09, 2016","2016","12","09","03","30","UTC","4.0","39.2","3.0","37.4","93","28.8","17.9","-9999.0","-9999.0","280","West","7.0","4.3","1009","29.80","-1.1","30.0","-9999","-9999","-9999.00","-9999.00","Light Drizzle","rain","0","0","0","0","0","0","METAR UKKK 090330Z 28008MPS 7000 -DZ OVC007 04/03 Q1009 R26/810340 TEMPO 30011G18MPS"
"6:00 AM EET on December 09, 2016","2016","12","09","06","00","Europe/Kiev","4:00 AM GMT on December 09, 2016","2016","12","09","04","00","UTC","4.0","39.2","3.0","37.4","93","25.2","15.7","-9999.0","-9999.0","280","West","7.0","4.3","1009","29.80","-0.8","30.6","-9999","-9999","-9999.00","-9999.00","Light Drizzle","rain","0","0","0","0","0","0","METAR UKKK 090400Z 28007MPS 7000 -DZ OVC006 04/03 Q1009 R26/290145 TEMPO 30011G18MPS OVC005"
"6:30 AM EET on December 09, 2016","2016","12","09","06","30","Europe/Kiev","4:30 AM GMT on December 09, 2016","2016","12","09","04","30","UTC","4.0","39.2","3.0","37.4","93","25.2","15.7","-9999.0","-9999.0","280","West","2.7","1.7","1009","29.80","-0.8","30.6","-9999","-9999","-9999.00","-9999.00","Light Rain","rain","0","1","0","0","0","0","METAR UKKK 090430Z 28007MPS 2700 -RA BR BKN006 OVC020 04/03 Q1009 R26/290145 TEMPO 30011G18MPS 1000 -SHRA BR BKN005 SCT012CB"
"6:48 AM EET on December 09, 2016","2016","12","09","06","48","Europe/Kiev","4:48 AM GMT on December 09, 2016","2016","12","09","04","48","UTC","4.0","39.2","3.0","37.4","93","25.2","15.7","-9999.0","-9999.0","280","West","2.2","1.4","1009","29.80","-0.8","30.6","-9999","-9999","-9999.00","-9999.00","Light Rain","rain","0","1","0","0","0","0","SPECI UKKK 090448Z 28007MPS 2200 -RA BR BKN004 OVC020 04/03 Q1009 R26/290145 TEMPO 30011G18MPS 1000 -SHRA BR BKN003 SCT012CB"
"7:00 AM EET on December 09, 2016","2016","12","09","07","00","Europe/Kiev","5:00 AM GMT on December 09, 2016","2016","12","09","05","00","UTC","4.0","39.2","3.0","37.4","93","25.2","15.7","-9999.0","-9999.0","270","West","2.4","1.5","1009","29.80","-0.8","30.6","-9999","-9999","-9999.00","-9999.00","Light Rain","rain","0","1","0","0","0","0","METAR UKKK 090500Z 27007MPS 2400 -RA BR BKN004 OVC020 04/03 Q1009 R26/290145 TEMPO 30011G18MPS 1000 -SHRA BR BKN003 SCT012CB"
"7:30 AM EET on December 09, 2016","2016","12","09","07","30","Europe/Kiev","5:30 AM GMT on December 09, 2016","2016","12","09","05","30","UTC","4.0","39.2","3.0","37.4","93","25.2","15.7","-9999.0","-9999.0","280","West","4.5","2.8","1009","29.80","-0.8","30.6","-9999","-9999","-9999.00","-9999.00","Light Rain","rain","0","1","0","0","0","0","METAR UKKK 090530Z 28007MPS 4500 -RA BR BKN004 OVC015 04/03 Q1009 R26/290145 TEMPO 30011G18MPS 1000 -SHRA BR BKN003 SCT012CB"
"8:00 AM EET on December 09, 2016","2016","12","09","08","00","Europe/Kiev","6:00 AM GMT on December 09, 2016","2016","12","09","06","00","UTC","4","39","3","38","94","18.0","11.2","","","300","WNW","4","2","1010","29.82","-999","-999","-9999","-9999","","","Light Rain","rain","0","1","0","0","0","0","AAXX 09061 33345 11296 83005 10040 20033 39892 40097 52006 69982 72162 885// 333 20027 42004 88706 555 1/002"
"8:00 AM EET on December 09, 2016","2016","12","09","08","00","Europe/Kiev","6:00 AM GMT on December 09, 2016","2016","12","09","06","00","UTC","4.0","39.2","3.0","37.4","93","25.2","15.7","-9999.0","-9999.0","270","West","3.5","2.2","1009","29.80","-0.8","30.6","-9999","-9999","-9999.00","-9999.00","Overcast","cloudy","0","0","0","0","0","0","METAR UKKK 090600Z 27007MPS 3500 BR OVC004 04/03 Q1009 R26/290145 TEMPO BKN003"
"8:30 AM EET on December 09, 2016","2016","12","09","08","30","Europe/Kiev","6:30 AM GMT on December 09, 2016","2016","12","09","06","30","UTC","4.0","39.2","3.0","37.4","93","25.2","15.7","-9999.0","-9999.0","270","West","-9999.0","-9999.0","1009","29.80","-0.8","30.6","-9999","-9999","-9999.00","-9999.00","Overcast","cloudy","0","0","0","0","0","0","METAR UKKK 090630Z 27007MPS 4400 BR OVC005 04/03 Q1009 R26/290145 TEMPO BKN003"
"9:00 AM EET on December 09, 2016","2016","12","09","09","00","Europe/Kiev","7:00 AM GMT on December 09, 2016","2016","12","09","07","00","UTC","4.0","39.2","4.0","39.2","100","25.2","15.7","-9999.0","-9999.0","280","West","3.0","1.9","1009","29.80","-0.8","30.6","-9999","-9999","-9999.00","-9999.00","Overcast","cloudy","0","0","0","0","0","0","METAR UKKK 090700Z 28007MPS 3000 BR OVC005 04/04 Q1009 R26/290145 TEMPO BKN003"
"9:06 AM EET on December 09, 2016","2016","12","09","09","06","Europe/Kiev","7:06 AM GMT on December 09, 2016","2016","12","09","07","06","UTC","4.0","39.2","4.0","39.2","100","25.2","15.7","-9999.0","-9999.0","280","West","2.8","1.7","1009","29.80","-0.8","30.6","-9999","-9999","-9999.00","-9999.00","Light Drizzle","rain","0","0","0","0","0","0","SPECI UKKK 090706Z 28007MPS 2800 -DZ BR OVC004 04/04 Q1009 R26/290145 TEMPO BKN003"
"9:30 AM EET on December 09, 2016","2016","12","09","09","30","Europe/Kiev","7:30 AM GMT on December 09, 2016","2016","12","09","07","30","UTC","4.0","39.2","4.0","39.2","100","25.2","15.7","-9999.0","-9999.0","280","West","2.9","1.8","1009","29.80","-0.8","30.6","-9999","-9999","-9999.00","-9999.00","Light Drizzle","rain","0","0","0","0","0","0","METAR UKKK 090730Z 28007MPS 2900 -DZ BR OVC004 04/04 Q1009 R26/290145 TEMPO 1200 BR BKN002"
"10:00 AM EET on December 09, 2016","2016","12","09","10","00","Europe/Kiev","8:00 AM GMT on December 09, 2016","2016","12","09","08","00","UTC","5.0","41.0","4.0","39.2","93","28.8","17.9","-9999.0","-9999.0","280","West","2.5","1.6","1009","29.80","0.2","32.3","-9999","-9999","-9999.00","-9999.00","Light Drizzle","rain","0","0","0","0","0","0","METAR UKKK 090800Z 28008MPS 2500 -DZ BR OVC004 05/04 Q1009 R26/290145 TEMPO 1200 BR BKN002"
"10:30 AM EET on December 09, 2016","2016","12","09","10","30","Europe/Kiev","8:30 AM GMT on December 09, 2016","2016","12","09","08","30","UTC","5.0","41.0","4.0","39.2","93","28.8","17.9","-9999.0","-9999.0","280","West","6.0","3.7","1009","29.80","0.2","32.3","-9999","-9999","-9999.00","-9999.00","Light Drizzle","rain","0","0","0","0","0","0","METAR UKKK 090830Z 28008MPS 6000 -DZ OVC004 05/04 Q1009 R26/290145 TEMPO BKN003"
"11:00 AM EET on December 09, 2016","2016","12","09","11","00","Europe/Kiev","9:00 AM GMT on December 09, 2016","2016","12","09","09","00","UTC","5","42","4","40","90","18.0","11.2","","","310","NW","4","2","1010","29.82","-999","-999","-9999","-9999","","","Light Rain","rain","0","1","0","0","0","0","AAXX 09091 33345 41396 83105 10054 20045 39893 40097 51001 76165 885// 333 88709 555 1/002"
"11:00 AM EET on December 09, 2016","2016","12","09","11","00","Europe/Kiev","9:00 AM GMT on December 09, 2016","2016","12","09","09","00","UTC","5.0","41.0","4.0","39.2","93","25.2","15.7","-9999.0","-9999.0","280","West","7.0","4.3","1009","29.80","0.5","32.9","-9999","-9999","-9999.00","-9999.00","Light Rain","rain","0","1","0","0","0","0","METAR UKKK 090900Z 28007MPS 7000 -RA OVC006 05/04 Q1009 R26/290145 TEMPO BKN003"
"11:30 AM EET on December 09, 2016","2016","12","09","11","30","Europe/Kiev","9:30 AM GMT on December 09, 2016","2016","12","09","09","30","UTC","5.0","41.0","4.0","39.2","93","21.6","13.4","-9999.0","-9999.0","270","West","7.0","4.3","1009","29.80","0.9","33.6","-9999","-9999","-9999.00","-9999.00","Overcast","cloudy","0","0","0","0","0","0","METAR UKKK 090930Z 27006MPS 7000 OVC007 05/04 Q1009 R26/290145 NOSIG"
"12:00 PM EET on December 09, 2016","2016","12","09","12","00","Europe/Kiev","10:00 AM GMT on December 09, 2016","2016","12","09","10","00","UTC","5.0","41.0","4.0","39.2","93","21.6","13.4","-9999.0","-9999.0","270","West","8.0","5.0","1009","29.80","0.9","33.6","-9999","-9999","-9999.00","-9999.00","Overcast","cloudy","0","0","0","0","0","0","METAR UKKK 091000Z 27006MPS 8000 OVC009 05/04 Q1009 R26/290145 NOSIG"
"12:30 PM EET on December 09, 2016","2016","12","09","12","30","Europe/Kiev","10:30 AM GMT on December 09, 2016","2016","12","09","10","30","UTC","6.0","42.8","4.0","39.2","87","25.2","15.7","-9999.0","-9999.0","280","West","8.0","5.0","1009","29.80","1.8","35.2","-9999","-9999","-9999.00","-9999.00","Overcast","cloudy","0","0","0","0","0","0","METAR UKKK 091030Z 28007MPS 8000 OVC010 06/04 Q1009 R26/290145 NOSIG"
"1:00 PM EET on December 09, 2016","2016","12","09","13","00","Europe/Kiev","11:00 AM GMT on December 09, 2016","2016","12","09","11","00","UTC","6.0","42.8","5.0","41.0","93","25.2","15.7","-9999.0","-9999.0","280","West","4.5","2.8","1009","29.80","1.8","35.2","-9999","-9999","-9999.00","-9999.00","Light Drizzle","rain","0","0","0","0","0","0","METAR UKKK 091100Z 28007MPS 4500 -DZ BR OVC007 06/05 Q1009 R26/290145 NOSIG"
"1:30 PM EET on December 09, 2016","2016","12","09","13","30","Europe/Kiev","11:30 AM GMT on December 09, 2016","2016","12","09","11","30","UTC","6.0","42.8","5.0","41.0","93","25.2","15.7","-9999.0","-9999.0","280","West","-9999.0","-9999.0","1009","29.80","1.8","35.2","-9999","-9999","-9999.00","-9999.00","Light Drizzle","rain","0","0","0","0","0","0","METAR UKKK 091130Z 28007MPS 3900 -DZ BR OVC005 06/05 Q1009 R26/290145 NOSIG"
"2:00 PM EET on December 09, 2016","2016","12","09","14","00","Europe/Kiev","12:00 PM GMT on December 09, 2016","2016","12","09","12","00","UTC","6","42","5","40","91","14.4","8.9","","","310","NW","4","2","1010","29.82","-999","-999","-9999","-9999","","","Light Drizzle","rain","0","1","0","0","0","0","AAXX 09121 33345 /1396 83104 10055 20046 39894 40098 51001 75165 886// 333 88708 555 1/002 69941"
"2:00 PM EET on December 09, 2016","2016","12","09","14","00","Europe/Kiev","12:00 PM GMT on December 09, 2016","2016","12","09","12","00","UTC","6.0","42.8","5.0","41.0","93","28.8","17.9","-9999.0","-9999.0","280","West","-9999.0","-9999.0","1009","29.80","1.5","34.7","-9999","-9999","-9999.00","-9999.00","Light Drizzle","rain","0","0","0","0","0","0","METAR UKKK 091200Z 28008MPS 3400 -DZ BR OVC006 06/05 Q1009 R26/290145 NOSIG"
"2:30 PM EET on December 09, 2016","2016","12","09","14","30","Europe/Kiev","12:30 PM GMT on December 09, 2016","2016","12","09","12","30","UTC","5.0","41.0","5.0","41.0","100","25.2","15.7","-9999.0","-9999.0","280","West","2.5","1.6","1009","29.80","0.5","32.9","-9999","-9999","-9999.00","-9999.00","Light Drizzle","rain","0","0","0","0","0","0","METAR UKKK 091230Z 28007MPS 2500 -DZ BR OVC004 05/05 Q1009 R26/290145 NOSIG"
"3:00 PM EET on December 09, 2016","2016","12","09","15","00","Europe/Kiev","1:00 PM GMT on December 09, 2016","2016","12","09","13","00","UTC","5.0","41.0","5.0","41.0","100","25.2","15.7","-9999.0","-9999.0","280","West","3.5","2.2","1009","29.80","0.5","32.9","-9999","-9999","-9999.00","-9999.00","Light Drizzle","rain","0","0","0","0","0","0","METAR UKKK 091300Z 28007MPS 3500 -DZ BR OVC004 05/05 Q1009 R26/290145 TEMPO 1000 BR BKN002"
"3:30 PM EET on December 09, 2016","2016","12","09","15","30","Europe/Kiev","1:30 PM GMT on December 09, 2016","2016","12","09","13","30","UTC","5.0","41.0","5.0","41.0","100","25.2","15.7","-9999.0","-9999.0","280","West","-9999.0","-9999.0","1009","29.80","0.5","32.9","-9999","-9999","-9999.00","-9999.00","Light Drizzle","rain","0","0","0","0","0","0","METAR UKKK 091330Z 28007MPS 3300 -DZ BR OVC005 05/05 Q1009 R26/290145 TEMPO 1000 BR BKN002"
"4:00 PM EET on December 09, 2016","2016","12","09","16","00","Europe/Kiev","2:00 PM GMT on December 09, 2016","2016","12","09","14","00","UTC","5.0","41.0","5.0","41.0","100","25.2","15.7","-9999.0","-9999.0","280","West","-9999.0","-9999.0","1009","29.80","0.5","32.9","-9999","-9999","-9999.00","-9999.00","Light Drizzle","rain","0","0","0","0","0","0","METAR UKKK 091400Z 28007MPS 4200 -DZ BR OVC005 05/05 Q1009 R26/290145 TEMPO 1500 BR BKN004"
"4:30 PM EET on December 09, 2016","2016","12","09","16","30","Europe/Kiev","2:30 PM GMT on December 09, 2016","2016","12","09","14","30","UTC","6.0","42.8","5.0","41.0","93","25.2","15.7","-9999.0","-9999.0","290","WNW","6.0","3.7","1009","29.80","1.8","35.2","-9999","-9999","-9999.00","-9999.00","Light Drizzle","rain","0","0","0","0","0","0","METAR UKKK 091430Z 29007MPS 6000 -DZ OVC007 06/05 Q1009 R26/290145 TEMPO BKN004"
"5:00 PM EET on December 09, 2016","2016","12","09","17","00","Europe/Kiev","3:00 PM GMT on December 09, 2016","2016","12","09","15","00","UTC","6","43","5","41","90","14.4","8.9","","","300","WNW","4","2","1009","29.81","-999","-999","-9999","-9999","","","Light Drizzle","rain","0","1","0","0","0","0","AAXX 09151 33345 41396 83004 10059 20050 39889 40093 58005 75152 886// 333 88708 555 11004"
"5:00 PM EET on December 09, 2016","2016","12","09","17","00","Europe/Kiev","3:00 PM GMT on December 09, 2016","2016","12","09","15","00","UTC","6.0","42.8","5.0","41.0","93","21.6","13.4","-9999.0","-9999.0","280","West","6.0","3.7","1009","29.80","2.2","35.9","-9999","-9999","-9999.00","-9999.00","Light Drizzle","rain","0","0","0","0","0","0","METAR UKKK 091500Z 28006MPS 6000 -DZ OVC007 06/05 Q1009 R26/290145 TEMPO BKN004"
"5:30 PM EET on December 09, 2016","2016","12","09","17","30","Europe/Kiev","3:30 PM GMT on December 09, 2016","2016","12","09","15","30","UTC","6.0","42.8","5.0","41.0","93","21.6","13.4","-9999.0","-9999.0","280","West","6.0","3.7","1009","29.80","2.2","35.9","-9999","-9999","-9999.00","-9999.00","Overcast","cloudy","0","0","0","0","0","0","METAR UKKK 091530Z 28006MPS 6000 OVC007 06/05 Q1009 R26/290145 TEMPO BKN004"
"6:00 PM EET on December 09, 2016","2016","12","09","18","00","Europe/Kiev","4:00 PM GMT on December 09, 2016","2016","12","09","16","00","UTC","5.0","41.0","4.0","39.2","93","21.6","13.4","-9999.0","-9999.0","270","West","-9999.0","-9999.0","1009","29.80","0.9","33.6","-9999","-9999","-9999.00","-9999.00","Overcast","cloudy","0","0","0","0","0","0","METAR UKKK 091600Z 27006MPS 4600 BR BKN006 OVC015 05/04 Q1009 R26/290145 NOSIG"
"6:30 PM EET on December 09, 2016","2016","12","09","18","30","Europe/Kiev","4:30 PM GMT on December 09, 2016","2016","12","09","16","30","UTC","5.0","41.0","4.0","39.2","93","25.2","15.7","-9999.0","-9999.0","260","West","-9999.0","-9999.0","1008","29.77","0.5","32.9","-9999","-9999","-9999.00","-9999.00","Overcast","cloudy","0","0","0","0","0","0","METAR UKKK 091630Z 26007MPS 3600 BR BKN005 OVC015 05/04 Q1008 R26/290145 NOSIG"
"7:00 PM EET on December 09, 2016","2016","12","09","19","00","Europe/Kiev","5:00 PM GMT on December 09, 2016","2016","12","09","17","00","UTC","5.0","41.0","4.0","39.2","93","25.2","15.7","-9999.0","-9999.0","270","West","2.6","1.6","1008","29.77","0.5","32.9","-9999","-9999","-9999.00","-9999.00","Overcast","cloudy","0","0","0","0","0","0","METAR UKKK 091700Z 27007MPS 2600 BR BKN004 OVC015 05/04 Q1008 R26/290145 TEMPO 1500 BR BKN004"
"7:30 PM EET on December 09, 2016","2016","12","09","19","30","Europe/Kiev","5:30 PM GMT on December 09, 2016","2016","12","09","17","30","UTC","5.0","41.0","4.0","39.2","93","21.6","13.4","-9999.0","-9999.0","270","West","-9999.0","-9999.0","1008","29.77","0.9","33.6","-9999","-9999","-9999.00","-9999.00","Overcast","cloudy","0","0","0","0","0","0","METAR UKKK 091730Z 27006MPS 3100 BR OVC004 05/04 Q1008 R26/290145 TEMPO 1500 BR BKN003"
"8:00 PM EET on December 09, 2016","2016","12","09","20","00","Europe/Kiev","6:00 PM GMT on December 09, 2016","2016","12","09","18","00","UTC","5","41","4","40","93","18.0","11.2","","","290","WNW","4","2","1008","29.78","-999","-999","-9999","-9999","","","Light Drizzle","rain","0","1","0","0","0","0","AAXX 09181 33345 11296 82905 10052 20043 39878 40082 57011 69942 75152 886// 333 10059 88706 555 11004"
"8:00 PM EET on December 09, 2016","2016","12","09","20","00","Europe/Kiev","6:00 PM GMT on December 09, 2016","2016","12","09","18","00","UTC","5.0","41.0","4.0","39.2","93","25.2","15.7","-9999.0","-9999.0","270","West","-9999.0","-9999.0","1007","29.74","0.5","32.9","-9999","-9999","-9999.00","-9999.00","Overcast","cloudy","0","0","0","0","0","0","METAR UKKK 091800Z 27007MPS 3300 BR OVC004 05/04 Q1007 R26/290145 TEMPO 1500 BR BKN003"
"8:30 PM EET on December 09, 2016","2016","12","09","20","30","Europe/Kiev","6:30 PM GMT on December 09, 2016","2016","12","09","18","30","UTC","5.0","41.0","4.0","39.2","93","21.6","13.4","-9999.0","-9999.0","270","West","2.1","1.3","1007","29.74","0.9","33.6","-9999","-9999","-9999.00","-9999.00","Light Drizzle","rain","0","0","0","0","0","0","METAR UKKK 091830Z 27006MPS 2100 -DZ BR OVC004 05/04 Q1007 R26/290145 TEMPO 1500 BR BKN003"
"9:00 PM EET on December 09, 2016","2016","12","09","21","00","Europe/Kiev","7:00 PM GMT on December 09, 2016","2016","12","09","19","00","UTC","5.0","41.0","4.0","39.2","93","25.2","15.7","-9999.0","-9999.0","280","West","2.7","1.7","1007","29.74","0.5","32.9","-9999","-9999","-9999.00","-9999.00","Light Drizzle","rain","0","0","0","0","0","0","METAR UKKK 091900Z 28007MPS 2700 -DZ BR OVC005 05/04 Q1007 R26/290145 TEMPO 1500 BR BKN003"
"9:30 PM EET on December 09, 2016","2016","12","09","21","30","Europe/Kiev","7:30 PM GMT on December 09, 2016","2016","12","09","19","30","UTC","5.0","41.0","4.0","39.2","93","28.8","17.9","-9999.0","-9999.0","280","West","1.4","0.9","1007","29.74","0.2","32.3","-9999","-9999","-9999.00","-9999.00","Light Drizzle","rain","0","0","0","0","0","0","METAR UKKK 091930Z 28008MPS 1400 R26/1800U -DZ BR OVC004 05/04 Q1007 R26/290345 TEMPO 1000 BR BKN004"
"10:00 PM EET on December 09, 2016","2016","12","09","22","00","Europe/Kiev","8:00 PM GMT on December 09, 2016","2016","12","09","20","00","UTC","5.0","41.0","4.0","39.2","93","25.2","15.7","-9999.0","-9999.0","280","West","5.0","3.1","1007","29.74","0.5","32.9","-9999","-9999","-9999.00","-9999.00","Light Drizzle","rain","0","0","0","0","0","0","METAR UKKK 092000Z 28007MPS 5000 -DZ BR OVC007 05/04 Q1007 R26/290345 TEMPO 2000 BR BKN005"
"10:30 PM EET on December 09, 2016","2016","12","09","22","30","Europe/Kiev","8:30 PM GMT on December 09, 2016","2016","12","09","20","30","UTC","5.0","41.0","4.0","39.2","93","25.2","15.7","-9999.0","-9999.0","290","WNW","7.0","4.3","1007","29.74","0.5","32.9","-9999","-9999","-9999.00","-9999.00","Light Rain","rain","0","1","0","0","0","0","METAR UKKK 092030Z 29007MPS 7000 -RA OVC011 05/04 Q1007 R26/290345 NOSIG"
"11:00 PM EET on December 09, 2016","2016","12","09","23","00","Europe/Kiev","9:00 PM GMT on December 09, 2016","2016","12","09","21","00","UTC","5","42","4","39","85","14.4","8.9","","","310","NW","4","2","1008","29.78","-999","-999","-9999","-9999","","","Light Rain","rain","0","1","0","0","0","0","AAXX 09211 33345 41496 83104 10053 20039 39878 40082 54000 72165 885// 333 88713 555 11004"
"11:00 PM EET on December 09, 2016","2016","12","09","23","00","Europe/Kiev","9:00 PM GMT on December 09, 2016","2016","12","09","21","00","UTC","5.0","41.0","4.0","39.2","93","25.2","15.7","-9999.0","-9999.0","290","WNW","9.0","5.6","1007","29.74","0.5","32.9","-9999","-9999","-9999.00","-9999.00","Light Rain","rain","0","1","0","0","0","0","METAR UKKK 092100Z 29007MPS 9000 -RA OVC011 05/04 Q1007 R26/290345 NOSIG"
"11:30 PM EET on December 09, 2016","2016","12","09","23","30","Europe/Kiev","9:30 PM GMT on December 09, 2016","2016","12","09","21","30","UTC","5.0","41.0","4.0","39.2","93","28.8","17.9","-9999.0","-9999.0","280","West","8.0","5.0","1007","29.74","0.2","32.3","-9999","-9999","-9999.00","-9999.00","Overcast","cloudy","0","0","0","0","0","0","METAR UKKK 092130Z 28008MPS 8000 OVC011 05/04 Q1007 R26/290345 NOSIG"
"12:00 AM EET on December 10, 2016","2016","12","10","00","00","Europe/Kiev","10:00 PM GMT on December 09, 2016","2016","12","09","22","00","UTC","5.0","41.0","4.0","39.2","93","25.2","15.7","-9999.0","-9999.0","280","West","7.0","4.3","1007","29.74","0.5","32.9","-9999","-9999","-9999.00","-9999.00","Overcast","cloudy","0","0","0","0","0","0","METAR UKKK 092200Z 28007MPS 7000 OVC008 05/04 Q1007 R26/290345 TEMPO 2000 BR OVC006"
"12:30 AM EET on December 10, 2016","2016","12","10","00","30","Europe/Kiev","10:30 PM GMT on December 09, 2016","2016","12","09","22","30","UTC","5.0","41.0","4.0","39.2","93","25.2","15.7","-9999.0","-9999.0","280","West","9.0","5.6","1007","29.74","0.5","32.9","-9999","-9999","-9999.00","-9999.00","Light Rain","rain","0","1","0","0","0","0","METAR UKKK 092230Z 28007MPS 9000 -RA OVC010 05/04 Q1007 R26/290345 TEMPO 2000 BR OVC007"
"1:00 AM EET on December 10, 2016","2016","12","10","01","00","Europe/Kiev","11:00 PM GMT on December 09, 2016","2016","12","09","23","00","UTC","5.0","41.0","4.0","39.2","93","25.2","15.7","-9999.0","-9999.0","290","WNW","9.0","5.6","1007","29.74","0.5","32.9","-9999","-9999","-9999.00","-9999.00","Light Rain","rain","0","1","0","0","0","0","METAR UKKK 092300Z 29007MPS 9000 -RA OVC009 05/04 Q1007 R26/290345 NOSIG"
"1:30 AM EET on December 10, 2016","2016","12","10","01","30","Europe/Kiev","11:30 PM GMT on December 09, 2016","2016","12","09","23","30","UTC","5.0","41.0","4.0","39.2","93","21.6","13.4","-9999.0","-9999.0","290","WNW","5.0","3.1","1007","29.74","0.9","33.6","-9999","-9999","-9999.00","-9999.00","Light Drizzle","rain","0","0","0","0","0","0","METAR UKKK 092330Z 29006MPS 5000 -DZ OVC007 05/04 Q1007 R26/290345 NOSIG"
"2:00 AM EET on December 10, 2016","2016","12","10","02","00","Europe/Kiev","12:00 AM GMT on December 10, 2016","2016","12","10","00","00","UTC","5","41","4","40","92","14.4","8.9","","","330","NNW","4","2","1008","29.77","-999","-999","-9999","-9999","","","Drizzle","rain","0","1","0","0","0","0","AAXX 10001 33345 /1396 83304 10051 20042 39876 40080 58002 75365 886// 333 88709 555 11004 69971"
"2:00 AM EET on December 10, 2016","2016","12","10","02","00","Europe/Kiev","12:00 AM GMT on December 10, 2016","2016","12","10","00","00","UTC","5.0","41.0","4.0","39.2","93","25.2","15.7","-9999.0","-9999.0","300","WNW","7.0","4.3","1007","29.74","0.5","32.9","-9999","-9999","-9999.00","-9999.00","Light Rain","rain","0","1","0","0","0","0","METAR UKKK 100000Z 30007MPS 7000 -RA OVC007 05/04 Q1007 R26/290345 NOSIG"
"2:30 AM EET on December 10, 2016","2016","12","10","02","30","Europe/Kiev","12:30 AM GMT on December 10, 2016","2016","12","10","00","30","UTC","6.0","42.8","4.0","39.2","87","25.2","15.7","-9999.0","-9999.0","300","WNW","10.0","6.2","1008","29.77","1.8","35.2","-9999","-9999","-9999.00","-9999.00","Overcast","cloudy","0","0","0","0","0","0","METAR UKKK 100030Z 30007MPS 9999 OVC011 06/04 Q1008 R26/290345 NOSIG"
"3:00 AM EET on December 10, 2016","2016","12","10","03","00","Europe/Kiev","1:00 AM GMT on December 10, 2016","2016","12","10","01","00","UTC","6.0","42.8","4.0","39.2","87","25.2","15.7","-9999.0","-9999.0","300","WNW","9.0","5.6","1008","29.77","1.8","35.2","-9999","-9999","-9999.00","-9999.00","Light Rain","rain","0","1","0","0","0","0","METAR UKKK 100100Z 30007MPS 9000 -RA SCT010 OVC025 06/04 Q1008 R26/290345 NOSIG"
"3:30 AM EET on December 10, 2016","2016","12","10","03","30","Europe/Kiev","1:30 AM GMT on December 10, 2016","2016","12","10","01","30","UTC","6.0","42.8","4.0","39.2","87","25.2","15.7","-9999.0","-9999.0","300","WNW","6.0","3.7","1008","29.77","1.8","35.2","-9999","-9999","-9999.00","-9999.00","Light Rain","rain","0","1","0","0","0","0","METAR UKKK 100130Z 30007MPS 6000 -RA BKN006 OVC025 06/04 Q1008 R26/290345 TEMPO 2000 BR OVC005"
"4:00 AM EET on December 10, 2016","2016","12","10","04","00","Europe/Kiev","2:00 AM GMT on December 10, 2016","2016","12","10","02","00","UTC","6.0","42.8","5.0","41.0","93","28.8","17.9","-9999.0","-9999.0","300","WNW","10.0","6.2","1008","29.77","1.5","34.7","-9999","-9999","-9999.00","-9999.00","Overcast","cloudy","0","0","0","0","0","0","METAR UKKK 100200Z 30008MPS 9999 BKN009 OVC026 06/05 Q1008 R26/290345 TEMPO 2000 BR OVC005"
"4:30 AM EET on December 10, 2016","2016","12","10","04","30","Europe/Kiev","2:30 AM GMT on December 10, 2016","2016","12","10","02","30","UTC","6.0","42.8","4.0","39.2","87","25.2","15.7","-9999.0","-9999.0","310","NW","9.0","5.6","1009","29.80","1.8","35.2","-9999","-9999","-9999.00","-9999.00","Light Rain","rain","0","1","0","0","0","0","METAR UKKK 100230Z 31007MPS 9000 -RA BKN008 OVC028 06/04 Q1009 R26/290345 NOSIG"
"4:49 AM EET on December 10, 2016","2016","12","10","04","49","Europe/Kiev","2:49 AM GMT on December 10, 2016","2016","12","10","02","49","UTC","6.0","42.8","5.0","41.0","93","25.2","15.7","43.2","26.8","310","NW","7.0","4.3","1009","29.80","1.8","35.2","-9999","-9999","-9999.00","-9999.00","Light Rain","rain","0","1","0","0","0","0","SPECI UKKK 100249Z 31007G12MPS 7000 -RA BKN007 OVC028 06/05 Q1009 R26/290345 NOSIG"
"5:00 AM EET on December 10, 2016","2016","12","10","05","00","Europe/Kiev","3:00 AM GMT on December 10, 2016","2016","12","10","03","00","UTC","6","42","5","40","91","14.4","8.9","","","340","NNW","4","2","1010","29.82","-999","-999","-9999","-9999","","","Mist","hazy","0","0","0","0","0","0","AAXX 10031 33345 41396 83404 10058 20046 39892 40096 53016 71065 886// 333 88709 555 11004"
"5:00 AM EET on December 10, 2016","2016","12","10","05","00","Europe/Kiev","3:00 AM GMT on December 10, 2016","2016","12","10","03","00","UTC","6.0","42.8","5.0","41.0","93","25.2","15.7","-9999.0","-9999.0","300","WNW","9.0","5.6","1009","29.80","1.8","35.2","-9999","-9999","-9999.00","-9999.00","Light Rain","rain","0","1","0","0","0","0","METAR UKKK 100300Z 30007MPS 9000 -RA BKN009 OVC028 06/05 Q1009 R26/290345 NOSIG"
"5:30 AM EET on December 10, 2016","2016","12","10","05","30","Europe/Kiev","3:30 AM GMT on December 10, 2016","2016","12","10","03","30","UTC","6.0","42.8","5.0","41.0","93","28.8","17.9","-9999.0","-9999.0","310","NW","9.0","5.6","1009","29.80","1.5","34.7","-9999","-9999","-9999.00","-9999.00","Light Rain","rain","0","1","0","0","0","0","METAR UKKK 100330Z 31008MPS 9000 -RA BKN009 OVC023 06/05 Q1009 R26/290345 TEMPO 2000 BROVC005"
"6:00 AM EET on December 10, 2016","2016","12","10","06","00","Europe/Kiev","4:00 AM GMT on December 10, 2016","2016","12","10","04","00","UTC","6.0","42.8","4.0","39.2","87","28.8","17.9","-9999.0","-9999.0","300","WNW","10.0","6.2","1009","29.80","1.5","34.7","-9999","-9999","-9999.00","-9999.00","Mostly Cloudy","mostlycloudy","0","0","0","0","0","0","METAR UKKK 100400Z 30008MPS 9999 SCT009 BKN036 06/04 Q1009 R26/290345 NOSIG"
"6:30 AM EET on December 10, 2016","2016","12","10","06","30","Europe/Kiev","4:30 AM GMT on December 10, 2016","2016","12","10","04","30","UTC","6.0","42.8","5.0","41.0","93","21.6","13.4","-9999.0","-9999.0","300","WNW","5.0","3.1","1009","29.80","2.2","35.9","-9999","-9999","-9999.00","-9999.00","Light Rain","rain","0","1","0","0","0","0","METAR UKKK 100430Z 30006MPS 5000 -RA SCT006 OVC024 06/05 Q1009 R26/290345 TEMPO 2000 BR OVC005"
"7:00 AM EET on December 10, 2016","2016","12","10","07","00","Europe/Kiev","5:00 AM GMT on December 10, 2016","2016","12","10","05","00","UTC","6.0","42.8","5.0","41.0","93","25.2","15.7","-9999.0","-9999.0","300","WNW","9.0","5.6","1010","29.83","1.8","35.2","-9999","-9999","-9999.00","-9999.00","Light Rain","rain","0","1","0","0","0","0","METAR UKKK 100500Z 30007MPS 9000 -RA SCT007 OVC024 06/05 Q1010 R26/290345 TEMPO 2000 BR OVC005"
"7:08 AM EET on December 10, 2016","2016","12","10","07","08","Europe/Kiev","5:08 AM GMT on December 10, 2016","2016","12","10","05","08","UTC","6.0","42.8","5.0","41.0","93","25.2","15.7","43.2","26.8","300","WNW","-9999.0","-9999.0","1010","29.83","1.8","35.2","-9999","-9999","-9999.00","-9999.00","Light Rain","rain","0","1","0","0","0","0","SPECI UKKK 100508Z 30007G12MPS 4600 -RA SCT008 OVC024 06/05 Q1010 R26/290345 TEMPO 2000 BR OVC005"
"7:30 AM EET on December 10, 2016","2016","12","10","07","30","Europe/Kiev","5:30 AM GMT on December 10, 2016","2016","12","10","05","30","UTC","6.0","42.8","5.0","41.0","93","25.2","15.7","-9999.0","-9999.0","300","WNW","9.0","5.6","1010","29.83","1.8","35.2","-9999","-9999","-9999.00","-9999.00","Light Rain","rain","0","1","0","0","0","0","METAR UKKK 100530Z 30007MPS 9000 -RA SCT010 OVC024 06/05 Q1010 R26/290345 NOSIG"
"8:00 AM EET on December 10, 2016","2016","12","10","08","00","Europe/Kiev","6:00 AM GMT on December 10, 2016","2016","12","10","06","00","UTC","6","42","4","40","89","14.4","8.9","","","330","NNW","4","2","1010","29.83","-999","-999","-9999","-9999","","","Mist","hazy","0","0","0","0","0","0","AAXX 10061 33345 11496 83304 10058 20044 39898 40102 52006 69972 71065 885// 333 20049 88710 555 11004"
"8:00 AM EET on December 10, 2016","2016","12","10","08","00","Europe/Kiev","6:00 AM GMT on December 10, 2016","2016","12","10","06","00","UTC","6.0","42.8","4.0","39.2","87","25.2","15.7","-9999.0","-9999.0","290","WNW","10.0","6.2","1010","29.83","1.8","35.2","-9999","-9999","-9999.00","-9999.00","Overcast","cloudy","0","0","0","0","0","0","METAR UKKK 100600Z 29007MPS 9999 SCT012 OVC024 06/04 Q1010 R26/290345 NOSIG"
"8:30 AM EET on December 10, 2016","2016","12","10","08","30","Europe/Kiev","6:30 AM GMT on December 10, 2016","2016","12","10","06","30","UTC","6.0","42.8","4.0","39.2","87","25.2","15.7","-9999.0","-9999.0","290","WNW","10.0","6.2","1010","29.83","1.8","35.2","-9999","-9999","-9999.00","-9999.00","Overcast","cloudy","0","0","0","0","0","0","METAR UKKK 100630Z 29007MPS 9999 SCT011 OVC025 06/04 Q1010 R26/290345 NOSIG"
"9:00 AM EET on December 10, 2016","2016","12","10","09","00","Europe/Kiev","7:00 AM GMT on December 10, 2016","2016","12","10","07","00","UTC","6.0","42.8","4.0","39.2","87","25.2","15.7","43.2","26.8","300","WNW","10.0","6.2","1010","29.83","1.8","35.2","-9999","-9999","-9999.00","-9999.00","Overcast","cloudy","0","0","0","0","0","0","METAR UKKK 100700Z 30007G12MPS 9999 OVC018 06/04 Q1010 R26/290345 NOSIG"
"9:30 AM EET on December 10, 2016","2016","12","10","09","30","Europe/Kiev","7:30 AM GMT on December 10, 2016","2016","12","10","07","30","UTC","6.0","42.8","4.0","39.2","87","25.2","15.7","-9999.0","-9999.0","300","WNW","10.0","6.2","1010","29.83","1.8","35.2","-9999","-9999","-9999.00","-9999.00","Overcast","cloudy","0","0","0","0","0","0","METAR UKKK 100730Z 30007MPS 9999 OVC028 06/04 Q1010 R26/290345 NOSIG"
"10:00 AM EET on December 10, 2016","2016","12","10","10","00","Europe/Kiev","8:00 AM GMT on December 10, 2016","2016","12","10","08","00","UTC","6.0","42.8","4.0","39.2","87","21.6","13.4","-9999.0","-9999.0","290","WNW","10.0","6.2","1010","29.83","2.2","35.9","-9999","-9999","-9999.00","-9999.00","Overcast","cloudy","0","0","0","0","0","0","METAR UKKK 100800Z 29006MPS 9999 OVC027 06/04 Q1010 R26/290345 NOSIG"
"10:30 AM EET on December 10, 2016","2016","12","10","10","30","Europe/Kiev","8:30 AM GMT on December 10, 2016","2016","12","10","08","30","UTC","6.0","42.8","4.0","39.2","87","25.2","15.7","-9999.0","-9999.0","280","West","10.0","6.2","1009","29.80","1.8","35.2","-9999","-9999","-9999.00","-9999.00","Overcast","cloudy","0","0","0","0","0","0","METAR UKKK 100830Z 28007MPS 9999 SCT018 OVC028 06/04 Q1009 R26/290345 NOSIG"
"11:00 AM EET on December 10, 2016","2016","12","10","11","00","Europe/Kiev","9:00 AM GMT on December 10, 2016","2016","12","10","09","00","UTC","6","44","3","38","72","10.8","6.7","","","310","NW","20","12","1010","29.83","-999","-999","-9999","-9999","","","Overcast","cloudy","0","0","0","0","0","0","AAXX 10091 33345 42598 83103 10064 20033 39898 40102 54000 885// 333 88625 555 11005"
"11:00 AM EET on December 10, 2016","2016","12","10","11","00","Europe/Kiev","9:00 AM GMT on December 10, 2016","2016","12","10","09","00","UTC","6.0","42.8","4.0","39.2","87","25.2","15.7","-9999.0","-9999.0","280","West","10.0","6.2","1009","29.80","1.8","35.2","-9999","-9999","-9999.00","-9999.00","Overcast","cloudy","0","0","0","0","0","0","METAR UKKK 100900Z 28007MPS 9999 SCT016 OVC030 06/04 Q1009 R26/290345 NOSIG"
"11:30 AM EET on December 10, 2016","2016","12","10","11","30","Europe/Kiev","9:30 AM GMT on December 10, 2016","2016","12","10","09","30","UTC","6.0","42.8","4.0","39.2","87","25.2","15.7","-9999.0","-9999.0","280","West","10.0","6.2","1009","29.80","1.8","35.2","-9999","-9999","-9999.00","-9999.00","Overcast","cloudy","0","0","0","0","0","0","METAR UKKK 100930Z 28007MPS 9999 SCT017 OVC030 06/04 Q1009 R26/290345 NOSIG"
"12:00 PM EET on December 10, 2016","2016","12","10","12","00","Europe/Kiev","10:00 AM GMT on December 10, 2016","2016","12","10","10","00","UTC","6.0","42.8","4.0","39.2","87","25.2","15.7","-9999.0","-9999.0","280","West","10.0","6.2","1009","29.80","1.8","35.2","-9999","-9999","-9999.00","-9999.00","Overcast","cloudy","0","0","0","0","0","0","METAR UKKK 101000Z 28007MPS 9999 SCT018 OVC030 06/04 Q1009 R26/290245 NOSIG"
"12:30 PM EET on December 10, 2016","2016","12","10","12","30","Europe/Kiev","10:30 AM GMT on December 10, 2016","2016","12","10","10","30","UTC","6.0","42.8","4.0","39.2","87","25.2","15.7","-9999.0","-9999.0","280","West","10.0","6.2","1009","29.80","1.8","35.2","-9999","-9999","-9999.00","-9999.00","Overcast","cloudy","0","0","0","0","0","0","METAR UKKK 101030Z 28007MPS 9999 SCT018 OVC030 06/04 Q1009 R26/290245 NOSIG"
"1:00 PM EET on December 10, 2016","2016","12","10","13","00","Europe/Kiev","11:00 AM GMT on December 10, 2016","2016","12","10","11","00","UTC","6.0","42.8","3.0","37.4","81","25.2","15.7","-9999.0","-9999.0","280","West","10.0","6.2","1008","29.77","1.8","35.2","-9999","-9999","-9999.00","-9999.00","Overcast","cloudy","0","0","0","0","0","0","METAR UKKK 101100Z 28007MPS 9999 OVC022 06/03 Q1008 R26/290245 NOSIG"
"1:30 PM EET on December 10, 2016","2016","12","10","13","30","Europe/Kiev","11:30 AM GMT on December 10, 2016","2016","12","10","11","30","UTC","6.0","42.8","3.0","37.4","81","25.2","15.7","-9999.0","-9999.0","280","West","10.0","6.2","1008","29.77","1.8","35.2","-9999","-9999","-9999.00","-9999.00","Overcast","cloudy","0","0","0","0","0","0","METAR UKKK 101130Z 28007MPS 9999 OVC023 06/03 Q1008 R26/290245 NOSIG"
"2:00 PM EET on December 10, 2016","2016","12","10","14","00","Europe/Kiev","12:00 PM GMT on December 10, 2016","2016","12","10","12","00","UTC","6","44","3","37","69","10.8","6.7","","","300","WNW","20","12","1008","29.78","-999","-999","-9999","-9999","","","Overcast","cloudy","0","0","0","0","0","0","AAXX 10121 33345 32598 83003 10065 20029 39882 40085 58016 885// 333 88624 555 11005"
"2:00 PM EET on December 10, 2016","2016","12","10","14","00","Europe/Kiev","12:00 PM GMT on December 10, 2016","2016","12","10","12","00","UTC","6.0","42.8","3.0","37.4","81","21.6","13.4","-9999.0","-9999.0","280","West","10.0","6.2","1008","29.77","2.2","35.9","-9999","-9999","-9999.00","-9999.00","Overcast","cloudy","0","0","0","0","0","0","METAR UKKK 101200Z 28006MPS 9999 OVC021 06/03 Q1008 R26/290147 NOSIG"
"2:30 PM EET on December 10, 2016","2016","12","10","14","30","Europe/Kiev","12:30 PM GMT on December 10, 2016","2016","12","10","12","30","UTC","6.0","42.8","3.0","37.4","81","21.6","13.4","-9999.0","-9999.0","280","West","10.0","6.2","1007","29.74","2.2","35.9","-9999","-9999","-9999.00","-9999.00","Overcast","cloudy","0","0","0","0","0","0","METAR UKKK 101230Z 28006MPS 9999 OVC030 06/03 Q1007 R26/290147 NOSIG"
"3:00 PM EET on December 10, 2016","2016","12","10","15","00","Europe/Kiev","1:00 PM GMT on December 10, 2016","2016","12","10","13","00","UTC","6.0","42.8","3.0","37.4","81","21.6","13.4","-9999.0","-9999.0","260","West","10.0","6.2","1007","29.74","2.2","35.9","-9999","-9999","-9999.00","-9999.00","Overcast","cloudy","0","0","0","0","0","0","METAR UKKK 101300Z 26006MPS 9999 OVC021 06/03 Q1007 R26/290147 NOSIG"
"3:30 PM EET on December 10, 2016","2016","12","10","15","30","Europe/Kiev","1:30 PM GMT on December 10, 2016","2016","12","10","13","30","UTC","6.0","42.8","3.0","37.4","81","18.0","11.2","-9999.0","-9999.0","270","West","10.0","6.2","1007","29.74","2.6","36.7","-9999","-9999","-9999.00","-9999.00","Overcast","cloudy","0","0","0","0","0","0","METAR UKKK 101330Z 27005MPS 9999 OVC022 06/03 Q1007 R26/290147 NOSIG"
"4:00 PM EET on December 10, 2016","2016","12","10","16","00","Europe/Kiev","2:00 PM GMT on December 10, 2016","2016","12","10","14","00","UTC","6.0","42.8","4.0","39.2","87","18.0","11.2","-9999.0","-9999.0","270","West","10.0","6.2","1007","29.74","2.6","36.7","-9999","-9999","-9999.00","-9999.00","Overcast","cloudy","0","0","0","0","0","0","METAR UKKK 101400Z 27005MPS 9999 OVC022 06/04 Q1007 R26/290147 NOSIG"
"4:30 PM EET on December 10, 2016","2016","12","10","16","30","Europe/Kiev","2:30 PM GMT on December 10, 2016","2016","12","10","14","30","UTC","6.0","42.8","4.0","39.2","87","18.0","11.2","-9999.0","-9999.0","260","West","10.0","6.2","1007","29.74","2.6","36.7","-9999","-9999","-9999.00","-9999.00","Light Rain","rain","0","1","0","0","0","0","METAR UKKK 101430Z 26005MPS 9999 -RA OVC021 06/04 Q1007 R26/290147 NOSIG"
"5:00 PM EET on December 10, 2016","2016","12","10","17","00","Europe/Kiev","3:00 PM GMT on December 10, 2016","2016","12","10","15","00","UTC","6","43","4","38","78","18.0","11.2","","","290","WNW","20","12","1007","29.74","-999","-999","-9999","-9999","","","Overcast","cloudy","0","0","0","0","0","0","AAXX 10151 33345 42598 82905 10062 20036 39868 40071 57014 885// 333 88631 555 11005"
"5:00 PM EET on December 10, 2016","2016","12","10","17","00","Europe/Kiev","3:00 PM GMT on December 10, 2016","2016","12","10","15","00","UTC","6.0","42.8","4.0","39.2","87","21.6","13.4","-9999.0","-9999.0","270","West","10.0","6.2","1006","29.71","2.2","35.9","-9999","-9999","-9999.00","-9999.00","Light Rain","rain","0","1","0","0","0","0","METAR UKKK 101500Z 27006MPS 9999 -RA BKN013 OVC031 06/04 Q1006 R26/290147 NOSIG"
"5:30 PM EET on December 10, 2016","2016","12","10","17","30","Europe/Kiev","3:30 PM GMT on December 10, 2016","2016","12","10","15","30","UTC","6.0","42.8","4.0","39.2","87","18.0","11.2","-9999.0","-9999.0","270","West","10.0","6.2","1006","29.71","2.6","36.7","-9999","-9999","-9999.00","-9999.00","Light Rain","rain","0","1","0","0","0","0","METAR UKKK 101530Z 27005MPS 9999 -RA BKN013 OVC033 06/04 Q1006 R26/290147 NOSIG"
"6:00 PM EET on December 10, 2016","2016","12","10","18","00","Europe/Kiev","4:00 PM GMT on December 10, 2016","2016","12","10","16","00","UTC","6.0","42.8","5.0","41.0","93","21.6","13.4","-9999.0","-9999.0","260","West","10.0","6.2","1006","29.71","2.2","35.9","-9999","-9999","-9999.00","-9999.00","Light Rain","rain","0","1","0","0","0","0","METAR UKKK 101600Z 26006MPS 9999 -RA BKN008 OVC023 06/05 Q1006 R26/290147 NOSIG"
"6:30 PM EET on December 10, 2016","2016","12","10","18","30","Europe/Kiev","4:30 PM GMT on December 10, 2016","2016","12","10","16","30","UTC","6.0","42.8","5.0","41.0","93","21.6","13.4","-9999.0","-9999.0","270","West","9.0","5.6","1005","29.68","2.2","35.9","-9999","-9999","-9999.00","-9999.00","Light Rain","rain","0","1","0","0","0","0","METAR UKKK 101630Z 27006MPS 9000 -RA BKN007 OVC018 06/05 Q1005 R26/290147 NOSIG"
"7:00 PM EET on December 10, 2016","2016","12","10","19","00","Europe/Kiev","5:00 PM GMT on December 10, 2016","2016","12","10","17","00","UTC","6.0","42.8","5.0","41.0","93","25.2","15.7","-9999.0","-9999.0","260","West","9.0","5.6","1005","29.68","1.8","35.2","-9999","-9999","-9999.00","-9999.00","Light Rain","rain","0","1","0","0","0","0","METAR UKKK 101700Z 26007MPS 9000 -RA BKN007 OVC018 06/05 Q1005 R26/290147 NOSIG"
"7:30 PM EET on December 10, 2016","2016","12","10","19","30","Europe/Kiev","5:30 PM GMT on December 10, 2016","2016","12","10","17","30","UTC","6.0","42.8","4.0","39.2","87","18.0","11.2","-9999.0","-9999.0","270","West","9.0","5.6","1005","29.68","2.6","36.7","-9999","-9999","-9999.00","-9999.00","Light Rain","rain","0","1","0","0","0","0","METAR UKKK 101730Z 27005MPS 9000 -RA BKN007 OVC020 06/04 Q1005 R26/290147 NOSIG"
"8:00 PM EET on December 10, 2016","2016","12","10","20","00","Europe/Kiev","6:00 PM GMT on December 10, 2016","2016","12","10","18","00","UTC","6","42","4","39","87","14.4","8.9","","","300","WNW","4","2","1006","29.70","-999","-999","-9999","-9999","","","Light Rain","rain","0","1","0","0","0","0","AAXX 10181 33345 11496 83004 10057 20041 39853 40056 57015 69932 76162 8872/ 333 10067 88710 555 11005"
"8:00 PM EET on December 10, 2016","2016","12","10","20","00","Europe/Kiev","6:00 PM GMT on December 10, 2016","2016","12","10","18","00","UTC","6.0","42.8","5.0","41.0","93","18.0","11.2","-9999.0","-9999.0","270","West","9.0","5.6","1005","29.68","2.6","36.7","-9999","-9999","-9999.00","-9999.00","Light Rain","rain","0","1","0","0","0","0","METAR UKKK 101800Z 27005MPS 9000 -RA BKN007 OVC020 06/05 Q1005 R26/290147 NOSIG"
"8:30 PM EET on December 10, 2016","2016","12","10","20","30","Europe/Kiev","6:30 PM GMT on December 10, 2016","2016","12","10","18","30","UTC","6.0","42.8","5.0","41.0","93","18.0","11.2","-9999.0","-9999.0","270","West","9.0","5.6","1004","29.65","2.6","36.7","-9999","-9999","-9999.00","-9999.00","Light Rain","rain","0","1","0","0","0","0","METAR UKKK 101830Z 27005MPS 9000 -RA BKN007 OVC020 06/05 Q1004 R26/290147 NOSIG"
"9:00 PM EET on December 10, 2016","2016","12","10","21","00","Europe/Kiev","7:00 PM GMT on December 10, 2016","2016","12","10","19","00","UTC","6.0","42.8","5.0","41.0","93","18.0","11.2","-9999.0","-9999.0","270","West","8.0","5.0","1004","29.65","2.6","36.7","-9999","-9999","-9999.00","-9999.00","Light Rain","rain","0","1","0","0","0","0","METAR UKKK 101900Z 27005MPS 8000 -RA BKN007 OVC020 06/05 Q1004 R26/290147 NOSIG"
"9:30 PM EET on December 10, 2016","2016","12","10","21","30","Europe/Kiev","7:30 PM GMT on December 10, 2016","2016","12","10","19","30","UTC","6.0","42.8","5.0","41.0","93","21.6","13.4","-9999.0","-9999.0","280","West","6.0","3.7","1004","29.65","2.2","35.9","-9999","-9999","-9999.00","-9999.00","Light Rain","rain","0","1","0","0","0","0","METAR UKKK 101930Z 28006MPS 6000 -RA BKN006 OVC016 06/05 Q1004 R26/290147 TEMPO BKN004"
"9:54 PM EET on December 10, 2016","2016","12","10","21","54","Europe/Kiev","7:54 PM GMT on December 10, 2016","2016","12","10","19","54","UTC","6.0","42.8","5.0","41.0","93","14.4","8.9","-9999.0","-9999.0","280","West","1.5","0.9","1004","29.65","3.1","37.6","-9999","-9999","-9999.00","-9999.00","Light Rain","rain","0","1","0","0","0","0","SPECI UKKK 101954Z 28004MPS 1500 -RA BR OVC004 06/05 Q1004 R26/290245 TEMPO BKN004"
"10:00 PM EET on December 10, 2016","2016","12","10","22","00","Europe/Kiev","8:00 PM GMT on December 10, 2016","2016","12","10","20","00","UTC","6.0","42.8","5.0","41.0","93","14.4","8.9","-9999.0","-9999.0","280","West","-9999.0","-9999.0","1004","29.65","3.1","37.6","-9999","-9999","-9999.00","-9999.00","Light Rain","rain","0","1","0","0","0","0","METAR UKKK 102000Z 28004MPS 3300 -RA BR OVC004 06/05 Q1004 R26/290245 TEMPO BKN003"
"10:30 PM EET on December 10, 2016","2016","12","10","22","30","Europe/Kiev","8:30 PM GMT on December 10, 2016","2016","12","10","20","30","UTC","6.0","42.8","5.0","41.0","93","14.4","8.9","-9999.0","-9999.0","280","West","5.0","3.1","1004","29.65","3.1","37.6","-9999","-9999","-9999.00","-9999.00","Light Rain","rain","0","1","0","0","0","0","METAR UKKK 102030Z 28004MPS 5000 -RA BR OVC005 06/05 Q1004 R26/290245 TEMPO BKN003"
"11:00 PM EET on December 10, 2016","2016","12","10","23","00","Europe/Kiev","9:00 PM GMT on December 10, 2016","2016","12","10","21","00","UTC","6","43","5","41","91","10.8","6.7","","","320","NW","4","2","1005","29.68","-999","-999","-9999","-9999","","","Mist","hazy","0","0","0","0","0","0","AAXX 10211 33345 41396 83203 10060 20051 39845 40048 57008 71062 886// 333 88708"
"11:00 PM EET on December 10, 2016","2016","12","10","23","00","Europe/Kiev","9:00 PM GMT on December 10, 2016","2016","12","10","21","00","UTC","6.0","42.8","6.0","42.8","100","10.8","6.7","-9999.0","-9999.0","280","West","8.0","5.0","1004","29.65","3.7","38.7","-9999","-9999","-9999.00","-9999.00","Light Rain","rain","0","1","0","0","0","0","METAR UKKK 102100Z 28003MPS 8000 -RA OVC007 06/06 Q1004 R26/290245 TEMPO BKN005"
"11:30 PM EET on December 10, 2016","2016","12","10","23","30","Europe/Kiev","9:30 PM GMT on December 10, 2016","2016","12","10","21","30","UTC","6.0","42.8","6.0","42.8","100","14.4","8.9","-9999.0","-9999.0","290","WNW","10.0","6.2","1004","29.65","3.1","37.6","-9999","-9999","-9999.00","-9999.00","Light Drizzle","rain","0","0","0","0","0","0","METAR UKKK 102130Z 29004MPS 9999 -DZ OVC006 06/06 Q1004 R26/290147 TEMPO BKN005"
"12:00 AM EET on December 11, 2016","2016","12","11","00","00","Europe/Kiev","10:00 PM GMT on December 10, 2016","2016","12","10","22","00","UTC","6.0","42.8","6.0","42.8","100","14.4","8.9","-9999.0","-9999.0","290","WNW","10.0","6.2","1004","29.65","3.1","37.6","-9999","-9999","-9999.00","-9999.00","Light Drizzle","rain","0","0","0","0","0","0","METAR UKKK 102200Z 29004MPS 9999 -DZ OVC007 06/06 Q1004 R26/290147 TEMPO BKN006"
"12:30 AM EET on December 11, 2016","2016","12","11","00","30","Europe/Kiev","10:30 PM GMT on December 10, 2016","2016","12","10","22","30","UTC","6.0","42.8","6.0","42.8","100","18.0","11.2","-9999.0","-9999.0","310","NW","7.0","4.3","1004","29.65","2.6","36.7","-9999","-9999","-9999.00","-9999.00","Light Rain","rain","0","1","0","0","0","0","METAR UKKK 102230Z 31005MPS 7000 -RA OVC006 06/06 Q1004 R26/290147 TEMPO BKN005"
"1:00 AM EET on December 11, 2016","2016","12","11","01","00","Europe/Kiev","11:00 PM GMT on December 10, 2016","2016","12","10","23","00","UTC","7.0","44.6","6.0","42.8","93","18.0","11.2","-9999.0","-9999.0","320","NW","9.0","5.6","1005","29.68","3.8","38.9","-9999","-9999","-9999.00","-9999.00","Light Rain","rain","0","1","0","0","0","0","METAR UKKK 102300Z 32005MPS 9000 -RA BKN008 BKN026 07/06 Q1005 R26/290147 NOSIG"
"1:30 AM EET on December 11, 2016","2016","12","11","01","30","Europe/Kiev","11:30 PM GMT on December 10, 2016","2016","12","10","23","30","UTC","6.0","42.8","5.0","41.0","93","18.0","11.2","-9999.0","-9999.0","350","North","9.0","5.6","1005","29.68","2.6","36.7","-9999","-9999","-9999.00","-9999.00","Light Rain","rain","0","1","0","0","0","0","METAR UKKK 102330Z 35005MPS 320V030 9000 -RA OVC007 06/05 Q1005 R26/290147 NOSIG"
"2:00 AM EET on December 11, 2016","2016","12","11","02","00","Europe/Kiev","12:00 AM GMT on December 11, 2016","2016","12","11","00","00","UTC","6","42","5","41","94","14.4","8.9","","","20","NNE","4","2","1006","29.72","-999","-999","-9999","-9999","","","Light Rain","rain","0","1","0","0","0","0","AAXX 11001 33345 /1396 80204 10058 20049 39859 40062 53014 76162 8872/ 333 88708 555 11005 69941"
"2:00 AM EET on December 11, 2016","2016","12","11","02","00","Europe/Kiev","12:00 AM GMT on December 11, 2016","2016","12","11","00","00","UTC","6.0","42.8","5.0","41.0","93","14.4","8.9","-9999.0","-9999.0","350","North","-9999.0","-9999.0","1005","29.68","3.1","37.6","-9999","-9999","-9999.00","-9999.00","Light Rain","rain","0","1","0","0","0","0","METAR UKKK 110000Z 35004MPS 320V020 4600 -RA BR BKN006 OVC021 06/05 Q1005 R26/290147 NOSIG"
"2:30 AM EET on December 11, 2016","2016","12","11","02","30","Europe/Kiev","12:30 AM GMT on December 11, 2016","2016","12","11","00","30","UTC","6.0","42.8","5.0","41.0","93","14.4","8.9","-9999.0","-9999.0","340","NNW","9.0","5.6","1006","29.71","3.1","37.6","-9999","-9999","-9999.00","-9999.00","Light Rain","rain","0","1","0","0","0","0","METAR UKKK 110030Z 34004MPS 9000 -RA BKN006 OVC014 06/05 Q1006 R26/290147 TEMPO BKN005"
"3:00 AM EET on December 11, 2016","2016","12","11","03","00","Europe/Kiev","1:00 AM GMT on December 11, 2016","2016","12","11","01","00","UTC","5.0","41.0","4.0","39.2","93","18.0","11.2","-9999.0","-9999.0","20","NNE","9.0","5.6","1006","29.71","1.3","34.4","-9999","-9999","-9999.00","-9999.00","Light Rain","rain","0","1","0","0","0","0","METAR UKKK 110100Z 02005MPS 9000 -RA BKN006 OVC014 05/04 Q1006 R26/290147 TEMPO BKN005"
"3:30 AM EET on December 11, 2016","2016","12","11","03","30","Europe/Kiev","1:30 AM GMT on December 11, 2016","2016","12","11","01","30","UTC","4.0","39.2","3.0","37.4","93","18.0","11.2","-9999.0","-9999.0","10","North","10.0","6.2","1007","29.74","0.1","32.2","-9999","-9999","-9999.00","-9999.00","Overcast","cloudy","0","0","0","0","0","0","METAR UKKK 110130Z 01005MPS 340V040 9999 OVC005 04/03 Q1007 R26/290147 TEMPO BKN004"
"4:00 AM EET on December 11, 2016","2016","12","11","04","00","Europe/Kiev","2:00 AM GMT on December 11, 2016","2016","12","11","02","00","UTC","3.0","37.4","2.0","35.6","93","14.4","8.9","-9999.0","-9999.0","10","North","10.0","6.2","1007","29.74","-0.6","30.9","-9999","-9999","-9999.00","-9999.00","Overcast","cloudy","0","0","0","0","0","0","METAR UKKK 110200Z 01004MPS 340V040 9999 OVC005 03/02 Q1007 R26/290147 TEMPO BKN004"
"4:21 AM EET on December 11, 2016","2016","12","11","04","21","Europe/Kiev","2:21 AM GMT on December 11, 2016","2016","12","11","02","21","UTC","2.0","35.6","2.0","35.6","100","14.4","8.9","-9999.0","-9999.0","10","North","9.0","5.6","1008","29.77","-1.8","28.7","-9999","-9999","-9999.00","-9999.00","Overcast","cloudy","0","0","0","0","0","0","SPECI UKKK 110221Z 01004MPS 9000 OVC003 02/02 Q1008 R26/290147 TEMPO BKN003"
"4:30 AM EET on December 11, 2016","2016","12","11","04","30","Europe/Kiev","2:30 AM GMT on December 11, 2016","2016","12","11","02","30","UTC","2.0","35.6","1.0","33.8","93","14.4","8.9","-9999.0","-9999.0","360","North","7.0","4.3","1008","29.77","-1.8","28.7","-9999","-9999","-9999.00","-9999.00","Overcast","cloudy","0","0","0","0","0","0","METAR UKKK 110230Z 36004MPS 330V030 7000 OVC003 02/01 Q1008 R26/290147 TEMPO BKN003"
"5:00 AM EET on December 11, 2016","2016","12","11","05","00","Europe/Kiev","3:00 AM GMT on December 11, 2016","2016","12","11","03","00","UTC","2","35","1","33","90","14.4","8.9","","","30","NNE","4","2","1010","29.82","-999","-999","-9999","-9999","","","Mist","hazy","0","0","0","0","0","0","AAXX 11031 33345 41396 80304 10017 20006 39891 40098 52032 71062 886// 333 88706 555 11003"
"5:00 AM EET on December 11, 2016","2016","12","11","05","00","Europe/Kiev","3:00 AM GMT on December 11, 2016","2016","12","11","03","00","UTC","2.0","35.6","0.0","32.0","87","14.4","8.9","-9999.0","-9999.0","10","North","10.0","6.2","1008","29.77","-1.8","28.7","-9999","-9999","-9999.00","-9999.00","Overcast","cloudy","0","0","0","0","0","0","METAR UKKK 110300Z 01004MPS 9999 BKN004 OVC016 02/00 Q1008 R26/290147 TEMPO BKN003"
"5:30 AM EET on December 11, 2016","2016","12","11","05","30","Europe/Kiev","3:30 AM GMT on December 11, 2016","2016","12","11","03","30","UTC","1.0","33.8","0.0","32.0","93","14.4","8.9","-9999.0","-9999.0","30","NNE","10.0","6.2","1009","29.80","-3.0","26.5","-9999","-9999","-9999.00","-9999.00","Overcast","cloudy","0","0","0","0","0","0","METAR UKKK 110330Z 03004MPS 350V070 9999 BKN006 OVC016 01/M00 Q1009 R26/290147 TEMPO BKN004"
"6:00 AM EET on December 11, 2016","2016","12","11","06","00","Europe/Kiev","4:00 AM GMT on December 11, 2016","2016","12","11","04","00","UTC","1.0","33.8","-2.0","28.4","81","14.4","8.9","-9999.0","-9999.0","30","NNE","10.0","6.2","1009","29.80","-3.0","26.5","-9999","-9999","-9999.00","-9999.00","Overcast","cloudy","0","0","0","0","0","0","METAR UKKK 110400Z 03004MPS 9999 OVC008 01/M02 Q1009 R26/290147 TEMPO BKN005"
"6:30 AM EET on December 11, 2016","2016","12","11","06","30","Europe/Kiev","4:30 AM GMT on December 11, 2016","2016","12","11","04","30","UTC","1.0","33.8","-1.0","30.2","87","14.4","8.9","-9999.0","-9999.0","20","NNE","10.0","6.2","1009","29.80","-3.0","26.5","-9999","-9999","-9999.00","-9999.00","Overcast","cloudy","0","0","0","0","0","0","METAR UKKK 110430Z 02004MPS 9999 OVC008 01/M01 Q1009 R26/290147 NOSIG"
"7:00 AM EET on December 11, 2016","2016","12","11","07","00","Europe/Kiev","5:00 AM GMT on December 11, 2016","2016","12","11","05","00","UTC","1.0","33.8","-2.0","28.4","81","10.8","6.7","-9999.0","-9999.0","10","North","10.0","6.2","1010","29.83","-2.3","27.9","-9999","-9999","-9999.00","-9999.00","Overcast","cloudy","0","0","0","0","0","0","METAR UKKK 110500Z 01003MPS 9999 BKN011 OVC033 01/M02 Q1010 R26/290050 NOSIG"
"7:30 AM EET on December 11, 2016","2016","12","11","07","30","Europe/Kiev","5:30 AM GMT on December 11, 2016","2016","12","11","05","30","UTC","0.0","32.0","-2.0","28.4","87","10.8","6.7","-9999.0","-9999.0","20","NNE","10.0","6.2","1010","29.83","-3.5","25.7","-9999","-9999","-9999.00","-9999.00","Mostly Cloudy","mostlycloudy","0","0","0","0","0","0","METAR UKKK 110530Z 02003MPS 350V050 9999 SCT015 BKN040 00/M02 Q1010 R26/290050 NOSIG"
"8:00 AM EET on December 11, 2016","2016","12","11","08","00","Europe/Kiev","6:00 AM GMT on December 11, 2016","2016","12","11","06","00","UTC","0","33","-2","28","77","7.2","4.5","","","40","NE","10","6","1012","29.89","-999","-999","-9999","-9999","","","Partly Cloudy","partlycloudy","0","0","0","0","0","0","AAXX 11061 33345 11697 80402 10003 21020 39912 40121 52021 69972 70262 885// 333 20001 88636 555 11001"
"8:00 AM EET on December 11, 2016","2016","12","11","08","00","Europe/Kiev","6:00 AM GMT on December 11, 2016","2016","12","11","06","00","UTC","0.0","32.0","-2.0","28.4","87","7.2","4.5","-9999.0","-9999.0","30","NNE","10.0","6.2","1011","29.86","-2.5","27.6","-9999","-9999","-9999.00","-9999.00","Overcast","cloudy","0","0","0","0","0","0","METAR UKKK 110600Z 03002MPS 350V070 9999 OVC031 00/M02 Q1011 R26/290050 NOSIG"
"8:30 AM EET on December 11, 2016","2016","12","11","08","30","Europe/Kiev","6:30 AM GMT on December 11, 2016","2016","12","11","06","30","UTC","0.0","32.0","-2.0","28.4","87","3.6","2.2","-9999.0","-9999.0","40","NE","10.0","6.2","1011","29.86","-999","-999","-9999","-9999","-9999.00","-9999.00","Mostly Cloudy","mostlycloudy","0","0","0","0","0","0","METAR UKKK 110630Z 04001MPS 9999 BKN042 00/M02 Q1011 R08/290050 NOSIG"
"9:00 AM EET on December 11, 2016","2016","12","11","09","00","Europe/Kiev","7:00 AM GMT on December 11, 2016","2016","12","11","07","00","UTC","1.0","33.8","-2.0","28.4","81","3.6","2.2","-9999.0","-9999.0","0","Variable","10.0","6.2","1011","29.86","-999","-999","-9999","-9999","-9999.00","-9999.00","Mostly Cloudy","mostlycloudy","0","0","0","0","0","0","METAR UKKK 110700Z VRB01MPS 9999 FEW013 BKN043 01/M02 Q1011 R08/290050 NOSIG"
"9:30 AM EET on December 11, 2016","2016","12","11","09","30","Europe/Kiev","7:30 AM GMT on December 11, 2016","2016","12","11","07","30","UTC","1.0","33.8","-2.0","28.4","81","3.6","2.2","-9999.0","-9999.0","0","Variable","10.0","6.2","1011","29.86","-999","-999","-9999","-9999","-9999.00","-9999.00","Mostly Cloudy","mostlycloudy","0","0","0","0","0","0","METAR UKKK 110730Z VRB01MPS 9999 FEW013 BKN043 01/M02 Q1011 R08/290050 NOSIG"
"10:00 AM EET on December 11, 2016","2016","12","11","10","00","Europe/Kiev","8:00 AM GMT on December 11, 2016","2016","12","11","08","00","UTC","1.0","33.8","-2.0","28.4","81","3.6","2.2","-9999.0","-9999.0","0","Variable","10.0","6.2","1011","29.86","-999","-999","-9999","-9999","-9999.00","-9999.00","Mostly Cloudy","mostlycloudy","0","0","0","0","0","0","METAR UKKK 110800Z VRB01MPS 9999 BKN040 01/M02 Q1011 R08/290050 NOSIG"
"10:30 AM EET on December 11, 2016","2016","12","11","10","30","Europe/Kiev","8:30 AM GMT on December 11, 2016","2016","12","11","08","30","UTC","1.0","33.8","-3.0","26.6","75","3.6","2.2","-9999.0","-9999.0","0","Variable","10.0","6.2","1011","29.86","-999","-999","-9999","-9999","-9999.00","-9999.00","Mostly Cloudy","mostlycloudy","0","0","0","0","0","0","METAR UKKK 110830Z VRB01MPS 9999 BKN039 01/M03 Q1011 R08/290050 NOSIG"
"11:00 AM EET on December 11, 2016","2016","12","11","11","00","Europe/Kiev","9:00 AM GMT on December 11, 2016","2016","12","11","09","00","UTC","1","34","-3","26","64","0.0","0.0","","","","","20","12","1012","29.90","-999","-999","-9999","-9999","","","Mostly Cloudy","mostlycloudy","0","0","0","0","0","0","AAXX 11091 33345 42698 70000 10011 21031 39915 40123 52003 87500 333 87640 555 11004"
"11:00 AM EET on December 11, 2016","2016","12","11","11","00","Europe/Kiev","9:00 AM GMT on December 11, 2016","2016","12","11","09","00","UTC","2.0","35.6","-3.0","26.6","70","3.6","2.2","-9999.0","-9999.0","0","Variable","10.0","6.2","1011","29.86","-999","-999","-9999","-9999","-9999.00","-9999.00","Mostly Cloudy","mostlycloudy","0","0","0","0","0","0","METAR UKKK 110900Z VRB01MPS 9999 BKN038 02/M03 Q1011 R08/290050 NOSIG"
"11:30 AM EET on December 11, 2016","2016","12","11","11","30","Europe/Kiev","9:30 AM GMT on December 11, 2016","2016","12","11","09","30","UTC","2.0","35.6","-3.0","26.6","70","7.2","4.5","-9999.0","-9999.0","150","SSE","10.0","6.2","1011","29.86","-0.1","31.8","-9999","-9999","-9999.00","-9999.00","Mostly Cloudy","mostlycloudy","0","0","0","0","0","0","METAR UKKK 110930Z 15002MPS 130V190 9999 BKN038 02/M03 Q1011 R08/290050 NOSIG"
"12:00 PM EET on December 11, 2016","2016","12","11","12","00","Europe/Kiev","10:00 AM GMT on December 11, 2016","2016","12","11","10","00","UTC","2.0","35.6","-4.0","24.8","65","7.2","4.5","-9999.0","-9999.0","160","SSE","-9999.0","-9999.0","1011","29.86","-0.1","31.8","-9999","-9999","-9999.00","-9999.00","Clear","clear","0","0","0","0","0","0","METAR UKKK 111000Z 16002MPS 100V230 CAVOK 02/M04 Q1011 R08/290050 NOSIG"
"12:30 PM EET on December 11, 2016","2016","12","11","12","30","Europe/Kiev","10:30 AM GMT on December 11, 2016","2016","12","11","10","30","UTC","2.0","35.6","-3.0","26.6","70","7.2","4.5","-9999.0","-9999.0","190","South","-9999.0","-9999.0","1010","29.83","-0.1","31.8","-9999","-9999","-9999.00","-9999.00","Clear","clear","0","0","0","0","0","0","METAR UKKK 111030Z 19002MPS 130V230 CAVOK 02/M03 Q1010 R08/290050 NOSIG"
"1:00 PM EET on December 11, 2016","2016","12","11","13","00","Europe/Kiev","11:00 AM GMT on December 11, 2016","2016","12","11","11","00","UTC","2.0","35.6","-3.0","26.6","70","10.8","6.7","-9999.0","-9999.0","160","SSE","-9999.0","-9999.0","1010","29.83","-1.1","30.0","-9999","-9999","-9999.00","-9999.00","Clear","clear","0","0","0","0","0","0","METAR UKKK 111100Z 16003MPS 120V210 CAVOK 02/M03 Q1010 R08/290050 NOSIG"
"1:30 PM EET on December 11, 2016","2016","12","11","13","30","Europe/Kiev","11:30 AM GMT on December 11, 2016","2016","12","11","11","30","UTC","2.0","35.6","-3.0","26.6","70","7.2","4.5","-9999.0","-9999.0","170","South","10.0","6.2","1009","29.80","-0.1","31.8","-9999","-9999","-9999.00","-9999.00","Mostly Cloudy","mostlycloudy","0","0","0","0","0","0","METAR UKKK 111130Z 17002MPS 130V260 9999 SCT020 BKN100 02/M03 Q1009 R08/290050 NOSIG"
"2:00 PM EET on December 11, 2016","2016","12","11","14","00","Europe/Kiev","12:00 PM GMT on December 11, 2016","2016","12","11","12","00","UTC","1","34","-3","26","63","7.2","4.5","","","170","South","20","12","1010","29.83","-999","-999","-9999","-9999","","","Mostly Cloudy","mostlycloudy","0","0","0","0","0","0","AAXX 11121 33345 32598 71702 10012 21033 39894 40102 58021 87500 555 11004"
"2:00 PM EET on December 11, 2016","2016","12","11","14","00","Europe/Kiev","12:00 PM GMT on December 11, 2016","2016","12","11","12","00","UTC","2.0","35.6","-3.0","26.6","70","7.2","4.5","-9999.0","-9999.0","160","SSE","10.0","6.2","1009","29.80","-0.1","31.8","-9999","-9999","-9999.00","-9999.00","Mostly Cloudy","mostlycloudy","0","0","0","0","0","0","METAR UKKK 111200Z 16002MPS 090V200 9999 SCT019 BKN100 02/M03 Q1009 R08/290050 NOSIG"
"2:30 PM EET on December 11, 2016","2016","12","11","14","30","Europe/Kiev","12:30 PM GMT on December 11, 2016","2016","12","11","12","30","UTC","1.0","33.8","-3.0","26.6","75","10.8","6.7","-9999.0","-9999.0","160","SSE","9.0","5.6","1008","29.77","-2.3","27.9","-9999","-9999","-9999.00","-9999.00","Light Rain","snow","0","1","1","0","0","0","METAR UKKK 111230Z 16003MPS 120V210 9000 -RASN BKN018 OVC030 01/M03 Q1008 R08/290050 NOSIG"
"3:00 PM EET on December 11, 2016","2016","12","11","15","00","Europe/Kiev","1:00 PM GMT on December 11, 2016","2016","12","11","13","00","UTC","2.0","35.6","-3.0","26.6","70","10.8","6.7","-9999.0","-9999.0","150","SSE","10.0","6.2","1008","29.77","-1.1","30.0","-9999","-9999","-9999.00","-9999.00","Overcast","cloudy","0","0","0","0","0","0","METAR UKKK 111300Z 15003MPS 120V190 9999 BKN016 OVC030 02/M03 Q1008 R08/290050 NOSIG"
"3:30 PM EET on December 11, 2016","2016","12","11","15","30","Europe/Kiev","1:30 PM GMT on December 11, 2016","2016","12","11","13","30","UTC","1.0","33.8","-2.0","28.4","81","10.8","6.7","-9999.0","-9999.0","150","SSE","8.0","5.0","1007","29.74","-2.3","27.9","-9999","-9999","-9999.00","-9999.00","Light Rain","snow","0","1","1","0","0","0","METAR UKKK 111330Z 15003MPS 110V190 8000 -RASN BKN013 OVC026 01/M02 Q1007 R08/290050 NOSIG"
"4:00 PM EET on December 11, 2016","2016","12","11","16","00","Europe/Kiev","2:00 PM GMT on December 11, 2016","2016","12","11","14","00","UTC","1.0","33.8","-1.0","30.2","87","10.8","6.7","-9999.0","-9999.0","140","SE","9.0","5.6","1007","29.74","-2.3","27.9","-9999","-9999","-9999.00","-9999.00","Light Rain","snow","0","1","1","0","0","0","METAR UKKK 111400Z 14003MPS 110V170 9000 -RASN BKN012 OVC023 01/M01 Q1007 R08/290050 NOSIG"
"4:30 PM EET on December 11, 2016","2016","12","11","16","30","Europe/Kiev","2:30 PM GMT on December 11, 2016","2016","12","11","14","30","UTC","1.0","33.8","-1.0","30.2","87","10.8","6.7","-9999.0","-9999.0","130","SE","8.0","5.0","1006","29.71","-2.3","27.9","-9999","-9999","-9999.00","-9999.00","Light Rain","snow","0","1","1","0","0","0","METAR UKKK 111430Z 13003MPS 8000 -RASN BKN010 OVC026 01/M01 Q1006 R08/290050 NOSIG"
"5:00 PM EET on December 11, 2016","2016","12","11","17","00","Europe/Kiev","3:00 PM GMT on December 11, 2016","2016","12","11","15","00","UTC","1","33","-1","31","87","10.8","6.7","","","180","South","4","2","1007","29.74","-999","-999","-9999","-9999","","","Light Rain","rain","0","1","0","0","0","0","AAXX 11151 33345 41496 81803 10006 21008 39862 40069 57032 76176 885// 333 88712 555 11002"
"5:00 PM EET on December 11, 2016","2016","12","11","17","00","Europe/Kiev","3:00 PM GMT on December 11, 2016","2016","12","11","15","00","UTC","1.0","33.8","-1.0","30.2","87","10.8","6.7","-9999.0","-9999.0","140","SE","9.0","5.6","1005","29.68","-2.3","27.9","-9999","-9999","-9999.00","-9999.00","Light Rain","rain","0","1","0","0","0","0","METAR UKKK 111500Z 14003MPS 110V170 9000 -RA BKN010 OVC026 01/M01 Q1005 R08/290050 NOSIG"
"5:30 PM EET on December 11, 2016","2016","12","11","17","30","Europe/Kiev","3:30 PM GMT on December 11, 2016","2016","12","11","15","30","UTC","1.0","33.8","-1.0","30.2","87","7.2","4.5","-9999.0","-9999.0","140","SE","10.0","6.2","1005","29.68","-1.3","29.7","-9999","-9999","-9999.00","-9999.00","Light Drizzle","rain","0","0","0","0","0","0","METAR UKKK 111530Z 14002MPS 100V210 9999 -DZ OVC009 01/M01 Q1005 R08/290050 NOSIG"
"6:00 PM EET on December 11, 2016","2016","12","11","18","00","Europe/Kiev","4:00 PM GMT on December 11, 2016","2016","12","11","16","00","UTC","2.0","35.6","-1.0","30.2","81","7.2","4.5","-9999.0","-9999.0","150","SSE","10.0","6.2","1004","29.65","-0.1","31.8","-9999","-9999","-9999.00","-9999.00","Overcast","cloudy","0","0","0","0","0","0","METAR UKKK 111600Z 15002MPS 090V230 9999 OVC008 02/M01 Q1004 R08/290050 NOSIG"
"6:30 PM EET on December 11, 2016","2016","12","11","18","30","Europe/Kiev","4:30 PM GMT on December 11, 2016","2016","12","11","16","30","UTC","2.0","35.6","0.0","32.0","87","10.8","6.7","-9999.0","-9999.0","160","SSE","10.0","6.2","1004","29.65","-1.1","30.0","-9999","-9999","-9999.00","-9999.00","Light Rain","rain","0","1","0","0","0","0","METAR UKKK 111630Z 16003MPS 120V210 9999 -RA OVC006 02/00 Q1004 R08/290245 NOSIG"
"7:00 PM EET on December 11, 2016","2016","12","11","19","00","Europe/Kiev","5:00 PM GMT on December 11, 2016","2016","12","11","17","00","UTC","2.0","35.6","1.0","33.8","93","7.2","4.5","-9999.0","-9999.0","180","South","6.0","3.7","1003","29.62","-0.1","31.8","-9999","-9999","-9999.00","-9999.00","Light Rain Showers","rain","0","1","0","0","0","0","METAR UKKK 111700Z 18002MPS 130V230 6000 -SHRA OVC005 02/01 Q1003 R08/290245 TEMPO OVC003"
"7:03 PM EET on December 11, 2016","2016","12","11","19","03","Europe/Kiev","5:03 PM GMT on December 11, 2016","2016","12","11","17","03","UTC","2.0","35.6","1.0","33.8","93","7.2","4.5","-9999.0","-9999.0","180","South","6.0","3.7","1003","29.62","-0.1","31.8","-9999","-9999","-9999.00","-9999.00","Light Rain","rain","0","1","0","0","0","0","SPECI UKKK 111703Z 18002MPS 130V250 6000 -RA OVC004 02/01 Q1003 R08/290245 TEMPO OVC003"
"7:11 PM EET on December 11, 2016","2016","12","11","19","11","Europe/Kiev","5:11 PM GMT on December 11, 2016","2016","12","11","17","11","UTC","2.0","35.6","2.0","35.6","100","7.2","4.5","-9999.0","-9999.0","180","South","6.0","3.7","1003","29.62","-0.1","31.8","-9999","-9999","-9999.00","-9999.00","Light Rain Showers","rain","0","1","0","0","0","0","SPECI UKKK 111711Z 18002MPS 120V250 6000 -SHRA SCT004 BKN022CB 02/02 Q1003 R08/290245 TEMPO OVC003"
"7:30 PM EET on December 11, 2016","2016","12","11","19","30","Europe/Kiev","5:30 PM GMT on December 11, 2016","2016","12","11","17","30","UTC","3.0","37.4","2.0","35.6","93","7.2","4.5","-9999.0","-9999.0","170","South","7.0","4.3","1002","29.59","1.0","33.9","-9999","-9999","-9999.00","-9999.00","Light Rain Showers","rain","0","1","0","0","0","0","METAR UKKK 111730Z 17002MPS 130V210 7000 -SHRA SCT004 BKN022CB 03/02 Q1002 R08/290245 TEMPO OVC003"
"8:00 PM EET on December 11, 2016","2016","12","11","20","00","Europe/Kiev","6:00 PM GMT on December 11, 2016","2016","12","11","18","00","UTC","1","34","0","32","91","3.6","2.2","","","170","South","4","2","1003","29.63","-999","-999","-9999","-9999","","","Light Rain","rain","0","1","0","0","0","0","AAXX 11181 33345 11496 81701 10010 20002 39827 40033 57035 60022 76176 8872/ 333 10012 88711 555 11002"
"8:00 PM EET on December 11, 2016","2016","12","11","20","00","Europe/Kiev","6:00 PM GMT on December 11, 2016","2016","12","11","18","00","UTC","3.0","37.4","2.0","35.6","93","7.2","4.5","-9999.0","-9999.0","170","South","6.0","3.7","1002","29.59","1.0","33.9","-9999","-9999","-9999.00","-9999.00","Light Rain Showers","rain","0","1","0","0","0","0","METAR UKKK 111800Z 17002MPS 130V210 6000 -SHRA BKN004 BKN023CB 03/02 Q1002 R08/290345 TEMPO OVC003"
"8:30 PM EET on December 11, 2016","2016","12","11","20","30","Europe/Kiev","6:30 PM GMT on December 11, 2016","2016","12","11","18","30","UTC","3.0","37.4","3.0","37.4","100","7.2","4.5","-9999.0","-9999.0","170","South","5.0","3.1","1001","29.56","1.0","33.9","-9999","-9999","-9999.00","-9999.00","Light Rain Showers","rain","0","1","0","0","0","0","METAR UKKK 111830Z 17002MPS 130V240 5000 -SHRA BKN003 BKN023CB 03/03 Q1001 R08/290345 TEMPO 2000 SHRA BKN002 BKN012CB"
"9:00 PM EET on December 11, 2016","2016","12","11","21","00","Europe/Kiev","7:00 PM GMT on December 11, 2016","2016","12","11","19","00","UTC","3.0","37.4","3.0","37.4","100","7.2","4.5","-9999.0","-9999.0","180","South","-9999.0","-9999.0","1000","29.53","1.0","33.9","-9999","-9999","-9999.00","-9999.00","Light Rain Showers","rain","0","1","0","0","0","0","METAR UKKK 111900Z 18002MPS 140V230 3700 -SHRA BKN003 BKN028CB 03/03 Q1000 R08/290345 TEMPO 2000 SHRA BKN002 BKN012CB"
"9:30 PM EET on December 11, 2016","2016","12","11","21","30","Europe/Kiev","7:30 PM GMT on December 11, 2016","2016","12","11","19","30","UTC","4.0","39.2","4.0","39.2","100","7.2","4.5","-9999.0","-9999.0","160","SSE","-9999.0","-9999.0","1000","29.53","2.2","36.0","-9999","-9999","-9999.00","-9999.00","Light Rain Showers","rain","0","1","0","0","0","0","METAR UKKK 111930Z 16002MPS 110V200 4600 -SHRA FEW007 SCT020CB BKN040 04/04 Q1000 R08/290345 TEMPO 2000 SHRA BKN002 BKN012CB"
"10:00 PM EET on December 11, 2016","2016","12","11","22","00","Europe/Kiev","8:00 PM GMT on December 11, 2016","2016","12","11","20","00","UTC","4.0","39.2","3.0","37.4","93","7.2","4.5","-9999.0","-9999.0","140","SE","-9999.0","-9999.0","999","29.50","2.2","36.0","-9999","-9999","-9999.00","-9999.00","Light Rain Showers","rain","0","1","0","0","0","0","METAR UKKK 112000Z 14002MPS 3700 -SHRA FEW010 SCT020CB BKN040 04/03 Q0999 R08/290345 TEMPO 2000 SHRA BKN002 BKN012CB"
"10:30 PM EET on December 11, 2016","2016","12","11","22","30","Europe/Kiev","8:30 PM GMT on December 11, 2016","2016","12","11","20","30","UTC","4.0","39.2","3.0","37.4","93","10.8","6.7","-9999.0","-9999.0","120","ESE","2.0","1.2","997","29.44","1.3","34.4","-9999","-9999","-9999.00","-9999.00","Rain Showers","rain","0","1","0","0","0","0","METAR UKKK 112030Z 12003MPS 2000 SHRA FEW002 SCT020CB BKN040 04/03 Q0997 R08/290345 TEMPO 0400 FG VV001"
"10:43 PM EET on December 11, 2016","2016","12","11","22","43","Europe/Kiev","8:43 PM GMT on December 11, 2016","2016","12","11","20","43","UTC","4.0","39.2","3.0","37.4","93","10.8","6.7","-9999.0","-9999.0","130","SE","-9999.0","-9999.0","997","29.44","1.3","34.4","-9999","-9999","-9999.00","-9999.00","Light Rain Showers","rain","0","1","0","0","0","0","SPECI UKKK 112043Z 13003MPS 3600 -SHRA FEW002 SCT020CB BKN040 04/03 Q0997 RESHRA R08/290345 TEMPO 0400 FG VV001"
"11:00 PM EET on December 11, 2016","2016","12","11","23","00","Europe/Kiev","9:00 PM GMT on December 11, 2016","2016","12","11","21","00","UTC","3","37","2","36","93","10.8","6.7","","","180","South","1","1","998","29.48","-999","-999","-9999","-9999","","","Rain","rain","0","1","0","0","0","0","AAXX 11211 33345 41194 81803 10026 20021 39777 49981 57050 76366 8872/ 333 88702 555 11002"
"11:00 PM EET on December 11, 2016","2016","12","11","23","00","Europe/Kiev","9:00 PM GMT on December 11, 2016","2016","12","11","21","00","UTC","4.0","39.2","3.0","37.4","93","10.8","6.7","-9999.0","-9999.0","150","SSE","-9999.0","-9999.0","997","29.44","1.3","34.4","-9999","-9999","-9999.00","-9999.00","Light Rain","rain","0","1","0","0","0","0","METAR UKKK 112100Z 15003MPS 120V190 4800 -RA SCT004 OVC028 04/03 Q0997 R08/290345 TEMPO 0400 FG VV001"
"11:30 PM EET on December 11, 2016","2016","12","11","23","30","Europe/Kiev","9:30 PM GMT on December 11, 2016","2016","12","11","21","30","UTC","4.0","39.2","4.0","39.2","100","7.2","4.5","-9999.0","-9999.0","160","SSE","8.0","5.0","996","29.42","2.2","36.0","-9999","-9999","-9999.00","-9999.00","Light Rain","rain","0","1","0","0","0","0","METAR UKKK 112130Z 16002MPS 110V210 8000 -RA SCT007 OVC026 04/04 Q0996 R08/290345 TEMPO 0400 FG VV001"
"12:00 AM EET on December 12, 2016","2016","12","12","00","00","Europe/Kiev","10:00 PM GMT on December 11, 2016","2016","12","11","22","00","UTC","5.0","41.0","4.0","39.2","93","7.2","4.5","-9999.0","-9999.0","230","SW","5.0","3.1","995","29.39","3.4","38.1","-9999","-9999","-9999.00","-9999.00","Light Rain","rain","0","1","0","0","0","0","METAR UKKK 112200Z 23002MPS 140V280 5000 -RA SCT006 OVC025 05/04 Q0995 R08/290345 TEMPO 1500 SHRA BR BKN004 BKN012CB"
"12:30 AM EET on December 12, 2016","2016","12","12","00","30","Europe/Kiev","10:30 PM GMT on December 11, 2016","2016","12","11","22","30","UTC","5.0","41.0","5.0","41.0","100","14.4","8.9","-9999.0","-9999.0","250","WSW","7.0","4.3","994","29.36","1.9","35.4","-9999","-9999","-9999.00","-9999.00","Light Rain","rain","0","1","0","0","0","0","METAR UKKK 112230Z 25004MPS 7000 -RA SCT008 OVC025 05/05 Q0994 R26/290345 TEMPO 1500 SHRA BR BKN004 BKN012CB"
"1:00 AM EET on December 12, 2016","2016","12","12","01","00","Europe/Kiev","11:00 PM GMT on December 11, 2016","2016","12","11","23","00","UTC","5.0","41.0","4.0","39.2","93","21.6","13.4","-9999.0","-9999.0","260","West","10.0","6.2","994","29.36","0.9","33.6","-9999","-9999","-9999.00","-9999.00","Light Rain","rain","0","1","0","0","0","0","METAR UKKK 112300Z 26006MPS 9999 -RA SCT008 OVC030 05/04 Q0994 R26/290345 NOSIG"
"1:30 AM EET on December 12, 2016","2016","12","12","01","30","Europe/Kiev","11:30 PM GMT on December 11, 2016","2016","12","11","23","30","UTC","5.0","41.0","4.0","39.2","93","18.0","11.2","-9999.0","-9999.0","260","West","10.0","6.2","994","29.36","1.3","34.4","-9999","-9999","-9999.00","-9999.00","Light Rain","rain","0","1","0","0","0","0","METAR UKKK 112330Z 26005MPS 9999 -RA SCT010 OVC027 05/04 Q0994 R26/290345 NOSIG"
"2:00 AM EET on December 12, 2016","2016","12","12","02","00","Europe/Kiev","12:00 AM GMT on December 12, 2016","2016","12","12","00","00","UTC","5","41","4","39","89","14.4","8.9","","","280","West","2","1","994","29.37","-999","-999","-9999","-9999","","","Light Rain","rain","0","1","0","0","0","0","AAXX 12001 33345 /1495 82804 10050 20038 39742 49943 57035 76166 885// 333 88718 555 11003 60091"
"2:00 AM EET on December 12, 2016","2016","12","12","02","00","Europe/Kiev","12:00 AM GMT on December 12, 2016","2016","12","12","00","00","UTC","5.0","41.0","4.0","39.2","93","21.6","13.4","-9999.0","-9999.0","250","WSW","10.0","6.2","993","29.33","0.9","33.6","-9999","-9999","-9999.00","-9999.00","Light Rain","rain","0","1","0","0","0","0","METAR UKKK 120000Z 25006MPS 9999 -RA OVC010 05/04 Q0993 R26/290345 TEMPO 27011G17MPS"
"2:30 AM EET on December 12, 2016","2016","12","12","02","30","Europe/Kiev","12:30 AM GMT on December 12, 2016","2016","12","12","00","30","UTC","5.0","41.0","4.0","39.2","93","21.6","13.4","-9999.0","-9999.0","260","West","10.0","6.2","993","29.33","0.9","33.6","-9999","-9999","-9999.00","-9999.00","Light Rain","rain","0","1","0","0","0","0","METAR UKKK 120030Z 26006MPS 9999 -RA OVC008 05/04 Q0993 R26/290345 TEMPO 27011G17MPS"
"3:00 AM EET on December 12, 2016","2016","12","12","03","00","Europe/Kiev","1:00 AM GMT on December 12, 2016","2016","12","12","01","00","UTC","5.0","41.0","4.0","39.2","93","21.6","13.4","-9999.0","-9999.0","270","West","10.0","6.2","993","29.33","0.9","33.6","-9999","-9999","-9999.00","-9999.00","Light Rain","rain","0","1","0","0","0","0","METAR UKKK 120100Z 27006MPS 9999 -RA OVC010 05/04 Q0993 R26/290345 TEMPO 27011G17MPS"
"3:30 AM EET on December 12, 2016","2016","12","12","03","30","Europe/Kiev","1:30 AM GMT on December 12, 2016","2016","12","12","01","30","UTC","5.0","41.0","4.0","39.2","93","21.6","13.4","-9999.0","-9999.0","280","West","8.0","5.0","993","29.33","0.9","33.6","-9999","-9999","-9999.00","-9999.00","Light Rain","rain","0","1","0","0","0","0","METAR UKKK 120130Z 28006MPS 8000 -RA OVC007 05/04 Q0993 R26/290345 TEMPO 27011G17MPS"
"4:00 AM EET on December 12, 2016","2016","12","12","04","00","Europe/Kiev","2:00 AM GMT on December 12, 2016","2016","12","12","02","00","UTC","5.0","41.0","3.0","37.4","87","21.6","13.4","-9999.0","-9999.0","290","WNW","9.0","5.6","992","29.30","0.9","33.6","-9999","-9999","-9999.00","-9999.00","Light Rain","rain","0","1","0","0","0","0","METAR UKKK 120200Z 29006MPS 9000 -RA SCT010 OVC023 05/03 Q0992 R26/290345 TEMPO 27011G17MPS"
"4:23 AM EET on December 12, 2016","2016","12","12","04","23","Europe/Kiev","2:23 AM GMT on December 12, 2016","2016","12","12","02","23","UTC","4.0","39.2","3.0","37.4","93","28.8","17.9","50.4","31.3","310","NW","7.0","4.3","993","29.33","-1.1","30.0","-9999","-9999","-9999.00","-9999.00","Light Rain","rain","0","1","0","0","0","0","SPECI UKKK 120223Z 31008G14MPS 7000 -RA SCT007 OVC025 04/03 Q0993 R26/290345 TEMPO 27011G17MPS"
"4:30 AM EET on December 12, 2016","2016","12","12","04","30","Europe/Kiev","2:30 AM GMT on December 12, 2016","2016","12","12","02","30","UTC","4.0","39.2","3.0","37.4","93","36.0","22.4","-9999.0","-9999.0","310","NW","9.0","5.6","993","29.33","-1.7","28.9","-9999","-9999","-9999.00","-9999.00","Light Rain","rain","0","1","0","0","0","0","METAR UKKK 120230Z 31010MPS 9000 -RA SCT010 OVC026 04/03 Q0993 R26/290345 TEMPO 27011G17MPS"
"5:00 AM EET on December 12, 2016","2016","12","12","05","00","Europe/Kiev","3:00 AM GMT on December 12, 2016","2016","12","12","03","00","UTC","3","38","2","35","86","21.6","13.4","","","340","NNW","4","2","994","29.37","-999","-999","-9999","-9999","","","Light Rain","rain","0","1","0","0","0","0","AAXX 12031 33345 41496 73406 10033 20018 39741 49944 56001 76166 87500 333 87711 555 11003"
"5:00 AM EET on December 12, 2016","2016","12","12","05","00","Europe/Kiev","3:00 AM GMT on December 12, 2016","2016","12","12","03","00","UTC","3.0","37.4","2.0","35.6","93","39.6","24.6","61.2","38.0","310","NW","9.0","5.6","994","29.36","-3.3","26.0","-9999","-9999","-9999.00","-9999.00","Light Rain","rain","0","1","0","0","0","0","METAR UKKK 120300Z 31011G17MPS 9000 -RA SCT008 OVC028 03/02 Q0994 R26/290345 TEMPO 27011G17MPS"
"5:30 AM EET on December 12, 2016","2016","12","12","05","30","Europe/Kiev","3:30 AM GMT on December 12, 2016","2016","12","12","03","30","UTC","3.0","37.4","1.0","33.8","87","32.4","20.1","50.4","31.3","310","NW","9.0","5.6","995","29.39","-2.8","27.0","-9999","-9999","-9999.00","-9999.00","Light Rain","rain","0","1","0","0","0","0","METAR UKKK 120330Z 31009G14MPS 9000 -RA SCT008 OVC028 03/01 Q0995 R26/290345 TEMPO 32011G17MPS"
"6:00 AM EET on December 12, 2016","2016","12","12","06","00","Europe/Kiev","4:00 AM GMT on December 12, 2016","2016","12","12","04","00","UTC","2.0","35.6","1.0","33.8","93","36.0","22.4","-9999.0","-9999.0","310","NW","8.0","5.0","995","29.39","-4.4","24.1","-9999","-9999","-9999.00","-9999.00","Light Rain","rain","0","1","0","0","0","0","METAR UKKK 120400Z 31010MPS 8000 -RA SCT007 OVC026 02/01 Q0995 R26/290345 TEMPO 32011G17MPS"
"6:30 AM EET on December 12, 2016","2016","12","12","06","30","Europe/Kiev","4:30 AM GMT on December 12, 2016","2016","12","12","04","30","UTC","2.0","35.6","1.0","33.8","93","28.8","17.9","-9999.0","-9999.0","310","NW","2.7","1.7","996","29.42","-3.7","25.3","-9999","-9999","-9999.00","-9999.00","Light Rain","rain","0","1","0","0","0","0","METAR UKKK 120430Z 31008MPS 2700 -RA SCT007 OVC030 02/01 Q0996 R26/290345 TEMPO 32011G17MPS 1400 SHRA BR BKN003 BKN012CB"
"7:00 AM EET on December 12, 2016","2016","12","12","07","00","Europe/Kiev","5:00 AM GMT on December 12, 2016","2016","12","12","05","00","UTC","2.0","35.6","0.0","32.0","87","25.2","15.7","43.2","26.8","320","NW","7.0","4.3","996","29.42","-3.3","26.0","-9999","-9999","-9999.00","-9999.00","Light Rain","rain","0","1","0","0","0","0","METAR UKKK 120500Z 32007G12MPS 7000 -RA SCT007 OVC033 02/00 Q0996 R26/290345 TEMPO 32011G17MPS 1400 SHRA BR BKN003 BKN012CB"
"7:30 AM EET on December 12, 2016","2016","12","12","07","30","Europe/Kiev","5:30 AM GMT on December 12, 2016","2016","12","12","05","30","UTC","1.0","33.8","0.0","32.0","93","25.2","15.7","-9999.0","-9999.0","330","NNW","5.0","3.1","997","29.44","-4.6","23.7","-9999","-9999","-9999.00","-9999.00","Light Rain","rain","0","1","0","0","0","0","METAR UKKK 120530Z 33007MPS 5000 -RA SCT006 OVC033 01/M00 Q0997 R26/290345 TEMPO 32012G18MPS 1400 SHRA BR BKN003 BKN012CB"
"8:00 AM EET on December 12, 2016","2016","12","12","08","00","Europe/Kiev","6:00 AM GMT on December 12, 2016","2016","12","12","06","00","UTC","-0","32","-1","30","91","14.4","8.9","","","30","NNE","4","2","999","29.50","-999","-999","-9999","-9999","","","Light Snow","snow","0","0","1","0","0","0","AAXX 12061 33345 11496 80304 11001 21009 39784 49990 53043 60102 77166 8872/ 333 21002 88710 555 11001"
"8:00 AM EET on December 12, 2016","2016","12","12","08","00","Europe/Kiev","6:00 AM GMT on December 12, 2016","2016","12","12","06","00","UTC","1.0","33.8","0.0","32.0","93","18.0","11.2","-9999.0","-9999.0","340","NNW","-9999.0","-9999.0","998","29.47","-3.7","25.4","-9999","-9999","-9999.00","-9999.00","Light Snow","snow","0","1","1","0","0","0","METAR UKKK 120600Z 34005MPS 300V010 3400 -SNRA SCT006 OVC033 01/M00 Q0998 R26/290345 TEMPO 32012G18MPS 1400 SHSN BKN003 BKN012CB"
"8:30 AM EET on December 12, 2016","2016","12","12","08","30","Europe/Kiev","6:30 AM GMT on December 12, 2016","2016","12","12","06","30","UTC","0.0","32.0","-1.0","30.2","93","21.6","13.4","-9999.0","-9999.0","10","North","-9999.0","-9999.0","998","29.47","-5.4","22.2","-9999","-9999","-9999.00","-9999.00","Light Snow","snow","0","0","1","0","0","0","METAR UKKK 120630Z 01006MPS 3100 -SN SCT005 OVC020 M00/M01 Q0998 R08/290345 TEMPO 32012G18MPS 1000 FZRASN OVC002"
"9:00 AM EET on December 12, 2016","2016","12","12","09","00","Europe/Kiev","7:00 AM GMT on December 12, 2016","2016","12","12","07","00","UTC","-1.0","30.2","-2.0","28.4","93","18.0","11.2","-9999.0","-9999.0","10","North","1.8","1.1","999","29.50","-6.2","20.9","-9999","-9999","-9999.00","-9999.00","Light Snow","snow","0","0","1","0","0","0","METAR UKKK 120700Z 01005MPS 1800 -SN BR SCT006 OVC018 M01/M02 Q0999 R08/290345 TEMPO 32012G18MPS 1000 FZRASN OVC003"
"9:30 AM EET on December 12, 2016","2016","12","12","09","30","Europe/Kiev","7:30 AM GMT on December 12, 2016","2016","12","12","07","30","UTC","-2.0","28.4","-3.0","26.6","93","21.6","13.4","-9999.0","-9999.0","360","North","9.0","5.6","1000","29.53","-8.0","17.6","-9999","-9999","-9999.00","-9999.00","Light Snow","snow","0","0","1","0","0","0","METAR UKKK 120730Z 36006MPS 9000 -SN SCT011 OVC036 M02/M03 Q1000 R08/290345 TEMPO 32012G18MPS 2000 FZRASN"
"10:00 AM EET on December 12, 2016","2016","12","12","10","00","Europe/Kiev","8:00 AM GMT on December 12, 2016","2016","12","12","08","00","UTC","-2.0","28.4","-4.0","24.8","86","25.2","15.7","-9999.0","-9999.0","10","North","8.0","5.0","1000","29.53","-8.5","16.7","-9999","-9999","-9999.00","-9999.00","Light Snow","snow","0","0","1","0","0","0","METAR UKKK 120800Z 01007MPS 8000 -SN SCT011 OVC036 M02/M04 Q1000 R08/290345 TEMPO 32012G18MPS 2000 FZRASN"
"10:30 AM EET on December 12, 2016","2016","12","12","10","30","Europe/Kiev","8:30 AM GMT on December 12, 2016","2016","12","12","08","30","UTC","-2.0","28.4","-4.0","24.8","86","21.6","13.4","-9999.0","-9999.0","20","NNE","10.0","6.2","1001","29.56","-8.0","17.6","-9999","-9999","-9999.00","-9999.00","Light Snow","snow","0","0","1","0","0","0","METAR UKKK 120830Z 02006MPS 9999 -SN SCT011 OVC036 M02/M04 Q1001 R08/290345 TEMPO 32012G18MPS 2000 FZRASN"
"11:00 AM EET on December 12, 2016","2016","12","12","11","00","Europe/Kiev","9:00 AM GMT on December 12, 2016","2016","12","12","09","00","UTC","-2","28","-4","25","84","10.8","6.7","","","40","NE","10","6","1003","29.62","-999","-999","-9999","-9999","","","Light Snow","snow","0","0","1","0","0","0","AAXX 12091 33345 41497 80403 11024 21039 39822 40031 52038 77172 8652/ 555 11000"
"11:00 AM EET on December 12, 2016","2016","12","12","11","00","Europe/Kiev","9:00 AM GMT on December 12, 2016","2016","12","12","09","00","UTC","-2.0","28.4","-4.0","24.8","86","25.2","15.7","-9999.0","-9999.0","10","North","10.0","6.2","1002","29.59","-8.5","16.7","-9999","-9999","-9999.00","-9999.00","Light Snow","snow","0","0","1","0","0","0","METAR UKKK 120900Z 01007MPS 9999 -SN SCT011 OVC030 M02/M04 Q1002 R08/290345 TEMPO 32012G18MPS 2000 FZRASN"
"11:30 AM EET on December 12, 2016","2016","12","12","11","30","Europe/Kiev","9:30 AM GMT on December 12, 2016","2016","12","12","09","30","UTC","-2.0","28.4","-4.0","24.8","86","21.6","13.4","-9999.0","-9999.0","20","NNE","10.0","6.2","1002","29.59","-8.0","17.6","-9999","-9999","-9999.00","-9999.00","Light Snow","snow","0","0","1","0","0","0","METAR UKKK 120930Z 02006MPS 9999 -SN OVC015 M02/M04 Q1002 R08/290345 TEMPO 36010G16MPS"
"12:00 PM EET on December 12, 2016","2016","12","12","12","00","Europe/Kiev","10:00 AM GMT on December 12, 2016","2016","12","12","10","00","UTC","-3.0","26.6","-5.0","23.0","86","25.2","15.7","-9999.0","-9999.0","10","North","5.0","3.1","1003","29.62","-9.8","14.4","-9999","-9999","-9999.00","-9999.00","Light Snow","snow","0","0","1","0","0","0","METAR UKKK 121000Z 01007MPS 5000 -SN SCT011 OVC026 M03/M05 Q1003 R08/290345 TEMPO 36010G16MPS"
"12:30 PM EET on December 12, 2016","2016","12","12","12","30","Europe/Kiev","10:30 AM GMT on December 12, 2016","2016","12","12","10","30","UTC","-3.0","26.6","-5.0","23.0","86","25.2","15.7","-9999.0","-9999.0","10","North","7.0","4.3","1003","29.62","-9.8","14.4","-9999","-9999","-9999.00","-9999.00","Light Snow","snow","0","0","1","0","0","0","METAR UKKK 121030Z 01007MPS 7000 -SN SCT012 OVC026 M03/M05 Q1003 R08/290345 TEMPO 36010G16MPS"
"1:00 PM EET on December 12, 2016","2016","12","12","13","00","Europe/Kiev","11:00 AM GMT on December 12, 2016","2016","12","12","11","00","UTC","-3.0","26.6","-5.0","23.0","86","25.2","15.7","-9999.0","-9999.0","10","North","4.5","2.8","1004","29.65","-9.8","14.4","-9999","-9999","-9999.00","-9999.00","Light Snow","snow","0","0","1","0","0","0","METAR UKKK 121100Z 01007MPS 4500 -SN SCT012 OVC026 M03/M05 Q1004 R08/290345 TEMPO 36010G16MPS"
"1:30 PM EET on December 12, 2016","2016","12","12","13","30","Europe/Kiev","11:30 AM GMT on December 12, 2016","2016","12","12","11","30","UTC","-3.0","26.6","-6.0","21.2","80","25.2","15.7","-9999.0","-9999.0","20","NNE","9.0","5.6","1005","29.68","-9.8","14.4","-9999","-9999","-9999.00","-9999.00","Light Snow","snow","0","0","1","0","0","0","METAR UKKK 121130Z 02007MPS 9000 -SN SCT013 OVC036 M03/M06 Q1005 R08/290345 TEMPO 36010G16MPS"
"2:00 PM EET on December 12, 2016","2016","12","12","14","00","Europe/Kiev","12:00 PM GMT on December 12, 2016","2016","12","12","12","00","UTC","-3","26","-6","22","76","18.0","11.2","","","40","NE","20","12","1007","29.75","-999","-999","-9999","-9999","","","Light Snow Showers","snow","0","0","1","0","0","0","AAXX 12121 33345 /1498 80405 11034 21058 39861 40072 52039 72687 889// 333 88914 555 1/100 69991"
"2:00 PM EET on December 12, 2016","2016","12","12","14","00","Europe/Kiev","12:00 PM GMT on December 12, 2016","2016","12","12","12","00","UTC","-3.0","26.6","-6.0","21.2","80","25.2","15.7","-9999.0","-9999.0","30","NNE","10.0","6.2","1006","29.71","-9.8","14.4","-9999","-9999","-9999.00","-9999.00","Overcast","cloudy","0","0","0","0","0","0","METAR UKKK 121200Z 03007MPS 9999 SCT013 OVC036 M03/M06 Q1006 R08/290345 NOSIG"
"2:30 PM EET on December 12, 2016","2016","12","12","14","30","Europe/Kiev","12:30 PM GMT on December 12, 2016","2016","12","12","12","30","UTC","-3.0","26.6","-6.0","21.2","80","21.6","13.4","-9999.0","-9999.0","20","NNE","9.0","5.6","1006","29.71","-9.3","15.3","-9999","-9999","-9999.00","-9999.00","Overcast","cloudy","0","0","0","0","0","0","METAR UKKK 121230Z 02006MPS 350V060 9000 SCT013 OVC036 M03/M06 Q1006 R08/290345 NOSIG"
"3:00 PM EET on December 12, 2016","2016","12","12","15","00","Europe/Kiev","1:00 PM GMT on December 12, 2016","2016","12","12","13","00","UTC","-4.0","24.8","-6.0","21.2","86","25.2","15.7","43.2","26.8","20","NNE","10.0","6.2","1007","29.74","-11.0","12.1","-9999","-9999","-9999.00","-9999.00","Overcast","cloudy","0","0","0","0","0","0","METAR UKKK 121300Z 02007G12MPS 350V050 9999 SCT014 OVC033 M04/M06 Q1007 R08/290345 NOSIG"
"3:30 PM EET on December 12, 2016","2016","12","12","15","30","Europe/Kiev","1:30 PM GMT on December 12, 2016","2016","12","12","13","30","UTC","-4.0","24.8","-7.0","19.4","80","28.8","17.9","-9999.0","-9999.0","10","North","6.0","3.7","1008","29.77","-11.5","11.3","-9999","-9999","-9999.00","-9999.00","Light Snow","snow","0","0","1","0","0","0","METAR UKKK 121330Z 01008MPS 6000 -SN OVC015 M04/M07 Q1008 R08/590240 NOSIG"
"4:00 PM EET on December 12, 2016","2016","12","12","16","00","Europe/Kiev","2:00 PM GMT on December 12, 2016","2016","12","12","14","00","UTC","-4.0","24.8","-7.0","19.4","80","21.6","13.4","-9999.0","-9999.0","20","NNE","10.0","6.2","1009","29.80","-10.5","13.1","-9999","-9999","-9999.00","-9999.00","Light Snow","snow","0","0","1","0","0","0","METAR UKKK 121400Z 02006MPS 350V060 9999 -SN OVC016 M04/M07 Q1009 R08/590240 NOSIG"
"4:30 PM EET on December 12, 2016","2016","12","12","16","30","Europe/Kiev","2:30 PM GMT on December 12, 2016","2016","12","12","14","30","UTC","-4.0","24.8","-7.0","19.4","80","21.6","13.4","-9999.0","-9999.0","30","NNE","10.0","6.2","1009","29.80","-10.5","13.1","-9999","-9999","-9999.00","-9999.00","Overcast","cloudy","0","0","0","0","0","0","METAR UKKK 121430Z 03006MPS 9999 OVC017 M04/M07 Q1009 R08/590240 NOSIG"
"5:00 PM EET on December 12, 2016","2016","12","12","17","00","Europe/Kiev","3:00 PM GMT on December 12, 2016","2016","12","12","15","00","UTC","-4","25","-7","20","72","14.4","8.9","","","40","NE","10","6","1012","29.88","-999","-999","-9999","-9999","","","Partly Cloudy","partlycloudy","0","0","0","0","0","0","AAXX 12151 33345 41597 70404 11040 21069 39907 40119 52046 70282 87500 333 87621 555 1/103"
"5:00 PM EET on December 12, 2016","2016","12","12","17","00","Europe/Kiev","3:00 PM GMT on December 12, 2016","2016","12","12","15","00","UTC","-4.0","24.8","-7.0","19.4","80","21.6","13.4","-9999.0","-9999.0","20","NNE","-9999.0","-9999.0","1010","29.83","-10.5","13.1","-9999","-9999","-9999.00","-9999.00","Light Snow","snow","0","0","1","0","0","0","METAR UKKK 121500Z 02006MPS 4400 -SN OVC016 M04/M07 Q1010 R08/590240 NOSIG"
"5:20 PM EET on December 12, 2016","2016","12","12","17","20","Europe/Kiev","3:20 PM GMT on December 12, 2016","2016","12","12","15","20","UTC","-4.0","24.8","-7.0","19.4","80","25.2","15.7","-9999.0","-9999.0","20","NNE","1.8","1.1","1011","29.86","-11.0","12.1","-9999","-9999","-9999.00","-9999.00","Snow","snow","0","0","1","0","0","0","SPECI UKKK 121520Z 02007MPS 350V050 1800 SN OVC012 M04/M07 Q1011 R08/590240 TEMPO 1000 SHSN BKN005 BKN015CB"
"5:30 PM EET on December 12, 2016","2016","12","12","17","30","Europe/Kiev","3:30 PM GMT on December 12, 2016","2016","12","12","15","30","UTC","-4.0","24.8","-6.0","21.2","86","25.2","15.7","-9999.0","-9999.0","20","NNE","1.8","1.1","1011","29.86","-11.0","12.1","-9999","-9999","-9999.00","-9999.00","Snow","snow","0","0","1","0","0","0","METAR UKKK 121530Z 02007MPS 1800 SN OVC010 M04/M06 Q1011 R08/590335 TEMPO 1000 SHSN BKN005 BKN015CB"
"5:49 PM EET on December 12, 2016","2016","12","12","17","49","Europe/Kiev","3:49 PM GMT on December 12, 2016","2016","12","12","15","49","UTC","-4.0","24.8","-7.0","19.4","80","25.2","15.7","43.2","26.8","10","North","2.0","1.2","1011","29.86","-11.0","12.1","-9999","-9999","-9999.00","-9999.00","Snow","snow","0","0","1","0","0","0","SPECI UKKK 121549Z 01007G12MPS 2000 SN OVC012 M04/M07 Q1011 R08/590335 TEMPO 1000 SHSN BKN005 BKN015CB"
"6:00 PM EET on December 12, 2016","2016","12","12","18","00","Europe/Kiev","4:00 PM GMT on December 12, 2016","2016","12","12","16","00","UTC","-4.0","24.8","-7.0","19.4","80","28.8","17.9","-9999.0","-9999.0","10","North","3.0","1.9","1012","29.89","-11.5","11.3","-9999","-9999","-9999.00","-9999.00","Light Snow","snow","0","0","1","0","0","0","METAR UKKK 121600Z 01008MPS 3000 -SN OVC014 M04/M07 Q1012 RESN R08/590335 NOSIG"
"6:30 PM EET on December 12, 2016","2016","12","12","18","30","Europe/Kiev","4:30 PM GMT on December 12, 2016","2016","12","12","16","30","UTC","-5.0","23.0","-7.0","19.4","86","25.2","15.7","-9999.0","-9999.0","10","North","5.0","3.1","1012","29.89","-12.3","9.8","-9999","-9999","-9999.00","-9999.00","Light Snow","snow","0","0","1","0","0","0","METAR UKKK 121630Z 01007MPS 5000 -SN OVC016 M05/M07 Q1012 R08/590335 NOSIG"
"7:00 PM EET on December 12, 2016","2016","12","12","19","00","Europe/Kiev","5:00 PM GMT on December 12, 2016","2016","12","12","17","00","UTC","-5.0","23.0","-8.0","17.6","80","25.2","15.7","-9999.0","-9999.0","360","North","-9999.0","-9999.0","1013","29.92","-12.3","9.8","-9999","-9999","-9999.00","-9999.00","Light Snow","snow","0","0","1","0","0","0","METAR UKKK 121700Z 36007MPS 4700 -SN OVC015 M05/M08 Q1013 R08/590335 NOSIG"
"7:15 PM EET on December 12, 2016","2016","12","12","19","15","Europe/Kiev","5:15 PM GMT on December 12, 2016","2016","12","12","17","15","UTC","-5.0","23.0","-8.0","17.6","80","25.2","15.7","-9999.0","-9999.0","360","North","9.0","5.6","1013","29.92","-12.3","9.8","-9999","-9999","-9999.00","-9999.00","Light Snow","snow","0","0","1","0","0","0","SPECI UKKK 121715Z 36007MPS 9000 -SN DRSN OVC015 M05/M08 Q1013 R08/590335 NOSIG"
"7:30 PM EET on December 12, 2016","2016","12","12","19","30","Europe/Kiev","5:30 PM GMT on December 12, 2016","2016","12","12","17","30","UTC","-5.0","23.0","-8.0","17.6","80","32.4","20.1","-9999.0","-9999.0","360","North","9.0","5.6","1014","29.95","-13.3","8.1","-9999","-9999","-9999.00","-9999.00","Light Snow","snow","0","0","1","0","0","0","METAR UKKK 121730Z 36009MPS 9000 -SN DRSN OVC014 M05/M08 Q1014 R08/590335 NOSIG"
"8:00 PM EET on December 12, 2016","2016","12","12","20","00","Europe/Kiev","6:00 PM GMT on December 12, 2016","2016","12","12","18","00","UTC","-5","22","-8","18","77","21.6","13.4","","","40","NE","20","12","1016","30.01","-999","-999","-9999","-9999","","","Light Snow","snow","0","0","1","0","0","0","AAXX 12181 33345 11498 80406 11054 21079 39947 40161 52040 60022 72287 885// 333 10002 555 1/103"
"8:00 PM EET on December 12, 2016","2016","12","12","20","00","Europe/Kiev","6:00 PM GMT on December 12, 2016","2016","12","12","18","00","UTC","-6.0","21.2","-9.0","15.8","80","28.8","17.9","-9999.0","-9999.0","350","North","9.0","5.6","1014","29.95","-14.1","6.6","-9999","-9999","-9999.00","-9999.00","Light Snow","snow","0","0","1","0","0","0","METAR UKKK 121800Z 35008MPS 9000 -SN DRSN OVC014 M06/M09 Q1014 R08/590335 NOSIG"
"8:30 PM EET on December 12, 2016","2016","12","12","20","30","Europe/Kiev","6:30 PM GMT on December 12, 2016","2016","12","12","18","30","UTC","-6.0","21.2","-9.0","15.8","80","28.8","17.9","-9999.0","-9999.0","360","North","6.0","3.7","1015","29.98","-14.1","6.6","-9999","-9999","-9999.00","-9999.00","Light Snow","snow","0","0","1","0","0","0","METAR UKKK 121830Z 36008MPS 6000 -SN DRSN OVC014 M06/M09 Q1015 R08/590240 NOSIG"
"9:00 PM EET on December 12, 2016","2016","12","12","21","00","Europe/Kiev","7:00 PM GMT on December 12, 2016","2016","12","12","19","00","UTC","-6.0","21.2","-10.0","14.0","74","21.6","13.4","-9999.0","-9999.0","10","North","-9999.0","-9999.0","1016","30.01","-13.1","8.5","-9999","-9999","-9999.00","-9999.00","Light Snow Showers","snow","0","0","1","0","0","0","METAR UKKK 121900Z 01006MPS 3900 -SHSN SCT014 BKN023CB M06/M10 Q1016 R08/590240 NOSIG"
"9:30 PM EET on December 12, 2016","2016","12","12","21","30","Europe/Kiev","7:30 PM GMT on December 12, 2016","2016","12","12","19","30","UTC","-7.0","19.4","-9.0","15.8","86","18.0","11.2","36.0","22.4","340","NNW","2.8","1.7","1017","30.04","-13.7","7.4","-9999","-9999","-9999.00","-9999.00","Light Snow Showers","snow","0","0","1","0","0","0","METAR UKKK 121930Z 34005G10MPS 2800 -SHSN SCT013 BKN020CB M07/M09 Q1017 R08/590240 TEMPO 1400 SHSN BKN015CB"
"10:00 PM EET on December 12, 2016","2016","12","12","22","00","Europe/Kiev","8:00 PM GMT on December 12, 2016","2016","12","12","20","00","UTC","-7.0","19.4","-10.0","14.0","80","21.6","13.4","-9999.0","-9999.0","340","NNW","4.0","2.5","1017","30.04","-14.3","6.2","-9999","-9999","-9999.00","-9999.00","Light Snow Showers","snow","0","0","1","0","0","0","METAR UKKK 122000Z 34006MPS 4000 -SHSN SCT013 BKN021CB M07/M10 Q1017 R08/590240 NOSIG"
"10:30 PM EET on December 12, 2016","2016","12","12","22","30","Europe/Kiev","8:30 PM GMT on December 12, 2016","2016","12","12","20","30","UTC","-8.0","17.6","-11.0","12.2","79","21.6","13.4","-9999.0","-9999.0","340","NNW","2.9","1.8","1018","30.06","-15.6","3.9","-9999","-9999","-9999.00","-9999.00","Light Snow Showers","snow","0","0","1","0","0","0","METAR UKKK 122030Z 34006MPS 2900 -SHSN SCT017 BKN024CB M08/M11 Q1018 R08/590240 NOSIG"
"11:00 PM EET on December 12, 2016","2016","12","12","23","00","Europe/Kiev","9:00 PM GMT on December 12, 2016","2016","12","12","21","00","UTC","-8","18","-10","14","76","18.0","11.2","","","20","NNE","4","2","1020","30.13","-999","-999","-9999","-9999","","","Light Snow","snow","0","0","1","0","0","0","AAXX 12211 33345 41296 80205 11076 21102 39984 40201 52037 77172 8872/ 333 88706 555 1/102"
"11:00 PM EET on December 12, 2016","2016","12","12","23","00","Europe/Kiev","9:00 PM GMT on December 12, 2016","2016","12","12","21","00","UTC","-8.0","17.6","-11.0","12.2","79","21.6","13.4","-9999.0","-9999.0","340","NNW","5.0","3.1","1018","30.06","-15.6","3.9","-9999","-9999","-9999.00","-9999.00","Light Snow Showers","snow","0","0","1","0","0","0","METAR UKKK 122100Z 34006MPS 5000 -SHSN FEW017 BKN023CB M08/M11 Q1018 R08/590240 NOSIG"
"11:30 PM EET on December 12, 2016","2016","12","12","23","30","Europe/Kiev","9:30 PM GMT on December 12, 2016","2016","12","12","21","30","UTC","-8.0","17.6","-12.0","10.4","73","25.2","15.7","-9999.0","-9999.0","350","North","5.0","3.1","1019","30.09","-16.2","2.9","-9999","-9999","-9999.00","-9999.00","Light Snow","snow","0","0","1","0","0","0","METAR UKKK 122130Z 35007MPS 5000 -SN OVC019 M08/M12 Q1019 R08/590240 NOSIG"
"12:00 AM EET on December 13, 2016","2016","12","13","00","00","Europe/Kiev","10:00 PM GMT on December 12, 2016","2016","12","12","22","00","UTC","-8.0","17.6","-11.0","12.2","79","21.6","13.4","-9999.0","-9999.0","350","North","7.0","4.3","1019","30.09","-15.6","3.9","-9999","-9999","-9999.00","-9999.00","Light Snow","snow","0","0","1","0","0","0","METAR UKKK 122200Z 35006MPS 7000 -SN OVC019 M08/M11 Q1019 R08/590240 NOSIG"
"12:30 AM EET on December 13, 2016","2016","12","13","00","30","Europe/Kiev","10:30 PM GMT on December 12, 2016","2016","12","12","22","30","UTC","-8.0","17.6","-12.0","10.4","73","25.2","15.7","-9999.0","-9999.0","350","North","9.0","5.6","1020","30.12","-16.2","2.9","-9999","-9999","-9999.00","-9999.00","Light Snow","snow","0","0","1","0","0","0","METAR UKKK 122230Z 35007MPS 9000 -SN OVC018 M08/M12 Q1020 R08/590240 NOSIG"
"1:00 AM EET on December 13, 2016","2016","12","13","01","00","Europe/Kiev","11:00 PM GMT on December 12, 2016","2016","12","12","23","00","UTC","-8.0","17.6","-12.0","10.4","73","21.6","13.4","-9999.0","-9999.0","340","NNW","8.0","5.0","1020","30.12","-15.6","3.9","-9999","-9999","-9999.00","-9999.00","Light Snow","snow","0","0","1","0","0","0","METAR UKKK 122300Z 34006MPS 8000 -SN OVC017 M08/M12 Q1020 R08/590240 NOSIG"
"1:30 AM EET on December 13, 2016","2016","12","13","01","30","Europe/Kiev","11:30 PM GMT on December 12, 2016","2016","12","12","23","30","UTC","-8.0","17.6","-12.0","10.4","73","21.6","13.4","-9999.0","-9999.0","350","North","8.0","5.0","1021","30.15","-15.6","3.9","-9999","-9999","-9999.00","-9999.00","Light Snow","snow","0","0","1","0","0","0","METAR UKKK 122330Z 35006MPS 310V010 8000 -SN OVC018 M08/M12 Q1021 R08/590240 NOSIG"
"2:00 AM EET on December 13, 2016","2016","12","13","02","00","Europe/Kiev","12:00 AM GMT on December 13, 2016","2016","12","13","00","00","UTC","-8","17","-11","12","72","18.0","11.2","","","10","North","4","2","1023","30.21","-999","-999","-9999","-9999","","","Light Snow","snow","0","0","1","0","0","0","AAXX 13001 33345 /1496 80105 11084 21112 30012 40230 52028 77172 8872/ 333 88711 555 1/104 69961"
"2:00 AM EET on December 13, 2016","2016","12","13","02","00","Europe/Kiev","12:00 AM GMT on December 13, 2016","2016","12","13","00","00","UTC","-9.0","15.8","-12.0","10.4","79","25.2","15.7","-9999.0","-9999.0","350","North","7.0","4.3","1021","30.15","-17.5","0.5","-9999","-9999","-9999.00","-9999.00","Light Snow","snow","0","0","1","0","0","0","METAR UKKK 130000Z 35007MPS 320V020 7000 -SN OVC017 M09/M12 Q1021 R08/590240 NOSIG"
"2:30 AM EET on December 13, 2016","2016","12","13","02","30","Europe/Kiev","12:30 AM GMT on December 13, 2016","2016","12","13","00","30","UTC","-9.0","15.8","-12.0","10.4","79","25.2","15.7","-9999.0","-9999.0","350","North","8.0","5.0","1021","30.15","-17.5","0.5","-9999","-9999","-9999.00","-9999.00","Light Snow","snow","0","0","1","0","0","0","METAR UKKK 130030Z 35007MPS 320V020 8000 -SN OVC013 M09/M12 Q1021 R08/590240 NOSIG"
"3:00 AM EET on December 13, 2016","2016","12","13","03","00","Europe/Kiev","1:00 AM GMT on December 13, 2016","2016","12","13","01","00","UTC","-9.0","15.8","-12.0","10.4","79","21.6","13.4","-9999.0","-9999.0","350","North","9.0","5.6","1022","30.18","-16.9","1.6","-9999","-9999","-9999.00","-9999.00","Light Snow","snow","0","0","1","0","0","0","METAR UKKK 130100Z 35006MPS 9000 -SN OVC016 M09/M12 Q1022 R08/590240 NOSIG"
"3:30 AM EET on December 13, 2016","2016","12","13","03","30","Europe/Kiev","1:30 AM GMT on December 13, 2016","2016","12","13","01","30","UTC","-9.0","15.8","-13.0","8.6","73","21.6","13.4","-9999.0","-9999.0","340","NNW","9.0","5.6","1022","30.18","-16.9","1.6","-9999","-9999","-9999.00","-9999.00","Light Snow","snow","0","0","1","0","0","0","METAR UKKK 130130Z 34006MPS 9000 -SN OVC016 M09/M13 Q1022 R08/590240 NOSIG"
"4:00 AM EET on December 13, 2016","2016","12","13","04","00","Europe/Kiev","2:00 AM GMT on December 13, 2016","2016","12","13","02","00","UTC","-9.0","15.8","-12.0","10.4","79","14.4","8.9","-9999.0","-9999.0","340","NNW","4.5","2.8","1022","30.18","-15.3","4.4","-9999","-9999","-9999.00","-9999.00","Light Snow","snow","0","0","1","0","0","0","METAR UKKK 130200Z 34004MPS 300V360 4500 -SN OVC016 M09/M12 Q1022 R08/590240 NOSIG"
"4:30 AM EET on December 13, 2016","2016","12","13","04","30","Europe/Kiev","2:30 AM GMT on December 13, 2016","2016","12","13","02","30","UTC","-9.0","15.8","-13.0","8.6","73","18.0","11.2","-9999.0","-9999.0","340","NNW","10.0","6.2","1022","30.18","-16.2","2.9","-9999","-9999","-9999.00","-9999.00","Light Snow","snow","0","0","1","0","0","0","METAR UKKK 130230Z 34005MPS 9999 -SN OVC013 M09/M13 Q1022 R08/590240 NOSIG"
"5:00 AM EET on December 13, 2016","2016","12","13","05","00","Europe/Kiev","3:00 AM GMT on December 13, 2016","2016","12","13","03","00","UTC","-10","15","-12","10","70","14.4","8.9","","","10","North","10","6","1025","30.26","-999","-999","-9999","-9999","","","Partly Cloudy","partlycloudy","0","0","0","0","0","0","AAXX 13031 33345 41497 60104 11095 21125 30027 40246 52015 70272 84570 555 1/105"
"5:00 AM EET on December 13, 2016","2016","12","13","05","00","Europe/Kiev","3:00 AM GMT on December 13, 2016","2016","12","13","03","00","UTC","-10.0","14.0","-13.0","8.6","79","18.0","11.2","-9999.0","-9999.0","330","NNW","9.0","5.6","1022","30.18","-17.4","0.7","-9999","-9999","-9999.00","-9999.00","Light Snow","snow","0","0","1","0","0","0","METAR UKKK 130300Z 33005MPS 300V360 9000 -SN SCT009 OVC020 M10/M13 Q1022 R08/590240 NOSIG"
"5:30 AM EET on December 13, 2016","2016","12","13","05","30","Europe/Kiev","3:30 AM GMT on December 13, 2016","2016","12","13","03","30","UTC","-10.0","14.0","-13.0","8.6","79","18.0","11.2","-9999.0","-9999.0","340","NNW","9.0","5.6","1023","30.21","-17.4","0.7","-9999","-9999","-9999.00","-9999.00","Light Snow","snow","0","0","1","0","0","0","METAR UKKK 130330Z 34005MPS 310V010 9000 -SN OVC014 M10/M13 Q1023 R26/590240 NOSIG"
"6:00 AM EET on December 13, 2016","2016","12","13","06","00","Europe/Kiev","4:00 AM GMT on December 13, 2016","2016","12","13","04","00","UTC","-10.0","14.0","-12.0","10.4","86","18.0","11.2","-9999.0","-9999.0","320","NW","5.0","3.1","1023","30.21","-17.4","0.7","-9999","-9999","-9999.00","-9999.00","Light Snow","snow","0","0","1","0","0","0","METAR UKKK 130400Z 32005MPS 5000 -SN OVC016 M10/M12 Q1023 R26/590240 NOSIG"
"6:30 AM EET on December 13, 2016","2016","12","13","06","30","Europe/Kiev","4:30 AM GMT on December 13, 2016","2016","12","13","04","30","UTC","-9.0","15.8","-12.0","10.4","79","18.0","11.2","-9999.0","-9999.0","330","NNW","6.0","3.7","1023","30.21","-16.2","2.9","-9999","-9999","-9999.00","-9999.00","Light Snow","snow","0","0","1","0","0","0","METAR UKKK 130430Z 33005MPS 6000 -SN OVC016 M09/M12 Q1023 R26/590240 NOSIG"
"7:00 AM EET on December 13, 2016","2016","12","13","07","00","Europe/Kiev","5:00 AM GMT on December 13, 2016","2016","12","13","05","00","UTC","-9.0","15.8","-12.0","10.4","79","21.6","13.4","-9999.0","-9999.0","330","NNW","9.0","5.6","1023","30.21","-16.9","1.6","-9999","-9999","-9999.00","-9999.00","Light Snow","snow","0","0","1","0","0","0","METAR UKKK 130500Z 33006MPS 9000 -SN OVC016 M09/M12 Q1023 R26/590240 NOSIG"
"7:30 AM EET on December 13, 2016","2016","12","13","07","30","Europe/Kiev","5:30 AM GMT on December 13, 2016","2016","12","13","05","30","UTC","-9.0","15.8","-12.0","10.4","79","25.2","15.7","-9999.0","-9999.0","310","NW","9.0","5.6","1024","30.24","-17.5","0.5","-9999","-9999","-9999.00","-9999.00","Light Snow","snow","0","0","1","0","0","0","METAR UKKK 130530Z 31007MPS 9000 -SN OVC016 M09/M12 Q1024 R26/590240 NOSIG"
"8:00 AM EET on December 13, 2016","2016","12","13","08","00","Europe/Kiev","6:00 AM GMT on December 13, 2016","2016","12","13","06","00","UTC","-9","16","-12","10","69","10.8","6.7","","","340","NNW","10","6","1026","30.29","-999","-999","-9999","-9999","","","Light Snow","snow","0","0","1","0","0","0","AAXX 13061 33345 11497 73403 11091 21120 30038 40257 52011 69962 77072 86520 333 21099 47002 555 1/104"
"8:00 AM EET on December 13, 2016","2016","12","13","08","00","Europe/Kiev","6:00 AM GMT on December 13, 2016","2016","12","13","06","00","UTC","-9.0","15.8","-12.0","10.4","79","21.6","13.4","-9999.0","-9999.0","300","WNW","10.0","6.2","1024","30.24","-16.9","1.6","-9999","-9999","-9999.00","-9999.00","Light Snow","snow","0","0","1","0","0","0","METAR UKKK 130600Z 30006MPS 9999 -SN OVC015 M09/M12 Q1024 R26/490240 NOSIG"
"8:30 AM EET on December 13, 2016","2016","12","13","08","30","Europe/Kiev","6:30 AM GMT on December 13, 2016","2016","12","13","06","30","UTC","-9.0","15.8","-12.0","10.4","79","18.0","11.2","-9999.0","-9999.0","300","WNW","10.0","6.2","1024","30.24","-16.2","2.9","-9999","-9999","-9999.00","-9999.00","Light Snow","snow","0","0","1","0","0","0","METAR UKKK 130630Z 30005MPS 9999 -SN BKN015 BKN030 M09/M12 Q1024 R26/420240 NOSIG"
"9:00 AM EET on December 13, 2016","2016","12","13","09","00","Europe/Kiev","7:00 AM GMT on December 13, 2016","2016","12","13","07","00","UTC","-9.0","15.8","-12.0","10.4","79","18.0","11.2","-9999.0","-9999.0","280","West","10.0","6.2","1023","30.21","-16.2","2.9","-9999","-9999","-9999.00","-9999.00","Mostly Cloudy","mostlycloudy","0","0","0","0","0","0","METAR UKKK 130700Z 28005MPS 9999 FEW017 BKN030 M09/M12 Q1023 R26/420240 NOSIG"
"9:30 AM EET on December 13, 2016","2016","12","13","09","30","Europe/Kiev","7:30 AM GMT on December 13, 2016","2016","12","13","07","30","UTC","-8.0","17.6","-11.0","12.2","79","21.6","13.4","-9999.0","-9999.0","280","West","10.0","6.2","1023","30.21","-15.6","3.9","-9999","-9999","-9999.00","-9999.00","Scattered Clouds","partlycloudy","0","0","0","0","0","0","METAR UKKK 130730Z 28006MPS 9999 SCT040 M08/M11 Q1023 R26/420240 NOSIG"
"10:00 AM EET on December 13, 2016","2016","12","13","10","00","Europe/Kiev","8:00 AM GMT on December 13, 2016","2016","12","13","08","00","UTC","-8.0","17.6","-11.0","12.2","79","25.2","15.7","-9999.0","-9999.0","280","West","-9999.0","-9999.0","1023","30.21","-16.2","2.9","-9999","-9999","-9999.00","-9999.00","Clear","clear","0","0","0","0","0","0","METAR UKKK 130800Z 28007MPS CAVOK M08/M11 Q1023 R26/420240 NOSIG"
"10:30 AM EET on December 13, 2016","2016","12","13","10","30","Europe/Kiev","8:30 AM GMT on December 13, 2016","2016","12","13","08","30","UTC","-7.0","19.4","-11.0","12.2","74","32.4","20.1","-9999.0","-9999.0","280","West","-9999.0","-9999.0","1023","30.21","-15.9","3.4","-9999","-9999","-9999.00","-9999.00","Clear","clear","0","0","0","0","0","0","METAR UKKK 130830Z 28009MPS CAVOK M07/M11 Q1023 R26/420240 NOSIG"
"11:00 AM EET on December 13, 2016","2016","12","13","11","00","Europe/Kiev","9:00 AM GMT on December 13, 2016","2016","12","13","09","00","UTC","-7","20","-10","13","66","14.4","8.9","","","320","NW","20","12","1025","30.27","-999","-999","-9999","-9999","","","Partly Cloudy","partlycloudy","0","0","0","0","0","0","AAXX 13091 33345 41498 23204 11066 21103 30034 40251 58004 70371 81630 555 1/104"
"11:00 AM EET on December 13, 2016","2016","12","13","11","00","Europe/Kiev","9:00 AM GMT on December 13, 2016","2016","12","13","09","00","UTC","-6.0","21.2","-10.0","14.0","74","28.8","17.9","-9999.0","-9999.0","270","West","10.0","6.2","1023","30.21","-14.1","6.6","-9999","-9999","-9999.00","-9999.00","Scattered Clouds","partlycloudy","0","0","0","0","0","0","METAR UKKK 130900Z 27008MPS 9999 SCT047 M06/M10 Q1023 R26/820145 NOSIG"
"11:30 AM EET on December 13, 2016","2016","12","13","11","30","Europe/Kiev","9:30 AM GMT on December 13, 2016","2016","12","13","09","30","UTC","-6.0","21.2","-9.0","15.8","80","25.2","15.7","-9999.0","-9999.0","280","West","10.0","6.2","1023","30.21","-13.6","7.5","-9999","-9999","-9999.00","-9999.00","Scattered Clouds","partlycloudy","0","0","0","0","0","0","METAR UKKK 130930Z 28007MPS 9999 SCT049 M06/M09 Q1023 R26/820145 NOSIG"
"12:00 PM EET on December 13, 2016","2016","12","13","12","00","Europe/Kiev","10:00 AM GMT on December 13, 2016","2016","12","13","10","00","UTC","-5.0","23.0","-9.0","15.8","74","28.8","17.9","-9999.0","-9999.0","280","West","10.0","6.2","1023","30.21","-12.8","8.9","-9999","-9999","-9999.00","-9999.00","Scattered Clouds","partlycloudy","0","0","0","0","0","0","METAR UKKK 131000Z 28008MPS 9999 SCT049 M05/M09 Q1023 R26/820145 NOSIG"
"12:30 PM EET on December 13, 2016","2016","12","13","12","30","Europe/Kiev","10:30 AM GMT on December 13, 2016","2016","12","13","10","30","UTC","-5.0","23.0","-8.0","17.6","80","28.8","17.9","-9999.0","-9999.0","280","West","10.0","6.2","1023","30.21","-12.8","8.9","-9999","-9999","-9999.00","-9999.00","Scattered Clouds","partlycloudy","0","0","0","0","0","0","METAR UKKK 131030Z 28008MPS 9999 FEW019 SCT100 M05/M08 Q1023 R26/820145 NOSIG"
"1:00 PM EET on December 13, 2016","2016","12","13","13","00","Europe/Kiev","11:00 AM GMT on December 13, 2016","2016","12","13","11","00","UTC","-4.0","24.8","-8.0","17.6","74","28.8","17.9","-9999.0","-9999.0","280","West","-9999.0","-9999.0","1022","30.18","-11.5","11.3","-9999","-9999","-9999.00","-9999.00","Clear","clear","0","0","0","0","0","0","METAR UKKK 131100Z 28008MPS CAVOK M04/M08 Q1022 R26/820145 NOSIG"
"1:30 PM EET on December 13, 2016","2016","12","13","13","30","Europe/Kiev","11:30 AM GMT on December 13, 2016","2016","12","13","11","30","UTC","-4.0","24.8","-8.0","17.6","74","28.8","17.9","-9999.0","-9999.0","280","West","10.0","6.2","1022","30.18","-11.5","11.3","-9999","-9999","-9999.00","-9999.00","Light Snow","snow","0","0","1","0","0","0","METAR UKKK 131130Z 28008MPS 9999 -SN OVC043 M04/M08 Q1022 R26/820145 NOSIG"
"2:00 PM EET on December 13, 2016","2016","12","13","14","00","Europe/Kiev","12:00 PM GMT on December 13, 2016","2016","12","13","12","00","UTC","-3","26","-7","19","67","14.4","8.9","","","310","NW","10","6","1024","30.24","-999","-999","-9999","-9999","","","Light Snow","snow","0","0","1","0","0","0","AAXX 13121 33345 /1697 83104 11034 21070 30026 40240 57008 77171 885// 333 88636 555 1/102 69901"
"2:00 PM EET on December 13, 2016","2016","12","13","14","00","Europe/Kiev","12:00 PM GMT on December 13, 2016","2016","12","13","12","00","UTC","-3.0","26.6","-7.0","19.4","74","25.2","15.7","-9999.0","-9999.0","290","WNW","10.0","6.2","1022","30.18","-9.8","14.4","-9999","-9999","-9999.00","-9999.00","Light Snow","snow","0","0","1","0","0","0","METAR UKKK 131200Z 29007MPS 9999 -SN OVC021 M03/M07 Q1022 R26/820145 NOSIG"
"2:30 PM EET on December 13, 2016","2016","12","13","14","30","Europe/Kiev","12:30 PM GMT on December 13, 2016","2016","12","13","12","30","UTC","-3.0","26.6","-6.0","21.2","80","25.2","15.7","-9999.0","-9999.0","290","WNW","-9999.0","-9999.0","1022","30.18","-9.8","14.4","-9999","-9999","-9999.00","-9999.00","Light Snow Showers","snow","0","0","1","0","0","0","METAR UKKK 131230Z 29007MPS 3200 -SHSN BKN011 BKN025CB M03/M06 Q1022 R26/490140 TEMPO 1000 SHSN BKN004 BKN012CB"
"2:41 PM EET on December 13, 2016","2016","12","13","14","41","Europe/Kiev","12:41 PM GMT on December 13, 2016","2016","12","13","12","41","UTC","-4.0","24.8","-6.0","21.2","86","28.8","17.9","-9999.0","-9999.0","290","WNW","1.2","0.7","1022","30.18","-11.5","11.3","-9999","-9999","-9999.00","-9999.00","Snow Showers","snow","0","0","1","0","0","0","SPECI UKKK 131241Z 29008MPS 1200 R26/1400VP2000D SHSN BKN011 BKN025CB M04/M06 Q1022 R26/490140 TEMPO 1000 SHSN BKN004 BKN012CB"
"3:00 PM EET on December 13, 2016","2016","12","13","15","00","Europe/Kiev","1:00 PM GMT on December 13, 2016","2016","12","13","13","00","UTC","-4.0","24.8","-6.0","21.2","86","25.2","15.7","-9999.0","-9999.0","290","WNW","1.4","0.9","1022","30.18","-11.0","12.1","-9999","-9999","-9999.00","-9999.00","Snow Showers","snow","0","0","1","0","0","0","METAR UKKK 131300Z 29007MPS 1400 R26/1600D SHSN BKN010 BKN023CB M04/M06 Q1022 R26/490140 TEMPO 1000 SHSN BKN004 BKN012CB"
"3:22 PM EET on December 13, 2016","2016","12","13","15","22","Europe/Kiev","1:22 PM GMT on December 13, 2016","2016","12","13","13","22","UTC","-4.0","24.8","-6.0","21.2","86","25.2","15.7","-9999.0","-9999.0","290","WNW","8.0","5.0","1022","30.18","-11.0","12.1","-9999","-9999","-9999.00","-9999.00","Light Snow Showers","snow","0","0","1","0","0","0","SPECI UKKK 131322Z 29007MPS 8000 -SHSN BKN010 BKN023CB M04/M06 Q1022 RESHSN R26/490335 TEMPO 1000 SHSN BKN004 BKN012CB"
"3:30 PM EET on December 13, 2016","2016","12","13","15","30","Europe/Kiev","1:30 PM GMT on December 13, 2016","2016","12","13","13","30","UTC","-4.0","24.8","-6.0","21.2","86","25.2","15.7","-9999.0","-9999.0","290","WNW","9.0","5.6","1023","30.21","-11.0","12.1","-9999","-9999","-9999.00","-9999.00","Light Snow Showers","snow","0","0","1","0","0","0","METAR UKKK 131330Z 29007MPS 9000 -SHSN BKN010 BKN023CB M04/M06 Q1023 R26/490335 TEMPO 1000 SHSN BKN004 BKN012CB"
"4:00 PM EET on December 13, 2016","2016","12","13","16","00","Europe/Kiev","2:00 PM GMT on December 13, 2016","2016","12","13","14","00","UTC","-4.0","24.8","-6.0","21.2","86","25.2","15.7","-9999.0","-9999.0","290","WNW","9.0","5.6","1023","30.21","-11.0","12.1","-9999","-9999","-9999.00","-9999.00","Light Snow","snow","0","0","1","0","0","0","METAR UKKK 131400Z 29007MPS 9000 -SN BKN012 BKN042 M04/M06 Q1023 R26/490335 TEMPO 1000 SHSN BKN004 BKN012CB"
"4:30 PM EET on December 13, 2016","2016","12","13","16","30","Europe/Kiev","2:30 PM GMT on December 13, 2016","2016","12","13","14","30","UTC","-4.0","24.8","-6.0","21.2","86","25.2","15.7","-9999.0","-9999.0","290","WNW","9.0","5.6","1023","30.21","-11.0","12.1","-9999","-9999","-9999.00","-9999.00","Light Snow","snow","0","0","1","0","0","0","METAR UKKK 131430Z 29007MPS 9000 -SN BKN011 OVC030 M04/M06 Q1023 R26/490335 TEMPO 1000 SHSN BKN004 BKN012CB"
"5:00 PM EET on December 13, 2016","2016","12","13","17","00","Europe/Kiev","3:00 PM GMT on December 13, 2016","2016","12","13","15","00","UTC","-4","26","-6","22","77","14.4","8.9","","","320","NW","10","6","1024","30.25","-999","-999","-9999","-9999","","","Light Snow","snow","0","0","1","0","0","0","AAXX 13151 33345 41497 83204 11036 21057 30030 40244 53004 77187 8672/ 333 86711 555 1/104"
"5:00 PM EET on December 13, 2016","2016","12","13","17","00","Europe/Kiev","3:00 PM GMT on December 13, 2016","2016","12","13","15","00","UTC","-4.0","24.8","-6.0","21.2","86","25.2","15.7","-9999.0","-9999.0","290","WNW","9.0","5.6","1023","30.21","-11.0","12.1","-9999","-9999","-9999.00","-9999.00","Light Snow","snow","0","0","1","0","0","0","METAR UKKK 131500Z 29007MPS 9000 -SN BKN011 OVC030 M04/M06 Q1023 R26/490335 NOSIG"
"5:30 PM EET on December 13, 2016","2016","12","13","17","30","Europe/Kiev","3:30 PM GMT on December 13, 2016","2016","12","13","15","30","UTC","-4.0","24.8","-6.0","21.2","86","21.6","13.4","-9999.0","-9999.0","290","WNW","9.0","5.6","1023","30.21","-10.5","13.1","-9999","-9999","-9999.00","-9999.00","Light Snow","snow","0","0","1","0","0","0","METAR UKKK 131530Z 29006MPS 9000 -SN BKN046 BKN100 M04/M06 Q1023 R26/490335 NOSIG"
"6:00 PM EET on December 13, 2016","2016","12","13","18","00","Europe/Kiev","4:00 PM GMT on December 13, 2016","2016","12","13","16","00","UTC","-4.0","24.8","-7.0","19.4","80","25.2","15.7","-9999.0","-9999.0","280","West","10.0","6.2","1023","30.21","-11.0","12.1","-9999","-9999","-9999.00","-9999.00","Light Snow","snow","0","0","1","0","0","0","METAR UKKK 131600Z 28007MPS 9999 -SN BKN038 BKN100 M04/M07 Q1023 R26/490140 NOSIG"
"6:30 PM EET on December 13, 2016","2016","12","13","18","30","Europe/Kiev","4:30 PM GMT on December 13, 2016","2016","12","13","16","30","UTC","-4.0","24.8","-7.0","19.4","80","25.2","15.7","-9999.0","-9999.0","270","West","-9999.0","-9999.0","1023","30.21","-11.0","12.1","-9999","-9999","-9999.00","-9999.00","Clear","clear","0","0","0","0","0","0","METAR UKKK 131630Z 27007MPS CAVOK M04/M07 Q1023 R26/490140 NOSIG"
"7:00 PM EET on December 13, 2016","2016","12","13","19","00","Europe/Kiev","5:00 PM GMT on December 13, 2016","2016","12","13","17","00","UTC","-4.0","24.8","-7.0","19.4","80","21.6","13.4","-9999.0","-9999.0","280","West","-9999.0","-9999.0","1023","30.21","-10.5","13.1","-9999","-9999","-9999.00","-9999.00","Clear","clear","0","0","0","0","0","0","METAR UKKK 131700Z 28006MPS CAVOK M04/M07 Q1023 R26/490140 NOSIG"
"7:30 PM EET on December 13, 2016","2016","12","13","19","30","Europe/Kiev","5:30 PM GMT on December 13, 2016","2016","12","13","17","30","UTC","-4.0","24.8","-7.0","19.4","80","25.2","15.7","-9999.0","-9999.0","270","West","-9999.0","-9999.0","1022","30.18","-11.0","12.1","-9999","-9999","-9999.00","-9999.00","Clear","clear","0","0","0","0","0","0","METAR UKKK 131730Z 27007MPS CAVOK M04/M07 Q1022 R26/490140 NOSIG"
"8:00 PM EET on December 13, 2016","2016","12","13","20","00","Europe/Kiev","6:00 PM GMT on December 13, 2016","2016","12","13","18","00","UTC","-3","26","-7","19","67","10.8","6.7","","","0","North","20","12","1024","30.25","-999","-999","-9999","-9999","","","Partly Cloudy","partlycloudy","0","0","0","0","0","0","AAXX 13181 33345 11998 73603 11034 21070 30029 40243 58001 69952 70287 87030 333 11030 555 1/105"
"8:00 PM EET on December 13, 2016","2016","12","13","20","00","Europe/Kiev","6:00 PM GMT on December 13, 2016","2016","12","13","18","00","UTC","-4.0","24.8","-8.0","17.6","74","25.2","15.7","-9999.0","-9999.0","270","West","-9999.0","-9999.0","1022","30.18","-11.0","12.1","-9999","-9999","-9999.00","-9999.00","Clear","clear","0","0","0","0","0","0","METAR UKKK 131800Z 27007MPS CAVOK M04/M08 Q1022 R26/490140 NOSIG"
"8:30 PM EET on December 13, 2016","2016","12","13","20","30","Europe/Kiev","6:30 PM GMT on December 13, 2016","2016","12","13","18","30","UTC","-4.0","24.8","-8.0","17.6","74","25.2","15.7","-9999.0","-9999.0","280","West","-9999.0","-9999.0","1022","30.18","-11.0","12.1","-9999","-9999","-9999.00","-9999.00","Clear","clear","0","0","0","0","0","0","METAR UKKK 131830Z 28007MPS CAVOK M04/M08 Q1022 R26/490140 NOSIG"
"9:00 PM EET on December 13, 2016","2016","12","13","21","00","Europe/Kiev","7:00 PM GMT on December 13, 2016","2016","12","13","19","00","UTC","-4.0","24.8","-9.0","15.8","69","21.6","13.4","-9999.0","-9999.0","280","West","-9999.0","-9999.0","1022","30.18","-10.5","13.1","-9999","-9999","-9999.00","-9999.00","Clear","clear","0","0","0","0","0","0","METAR UKKK 131900Z 28006MPS CAVOK M04/M09 Q1022 R26/490140 NOSIG"
"9:30 PM EET on December 13, 2016","2016","12","13","21","30","Europe/Kiev","7:30 PM GMT on December 13, 2016","2016","12","13","19","30","UTC","-4.0","24.8","-8.0","17.6","74","25.2","15.7","-9999.0","-9999.0","280","West","-9999.0","-9999.0","1022","30.18","-11.0","12.1","-9999","-9999","-9999.00","-9999.00","Clear","clear","0","0","0","0","0","0","METAR UKKK 131930Z 28007MPS CAVOK M04/M08 Q1022 R26/490140 NOSIG"
"10:00 PM EET on December 13, 2016","2016","12","13","22","00","Europe/Kiev","8:00 PM GMT on December 13, 2016","2016","12","13","20","00","UTC","-4.0","24.8","-9.0","15.8","69","21.6","13.4","-9999.0","-9999.0","260","West","10.0","6.2","1022","30.18","-10.5","13.1","-9999","-9999","-9999.00","-9999.00","Light Snow","snow","0","0","1","0","0","0","METAR UKKK 132000Z 26006MPS 9999 -SN OVC046 M04/M09 Q1022 R26/490140 NOSIG"
"10:30 PM EET on December 13, 2016","2016","12","13","22","30","Europe/Kiev","8:30 PM GMT on December 13, 2016","2016","12","13","20","30","UTC","-4.0","24.8","-9.0","15.8","69","18.0","11.2","-9999.0","-9999.0","270","West","10.0","6.2","1022","30.18","-9.9","14.2","-9999","-9999","-9999.00","-9999.00","Light Snow","snow","0","0","1","0","0","0","METAR UKKK 132030Z 27005MPS 9999 -SN OVC046 M04/M09 Q1022 R26/490140 NOSIG"
"11:00 PM EET on December 13, 2016","2016","12","13","23","00","Europe/Kiev","9:00 PM GMT on December 13, 2016","2016","12","13","21","00","UTC","-4","25","-8","17","61","14.4","8.9","","","310","NW","20","12","1024","30.25","-999","-999","-9999","-9999","","","Mostly Cloudy","mostlycloudy","0","0","0","0","0","0","AAXX 13211 33345 42998 73104 11041 21083 30026 40241 56003 87030 555 1/105"
"11:00 PM EET on December 13, 2016","2016","12","13","23","00","Europe/Kiev","9:00 PM GMT on December 13, 2016","2016","12","13","21","00","UTC","-4.0","24.8","-9.0","15.8","69","18.0","11.2","-9999.0","-9999.0","280","West","-9999.0","-9999.0","1022","30.18","-9.9","14.2","-9999","-9999","-9999.00","-9999.00","Clear","clear","0","0","0","0","0","0","METAR UKKK 132100Z 28005MPS CAVOK M04/M09 Q1022 R26/490140 NOSIG"
"11:30 PM EET on December 13, 2016","2016","12","13","23","30","Europe/Kiev","9:30 PM GMT on December 13, 2016","2016","12","13","21","30","UTC","-4.0","24.8","-9.0","15.8","69","21.6","13.4","-9999.0","-9999.0","280","West","10.0","6.2","1022","30.18","-10.5","13.1","-9999","-9999","-9999.00","-9999.00","Light Snow","snow","0","0","1","0","0","0","METAR UKKK 132130Z 28006MPS 9999 -SN OVC031 M04/M09 Q1022 R26/490140 NOSIG"
"12:00 AM EET on December 14, 2016","2016","12","14","00","00","Europe/Kiev","10:00 PM GMT on December 13, 2016","2016","12","13","22","00","UTC","-5.0","23.0","-9.0","15.8","74","18.0","11.2","-9999.0","-9999.0","280","West","10.0","6.2","1022","30.18","-11.2","11.9","-9999","-9999","-9999.00","-9999.00","Light Snow","snow","0","0","1","0","0","0","METAR UKKK 132200Z 28005MPS 9999 -SN OVC031 M05/M09 Q1022 R26/490140 NOSIG"
"12:17 AM EET on December 14, 2016","2016","12","14","00","17","Europe/Kiev","10:17 PM GMT on December 13, 2016","2016","12","13","22","17","UTC","-5.0","23.0","-9.0","15.8","74","14.4","8.9","-9999.0","-9999.0","280","West","1.7","1.1","1022","30.18","-10.4","13.2","-9999","-9999","-9999.00","-9999.00","Snow","snow","0","0","1","0","0","0","SPECI UKKK 132217Z 28004MPS 1700 SN SCT009 OVC026 M05/M09 Q1022 R26/490140 TEMPO 1400 SHSN BKN012CB"
"12:30 AM EET on December 14, 2016","2016","12","14","00","30","Europe/Kiev","10:30 PM GMT on December 13, 2016","2016","12","13","22","30","UTC","-5.0","23.0","-8.0","17.6","80","18.0","11.2","-9999.0","-9999.0","280","West","5.0","3.1","1022","30.18","-11.2","11.9","-9999","-9999","-9999.00","-9999.00","Light Snow","snow","0","0","1","0","0","0","METAR UKKK 132230Z 28005MPS 5000 -SN FEW013 OVC043 M05/M08 Q1022 RESN R26/490140 TEMPO 1000 SHSN BKN012CB"
"1:00 AM EET on December 14, 2016","2016","12","14","01","00","Europe/Kiev","11:00 PM GMT on December 13, 2016","2016","12","13","23","00","UTC","-5.0","23.0","-9.0","15.8","74","14.4","8.9","-9999.0","-9999.0","270","West","10.0","6.2","1022","30.18","-10.4","13.2","-9999","-9999","-9999.00","-9999.00","Light Snow","snow","0","0","1","0","0","0","METAR UKKK 132300Z 27004MPS 9999 -SN OVC046 M05/M09 Q1022 R26/490140 TEMPO 1000 SHSN BKN012CB"
"1:30 AM EET on December 14, 2016","2016","12","14","01","30","Europe/Kiev","11:30 PM GMT on December 13, 2016","2016","12","13","23","30","UTC","-5.0","23.0","-9.0","15.8","74","18.0","11.2","-9999.0","-9999.0","270","West","-9999.0","-9999.0","1022","30.18","-11.2","11.9","-9999","-9999","-9999.00","-9999.00","Clear","clear","0","0","0","0","0","0","METAR UKKK 132330Z 27005MPS CAVOK M05/M09 Q1022 R26/490140 NOSIG"
"2:00 AM EET on December 14, 2016","2016","12","14","02","00","Europe/Kiev","12:00 AM GMT on December 14, 2016","2016","12","14","00","00","UTC","-5","23","-9","17","67","10.8","6.7","","","290","WNW","20","12","1023","30.22","-999","-999","-9999","-9999","","","Light Snow","snow","0","0","1","0","0","0","AAXX 14001 33345 /1998 82903 11050 21086 30018 40233 58008 72272 8807/ 555 1/105 69921"
"2:00 AM EET on December 14, 2016","2016","12","14","02","00","Europe/Kiev","12:00 AM GMT on December 14, 2016","2016","12","14","00","00","UTC","-5.0","23.0","-9.0","15.8","74","18.0","11.2","-9999.0","-9999.0","270","West","-9999.0","-9999.0","1022","30.18","-11.2","11.9","-9999","-9999","-9999.00","-9999.00","Clear","clear","0","0","0","0","0","0","METAR UKKK 140000Z 27005MPS CAVOK M05/M09 Q1022 R26/490140 NOSIG"
"2:30 AM EET on December 14, 2016","2016","12","14","02","30","Europe/Kiev","12:30 AM GMT on December 14, 2016","2016","12","14","00","30","UTC","-5.0","23.0","-9.0","15.8","74","21.6","13.4","-9999.0","-9999.0","270","West","-9999.0","-9999.0","1021","30.15","-11.8","10.8","-9999","-9999","-9999.00","-9999.00","Clear","clear","0","0","0","0","0","0","METAR UKKK 140030Z 27006MPS CAVOK M05/M09 Q1021 R26/490140 NOSIG"
"3:00 AM EET on December 14, 2016","2016","12","14","03","00","Europe/Kiev","1:00 AM GMT on December 14, 2016","2016","12","14","01","00","UTC","-5.0","23.0","-10.0","14.0","68","18.0","11.2","-9999.0","-9999.0","260","West","-9999.0","-9999.0","1021","30.15","-11.2","11.9","-9999","-9999","-9999.00","-9999.00","Clear","clear","0","0","0","0","0","0","METAR UKKK 140100Z 26005MPS CAVOK M05/M10 Q1021 R26/490140 NOSIG"
"3:30 AM EET on December 14, 2016","2016","12","14","03","30","Europe/Kiev","1:30 AM GMT on December 14, 2016","2016","12","14","01","30","UTC","-6.0","21.2","-10.0","14.0","74","18.0","11.2","-9999.0","-9999.0","260","West","-9999.0","-9999.0","1021","30.15","-12.4","9.7","-9999","-9999","-9999.00","-9999.00","Clear","clear","0","0","0","0","0","0","METAR UKKK 140130Z 26005MPS CAVOK M06/M10 Q1021 R26/490140 NOSIG"
"4:00 AM EET on December 14, 2016","2016","12","14","04","00","Europe/Kiev","2:00 AM GMT on December 14, 2016","2016","12","14","02","00","UTC","-7.0","19.4","-11.0","12.2","74","18.0","11.2","-9999.0","-9999.0","260","West","-9999.0","-9999.0","1021","30.15","-13.7","7.4","-9999","-9999","-9999.00","-9999.00","Clear","clear","0","0","0","0","0","0","METAR UKKK 140200Z 26005MPS CAVOK M07/M11 Q1021 R26/490140 NOSIG"
"4:30 AM EET on December 14, 2016","2016","12","14","04","30","Europe/Kiev","2:30 AM GMT on December 14, 2016","2016","12","14","02","30","UTC","-7.0","19.4","-11.0","12.2","74","18.0","11.2","-9999.0","-9999.0","260","West","-9999.0","-9999.0","1020","30.12","-13.7","7.4","-9999","-9999","-9999.00","-9999.00","Clear","clear","0","0","0","0","0","0","METAR UKKK 140230Z 26005MPS CAVOK M07/M11 Q1020 R26/490140 NOSIG"
"5:00 AM EET on December 14, 2016","2016","12","14","05","00","Europe/Kiev","3:00 AM GMT on December 14, 2016","2016","12","14","03","00","UTC","-7","19","-10","13","69","14.4","8.9","","","280","West","20","12","1022","30.19","-999","-999","-9999","-9999","","","Clear","clear","0","0","0","0","0","0","AAXX 14031 33345 42998 72804 11071 21105 30004 40221 57014 80006 555 1/108"
"5:00 AM EET on December 14, 2016","2016","12","14","05","00","Europe/Kiev","3:00 AM GMT on December 14, 2016","2016","12","14","03","00","UTC","-8.0","17.6","-11.0","12.2","79","14.4","8.9","-9999.0","-9999.0","250","WSW","-9999.0","-9999.0","1020","30.12","-14.1","6.6","-9999","-9999","-9999.00","-9999.00","Clear","clear","0","0","0","0","0","0","METAR UKKK 140300Z 25004MPS CAVOK M08/M11 Q1020 R26/490140 NOSIG"
"5:30 AM EET on December 14, 2016","2016","12","14","05","30","Europe/Kiev","3:30 AM GMT on December 14, 2016","2016","12","14","03","30","UTC","-8.0","17.6","-11.0","12.2","79","10.8","6.7","-9999.0","-9999.0","250","WSW","-9999.0","-9999.0","1020","30.12","-13.1","8.4","-9999","-9999","-9999.00","-9999.00","Clear","clear","0","0","0","0","0","0","METAR UKKK 140330Z 25003MPS CAVOK M08/M11 Q1020 R26/490140 NOSIG"
"6:00 AM EET on December 14, 2016","2016","12","14","06","00","Europe/Kiev","4:00 AM GMT on December 14, 2016","2016","12","14","04","00","UTC","-8.0","17.6","-11.0","12.2","79","10.8","6.7","-9999.0","-9999.0","250","WSW","-9999.0","-9999.0","1019","30.09","-13.1","8.4","-9999","-9999","-9999.00","-9999.00","Clear","clear","0","0","0","0","0","0","METAR UKKK 140400Z 25003MPS CAVOK M08/M11 Q1019 R26/490140 NOSIG"
"6:30 AM EET on December 14, 2016","2016","12","14","06","30","Europe/Kiev","4:30 AM GMT on December 14, 2016","2016","12","14","04","30","UTC","-9.0","15.8","-11.0","12.2","86","10.8","6.7","-9999.0","-9999.0","240","WSW","-9999.0","-9999.0","1019","30.09","-14.3","6.2","-9999","-9999","-9999.00","-9999.00","Clear","clear","0","0","0","0","0","0","METAR UKKK 140430Z 24003MPS CAVOK M09/M11 Q1019 R26/490145 NOSIG"
"7:00 AM EET on December 14, 2016","2016","12","14","07","00","Europe/Kiev","5:00 AM GMT on December 14, 2016","2016","12","14","05","00","UTC","-8.0","17.6","-11.0","12.2","79","10.8","6.7","-9999.0","-9999.0","240","WSW","-9999.0","-9999.0","1019","30.09","-13.1","8.4","-9999","-9999","-9999.00","-9999.00","Clear","clear","0","0","0","0","0","0","METAR UKKK 140500Z 24003MPS CAVOK M08/M11 Q1019 R26/490145 NOSIG"
"7:30 AM EET on December 14, 2016","2016","12","14","07","30","Europe/Kiev","5:30 AM GMT on December 14, 2016","2016","12","14","05","30","UTC","-8.0","17.6","-11.0","12.2","79","10.8","6.7","-9999.0","-9999.0","240","WSW","-9999.0","-9999.0","1019","30.09","-13.1","8.4","-9999","-9999","-9999.00","-9999.00","Clear","clear","0","0","0","0","0","0","METAR UKKK 140530Z 24003MPS CAVOK M08/M11 Q1019 R26/490145 NOSIG"
"8:00 AM EET on December 14, 2016","2016","12","14","08","00","Europe/Kiev","6:00 AM GMT on December 14, 2016","2016","12","14","06","00","UTC","-8","18","-11","13","72","10.8","6.7","","","270","West","20","12","1021","30.14","-999","-999","-9999","-9999","","","Scattered Clouds","partlycloudy","0","0","0","0","0","0","AAXX 14061 33345 12998 72703 11076 21106 39989 40206 57015 69922 82039 333 21078 47002 555 1/107"
"8:00 AM EET on December 14, 2016","2016","12","14","08","00","Europe/Kiev","6:00 AM GMT on December 14, 2016","2016","12","14","06","00","UTC","-8.0","17.6","-11.0","12.2","79","10.8","6.7","-9999.0","-9999.0","230","SW","-9999.0","-9999.0","1019","30.09","-13.1","8.4","-9999","-9999","-9999.00","-9999.00","Clear","clear","0","0","0","0","0","0","METAR UKKK 140600Z 23003MPS CAVOK M08/M11 Q1019 R26/490145 NOSIG"
"8:30 AM EET on December 14, 2016","2016","12","14","08","30","Europe/Kiev","6:30 AM GMT on December 14, 2016","2016","12","14","06","30","UTC","-7.0","19.4","-10.0","14.0","80","10.8","6.7","-9999.0","-9999.0","240","WSW","-9999.0","-9999.0","1018","30.06","-11.9","10.6","-9999","-9999","-9999.00","-9999.00","Clear","clear","0","0","0","0","0","0","METAR UKKK 140630Z 24003MPS CAVOK M07/M10 Q1018 R26/820345 NOSIG"
"9:00 AM EET on December 14, 2016","2016","12","14","09","00","Europe/Kiev","7:00 AM GMT on December 14, 2016","2016","12","14","07","00","UTC","-7.0","19.4","-10.0","14.0","80","14.4","8.9","-9999.0","-9999.0","240","WSW","-9999.0","-9999.0","1018","30.06","-12.9","8.8","-9999","-9999","-9999.00","-9999.00","Clear","clear","0","0","0","0","0","0","METAR UKKK 140700Z 24004MPS CAVOK M07/M10 Q1018 R26/820345 NOSIG"
"9:30 AM EET on December 14, 2016","2016","12","14","09","30","Europe/Kiev","7:30 AM GMT on December 14, 2016","2016","12","14","07","30","UTC","-6.0","21.2","-10.0","14.0","74","14.4","8.9","-9999.0","-9999.0","240","WSW","-9999.0","-9999.0","1018","30.06","-11.6","11.0","-9999","-9999","-9999.00","-9999.00","Clear","clear","0","0","0","0","0","0","METAR UKKK 140730Z 24004MPS CAVOK M06/M10 Q1018 R26/820345 NOSIG"
"10:00 AM EET on December 14, 2016","2016","12","14","10","00","Europe/Kiev","8:00 AM GMT on December 14, 2016","2016","12","14","08","00","UTC","-5.0","23.0","-9.0","15.8","74","10.8","6.7","-9999.0","-9999.0","240","WSW","-9999.0","-9999.0","1018","30.06","-9.5","14.9","-9999","-9999","-9999.00","-9999.00","Clear","clear","0","0","0","0","0","0","METAR UKKK 140800Z 24003MPS CAVOK M05/M09 Q1018 R26/820345 NOSIG"
"10:30 AM EET on December 14, 2016","2016","12","14","10","30","Europe/Kiev","8:30 AM GMT on December 14, 2016","2016","12","14","08","30","UTC","-5.0","23.0","-9.0","15.8","74","10.8","6.7","-9999.0","-9999.0","240","WSW","-9999.0","-9999.0","1017","30.04","-9.5","14.9","-9999","-9999","-9999.00","-9999.00","Clear","clear","0","0","0","0","0","0","METAR UKKK 140830Z 24003MPS CAVOK M05/M09 Q1017 R26/820345 NOSIG"
"11:00 AM EET on December 14, 2016","2016","12","14","11","00","Europe/Kiev","9:00 AM GMT on December 14, 2016","2016","12","14","09","00","UTC","-4","24","-9","16","61","10.8","6.7","","","260","West","20","12","1019","30.09","-999","-999","-9999","-9999","","","Mostly Cloudy","mostlycloudy","0","0","0","0","0","0","AAXX 14091 33345 42998 62603 11043 21089 39973 40187 57016 86030 555 1/103"
"11:00 AM EET on December 14, 2016","2016","12","14","11","00","Europe/Kiev","9:00 AM GMT on December 14, 2016","2016","12","14","09","00","UTC","-4.0","24.8","-9.0","15.8","69","14.4","8.9","-9999.0","-9999.0","240","WSW","10.0","6.2","1017","30.04","-9.2","15.5","-9999","-9999","-9999.00","-9999.00","Mostly Cloudy","mostlycloudy","0","0","0","0","0","0","METAR UKKK 140900Z 24004MPS 9999 FEW031 BKN071 M04/M09 Q1017 R26/820345 NOSIG"
"11:30 AM EET on December 14, 2016","2016","12","14","11","30","Europe/Kiev","9:30 AM GMT on December 14, 2016","2016","12","14","09","30","UTC","-4.0","24.8","-8.0","17.6","74","14.4","8.9","-9999.0","-9999.0","250","WSW","10.0","6.2","1017","30.04","-9.2","15.5","-9999","-9999","-9999.00","-9999.00","Mostly Cloudy","mostlycloudy","0","0","0","0","0","0","METAR UKKK 140930Z 25004MPS 9999 SCT022 BKN100 M04/M08 Q1017 R26/820345 NOSIG"
"12:00 PM EET on December 14, 2016","2016","12","14","12","00","Europe/Kiev","10:00 AM GMT on December 14, 2016","2016","12","14","10","00","UTC","-3.0","26.6","-8.0","17.6","69","10.8","6.7","-9999.0","-9999.0","230","SW","10.0","6.2","1016","30.01","-7.1","19.2","-9999","-9999","-9999.00","-9999.00","Mostly Cloudy","mostlycloudy","0","0","0","0","0","0","METAR UKKK 141000Z 23003MPS 190V260 9999 BKN021 M03/M08 Q1016 R26/820345 NOSIG"
"12:30 PM EET on December 14, 2016","2016","12","14","12","30","Europe/Kiev","10:30 AM GMT on December 14, 2016","2016","12","14","10","30","UTC","-3.0","26.6","-8.0","17.6","69","14.4","8.9","-9999.0","-9999.0","240","WSW","10.0","6.2","1016","30.01","-8.0","17.7","-9999","-9999","-9999.00","-9999.00","Mostly Cloudy","mostlycloudy","0","0","0","0","0","0","METAR UKKK 141030Z 24004MPS 9999 BKN021 M03/M08 Q1016 R26/820345 NOSIG"
"1:00 PM EET on December 14, 2016","2016","12","14","13","00","Europe/Kiev","11:00 AM GMT on December 14, 2016","2016","12","14","11","00","UTC","-3.0","26.6","-7.0","19.4","74","14.4","8.9","-9999.0","-9999.0","240","WSW","10.0","6.2","1016","30.01","-8.0","17.7","-9999","-9999","-9999.00","-9999.00","Mostly Cloudy","mostlycloudy","0","0","0","0","0","0","METAR UKKK 141100Z 24004MPS 9999 BKN027 M03/M07 Q1016 R26/820345 NOSIG"
"1:30 PM EET on December 14, 2016","2016","12","14","13","30","Europe/Kiev","11:30 AM GMT on December 14, 2016","2016","12","14","11","30","UTC","-3.0","26.6","-7.0","19.4","74","14.4","8.9","-9999.0","-9999.0","230","SW","10.0","6.2","1015","29.98","-8.0","17.7","-9999","-9999","-9999.00","-9999.00","Mostly Cloudy","mostlycloudy","0","0","0","0","0","0","METAR UKKK 141130Z 23004MPS 9999 BKN021 M03/M07 Q1015 R26/820345 NOSIG"
"2:00 PM EET on December 14, 2016","2016","12","14","14","00","Europe/Kiev","12:00 PM GMT on December 14, 2016","2016","12","14","12","00","UTC","-3","27","-7","20","64","10.8","6.7","","","250","WSW","20","12","1017","30.02","-999","-999","-9999","-9999","","","Overcast","cloudy","0","0","0","0","0","0","AAXX 14121 33345 32598 82503 11027 21068 39954 40166 57019 885// 333 88624 555 1/102"
"2:00 PM EET on December 14, 2016","2016","12","14","14","00","Europe/Kiev","12:00 PM GMT on December 14, 2016","2016","12","14","12","00","UTC","-2.0","28.4","-7.0","19.4","69","14.4","8.9","-9999.0","-9999.0","230","SW","10.0","6.2","1015","29.98","-6.7","19.9","-9999","-9999","-9999.00","-9999.00","Overcast","cloudy","0","0","0","0","0","0","METAR UKKK 141200Z 23004MPS 190V260 9999 OVC018 M02/M07 Q1015 R26/820345 NOSIG"
"2:30 PM EET on December 14, 2016","2016","12","14","14","30","Europe/Kiev","12:30 PM GMT on December 14, 2016","2016","12","14","12","30","UTC","-2.0","28.4","-6.0","21.2","74","14.4","8.9","-9999.0","-9999.0","240","WSW","8.0","5.0","1015","29.98","-6.7","19.9","-9999","-9999","-9999.00","-9999.00","Light Snow","snow","0","0","1","0","0","0","METAR UKKK 141230Z 24004MPS 200V260 8000 -SN OVC018 M02/M06 Q1015 R26/820345 TEMPO 2000 SHSN BKN010CB"
"2:35 PM EET on December 14, 2016","2016","12","14","14","35","Europe/Kiev","12:35 PM GMT on December 14, 2016","2016","12","14","12","35","UTC","-3.0","26.6","-6.0","21.2","80","14.4","8.9","-9999.0","-9999.0","240","WSW","1.9","1.2","1015","29.98","-8.0","17.7","-9999","-9999","-9999.00","-9999.00","Snow","snow","0","0","1","0","0","0","SPECI UKKK 141235Z 24004MPS 200V260 1900 SN OVC019 M03/M06 Q1015 R26/820345 TEMPO 1000 SHSN BKN010CB"
"2:38 PM EET on December 14, 2016","2016","12","14","14","38","Europe/Kiev","12:38 PM GMT on December 14, 2016","2016","12","14","12","38","UTC","-3.0","26.6","-5.0","23.0","86","14.4","8.9","-9999.0","-9999.0","240","WSW","1.4","0.9","1015","29.98","-8.0","17.7","-9999","-9999","-9999.00","-9999.00","Snow","snow","0","0","1","0","0","0","SPECI UKKK 141238Z 24004MPS 1400 R26/1500VP2000D SN OVC017 M03/M05 Q1015 R26/820345 TEMPO 1000 SHSN BKN010CB"
"3:00 PM EET on December 14, 2016","2016","12","14","15","00","Europe/Kiev","1:00 PM GMT on December 14, 2016","2016","12","14","13","00","UTC","-3.0","26.6","-5.0","23.0","86","10.8","6.7","-9999.0","-9999.0","220","SW","-9999.0","-9999.0","1015","29.98","-7.1","19.2","-9999","-9999","-9999.00","-9999.00","Light Snow","snow","0","0","1","0","0","0","METAR UKKK 141300Z 22003MPS 180V250 3300 -SN OVC021 M03/M05 Q1015 RESN R26/820345 TEMPO 1000 SHSN BKN010CB"
"3:30 PM EET on December 14, 2016","2016","12","14","15","30","Europe/Kiev","1:30 PM GMT on December 14, 2016","2016","12","14","13","30","UTC","-3.0","26.6","-4.0","24.8","93","7.2","4.5","-9999.0","-9999.0","220","SW","7.0","4.3","1015","29.98","-5.9","21.3","-9999","-9999","-9999.00","-9999.00","Light Snow","snow","0","0","1","0","0","0","METAR UKKK 141330Z 22002MPS 190V250 7000 -SN OVC012 M03/M04 Q1015 R26/820345 TEMPO 1000 SHSN BKN010CB"
"4:00 PM EET on December 14, 2016","2016","12","14","16","00","Europe/Kiev","2:00 PM GMT on December 14, 2016","2016","12","14","14","00","UTC","-2.0","28.4","-4.0","24.8","86","10.8","6.7","-9999.0","-9999.0","220","SW","9.0","5.6","1015","29.98","-5.9","21.4","-9999","-9999","-9999.00","-9999.00","Light Snow","snow","0","0","1","0","0","0","METAR UKKK 141400Z 22003MPS 9000 -SN OVC010 M02/M04 Q1015 R26/820345 TEMPO 1000 SHSN BKN010CB"
"4:30 PM EET on December 14, 2016","2016","12","14","16","30","Europe/Kiev","2:30 PM GMT on December 14, 2016","2016","12","14","14","30","UTC","-2.0","28.4","-4.0","24.8","86","10.8","6.7","-9999.0","-9999.0","220","SW","9.0","5.6","1014","29.95","-5.9","21.4","-9999","-9999","-9999.00","-9999.00","Light Snow","snow","0","0","1","0","0","0","METAR UKKK 141430Z 22003MPS 180V240 9000 -SN OVC011 M02/M04 Q1014 R26/820345 TEMPO 2000 SHSN BKN010CB"
"5:00 PM EET on December 14, 2016","2016","12","14","17","00","Europe/Kiev","3:00 PM GMT on December 14, 2016","2016","12","14","15","00","UTC","-2","28","-4","25","82","7.2","4.5","","","210","SSW","4","2","1016","30.00","-999","-999","-9999","-9999","","","Light Snow","snow","0","0","1","0","0","0","AAXX 14151 33345 41496 82102 11025 21041 39946 40158 57008 77172 8870/ 333 88710 555 1/102"
"5:00 PM EET on December 14, 2016","2016","12","14","17","00","Europe/Kiev","3:00 PM GMT on December 14, 2016","2016","12","14","15","00","UTC","-2.0","28.4","-4.0","24.8","86","10.8","6.7","-9999.0","-9999.0","210","SSW","2.3","1.4","1014","29.95","-5.9","21.4","-9999","-9999","-9999.00","-9999.00","Light Snow","snow","0","0","1","0","0","0","METAR UKKK 141500Z 21003MPS 180V260 2300 -SN OVC008 M02/M04 Q1014 R26/820345 TEMPO 1000 SHSN BKN010CB"
"5:07 PM EET on December 14, 2016","2016","12","14","17","07","Europe/Kiev","3:07 PM GMT on December 14, 2016","2016","12","14","15","07","UTC","-2.0","28.4","-4.0","24.8","86","10.8","6.7","-9999.0","-9999.0","220","SW","1.4","0.9","1014","29.95","-5.9","21.4","-9999","-9999","-9999.00","-9999.00","Snow","snow","0","0","1","0","0","0","SPECI UKKK 141507Z 22003MPS 190V250 1400 R26/1500VP2000D SN OVC018 M02/M04 Q1014 R26/820345 TEMPO 1000 SHSN BKN010CB"
"5:30 PM EET on December 14, 2016","2016","12","14","17","30","Europe/Kiev","3:30 PM GMT on December 14, 2016","2016","12","14","15","30","UTC","-2.0","28.4","-3.0","26.6","93","10.8","6.7","-9999.0","-9999.0","220","SW","1.8","1.1","1014","29.95","-5.9","21.4","-9999","-9999","-9999.00","-9999.00","Snow","snow","0","0","1","0","0","0","METAR UKKK 141530Z 22003MPS 190V260 1800 SN OVC023 M02/M03 Q1014 R26/590340 TEMPO 1000 SHSN BKN010CB"
"5:44 PM EET on December 14, 2016","2016","12","14","17","44","Europe/Kiev","3:44 PM GMT on December 14, 2016","2016","12","14","15","44","UTC","-2.0","28.4","-3.0","26.6","93","10.8","6.7","-9999.0","-9999.0","230","SW","1.4","0.9","1014","29.95","-5.9","21.4","-9999","-9999","-9999.00","-9999.00","Snow","snow","0","0","1","0","0","0","SPECI UKKK 141544Z 23003MPS 1400 R26/P2000N SN OVC019 M02/M03 Q1014 R26/590340 TEMPO 1000 SHSN BKN010CB"
"6:00 PM EET on December 14, 2016","2016","12","14","18","00","Europe/Kiev","4:00 PM GMT on December 14, 2016","2016","12","14","16","00","UTC","-2.0","28.4","-3.0","26.6","93","7.2","4.5","-9999.0","-9999.0","230","SW","1.6","1.0","1014","29.95","-4.8","23.4","-9999","-9999","-9999.00","-9999.00","Snow","snow","0","0","1","0","0","0","METAR UKKK 141600Z 23002MPS 1600 SN OVC013 M02/M03 Q1014 R26/590340 TEMPO 1000 SHSN BKN010CB"
"6:30 PM EET on December 14, 2016","2016","12","14","18","30","Europe/Kiev","4:30 PM GMT on December 14, 2016","2016","12","14","16","30","UTC","-2.0","28.4","-3.0","26.6","93","7.2","4.5","-9999.0","-9999.0","230","SW","2.5","1.6","1014","29.95","-4.8","23.4","-9999","-9999","-9999.00","-9999.00","Light Snow","snow","0","0","1","0","0","0","METAR UKKK 141630Z 23002MPS 2500 -SN SCT006 OVC018 M02/M03 Q1014 RESN R26/590340 TEMPO 1000 SHSN BKN004 BKN010CB"
"7:00 PM EET on December 14, 2016","2016","12","14","19","00","Europe/Kiev","5:00 PM GMT on December 14, 2016","2016","12","14","17","00","UTC","-2.0","28.4","-3.0","26.6","93","7.2","4.5","-9999.0","-9999.0","230","SW","-9999.0","-9999.0","1014","29.95","-4.8","23.4","-9999","-9999","-9999.00","-9999.00","Light Snow","snow","0","0","1","0","0","0","METAR UKKK 141700Z 23002MPS 4100 -SN SCT007 OVC021 M02/M03 Q1014 R26/590340 TEMPO 1000 SHSN BKN004 BKN010CB"
"7:30 PM EET on December 14, 2016","2016","12","14","19","30","Europe/Kiev","5:30 PM GMT on December 14, 2016","2016","12","14","17","30","UTC","-2.0","28.4","-3.0","26.6","93","7.2","4.5","-9999.0","-9999.0","230","SW","4.5","2.8","1014","29.95","-4.8","23.4","-9999","-9999","-9999.00","-9999.00","Light Snow","snow","0","0","1","0","0","0","METAR UKKK 141730Z 23002MPS 4500 -SN SCT007 OVC021 M02/M03 Q1014 R26/590340 TEMPO 1500 SHSN BKN005 BKN010CB"
"8:00 PM EET on December 14, 2016","2016","12","14","20","00","Europe/Kiev","6:00 PM GMT on December 14, 2016","2016","12","14","18","00","UTC","-2","28","-3","26","90","3.6","2.2","","","250","WSW","4","2","1015","29.99","-999","-999","-9999","-9999","","","Light Snow","snow","0","0","1","0","0","0","AAXX 14181 33345 11496 82501 11023 21032 39942 40153 57004 69972 77172 8872/ 333 11023 88710 555 1/101"
"8:00 PM EET on December 14, 2016","2016","12","14","20","00","Europe/Kiev","6:00 PM GMT on December 14, 2016","2016","12","14","18","00","UTC","-2.0","28.4","-3.0","26.6","93","10.8","6.7","-9999.0","-9999.0","240","WSW","6.0","3.7","1014","29.95","-5.9","21.4","-9999","-9999","-9999.00","-9999.00","Light Snow","snow","0","0","1","0","0","0","METAR UKKK 141800Z 24003MPS 6000 -SN SCT007 OVC021 M02/M03 Q1014 R26/590340 TEMPO 1500 SHSN BKN005 BKN010CB"
"8:30 PM EET on December 14, 2016","2016","12","14","20","30","Europe/Kiev","6:30 PM GMT on December 14, 2016","2016","12","14","18","30","UTC","-2.0","28.4","-3.0","26.6","93","10.8","6.7","-9999.0","-9999.0","250","WSW","-9999.0","-9999.0","1014","29.95","-5.9","21.4","-9999","-9999","-9999.00","-9999.00","Light Snow","snow","0","0","1","0","0","0","METAR UKKK 141830Z 25003MPS 3600 -SN SCT007 OVC021 M02/M03 Q1014 R26/590340 TEMPO 1500 SHSN BKN005 BKN010CB"
"9:00 PM EET on December 14, 2016","2016","12","14","21","00","Europe/Kiev","7:00 PM GMT on December 14, 2016","2016","12","14","19","00","UTC","-2.0","28.4","-3.0","26.6","93","7.2","4.5","-9999.0","-9999.0","240","WSW","3.5","2.2","1014","29.95","-4.8","23.4","-9999","-9999","-9999.00","-9999.00","Light Snow","snow","0","0","1","0","0","0","METAR UKKK 141900Z 24002MPS 3500 -SN SCT007 OVC021 M02/M03 Q1014 R26/590340 TEMPO 1500 SHSN BKN005 BKN010CB"
"9:30 PM EET on December 14, 2016","2016","12","14","21","30","Europe/Kiev","7:30 PM GMT on December 14, 2016","2016","12","14","19","30","UTC","-2.0","28.4","-3.0","26.6","93","7.2","4.5","-9999.0","-9999.0","250","WSW","2.9","1.8","1014","29.95","-4.8","23.4","-9999","-9999","-9999.00","-9999.00","Light Snow","snow","0","0","1","0","0","0","METAR UKKK 141930Z 25002MPS 2900 -SN SCT007 OVC021 M02/M03 Q1014 R26/590340 TEMPO 1500 SHSN BKN005 BKN010CB"
"10:00 PM EET on December 14, 2016","2016","12","14","22","00","Europe/Kiev","8:00 PM GMT on December 14, 2016","2016","12","14","20","00","UTC","-2.0","28.4","-3.0","26.6","93","7.2","4.5","-9999.0","-9999.0","250","WSW","-9999.0","-9999.0","1014","29.95","-4.8","23.4","-9999","-9999","-9999.00","-9999.00","Light Snow","snow","0","0","1","0","0","0","METAR UKKK 142000Z 25002MPS 220V290 4300 -SN BKN006 OVC017 M02/M03 Q1014 R26/590340 TEMPO 1500 SHSN BKN005 BKN010CB"
"10:30 PM EET on December 14, 2016","2016","12","14","22","30","Europe/Kiev","8:30 PM GMT on December 14, 2016","2016","12","14","20","30","UTC","-2.0","28.4","-3.0","26.6","93","10.8","6.7","-9999.0","-9999.0","270","West","5.0","3.1","1014","29.95","-5.9","21.4","-9999","-9999","-9999.00","-9999.00","Light Snow","snow","0","0","1","0","0","0","METAR UKKK 142030Z 27003MPS 5000 -SN BKN006 OVC017 M02/M03 Q1014 R26/590340 TEMPO 1500 SHSN BKN005 BKN010CB"
"11:00 PM EET on December 14, 2016","2016","12","14","23","00","Europe/Kiev","9:00 PM GMT on December 14, 2016","2016","12","14","21","00","UTC","-2","29","-3","27","91","3.6","2.2","","","330","NNW","4","2","1016","30.00","-999","-999","-9999","-9999","","","Mist","hazy","0","0","0","0","0","0","AAXX 14211 33345 41396 83301 11015 21026 39947 40158 53005 71072 886// 333 88707 555 1/102"
"11:00 PM EET on December 14, 2016","2016","12","14","23","00","Europe/Kiev","9:00 PM GMT on December 14, 2016","2016","12","14","21","00","UTC","-2.0","28.4","-3.0","26.6","93","10.8","6.7","-9999.0","-9999.0","270","West","6.0","3.7","1014","29.95","-5.9","21.4","-9999","-9999","-9999.00","-9999.00","Light Snow","snow","0","0","1","0","0","0","METAR UKKK 142100Z 27003MPS 6000 -SN BKN006 OVC017 M02/M03 Q1014 R26/590340 TEMPO BKN005"
"11:30 PM EET on December 14, 2016","2016","12","14","23","30","Europe/Kiev","9:30 PM GMT on December 14, 2016","2016","12","14","21","30","UTC","-2.0","28.4","-3.0","26.6","93","10.8","6.7","-9999.0","-9999.0","290","WNW","5.0","3.1","1014","29.95","-5.9","21.4","-9999","-9999","-9999.00","-9999.00","Light Snow","snow","0","0","1","0","0","0","METAR UKKK 142130Z 29003MPS 5000 -SN BKN006 OVC017 M02/M03 Q1014 R26/590340 TEMPO 1000 SHSN BKN003 SCT010CB"
"12:00 AM EET on December 15, 2016","2016","12","15","00","00","Europe/Kiev","10:00 PM GMT on December 14, 2016","2016","12","14","22","00","UTC","-2.0","28.4","-3.0","26.6","93","10.8","6.7","-9999.0","-9999.0","300","WNW","6.0","3.7","1015","29.98","-5.9","21.4","-9999","-9999","-9999.00","-9999.00","Light Snow","snow","0","0","1","0","0","0","METAR UKKK 142200Z 30003MPS 6000 -SN BKN006 OVC017 M02/M03 Q1015 R26/590140 TEMPO 1000 SHSN BKN003 SCT010CB"
"12:30 AM EET on December 15, 2016","2016","12","15","00","30","Europe/Kiev","10:30 PM GMT on December 14, 2016","2016","12","14","22","30","UTC","-1.0","30.2","-3.0","26.6","86","7.2","4.5","-9999.0","-9999.0","330","NNW","6.0","3.7","1015","29.98","-3.6","25.5","-9999","-9999","-9999.00","-9999.00","Overcast","cloudy","0","0","0","0","0","0","METAR UKKK 142230Z 33002MPS 6000 OVC007 M01/M03 Q1015 R26/590140 TEMPO BKN005"
"1:00 AM EET on December 15, 2016","2016","12","15","01","00","Europe/Kiev","11:00 PM GMT on December 14, 2016","2016","12","14","23","00","UTC","-1.0","30.2","-3.0","26.6","86","10.8","6.7","-9999.0","-9999.0","340","NNW","7.0","4.3","1015","29.98","-4.7","23.5","-9999","-9999","-9999.00","-9999.00","Overcast","cloudy","0","0","0","0","0","0","METAR UKKK 142300Z 34003MPS 7000 OVC007 M01/M03 Q1015 R26/590140 NOSIG"
"1:30 AM EET on December 15, 2016","2016","12","15","01","30","Europe/Kiev","11:30 PM GMT on December 14, 2016","2016","12","14","23","30","UTC","-1.0","30.2","-3.0","26.6","86","10.8","6.7","-9999.0","-9999.0","10","North","7.0","4.3","1015","29.98","-4.7","23.5","-9999","-9999","-9999.00","-9999.00","Mostly Cloudy","mostlycloudy","0","0","0","0","0","0","METAR UKKK 142330Z 01003MPS 340V040 7000 BKN007 BKN027 M01/M03 Q1015 R26/590140 NOSIG"
"2:00 AM EET on December 15, 2016","2016","12","15","02","00","Europe/Kiev","12:00 AM GMT on December 15, 2016","2016","12","15","00","00","UTC","-2","29","-3","26","86","10.8","6.7","","","30","NNE","4","2","1017","30.03","-999","-999","-9999","-9999","","","Mist","hazy","0","0","0","0","0","0","AAXX 15001 33345 /1396 80303 11017 21031 39956 40167 52009 71072 886// 333 88707 555 1/102 69901"
"2:00 AM EET on December 15, 2016","2016","12","15","02","00","Europe/Kiev","12:00 AM GMT on December 15, 2016","2016","12","15","00","00","UTC","-2.0","28.4","-3.0","26.6","93","10.8","6.7","-9999.0","-9999.0","10","North","8.0","5.0","1015","29.98","-5.9","21.4","-9999","-9999","-9999.00","-9999.00","Mostly Cloudy","mostlycloudy","0","0","0","0","0","0","METAR UKKK 150000Z 01003MPS 8000 BKN007 BKN027 M02/M03 Q1015 R26/590140 NOSIG"
"2:30 AM EET on December 15, 2016","2016","12","15","02","30","Europe/Kiev","12:30 AM GMT on December 15, 2016","2016","12","15","00","30","UTC","-2.0","28.4","-3.0","26.6","93","10.8","6.7","-9999.0","-9999.0","20","NNE","7.0","4.3","1015","29.98","-5.9","21.4","-9999","-9999","-9999.00","-9999.00","Mostly Cloudy","mostlycloudy","0","0","0","0","0","0","METAR UKKK 150030Z 02003MPS 7000 BKN007 BKN027 M02/M03 Q1015 R26/590140 NOSIG"
"3:00 AM EET on December 15, 2016","2016","12","15","03","00","Europe/Kiev","1:00 AM GMT on December 15, 2016","2016","12","15","01","00","UTC","-2.0","28.4","-3.0","26.6","93","18.0","11.2","-9999.0","-9999.0","10","North","6.0","3.7","1016","30.01","-7.4","18.7","-9999","-9999","-9999.00","-9999.00","Mostly Cloudy","mostlycloudy","0","0","0","0","0","0","METAR UKKK 150100Z 01005MPS 6000 BKN007 BKN027 M02/M03 Q1016 R08/590140 NOSIG"
"3:30 AM EET on December 15, 2016","2016","12","15","03","30","Europe/Kiev","1:30 AM GMT on December 15, 2016","2016","12","15","01","30","UTC","-2.0","28.4","-3.0","26.6","93","14.4","8.9","-9999.0","-9999.0","10","North","7.0","4.3","1016","30.01","-6.7","19.9","-9999","-9999","-9999.00","-9999.00","Mostly Cloudy","mostlycloudy","0","0","0","0","0","0","METAR UKKK 150130Z 01004MPS 7000 BKN006 BKN027 M02/M03 Q1016 R08/590140 NOSIG"
"4:00 AM EET on December 15, 2016","2016","12","15","04","00","Europe/Kiev","2:00 AM GMT on December 15, 2016","2016","12","15","02","00","UTC","-2.0","28.4","-3.0","26.6","93","14.4","8.9","-9999.0","-9999.0","10","North","5.0","3.1","1016","30.01","-6.7","19.9","-9999","-9999","-9999.00","-9999.00","Mostly Cloudy","mostlycloudy","0","0","0","0","0","0","METAR UKKK 150200Z 01004MPS 5000 BR BKN004 BKN027 M02/M03 Q1016 R08/590140 TEMPO BKN005"
"4:30 AM EET on December 15, 2016","2016","12","15","04","30","Europe/Kiev","2:30 AM GMT on December 15, 2016","2016","12","15","02","30","UTC","-3.0","26.6","-4.0","24.8","93","21.6","13.4","-9999.0","-9999.0","360","North","5.0","3.1","1017","30.04","-9.3","15.3","-9999","-9999","-9999.00","-9999.00","Mostly Cloudy","mostlycloudy","0","0","0","0","0","0","METAR UKKK 150230Z 36006MPS 5000 BR BKN004 BKN027 M03/M04 Q1017 R08/590140 TEMPO BKN003"
"5:00 AM EET on December 15, 2016","2016","12","15","05","00","Europe/Kiev","3:00 AM GMT on December 15, 2016","2016","12","15","03","00","UTC","-3","27","-4","25","91","10.8","6.7","","","30","NNE","4","2","1018","30.08","-999","-999","-9999","-9999","","","Mist","hazy","0","0","0","0","0","0","AAXX 15031 33345 41396 80303 11027 21037 39973 40185 52017 71022 886// 333 88707 555 1/103"
"5:00 AM EET on December 15, 2016","2016","12","15","05","00","Europe/Kiev","3:00 AM GMT on December 15, 2016","2016","12","15","03","00","UTC","-3.0","26.6","-4.0","24.8","93","21.6","13.4","-9999.0","-9999.0","10","North","5.0","3.1","1017","30.04","-9.3","15.3","-9999","-9999","-9999.00","-9999.00","Mostly Cloudy","mostlycloudy","0","0","0","0","0","0","METAR UKKK 150300Z 01006MPS 5000 BR BKN004 BKN025 M03/M04 Q1017 R08/590140 TEMPO BKN003"
"5:30 AM EET on December 15, 2016","2016","12","15","05","30","Europe/Kiev","3:30 AM GMT on December 15, 2016","2016","12","15","03","30","UTC","-3.0","26.6","-4.0","24.8","93","18.0","11.2","-9999.0","-9999.0","360","North","5.0","3.1","1017","30.04","-8.7","16.4","-9999","-9999","-9999.00","-9999.00","Mostly Cloudy","mostlycloudy","0","0","0","0","0","0","METAR UKKK 150330Z 36005MPS 5000 BR BKN004 BKN025 M03/M04 Q1017 R08/590140 TEMPO BKN003"
"6:00 AM EET on December 15, 2016","2016","12","15","06","00","Europe/Kiev","4:00 AM GMT on December 15, 2016","2016","12","15","04","00","UTC","-3.0","26.6","-5.0","23.0","86","18.0","11.2","-9999.0","-9999.0","360","North","5.0","3.1","1018","30.06","-8.7","16.4","-9999","-9999","-9999.00","-9999.00","Mostly Cloudy","mostlycloudy","0","0","0","0","0","0","METAR UKKK 150400Z 36005MPS 5000 BR BKN004 BKN025 M03/M05 Q1018 R08/820345 TEMPO BKN003"
"6:30 AM EET on December 15, 2016","2016","12","15","06","30","Europe/Kiev","4:30 AM GMT on December 15, 2016","2016","12","15","04","30","UTC","-4.0","24.8","-5.0","23.0","93","14.4","8.9","-9999.0","-9999.0","10","North","5.0","3.1","1018","30.06","-9.2","15.5","-9999","-9999","-9999.00","-9999.00","Mostly Cloudy","mostlycloudy","0","0","0","0","0","0","METAR UKKK 150430Z 01004MPS 5000 BR BKN005 BKN025 M04/M05 Q1018 R08/820345 TEMPO BKN004"
"6:52 AM EET on December 15, 2016","2016","12","15","06","52","Europe/Kiev","4:52 AM GMT on December 15, 2016","2016","12","15","04","52","UTC","-4.0","24.8","-5.0","23.0","93","18.0","11.2","-9999.0","-9999.0","360","North","-9999.0","-9999.0","1018","30.06","-9.9","14.2","-9999","-9999","-9999.00","-9999.00","Overcast","cloudy","0","0","0","0","0","0","SPECI UKKK 150452Z 36005MPS 4900 BR OVC004 M04/M05 Q1018 R08/820345 TEMPO BKN004"
"7:00 AM EET on December 15, 2016","2016","12","15","07","00","Europe/Kiev","5:00 AM GMT on December 15, 2016","2016","12","15","05","00","UTC","-4.0","24.8","-5.0","23.0","93","21.6","13.4","-9999.0","-9999.0","10","North","-9999.0","-9999.0","1018","30.06","-10.5","13.1","-9999","-9999","-9999.00","-9999.00","Overcast","cloudy","0","0","0","0","0","0","METAR UKKK 150500Z 01006MPS 4600 BR OVC004 M04/M05 Q1018 R08/820345 TEMPO BKN003"
"7:30 AM EET on December 15, 2016","2016","12","15","07","30","Europe/Kiev","5:30 AM GMT on December 15, 2016","2016","12","15","05","30","UTC","-4.0","24.8","-5.0","23.0","93","18.0","11.2","-9999.0","-9999.0","10","North","5.0","3.1","1019","30.09","-9.9","14.2","-9999","-9999","-9999.00","-9999.00","Overcast","cloudy","0","0","0","0","0","0","METAR UKKK 150530Z 01005MPS 5000 BR OVC005 M04/M05 Q1019 R08/820345 TEMPO BKN004"
"8:00 AM EET on December 15, 2016","2016","12","15","08","00","Europe/Kiev","6:00 AM GMT on December 15, 2016","2016","12","15","06","00","UTC","-4","24","-5","23","92","14.4","8.9","","","30","NNE","4","2","1021","30.16","-999","-999","-9999","-9999","","","Mist","hazy","0","0","0","0","0","0","AAXX 15061 33345 11296 80304 11043 21052 39997 40211 52024 69902 71022 886// 333 21044 47002 88706 555 1/104"
"8:00 AM EET on December 15, 2016","2016","12","15","08","00","Europe/Kiev","6:00 AM GMT on December 15, 2016","2016","12","15","06","00","UTC","-4.0","24.8","-5.0","23.0","93","21.6","13.4","-9999.0","-9999.0","10","North","-9999.0","-9999.0","1019","30.09","-10.5","13.1","-9999","-9999","-9999.00","-9999.00","Overcast","cloudy","0","0","0","0","0","0","METAR UKKK 150600Z 01006MPS 4100 BR OVC005 M04/M05 Q1019 R08/820345 TEMPO BKN004"
"8:04 AM EET on December 15, 2016","2016","12","15","08","04","Europe/Kiev","6:04 AM GMT on December 15, 2016","2016","12","15","06","04","UTC","-4.0","24.8","-5.0","23.0","93","18.0","11.2","-9999.0","-9999.0","10","North","-9999.0","-9999.0","1020","30.12","-9.9","14.2","-9999","-9999","-9999.00","-9999.00","Overcast","cloudy","0","0","0","0","0","0","SPECI UKKK 150604Z 01005MPS 4100 BR OVC004 M04/M05 Q1020 R08/820345 TEMPO BKN003"
"8:30 AM EET on December 15, 2016","2016","12","15","08","30","Europe/Kiev","6:30 AM GMT on December 15, 2016","2016","12","15","06","30","UTC","-4.0","24.8","-6.0","21.2","86","18.0","11.2","-9999.0","-9999.0","10","North","6.0","3.7","1020","30.12","-9.9","14.2","-9999","-9999","-9999.00","-9999.00","Overcast","cloudy","0","0","0","0","0","0","METAR UKKK 150630Z 01005MPS 340V040 6000 OVC006 M04/M06 Q1020 R08/820345 TEMPO BKN004"
"9:00 AM EET on December 15, 2016","2016","12","15","09","00","Europe/Kiev","7:00 AM GMT on December 15, 2016","2016","12","15","07","00","UTC","-4.0","24.8","-6.0","21.2","86","18.0","11.2","-9999.0","-9999.0","10","North","6.0","3.7","1021","30.15","-9.9","14.2","-9999","-9999","-9999.00","-9999.00","Overcast","cloudy","0","0","0","0","0","0","METAR UKKK 150700Z 01005MPS 6000 OVC007 M04/M06 Q1021 R08/820345 NOSIG"
"9:30 AM EET on December 15, 2016","2016","12","15","09","30","Europe/Kiev","7:30 AM GMT on December 15, 2016","2016","12","15","07","30","UTC","-4.0","24.8","-6.0","21.2","86","18.0","11.2","-9999.0","-9999.0","10","North","6.0","3.7","1021","30.15","-9.9","14.2","-9999","-9999","-9999.00","-9999.00","Overcast","cloudy","0","0","0","0","0","0","METAR UKKK 150730Z 01005MPS 6000 OVC007 M04/M06 Q1021 R08/820345 NOSIG"
"10:00 AM EET on December 15, 2016","2016","12","15","10","00","Europe/Kiev","8:00 AM GMT on December 15, 2016","2016","12","15","08","00","UTC","-4.0","24.8","-6.0","21.2","86","21.6","13.4","-9999.0","-9999.0","10","North","6.0","3.7","1021","30.15","-10.5","13.1","-9999","-9999","-9999.00","-9999.00","Overcast","cloudy","0","0","0","0","0","0","METAR UKKK 150800Z 01006MPS 6000 OVC009 M04/M06 Q1021 R08/820345 NOSIG"
"10:30 AM EET on December 15, 2016","2016","12","15","10","30","Europe/Kiev","8:30 AM GMT on December 15, 2016","2016","12","15","08","30","UTC","-4.0","24.8","-7.0","19.4","80","21.6","13.4","-9999.0","-9999.0","10","North","7.0","4.3","1022","30.18","-10.5","13.1","-9999","-9999","-9999.00","-9999.00","Overcast","cloudy","0","0","0","0","0","0","METAR UKKK 150830Z 01006MPS 7000 OVC010 M04/M07 Q1022 R08/820345 NOSIG"
"11:00 AM EET on December 15, 2016","2016","12","15","11","00","Europe/Kiev","9:00 AM GMT on December 15, 2016","2016","12","15","09","00","UTC","-4","24","-6","20","80","14.4","8.9","","","50","NE","10","6","1024","30.24","-999","-999","-9999","-9999","","","Mist","hazy","0","0","0","0","0","0","AAXX 15091 33345 41497 80504 11042 21065 30023 40238 52026 71022 886// 333 88713 555 1/103"
"11:00 AM EET on December 15, 2016","2016","12","15","11","00","Europe/Kiev","9:00 AM GMT on December 15, 2016","2016","12","15","09","00","UTC","-4.0","24.8","-7.0","19.4","80","21.6","13.4","-9999.0","-9999.0","10","North","7.0","4.3","1022","30.18","-10.5","13.1","-9999","-9999","-9999.00","-9999.00","Overcast","cloudy","0","0","0","0","0","0","METAR UKKK 150900Z 01006MPS 7000 BKN011 OVC047 M04/M07 Q1022 R08/820345 NOSIG"
"11:30 AM EET on December 15, 2016","2016","12","15","11","30","Europe/Kiev","9:30 AM GMT on December 15, 2016","2016","12","15","09","30","UTC","-4.0","24.8","-7.0","19.4","80","21.6","13.4","-9999.0","-9999.0","10","North","8.0","5.0","1022","30.18","-10.5","13.1","-9999","-9999","-9999.00","-9999.00","Light Snow","snow","0","0","1","0","0","0","METAR UKKK 150930Z 01006MPS 8000 -SN BKN012 OVC027 M04/M07 Q1022 R08/820345 NOSIG"
"12:00 PM EET on December 15, 2016","2016","12","15","12","00","Europe/Kiev","10:00 AM GMT on December 15, 2016","2016","12","15","10","00","UTC","-4.0","24.8","-7.0","19.4","80","21.6","13.4","-9999.0","-9999.0","20","NNE","6.0","3.7","1023","30.21","-10.5","13.1","-9999","-9999","-9999.00","-9999.00","Light Snow Showers","snow","0","0","1","0","0","0","METAR UKKK 151000Z 02006MPS 350V050 6000 -SHSN SCT012 BKN027CB OVC060 M04/M07 Q1023 R08/820345 NOSIG"
"12:30 PM EET on December 15, 2016","2016","12","15","12","30","Europe/Kiev","10:30 AM GMT on December 15, 2016","2016","12","15","10","30","UTC","-4.0","24.8","-7.0","19.4","80","21.6","13.4","-9999.0","-9999.0","10","North","5.0","3.1","1023","30.21","-10.5","13.1","-9999","-9999","-9999.00","-9999.00","Light Snow Showers","snow","0","0","1","0","0","0","METAR UKKK 151030Z 01006MPS 5000 -SHSN BR SCT012 BKN027CB OVC053 M04/M07 Q1023 R08/820345 NOSIG"
"1:00 PM EET on December 15, 2016","2016","12","15","13","00","Europe/Kiev","11:00 AM GMT on December 15, 2016","2016","12","15","11","00","UTC","-4.0","24.8","-7.0","19.4","80","21.6","13.4","-9999.0","-9999.0","20","NNE","-9999.0","-9999.0","1023","30.21","-10.5","13.1","-9999","-9999","-9999.00","-9999.00","Light Snow Showers","snow","0","0","1","0","0","0","METAR UKKK 151100Z 02006MPS 4700 -SHSN BR SCT011 BKN027CB OVC053 M04/M07 Q1023 R08/820345 NOSIG"
"1:30 PM EET on December 15, 2016","2016","12","15","13","30","Europe/Kiev","11:30 AM GMT on December 15, 2016","2016","12","15","11","30","UTC","-4.0","24.8","-7.0","19.4","80","21.6","13.4","-9999.0","-9999.0","20","NNE","-9999.0","-9999.0","1024","30.24","-10.5","13.1","-9999","-9999","-9999.00","-9999.00","Light Snow Showers","snow","0","0","1","0","0","0","METAR UKKK 151130Z 02006MPS 4100 -SHSN BR SCT010 BKN027CB OVC053 M04/M07 Q1024 R08/820340 NOSIG"
"2:00 PM EET on December 15, 2016","2016","12","15","14","00","Europe/Kiev","12:00 PM GMT on December 15, 2016","2016","12","15","12","00","UTC","-4","24","-6","20","80","14.4","8.9","","","40","NE","4","2","1026","30.30","-999","-999","-9999","-9999","","","Light Snow","snow","0","0","1","0","0","0","AAXX 15121 33345 /1496 80404 11042 21065 30045 40260 52022 77172 885// 333 88713 555 1/104 69921"
"2:00 PM EET on December 15, 2016","2016","12","15","14","00","Europe/Kiev","12:00 PM GMT on December 15, 2016","2016","12","15","12","00","UTC","-4.0","24.8","-6.0","21.2","86","25.2","15.7","-9999.0","-9999.0","30","NNE","8.0","5.0","1024","30.24","-11.0","12.1","-9999","-9999","-9999.00","-9999.00","Light Snow Showers","snow","0","0","1","0","0","0","METAR UKKK 151200Z 03007MPS 8000 -SHSN SCT011 BKN030CB M04/M06 Q1024 R08/820340 NOSIG"
"2:30 PM EET on December 15, 2016","2016","12","15","14","30","Europe/Kiev","12:30 PM GMT on December 15, 2016","2016","12","15","12","30","UTC","-4.0","24.8","-7.0","19.4","80","21.6","13.4","-9999.0","-9999.0","40","NE","10.0","6.2","1025","30.27","-10.5","13.1","-9999","-9999","-9999.00","-9999.00","Light Snow","snow","0","0","1","0","0","0","METAR UKKK 151230Z 04006MPS 9999 -SN BKN012 OVC027 M04/M07 Q1025 R08/820340 NOSIG"
"3:00 PM EET on December 15, 2016","2016","12","15","15","00","Europe/Kiev","1:00 PM GMT on December 15, 2016","2016","12","15","13","00","UTC","-4.0","24.8","-7.0","19.4","80","25.2","15.7","-9999.0","-9999.0","30","NNE","9.0","5.6","1025","30.27","-11.0","12.1","-9999","-9999","-9999.00","-9999.00","Light Snow","snow","0","0","1","0","0","0","METAR UKKK 151300Z 03007MPS 9000 -SN BKN012 OVC027 M04/M07 Q1025 R08/820340 NOSIG"
"3:30 PM EET on December 15, 2016","2016","12","15","15","30","Europe/Kiev","1:30 PM GMT on December 15, 2016","2016","12","15","13","30","UTC","-4.0","24.8","-7.0","19.4","80","18.0","11.2","-9999.0","-9999.0","30","NNE","-9999.0","-9999.0","1026","30.30","-9.9","14.2","-9999","-9999","-9999.00","-9999.00","Light Snow","snow","0","0","1","0","0","0","METAR UKKK 151330Z 03005MPS 3800 -SN BKN013 OVC024 M04/M07 Q1026 R08/820340 NOSIG"
"4:00 PM EET on December 15, 2016","2016","12","15","16","00","Europe/Kiev","2:00 PM GMT on December 15, 2016","2016","12","15","14","00","UTC","-4.0","24.8","-7.0","19.4","80","18.0","11.2","-9999.0","-9999.0","10","North","10.0","6.2","1026","30.30","-9.9","14.2","-9999","-9999","-9999.00","-9999.00","Light Snow","snow","0","0","1","0","0","0","METAR UKKK 151400Z 01005MPS 350V050 9999 -SN OVC014 M04/M07 Q1026 R08/820340 NOSIG"
"4:30 PM EET on December 15, 2016","2016","12","15","16","30","Europe/Kiev","2:30 PM GMT on December 15, 2016","2016","12","15","14","30","UTC","-4.0","24.8","-8.0","17.6","74","25.2","15.7","-9999.0","-9999.0","20","NNE","9.0","5.6","1026","30.30","-11.0","12.1","-9999","-9999","-9999.00","-9999.00","Light Snow","snow","0","0","1","0","0","0","METAR UKKK 151430Z 02007MPS 9000 -SN OVC023 M04/M08 Q1026 R08/820340 NOSIG"
"5:00 PM EET on December 15, 2016","2016","12","15","17","00","Europe/Kiev","3:00 PM GMT on December 15, 2016","2016","12","15","15","00","UTC","-4","25","-8","18","65","21.6","13.4","","","40","NE","20","12","1028","30.36","-999","-999","-9999","-9999","","","Partly Cloudy","partlycloudy","0","0","0","0","0","0","AAXX 15151 33345 41598 80406 11037 21078 30066 40281 52021 70272 885// 333 88627 555 1/105"
"5:00 PM EET on December 15, 2016","2016","12","15","17","00","Europe/Kiev","3:00 PM GMT on December 15, 2016","2016","12","15","15","00","UTC","-4.0","24.8","-8.0","17.6","74","21.6","13.4","-9999.0","-9999.0","20","NNE","10.0","6.2","1026","30.30","-10.5","13.1","-9999","-9999","-9999.00","-9999.00","Light Snow","snow","0","0","1","0","0","0","METAR UKKK 151500Z 02006MPS 9999 -SN OVC019 M04/M08 Q1026 R08/820340 NOSIG"
"5:30 PM EET on December 15, 2016","2016","12","15","17","30","Europe/Kiev","3:30 PM GMT on December 15, 2016","2016","12","15","15","30","UTC","-4.0","24.8","-8.0","17.6","74","25.2","15.7","-9999.0","-9999.0","30","NNE","10.0","6.2","1027","30.33","-11.0","12.1","-9999","-9999","-9999.00","-9999.00","Overcast","cloudy","0","0","0","0","0","0","METAR UKKK 151530Z 03007MPS 9999 BKN018 OVC025 M04/M08 Q1027 R08/820345 NOSIG"
"6:00 PM EET on December 15, 2016","2016","12","15","18","00","Europe/Kiev","4:00 PM GMT on December 15, 2016","2016","12","15","16","00","UTC","-4.0","24.8","-8.0","17.6","74","25.2","15.7","-9999.0","-9999.0","20","NNE","10.0","6.2","1027","30.33","-11.0","12.1","-9999","-9999","-9999.00","-9999.00","Overcast","cloudy","0","0","0","0","0","0","METAR UKKK 151600Z 02007MPS 9999 BKN017 OVC025 M04/M08 Q1027 R08/820345 NOSIG"
"6:30 PM EET on December 15, 2016","2016","12","15","18","30","Europe/Kiev","4:30 PM GMT on December 15, 2016","2016","12","15","16","30","UTC","-5.0","23.0","-9.0","15.8","74","25.2","15.7","-9999.0","-9999.0","10","North","10.0","6.2","1028","30.36","-12.3","9.8","-9999","-9999","-9999.00","-9999.00","Overcast","cloudy","0","0","0","0","0","0","METAR UKKK 151630Z 01007MPS 9999 SCT018 OVC025 M05/M09 Q1028 R08/820345 NOSIG"
"7:00 PM EET on December 15, 2016","2016","12","15","19","00","Europe/Kiev","5:00 PM GMT on December 15, 2016","2016","12","15","17","00","UTC","-5.0","23.0","-9.0","15.8","74","21.6","13.4","-9999.0","-9999.0","10","North","10.0","6.2","1028","30.36","-11.8","10.8","-9999","-9999","-9999.00","-9999.00","Light Snow","snow","0","0","1","0","0","0","METAR UKKK 151700Z 01006MPS 9999 -SN SCT016 OVC023 M05/M09 Q1028 R08/820345 NOSIG"
"7:30 PM EET on December 15, 2016","2016","12","15","19","30","Europe/Kiev","5:30 PM GMT on December 15, 2016","2016","12","15","17","30","UTC","-6.0","21.2","-9.0","15.8","80","18.0","11.2","-9999.0","-9999.0","40","NE","10.0","6.2","1029","30.39","-12.4","9.7","-9999","-9999","-9999.00","-9999.00","Light Snow","snow","0","0","1","0","0","0","METAR UKKK 151730Z 04005MPS 9999 -SN SCT016 OVC026 M06/M09 Q1029 R08/820345 NOSIG"
"8:00 PM EET on December 15, 2016","2016","12","15","20","00","Europe/Kiev","6:00 PM GMT on December 15, 2016","2016","12","15","18","00","UTC","-6","21","-10","14","64","14.4","8.9","","","60","ENE","20","12","1031","30.44","-999","-999","-9999","-9999","","","Partly Cloudy","partlycloudy","0","0","0","0","0","0","AAXX 15181 33345 11598 70604 11060 21100 30090 40308 52024 69922 70272 87500 333 11036 87621 555 1/106"
"8:00 PM EET on December 15, 2016","2016","12","15","20","00","Europe/Kiev","6:00 PM GMT on December 15, 2016","2016","12","15","18","00","UTC","-6.0","21.2","-9.0","15.8","80","21.6","13.4","-9999.0","-9999.0","30","NNE","10.0","6.2","1029","30.39","-13.1","8.5","-9999","-9999","-9999.00","-9999.00","Overcast","cloudy","0","0","0","0","0","0","METAR UKKK 151800Z 03006MPS 9999 OVC018 M06/M09 Q1029 R08/820345 NOSIG"
"8:30 PM EET on December 15, 2016","2016","12","15","20","30","Europe/Kiev","6:30 PM GMT on December 15, 2016","2016","12","15","18","30","UTC","-6.0","21.2","-10.0","14.0","74","21.6","13.4","-9999.0","-9999.0","360","North","10.0","6.2","1029","30.39","-13.1","8.5","-9999","-9999","-9999.00","-9999.00","Overcast","cloudy","0","0","0","0","0","0","METAR UKKK 151830Z 36006MPS 9999 OVC018 M06/M10 Q1029 R08/820345 NOSIG"
"9:00 PM EET on December 15, 2016","2016","12","15","21","00","Europe/Kiev","7:00 PM GMT on December 15, 2016","2016","12","15","19","00","UTC","-7.0","19.4","-10.0","14.0","80","18.0","11.2","-9999.0","-9999.0","30","NNE","10.0","6.2","1030","30.42","-13.7","7.4","-9999","-9999","-9999.00","-9999.00","Overcast","cloudy","0","0","0","0","0","0","METAR UKKK 151900Z 03005MPS 360V060 9999 OVC017 M07/M10 Q1030 R08/820345 NOSIG"
"9:30 PM EET on December 15, 2016","2016","12","15","21","30","Europe/Kiev","7:30 PM GMT on December 15, 2016","2016","12","15","19","30","UTC","-7.0","19.4","-11.0","12.2","74","14.4","8.9","-9999.0","-9999.0","20","NNE","10.0","6.2","1030","30.42","-12.9","8.8","-9999","-9999","-9999.00","-9999.00","Overcast","cloudy","0","0","0","0","0","0","METAR UKKK 151930Z 02004MPS 350V060 9999 OVC018 M07/M11 Q1030 R08/820345 NOSIG"
"10:00 PM EET on December 15, 2016","2016","12","15","22","00","Europe/Kiev","8:00 PM GMT on December 15, 2016","2016","12","15","20","00","UTC","-8.0","17.6","-11.0","12.2","79","14.4","8.9","-9999.0","-9999.0","30","NNE","10.0","6.2","1030","30.42","-14.1","6.6","-9999","-9999","-9999.00","-9999.00","Scattered Clouds","partlycloudy","0","0","0","0","0","0","METAR UKKK 152000Z 03004MPS 9999 SCT017 M08/M11 Q1030 R08/820345 NOSIG"
"10:30 PM EET on December 15, 2016","2016","12","15","22","30","Europe/Kiev","8:30 PM GMT on December 15, 2016","2016","12","15","20","30","UTC","-9.0","15.8","-12.0","10.4","79","10.8","6.7","-9999.0","-9999.0","20","NNE","10.0","6.2","1030","30.42","-14.3","6.2","-9999","-9999","-9999.00","-9999.00","Partly Cloudy","partlycloudy","0","0","0","0","0","0","METAR UKKK 152030Z 02003MPS 9999 FEW017 M09/M12 Q1030 R08/820345 NOSIG"
"11:00 PM EET on December 15, 2016","2016","12","15","23","00","Europe/Kiev","9:00 PM GMT on December 15, 2016","2016","12","15","21","00","UTC","-8","17","-11","12","72","10.8","6.7","","","40","NE","20","12","1033","30.50","-999","-999","-9999","-9999","","","","","0","0","0","0","0","0","AAXX 15211 33345 42998 00403 11083 21111 30108 40328 52018 555 1/112"
"11:00 PM EET on December 15, 2016","2016","12","15","23","00","Europe/Kiev","9:00 PM GMT on December 15, 2016","2016","12","15","21","00","UTC","-9.0","15.8","-12.0","10.4","79","14.4","8.9","-9999.0","-9999.0","10","North","10.0","6.2","1031","30.45","-15.3","4.4","-9999","-9999","-9999.00","-9999.00","Partly Cloudy","partlycloudy","0","0","0","0","0","0","METAR UKKK 152100Z 01004MPS 9999 FEW017 M09/M12 Q1031 R08/820345 NOSIG"
"11:30 PM EET on December 15, 2016","2016","12","15","23","30","Europe/Kiev","9:30 PM GMT on December 15, 2016","2016","12","15","21","30","UTC","-9.0","15.8","-12.0","10.4","79","14.4","8.9","-9999.0","-9999.0","10","North","10.0","6.2","1031","30.45","-15.3","4.4","-9999","-9999","-9999.00","-9999.00","Partly Cloudy","partlycloudy","0","0","0","0","0","0","METAR UKKK 152130Z 01004MPS 9999 FEW017 M09/M12 Q1031 R08/820345 NOSIG"
"12:00 AM EET on December 16, 2016","2016","12","16","00","00","Europe/Kiev","10:00 PM GMT on December 15, 2016","2016","12","15","22","00","UTC","-9.0","15.8","-12.0","10.4","79","14.4","8.9","-9999.0","-9999.0","20","NNE","-9999.0","-9999.0","1031","30.45","-15.3","4.4","-9999","-9999","-9999.00","-9999.00","Clear","clear","0","0","0","0","0","0","METAR UKKK 152200Z 02004MPS CAVOK M09/M12 Q1031 R08/820345 NOSIG"
"12:30 AM EET on December 16, 2016","2016","12","16","00","30","Europe/Kiev","10:30 PM GMT on December 15, 2016","2016","12","15","22","30","UTC","-9.0","15.8","-11.0","12.2","86","14.4","8.9","-9999.0","-9999.0","10","North","10.0","6.2","1031","30.45","-15.3","4.4","-9999","-9999","-9999.00","-9999.00","Partly Cloudy","partlycloudy","0","0","0","0","0","0","METAR UKKK 152230Z 01004MPS 9999 FEW012 M09/M11 Q1031 R08/820345 NOSIG"
"1:00 AM EET on December 16, 2016","2016","12","16","01","00","Europe/Kiev","11:00 PM GMT on December 15, 2016","2016","12","15","23","00","UTC","-10.0","14.0","-12.0","10.4","86","14.4","8.9","-9999.0","-9999.0","10","North","10.0","6.2","1032","30.48","-16.6","2.2","-9999","-9999","-9999.00","-9999.00","Partly Cloudy","partlycloudy","0","0","0","0","0","0","METAR UKKK 152300Z 01004MPS 9999 FEW012 M10/M12 Q1032 R08/820345 NOSIG"
"1:30 AM EET on December 16, 2016","2016","12","16","01","30","Europe/Kiev","11:30 PM GMT on December 15, 2016","2016","12","15","23","30","UTC","-10.0","14.0","-12.0","10.4","86","10.8","6.7","-9999.0","-9999.0","10","North","-9999.0","-9999.0","1032","30.48","-15.5","4.1","-9999","-9999","-9999.00","-9999.00","Clear","clear","0","0","0","0","0","0","METAR UKKK 152330Z 01003MPS CAVOK M10/M12 Q1032 R08/820345 NOSIG"
"2:00 AM EET on December 16, 2016","2016","12","16","02","00","Europe/Kiev","12:00 AM GMT on December 16, 2016","2016","12","16","00","00","UTC","-9","16","-11","12","79","7.2","4.5","","","30","NNE","20","12","1034","30.54","-999","-999","-9999","-9999","","","","","0","0","0","0","0","0","AAXX 16001 33345 32998 00302 11089 21109 30121 40342 52013 555 1/112"
"2:00 AM EET on December 16, 2016","2016","12","16","02","00","Europe/Kiev","12:00 AM GMT on December 16, 2016","2016","12","16","00","00","UTC","-10.0","14.0","-12.0","10.4","86","10.8","6.7","-9999.0","-9999.0","360","North","-9999.0","-9999.0","1032","30.48","-15.5","4.1","-9999","-9999","-9999.00","-9999.00","Clear","clear","0","0","0","0","0","0","METAR UKKK 160000Z 36003MPS CAVOK M10/M12 Q1032 R08/820345 NOSIG"
"2:30 AM EET on December 16, 2016","2016","12","16","02","30","Europe/Kiev","12:30 AM GMT on December 16, 2016","2016","12","16","00","30","UTC","-11.0","12.2","-12.0","10.4","92","7.2","4.5","-9999.0","-9999.0","10","North","-9999.0","-9999.0","1032","30.48","-15.3","4.5","-9999","-9999","-9999.00","-9999.00","Clear","clear","0","0","0","0","0","0","METAR UKKK 160030Z 01002MPS CAVOK M11/M12 Q1032 R08/820345 NOSIG"
"3:00 AM EET on December 16, 2016","2016","12","16","03","00","Europe/Kiev","1:00 AM GMT on December 16, 2016","2016","12","16","01","00","UTC","-12.0","10.4","-14.0","6.8","85","7.2","4.5","-9999.0","-9999.0","350","North","-9999.0","-9999.0","1032","30.48","-16.4","2.4","-9999","-9999","-9999.00","-9999.00","Clear","clear","0","0","0","0","0","0","METAR UKKK 160100Z 35002MPS CAVOK M12/M14 Q1032 R08/820345 NOSIG"
"3:30 AM EET on December 16, 2016","2016","12","16","03","30","Europe/Kiev","1:30 AM GMT on December 16, 2016","2016","12","16","01","30","UTC","-11.0","12.2","-13.0","8.6","85","7.2","4.5","-9999.0","-9999.0","290","WNW","8.0","5.0","1033","30.51","-15.3","4.5","-9999","-9999","-9999.00","-9999.00","Clear","clear","0","0","0","0","0","0","METAR UKKK 160130Z 29002MPS 270V340 8000 SKC M11/M13 Q1033 R08/820345 NOSIG"
"4:00 AM EET on December 16, 2016","2016","12","16","04","00","Europe/Kiev","2:00 AM GMT on December 16, 2016","2016","12","16","02","00","UTC","-11.0","12.2","-13.0","8.6","85","7.2","4.5","-9999.0","-9999.0","290","WNW","8.0","5.0","1033","30.51","-15.3","4.5","-9999","-9999","-9999.00","-9999.00","Unknown","unknown","0","0","0","0","0","0","METAR UKKK 160200Z 29002MPS 8000 NSC M11/M13 Q1033 R08/820345 NOSIG"
"4:30 AM EET on December 16, 2016","2016","12","16","04","30","Europe/Kiev","2:30 AM GMT on December 16, 2016","2016","12","16","02","30","UTC","-12.0","10.4","-14.0","6.8","85","7.2","4.5","-9999.0","-9999.0","270","West","-9999.0","-9999.0","1032","30.48","-16.4","2.4","-9999","-9999","-9999.00","-9999.00","Clear","clear","0","0","0","0","0","0","METAR UKKK 160230Z 27002MPS CAVOK M12/M14 Q1032 R08/820345 NOSIG"
"5:00 AM EET on December 16, 2016","2016","12","16","05","00","Europe/Kiev","3:00 AM GMT on December 16, 2016","2016","12","16","03","00","UTC","-10","14","-12","11","82","7.2","4.5","","","330","NNW","10","6","1035","30.56","-999","-999","-9999","-9999","","","Mostly Cloudy","mostlycloudy","0","0","0","0","0","0","AAXX 16031 33345 42997 63302 11100 21117 30125 40347 52004 86030 555 1/111"
"5:00 AM EET on December 16, 2016","2016","12","16","05","00","Europe/Kiev","3:00 AM GMT on December 16, 2016","2016","12","16","03","00","UTC","-12.0","10.4","-13.0","8.6","92","7.2","4.5","-9999.0","-9999.0","270","West","-9999.0","-9999.0","1033","30.51","-16.4","2.4","-9999","-9999","-9999.00","-9999.00","Clear","clear","0","0","0","0","0","0","METAR UKKK 160300Z 27002MPS 240V300 CAVOK M12/M13 Q1033 R08/820345 NOSIG"
"5:30 AM EET on December 16, 2016","2016","12","16","05","30","Europe/Kiev","3:30 AM GMT on December 16, 2016","2016","12","16","03","30","UTC","-12.0","10.4","-14.0","6.8","85","3.6","2.2","-9999.0","-9999.0","260","West","9.0","5.6","1033","30.51","-999","-999","-9999","-9999","-9999.00","-9999.00","Unknown","unknown","0","0","0","0","0","0","METAR UKKK 160330Z 26001MPS 9000 NSC M12/M14 Q1033 R08/820345 NOSIG"
"6:00 AM EET on December 16, 2016","2016","12","16","06","00","Europe/Kiev","4:00 AM GMT on December 16, 2016","2016","12","16","04","00","UTC","-11.0","12.2","-13.0","8.6","85","10.8","6.7","-9999.0","-9999.0","260","West","9.0","5.6","1033","30.51","-16.7","1.9","-9999","-9999","-9999.00","-9999.00","Unknown","unknown","0","0","0","0","0","0","METAR UKKK 160400Z 26003MPS 9000 NSC M11/M13 Q1033 R26/820345 NOSIG"
"6:30 AM EET on December 16, 2016","2016","12","16","06","30","Europe/Kiev","4:30 AM GMT on December 16, 2016","2016","12","16","04","30","UTC","-12.0","10.4","-13.0","8.6","92","7.2","4.5","-9999.0","-9999.0","260","West","9.0","5.6","1033","30.51","-16.4","2.4","-9999","-9999","-9999.00","-9999.00","Unknown","unknown","0","0","0","0","0","0","METAR UKKK 160430Z 26002MPS 9000 NSC M12/M13 Q1033 R26/820345 NOSIG"
"7:00 AM EET on December 16, 2016","2016","12","16","07","00","Europe/Kiev","5:00 AM GMT on December 16, 2016","2016","12","16","05","00","UTC","-12.0","10.4","-13.0","8.6","92","10.8","6.7","-9999.0","-9999.0","270","West","-9999.0","-9999.0","1034","30.54","-17.9","-0.2","-9999","-9999","-9999.00","-9999.00","Clear","clear","0","0","0","0","0","0","METAR UKKK 160500Z 27003MPS CAVOK M12/M13 Q1034 R26/820345 NOSIG"
"7:30 AM EET on December 16, 2016","2016","12","16","07","30","Europe/Kiev","5:30 AM GMT on December 16, 2016","2016","12","16","05","30","UTC","-12.0","10.4","-14.0","6.8","85","10.8","6.7","-9999.0","-9999.0","280","West","9.0","5.6","1034","30.54","-17.9","-0.2","-9999","-9999","-9999.00","-9999.00","Unknown","unknown","0","0","0","0","0","0","METAR UKKK 160530Z 28003MPS 9000 NSC M12/M14 Q1034 R26/820345 NOSIG"
"8:00 AM EET on December 16, 2016","2016","12","16","08","00","Europe/Kiev","6:00 AM GMT on December 16, 2016","2016","12","16","06","00","UTC","-10","13","-12","11","85","7.2","4.5","","","340","NNW","10","6","1036","30.60","-999","-999","-9999","-9999","","","Scattered Clouds","partlycloudy","0","0","0","0","0","0","AAXX 16061 33345 32997 23402 11104 21119 30139 40362 52014 82030 333 21105 47002 555 1/112"
"8:00 AM EET on December 16, 2016","2016","12","16","08","00","Europe/Kiev","6:00 AM GMT on December 16, 2016","2016","12","16","06","00","UTC","-12.0","10.4","-14.0","6.8","85","10.8","6.7","-9999.0","-9999.0","270","West","8.0","5.0","1034","30.54","-17.9","-0.2","-9999","-9999","-9999.00","-9999.00","Unknown","unknown","0","0","0","0","0","0","METAR UKKK 160600Z 27003MPS 8000 NSC M12/M14 Q1034 R26/820345 NOSIG"
"8:30 AM EET on December 16, 2016","2016","12","16","08","30","Europe/Kiev","6:30 AM GMT on December 16, 2016","2016","12","16","06","30","UTC","-12.0","10.4","-14.0","6.8","85","10.8","6.7","-9999.0","-9999.0","280","West","8.0","5.0","1034","30.54","-17.9","-0.2","-9999","-9999","-9999.00","-9999.00","Unknown","unknown","0","0","0","0","0","0","METAR UKKK 160630Z 28003MPS 8000 NSC M12/M14 Q1034 R26/820345 NOSIG"
"9:00 AM EET on December 16, 2016","2016","12","16","09","00","Europe/Kiev","7:00 AM GMT on December 16, 2016","2016","12","16","07","00","UTC","-11.0","12.2","-13.0","8.6","85","10.8","6.7","-9999.0","-9999.0","270","West","8.0","5.0","1034","30.54","-16.7","1.9","-9999","-9999","-9999.00","-9999.00","Unknown","unknown","0","0","0","0","0","0","METAR UKKK 160700Z 27003MPS 8000 NSC M11/M13 Q1034 R26/820345 NOSIG"
"9:30 AM EET on December 16, 2016","2016","12","16","09","30","Europe/Kiev","7:30 AM GMT on December 16, 2016","2016","12","16","07","30","UTC","-10.0","14.0","-12.0","10.4","86","10.8","6.7","-9999.0","-9999.0","260","West","7.0","4.3","1034","30.54","-15.5","4.1","-9999","-9999","-9999.00","-9999.00","Unknown","unknown","0","0","0","0","0","0","METAR UKKK 160730Z 26003MPS 7000 NSC M10/M12 Q1034 R26/820345 NOSIG"
"10:00 AM EET on December 16, 2016","2016","12","16","10","00","Europe/Kiev","8:00 AM GMT on December 16, 2016","2016","12","16","08","00","UTC","-10.0","14.0","-12.0","10.4","86","10.8","6.7","-9999.0","-9999.0","270","West","9.0","5.6","1034","30.54","-15.5","4.1","-9999","-9999","-9999.00","-9999.00","Unknown","unknown","0","0","0","0","0","0","METAR UKKK 160800Z 27003MPS 9000 NSC M10/M12 Q1034 R26/820345 NOSIG"
"10:30 AM EET on December 16, 2016","2016","12","16","10","30","Europe/Kiev","8:30 AM GMT on December 16, 2016","2016","12","16","08","30","UTC","-9.0","15.8","-11.0","12.2","86","14.4","8.9","-9999.0","-9999.0","270","West","-9999.0","-9999.0","1034","30.54","-15.3","4.4","-9999","-9999","-9999.00","-9999.00","Clear","clear","0","0","0","0","0","0","METAR UKKK 160830Z 27004MPS CAVOK M09/M11 Q1034 R26/820345 NOSIG"
"11:00 AM EET on December 16, 2016","2016","12","16","11","00","Europe/Kiev","9:00 AM GMT on December 16, 2016","2016","12","16","09","00","UTC","-7","19","-10","13","69","14.4","8.9","","","300","WNW","20","12","1036","30.59","-999","-999","-9999","-9999","","","Scattered Clouds","partlycloudy","0","0","0","0","0","0","AAXX 16091 33345 42998 43004 11071 21105 30137 40357 58002 82015 555 1/106"
"11:00 AM EET on December 16, 2016","2016","12","16","11","00","Europe/Kiev","9:00 AM GMT on December 16, 2016","2016","12","16","09","00","UTC","-8.0","17.6","-11.0","12.2","79","14.4","8.9","-9999.0","-9999.0","270","West","-9999.0","-9999.0","1034","30.54","-14.1","6.6","-9999","-9999","-9999.00","-9999.00","Clear","clear","0","0","0","0","0","0","METAR UKKK 160900Z 27004MPS CAVOK M08/M11 Q1034 R26/820345 NOSIG"
"11:30 AM EET on December 16, 2016","2016","12","16","11","30","Europe/Kiev","9:30 AM GMT on December 16, 2016","2016","12","16","09","30","UTC","-7.0","19.4","-10.0","14.0","80","18.0","11.2","-9999.0","-9999.0","290","WNW","-9999.0","-9999.0","1034","30.54","-13.7","7.4","-9999","-9999","-9999.00","-9999.00","Clear","clear","0","0","0","0","0","0","METAR UKKK 160930Z 29005MPS CAVOK M07/M10 Q1034 R26/810145 NOSIG"
"12:00 PM EET on December 16, 2016","2016","12","16","12","00","Europe/Kiev","10:00 AM GMT on December 16, 2016","2016","12","16","10","00","UTC","-7.0","19.4","-10.0","14.0","80","10.8","6.7","-9999.0","-9999.0","280","West","-9999.0","-9999.0","1034","30.54","-11.9","10.6","-9999","-9999","-9999.00","-9999.00","Clear","clear","0","0","0","0","0","0","METAR UKKK 161000Z 28003MPS CAVOK M07/M10 Q1034 R26/810145 NOSIG"
"12:30 PM EET on December 16, 2016","2016","12","16","12","30","Europe/Kiev","10:30 AM GMT on December 16, 2016","2016","12","16","10","30","UTC","-7.0","19.4","-10.0","14.0","80","14.4","8.9","-9999.0","-9999.0","280","West","-9999.0","-9999.0","1034","30.54","-12.9","8.8","-9999","-9999","-9999.00","-9999.00","Clear","clear","0","0","0","0","0","0","METAR UKKK 161030Z 28004MPS CAVOK M07/M10 Q1034 R26/810145 NOSIG"
"1:00 PM EET on December 16, 2016","2016","12","16","13","00","Europe/Kiev","11:00 AM GMT on December 16, 2016","2016","12","16","11","00","UTC","-6.0","21.2","-10.0","14.0","74","14.4","8.9","-9999.0","-9999.0","270","West","-9999.0","-9999.0","1034","30.54","-11.6","11.0","-9999","-9999","-9999.00","-9999.00","Clear","clear","0","0","0","0","0","0","METAR UKKK 161100Z 27004MPS CAVOK M06/M10 Q1034 R26/810145 NOSIG"
"1:30 PM EET on December 16, 2016","2016","12","16","13","30","Europe/Kiev","11:30 AM GMT on December 16, 2016","2016","12","16","11","30","UTC","-6.0","21.2","-10.0","14.0","74","10.8","6.7","-9999.0","-9999.0","270","West","-9999.0","-9999.0","1034","30.54","-10.7","12.7","-9999","-9999","-9999.00","-9999.00","Clear","clear","0","0","0","0","0","0","METAR UKKK 161130Z 27003MPS CAVOK M06/M10 Q1034 R26/810145 NOSIG"
"2:00 PM EET on December 16, 2016","2016","12","16","14","00","Europe/Kiev","12:00 PM GMT on December 16, 2016","2016","12","16","12","00","UTC","-5","23","-10","15","60","10.8","6.7","","","310","NW","20","12","1035","30.58","-999","-999","-9999","-9999","","","Scattered Clouds","partlycloudy","0","0","0","0","0","0","AAXX 16121 33345 32998 23103 11050 21095 30135 40353 57002 82070 555 1/106"
"2:00 PM EET on December 16, 2016","2016","12","16","14","00","Europe/Kiev","12:00 PM GMT on December 16, 2016","2016","12","16","12","00","UTC","-6.0","21.2","-10.0","14.0","74","14.4","8.9","-9999.0","-9999.0","270","West","-9999.0","-9999.0","1034","30.54","-11.6","11.0","-9999","-9999","-9999.00","-9999.00","Clear","clear","0","0","0","0","0","0","METAR UKKK 161200Z 27004MPS CAVOK M06/M10 Q1034 R26/810145 NOSIG"
"2:30 PM EET on December 16, 2016","2016","12","16","14","30","Europe/Kiev","12:30 PM GMT on December 16, 2016","2016","12","16","12","30","UTC","-6.0","21.2","-10.0","14.0","74","14.4","8.9","-9999.0","-9999.0","270","West","-9999.0","-9999.0","1033","30.51","-11.6","11.0","-9999","-9999","-9999.00","-9999.00","Clear","clear","0","0","0","0","0","0","METAR UKKK 161230Z 27004MPS CAVOK M06/M10 Q1033 R26/810145 NOSIG"
"3:00 PM EET on December 16, 2016","2016","12","16","15","00","Europe/Kiev","1:00 PM GMT on December 16, 2016","2016","12","16","13","00","UTC","-6.0","21.2","-10.0","14.0","74","14.4","8.9","-9999.0","-9999.0","270","West","-9999.0","-9999.0","1033","30.51","-11.6","11.0","-9999","-9999","-9999.00","-9999.00","Clear","clear","0","0","0","0","0","0","METAR UKKK 161300Z 27004MPS CAVOK M06/M10 Q1033 R26/810145 NOSIG"
"3:30 PM EET on December 16, 2016","2016","12","16","15","30","Europe/Kiev","1:30 PM GMT on December 16, 2016","2016","12","16","13","30","UTC","-7.0","19.4","-10.0","14.0","80","14.4","8.9","-9999.0","-9999.0","260","West","-9999.0","-9999.0","1033","30.51","-12.9","8.8","-9999","-9999","-9999.00","-9999.00","Clear","clear","0","0","0","0","0","0","METAR UKKK 161330Z 26004MPS CAVOK M07/M10 Q1033 R26/810145 NOSIG"
"4:00 PM EET on December 16, 2016","2016","12","16","16","00","Europe/Kiev","2:00 PM GMT on December 16, 2016","2016","12","16","14","00","UTC","-7.0","19.4","-10.0","14.0","80","14.4","8.9","-9999.0","-9999.0","250","WSW","-9999.0","-9999.0","1033","30.51","-12.9","8.8","-9999","-9999","-9999.00","-9999.00","Clear","clear","0","0","0","0","0","0","METAR UKKK 161400Z 25004MPS CAVOK M07/M10 Q1033 R26/810145 NOSIG"
"4:30 PM EET on December 16, 2016","2016","12","16","16","30","Europe/Kiev","2:30 PM GMT on December 16, 2016","2016","12","16","14","30","UTC","-7.0","19.4","-10.0","14.0","80","10.8","6.7","-9999.0","-9999.0","250","WSW","-9999.0","-9999.0","1033","30.51","-11.9","10.6","-9999","-9999","-9999.00","-9999.00","Clear","clear","0","0","0","0","0","0","METAR UKKK 161430Z 25003MPS CAVOK M07/M10 Q1033 R26/810145 NOSIG"
"5:00 PM EET on December 16, 2016","2016","12","16","17","00","Europe/Kiev","3:00 PM GMT on December 16, 2016","2016","12","16","15","00","UTC","-7","19","-10","15","76","10.8","6.7","","","280","West","10","6","1035","30.56","-999","-999","-9999","-9999","","","","","0","0","0","0","0","0","AAXX 16151 33345 42997 02803 11071 21096 30130 40349 57005 555 1/110"
"5:00 PM EET on December 16, 2016","2016","12","16","17","00","Europe/Kiev","3:00 PM GMT on December 16, 2016","2016","12","16","15","00","UTC","-8.0","17.6","-10.0","14.0","86","14.4","8.9","-9999.0","-9999.0","260","West","9.0","5.6","1033","30.51","-14.1","6.6","-9999","-9999","-9999.00","-9999.00","Clear","clear","0","0","0","0","0","0","METAR UKKK 161500Z 26004MPS 9000 SKC M08/M10 Q1033 R26/810145 NOSIG"
"5:30 PM EET on December 16, 2016","2016","12","16","17","30","Europe/Kiev","3:30 PM GMT on December 16, 2016","2016","12","16","15","30","UTC","-8.0","17.6","-10.0","14.0","86","14.4","8.9","-9999.0","-9999.0","260","West","-9999.0","-9999.0","1033","30.51","-14.1","6.6","-9999","-9999","-9999.00","-9999.00","Clear","clear","0","0","0","0","0","0","METAR UKKK 161530Z 26004MPS CAVOK M08/M10 Q1033 R26/810145 NOSIG"
"6:00 PM EET on December 16, 2016","2016","12","16","18","00","Europe/Kiev","4:00 PM GMT on December 16, 2016","2016","12","16","16","00","UTC","-8.0","17.6","-10.0","14.0","86","14.4","8.9","-9999.0","-9999.0","260","West","9.0","5.6","1033","30.51","-14.1","6.6","-9999","-9999","-9999.00","-9999.00","Clear","clear","0","0","0","0","0","0","METAR UKKK 161600Z 26004MPS 9000 SKC M08/M10 Q1033 R26/810145 NOSIG"
"6:30 PM EET on December 16, 2016","2016","12","16","18","30","Europe/Kiev","4:30 PM GMT on December 16, 2016","2016","12","16","16","30","UTC","-8.0","17.6","-11.0","12.2","79","14.4","8.9","-9999.0","-9999.0","260","West","8.0","5.0","1033","30.51","-14.1","6.6","-9999","-9999","-9999.00","-9999.00","Clear","clear","0","0","0","0","0","0","METAR UKKK 161630Z 26004MPS 8000 SKC M08/M11 Q1033 R26/810145 NOSIG"
"7:00 PM EET on December 16, 2016","2016","12","16","19","00","Europe/Kiev","5:00 PM GMT on December 16, 2016","2016","12","16","17","00","UTC","-9.0","15.8","-11.0","12.2","86","14.4","8.9","-9999.0","-9999.0","260","West","9.0","5.6","1033","30.51","-15.3","4.4","-9999","-9999","-9999.00","-9999.00","Clear","clear","0","0","0","0","0","0","METAR UKKK 161700Z 26004MPS 9000 SKC M09/M11 Q1033 R26/810145 NOSIG"
"7:30 PM EET on December 16, 2016","2016","12","16","19","30","Europe/Kiev","5:30 PM GMT on December 16, 2016","2016","12","16","17","30","UTC","-9.0","15.8","-10.0","14.0","93","14.4","8.9","-9999.0","-9999.0","260","West","9.0","5.6","1033","30.51","-15.3","4.4","-9999","-9999","-9999.00","-9999.00","Clear","clear","0","0","0","0","0","0","METAR UKKK 161730Z 26004MPS 9000 SKC M09/M10 Q1033 R26/810145 NOSIG"
"8:00 PM EET on December 16, 2016","2016","12","16","20","00","Europe/Kiev","6:00 PM GMT on December 16, 2016","2016","12","16","18","00","UTC","-8","17","-10","13","80","10.8","6.7","","","290","WNW","10","6","1035","30.56","-999","-999","-9999","-9999","","","","","0","0","0","0","0","0","AAXX 16181 33345 32997 02903 11084 21103 30126 40347 57004 333 11044 555 1/110"
"8:00 PM EET on December 16, 2016","2016","12","16","20","00","Europe/Kiev","6:00 PM GMT on December 16, 2016","2016","12","16","18","00","UTC","-10.0","14.0","-11.0","12.2","93","14.4","8.9","-9999.0","-9999.0","260","West","5.0","3.1","1033","30.51","-16.6","2.2","-9999","-9999","-9999.00","-9999.00","Clear","clear","0","0","0","0","0","0","METAR UKKK 161800Z 26004MPS 5000 BR SKC M10/M11 Q1033 R26/810145 NOSIG"
"8:30 PM EET on December 16, 2016","2016","12","16","20","30","Europe/Kiev","6:30 PM GMT on December 16, 2016","2016","12","16","18","30","UTC","-9.0","15.8","-11.0","12.2","86","14.4","8.9","-9999.0","-9999.0","250","WSW","9.0","5.6","1032","30.48","-15.3","4.4","-9999","-9999","-9999.00","-9999.00","Clear","clear","0","0","0","0","0","0","METAR UKKK 161830Z 25004MPS 9000 SKC M09/M11 Q1032 R26/810145 NOSIG"
"9:00 PM EET on December 16, 2016","2016","12","16","21","00","Europe/Kiev","7:00 PM GMT on December 16, 2016","2016","12","16","19","00","UTC","-8.0","17.6","-10.0","14.0","86","14.4","8.9","-9999.0","-9999.0","270","West","10.0","6.2","1032","30.48","-14.1","6.6","-9999","-9999","-9999.00","-9999.00","Scattered Clouds","partlycloudy","0","0","0","0","0","0","METAR UKKK 161900Z 27004MPS 9999 SCT031 M08/M10 Q1032 R26/810145 NOSIG"
"9:30 PM EET on December 16, 2016","2016","12","16","21","30","Europe/Kiev","7:30 PM GMT on December 16, 2016","2016","12","16","19","30","UTC","-8.0","17.6","-9.0","15.8","93","14.4","8.9","-9999.0","-9999.0","260","West","8.0","5.0","1032","30.48","-14.1","6.6","-9999","-9999","-9999.00","-9999.00","Mostly Cloudy","mostlycloudy","0","0","0","0","0","0","METAR UKKK 161930Z 26004MPS 8000 SCT018 BKN033 M08/M09 Q1032 R26/810145 NOSIG"
"10:00 PM EET on December 16, 2016","2016","12","16","22","00","Europe/Kiev","8:00 PM GMT on December 16, 2016","2016","12","16","20","00","UTC","-7.0","19.4","-9.0","15.8","86","14.4","8.9","-9999.0","-9999.0","250","WSW","9.0","5.6","1032","30.48","-12.9","8.8","-9999","-9999","-9999.00","-9999.00","Mostly Cloudy","mostlycloudy","0","0","0","0","0","0","METAR UKKK 162000Z 25004MPS 9000 SCT017 BKN033 M07/M09 Q1032 R26/810145 NOSIG"
"10:30 PM EET on December 16, 2016","2016","12","16","22","30","Europe/Kiev","8:30 PM GMT on December 16, 2016","2016","12","16","20","30","UTC","-7.0","19.4","-9.0","15.8","86","18.0","11.2","-9999.0","-9999.0","260","West","9.0","5.6","1032","30.48","-13.7","7.4","-9999","-9999","-9999.00","-9999.00","Mostly Cloudy","mostlycloudy","0","0","0","0","0","0","METAR UKKK 162030Z 26005MPS 9000 SCT016 BKN033 M07/M09 Q1032 R26/810145 NOSIG"
"11:00 PM EET on December 16, 2016","2016","12","16","23","00","Europe/Kiev","9:00 PM GMT on December 16, 2016","2016","12","16","21","00","UTC","-7","20","-9","16","79","7.2","4.5","","","290","WNW","10","6","1034","30.53","-999","-999","-9999","-9999","","","Overcast","cloudy","0","0","0","0","0","0","AAXX 16211 33345 42497 82902 11067 21087 30118 40337 57008 886// 333 88713 555 1/105"
"11:00 PM EET on December 16, 2016","2016","12","16","23","00","Europe/Kiev","9:00 PM GMT on December 16, 2016","2016","12","16","21","00","UTC","-7.0","19.4","-9.0","15.8","86","14.4","8.9","-9999.0","-9999.0","260","West","9.0","5.6","1032","30.48","-12.9","8.8","-9999","-9999","-9999.00","-9999.00","Mostly Cloudy","mostlycloudy","0","0","0","0","0","0","METAR UKKK 162100Z 26004MPS 9000 BKN012 M07/M09 Q1032 R26/810145 NOSIG"
"11:30 PM EET on December 16, 2016","2016","12","16","23","30","Europe/Kiev","9:30 PM GMT on December 16, 2016","2016","12","16","21","30","UTC","-7.0","19.4","-8.0","17.6","93","14.4","8.9","-9999.0","-9999.0","260","West","9.0","5.6","1031","30.45","-12.9","8.8","-9999","-9999","-9999.00","-9999.00","Light Snow","snow","0","0","1","0","0","0","METAR UKKK 162130Z 26004MPS 9000 -SN OVC010 M07/M08 Q1031 R26/810145 NOSIG"
"12:00 AM EET on December 17, 2016","2016","12","17","00","00","Europe/Kiev","10:00 PM GMT on December 16, 2016","2016","12","16","22","00","UTC","-7.0","19.4","-8.0","17.6","93","14.4","8.9","-9999.0","-9999.0","260","West","9.0","5.6","1031","30.45","-12.9","8.8","-9999","-9999","-9999.00","-9999.00","Overcast","cloudy","0","0","0","0","0","0","METAR UKKK 162200Z 26004MPS 9000 OVC008 M07/M08 Q1031 R26/810145 NOSIG"
"12:30 AM EET on December 17, 2016","2016","12","17","00","30","Europe/Kiev","10:30 PM GMT on December 16, 2016","2016","12","16","22","30","UTC","-6.0","21.2","-8.0","17.6","86","14.4","8.9","-9999.0","-9999.0","260","West","7.0","4.3","1031","30.45","-11.6","11.0","-9999","-9999","-9999.00","-9999.00","Overcast","cloudy","0","0","0","0","0","0","METAR UKKK 162230Z 26004MPS 7000 OVC008 M06/M08 Q1031 R26/810145 NOSIG"
"1:00 AM EET on December 17, 2016","2016","12","17","01","00","Europe/Kiev","11:00 PM GMT on December 16, 2016","2016","12","16","23","00","UTC","-6.0","21.2","-8.0","17.6","86","14.4","8.9","-9999.0","-9999.0","250","WSW","8.0","5.0","1031","30.45","-11.6","11.0","-9999","-9999","-9999.00","-9999.00","Overcast","cloudy","0","0","0","0","0","0","METAR UKKK 162300Z 25004MPS 8000 OVC008 M06/M08 Q1031 R26/810145 NOSIG"
"1:30 AM EET on December 17, 2016","2016","12","17","01","30","Europe/Kiev","11:30 PM GMT on December 16, 2016","2016","12","16","23","30","UTC","-6.0","21.2","-7.0","19.4","93","14.4","8.9","-9999.0","-9999.0","250","WSW","10.0","6.2","1030","30.42","-11.6","11.0","-9999","-9999","-9999.00","-9999.00","Overcast","cloudy","0","0","0","0","0","0","METAR UKKK 162330Z 25004MPS 9999 OVC007 M06/M07 Q1030 R26/810145 NOSIG"
"2:00 AM EET on December 17, 2016","2016","12","17","02","00","Europe/Kiev","12:00 AM GMT on December 17, 2016","2016","12","17","00","00","UTC","-6","22","-7","19","82","7.2","4.5","","","290","WNW","4","2","1032","30.49","-999","-999","-9999","-9999","","","Mist","hazy","0","0","0","0","0","0","AAXX 17001 33345 31396 82902 11055 21073 30107 40325 57011 71011 886// 333 88708 555 1/104"
"2:00 AM EET on December 17, 2016","2016","12","17","02","00","Europe/Kiev","12:00 AM GMT on December 17, 2016","2016","12","17","00","00","UTC","-5.0","23.0","-7.0","19.4","86","10.8","6.7","-9999.0","-9999.0","260","West","10.0","6.2","1030","30.42","-9.5","14.9","-9999","-9999","-9999.00","-9999.00","Overcast","cloudy","0","0","0","0","0","0","METAR UKKK 170000Z 26003MPS 9999 OVC008 M05/M07 Q1030 R26/810145 NOSIG"
"2:30 AM EET on December 17, 2016","2016","12","17","02","30","Europe/Kiev","12:30 AM GMT on December 17, 2016","2016","12","17","00","30","UTC","-5.0","23.0","-7.0","19.4","86","14.4","8.9","-9999.0","-9999.0","250","WSW","9.0","5.6","1030","30.42","-10.4","13.2","-9999","-9999","-9999.00","-9999.00","Overcast","cloudy","0","0","0","0","0","0","METAR UKKK 170030Z 25004MPS 9000 OVC013 M05/M07 Q1030 R26/810145 NOSIG"
"3:00 AM EET on December 17, 2016","2016","12","17","03","00","Europe/Kiev","1:00 AM GMT on December 17, 2016","2016","12","17","01","00","UTC","-5.0","23.0","-6.0","21.2","93","10.8","6.7","-9999.0","-9999.0","260","West","9.0","5.6","1030","30.42","-9.5","14.9","-9999","-9999","-9999.00","-9999.00","Overcast","cloudy","0","0","0","0","0","0","METAR UKKK 170100Z 26003MPS 9000 OVC008 M05/M06 Q1030 R26/810145 NOSIG"
"3:30 AM EET on December 17, 2016","2016","12","17","03","30","Europe/Kiev","1:30 AM GMT on December 17, 2016","2016","12","17","01","30","UTC","-4.0","24.8","-6.0","21.2","86","10.8","6.7","-9999.0","-9999.0","260","West","9.0","5.6","1030","30.42","-8.3","17.1","-9999","-9999","-9999.00","-9999.00","Overcast","cloudy","0","0","0","0","0","0","METAR UKKK 170130Z 26003MPS 9000 OVC008 M04/M06 Q1030 R26/810145 NOSIG"
"4:00 AM EET on December 17, 2016","2016","12","17","04","00","Europe/Kiev","2:00 AM GMT on December 17, 2016","2016","12","17","02","00","UTC","-4.0","24.8","-6.0","21.2","86","7.2","4.5","-9999.0","-9999.0","260","West","8.0","5.0","1030","30.42","-7.1","19.2","-9999","-9999","-9999.00","-9999.00","Overcast","cloudy","0","0","0","0","0","0","METAR UKKK 170200Z 26002MPS 8000 OVC008 M04/M06 Q1030 R26/810145 NOSIG"
"4:18 AM EET on December 17, 2016","2016","12","17","04","18","Europe/Kiev","2:18 AM GMT on December 17, 2016","2016","12","17","02","18","UTC","-4.0","24.8","-5.0","23.0","93","7.2","4.5","-9999.0","-9999.0","250","WSW","1.2","0.7","1030","30.42","-7.1","19.2","-9999","-9999","-9999.00","-9999.00","Snow","snow","0","0","1","0","0","0","SPECI UKKK 170218Z 25002MPS 1200 R26/2000VP2000D SN BR BKN009 OVC023 M04/M05 Q1030 R26/810145 TEMPO 0400 +SHSN BKN005 SCT012CB"
"4:30 AM EET on December 17, 2016","2016","12","17","04","30","Europe/Kiev","2:30 AM GMT on December 17, 2016","2016","12","17","02","30","UTC","-4.0","24.8","-5.0","23.0","93","10.8","6.7","-9999.0","-9999.0","250","WSW","1.8","1.1","1030","30.42","-8.3","17.1","-9999","-9999","-9999.00","-9999.00","Snow","snow","0","0","1","0","0","0","METAR UKKK 170230Z 25003MPS 1800 SN BR BKN009 OVC023 M04/M05 Q1030 R26/590340 TEMPO 0400 +SHSN BKN005 SCT012CB"
"4:38 AM EET on December 17, 2016","2016","12","17","04","38","Europe/Kiev","2:38 AM GMT on December 17, 2016","2016","12","17","02","38","UTC","-4.0","24.8","-5.0","23.0","93","10.8","6.7","-9999.0","-9999.0","250","WSW","-9999.0","-9999.0","1029","30.39","-8.3","17.1","-9999","-9999","-9999.00","-9999.00","Light Snow","snow","0","0","1","0","0","0","SPECI UKKK 170238Z 25003MPS 3100 -SN BR BKN009 OVC023 M04/M05 Q1029 RESN R26/590340 TEMPO 0400 +SHSN BKN005 SCT012CB"
"5:00 AM EET on December 17, 2016","2016","12","17","05","00","Europe/Kiev","3:00 AM GMT on December 17, 2016","2016","12","17","03","00","UTC","-4","25","-5","22","86","10.8","6.7","","","280","West","4","2","1031","30.45","-999","-999","-9999","-9999","","","Mist","hazy","0","0","0","0","0","0","AAXX 17031 33345 41296 82803 11041 21053 30093 40309 57014 71072 886// 333 88706 555 1/103"
"5:00 AM EET on December 17, 2016","2016","12","17","05","00","Europe/Kiev","3:00 AM GMT on December 17, 2016","2016","12","17","03","00","UTC","-4.0","24.8","-5.0","23.0","93","10.8","6.7","-9999.0","-9999.0","250","WSW","-9999.0","-9999.0","1029","30.39","-8.3","17.1","-9999","-9999","-9999.00","-9999.00","Light Snow","snow","0","0","1","0","0","0","METAR UKKK 170300Z 25003MPS 4200 -SN BR SCT007 OVC023 M04/M05 Q1029 R26/590340 TEMPO 0400 +SHSN BKN005 SCT012CB"
"5:30 AM EET on December 17, 2016","2016","12","17","05","30","Europe/Kiev","3:30 AM GMT on December 17, 2016","2016","12","17","03","30","UTC","-4.0","24.8","-5.0","23.0","93","10.8","6.7","-9999.0","-9999.0","250","WSW","4.5","2.8","1029","30.39","-8.3","17.1","-9999","-9999","-9999.00","-9999.00","Light Snow","snow","0","0","1","0","0","0","METAR UKKK 170330Z 25003MPS 4500 -SN BR SCT007 OVC023 M04/M05 Q1029 R26/590340 TEMPO 2000 SHSN BR BKN005 SCT012CB"
"6:00 AM EET on December 17, 2016","2016","12","17","06","00","Europe/Kiev","4:00 AM GMT on December 17, 2016","2016","12","17","04","00","UTC","-4.0","24.8","-5.0","23.0","93","10.8","6.7","-9999.0","-9999.0","260","West","4.5","2.8","1029","30.39","-8.3","17.1","-9999","-9999","-9999.00","-9999.00","Light Snow","snow","0","0","1","0","0","0","METAR UKKK 170400Z 26003MPS 4500 -SN BR SCT006 OVC033 M04/M05 Q1029 R26/590340 TEMPO 2000 SHSN BR BKN005 SCT012CB"
"6:30 AM EET on December 17, 2016","2016","12","17","06","30","Europe/Kiev","4:30 AM GMT on December 17, 2016","2016","12","17","04","30","UTC","-3.0","26.6","-5.0","23.0","86","10.8","6.7","-9999.0","-9999.0","260","West","5.0","3.1","1029","30.39","-7.1","19.2","-9999","-9999","-9999.00","-9999.00","Light Snow","snow","0","0","1","0","0","0","METAR UKKK 170430Z 26003MPS 5000 -SN BR SCT007 OVC033 M03/M05 Q1029 R26/590340 TEMPO 2000 SHSN BR BKN005 SCT012CB"
"7:00 AM EET on December 17, 2016","2016","12","17","07","00","Europe/Kiev","5:00 AM GMT on December 17, 2016","2016","12","17","05","00","UTC","-3.0","26.6","-5.0","23.0","86","10.8","6.7","-9999.0","-9999.0","240","WSW","2.8","1.7","1028","30.36","-7.1","19.2","-9999","-9999","-9999.00","-9999.00","Light Snow","snow","0","0","1","0","0","0","METAR UKKK 170500Z 24003MPS 2800 -SN BR SCT006 OVC033 M03/M05 Q1028 R26/590340 TEMPO 2000 SHSN BR BKN004 SCT012CB"
"7:30 AM EET on December 17, 2016","2016","12","17","07","30","Europe/Kiev","5:30 AM GMT on December 17, 2016","2016","12","17","05","30","UTC","-3.0","26.6","-4.0","24.8","93","10.8","6.7","-9999.0","-9999.0","280","West","6.0","3.7","1029","30.39","-7.1","19.2","-9999","-9999","-9999.00","-9999.00","Light Snow","snow","0","0","1","0","0","0","METAR UKKK 170530Z 28003MPS 6000 -SN SCT006 OVC033 M03/M04 Q1029 R26/590340 TEMPO 2000 SHSN BR BKN004 SCT012CB"
"8:00 AM EET on December 17, 2016","2016","12","17","08","00","Europe/Kiev","6:00 AM GMT on December 17, 2016","2016","12","17","06","00","UTC","-3","26","-5","24","87","7.2","4.5","","","330","NNW","4","2","1031","30.45","-999","-999","-9999","-9999","","","Light Snow","snow","0","0","1","0","0","0","AAXX 17061 33345 11396 83302 11032 21046 30095 40310 53002 69922 77172 8872/ 333 21085 47002 88707 555 1/102"
"8:00 AM EET on December 17, 2016","2016","12","17","08","00","Europe/Kiev","6:00 AM GMT on December 17, 2016","2016","12","17","06","00","UTC","-3.0","26.6","-4.0","24.8","93","10.8","6.7","-9999.0","-9999.0","290","WNW","-9999.0","-9999.0","1029","30.39","-7.1","19.2","-9999","-9999","-9999.00","-9999.00","Light Snow","snow","0","0","1","0","0","0","METAR UKKK 170600Z 29003MPS 4400 -SN BR BKN007 OVC030 M03/M04 Q1029 R26/590340 TEMPO 2000 -SHSN BR BKN005 SCT012CB"
"8:09 AM EET on December 17, 2016","2016","12","17","08","09","Europe/Kiev","6:09 AM GMT on December 17, 2016","2016","12","17","06","09","UTC","-3.0","26.6","-4.0","24.8","93","10.8","6.7","-9999.0","-9999.0","290","WNW","1.4","0.9","1029","30.39","-7.1","19.2","-9999","-9999","-9999.00","-9999.00","Snow","snow","0","0","1","0","0","0","SPECI UKKK 170609Z 29003MPS 1400 R26/1700VP2000D SN BR BKN007 OVC030 M03/M04 Q1029 R26/590340 TEMPO 0700 +SHSN BR BKN002 SCT012CB"
"8:11 AM EET on December 17, 2016","2016","12","17","08","11","Europe/Kiev","6:11 AM GMT on December 17, 2016","2016","12","17","06","11","UTC","-3.0","26.6","-4.0","24.8","93","10.8","6.7","-9999.0","-9999.0","280","West","0.9","0.6","1029","30.39","-7.1","19.2","-9999","-9999","-9999.00","-9999.00","Heavy Snow","snow","0","0","1","0","0","0","SPECI UKKK 170611Z 28003MPS 0900 R26/1300VP2000D +SN BR BKN007 OVC030 M03/M04 Q1029 R26/590340 TEMPO 0700 +SHSN BR BKN002 SCT012CB"
"8:14 AM EET on December 17, 2016","2016","12","17","08","14","Europe/Kiev","6:14 AM GMT on December 17, 2016","2016","12","17","06","14","UTC","-3.0","26.6","-4.0","24.8","93","10.8","6.7","-9999.0","-9999.0","280","West","-9999.0","-9999.0","1029","30.39","-7.1","19.2","-9999","-9999","-9999.00","-9999.00","Heavy Snow","snow","0","0","1","0","0","0","SPECI UKKK 170614Z 28003MPS 0650 R26/1200VP2000D +SN BKN006 OVC030 M03/M04 Q1029 R26/590340 TEMPO 0700 +SHSN BR BKN002 SCT012CB"
"8:30 AM EET on December 17, 2016","2016","12","17","08","30","Europe/Kiev","6:30 AM GMT on December 17, 2016","2016","12","17","06","30","UTC","-3.0","26.6","-4.0","24.8","93","10.8","6.7","-9999.0","-9999.0","270","West","1.3","0.8","1029","30.39","-7.1","19.2","-9999","-9999","-9999.00","-9999.00","Snow","snow","0","0","1","0","0","0","METAR UKKK 170630Z 27003MPS 1300 R26/1600D SN BR BKN008 OVC026 M03/M04 Q1029 RESN R26/590340 TEMPO 0700 +SHSN BR BKN002 SCT012CB"
"9:00 AM EET on December 17, 2016","2016","12","17","09","00","Europe/Kiev","7:00 AM GMT on December 17, 2016","2016","12","17","07","00","UTC","-3.0","26.6","-4.0","24.8","93","10.8","6.7","-9999.0","-9999.0","260","West","1.3","0.8","1030","30.42","-7.1","19.2","-9999","-9999","-9999.00","-9999.00","Snow","snow","0","0","1","0","0","0","METAR UKKK 170700Z 26003MPS 1300 R26/1400D SN BR BKN007 OVC018 M03/M04 Q1030 R26/590340 TEMPO 0700 +SHSN BR BKN002 SCT012CB"
"9:06 AM EET on December 17, 2016","2016","12","17","09","06","Europe/Kiev","7:06 AM GMT on December 17, 2016","2016","12","17","07","06","UTC","-3.0","26.6","-4.0","24.8","93","10.8","6.7","-9999.0","-9999.0","260","West","0.7","0.4","1030","30.42","-7.1","19.2","-9999","-9999","-9999.00","-9999.00","Heavy Snow","snow","0","0","1","0","0","0","SPECI UKKK 170706Z 26003MPS 0700 R26/1200N +SN BKN007 OVC018 M03/M04 Q1030 R26/590330 TEMPO 0700 +SHSN BR BKN002 SCT012CB"
"9:30 AM EET on December 17, 2016","2016","12","17","09","30","Europe/Kiev","7:30 AM GMT on December 17, 2016","2016","12","17","07","30","UTC","-3.0","26.6","-4.0","24.8","93","10.8","6.7","-9999.0","-9999.0","260","West","1.8","1.1","1030","30.42","-7.1","19.2","-9999","-9999","-9999.00","-9999.00","Snow Showers","snow","0","0","1","0","0","0","METAR UKKK 170730Z 26003MPS 1800 SHSN BR BKN007 BKN023CB M03/M04 Q1030 RESN R26/590330 TEMPO 0300 +SHSN BKN001 SCT012CB"
"9:49 AM EET on December 17, 2016","2016","12","17","09","49","Europe/Kiev","7:49 AM GMT on December 17, 2016","2016","12","17","07","49","UTC","-3.0","26.6","-4.0","24.8","93","10.8","6.7","-9999.0","-9999.0","270","West","0.7","0.4","1030","30.42","-7.1","19.2","-9999","-9999","-9999.00","-9999.00","Heavy Snow Showers","snow","0","0","1","0","0","0","SPECI UKKK 170749Z 27003MPS 0700 R26/0800VP2000D +SHSN BKN007 BKN023CB M03/M04 Q1030 R26/590330 TEMPO 0300 +SHSN BKN001 SCT012CB"
"10:00 AM EET on December 17, 2016","2016","12","17","10","00","Europe/Kiev","8:00 AM GMT on December 17, 2016","2016","12","17","08","00","UTC","-3.0","26.6","-4.0","24.8","93","10.8","6.7","-9999.0","-9999.0","280","West","-9999.0","-9999.0","1030","30.42","-7.1","19.2","-9999","-9999","-9999.00","-9999.00","Heavy Snow Showers","snow","0","0","1","0","0","0","METAR UKKK 170800Z 28003MPS 0650 R26/0900N +SHSN BKN007 BKN023CB M03/M04 Q1030 R26/590330 TEMPO 0300 +SHSN BKN001 SCT012CB"
"10:15 AM EET on December 17, 2016","2016","12","17","10","15","Europe/Kiev","8:15 AM GMT on December 17, 2016","2016","12","17","08","15","UTC","-3.0","26.6","-3.0","26.6","100","10.8","6.7","-9999.0","-9999.0","280","West","1.7","1.1","1030","30.42","-7.1","19.2","-9999","-9999","-9999.00","-9999.00","Snow Showers","snow","0","0","1","0","0","0","SPECI UKKK 170815Z 28003MPS 1700 SHSN BR SCT007 BKN025CB M03/M03 Q1030 RESN R26/590330 TEMPO 0300 +SHSN BKN001 SCT012CB"
"10:30 AM EET on December 17, 2016","2016","12","17","10","30","Europe/Kiev","8:30 AM GMT on December 17, 2016","2016","12","17","08","30","UTC","-3.0","26.6","-3.0","26.6","100","10.8","6.7","-9999.0","-9999.0","280","West","-9999.0","-9999.0","1030","30.42","-7.1","19.2","-9999","-9999","-9999.00","-9999.00","Light Snow Showers","snow","0","0","1","0","0","0","METAR UKKK 170830Z 28003MPS 3200 -SHSN BR SCT006 BKN026CB M03/M03 Q1030 RESHSN R26/590330 NOSIG"
"11:00 AM EET on December 17, 2016","2016","12","17","11","00","Europe/Kiev","9:00 AM GMT on December 17, 2016","2016","12","17","09","00","UTC","-2","28","-3","27","93","7.2","4.5","","","330","NNW","1","1","1031","30.45","-999","-999","-9999","-9999","","","Snow","snow","0","0","1","0","0","0","AAXX 17091 33345 41294 83302 11020 21029 30098 40312 52003 77372 8872/ 333 88706 555 1/101"
"11:00 AM EET on December 17, 2016","2016","12","17","11","00","Europe/Kiev","9:00 AM GMT on December 17, 2016","2016","12","17","09","00","UTC","-2.0","28.4","-3.0","26.6","93","10.8","6.7","-9999.0","-9999.0","290","WNW","-9999.0","-9999.0","1030","30.42","-5.9","21.4","-9999","-9999","-9999.00","-9999.00","Light Snow Showers","snow","0","0","1","0","0","0","METAR UKKK 170900Z 29003MPS 3200 -SHSN BR SCT007 BKN026CB M02/M03 Q1030 R26/590330 NOSIG"
"11:30 AM EET on December 17, 2016","2016","12","17","11","30","Europe/Kiev","9:30 AM GMT on December 17, 2016","2016","12","17","09","30","UTC","-2.0","28.4","-3.0","26.6","93","10.8","6.7","-9999.0","-9999.0","300","WNW","5.0","3.1","1030","30.42","-5.9","21.4","-9999","-9999","-9999.00","-9999.00","Light Snow","snow","0","0","1","0","0","0","METAR UKKK 170930Z 30003MPS 5000 -SN BR BKN007 OVC020 M02/M03 Q1030 R26/590330 NOSIG"
"12:00 PM EET on December 17, 2016","2016","12","17","12","00","Europe/Kiev","10:00 AM GMT on December 17, 2016","2016","12","17","10","00","UTC","-2.0","28.4","-3.0","26.6","93","14.4","8.9","-9999.0","-9999.0","310","NW","6.0","3.7","1030","30.42","-6.7","19.9","-9999","-9999","-9999.00","-9999.00","Light Snow","snow","0","0","1","0","0","0","METAR UKKK 171000Z 31004MPS 6000 -SN BKN007 OVC020 M02/M03 Q1030 R26/590330 NOSIG"
"12:30 PM EET on December 17, 2016","2016","12","17","12","30","Europe/Kiev","10:30 AM GMT on December 17, 2016","2016","12","17","10","30","UTC","-2.0","28.4","-3.0","26.6","93","10.8","6.7","-9999.0","-9999.0","300","WNW","6.0","3.7","1029","30.39","-5.9","21.4","-9999","-9999","-9999.00","-9999.00","Light Snow","snow","0","0","1","0","0","0","METAR UKKK 171030Z 30003MPS 6000 -SN BKN007 OVC020 M02/M03 Q1029 R26/590330 NOSIG"
"1:00 PM EET on December 17, 2016","2016","12","17","13","00","Europe/Kiev","11:00 AM GMT on December 17, 2016","2016","12","17","11","00","UTC","-2.0","28.4","-3.0","26.6","93","7.2","4.5","-9999.0","-9999.0","290","WNW","7.0","4.3","1030","30.42","-4.8","23.4","-9999","-9999","-9999.00","-9999.00","Overcast","cloudy","0","0","0","0","0","0","METAR UKKK 171100Z 29002MPS 7000 OVC008 M02/M03 Q1030 R26/810345 NOSIG"
"1:30 PM EET on December 17, 2016","2016","12","17","13","30","Europe/Kiev","11:30 AM GMT on December 17, 2016","2016","12","17","11","30","UTC","-1.0","30.2","-3.0","26.6","86","7.2","4.5","-9999.0","-9999.0","300","WNW","7.0","4.3","1030","30.42","-3.6","25.5","-9999","-9999","-9999.00","-9999.00","Overcast","cloudy","0","0","0","0","0","0","METAR UKKK 171130Z 30002MPS 7000 OVC008 M01/M03 Q1030 R26/810345 NOSIG"
"2:00 PM EET on December 17, 2016","2016","12","17","14","00","Europe/Kiev","12:00 PM GMT on December 17, 2016","2016","12","17","12","00","UTC","-1","30","-3","27","85","3.6","2.2","","","310","NW","4","2","1031","30.45","-999","-999","-9999","-9999","","","Mist","hazy","0","0","0","0","0","0","AAXX 17121 33345 /1396 83101 11010 21026 30097 40311 58001 71072 886// 333 88709 555 1/101 60021"
"2:00 PM EET on December 17, 2016","2016","12","17","14","00","Europe/Kiev","12:00 PM GMT on December 17, 2016","2016","12","17","12","00","UTC","-1.0","30.2","-3.0","26.6","86","7.2","4.5","-9999.0","-9999.0","300","WNW","6.0","3.7","1030","30.42","-3.6","25.5","-9999","-9999","-9999.00","-9999.00","Overcast","cloudy","0","0","0","0","0","0","METAR UKKK 171200Z 30002MPS 6000 OVC008 M01/M03 Q1030 R26/810345 NOSIG"
"2:30 PM EET on December 17, 2016","2016","12","17","14","30","Europe/Kiev","12:30 PM GMT on December 17, 2016","2016","12","17","12","30","UTC","-1.0","30.2","-3.0","26.6","86","7.2","4.5","-9999.0","-9999.0","280","West","5.0","3.1","1030","30.42","-3.6","25.5","-9999","-9999","-9999.00","-9999.00","Light Snow","snow","0","0","1","0","0","0","METAR UKKK 171230Z 28002MPS 5000 -SN BR OVC008 M01/M03 Q1030 R26/810345 NOSIG"
"3:00 PM EET on December 17, 2016","2016","12","17","15","00","Europe/Kiev","1:00 PM GMT on December 17, 2016","2016","12","17","13","00","UTC","-1.0","30.2","-3.0","26.6","86","10.8","6.7","-9999.0","-9999.0","300","WNW","5.0","3.1","1030","30.42","-4.7","23.5","-9999","-9999","-9999.00","-9999.00","Light Snow","snow","0","0","1","0","0","0","METAR UKKK 171300Z 30003MPS 5000 -SN BR OVC007 M01/M03 Q1030 R26/810345 TEMPO 2100 -FZRASN BKN012CB"
"3:30 PM EET on December 17, 2016","2016","12","17","15","30","Europe/Kiev","1:30 PM GMT on December 17, 2016","2016","12","17","13","30","UTC","-1.0","30.2","-3.0","26.6","86","7.2","4.5","-9999.0","-9999.0","300","WNW","5.0","3.1","1030","30.42","-3.6","25.5","-9999","-9999","-9999.00","-9999.00","Overcast","cloudy","0","0","0","0","0","0","METAR UKKK 171330Z 30002MPS 5000 BR OVC007 M01/M03 Q1030 R26/810345 TEMPO 2100 -FZRASN BKN012CB"
"4:00 PM EET on December 17, 2016","2016","12","17","16","00","Europe/Kiev","2:00 PM GMT on December 17, 2016","2016","12","17","14","00","UTC","-1.0","30.2","-3.0","26.6","86","10.8","6.7","-9999.0","-9999.0","280","West","-9999.0","-9999.0","1030","30.42","-4.7","23.5","-9999","-9999","-9999.00","-9999.00","Overcast","cloudy","0","0","0","0","0","0","METAR UKKK 171400Z 28003MPS 4900 BR OVC007 M01/M03 Q1030 R26/810345 TEMPO 2100 -FZRASN BKN012CB"
"4:30 PM EET on December 17, 2016","2016","12","17","16","30","Europe/Kiev","2:30 PM GMT on December 17, 2016","2016","12","17","14","30","UTC","-1.0","30.2","-2.0","28.4","93","10.8","6.7","-9999.0","-9999.0","280","West","5.0","3.1","1030","30.42","-4.7","23.5","-9999","-9999","-9999.00","-9999.00","Overcast","cloudy","0","0","0","0","0","0","METAR UKKK 171430Z 28003MPS 5000 BR OVC007 M01/M02 Q1030 R26/810345 TEMPO 2100 -FZRASN BKN012CB"
"5:00 PM EET on December 17, 2016","2016","12","17","17","00","Europe/Kiev","3:00 PM GMT on December 17, 2016","2016","12","17","15","00","UTC","-1","30","-2","28","86","7.2","4.5","","","300","WNW","4","2","1032","30.48","-999","-999","-9999","-9999","","","Mist","hazy","0","0","0","0","0","0","AAXX 17151 33345 41396 83002 11012 21025 30107 40321 53010 71072 886// 333 88707 555 1/102"
"5:00 PM EET on December 17, 2016","2016","12","17","17","00","Europe/Kiev","3:00 PM GMT on December 17, 2016","2016","12","17","15","00","UTC","-1.0","30.2","-2.0","28.4","93","10.8","6.7","-9999.0","-9999.0","280","West","5.0","3.1","1031","30.45","-4.7","23.5","-9999","-9999","-9999.00","-9999.00","Overcast","cloudy","0","0","0","0","0","0","METAR UKKK 171500Z 28003MPS 5000 BR OVC007 M01/M02 Q1031 R26/810345 NOSIG"
"5:30 PM EET on December 17, 2016","2016","12","17","17","30","Europe/Kiev","3:30 PM GMT on December 17, 2016","2016","12","17","15","30","UTC","-1.0","30.2","-2.0","28.4","93","10.8","6.7","-9999.0","-9999.0","290","WNW","5.0","3.1","1031","30.45","-4.7","23.5","-9999","-9999","-9999.00","-9999.00","Overcast","cloudy","0","0","0","0","0","0","METAR UKKK 171530Z 29003MPS 5000 BR OVC006 M01/M02 Q1031 R26/810345 NOSIG"
"6:00 PM EET on December 17, 2016","2016","12","17","18","00","Europe/Kiev","4:00 PM GMT on December 17, 2016","2016","12","17","16","00","UTC","-1.0","30.2","-2.0","28.4","93","10.8","6.7","-9999.0","-9999.0","280","West","-9999.0","-9999.0","1031","30.45","-4.7","23.5","-9999","-9999","-9999.00","-9999.00","Overcast","cloudy","0","0","0","0","0","0","METAR UKKK 171600Z 28003MPS 4700 BR OVC006 M01/M02 Q1031 R26/810345 NOSIG"
"6:30 PM EET on December 17, 2016","2016","12","17","18","30","Europe/Kiev","4:30 PM GMT on December 17, 2016","2016","12","17","16","30","UTC","-1.0","30.2","-2.0","28.4","93","10.8","6.7","-9999.0","-9999.0","280","West","-9999.0","-9999.0","1031","30.45","-4.7","23.5","-9999","-9999","-9999.00","-9999.00","Overcast","cloudy","0","0","0","0","0","0","METAR UKKK 171630Z 28003MPS 4100 BR OVC005 M01/M02 Q1031 R26/810345 TEMPO 2000 BR BKN003"
"6:39 PM EET on December 17, 2016","2016","12","17","18","39","Europe/Kiev","4:39 PM GMT on December 17, 2016","2016","12","17","16","39","UTC","-1.0","30.2","-2.0","28.4","93","10.8","6.7","-9999.0","-9999.0","270","West","-9999.0","-9999.0","1031","30.45","-4.7","23.5","-9999","-9999","-9999.00","-9999.00","Overcast","cloudy","0","0","0","0","0","0","SPECI UKKK 171639Z 27003MPS 3900 BR OVC004 M01/M02 Q1031 R26/810345 TEMPO 2000 BR BKN003"
"7:00 PM EET on December 17, 2016","2016","12","17","19","00","Europe/Kiev","5:00 PM GMT on December 17, 2016","2016","12","17","17","00","UTC","-1.0","30.2","-2.0","28.4","93","10.8","6.7","-9999.0","-9999.0","290","WNW","-9999.0","-9999.0","1031","30.45","-4.7","23.5","-9999","-9999","-9999.00","-9999.00","Overcast","cloudy","0","0","0","0","0","0","METAR UKKK 171700Z 29003MPS 3400 BR OVC004 M01/M02 Q1031 R26/810345 TEMPO 1000 BR BKN003"
"7:30 PM EET on December 17, 2016","2016","12","17","19","30","Europe/Kiev","5:30 PM GMT on December 17, 2016","2016","12","17","17","30","UTC","-1.0","30.2","-2.0","28.4","93","7.2","4.5","-9999.0","-9999.0","280","West","2.9","1.8","1031","30.45","-3.6","25.5","-9999","-9999","-9999.00","-9999.00","Overcast","cloudy","0","0","0","0","0","0","METAR UKKK 171730Z 28002MPS 2900 BR OVC003 M01/M02 Q1031 R26/810345 TEMPO 1000 BR BKN003"
"8:00 PM EET on December 17, 2016","2016","12","17","20","00","Europe/Kiev","6:00 PM GMT on December 17, 2016","2016","12","17","18","00","UTC","-1","30","-2","28","90","7.2","4.5","","","320","NW","2","1","1032","30.48","-999","-999","-9999","-9999","","","Mist","hazy","0","0","0","0","0","0","AAXX 17181 33345 11295 83202 11011 21021 30107 40321 54000 60022 71072 886// 333 11007 88705 555 1/101"
"8:00 PM EET on December 17, 2016","2016","12","17","20","00","Europe/Kiev","6:00 PM GMT on December 17, 2016","2016","12","17","18","00","UTC","-1.0","30.2","-2.0","28.4","93","7.2","4.5","-9999.0","-9999.0","290","WNW","2.7","1.7","1031","30.45","-3.6","25.5","-9999","-9999","-9999.00","-9999.00","Overcast","cloudy","0","0","0","0","0","0","METAR UKKK 171800Z 29002MPS 2700 BR OVC004 M01/M02 Q1031 R26/810345 TEMPO 1700 BR BKN003"
"8:30 PM EET on December 17, 2016","2016","12","17","20","30","Europe/Kiev","6:30 PM GMT on December 17, 2016","2016","12","17","18","30","UTC","-1.0","30.2","-2.0","28.4","93","10.8","6.7","-9999.0","-9999.0","300","WNW","-9999.0","-9999.0","1031","30.45","-4.7","23.5","-9999","-9999","-9999.00","-9999.00","Overcast","cloudy","0","0","0","0","0","0","METAR UKKK 171830Z 30003MPS 3100 BR OVC004 M01/M02 Q1031 R26/810345 TEMPO 1700 BR BKN003"
"9:00 PM EET on December 17, 2016","2016","12","17","21","00","Europe/Kiev","7:00 PM GMT on December 17, 2016","2016","12","17","19","00","UTC","-1.0","30.2","-2.0","28.4","93","7.2","4.5","-9999.0","-9999.0","290","WNW","-9999.0","-9999.0","1031","30.45","-3.6","25.5","-9999","-9999","-9999.00","-9999.00","Overcast","cloudy","0","0","0","0","0","0","METAR UKKK 171900Z 29002MPS 260V320 3600 BR OVC005 M01/M02 Q1031 R26/810345 TEMPO 1700 BR BKN003"
"9:30 PM EET on December 17, 2016","2016","12","17","21","30","Europe/Kiev","7:30 PM GMT on December 17, 2016","2016","12","17","19","30","UTC","-1.0","30.2","-2.0","28.4","93","10.8","6.7","-9999.0","-9999.0","300","WNW","-9999.0","-9999.0","1031","30.45","-4.7","23.5","-9999","-9999","-9999.00","-9999.00","Light Snow","snow","0","0","1","0","0","0","METAR UKKK 171930Z 30003MPS 4200 -SN BR OVC005 M01/M02 Q1031 R26/810345 TEMPO OVC004"
"10:00 PM EET on December 17, 2016","2016","12","17","22","00","Europe/Kiev","8:00 PM GMT on December 17, 2016","2016","12","17","20","00","UTC","-1.0","30.2","-2.0","28.4","93","7.2","4.5","-9999.0","-9999.0","280","West","-9999.0","-9999.0","1031","30.45","-3.6","25.5","-9999","-9999","-9999.00","-9999.00","Light Snow","snow","0","0","1","0","0","0","METAR UKKK 172000Z 28002MPS 250V310 3700 -SN BR OVC005 M01/M02 Q1031 R26/810345 TEMPO OVC004"
"10:05 PM EET on December 17, 2016","2016","12","17","22","05","Europe/Kiev","8:05 PM GMT on December 17, 2016","2016","12","17","20","05","UTC","-1.0","30.2","-2.0","28.4","93","7.2","4.5","-9999.0","-9999.0","270","West","-9999.0","-9999.0","1031","30.45","-3.6","25.5","-9999","-9999","-9999.00","-9999.00","Light Snow","snow","0","0","1","0","0","0","SPECI UKKK 172005Z 27002MPS 3400 -SN BR OVC004 M01/M02 Q1031 R26/810345 TEMPO 2000 BR OVC003"
"10:30 PM EET on December 17, 2016","2016","12","17","22","30","Europe/Kiev","8:30 PM GMT on December 17, 2016","2016","12","17","20","30","UTC","-1.0","30.2","-2.0","28.4","93","7.2","4.5","-9999.0","-9999.0","260","West","-9999.0","-9999.0","1031","30.45","-3.6","25.5","-9999","-9999","-9999.00","-9999.00","Light Snow","snow","0","0","1","0","0","0","METAR UKKK 172030Z 26002MPS 3100 -SN BR OVC005 M01/M02 Q1031 R26/810345 TEMPO 2000 -FZDZ BR OVC004"
"11:00 PM EET on December 17, 2016","2016","12","17","23","00","Europe/Kiev","9:00 PM GMT on December 17, 2016","2016","12","17","21","00","UTC","-1","30","-2","29","93","7.2","4.5","","","310","NW","1","1","1032","30.48","-999","-999","-9999","-9999","","","Light Snow","snow","0","0","1","0","0","0","AAXX 17211 33345 41294 83102 11011 21018 30106 40320 58001 77172 8872/ 333 88705 555 1/102"
"11:00 PM EET on December 17, 2016","2016","12","17","23","00","Europe/Kiev","9:00 PM GMT on December 17, 2016","2016","12","17","21","00","UTC","-1.0","30.2","-2.0","28.4","93","10.8","6.7","-9999.0","-9999.0","260","West","3.5","2.2","1030","30.42","-4.7","23.5","-9999","-9999","-9999.00","-9999.00","Light Snow","snow","0","0","1","0","0","0","METAR UKKK 172100Z 26003MPS 3500 -SN BR OVC005 M01/M02 Q1030 R26/810345 TEMPO 2000 -FZDZ BR OVC004"
"11:14 PM EET on December 17, 2016","2016","12","17","23","14","Europe/Kiev","9:14 PM GMT on December 17, 2016","2016","12","17","21","14","UTC","-1.0","30.2","-2.0","28.4","93","7.2","4.5","-9999.0","-9999.0","270","West","4.0","2.5","1030","30.42","-3.6","25.5","-9999","-9999","-9999.00","-9999.00","Overcast","cloudy","0","0","0","0","0","0","SPECI UKKK 172114Z 27002MPS 4000 BR OVC004 M01/M02 Q1030 R26/810345 TEMPO 2000 -FZDZ BR OVC003"
"11:30 PM EET on December 17, 2016","2016","12","17","23","30","Europe/Kiev","9:30 PM GMT on December 17, 2016","2016","12","17","21","30","UTC","-1.0","30.2","-2.0","28.4","93","10.8","6.7","-9999.0","-9999.0","270","West","4.0","2.5","1030","30.42","-4.7","23.5","-9999","-9999","-9999.00","-9999.00","Overcast","cloudy","0","0","0","0","0","0","METAR UKKK 172130Z 27003MPS 4000 BR OVC004 M01/M02 Q1030 R26/810345 TEMPO 2000 -FZDZ BR OVC003"
"12:00 AM EET on December 18, 2016","2016","12","18","00","00","Europe/Kiev","10:00 PM GMT on December 17, 2016","2016","12","17","22","00","UTC","-1.0","30.2","-2.0","28.4","93","10.8","6.7","-9999.0","-9999.0","260","West","-9999.0","-9999.0","1030","30.42","-4.7","23.5","-9999","-9999","-9999.00","-9999.00","Overcast","cloudy","0","0","0","0","0","0","METAR UKKK 172200Z 26003MPS 4700 BR OVC004 M01/M02 Q1030 R26/810345 TEMPO 2000 -FZDZ BR OVC003"
"12:30 AM EET on December 18, 2016","2016","12","18","00","30","Europe/Kiev","10:30 PM GMT on December 17, 2016","2016","12","17","22","30","UTC","-1.0","30.2","-2.0","28.4","93","10.8","6.7","-9999.0","-9999.0","300","WNW","5.0","3.1","1030","30.42","-4.7","23.5","-9999","-9999","-9999.00","-9999.00","Overcast","cloudy","0","0","0","0","0","0","METAR UKKK 172230Z 30003MPS 270V330 5000 BR OVC005 M01/M02 Q1030 R26/810345 TEMPO 2000 BR OVC003"
"12:33 AM EET on December 18, 2016","2016","12","18","00","33","Europe/Kiev","10:33 PM GMT on December 17, 2016","2016","12","17","22","33","UTC","-1.0","30.2","-2.0","28.4","93","10.8","6.7","-9999.0","-9999.0","290","WNW","5.0","3.1","1030","30.42","-4.7","23.5","-9999","-9999","-9999.00","-9999.00","Overcast","cloudy","0","0","0","0","0","0","SPECI UKKK 172233Z 29003MPS 5000 BR OVC004 M01/M02 Q1030 R26/810345 TEMPO 2000 BR OVC003"
"1:00 AM EET on December 18, 2016","2016","12","18","01","00","Europe/Kiev","11:00 PM GMT on December 17, 2016","2016","12","17","23","00","UTC","-1.0","30.2","-2.0","28.4","93","10.8","6.7","-9999.0","-9999.0","280","West","-9999.0","-9999.0","1030","30.42","-4.7","23.5","-9999","-9999","-9999.00","-9999.00","Overcast","cloudy","0","0","0","0","0","0","METAR UKKK 172300Z 28003MPS 4700 BR OVC005 M01/M02 Q1030 R26/810345 TEMPO 2000 BR OVC003"
"1:03 AM EET on December 18, 2016","2016","12","18","01","03","Europe/Kiev","11:03 PM GMT on December 17, 2016","2016","12","17","23","03","UTC","-1.0","30.2","-2.0","28.4","93","10.8","6.7","-9999.0","-9999.0","280","West","-9999.0","-9999.0","1030","30.42","-4.7","23.5","-9999","-9999","-9999.00","-9999.00","Overcast","cloudy","0","0","0","0","0","0","SPECI UKKK 172303Z 28003MPS 4800 BR OVC004 M01/M02 Q1030 R26/810345 TEMPO 2000 BR OVC003"
"1:30 AM EET on December 18, 2016","2016","12","18","01","30","Europe/Kiev","11:30 PM GMT on December 17, 2016","2016","12","17","23","30","UTC","-1.0","30.2","-2.0","28.4","93","10.8","6.7","-9999.0","-9999.0","280","West","-9999.0","-9999.0","1030","30.42","-4.7","23.5","-9999","-9999","-9999.00","-9999.00","Light Snow","snow","0","0","1","0","0","0","METAR UKKK 172330Z 28003MPS 3400 -SN BR OVC004 M01/M02 Q1030 R26/810345 TEMPO 2000 BR OVC003"
"2:00 AM EET on December 18, 2016","2016","12","18","02","00","Europe/Kiev","12:00 AM GMT on December 18, 2016","2016","12","18","00","00","UTC","-1","30","-2","28","90","7.2","4.5","","","310","NW","2","1","1032","30.47","-999","-999","-9999","-9999","","","Light Snow","snow","0","0","1","0","0","0","AAXX 18001 33345 /1295 83102 11013 21021 30102 40316 57004 77172 8672/ 333 86705 555 1/102 69901"
"2:00 AM EET on December 18, 2016","2016","12","18","02","00","Europe/Kiev","12:00 AM GMT on December 18, 2016","2016","12","18","00","00","UTC","-1.0","30.2","-2.0","28.4","93","14.4","8.9","-9999.0","-9999.0","280","West","2.7","1.7","1030","30.42","-5.5","22.1","-9999","-9999","-9999.00","-9999.00","Light Snow","snow","0","0","1","0","0","0","METAR UKKK 180000Z 28004MPS 2700 -SN BR OVC005 M01/M02 Q1030 R26/810345 TEMPO 1000 -SN BR OVC003"
"2:30 AM EET on December 18, 2016","2016","12","18","02","30","Europe/Kiev","12:30 AM GMT on December 18, 2016","2016","12","18","00","30","UTC","-2.0","28.4","-2.0","28.4","100","10.8","6.7","-9999.0","-9999.0","270","West","2.9","1.8","1030","30.42","-5.9","21.4","-9999","-9999","-9999.00","-9999.00","Light Snow","snow","0","0","1","0","0","0","METAR UKKK 180030Z 27003MPS 2900 -SN BR OVC005 M02/M02 Q1030 R26/810345 TEMPO 1000 -SN BR OVC003"
"2:35 AM EET on December 18, 2016","2016","12","18","02","35","Europe/Kiev","12:35 AM GMT on December 18, 2016","2016","12","18","00","35","UTC","-2.0","28.4","-2.0","28.4","100","10.8","6.7","-9999.0","-9999.0","270","West","1.4","0.9","1030","30.42","-5.9","21.4","-9999","-9999","-9999.00","-9999.00","Light Snow","snow","0","0","1","0","0","0","SPECI UKKK 180035Z 27003MPS 1400 R26/2000VP2000D -SN BR OVC005 M02/M02 Q1030 R26/810345 TEMPO 1000 -SN BR OVC003"
"2:37 AM EET on December 18, 2016","2016","12","18","02","37","Europe/Kiev","12:37 AM GMT on December 18, 2016","2016","12","18","00","37","UTC","-2.0","28.4","-2.0","28.4","100","14.4","8.9","-9999.0","-9999.0","270","West","2.4","1.5","1030","30.42","-6.7","19.9","-9999","-9999","-9999.00","-9999.00","Light Snow","snow","0","0","1","0","0","0","SPECI UKKK 180037Z 27004MPS 2400 -SN BR OVC004 M02/M02 Q1030 R26/810345 TEMPO 1000 -SN BR OVC003"
"3:00 AM EET on December 18, 2016","2016","12","18","03","00","Europe/Kiev","1:00 AM GMT on December 18, 2016","2016","12","18","01","00","UTC","-2.0","28.4","-2.0","28.4","100","10.8","6.7","-9999.0","-9999.0","270","West","-9999.0","-9999.0","1030","30.42","-5.9","21.4","-9999","-9999","-9999.00","-9999.00","Light Snow","snow","0","0","1","0","0","0","METAR UKKK 180100Z 27003MPS 3400 -SN BR OVC006 M02/M02 Q1030 R26/810345 TEMPO 1000 -SN BR OVC003"
"3:30 AM EET on December 18, 2016","2016","12","18","03","30","Europe/Kiev","1:30 AM GMT on December 18, 2016","2016","12","18","01","30","UTC","-2.0","28.4","-2.0","28.4","100","10.8","6.7","-9999.0","-9999.0","270","West","-9999.0","-9999.0","1030","30.42","-5.9","21.4","-9999","-9999","-9999.00","-9999.00","Light Snow","snow","0","0","1","0","0","0","METAR UKKK 180130Z 27003MPS 3900 -SN BR OVC005 M02/M02 Q1030 R26/810345 TEMPO 2000 BR BKN004"
"4:00 AM EET on December 18, 2016","2016","12","18","04","00","Europe/Kiev","2:00 AM GMT on December 18, 2016","2016","12","18","02","00","UTC","-2.0","28.4","-2.0","28.4","100","10.8","6.7","-9999.0","-9999.0","270","West","-9999.0","-9999.0","1029","30.39","-5.9","21.4","-9999","-9999","-9999.00","-9999.00","Light Snow","snow","0","0","1","0","0","0","METAR UKKK 180200Z 27003MPS 4400 -SN BR OVC005 M02/M02 Q1029 R26/810345 TEMPO 2000 BR BKN004"
"4:30 AM EET on December 18, 2016","2016","12","18","04","30","Europe/Kiev","2:30 AM GMT on December 18, 2016","2016","12","18","02","30","UTC","-2.0","28.4","-2.0","28.4","100","14.4","8.9","-9999.0","-9999.0","270","West","-9999.0","-9999.0","1029","30.39","-6.7","19.9","-9999","-9999","-9999.00","-9999.00","Light Snow","snow","0","0","1","0","0","0","METAR UKKK 180230Z 27004MPS 4200 -SN BR OVC005 M02/M02 Q1029 R26/810345 TEMPO 2000 BR BKN004"
"5:00 AM EET on December 18, 2016","2016","12","18","05","00","Europe/Kiev","3:00 AM GMT on December 18, 2016","2016","12","18","03","00","UTC","-1","29","-2","28","95","7.2","4.5","","","310","NW","2","1","1030","30.43","-999","-999","-9999","-9999","","","Light Snow","snow","0","0","1","0","0","0","AAXX 18031 33345 41295 83102 11014 21022 30091 40305 57011 77177 8872/ 333 88706 555 1/102"
"5:00 AM EET on December 18, 2016","2016","12","18","05","00","Europe/Kiev","3:00 AM GMT on December 18, 2016","2016","12","18","03","00","UTC","-2.0","28.4","-2.0","28.4","100","14.4","8.9","-9999.0","-9999.0","270","West","-9999.0","-9999.0","1029","30.39","-6.7","19.9","-9999","-9999","-9999.00","-9999.00","Light Snow","snow","0","0","1","0","0","0","METAR UKKK 180300Z 27004MPS 3600 -SN BR OVC005 M02/M02 Q1029 R26/810345 TEMPO 2000 BR BKN004"
"5:30 AM EET on December 18, 2016","2016","12","18","05","30","Europe/Kiev","3:30 AM GMT on December 18, 2016","2016","12","18","03","30","UTC","-2.0","28.4","-3.0","26.6","93","14.4","8.9","-9999.0","-9999.0","280","West","-9999.0","-9999.0","1029","30.39","-6.7","19.9","-9999","-9999","-9999.00","-9999.00","Light Snow","snow","0","0","1","0","0","0","METAR UKKK 180330Z 28004MPS 3700 -SN BR OVC007 M02/M03 Q1029 R26/810345 TEMPO 2000 BR BKN006"
"6:00 AM EET on December 18, 2016","2016","12","18","06","00","Europe/Kiev","4:00 AM GMT on December 18, 2016","2016","12","18","04","00","UTC","-1.0","30.2","-3.0","26.6","86","21.6","13.4","-9999.0","-9999.0","290","WNW","8.0","5.0","1029","30.39","-6.7","19.9","-9999","-9999","-9999.00","-9999.00","Overcast","cloudy","0","0","0","0","0","0","METAR UKKK 180400Z 29006MPS 8000 OVC007 M01/M03 Q1029 R26/810345 TEMPO 2000 BR BKN006"
"6:30 AM EET on December 18, 2016","2016","12","18","06","30","Europe/Kiev","4:30 AM GMT on December 18, 2016","2016","12","18","04","30","UTC","-2.0","28.4","-3.0","26.6","93","18.0","11.2","-9999.0","-9999.0","300","WNW","7.0","4.3","1029","30.39","-7.4","18.7","-9999","-9999","-9999.00","-9999.00","Overcast","cloudy","0","0","0","0","0","0","METAR UKKK 180430Z 30005MPS 7000 OVC006 M02/M03 Q1029 R26/810345 TEMPO 2000 BR BKN005"
"7:00 AM EET on December 18, 2016","2016","12","18","07","00","Europe/Kiev","5:00 AM GMT on December 18, 2016","2016","12","18","05","00","UTC","-2.0","28.4","-3.0","26.6","93","18.0","11.2","-9999.0","-9999.0","280","West","8.0","5.0","1028","30.36","-7.4","18.7","-9999","-9999","-9999.00","-9999.00","Overcast","cloudy","0","0","0","0","0","0","METAR UKKK 180500Z 28005MPS 8000 OVC006 M02/M03 Q1028 R26/810345 TEMPO BKN004"
"7:30 AM EET on December 18, 2016","2016","12","18","07","30","Europe/Kiev","5:30 AM GMT on December 18, 2016","2016","12","18","05","30","UTC","-2.0","28.4","-3.0","26.6","93","21.6","13.4","-9999.0","-9999.0","290","WNW","9.0","5.6","1028","30.36","-8.0","17.6","-9999","-9999","-9999.00","-9999.00","Overcast","cloudy","0","0","0","0","0","0","METAR UKKK 180530Z 29006MPS 9000 OVC006 M02/M03 Q1028 R26/810345 TEMPO BKN005"
"8:00 AM EET on December 18, 2016","2016","12","18","08","00","Europe/Kiev","6:00 AM GMT on December 18, 2016","2016","12","18","06","00","UTC","-2","29","-3","27","89","10.8","6.7","","","310","NW","4","2","1030","30.42","-999","-999","-9999","-9999","","","Mist","hazy","0","0","0","0","0","0","AAXX 18061 33345 11396 83103 11017 21028 30085 40299 57006 69922 71072 886// 333 21017 47005 88706 555 1/102"
"8:00 AM EET on December 18, 2016","2016","12","18","08","00","Europe/Kiev","6:00 AM GMT on December 18, 2016","2016","12","18","06","00","UTC","-2.0","28.4","-3.0","26.6","93","21.6","13.4","-9999.0","-9999.0","280","West","8.0","5.0","1028","30.36","-8.0","17.6","-9999","-9999","-9999.00","-9999.00","Overcast","cloudy","0","0","0","0","0","0","METAR UKKK 180600Z 28006MPS 8000 OVC006 M02/M03 Q1028 R26/810345 TEMPO BKN005"
"8:30 AM EET on December 18, 2016","2016","12","18","08","30","Europe/Kiev","6:30 AM GMT on December 18, 2016","2016","12","18","06","30","UTC","-2.0","28.4","-3.0","26.6","93","21.6","13.4","-9999.0","-9999.0","280","West","7.0","4.3","1029","30.39","-8.0","17.6","-9999","-9999","-9999.00","-9999.00","Overcast","cloudy","0","0","0","0","0","0","METAR UKKK 180630Z 28006MPS 7000 OVC005 M02/M03 Q1029 R26/810345 TEMPO BKN004"
"9:00 AM EET on December 18, 2016","2016","12","18","09","00","Europe/Kiev","7:00 AM GMT on December 18, 2016","2016","12","18","07","00","UTC","-2.0","28.4","-3.0","26.6","93","18.0","11.2","-9999.0","-9999.0","290","WNW","6.0","3.7","1029","30.39","-7.4","18.7","-9999","-9999","-9999.00","-9999.00","Overcast","cloudy","0","0","0","0","0","0","METAR UKKK 180700Z 29005MPS 6000 OVC005 M02/M03 Q1029 R26/810345 TEMPO BKN004"
"9:30 AM EET on December 18, 2016","2016","12","18","09","30","Europe/Kiev","7:30 AM GMT on December 18, 2016","2016","12","18","07","30","UTC","-2.0","28.4","-3.0","26.6","93","14.4","8.9","-9999.0","-9999.0","290","WNW","7.0","4.3","1029","30.39","-6.7","19.9","-9999","-9999","-9999.00","-9999.00","Overcast","cloudy","0","0","0","0","0","0","METAR UKKK 180730Z 29004MPS 270V330 7000 OVC005 M02/M03 Q1029 R26/810345 TEMPO BKN004"
"10:00 AM EET on December 18, 2016","2016","12","18","10","00","Europe/Kiev","8:00 AM GMT on December 18, 2016","2016","12","18","08","00","UTC","-2.0","28.4","-3.0","26.6","93","18.0","11.2","-9999.0","-9999.0","270","West","9.0","5.6","1029","30.39","-7.4","18.7","-9999","-9999","-9999.00","-9999.00","Overcast","cloudy","0","0","0","0","0","0","METAR UKKK 180800Z 27005MPS 9000 OVC005 M02/M03 Q1029 R26/810345 TEMPO BKN004"
"10:30 AM EET on December 18, 2016","2016","12","18","10","30","Europe/Kiev","8:30 AM GMT on December 18, 2016","2016","12","18","08","30","UTC","-2.0","28.4","-3.0","26.6","93","14.4","8.9","-9999.0","-9999.0","290","WNW","7.0","4.3","1029","30.39","-6.7","19.9","-9999","-9999","-9999.00","-9999.00","Overcast","cloudy","0","0","0","0","0","0","METAR UKKK 180830Z 29004MPS 7000 OVC005 M02/M03 Q1029 R26/810345 TEMPO BKN004"
"11:00 AM EET on December 18, 2016","2016","12","18","11","00","Europe/Kiev","9:00 AM GMT on December 18, 2016","2016","12","18","09","00","UTC","-2","28","-3","26","89","7.2","4.5","","","320","NW","4","2","1030","30.43","-999","-999","-9999","-9999","","","Mist","hazy","0","0","0","0","0","0","AAXX 18091 33345 41396 83202 11021 21033 30089 40303 53004 71022 886// 333 88706 555 1/102"
"11:00 AM EET on December 18, 2016","2016","12","18","11","00","Europe/Kiev","9:00 AM GMT on December 18, 2016","2016","12","18","09","00","UTC","-2.0","28.4","-3.0","26.6","93","14.4","8.9","-9999.0","-9999.0","300","WNW","6.0","3.7","1029","30.39","-6.7","19.9","-9999","-9999","-9999.00","-9999.00","Overcast","cloudy","0","0","0","0","0","0","METAR UKKK 180900Z 30004MPS 6000 OVC005 M02/M03 Q1029 R26/810345 TEMPO BKN004"
"11:30 AM EET on December 18, 2016","2016","12","18","11","30","Europe/Kiev","9:30 AM GMT on December 18, 2016","2016","12","18","09","30","UTC","-2.0","28.4","-3.0","26.6","93","18.0","11.2","-9999.0","-9999.0","280","West","6.0","3.7","1029","30.39","-7.4","18.7","-9999","-9999","-9999.00","-9999.00","Overcast","cloudy","0","0","0","0","0","0","METAR UKKK 180930Z 28005MPS 6000 OVC005 M02/M03 Q1029 R26/810345 TEMPO BKN004"
"12:00 PM EET on December 18, 2016","2016","12","18","12","00","Europe/Kiev","10:00 AM GMT on December 18, 2016","2016","12","18","10","00","UTC","-2.0","28.4","-4.0","24.8","86","18.0","11.2","-9999.0","-9999.0","300","WNW","9.0","5.6","1029","30.39","-7.4","18.7","-9999","-9999","-9999.00","-9999.00","Overcast","cloudy","0","0","0","0","0","0","METAR UKKK 181000Z 30005MPS 9000 OVC005 M02/M04 Q1029 R26/810345 TEMPO 2100 -FZRASN BKN004"
"12:30 PM EET on December 18, 2016","2016","12","18","12","30","Europe/Kiev","10:30 AM GMT on December 18, 2016","2016","12","18","10","30","UTC","-2.0","28.4","-4.0","24.8","86","14.4","8.9","-9999.0","-9999.0","290","WNW","8.0","5.0","1028","30.36","-6.7","19.9","-9999","-9999","-9999.00","-9999.00","Overcast","cloudy","0","0","0","0","0","0","METAR UKKK 181030Z 29004MPS 8000 OVC006 M02/M04 Q1028 R26/810345 TEMPO 2100 -FZRASN BKN004"
"1:00 PM EET on December 18, 2016","2016","12","18","13","00","Europe/Kiev","11:00 AM GMT on December 18, 2016","2016","12","18","11","00","UTC","-2.0","28.4","-4.0","24.8","86","18.0","11.2","-9999.0","-9999.0","300","WNW","9.0","5.6","1028","30.36","-7.4","18.7","-9999","-9999","-9999.00","-9999.00","Overcast","cloudy","0","0","0","0","0","0","METAR UKKK 181100Z 30005MPS 9000 OVC006 M02/M04 Q1028 R26/810345 TEMPO 2100 -FZRASN BKN004"
"1:30 PM EET on December 18, 2016","2016","12","18","13","30","Europe/Kiev","11:30 AM GMT on December 18, 2016","2016","12","18","11","30","UTC","-2.0","28.4","-4.0","24.8","86","14.4","8.9","-9999.0","-9999.0","270","West","9.0","5.6","1028","30.36","-6.7","19.9","-9999","-9999","-9999.00","-9999.00","Overcast","cloudy","0","0","0","0","0","0","METAR UKKK 181130Z 27004MPS 9000 OVC006 M02/M04 Q1028 R26/810345 TEMPO 2100 -FZRASN BKN004"
"2:00 PM EET on December 18, 2016","2016","12","18","14","00","Europe/Kiev","12:00 PM GMT on December 18, 2016","2016","12","18","12","00","UTC","-2","28","-4","26","86","7.2","4.5","","","340","NNW","4","2","1029","30.40","-999","-999","-9999","-9999","","","Mist","hazy","0","0","0","0","0","0","AAXX 18121 33345 31396 83402 11024 21036 30079 40293 58010 71022 886// 333 88708 555 1/102"
"2:00 PM EET on December 18, 2016","2016","12","18","14","00","Europe/Kiev","12:00 PM GMT on December 18, 2016","2016","12","18","12","00","UTC","-2.0","28.4","-4.0","24.8","86","14.4","8.9","-9999.0","-9999.0","270","West","9.0","5.6","1028","30.36","-6.7","19.9","-9999","-9999","-9999.00","-9999.00","Overcast","cloudy","0","0","0","0","0","0","METAR UKKK 181200Z 27004MPS 9000 OVC006 M02/M04 Q1028 R26/810345 TEMPO 2100 -FZRASN BKN004"
"2:30 PM EET on December 18, 2016","2016","12","18","14","30","Europe/Kiev","12:30 PM GMT on December 18, 2016","2016","12","18","12","30","UTC","-2.0","28.4","-4.0","24.8","86","18.0","11.2","-9999.0","-9999.0","280","West","9.0","5.6","1028","30.36","-7.4","18.7","-9999","-9999","-9999.00","-9999.00","Light Snow","snow","0","0","1","0","0","0","METAR UKKK 181230Z 28005MPS 9000 -SN BKN007 OVC020 M02/M04 Q1028 R26/810345 TEMPO 2100 -FZRASN BKN004"
"3:00 PM EET on December 18, 2016","2016","12","18","15","00","Europe/Kiev","1:00 PM GMT on December 18, 2016","2016","12","18","13","00","UTC","-2.0","28.4","-4.0","24.8","86","14.4","8.9","-9999.0","-9999.0","270","West","10.0","6.2","1028","30.36","-6.7","19.9","-9999","-9999","-9999.00","-9999.00","Light Snow","snow","0","0","1","0","0","0","METAR UKKK 181300Z 27004MPS 9999 -SN BKN006 OVC020 M02/M04 Q1028 R26/810345 TEMPO 2100 -FZRASN BKN004"
"3:30 PM EET on December 18, 2016","2016","12","18","15","30","Europe/Kiev","1:30 PM GMT on December 18, 2016","2016","12","18","13","30","UTC","-2.0","28.4","-4.0","24.8","86","18.0","11.2","-9999.0","-9999.0","290","WNW","10.0","6.2","1028","30.36","-7.4","18.7","-9999","-9999","-9999.00","-9999.00","Overcast","cloudy","0","0","0","0","0","0","METAR UKKK 181330Z 29005MPS 9999 OVC007 M02/M04 Q1028 R26/810345 TEMPO 2100 -FZRASN BKN004"
"4:00 PM EET on December 18, 2016","2016","12","18","16","00","Europe/Kiev","2:00 PM GMT on December 18, 2016","2016","12","18","14","00","UTC","-3.0","26.6","-4.0","24.8","93","18.0","11.2","-9999.0","-9999.0","290","WNW","9.0","5.6","1028","30.36","-8.7","16.4","-9999","-9999","-9999.00","-9999.00","Overcast","cloudy","0","0","0","0","0","0","METAR UKKK 181400Z 29005MPS 9000 OVC007 M03/M04 Q1028 R26/810345 TEMPO 2100 -FZRASN BKN004"
"4:30 PM EET on December 18, 2016","2016","12","18","16","30","Europe/Kiev","2:30 PM GMT on December 18, 2016","2016","12","18","14","30","UTC","-3.0","26.6","-4.0","24.8","93","18.0","11.2","-9999.0","-9999.0","300","WNW","9.0","5.6","1028","30.36","-8.7","16.4","-9999","-9999","-9999.00","-9999.00","Overcast","cloudy","0","0","0","0","0","0","METAR UKKK 181430Z 30005MPS 9000 OVC006 M03/M04 Q1028 R26/810345 TEMPO 2100 -FZRASN BKN004"
"5:00 PM EET on December 18, 2016","2016","12","18","17","00","Europe/Kiev","3:00 PM GMT on December 18, 2016","2016","12","18","15","00","UTC","-3","27","-4","25","88","10.8","6.7","","","300","WNW","4","2","1029","30.40","-999","-999","-9999","-9999","","","Mist","hazy","0","0","0","0","0","0","AAXX 18151 33345 41396 83003 11027 21040 30079 40294 54000 71022 886// 333 88707 555 1/103"
"5:00 PM EET on December 18, 2016","2016","12","18","17","00","Europe/Kiev","3:00 PM GMT on December 18, 2016","2016","12","18","15","00","UTC","-3.0","26.6","-4.0","24.8","93","18.0","11.2","-9999.0","-9999.0","320","NW","9.0","5.6","1028","30.36","-8.7","16.4","-9999","-9999","-9999.00","-9999.00","Overcast","cloudy","0","0","0","0","0","0","METAR UKKK 181500Z 32005MPS 9000 OVC006 M03/M04 Q1028 R26/810345 TEMPO 2100 -FZRASN BKN004"
"5:30 PM EET on December 18, 2016","2016","12","18","17","30","Europe/Kiev","3:30 PM GMT on December 18, 2016","2016","12","18","15","30","UTC","-3.0","26.6","-4.0","24.8","93","18.0","11.2","-9999.0","-9999.0","300","WNW","10.0","6.2","1028","30.36","-8.7","16.4","-9999","-9999","-9999.00","-9999.00","Overcast","cloudy","0","0","0","0","0","0","METAR UKKK 181530Z 30005MPS 9999 OVC007 M03/M04 Q1028 R26/810345 TEMPO 2100 -FZRASN OVC004"
"6:00 PM EET on December 18, 2016","2016","12","18","18","00","Europe/Kiev","4:00 PM GMT on December 18, 2016","2016","12","18","16","00","UTC","-3.0","26.6","-5.0","23.0","86","21.6","13.4","-9999.0","-9999.0","290","WNW","10.0","6.2","1028","30.36","-9.3","15.3","-9999","-9999","-9999.00","-9999.00","Overcast","cloudy","0","0","0","0","0","0","METAR UKKK 181600Z 29006MPS 9999 OVC009 M03/M05 Q1028 R26/810345 TEMPO 2100 -FZRASN OVC004"
"6:30 PM EET on December 18, 2016","2016","12","18","18","30","Europe/Kiev","4:30 PM GMT on December 18, 2016","2016","12","18","16","30","UTC","-3.0","26.6","-4.0","24.8","93","18.0","11.2","-9999.0","-9999.0","280","West","10.0","6.2","1028","30.36","-8.7","16.4","-9999","-9999","-9999.00","-9999.00","Overcast","cloudy","0","0","0","0","0","0","METAR UKKK 181630Z 28005MPS 9999 OVC009 M03/M04 Q1028 R26/810345 TEMPO 2100 -FZRASN OVC004"
"7:00 PM EET on December 18, 2016","2016","12","18","19","00","Europe/Kiev","5:00 PM GMT on December 18, 2016","2016","12","18","17","00","UTC","-2.0","28.4","-4.0","24.8","86","21.6","13.4","-9999.0","-9999.0","300","WNW","10.0","6.2","1028","30.36","-8.0","17.6","-9999","-9999","-9999.00","-9999.00","Overcast","cloudy","0","0","0","0","0","0","METAR UKKK 181700Z 30006MPS 9999 OVC009 M02/M04 Q1028 R26/810345 TEMPO 2100 -FZRASN OVC004"
"7:30 PM EET on December 18, 2016","2016","12","18","19","30","Europe/Kiev","5:30 PM GMT on December 18, 2016","2016","12","18","17","30","UTC","-3.0","26.6","-4.0","24.8","93","18.0","11.2","-9999.0","-9999.0","310","NW","10.0","6.2","1027","30.33","-8.7","16.4","-9999","-9999","-9999.00","-9999.00","Overcast","cloudy","0","0","0","0","0","0","METAR UKKK 181730Z 31005MPS 9999 OVC009 M03/M04 Q1027 R26/810345 TEMPO 2100 -FZRASN OVC005"
"8:00 PM EET on December 18, 2016","2016","12","18","20","00","Europe/Kiev","6:00 PM GMT on December 18, 2016","2016","12","18","18","00","UTC","-2","28","-4","25","82","7.2","4.5","","","330","NNW","4","2","1029","30.39","-999","-999","-9999","-9999","","","Mist","hazy","0","0","0","0","0","0","AAXX 18181 33345 31496 83302 11025 21041 30077 40291 58002 71022 886// 333 11016 88710 555 1/103"
"8:00 PM EET on December 18, 2016","2016","12","18","20","00","Europe/Kiev","6:00 PM GMT on December 18, 2016","2016","12","18","18","00","UTC","-3.0","26.6","-4.0","24.8","93","18.0","11.2","-9999.0","-9999.0","300","WNW","10.0","6.2","1027","30.33","-8.7","16.4","-9999","-9999","-9999.00","-9999.00","Overcast","cloudy","0","0","0","0","0","0","METAR UKKK 181800Z 30005MPS 9999 OVC009 M03/M04 Q1027 R26/810345 TEMPO 2100 -FZRASN OVC005"
"8:30 PM EET on December 18, 2016","2016","12","18","20","30","Europe/Kiev","6:30 PM GMT on December 18, 2016","2016","12","18","18","30","UTC","-3.0","26.6","-4.0","24.8","93","18.0","11.2","-9999.0","-9999.0","290","WNW","10.0","6.2","1027","30.33","-8.7","16.4","-9999","-9999","-9999.00","-9999.00","Overcast","cloudy","0","0","0","0","0","0","METAR UKKK 181830Z 29005MPS 9999 OVC008 M03/M04 Q1027 R26/810345 TEMPO 2100 -FZRASN OVC005"
"9:00 PM EET on December 18, 2016","2016","12","18","21","00","Europe/Kiev","7:00 PM GMT on December 18, 2016","2016","12","18","19","00","UTC","-3.0","26.6","-4.0","24.8","93","21.6","13.4","-9999.0","-9999.0","280","West","10.0","6.2","1027","30.33","-9.3","15.3","-9999","-9999","-9999.00","-9999.00","Overcast","cloudy","0","0","0","0","0","0","METAR UKKK 181900Z 28006MPS 9999 OVC008 M03/M04 Q1027 R26/810345 TEMPO 2100 -FZRASN OVC005"
"9:30 PM EET on December 18, 2016","2016","12","18","21","30","Europe/Kiev","7:30 PM GMT on December 18, 2016","2016","12","18","19","30","UTC","-3.0","26.6","-5.0","23.0","86","18.0","11.2","-9999.0","-9999.0","280","West","10.0","6.2","1027","30.33","-8.7","16.4","-9999","-9999","-9999.00","-9999.00","Overcast","cloudy","0","0","0","0","0","0","METAR UKKK 181930Z 28005MPS 9999 OVC008 M03/M05 Q1027 R26/810345 TEMPO 2100 -FZRASN OVC005"
"10:00 PM EET on December 18, 2016","2016","12","18","22","00","Europe/Kiev","8:00 PM GMT on December 18, 2016","2016","12","18","20","00","UTC","-3.0","26.6","-5.0","23.0","86","18.0","11.2","-9999.0","-9999.0","290","WNW","9.0","5.6","1027","30.33","-8.7","16.4","-9999","-9999","-9999.00","-9999.00","Overcast","cloudy","0","0","0","0","0","0","METAR UKKK 182000Z 29005MPS 9000 OVC008 M03/M05 Q1027 R26/810345 TEMPO 2100 -FZRASN OVC005"
"10:30 PM EET on December 18, 2016","2016","12","18","22","30","Europe/Kiev","8:30 PM GMT on December 18, 2016","2016","12","18","20","30","UTC","-3.0","26.6","-5.0","23.0","86","21.6","13.4","-9999.0","-9999.0","310","NW","10.0","6.2","1027","30.33","-9.3","15.3","-9999","-9999","-9999.00","-9999.00","Overcast","cloudy","0","0","0","0","0","0","METAR UKKK 182030Z 31006MPS 9999 OVC008 M03/M05 Q1027 R26/810345 TEMPO 2100 -FZRASN OVC005"
"11:00 PM EET on December 18, 2016","2016","12","18","23","00","Europe/Kiev","9:00 PM GMT on December 18, 2016","2016","12","18","21","00","UTC","-3","26","-4","24","88","10.8","6.7","","","330","NNW","4","2","1029","30.38","-999","-999","-9999","-9999","","","Mist","hazy","0","0","0","0","0","0","AAXX 18211 33345 41396 83303 11031 21045 30072 40287 57005 71022 886// 333 88709 555 1/103"
"11:00 PM EET on December 18, 2016","2016","12","18","23","00","Europe/Kiev","9:00 PM GMT on December 18, 2016","2016","12","18","21","00","UTC","-3.0","26.6","-5.0","23.0","86","21.6","13.4","-9999.0","-9999.0","300","WNW","10.0","6.2","1027","30.33","-9.3","15.3","-9999","-9999","-9999.00","-9999.00","Overcast","cloudy","0","0","0","0","0","0","METAR UKKK 182100Z 30006MPS 9999 OVC008 M03/M05 Q1027 R26/810345 TEMPO 2100 -FZRASN OVC005"
"11:30 PM EET on December 18, 2016","2016","12","18","23","30","Europe/Kiev","9:30 PM GMT on December 18, 2016","2016","12","18","21","30","UTC","-3.0","26.6","-5.0","23.0","86","21.6","13.4","-9999.0","-9999.0","300","WNW","9.0","5.6","1027","30.33","-9.3","15.3","-9999","-9999","-9999.00","-9999.00","Overcast","cloudy","0","0","0","0","0","0","METAR UKKK 182130Z 30006MPS 9000 OVC007 M03/M05 Q1027 R26/810345 TEMPO 2100 -FZRASN OVC005"
"12:00 AM EET on December 19, 2016","2016","12","19","00","00","Europe/Kiev","10:00 PM GMT on December 18, 2016","2016","12","18","22","00","UTC","-3.0","26.6","-5.0","23.0","86","21.6","13.4","-9999.0","-9999.0","310","NW","10.0","6.2","1027","30.33","-9.3","15.3","-9999","-9999","-9999.00","-9999.00","Overcast","cloudy","0","0","0","0","0","0","METAR UKKK 182200Z 31006MPS 9999 OVC006 M03/M05 Q1027 R26/810345 TEMPO 2100 -FZRASN OVC005"
"12:30 AM EET on December 19, 2016","2016","12","19","00","30","Europe/Kiev","10:30 PM GMT on December 18, 2016","2016","12","18","22","30","UTC","-4.0","24.8","-5.0","23.0","93","21.6","13.4","-9999.0","-9999.0","300","WNW","8.0","5.0","1027","30.33","-10.5","13.1","-9999","-9999","-9999.00","-9999.00","Overcast","cloudy","0","0","0","0","0","0","METAR UKKK 182230Z 30006MPS 8000 OVC005 M04/M05 Q1027 R26/810345 TEMPO 2100 -FZRASN OVC004"
"1:00 AM EET on December 19, 2016","2016","12","19","01","00","Europe/Kiev","11:00 PM GMT on December 18, 2016","2016","12","18","23","00","UTC","-4.0","24.8","-5.0","23.0","93","25.2","15.7","-9999.0","-9999.0","310","NW","8.0","5.0","1027","30.33","-11.0","12.1","-9999","-9999","-9999.00","-9999.00","Overcast","cloudy","0","0","0","0","0","0","METAR UKKK 182300Z 31007MPS 8000 OVC005 M04/M05 Q1027 R26/810345 TEMPO 2100 -FZRASN OVC004"
"1:30 AM EET on December 19, 2016","2016","12","19","01","30","Europe/Kiev","11:30 PM GMT on December 18, 2016","2016","12","18","23","30","UTC","-4.0","24.8","-6.0","21.2","86","25.2","15.7","-9999.0","-9999.0","290","WNW","5.0","3.1","1027","30.33","-11.0","12.1","-9999","-9999","-9999.00","-9999.00","Overcast","cloudy","0","0","0","0","0","0","METAR UKKK 182330Z 29007MPS 5000 BR OVC004 M04/M06 Q1027 R26/810345 TEMPO 2100 -FZRASN OVC003"
"2:00 AM EET on December 19, 2016","2016","12","19","02","00","Europe/Kiev","12:00 AM GMT on December 19, 2016","2016","12","19","00","00","UTC","-4","24","-6","22","88","14.4","8.9","","","340","NNW","4","2","1029","30.40","-999","-999","-9999","-9999","","","Mist","hazy","0","0","0","0","0","0","AAXX 19001 33345 31296 83404 11044 21056 30076 40292 53004 71022 886// 333 88706 555 1/104"
"2:00 AM EET on December 19, 2016","2016","12","19","02","00","Europe/Kiev","12:00 AM GMT on December 19, 2016","2016","12","19","00","00","UTC","-5.0","23.0","-6.0","21.2","93","25.2","15.7","-9999.0","-9999.0","310","NW","6.0","3.7","1028","30.36","-12.3","9.8","-9999","-9999","-9999.00","-9999.00","Overcast","cloudy","0","0","0","0","0","0","METAR UKKK 190000Z 31007MPS 6000 OVC005 M05/M06 Q1028 R26/810345 TEMPO OVC004"
"2:03 AM EET on December 19, 2016","2016","12","19","02","03","Europe/Kiev","12:03 AM GMT on December 19, 2016","2016","12","19","00","03","UTC","-5.0","23.0","-6.0","21.2","93","21.6","13.4","-9999.0","-9999.0","310","NW","-9999.0","-9999.0","1027","30.33","-11.8","10.8","-9999","-9999","-9999.00","-9999.00","Overcast","cloudy","0","0","0","0","0","0","SPECI UKKK 190003Z 31006MPS 4400 BR OVC004 M05/M06 Q1027 R26/810345 TEMPO OVC003"
"2:30 AM EET on December 19, 2016","2016","12","19","02","30","Europe/Kiev","12:30 AM GMT on December 19, 2016","2016","12","19","00","30","UTC","-5.0","23.0","-6.0","21.2","93","14.4","8.9","-9999.0","-9999.0","290","WNW","2.9","1.8","1027","30.33","-10.4","13.2","-9999","-9999","-9999.00","-9999.00","Overcast","cloudy","0","0","0","0","0","0","METAR UKKK 190030Z 29004MPS 2900 BR OVC004 M05/M06 Q1027 R26/810345 TEMPO OVC003"
"3:00 AM EET on December 19, 2016","2016","12","19","03","00","Europe/Kiev","1:00 AM GMT on December 19, 2016","2016","12","19","01","00","UTC","-5.0","23.0","-5.0","23.0","100","14.4","8.9","-9999.0","-9999.0","280","West","-9999.0","-9999.0","1027","30.33","-10.4","13.2","-9999","-9999","-9999.00","-9999.00","Overcast","cloudy","0","0","0","0","0","0","METAR UKKK 190100Z 28004MPS 3600 BR OVC004 M05/M05 Q1027 R26/810345 TEMPO OVC003"
"3:30 AM EET on December 19, 2016","2016","12","19","03","30","Europe/Kiev","1:30 AM GMT on December 19, 2016","2016","12","19","01","30","UTC","-4.0","24.8","-5.0","23.0","93","14.4","8.9","-9999.0","-9999.0","270","West","5.0","3.1","1027","30.33","-9.2","15.5","-9999","-9999","-9999.00","-9999.00","Overcast","cloudy","0","0","0","0","0","0","METAR UKKK 190130Z 27004MPS 5000 BR OVC006 M04/M05 Q1027 R26/810345 TEMPO OVC003"
"4:00 AM EET on December 19, 2016","2016","12","19","04","00","Europe/Kiev","2:00 AM GMT on December 19, 2016","2016","12","19","02","00","UTC","-4.0","24.8","-5.0","23.0","93","18.0","11.2","-9999.0","-9999.0","270","West","2.8","1.7","1027","30.33","-9.9","14.2","-9999","-9999","-9999.00","-9999.00","Overcast","cloudy","0","0","0","0","0","0","METAR UKKK 190200Z 27005MPS 2800 BR OVC005 M04/M05 Q1027 R26/810345 TEMPO OVC004"
"4:05 AM EET on December 19, 2016","2016","12","19","04","05","Europe/Kiev","2:05 AM GMT on December 19, 2016","2016","12","19","02","05","UTC","-4.0","24.8","-5.0","23.0","93","18.0","11.2","-9999.0","-9999.0","270","West","2.3","1.4","1027","30.33","-9.9","14.2","-9999","-9999","-9999.00","-9999.00","Overcast","cloudy","0","0","0","0","0","0","SPECI UKKK 190205Z 27005MPS 2300 BR OVC004 M04/M05 Q1027 R26/810345 TEMPO 1200 BR OVC004"
"4:30 AM EET on December 19, 2016","2016","12","19","04","30","Europe/Kiev","2:30 AM GMT on December 19, 2016","2016","12","19","02","30","UTC","-4.0","24.8","-5.0","23.0","93","18.0","11.2","-9999.0","-9999.0","270","West","3.5","2.2","1026","30.30","-9.9","14.2","-9999","-9999","-9999.00","-9999.00","Light Freezing Drizzle","rain","0","0","0","0","0","0","METAR UKKK 190230Z 27005MPS 3500 -FZDZ BR OVC004 M04/M05 Q1026 R26/810345 TEMPO 1200 -FZDZ BR OVC003"
"5:00 AM EET on December 19, 2016","2016","12","19","05","00","Europe/Kiev","3:00 AM GMT on December 19, 2016","2016","12","19","03","00","UTC","-4","25","-5","23","89","10.8","6.7","","","310","NW","4","2","1028","30.36","-999","-999","-9999","-9999","","","Mist","hazy","0","0","0","0","0","0","AAXX 19031 33345 41296 83103 11041 21050 30064 40280 58012 71022 886// 333 88706 555 1/104"
"5:00 AM EET on December 19, 2016","2016","12","19","05","00","Europe/Kiev","3:00 AM GMT on December 19, 2016","2016","12","19","03","00","UTC","-4.0","24.8","-5.0","23.0","93","21.6","13.4","-9999.0","-9999.0","270","West","-9999.0","-9999.0","1026","30.30","-10.5","13.1","-9999","-9999","-9999.00","-9999.00","Light Freezing Drizzle","rain","0","0","0","0","0","0","METAR UKKK 190300Z 27006MPS 4200 -FZDZ BR OVC004 M04/M05 Q1026 R26/810345 TEMPO 1200 -FZDZ BR OVC003"
"5:30 AM EET on December 19, 2016","2016","12","19","05","30","Europe/Kiev","3:30 AM GMT on December 19, 2016","2016","12","19","03","30","UTC","-4.0","24.8","-5.0","23.0","93","21.6","13.4","-9999.0","-9999.0","270","West","-9999.0","-9999.0","1026","30.30","-10.5","13.1","-9999","-9999","-9999.00","-9999.00","Light Snow","snow","0","0","1","0","0","0","METAR UKKK 190330Z 27006MPS 4600 -SN BR OVC004 M04/M05 Q1026 REFZDZ R26/810345 TEMPO 1200 -FZDZ BR OVC003"
"6:00 AM EET on December 19, 2016","2016","12","19","06","00","Europe/Kiev","4:00 AM GMT on December 19, 2016","2016","12","19","04","00","UTC","-3.0","26.6","-4.0","24.8","93","21.6","13.4","-9999.0","-9999.0","270","West","5.0","3.1","1026","30.30","-9.3","15.3","-9999","-9999","-9999.00","-9999.00","Light Snow","snow","0","0","1","0","0","0","METAR UKKK 190400Z 27006MPS 5000 -SN BR OVC005 M03/M04 Q1026 R26/810345 TEMPO 1200 -FZDZ BR OVC003"
"6:30 AM EET on December 19, 2016","2016","12","19","06","30","Europe/Kiev","4:30 AM GMT on December 19, 2016","2016","12","19","04","30","UTC","-3.0","26.6","-4.0","24.8","93","21.6","13.4","-9999.0","-9999.0","270","West","-9999.0","-9999.0","1026","30.30","-9.3","15.3","-9999","-9999","-9999.00","-9999.00","Light Snow","snow","0","0","1","0","0","0","METAR UKKK 190430Z 27006MPS 3800 -SN BR BKN007 OVC018 M03/M04 Q1026 R26/810345 TEMPO 1200 -FZDZ BR OVC003"
"7:00 AM EET on December 19, 2016","2016","12","19","07","00","Europe/Kiev","5:00 AM GMT on December 19, 2016","2016","12","19","05","00","UTC","-3.0","26.6","-4.0","24.8","93","21.6","13.4","-9999.0","-9999.0","280","West","-9999.0","-9999.0","1026","30.30","-9.3","15.3","-9999","-9999","-9999.00","-9999.00","Light Snow","snow","0","0","1","0","0","0","METAR UKKK 190500Z 28006MPS 3400 -SN BR BKN007 OVC016 M03/M04 Q1026 R26/810345 TEMPO 1200 -FZDZ BR OVC003"
"7:30 AM EET on December 19, 2016","2016","12","19","07","30","Europe/Kiev","5:30 AM GMT on December 19, 2016","2016","12","19","05","30","UTC","-3.0","26.6","-4.0","24.8","93","18.0","11.2","-9999.0","-9999.0","280","West","5.0","3.1","1026","30.30","-8.7","16.4","-9999","-9999","-9999.00","-9999.00","Light Snow","snow","0","0","1","0","0","0","METAR UKKK 190530Z 28005MPS 5000 -SN BR BKN007 OVC016 M03/M04 Q1026 R26/590240 TEMPO 1200 -FZDZ BR OVC003"
"8:00 AM EET on December 19, 2016","2016","12","19","08","00","Europe/Kiev","6:00 AM GMT on December 19, 2016","2016","12","19","06","00","UTC","-3","26","-4","24","89","14.4","8.9","","","320","NW","4","2","1027","30.34","-999","-999","-9999","-9999","","","Light Snow","snow","0","0","1","0","0","0","AAXX 19061 33345 11396 83204 11033 21044 30058 40273 57006 69922 77172 8872/ 333 21046 47004 88708 555 1/103"
"8:00 AM EET on December 19, 2016","2016","12","19","08","00","Europe/Kiev","6:00 AM GMT on December 19, 2016","2016","12","19","06","00","UTC","-3.0","26.6","-4.0","24.8","93","18.0","11.2","-9999.0","-9999.0","280","West","2.3","1.4","1026","30.30","-8.7","16.4","-9999","-9999","-9999.00","-9999.00","Light Snow","snow","0","0","1","0","0","0","METAR UKKK 190600Z 28005MPS 2300 -SN BR BKN007 OVC016 M03/M04 Q1026 R26/590240 TEMPO 1200 -FZRASN BR OVC003"
"8:30 AM EET on December 19, 2016","2016","12","19","08","30","Europe/Kiev","6:30 AM GMT on December 19, 2016","2016","12","19","06","30","UTC","-3.0","26.6","-4.0","24.8","93","18.0","11.2","-9999.0","-9999.0","280","West","-9999.0","-9999.0","1026","30.30","-8.7","16.4","-9999","-9999","-9999.00","-9999.00","Light Snow","snow","0","0","1","0","0","0","METAR UKKK 190630Z 28005MPS 4900 -SN BR BKN007 OVC019 M03/M04 Q1026 R26/590240 TEMPO 1200 -FZRASN BR OVC003"
"9:00 AM EET on December 19, 2016","2016","12","19","09","00","Europe/Kiev","7:00 AM GMT on December 19, 2016","2016","12","19","07","00","UTC","-2.0","28.4","-4.0","24.8","86","18.0","11.2","-9999.0","-9999.0","270","West","2.6","1.6","1025","30.27","-7.4","18.7","-9999","-9999","-9999.00","-9999.00","Light Snow","snow","0","0","1","0","0","0","METAR UKKK 190700Z 27005MPS 2600 -SN BR BKN007 OVC019 M02/M04 Q1025 R26/590240 TEMPO 1200 -FZRASN BR OVC006"
"9:30 AM EET on December 19, 2016","2016","12","19","09","30","Europe/Kiev","7:30 AM GMT on December 19, 2016","2016","12","19","07","30","UTC","-2.0","28.4","-4.0","24.8","86","18.0","11.2","-9999.0","-9999.0","270","West","7.0","4.3","1025","30.27","-7.4","18.7","-9999","-9999","-9999.00","-9999.00","Overcast","cloudy","0","0","0","0","0","0","METAR UKKK 190730Z 27005MPS 7000 OVC006 M02/M04 Q1025 R26/590240 TEMPO 1200 -FZRASN BR OVC005"
"10:00 AM EET on December 19, 2016","2016","12","19","10","00","Europe/Kiev","8:00 AM GMT on December 19, 2016","2016","12","19","08","00","UTC","-2.0","28.4","-3.0","26.6","93","21.6","13.4","-9999.0","-9999.0","280","West","8.0","5.0","1025","30.27","-8.0","17.6","-9999","-9999","-9999.00","-9999.00","Overcast","cloudy","0","0","0","0","0","0","METAR UKKK 190800Z 28006MPS 8000 OVC006 M02/M03 Q1025 R26/590240 TEMPO 2000 -FZRASN BR OVC005"
"10:30 AM EET on December 19, 2016","2016","12","19","10","30","Europe/Kiev","8:30 AM GMT on December 19, 2016","2016","12","19","08","30","UTC","-2.0","28.4","-3.0","26.6","93","21.6","13.4","-9999.0","-9999.0","280","West","7.0","4.3","1025","30.27","-8.0","17.6","-9999","-9999","-9999.00","-9999.00","Overcast","cloudy","0","0","0","0","0","0","METAR UKKK 190830Z 28006MPS 7000 OVC006 M02/M03 Q1025 R26/590145 TEMPO 2000 -FZRASN BR OVC005"
"11:00 AM EET on December 19, 2016","2016","12","19","11","00","Europe/Kiev","9:00 AM GMT on December 19, 2016","2016","12","19","09","00","UTC","-2","29","-3","27","90","10.8","6.7","","","320","NW","4","2","1026","30.30","-999","-999","-9999","-9999","","","Mist","hazy","0","0","0","0","0","0","AAXX 19091 33345 41296 83203 11016 21027 30047 40260 52011 71072 886// 333 88706 555 1/101"
"11:00 AM EET on December 19, 2016","2016","12","19","11","00","Europe/Kiev","9:00 AM GMT on December 19, 2016","2016","12","19","09","00","UTC","-1.0","30.2","-3.0","26.6","86","21.6","13.4","-9999.0","-9999.0","280","West","7.0","4.3","1025","30.27","-6.7","19.9","-9999","-9999","-9999.00","-9999.00","Overcast","cloudy","0","0","0","0","0","0","METAR UKKK 190900Z 28006MPS 7000 OVC005 M01/M03 Q1025 R26/590145 TEMPO 2000 -FZRASN BR OVC004"
"11:30 AM EET on December 19, 2016","2016","12","19","11","30","Europe/Kiev","9:30 AM GMT on December 19, 2016","2016","12","19","09","30","UTC","-1.0","30.2","-2.0","28.4","93","25.2","15.7","-9999.0","-9999.0","280","West","6.0","3.7","1024","30.24","-7.2","19.1","-9999","-9999","-9999.00","-9999.00","Overcast","cloudy","0","0","0","0","0","0","METAR UKKK 190930Z 28007MPS 6000 OVC005 M01/M02 Q1024 R26/590145 TEMPO 2000 -FZRASN BR OVC004"
"12:00 PM EET on December 19, 2016","2016","12","19","12","00","Europe/Kiev","10:00 AM GMT on December 19, 2016","2016","12","19","10","00","UTC","-1.0","30.2","-2.0","28.4","93","21.6","13.4","-9999.0","-9999.0","290","WNW","7.0","4.3","1024","30.24","-6.7","19.9","-9999","-9999","-9999.00","-9999.00","Overcast","cloudy","0","0","0","0","0","0","METAR UKKK 191000Z 29006MPS 7000 OVC006 M01/M02 Q1024 R26/590145 TEMPO 2000 -FZRASN BR OVC004"
"12:30 PM EET on December 19, 2016","2016","12","19","12","30","Europe/Kiev","10:30 AM GMT on December 19, 2016","2016","12","19","10","30","UTC","-1.0","30.2","-2.0","28.4","93","21.6","13.4","-9999.0","-9999.0","290","WNW","7.0","4.3","1024","30.24","-6.7","19.9","-9999","-9999","-9999.00","-9999.00","Overcast","cloudy","0","0","0","0","0","0","METAR UKKK 191030Z 29006MPS 7000 OVC005 M01/M02 Q1024 R26/590145 TEMPO 2000 -FZRASN BR OVC004"
"1:00 PM EET on December 19, 2016","2016","12","19","13","00","Europe/Kiev","11:00 AM GMT on December 19, 2016","2016","12","19","11","00","UTC","0.0","32.0","-1.0","30.2","93","21.6","13.4","-9999.0","-9999.0","290","WNW","7.0","4.3","1024","30.24","-5.4","22.2","-9999","-9999","-9999.00","-9999.00","Overcast","cloudy","0","0","0","0","0","0","METAR UKKK 191100Z 29006MPS 7000 OVC005 M00/M01 Q1024 R26/590145 TEMPO 2000 -FZRASN BR OVC004"
"1:30 PM EET on December 19, 2016","2016","12","19","13","30","Europe/Kiev","11:30 AM GMT on December 19, 2016","2016","12","19","11","30","UTC","0.0","32.0","-1.0","30.2","93","21.6","13.4","-9999.0","-9999.0","290","WNW","7.0","4.3","1024","30.24","-5.4","22.2","-9999","-9999","-9999.00","-9999.00","Overcast","cloudy","0","0","0","0","0","0","METAR UKKK 191130Z 29006MPS 7000 OVC005 00/M01 Q1024 R26/590145 TEMPO 2000 -FZRASN BR OVC004"
"2:00 PM EET on December 19, 2016","2016","12","19","14","00","Europe/Kiev","12:00 PM GMT on December 19, 2016","2016","12","19","12","00","UTC","0","32","-1","30","91","10.8","6.7","","","330","NNW","4","2","1025","30.27","-999","-999","-9999","-9999","","","Mist","hazy","0","0","0","0","0","0","AAXX 19121 33345 /1296 83303 10002 21009 30037 40248 57010 71072 886// 333 88706 555 1/100 69901"
"2:00 PM EET on December 19, 2016","2016","12","19","14","00","Europe/Kiev","12:00 PM GMT on December 19, 2016","2016","12","19","12","00","UTC","0.0","32.0","-1.0","30.2","93","21.6","13.4","-9999.0","-9999.0","290","WNW","7.0","4.3","1024","30.24","-5.4","22.2","-9999","-9999","-9999.00","-9999.00","Overcast","cloudy","0","0","0","0","0","0","METAR UKKK 191200Z 29006MPS 7000 OVC005 00/M01 Q1024 R26/290150 TEMPO 2000 -FZRASN BR OVC004"
"2:12 PM EET on December 19, 2016","2016","12","19","14","12","Europe/Kiev","12:12 PM GMT on December 19, 2016","2016","12","19","12","12","UTC","0.0","32.0","-1.0","30.2","93","21.6","13.4","-9999.0","-9999.0","300","WNW","7.0","4.3","1024","30.24","-5.4","22.2","-9999","-9999","-9999.00","-9999.00","Overcast","cloudy","0","0","0","0","0","0","SPECI UKKK 191212Z 30006MPS 7000 OVC004 00/M01 Q1024 R26/290150 TEMPO 2000 -FZRASN BR OVC003"
"2:30 PM EET on December 19, 2016","2016","12","19","14","30","Europe/Kiev","12:30 PM GMT on December 19, 2016","2016","12","19","12","30","UTC","1.0","33.8","0.0","32.0","93","21.6","13.4","-9999.0","-9999.0","300","WNW","6.0","3.7","1024","30.24","-4.2","24.5","-9999","-9999","-9999.00","-9999.00","Overcast","cloudy","0","0","0","0","0","0","METAR UKKK 191230Z 30006MPS 6000 OVC004 01/M00 Q1024 R26/290150 TEMPO 2000 -FZRASN BR OVC003"
"3:00 PM EET on December 19, 2016","2016","12","19","15","00","Europe/Kiev","1:00 PM GMT on December 19, 2016","2016","12","19","13","00","UTC","1.0","33.8","0.0","32.0","93","21.6","13.4","-9999.0","-9999.0","310","NW","7.0","4.3","1024","30.24","-4.2","24.5","-9999","-9999","-9999.00","-9999.00","Overcast","cloudy","0","0","0","0","0","0","METAR UKKK 191300Z 31006MPS 7000 OVC004 01/M00 Q1024 R26/290150 TEMPO 2000 -FZRASN BR OVC003"
"3:30 PM EET on December 19, 2016","2016","12","19","15","30","Europe/Kiev","1:30 PM GMT on December 19, 2016","2016","12","19","13","30","UTC","1.0","33.8","0.0","32.0","93","21.6","13.4","-9999.0","-9999.0","300","WNW","7.0","4.3","1024","30.24","-4.2","24.5","-9999","-9999","-9999.00","-9999.00","Overcast","cloudy","0","0","0","0","0","0","METAR UKKK 191330Z 30006MPS 7000 OVC004 01/00 Q1024 R26/290150 TEMPO 2000 -FZRASN BR OVC003"
"3:48 PM EET on December 19, 2016","2016","12","19","15","48","Europe/Kiev","1:48 PM GMT on December 19, 2016","2016","12","19","13","48","UTC","1.0","33.8","0.0","32.0","93","21.6","13.4","-9999.0","-9999.0","300","WNW","7.0","4.3","1024","30.24","-4.2","24.5","-9999","-9999","-9999.00","-9999.00","Overcast","cloudy","0","0","0","0","0","0","SPECI UKKK 191348Z 30006MPS 7000 OVC005 01/00 Q1024 R26/290150 TEMPO 2000 -FZRASN BR OVC003"
"4:00 PM EET on December 19, 2016","2016","12","19","16","00","Europe/Kiev","2:00 PM GMT on December 19, 2016","2016","12","19","14","00","UTC","1.0","33.8","0.0","32.0","93","21.6","13.4","-9999.0","-9999.0","300","WNW","8.0","5.0","1024","30.24","-4.2","24.5","-9999","-9999","-9999.00","-9999.00","Overcast","cloudy","0","0","0","0","0","0","METAR UKKK 191400Z 30006MPS 8000 OVC005 01/00 Q1024 R26/290150 TEMPO 2000 -FZRASN BR OVC003"
"4:30 PM EET on December 19, 2016","2016","12","19","16","30","Europe/Kiev","2:30 PM GMT on December 19, 2016","2016","12","19","14","30","UTC","1.0","33.8","0.0","32.0","93","21.6","13.4","-9999.0","-9999.0","300","WNW","8.0","5.0","1024","30.24","-4.2","24.5","-9999","-9999","-9999.00","-9999.00","Overcast","cloudy","0","0","0","0","0","0","METAR UKKK 191430Z 30006MPS 8000 OVC005 01/00 Q1024 R26/290150 TEMPO 2000 -FZRASN BR OVC003"
"5:00 PM EET on December 19, 2016","2016","12","19","17","00","Europe/Kiev","3:00 PM GMT on December 19, 2016","2016","12","19","15","00","UTC","1","34","0","33","94","14.4","8.9","","","340","NNW","4","2","1025","30.26","-999","-999","-9999","-9999","","","Mist","hazy","0","0","0","0","0","0","AAXX 19151 33345 41296 83404 10013 20005 30036 40246 56001 71022 886// 333 88706 555 1/000"
"5:00 PM EET on December 19, 2016","2016","12","19","17","00","Europe/Kiev","3:00 PM GMT on December 19, 2016","2016","12","19","15","00","UTC","1.0","33.8","0.0","32.0","93","21.6","13.4","-9999.0","-9999.0","310","NW","9.0","5.6","1023","30.21","-4.2","24.5","-9999","-9999","-9999.00","-9999.00","Overcast","cloudy","0","0","0","0","0","0","METAR UKKK 191500Z 31006MPS 280V340 9000 OVC005 01/00 Q1023 R26/290150 TEMPO OVC004"
"5:30 PM EET on December 19, 2016","2016","12","19","17","30","Europe/Kiev","3:30 PM GMT on December 19, 2016","2016","12","19","15","30","UTC","1.0","33.8","0.0","32.0","93","21.6","13.4","-9999.0","-9999.0","310","NW","9.0","5.6","1023","30.21","-4.2","24.5","-9999","-9999","-9999.00","-9999.00","Overcast","cloudy","0","0","0","0","0","0","METAR UKKK 191530Z 31006MPS 9000 OVC006 01/00 Q1023 R26/290150 TEMPO OVC004"
"6:00 PM EET on December 19, 2016","2016","12","19","18","00","Europe/Kiev","4:00 PM GMT on December 19, 2016","2016","12","19","16","00","UTC","1.0","33.8","0.0","32.0","93","21.6","13.4","-9999.0","-9999.0","300","WNW","9.0","5.6","1023","30.21","-4.2","24.5","-9999","-9999","-9999.00","-9999.00","Light Rain","rain","0","1","0","0","0","0","METAR UKKK 191600Z 30006MPS 9000 -RA OVC005 01/00 Q1023 R26/290150 TEMPO OVC004"
"6:22 PM EET on December 19, 2016","2016","12","19","18","22","Europe/Kiev","4:22 PM GMT on December 19, 2016","2016","12","19","16","22","UTC","1.0","33.8","0.0","32.0","93","21.6","13.4","-9999.0","-9999.0","300","WNW","9.0","5.6","1023","30.21","-4.2","24.5","-9999","-9999","-9999.00","-9999.00","Overcast","cloudy","0","0","0","0","0","0","SPECI UKKK 191622Z 30006MPS 9000 OVC004 01/00 Q1023 R26/290150 TEMPO OVC003"
"6:30 PM EET on December 19, 2016","2016","12","19","18","30","Europe/Kiev","4:30 PM GMT on December 19, 2016","2016","12","19","16","30","UTC","1.0","33.8","0.0","32.0","93","21.6","13.4","-9999.0","-9999.0","310","NW","8.0","5.0","1023","30.21","-4.2","24.5","-9999","-9999","-9999.00","-9999.00","Overcast","cloudy","0","0","0","0","0","0","METAR UKKK 191630Z 31006MPS 8000 OVC004 01/00 Q1023 R26/290150 TEMPO OVC003"
"7:00 PM EET on December 19, 2016","2016","12","19","19","00","Europe/Kiev","5:00 PM GMT on December 19, 2016","2016","12","19","17","00","UTC","1.0","33.8","0.0","32.0","93","21.6","13.4","-9999.0","-9999.0","310","NW","6.0","3.7","1023","30.21","-4.2","24.5","-9999","-9999","-9999.00","-9999.00","Overcast","cloudy","0","0","0","0","0","0","METAR UKKK 191700Z 31006MPS 6000 OVC004 01/00 Q1023 R26/290150 TEMPO OVC003"
"7:30 PM EET on December 19, 2016","2016","12","19","19","30","Europe/Kiev","5:30 PM GMT on December 19, 2016","2016","12","19","17","30","UTC","1.0","33.8","1.0","33.8","100","25.2","15.7","-9999.0","-9999.0","310","NW","8.0","5.0","1023","30.21","-4.6","23.7","-9999","-9999","-9999.00","-9999.00","Overcast","cloudy","0","0","0","0","0","0","METAR UKKK 191730Z 31007MPS 8000 OVC004 01/01 Q1023 R26/290150 TEMPO OVC003"
"8:00 PM EET on December 19, 2016","2016","12","19","20","00","Europe/Kiev","6:00 PM GMT on December 19, 2016","2016","12","19","18","00","UTC","1","35","1","33","90","10.8","6.7","","","340","NNW","4","2","1024","30.24","-999","-999","-9999","-9999","","","Mist","hazy","0","0","0","0","0","0","AAXX 19181 33345 11296 83403 10014 20006 30028 40238 58008 69902 71022 886// 333 10014 88706 555 1/000"
"8:00 PM EET on December 19, 2016","2016","12","19","20","00","Europe/Kiev","6:00 PM GMT on December 19, 2016","2016","12","19","18","00","UTC","1.0","33.8","1.0","33.8","100","21.6","13.4","-9999.0","-9999.0","310","NW","8.0","5.0","1023","30.21","-4.2","24.5","-9999","-9999","-9999.00","-9999.00","Light Rain","rain","0","1","0","0","0","0","METAR UKKK 191800Z 31006MPS 8000 -RA BKN004 OVC020 01/01 Q1023 R26/290150 TEMPO OVC003"
"8:30 PM EET on December 19, 2016","2016","12","19","20","30","Europe/Kiev","6:30 PM GMT on December 19, 2016","2016","12","19","18","30","UTC","1.0","33.8","1.0","33.8","100","21.6","13.4","-9999.0","-9999.0","300","WNW","9.0","5.6","1023","30.21","-4.2","24.5","-9999","-9999","-9999.00","-9999.00","Light Rain","rain","0","1","0","0","0","0","METAR UKKK 191830Z 30006MPS 9000 -RA BKN005 OVC020 01/01 Q1023 R26/290150 TEMPO OVC003"
"9:00 PM EET on December 19, 2016","2016","12","19","21","00","Europe/Kiev","7:00 PM GMT on December 19, 2016","2016","12","19","19","00","UTC","1.0","33.8","1.0","33.8","100","18.0","11.2","-9999.0","-9999.0","300","WNW","9.0","5.6","1023","30.21","-3.7","25.4","-9999","-9999","-9999.00","-9999.00","Light Rain","rain","0","1","0","0","0","0","METAR UKKK 191900Z 30005MPS 9000 -RA BKN005 OVC020 01/01 Q1023 R26/290150 TEMPO OVC003"
"9:30 PM EET on December 19, 2016","2016","12","19","21","30","Europe/Kiev","7:30 PM GMT on December 19, 2016","2016","12","19","19","30","UTC","1.0","33.8","1.0","33.8","100","18.0","11.2","-9999.0","-9999.0","310","NW","9.0","5.6","1023","30.21","-3.7","25.4","-9999","-9999","-9999.00","-9999.00","Light Rain","snow","0","1","1","0","0","0","METAR UKKK 191930Z 31005MPS 9000 -RASN BKN005 OVC020 01/01 Q1023 R26/290150 TEMPO OVC003"
"10:00 PM EET on December 19, 2016","2016","12","19","22","00","Europe/Kiev","8:00 PM GMT on December 19, 2016","2016","12","19","20","00","UTC","1.0","33.8","1.0","33.8","100","18.0","11.2","-9999.0","-9999.0","300","WNW","9.0","5.6","1023","30.21","-3.7","25.4","-9999","-9999","-9999.00","-9999.00","Light Rain","snow","0","1","1","0","0","0","METAR UKKK 192000Z 30005MPS 9000 -RASN BKN005 OVC020 01/01 Q1023 R26/290150 TEMPO OVC003"
"10:30 PM EET on December 19, 2016","2016","12","19","22","30","Europe/Kiev","8:30 PM GMT on December 19, 2016","2016","12","19","20","30","UTC","1.0","33.8","1.0","33.8","100","18.0","11.2","-9999.0","-9999.0","300","WNW","7.0","4.3","1023","30.21","-3.7","25.4","-9999","-9999","-9999.00","-9999.00","Light Rain","snow","0","1","1","0","0","0","METAR UKKK 192030Z 30005MPS 7000 -RASN BKN005 OVC020 01/01 Q1023 R26/290150 TEMPO OVC003"
"11:00 PM EET on December 19, 2016","2016","12","19","23","00","Europe/Kiev","9:00 PM GMT on December 19, 2016","2016","12","19","21","00","UTC","1","35","1","33","90","10.8","6.7","","","350","North","4","2","1024","30.24","-999","-999","-9999","-9999","","","Light Snow","snow","0","0","1","0","0","0","AAXX 19211 33345 41396 83503 10014 20006 30030 40240 53002 77172 8872/ 333 88707 555 1/000"
"11:00 PM EET on December 19, 2016","2016","12","19","23","00","Europe/Kiev","9:00 PM GMT on December 19, 2016","2016","12","19","21","00","UTC","1.0","33.8","0.0","32.0","93","18.0","11.2","-9999.0","-9999.0","300","WNW","9.0","5.6","1023","30.21","-3.7","25.4","-9999","-9999","-9999.00","-9999.00","Light Rain","snow","0","1","1","0","0","0","METAR UKKK 192100Z 30005MPS 9000 -RASN BKN005 OVC020 01/00 Q1023 R26/290150 TEMPO OVC003"
"11:30 PM EET on December 19, 2016","2016","12","19","23","30","Europe/Kiev","9:30 PM GMT on December 19, 2016","2016","12","19","21","30","UTC","1.0","33.8","0.0","32.0","93","18.0","11.2","-9999.0","-9999.0","310","NW","7.0","4.3","1023","30.21","-3.7","25.4","-9999","-9999","-9999.00","-9999.00","Light Snow","snow","0","1","1","0","0","0","METAR UKKK 192130Z 31005MPS 7000 -SNRA BKN004 OVC020 01/00 Q1023 R26/290150 TEMPO OVC003"
"12:00 AM EET on December 20, 2016","2016","12","20","00","00","Europe/Kiev","10:00 PM GMT on December 19, 2016","2016","12","19","22","00","UTC","1.0","33.8","0.0","32.0","93","18.0","11.2","-9999.0","-9999.0","300","WNW","5.0","3.1","1023","30.21","-3.7","25.4","-9999","-9999","-9999.00","-9999.00","Light Snow","snow","0","1","1","0","0","0","METAR UKKK 192200Z 30005MPS 5000 -SNRA BKN004 OVC020 01/00 Q1023 R26/290150 TEMPO 2000 -FZRASN BR OVC003"
"12:30 AM EET on December 20, 2016","2016","12","20","00","30","Europe/Kiev","10:30 PM GMT on December 19, 2016","2016","12","19","22","30","UTC","1.0","33.8","0.0","32.0","93","18.0","11.2","-9999.0","-9999.0","310","NW","9.0","5.6","1023","30.21","-3.7","25.4","-9999","-9999","-9999.00","-9999.00","Light Snow","snow","0","1","1","0","0","0","METAR UKKK 192230Z 31005MPS 9000 -SNRA BKN005 OVC023 01/00 Q1023 R26/290250 TEMPO 2000 -FZRASN BR OVC003"
"1:00 AM EET on December 20, 2016","2016","12","20","01","00","Europe/Kiev","11:00 PM GMT on December 19, 2016","2016","12","19","23","00","UTC","1.0","33.8","0.0","32.0","93","18.0","11.2","-9999.0","-9999.0","310","NW","6.0","3.7","1023","30.21","-3.7","25.4","-9999","-9999","-9999.00","-9999.00","Light Snow","snow","0","1","1","0","0","0","METAR UKKK 192300Z 31005MPS 6000 -SNRA BKN005 OVC023 01/00 Q1023 R26/290250 TEMPO 2100 -FZRASN BR OVC003"
"1:30 AM EET on December 20, 2016","2016","12","20","01","30","Europe/Kiev","11:30 PM GMT on December 19, 2016","2016","12","19","23","30","UTC","1.0","33.8","0.0","32.0","93","21.6","13.4","-9999.0","-9999.0","310","NW","9.0","5.6","1023","30.21","-4.2","24.5","-9999","-9999","-9999.00","-9999.00","Light Snow","snow","0","1","1","0","0","0","METAR UKKK 192330Z 31006MPS 9000 -SNRA BKN005 OVC023 01/00 Q1023 R26/290250 TEMPO 2100 -FZRASN BR OVC003"
"2:00 AM EET on December 20, 2016","2016","12","20","02","00","Europe/Kiev","12:00 AM GMT on December 20, 2016","2016","12","20","00","00","UTC","1","34","0","32","91","10.8","6.7","","","0","North","4","2","1024","30.26","-999","-999","-9999","-9999","","","Light Rain","rain","0","1","0","0","0","0","AAXX 20001 33345 /1396 83603 10010 20002 30034 40245 52004 76176 8872/ 333 88707 555 1/000 69981"
"2:00 AM EET on December 20, 2016","2016","12","20","02","00","Europe/Kiev","12:00 AM GMT on December 20, 2016","2016","12","20","00","00","UTC","1.0","33.8","0.0","32.0","93","14.4","8.9","-9999.0","-9999.0","320","NW","2.9","1.8","1023","30.21","-3.0","26.5","-9999","-9999","-9999.00","-9999.00","Light Snow","snow","0","1","1","0","0","0","METAR UKKK 200000Z 32004MPS 2900 -SNRA BR BKN005 OVC023 01/00 Q1023 R26/290250 TEMPO 2100 -FZRASN BR OVC003"
"2:30 AM EET on December 20, 2016","2016","12","20","02","30","Europe/Kiev","12:30 AM GMT on December 20, 2016","2016","12","20","00","30","UTC","1.0","33.8","0.0","32.0","93","14.4","8.9","-9999.0","-9999.0","320","NW","2.6","1.6","1023","30.21","-3.0","26.5","-9999","-9999","-9999.00","-9999.00","Light Snow","snow","0","1","1","0","0","0","METAR UKKK 200030Z 32004MPS 2600 -SNRA BR BKN005 OVC023 01/00 Q1023 R26/290250 TEMPO 1200 -FZRASN BR OVC003"
"3:00 AM EET on December 20, 2016","2016","12","20","03","00","Europe/Kiev","1:00 AM GMT on December 20, 2016","2016","12","20","01","00","UTC","1.0","33.8","0.0","32.0","93","14.4","8.9","-9999.0","-9999.0","330","NNW","2.6","1.6","1023","30.21","-3.0","26.5","-9999","-9999","-9999.00","-9999.00","Light Snow","snow","0","1","1","0","0","0","METAR UKKK 200100Z 33004MPS 2600 -SNRA BR BKN005 OVC023 01/00 Q1023 R26/290250 TEMPO 1200 -FZRASN BR OVC003"
"3:30 AM EET on December 20, 2016","2016","12","20","03","30","Europe/Kiev","1:30 AM GMT on December 20, 2016","2016","12","20","01","30","UTC","1.0","33.8","0.0","32.0","93","14.4","8.9","-9999.0","-9999.0","330","NNW","-9999.0","-9999.0","1024","30.24","-3.0","26.5","-9999","-9999","-9999.00","-9999.00","Light Snow","snow","0","0","1","0","0","0","METAR UKKK 200130Z 33004MPS 3400 -SN BR BKN005 OVC016 01/00 Q1024 R26/590240 TEMPO 1200 -FZRASN BR OVC003"
"3:46 AM EET on December 20, 2016","2016","12","20","03","46","Europe/Kiev","1:46 AM GMT on December 20, 2016","2016","12","20","01","46","UTC","1.0","33.8","0.0","32.0","93","14.4","8.9","-9999.0","-9999.0","320","NW","2.9","1.8","1024","30.24","-3.0","26.5","-9999","-9999","-9999.00","-9999.00","Light Snow","snow","0","0","1","0","0","0","SPECI UKKK 200146Z 32004MPS 2900 -SN BR BKN004 OVC016 01/00 Q1024 R26/590240 TEMPO 1200 -FZRASN BR OVC003"
"4:00 AM EET on December 20, 2016","2016","12","20","04","00","Europe/Kiev","2:00 AM GMT on December 20, 2016","2016","12","20","02","00","UTC","1.0","33.8","0.0","32.0","93","14.4","8.9","-9999.0","-9999.0","330","NNW","-9999.0","-9999.0","1024","30.24","-3.0","26.5","-9999","-9999","-9999.00","-9999.00","Light Snow","snow","0","0","1","0","0","0","METAR UKKK 200200Z 33004MPS 3700 -SN BR BKN005 OVC014 01/00 Q1024 R26/590240 TEMPO 1200 -FZRASN BR OVC003"
"4:30 AM EET on December 20, 2016","2016","12","20","04","30","Europe/Kiev","2:30 AM GMT on December 20, 2016","2016","12","20","02","30","UTC","1.0","33.8","0.0","32.0","93","10.8","6.7","-9999.0","-9999.0","330","NNW","4.5","2.8","1024","30.24","-2.3","27.9","-9999","-9999","-9999.00","-9999.00","Light Snow","snow","0","0","1","0","0","0","METAR UKKK 200230Z 33003MPS 4500 -SN BR BKN004 OVC014 01/00 Q1024 R26/590240 TEMPO 1200 -FZRASN BR OVC003"
"5:00 AM EET on December 20, 2016","2016","12","20","05","00","Europe/Kiev","3:00 AM GMT on December 20, 2016","2016","12","20","03","00","UTC","1","33","0","32","95","10.8","6.7","","","20","NNE","4","2","1025","30.28","-999","-999","-9999","-9999","","","Light Snow","snow","0","0","1","0","0","0","AAXX 20031 33345 41296 80203 10007 20001 30042 40253 52008 77176 8872/ 333 88706 555 1/100"
"5:00 AM EET on December 20, 2016","2016","12","20","05","00","Europe/Kiev","3:00 AM GMT on December 20, 2016","2016","12","20","03","00","UTC","1.0","33.8","0.0","32.0","93","10.8","6.7","-9999.0","-9999.0","350","North","6.0","3.7","1024","30.24","-2.3","27.9","-9999","-9999","-9999.00","-9999.00","Light Snow","snow","0","0","1","0","0","0","METAR UKKK 200300Z 35003MPS 6000 -SN BKN005 OVC014 01/00 Q1024 R26/590240 TEMPO 2200 -FZRASN BR OVC004"
"5:30 AM EET on December 20, 2016","2016","12","20","05","30","Europe/Kiev","3:30 AM GMT on December 20, 2016","2016","12","20","03","30","UTC","1.0","33.8","0.0","32.0","93","10.8","6.7","-9999.0","-9999.0","360","North","5.0","3.1","1024","30.24","-2.3","27.9","-9999","-9999","-9999.00","-9999.00","Light Snow","snow","0","0","1","0","0","0","METAR UKKK 200330Z 36003MPS 320V030 5000 -SN BR BKN004 OVC014 01/00 Q1024 R26/590240 TEMPO 2200 -FZRASN BR OVC004"
"6:00 AM EET on December 20, 2016","2016","12","20","06","00","Europe/Kiev","4:00 AM GMT on December 20, 2016","2016","12","20","04","00","UTC","1.0","33.8","0.0","32.0","93","10.8","6.7","-9999.0","-9999.0","10","North","6.0","3.7","1025","30.27","-2.3","27.9","-9999","-9999","-9999.00","-9999.00","Light Snow","snow","0","0","1","0","0","0","METAR UKKK 200400Z 01003MPS 340V040 6000 -SN BKN004 OVC014 01/00 Q1025 R26/590240 TEMPO 2200 -FZRASN BR OVC004"
"6:30 AM EET on December 20, 2016","2016","12","20","06","30","Europe/Kiev","4:30 AM GMT on December 20, 2016","2016","12","20","04","30","UTC","1.0","33.8","0.0","32.0","93","14.4","8.9","-9999.0","-9999.0","30","NNE","10.0","6.2","1025","30.27","-3.0","26.5","-9999","-9999","-9999.00","-9999.00","Light Rain","snow","0","1","1","0","0","0","METAR UKKK 200430Z 03004MPS 360V060 9999 -RASN BKN003 OVC014 01/00 Q1025 R26/590240 TEMPO 1200 -FZRASN BR OVC002"
"7:00 AM EET on December 20, 2016","2016","12","20","07","00","Europe/Kiev","5:00 AM GMT on December 20, 2016","2016","12","20","05","00","UTC","1.0","33.8","0.0","32.0","93","10.8","6.7","-9999.0","-9999.0","30","NNE","9.0","5.6","1026","30.30","-2.3","27.9","-9999","-9999","-9999.00","-9999.00","Light Rain","snow","0","1","1","0","0","0","METAR UKKK 200500Z 03003MPS 350V050 9000 -RASN BKN003 OVC010 01/00 Q1026 R26/590240 TEMPO 1200 -FZRASN BR OVC002"
"7:30 AM EET on December 20, 2016","2016","12","20","07","30","Europe/Kiev","5:30 AM GMT on December 20, 2016","2016","12","20","05","30","UTC","1.0","33.8","0.0","32.0","93","10.8","6.7","-9999.0","-9999.0","30","NNE","10.0","6.2","1026","30.30","-2.3","27.9","-9999","-9999","-9999.00","-9999.00","Overcast","cloudy","0","0","0","0","0","0","METAR UKKK 200530Z 03003MPS 9999 BKN006 OVC016 01/00 Q1026 R26/520350 TEMPO 2100 -FZRASN BR OVC004"
"8:00 AM EET on December 20, 2016","2016","12","20","08","00","Europe/Kiev","6:00 AM GMT on December 20, 2016","2016","12","20","06","00","UTC","0","33","-0","32","93","7.2","4.5","","","40","NE","4","2","1028","30.36","-999","-999","-9999","-9999","","","Mist","hazy","0","0","0","0","0","0","AAXX 20061 33345 11396 80402 10005 21001 30068 40280 52026 60032 71072 886// 333 20004 43002 88709 555 1/100"
"8:00 AM EET on December 20, 2016","2016","12","20","08","00","Europe/Kiev","6:00 AM GMT on December 20, 2016","2016","12","20","06","00","UTC","1.0","33.8","0.0","32.0","93","14.4","8.9","-9999.0","-9999.0","40","NE","10.0","6.2","1027","30.33","-3.0","26.5","-9999","-9999","-9999.00","-9999.00","Overcast","cloudy","0","0","0","0","0","0","METAR UKKK 200600Z 04004MPS 010V070 9999 OVC007 01/M00 Q1027 R26/520350 TEMPO 2100 -FZRASN BR OVC004"
"8:30 AM EET on December 20, 2016","2016","12","20","08","30","Europe/Kiev","6:30 AM GMT on December 20, 2016","2016","12","20","06","30","UTC","1.0","33.8","-1.0","30.2","87","10.8","6.7","-9999.0","-9999.0","20","NNE","10.0","6.2","1027","30.33","-2.3","27.9","-9999","-9999","-9999.00","-9999.00","Overcast","cloudy","0","0","0","0","0","0","METAR UKKK 200630Z 02003MPS 9999 OVC016 01/M01 Q1027 R08/520350 TEMPO 2100 -FZRASN BR OVC004"
"9:00 AM EET on December 20, 2016","2016","12","20","09","00","Europe/Kiev","7:00 AM GMT on December 20, 2016","2016","12","20","07","00","UTC","1.0","33.8","-1.0","30.2","87","18.0","11.2","-9999.0","-9999.0","40","NE","8.0","5.0","1028","30.36","-3.7","25.4","-9999","-9999","-9999.00","-9999.00","Light Snow","snow","0","0","1","0","0","0","METAR UKKK 200700Z 04005MPS 8000 -SN SCT007 OVC025 01/M01 Q1028 R08/520350 TEMPO -FZRASN BKN006"
"9:30 AM EET on December 20, 2016","2016","12","20","09","30","Europe/Kiev","7:30 AM GMT on December 20, 2016","2016","12","20","07","30","UTC","1.0","33.8","-1.0","30.2","87","10.8","6.7","-9999.0","-9999.0","60","ENE","10.0","6.2","1028","30.36","-2.3","27.9","-9999","-9999","-9999.00","-9999.00","Light Snow","snow","0","0","1","0","0","0","METAR UKKK 200730Z 06003MPS 9999 -SN SCT008 OVC025 01/M01 Q1028 R08/520350 TEMPO -FZRASN BKN006"
"10:00 AM EET on December 20, 2016","2016","12","20","10","00","Europe/Kiev","8:00 AM GMT on December 20, 2016","2016","12","20","08","00","UTC","1.0","33.8","-1.0","30.2","87","18.0","11.2","-9999.0","-9999.0","40","NE","8.0","5.0","1029","30.39","-3.7","25.4","-9999","-9999","-9999.00","-9999.00","Light Snow","snow","0","0","1","0","0","0","METAR UKKK 200800Z 04005MPS 8000 -SN SCT008 OVC020 01/M01 Q1029 R08/520350 TEMPO -FZRASN BKN006"
"10:30 AM EET on December 20, 2016","2016","12","20","10","30","Europe/Kiev","8:30 AM GMT on December 20, 2016","2016","12","20","08","30","UTC","0.0","32.0","-1.0","30.2","93","10.8","6.7","-9999.0","-9999.0","50","NE","-9999.0","-9999.0","1029","30.39","-3.5","25.7","-9999","-9999","-9999.00","-9999.00","Light Snow","snow","0","0","1","0","0","0","METAR UKKK 200830Z 05003MPS 4800 -SN SCT008 OVC020 00/M01 Q1029 R08/520350 TEMPO 2100 -FZRASN BKN006"
"11:00 AM EET on December 20, 2016","2016","12","20","11","00","Europe/Kiev","9:00 AM GMT on December 20, 2016","2016","12","20","09","00","UTC","0","33","-1","31","88","7.2","4.5","","","50","NE","4","2","1031","30.44","-999","-999","-9999","-9999","","","Light Snow","snow","0","0","1","0","0","0","AAXX 20091 33345 41496 80502 10004 21007 30095 40307 52027 77072 885// 555 1/000"
"11:00 AM EET on December 20, 2016","2016","12","20","11","00","Europe/Kiev","9:00 AM GMT on December 20, 2016","2016","12","20","09","00","UTC","1.0","33.8","-1.0","30.2","87","10.8","6.7","-9999.0","-9999.0","30","NNE","10.0","6.2","1029","30.39","-2.3","27.9","-9999","-9999","-9999.00","-9999.00","Overcast","cloudy","0","0","0","0","0","0","METAR UKKK 200900Z 03003MPS 9999 SCT010 OVC021 01/M01 Q1029 R08/520350 TEMPO 2100 -FZRASN BKN006"
"11:30 AM EET on December 20, 2016","2016","12","20","11","30","Europe/Kiev","9:30 AM GMT on December 20, 2016","2016","12","20","09","30","UTC","1.0","33.8","-2.0","28.4","81","14.4","8.9","-9999.0","-9999.0","40","NE","9.0","5.6","1030","30.42","-3.0","26.5","-9999","-9999","-9999.00","-9999.00","Overcast","cloudy","0","0","0","0","0","0","METAR UKKK 200930Z 04004MPS 010V070 9000 OVC013 01/M02 Q1030 R08/520350 TEMPO 2100 -FZRASN BKN006"
"12:00 PM EET on December 20, 2016","2016","12","20","12","00","Europe/Kiev","10:00 AM GMT on December 20, 2016","2016","12","20","10","00","UTC","0.0","32.0","-1.0","30.2","93","10.8","6.7","-9999.0","-9999.0","50","NE","10.0","6.2","1030","30.42","-3.5","25.7","-9999","-9999","-9999.00","-9999.00","Overcast","cloudy","0","0","0","0","0","0","METAR UKKK 201000Z 05003MPS 9999 OVC008 00/M01 Q1030 R08/520350 NOSIG"
"12:30 PM EET on December 20, 2016","2016","12","20","12","30","Europe/Kiev","10:30 AM GMT on December 20, 2016","2016","12","20","10","30","UTC","0.0","32.0","-1.0","30.2","93","14.4","8.9","-9999.0","-9999.0","70","ENE","9.0","5.6","1030","30.42","-4.3","24.3","-9999","-9999","-9999.00","-9999.00","Overcast","cloudy","0","0","0","0","0","0","METAR UKKK 201030Z 07004MPS 9000 OVC008 00/M01 Q1030 R08/520350 NOSIG"
"1:00 PM EET on December 20, 2016","2016","12","20","13","00","Europe/Kiev","11:00 AM GMT on December 20, 2016","2016","12","20","11","00","UTC","0.0","32.0","-2.0","28.4","87","10.8","6.7","-9999.0","-9999.0","90","East","10.0","6.2","1031","30.45","-3.5","25.7","-9999","-9999","-9999.00","-9999.00","Overcast","cloudy","0","0","0","0","0","0","METAR UKKK 201100Z 09003MPS 9999 OVC010 M00/M02 Q1031 R08/520350 NOSIG"
"1:30 PM EET on December 20, 2016","2016","12","20","13","30","Europe/Kiev","11:30 AM GMT on December 20, 2016","2016","12","20","11","30","UTC","0.0","32.0","-2.0","28.4","87","14.4","8.9","-9999.0","-9999.0","80","East","10.0","6.2","1031","30.45","-4.3","24.3","-9999","-9999","-9999.00","-9999.00","Light Snow","snow","0","0","1","0","0","0","METAR UKKK 201130Z 08004MPS 9999 -SN OVC011 M00/M02 Q1031 R08/520350 NOSIG"
"2:00 PM EET on December 20, 2016","2016","12","20","14","00","Europe/Kiev","12:00 PM GMT on December 20, 2016","2016","12","20","12","00","UTC","-0","31","-2","28","82","7.2","4.5","","","100","East","10","6","1033","30.51","-999","-999","-9999","-9999","","","Partly Cloudy","partlycloudy","0","0","0","0","0","0","AAXX 20121 33345 /1497 81002 11003 21024 30116 40330 52021 70272 889// 333 88914 555 1/100 69911"
"2:00 PM EET on December 20, 2016","2016","12","20","14","00","Europe/Kiev","12:00 PM GMT on December 20, 2016","2016","12","20","12","00","UTC","0.0","32.0","-2.0","28.4","87","14.4","8.9","-9999.0","-9999.0","60","ENE","9.0","5.6","1031","30.45","-4.3","24.3","-9999","-9999","-9999.00","-9999.00","Light Snow","snow","0","0","1","0","0","0","METAR UKKK 201200Z 06004MPS 9000 -SN OVC011 M00/M02 Q1031 R08/520350 TEMPO -FZRASN"
"2:30 PM EET on December 20, 2016","2016","12","20","14","30","Europe/Kiev","12:30 PM GMT on December 20, 2016","2016","12","20","12","30","UTC","0.0","32.0","-3.0","26.6","80","14.4","8.9","-9999.0","-9999.0","60","ENE","9.0","5.6","1032","30.48","-4.3","24.3","-9999","-9999","-9999.00","-9999.00","Overcast","cloudy","0","0","0","0","0","0","METAR UKKK 201230Z 06004MPS 030V100 9000 OVC014 M00/M03 Q1032 R08/520350 TEMPO -FZRASN"
"3:00 PM EET on December 20, 2016","2016","12","20","15","00","Europe/Kiev","1:00 PM GMT on December 20, 2016","2016","12","20","13","00","UTC","0.0","32.0","-3.0","26.6","80","14.4","8.9","-9999.0","-9999.0","30","NNE","10.0","6.2","1032","30.48","-4.3","24.3","-9999","-9999","-9999.00","-9999.00","Overcast","cloudy","0","0","0","0","0","0","METAR UKKK 201300Z 03004MPS 9999 OVC014 M00/M03 Q1032 R08/520350 TEMPO -FZRASN"
"3:30 PM EET on December 20, 2016","2016","12","20","15","30","Europe/Kiev","1:30 PM GMT on December 20, 2016","2016","12","20","13","30","UTC","-1.0","30.2","-3.0","26.6","86","14.4","8.9","-9999.0","-9999.0","80","East","9.0","5.6","1033","30.51","-5.5","22.1","-9999","-9999","-9999.00","-9999.00","Overcast","cloudy","0","0","0","0","0","0","METAR UKKK 201330Z 08004MPS 9000 OVC014 M01/M03 Q1033 R08/520350 TEMPO -FZRASN"
"4:00 PM EET on December 20, 2016","2016","12","20","16","00","Europe/Kiev","2:00 PM GMT on December 20, 2016","2016","12","20","14","00","UTC","-1.0","30.2","-3.0","26.6","86","14.4","8.9","-9999.0","-9999.0","70","ENE","9.0","5.6","1033","30.51","-5.5","22.1","-9999","-9999","-9999.00","-9999.00","Overcast","cloudy","0","0","0","0","0","0","METAR UKKK 201400Z 07004MPS 9000 OVC014 M01/M03 Q1033 R08/520350 TEMPO -FZRASN"
"4:30 PM EET on December 20, 2016","2016","12","20","16","30","Europe/Kiev","2:30 PM GMT on December 20, 2016","2016","12","20","14","30","UTC","-1.0","30.2","-3.0","26.6","86","14.4","8.9","-9999.0","-9999.0","60","ENE","10.0","6.2","1033","30.51","-5.5","22.1","-9999","-9999","-9999.00","-9999.00","Overcast","cloudy","0","0","0","0","0","0","METAR UKKK 201430Z 06004MPS 9999 OVC015 M01/M03 Q1033 R08/520350 TEMPO -FZRASN"
"5:00 PM EET on December 20, 2016","2016","12","20","17","00","Europe/Kiev","3:00 PM GMT on December 20, 2016","2016","12","20","15","00","UTC","-1","31","-3","26","76","7.2","4.5","","","90","East","10","6","1035","30.56","-999","-999","-9999","-9999","","","Overcast","cloudy","0","0","0","0","0","0","AAXX 20151 33345 42497 80902 11007 21032 30134 40348 52018 886// 333 88715 555 1/101"
"5:00 PM EET on December 20, 2016","2016","12","20","17","00","Europe/Kiev","3:00 PM GMT on December 20, 2016","2016","12","20","15","00","UTC","-1.0","30.2","-4.0","24.8","80","10.8","6.7","-9999.0","-9999.0","40","NE","10.0","6.2","1033","30.51","-4.7","23.5","-9999","-9999","-9999.00","-9999.00","Overcast","cloudy","0","0","0","0","0","0","METAR UKKK 201500Z 04003MPS 9999 OVC015 M01/M04 Q1033 R08/520350 TEMPO -FZRASN"
"5:30 PM EET on December 20, 2016","2016","12","20","17","30","Europe/Kiev","3:30 PM GMT on December 20, 2016","2016","12","20","15","30","UTC","-1.0","30.2","-3.0","26.6","86","10.8","6.7","-9999.0","-9999.0","40","NE","10.0","6.2","1034","30.54","-4.7","23.5","-9999","-9999","-9999.00","-9999.00","Overcast","cloudy","0","0","0","0","0","0","METAR UKKK 201530Z 04003MPS 9999 OVC014 M01/M03 Q1034 R08/520350 TEMPO -FZRASN"
"6:00 PM EET on December 20, 2016","2016","12","20","18","00","Europe/Kiev","4:00 PM GMT on December 20, 2016","2016","12","20","16","00","UTC","-1.0","30.2","-4.0","24.8","80","10.8","6.7","-9999.0","-9999.0","60","ENE","10.0","6.2","1034","30.54","-4.7","23.5","-9999","-9999","-9999.00","-9999.00","Overcast","cloudy","0","0","0","0","0","0","METAR UKKK 201600Z 06003MPS 9999 OVC017 M01/M04 Q1034 R08/520350 NOSIG"
"6:30 PM EET on December 20, 2016","2016","12","20","18","30","Europe/Kiev","4:30 PM GMT on December 20, 2016","2016","12","20","16","30","UTC","-1.0","30.2","-4.0","24.8","80","10.8","6.7","-9999.0","-9999.0","20","NNE","10.0","6.2","1035","30.57","-4.7","23.5","-9999","-9999","-9999.00","-9999.00","Overcast","cloudy","0","0","0","0","0","0","METAR UKKK 201630Z 02003MPS 9999 OVC017 M01/M04 Q1035 R08/520350 NOSIG"
"7:00 PM EET on December 20, 2016","2016","12","20","19","00","Europe/Kiev","5:00 PM GMT on December 20, 2016","2016","12","20","17","00","UTC","-1.0","30.2","-4.0","24.8","80","7.2","4.5","-9999.0","-9999.0","50","NE","10.0","6.2","1035","30.57","-3.6","25.5","-9999","-9999","-9999.00","-9999.00","Overcast","cloudy","0","0","0","0","0","0","METAR UKKK 201700Z 05002MPS 9999 OVC017 M01/M04 Q1035 R08/520350 NOSIG"
"7:30 PM EET on December 20, 2016","2016","12","20","19","30","Europe/Kiev","5:30 PM GMT on December 20, 2016","2016","12","20","17","30","UTC","-1.0","30.2","-4.0","24.8","80","10.8","6.7","-9999.0","-9999.0","80","East","10.0","6.2","1035","30.57","-4.7","23.5","-9999","-9999","-9999.00","-9999.00","Overcast","cloudy","0","0","0","0","0","0","METAR UKKK 201730Z 08003MPS 9999 OVC016 M01/M04 Q1035 R08/520350 NOSIG"
"8:00 PM EET on December 20, 2016","2016","12","20","20","00","Europe/Kiev","6:00 PM GMT on December 20, 2016","2016","12","20","18","00","UTC","-1","30","-4","24","70","7.2","4.5","","","100","East","10","6","1037","30.62","-999","-999","-9999","-9999","","","Overcast","cloudy","0","0","0","0","0","0","AAXX 20181 33345 12497 81002 11012 21045 30152 40367 52018 69912 885// 333 10009 88619 555 1/101"
"8:00 PM EET on December 20, 2016","2016","12","20","20","00","Europe/Kiev","6:00 PM GMT on December 20, 2016","2016","12","20","18","00","UTC","-1.0","30.2","-4.0","24.8","80","10.8","6.7","-9999.0","-9999.0","90","East","10.0","6.2","1035","30.57","-4.7","23.5","-9999","-9999","-9999.00","-9999.00","Overcast","cloudy","0","0","0","0","0","0","METAR UKKK 201800Z 09003MPS 9999 OVC017 M01/M04 Q1035 R08/520350 NOSIG"
"8:30 PM EET on December 20, 2016","2016","12","20","20","30","Europe/Kiev","6:30 PM GMT on December 20, 2016","2016","12","20","18","30","UTC","-1.0","30.2","-5.0","23.0","75","7.2","4.5","-9999.0","-9999.0","110","ESE","10.0","6.2","1035","30.57","-3.6","25.5","-9999","-9999","-9999.00","-9999.00","Overcast","cloudy","0","0","0","0","0","0","METAR UKKK 201830Z 11002MPS 9999 OVC018 M01/M05 Q1035 R08/520350 NOSIG"
"9:00 PM EET on December 20, 2016","2016","12","20","21","00","Europe/Kiev","7:00 PM GMT on December 20, 2016","2016","12","20","19","00","UTC","-1.0","30.2","-5.0","23.0","75","7.2","4.5","-9999.0","-9999.0","80","East","10.0","6.2","1035","30.57","-3.6","25.5","-9999","-9999","-9999.00","-9999.00","Overcast","cloudy","0","0","0","0","0","0","METAR UKKK 201900Z 08002MPS 9999 OVC018 M01/M05 Q1035 R08/520350 NOSIG"
"9:30 PM EET on December 20, 2016","2016","12","20","21","30","Europe/Kiev","7:30 PM GMT on December 20, 2016","2016","12","20","19","30","UTC","-1.0","30.2","-5.0","23.0","75","3.6","2.2","-9999.0","-9999.0","110","ESE","10.0","6.2","1035","30.57","-999","-999","-9999","-9999","-9999.00","-9999.00","Overcast","cloudy","0","0","0","0","0","0","METAR UKKK 201930Z 11001MPS 9999 OVC018 M01/M05 Q1035 R08/520350 NOSIG"
"10:00 PM EET on December 20, 2016","2016","12","20","22","00","Europe/Kiev","8:00 PM GMT on December 20, 2016","2016","12","20","20","00","UTC","-1.0","30.2","-5.0","23.0","75","3.6","2.2","-9999.0","-9999.0","0","Variable","10.0","6.2","1036","30.60","-999","-999","-9999","-9999","-9999.00","-9999.00","Overcast","cloudy","0","0","0","0","0","0","METAR UKKK 202000Z VRB01MPS 9999 OVC018 M01/M05 Q1036 R08/520350 NOSIG"
"10:30 PM EET on December 20, 2016","2016","12","20","22","30","Europe/Kiev","8:30 PM GMT on December 20, 2016","2016","12","20","20","30","UTC","-1.0","30.2","-5.0","23.0","75","3.6","2.2","-9999.0","-9999.0","100","East","10.0","6.2","1036","30.60","-999","-999","-9999","-9999","-9999.00","-9999.00","Overcast","cloudy","0","0","0","0","0","0","METAR UKKK 202030Z 10001MPS 9999 OVC018 M01/M05 Q1036 R08/520350 NOSIG"
"11:00 PM EET on December 20, 2016","2016","12","20","23","00","Europe/Kiev","9:00 PM GMT on December 20, 2016","2016","12","20","21","00","UTC","-2","29","-5","24","73","0.0","0.0","","","","","10","6","1038","30.65","-999","-999","-9999","-9999","","","Overcast","cloudy","0","0","0","0","0","0","AAXX 20211 33345 42597 80000 11016 21046 30161 40377 51009 885// 333 88620 555 1/101"
"11:00 PM EET on December 20, 2016","2016","12","20","23","00","Europe/Kiev","9:00 PM GMT on December 20, 2016","2016","12","20","21","00","UTC","-1.0","30.2","-5.0","23.0","75","7.2","4.5","-9999.0","-9999.0","120","ESE","10.0","6.2","1036","30.60","-3.6","25.5","-9999","-9999","-9999.00","-9999.00","Overcast","cloudy","0","0","0","0","0","0","METAR UKKK 202100Z 12002MPS 9999 OVC019 M01/M05 Q1036 R08/520350 NOSIG"
"11:30 PM EET on December 20, 2016","2016","12","20","23","30","Europe/Kiev","9:30 PM GMT on December 20, 2016","2016","12","20","21","30","UTC","-1.0","30.2","-5.0","23.0","75","3.6","2.2","-9999.0","-9999.0","0","Variable","10.0","6.2","1036","30.60","-999","-999","-9999","-9999","-9999.00","-9999.00","Overcast","cloudy","0","0","0","0","0","0","METAR UKKK 202130Z VRB01MPS 9999 OVC019 M01/M05 Q1036 R08/810350 NOSIG"
"12:00 AM EET on December 21, 2016","2016","12","21","00","00","Europe/Kiev","10:00 PM GMT on December 20, 2016","2016","12","20","22","00","UTC","-2.0","28.4","-5.0","23.0","80","0.0","0.0","-9999.0","-9999.0","0","North","10.0","6.2","1036","30.60","-999","-999","-9999","-9999","-9999.00","-9999.00","Overcast","cloudy","0","0","0","0","0","0","METAR UKKK 202200Z 00000MPS 9999 OVC018 M02/M05 Q1036 R08/810350 NOSIG"
"12:30 AM EET on December 21, 2016","2016","12","21","00","30","Europe/Kiev","10:30 PM GMT on December 20, 2016","2016","12","20","22","30","UTC","-2.0","28.4","-5.0","23.0","80","0.0","0.0","-9999.0","-9999.0","0","North","10.0","6.2","1036","30.60","-999","-999","-9999","-9999","-9999.00","-9999.00","Overcast","cloudy","0","0","0","0","0","0","METAR UKKK 202230Z 00000MPS 9999 OVC018 M02/M05 Q1036 R08/810350 NOSIG"
"1:00 AM EET on December 21, 2016","2016","12","21","01","00","Europe/Kiev","11:00 PM GMT on December 20, 2016","2016","12","20","23","00","UTC","-2.0","28.4","-5.0","23.0","80","3.6","2.2","-9999.0","-9999.0","0","Variable","10.0","6.2","1036","30.60","-999","-999","-9999","-9999","-9999.00","-9999.00","Overcast","cloudy","0","0","0","0","0","0","METAR UKKK 202300Z VRB01MPS 9999 OVC017 M02/M05 Q1036 R08/810350 NOSIG"
"1:30 AM EET on December 21, 2016","2016","12","21","01","30","Europe/Kiev","11:30 PM GMT on December 20, 2016","2016","12","20","23","30","UTC","-2.0","28.4","-5.0","23.0","80","7.2","4.5","-9999.0","-9999.0","210","SSW","10.0","6.2","1036","30.60","-4.8","23.4","-9999","-9999","-9999.00","-9999.00","Overcast","cloudy","0","0","0","0","0","0","METAR UKKK 202330Z 21002MPS 180V250 9999 OVC017 M02/M05 Q1036 R08/810350 NOSIG"
"2:00 AM EET on December 21, 2016","2016","12","21","02","00","Europe/Kiev","12:00 AM GMT on December 21, 2016","2016","12","21","00","00","UTC","-2","29","-5","23","71","3.6","2.2","","","240","WSW","10","6","1038","30.65","-999","-999","-9999","-9999","","","Mostly Cloudy","mostlycloudy","0","0","0","0","0","0","AAXX 21001 33345 32497 72401 11019 21049 30161 40377 54000 87500 333 87618 555 1/102"
"2:00 AM EET on December 21, 2016","2016","12","21","02","00","Europe/Kiev","12:00 AM GMT on December 21, 2016","2016","12","21","00","00","UTC","-2.0","28.4","-5.0","23.0","80","7.2","4.5","-9999.0","-9999.0","240","WSW","10.0","6.2","1036","30.60","-4.8","23.4","-9999","-9999","-9999.00","-9999.00","Overcast","cloudy","0","0","0","0","0","0","METAR UKKK 210000Z 24002MPS 160V290 9999 OVC016 M02/M05 Q1036 R26/810350 NOSIG"
"2:30 AM EET on December 21, 2016","2016","12","21","02","30","Europe/Kiev","12:30 AM GMT on December 21, 2016","2016","12","21","00","30","UTC","-2.0","28.4","-5.0","23.0","80","7.2","4.5","-9999.0","-9999.0","250","WSW","10.0","6.2","1036","30.60","-4.8","23.4","-9999","-9999","-9999.00","-9999.00","Overcast","cloudy","0","0","0","0","0","0","METAR UKKK 210030Z 25002MPS 220V280 9999 OVC016 M02/M05 Q1036 R26/810350 NOSIG"
"3:00 AM EET on December 21, 2016","2016","12","21","03","00","Europe/Kiev","1:00 AM GMT on December 21, 2016","2016","12","21","01","00","UTC","-2.0","28.4","-5.0","23.0","80","7.2","4.5","-9999.0","-9999.0","270","West","10.0","6.2","1036","30.60","-4.8","23.4","-9999","-9999","-9999.00","-9999.00","Overcast","cloudy","0","0","0","0","0","0","METAR UKKK 210100Z 27002MPS 9999 OVC017 M02/M05 Q1036 R26/810350 NOSIG"
"3:30 AM EET on December 21, 2016","2016","12","21","03","30","Europe/Kiev","1:30 AM GMT on December 21, 2016","2016","12","21","01","30","UTC","-2.0","28.4","-5.0","23.0","80","7.2","4.5","-9999.0","-9999.0","290","WNW","10.0","6.2","1036","30.60","-4.8","23.4","-9999","-9999","-9999.00","-9999.00","Overcast","cloudy","0","0","0","0","0","0","METAR UKKK 210130Z 29002MPS 9999 OVC017 M02/M05 Q1036 R26/810350 NOSIG"
"4:00 AM EET on December 21, 2016","2016","12","21","04","00","Europe/Kiev","2:00 AM GMT on December 21, 2016","2016","12","21","02","00","UTC","-2.0","28.4","-5.0","23.0","80","10.8","6.7","-9999.0","-9999.0","280","West","10.0","6.2","1036","30.60","-5.9","21.4","-9999","-9999","-9999.00","-9999.00","Overcast","cloudy","0","0","0","0","0","0","METAR UKKK 210200Z 28003MPS 9999 OVC016 M02/M05 Q1036 R26/810350 NOSIG"
"4:30 AM EET on December 21, 2016","2016","12","21","04","30","Europe/Kiev","2:30 AM GMT on December 21, 2016","2016","12","21","02","30","UTC","-2.0","28.4","-5.0","23.0","80","7.2","4.5","-9999.0","-9999.0","270","West","10.0","6.2","1036","30.60","-4.8","23.4","-9999","-9999","-9999.00","-9999.00","Overcast","cloudy","0","0","0","0","0","0","METAR UKKK 210230Z 27002MPS 240V320 9999 OVC016 M02/M05 Q1036 R26/810350 NOSIG"
"5:00 AM EET on December 21, 2016","2016","12","21","05","00","Europe/Kiev","3:00 AM GMT on December 21, 2016","2016","12","21","03","00","UTC","-2","28","-5","23","74","7.2","4.5","","","290","WNW","10","6","1038","30.64","-999","-999","-9999","-9999","","","Overcast","cloudy","0","0","0","0","0","0","AAXX 21031 33345 42497 82902 11020 21050 30159 40375 58002 886// 333 88716 555 1/102"
"5:00 AM EET on December 21, 2016","2016","12","21","05","00","Europe/Kiev","3:00 AM GMT on December 21, 2016","2016","12","21","03","00","UTC","-2.0","28.4","-5.0","23.0","80","10.8","6.7","-9999.0","-9999.0","290","WNW","10.0","6.2","1036","30.60","-5.9","21.4","-9999","-9999","-9999.00","-9999.00","Overcast","cloudy","0","0","0","0","0","0","METAR UKKK 210300Z 29003MPS 260V320 9999 OVC015 M02/M05 Q1036 R26/810350 NOSIG"
"5:30 AM EET on December 21, 2016","2016","12","21","05","30","Europe/Kiev","3:30 AM GMT on December 21, 2016","2016","12","21","03","30","UTC","-2.0","28.4","-5.0","23.0","80","10.8","6.7","-9999.0","-9999.0","280","West","10.0","6.2","1036","30.60","-5.9","21.4","-9999","-9999","-9999.00","-9999.00","Overcast","cloudy","0","0","0","0","0","0","METAR UKKK 210330Z 28003MPS 9999 OVC015 M02/M05 Q1036 R26/810350 NOSIG"
"6:00 AM EET on December 21, 2016","2016","12","21","06","00","Europe/Kiev","4:00 AM GMT on December 21, 2016","2016","12","21","04","00","UTC","-2.0","28.4","-5.0","23.0","80","10.8","6.7","-9999.0","-9999.0","280","West","10.0","6.2","1036","30.60","-5.9","21.4","-9999","-9999","-9999.00","-9999.00","Overcast","cloudy","0","0","0","0","0","0","METAR UKKK 210400Z 28003MPS 9999 OVC015 M02/M05 Q1036 R26/810350 NOSIG"
"6:30 AM EET on December 21, 2016","2016","12","21","06","30","Europe/Kiev","4:30 AM GMT on December 21, 2016","2016","12","21","04","30","UTC","-2.0","28.4","-5.0","23.0","80","10.8","6.7","-9999.0","-9999.0","290","WNW","10.0","6.2","1036","30.60","-5.9","21.4","-9999","-9999","-9999.00","-9999.00","Overcast","cloudy","0","0","0","0","0","0","METAR UKKK 210430Z 29003MPS 9999 OVC014 M02/M05 Q1036 R26/810350 NOSIG"
"7:00 AM EET on December 21, 2016","2016","12","21","07","00","Europe/Kiev","5:00 AM GMT on December 21, 2016","2016","12","21","05","00","UTC","-2.0","28.4","-4.0","24.8","86","14.4","8.9","-9999.0","-9999.0","280","West","10.0","6.2","1035","30.57","-6.7","19.9","-9999","-9999","-9999.00","-9999.00","Overcast","cloudy","0","0","0","0","0","0","METAR UKKK 210500Z 28004MPS 9999 OVC014 M02/M04 Q1035 R26/810350 NOSIG"
"7:30 AM EET on December 21, 2016","2016","12","21","07","30","Europe/Kiev","5:30 AM GMT on December 21, 2016","2016","12","21","05","30","UTC","-2.0","28.4","-5.0","23.0","80","14.4","8.9","-9999.0","-9999.0","280","West","10.0","6.2","1035","30.57","-6.7","19.9","-9999","-9999","-9999.00","-9999.00","Overcast","cloudy","0","0","0","0","0","0","METAR UKKK 210530Z 28004MPS 9999 OVC014 M02/M05 Q1035 R26/810350 NOSIG"
"8:00 AM EET on December 21, 2016","2016","12","21","08","00","Europe/Kiev","6:00 AM GMT on December 21, 2016","2016","12","21","06","00","UTC","-2","28","-5","24","77","3.6","2.2","","","290","WNW","10","6","1037","30.62","-999","-999","-9999","-9999","","","Overcast","cloudy","0","0","0","0","0","0","AAXX 21061 33345 32497 82901 11020 21046 30153 40369 57006 886// 333 21021 43002 88714 555 1/102"
"8:00 AM EET on December 21, 2016","2016","12","21","08","00","Europe/Kiev","6:00 AM GMT on December 21, 2016","2016","12","21","06","00","UTC","-2.0","28.4","-4.0","24.8","86","10.8","6.7","-9999.0","-9999.0","270","West","10.0","6.2","1035","30.57","-5.9","21.4","-9999","-9999","-9999.00","-9999.00","Mostly Cloudy","mostlycloudy","0","0","0","0","0","0","METAR UKKK 210600Z 27003MPS 9999 BKN013 BKN090 M02/M04 Q1035 R26/810350 NOSIG"
"8:30 AM EET on December 21, 2016","2016","12","21","08","30","Europe/Kiev","6:30 AM GMT on December 21, 2016","2016","12","21","06","30","UTC","-2.0","28.4","-4.0","24.8","86","7.2","4.5","-9999.0","-9999.0","260","West","10.0","6.2","1036","30.60","-4.8","23.4","-9999","-9999","-9999.00","-9999.00","Mostly Cloudy","mostlycloudy","0","0","0","0","0","0","METAR UKKK 210630Z 26002MPS 230V300 9999 BKN013 BKN090 M02/M04 Q1036 R26/810350 NOSIG"
"9:00 AM EET on December 21, 2016","2016","12","21","09","00","Europe/Kiev","7:00 AM GMT on December 21, 2016","2016","12","21","07","00","UTC","-2.0","28.4","-4.0","24.8","86","7.2","4.5","-9999.0","-9999.0","220","SW","10.0","6.2","1036","30.60","-4.8","23.4","-9999","-9999","-9999.00","-9999.00","Overcast","cloudy","0","0","0","0","0","0","METAR UKKK 210700Z 22002MPS 9999 OVC014 M02/M04 Q1036 R26/810350 NOSIG"
"9:30 AM EET on December 21, 2016","2016","12","21","09","30","Europe/Kiev","7:30 AM GMT on December 21, 2016","2016","12","21","07","30","UTC","-2.0","28.4","-4.0","24.8","86","7.2","4.5","-9999.0","-9999.0","230","SW","10.0","6.2","1035","30.57","-4.8","23.4","-9999","-9999","-9999.00","-9999.00","Overcast","cloudy","0","0","0","0","0","0","METAR UKKK 210730Z 23002MPS 200V260 9999 OVC014 M02/M04 Q1035 R26/810350 NOSIG"
"10:00 AM EET on December 21, 2016","2016","12","21","10","00","Europe/Kiev","8:00 AM GMT on December 21, 2016","2016","12","21","08","00","UTC","-1.0","30.2","-4.0","24.8","80","14.4","8.9","-9999.0","-9999.0","260","West","10.0","6.2","1035","30.57","-5.5","22.1","-9999","-9999","-9999.00","-9999.00","Mostly Cloudy","mostlycloudy","0","0","0","0","0","0","METAR UKKK 210800Z 26004MPS 9999 BKN013 BKN083 M01/M04 Q1035 R26/810350 NOSIG"
"10:30 AM EET on December 21, 2016","2016","12","21","10","30","Europe/Kiev","8:30 AM GMT on December 21, 2016","2016","12","21","08","30","UTC","-1.0","30.2","-3.0","26.6","86","14.4","8.9","-9999.0","-9999.0","270","West","10.0","6.2","1035","30.57","-5.5","22.1","-9999","-9999","-9999.00","-9999.00","Mostly Cloudy","mostlycloudy","0","0","0","0","0","0","METAR UKKK 210830Z 27004MPS 9999 BKN012 BKN073 M01/M03 Q1035 R26/810350 NOSIG"
"11:00 AM EET on December 21, 2016","2016","12","21","11","00","Europe/Kiev","9:00 AM GMT on December 21, 2016","2016","12","21","09","00","UTC","-0","31","-3","27","77","7.2","4.5","","","320","NW","20","12","1036","30.60","-999","-999","-9999","-9999","","","Mostly Cloudy","mostlycloudy","0","0","0","0","0","0","AAXX 21091 33345 42498 73202 11005 21030 30148 40362 57005 86630 333 86712 555 1/100"
"11:00 AM EET on December 21, 2016","2016","12","21","11","00","Europe/Kiev","9:00 AM GMT on December 21, 2016","2016","12","21","09","00","UTC","-1.0","30.2","-3.0","26.6","86","14.4","8.9","-9999.0","-9999.0","270","West","10.0","6.2","1035","30.57","-5.5","22.1","-9999","-9999","-9999.00","-9999.00","Mostly Cloudy","mostlycloudy","0","0","0","0","0","0","METAR UKKK 210900Z 27004MPS 9999 BKN011 BKN076 M01/M03 Q1035 R26/810350 NOSIG"
"11:30 AM EET on December 21, 2016","2016","12","21","11","30","Europe/Kiev","9:30 AM GMT on December 21, 2016","2016","12","21","09","30","UTC","-1.0","30.2","-3.0","26.6","86","14.4","8.9","-9999.0","-9999.0","270","West","10.0","6.2","1034","30.54","-5.5","22.1","-9999","-9999","-9999.00","-9999.00","Mostly Cloudy","mostlycloudy","0","0","0","0","0","0","METAR UKKK 210930Z 27004MPS 9999 BKN010 BKN076 M01/M03 Q1034 R26/810350 NOSIG"
"12:00 PM EET on December 21, 2016","2016","12","21","12","00","Europe/Kiev","10:00 AM GMT on December 21, 2016","2016","12","21","10","00","UTC","-1.0","30.2","-2.0","28.4","93","18.0","11.2","-9999.0","-9999.0","280","West","10.0","6.2","1034","30.54","-6.2","20.9","-9999","-9999","-9999.00","-9999.00","Mostly Cloudy","mostlycloudy","0","0","0","0","0","0","METAR UKKK 211000Z 28005MPS 9999 BKN010 BKN076 M01/M02 Q1034 R26/810350 NOSIG"
"12:30 PM EET on December 21, 2016","2016","12","21","12","30","Europe/Kiev","10:30 AM GMT on December 21, 2016","2016","12","21","10","30","UTC","0.0","32.0","-2.0","28.4","87","14.4","8.9","-9999.0","-9999.0","270","West","10.0","6.2","1034","30.54","-4.3","24.3","-9999","-9999","-9999.00","-9999.00","Mostly Cloudy","mostlycloudy","0","0","0","0","0","0","METAR UKKK 211030Z 27004MPS 240V300 9999 BKN010 M00/M02 Q1034 R26/810350 NOSIG"
"1:00 PM EET on December 21, 2016","2016","12","21","13","00","Europe/Kiev","11:00 AM GMT on December 21, 2016","2016","12","21","11","00","UTC","0.0","32.0","-2.0","28.4","87","21.6","13.4","-9999.0","-9999.0","280","West","10.0","6.2","1033","30.51","-5.4","22.2","-9999","-9999","-9999.00","-9999.00","Mostly Cloudy","mostlycloudy","0","0","0","0","0","0","METAR UKKK 211100Z 28006MPS 9999 BKN010 M00/M02 Q1033 R26/810350 NOSIG"
"1:30 PM EET on December 21, 2016","2016","12","21","13","30","Europe/Kiev","11:30 AM GMT on December 21, 2016","2016","12","21","11","30","UTC","0.0","32.0","-2.0","28.4","87","18.0","11.2","-9999.0","-9999.0","270","West","10.0","6.2","1033","30.51","-4.9","23.2","-9999","-9999","-9999.00","-9999.00","Mostly Cloudy","mostlycloudy","0","0","0","0","0","0","METAR UKKK 211130Z 27005MPS 9999 BKN010 M00/M02 Q1033 R26/810350 NOSIG"
"2:00 PM EET on December 21, 2016","2016","12","21","14","00","Europe/Kiev","12:00 PM GMT on December 21, 2016","2016","12","21","12","00","UTC","0","32","-2","28","79","14.4","8.9","","","300","WNW","20","12","1034","30.54","-999","-999","-9999","-9999","","","Mostly Cloudy","mostlycloudy","0","0","0","0","0","0","AAXX 21121 33345 32498 73004 10001 21022 30129 40342 57019 87500 333 86711 555 1/100"
"2:00 PM EET on December 21, 2016","2016","12","21","14","00","Europe/Kiev","12:00 PM GMT on December 21, 2016","2016","12","21","12","00","UTC","0.0","32.0","-2.0","28.4","87","21.6","13.4","-9999.0","-9999.0","270","West","10.0","6.2","1033","30.51","-5.4","22.2","-9999","-9999","-9999.00","-9999.00","Mostly Cloudy","mostlycloudy","0","0","0","0","0","0","METAR UKKK 211200Z 27006MPS 9999 BKN010 M00/M02 Q1033 R26/810350 NOSIG"
"2:30 PM EET on December 21, 2016","2016","12","21","14","30","Europe/Kiev","12:30 PM GMT on December 21, 2016","2016","12","21","12","30","UTC","0.0","32.0","-2.0","28.4","87","21.6","13.4","-9999.0","-9999.0","270","West","10.0","6.2","1033","30.51","-5.4","22.2","-9999","-9999","-9999.00","-9999.00","Mostly Cloudy","mostlycloudy","0","0","0","0","0","0","METAR UKKK 211230Z 27006MPS 9999 BKN010 M00/M02 Q1033 R26/810350 NOSIG"
"3:00 PM EET on December 21, 2016","2016","12","21","15","00","Europe/Kiev","1:00 PM GMT on December 21, 2016","2016","12","21","13","00","UTC","0.0","32.0","-2.0","28.4","87","18.0","11.2","-9999.0","-9999.0","270","West","10.0","6.2","1033","30.51","-4.9","23.2","-9999","-9999","-9999.00","-9999.00","Mostly Cloudy","mostlycloudy","0","0","0","0","0","0","METAR UKKK 211300Z 27005MPS 9999 BKN010 M00/M02 Q1033 R26/810350 NOSIG"
"3:30 PM EET on December 21, 2016","2016","12","21","15","30","Europe/Kiev","1:30 PM GMT on December 21, 2016","2016","12","21","13","30","UTC","0.0","32.0","-2.0","28.4","87","18.0","11.2","-9999.0","-9999.0","270","West","10.0","6.2","1033","30.51","-4.9","23.2","-9999","-9999","-9999.00","-9999.00","Mostly Cloudy","mostlycloudy","0","0","0","0","0","0","METAR UKKK 211330Z 27005MPS 9999 BKN010 M00/M02 Q1033 R26/810350 NOSIG"
"4:00 PM EET on December 21, 2016","2016","12","21","16","00","Europe/Kiev","2:00 PM GMT on December 21, 2016","2016","12","21","14","00","UTC","0.0","32.0","-2.0","28.4","87","18.0","11.2","-9999.0","-9999.0","270","West","10.0","6.2","1032","30.48","-4.9","23.2","-9999","-9999","-9999.00","-9999.00","Mostly Cloudy","mostlycloudy","0","0","0","0","0","0","METAR UKKK 211400Z 27005MPS 9999 BKN010 M00/M02 Q1032 R26/810350 NOSIG"
"4:30 PM EET on December 21, 2016","2016","12","21","16","30","Europe/Kiev","2:30 PM GMT on December 21, 2016","2016","12","21","14","30","UTC","-1.0","30.2","-2.0","28.4","93","18.0","11.2","-9999.0","-9999.0","290","WNW","10.0","6.2","1032","30.48","-6.2","20.9","-9999","-9999","-9999.00","-9999.00","Overcast","cloudy","0","0","0","0","0","0","METAR UKKK 211430Z 29005MPS 9999 OVC010 M01/M02 Q1032 R26/810350 NOSIG"
"5:00 PM EET on December 21, 2016","2016","12","21","17","00","Europe/Kiev","3:00 PM GMT on December 21, 2016","2016","12","21","15","00","UTC","-1","31","-2","28","82","14.4","8.9","","","320","NW","20","12","1034","30.53","-999","-999","-9999","-9999","","","Mostly Cloudy","mostlycloudy","0","0","0","0","0","0","AAXX 21151 33345 42498 73204 11006 21024 30122 40336 57007 87500 333 87711 555 1/101"
"5:00 PM EET on December 21, 2016","2016","12","21","17","00","Europe/Kiev","3:00 PM GMT on December 21, 2016","2016","12","21","15","00","UTC","-1.0","30.2","-3.0","26.6","86","21.6","13.4","-9999.0","-9999.0","280","West","10.0","6.2","1032","30.48","-6.7","19.9","-9999","-9999","-9999.00","-9999.00","Overcast","cloudy","0","0","0","0","0","0","METAR UKKK 211500Z 28006MPS 9999 OVC010 M01/M03 Q1032 R26/810350 NOSIG"
"5:30 PM EET on December 21, 2016","2016","12","21","17","30","Europe/Kiev","3:30 PM GMT on December 21, 2016","2016","12","21","15","30","UTC","-1.0","30.2","-2.0","28.4","93","18.0","11.2","-9999.0","-9999.0","290","WNW","10.0","6.2","1032","30.48","-6.2","20.9","-9999","-9999","-9999.00","-9999.00","Overcast","cloudy","0","0","0","0","0","0","METAR UKKK 211530Z 29005MPS 9999 OVC009 M01/M02 Q1032 R26/810350 NOSIG"
"6:00 PM EET on December 21, 2016","2016","12","21","18","00","Europe/Kiev","4:00 PM GMT on December 21, 2016","2016","12","21","16","00","UTC","-1.0","30.2","-3.0","26.6","86","18.0","11.2","-9999.0","-9999.0","280","West","10.0","6.2","1032","30.48","-6.2","20.9","-9999","-9999","-9999.00","-9999.00","Overcast","cloudy","0","0","0","0","0","0","METAR UKKK 211600Z 28005MPS 9999 OVC009 M01/M03 Q1032 R26/810350 NOSIG"
"6:30 PM EET on December 21, 2016","2016","12","21","18","30","Europe/Kiev","4:30 PM GMT on December 21, 2016","2016","12","21","16","30","UTC","-1.0","30.2","-2.0","28.4","93","18.0","11.2","-9999.0","-9999.0","280","West","10.0","6.2","1032","30.48","-6.2","20.9","-9999","-9999","-9999.00","-9999.00","Overcast","cloudy","0","0","0","0","0","0","METAR UKKK 211630Z 28005MPS 9999 OVC009 M01/M02 Q1032 R26/810350 NOSIG"
"7:00 PM EET on December 21, 2016","2016","12","21","19","00","Europe/Kiev","5:00 PM GMT on December 21, 2016","2016","12","21","17","00","UTC","-1.0","30.2","-3.0","26.6","86","21.6","13.4","-9999.0","-9999.0","280","West","10.0","6.2","1031","30.45","-6.7","19.9","-9999","-9999","-9999.00","-9999.00","Overcast","cloudy","0","0","0","0","0","0","METAR UKKK 211700Z 28006MPS 9999 OVC008 M01/M03 Q1031 R26/810350 NOSIG"
"7:30 PM EET on December 21, 2016","2016","12","21","19","30","Europe/Kiev","5:30 PM GMT on December 21, 2016","2016","12","21","17","30","UTC","-1.0","30.2","-3.0","26.6","86","21.6","13.4","-9999.0","-9999.0","280","West","10.0","6.2","1031","30.45","-6.7","19.9","-9999","-9999","-9999.00","-9999.00","Overcast","cloudy","0","0","0","0","0","0","METAR UKKK 211730Z 28006MPS 9999 OVC008 M01/M03 Q1031 R26/810350 NOSIG"
"8:00 PM EET on December 21, 2016","2016","12","21","20","00","Europe/Kiev","6:00 PM GMT on December 21, 2016","2016","12","21","18","00","UTC","-1","30","-2","28","88","14.4","8.9","","","310","NW","10","6","1033","30.50","-999","-999","-9999","-9999","","","Overcast","cloudy","0","0","0","0","0","0","AAXX 21181 33345 32397 83104 11010 21023 30112 40326 57010 886// 333 10003 88708 555 1/101"
"8:00 PM EET on December 21, 2016","2016","12","21","20","00","Europe/Kiev","6:00 PM GMT on December 21, 2016","2016","12","21","18","00","UTC","-1.0","30.2","-3.0","26.6","86","21.6","13.4","-9999.0","-9999.0","280","West","10.0","6.2","1031","30.45","-6.7","19.9","-9999","-9999","-9999.00","-9999.00","Overcast","cloudy","0","0","0","0","0","0","METAR UKKK 211800Z 28006MPS 9999 OVC008 M01/M03 Q1031 R26/810350 NOSIG"
"8:30 PM EET on December 21, 2016","2016","12","21","20","30","Europe/Kiev","6:30 PM GMT on December 21, 2016","2016","12","21","18","30","UTC","-1.0","30.2","-3.0","26.6","86","21.6","13.4","-9999.0","-9999.0","290","WNW","10.0","6.2","1031","30.45","-6.7","19.9","-9999","-9999","-9999.00","-9999.00","Overcast","cloudy","0","0","0","0","0","0","METAR UKKK 211830Z 29006MPS 9999 OVC007 M01/M03 Q1031 R26/810350 NOSIG"
"9:00 PM EET on December 21, 2016","2016","12","21","21","00","Europe/Kiev","7:00 PM GMT on December 21, 2016","2016","12","21","19","00","UTC","-1.0","30.2","-3.0","26.6","86","18.0","11.2","-9999.0","-9999.0","280","West","10.0","6.2","1031","30.45","-6.2","20.9","-9999","-9999","-9999.00","-9999.00","Overcast","cloudy","0","0","0","0","0","0","METAR UKKK 211900Z 28005MPS 9999 OVC007 M01/M03 Q1031 R26/810350 NOSIG"
"9:30 PM EET on December 21, 2016","2016","12","21","21","30","Europe/Kiev","7:30 PM GMT on December 21, 2016","2016","12","21","19","30","UTC","-2.0","28.4","-3.0","26.6","93","18.0","11.2","-9999.0","-9999.0","280","West","10.0","6.2","1031","30.45","-7.4","18.7","-9999","-9999","-9999.00","-9999.00","Overcast","cloudy","0","0","0","0","0","0","METAR UKKK 211930Z 28005MPS 9999 OVC007 M02/M03 Q1031 R26/810350 NOSIG"
"10:00 PM EET on December 21, 2016","2016","12","21","22","00","Europe/Kiev","8:00 PM GMT on December 21, 2016","2016","12","21","20","00","UTC","-2.0","28.4","-3.0","26.6","93","18.0","11.2","-9999.0","-9999.0","290","WNW","10.0","6.2","1031","30.45","-7.4","18.7","-9999","-9999","-9999.00","-9999.00","Overcast","cloudy","0","0","0","0","0","0","METAR UKKK 212000Z 29005MPS 9999 OVC007 M02/M03 Q1031 R26/810350 NOSIG"
"10:30 PM EET on December 21, 2016","2016","12","21","22","30","Europe/Kiev","8:30 PM GMT on December 21, 2016","2016","12","21","20","30","UTC","-2.0","28.4","-3.0","26.6","93","14.4","8.9","-9999.0","-9999.0","280","West","9.0","5.6","1031","30.45","-6.7","19.9","-9999","-9999","-9999.00","-9999.00","Overcast","cloudy","0","0","0","0","0","0","METAR UKKK 212030Z 28004MPS 9000 OVC006 M02/M03 Q1031 R26/810350 TEMPO OVC005"
"11:00 PM EET on December 21, 2016","2016","12","21","23","00","Europe/Kiev","9:00 PM GMT on December 21, 2016","2016","12","21","21","00","UTC","-2","29","-3","27","87","7.2","4.5","","","330","NNW","10","6","1032","30.49","-999","-999","-9999","-9999","","","Overcast","cloudy","0","0","0","0","0","0","AAXX 21211 33345 42397 83302 11016 21030 30109 40323 56003 886// 333 88707 555 1/102"
"11:00 PM EET on December 21, 2016","2016","12","21","23","00","Europe/Kiev","9:00 PM GMT on December 21, 2016","2016","12","21","21","00","UTC","-2.0","28.4","-3.0","26.6","93","14.4","8.9","-9999.0","-9999.0","280","West","10.0","6.2","1031","30.45","-6.7","19.9","-9999","-9999","-9999.00","-9999.00","Overcast","cloudy","0","0","0","0","0","0","METAR UKKK 212100Z 28004MPS 9999 OVC006 M02/M03 Q1031 R26/810350 TEMPO OVC005"
"11:30 PM EET on December 21, 2016","2016","12","21","23","30","Europe/Kiev","9:30 PM GMT on December 21, 2016","2016","12","21","21","30","UTC","-2.0","28.4","-3.0","26.6","93","18.0","11.2","-9999.0","-9999.0","280","West","9.0","5.6","1031","30.45","-7.4","18.7","-9999","-9999","-9999.00","-9999.00","Overcast","cloudy","0","0","0","0","0","0","METAR UKKK 212130Z 28005MPS 9000 OVC005 M02/M03 Q1031 R26/810350 TEMPO OVC004"
"12:00 AM EET on December 22, 2016","2016","12","22","00","00","Europe/Kiev","10:00 PM GMT on December 21, 2016","2016","12","21","22","00","UTC","-2.0","28.4","-3.0","26.6","93","18.0","11.2","-9999.0","-9999.0","280","West","8.0","5.0","1031","30.45","-7.4","18.7","-9999","-9999","-9999.00","-9999.00","Overcast","cloudy","0","0","0","0","0","0","METAR UKKK 212200Z 28005MPS 8000 OVC005 M02/M03 Q1031 R26/810350 TEMPO OVC004"
"12:30 AM EET on December 22, 2016","2016","12","22","00","30","Europe/Kiev","10:30 PM GMT on December 21, 2016","2016","12","21","22","30","UTC","-2.0","28.4","-3.0","26.6","93","14.4","8.9","-9999.0","-9999.0","280","West","7.0","4.3","1031","30.45","-6.7","19.9","-9999","-9999","-9999.00","-9999.00","Overcast","cloudy","0","0","0","0","0","0","METAR UKKK 212230Z 28004MPS 7000 OVC005 M02/M03 Q1031 R26/810350 TEMPO OVC004"
"1:00 AM EET on December 22, 2016","2016","12","22","01","00","Europe/Kiev","11:00 PM GMT on December 21, 2016","2016","12","21","23","00","UTC","-2.0","28.4","-2.0","28.4","100","14.4","8.9","-9999.0","-9999.0","300","WNW","7.0","4.3","1031","30.45","-6.7","19.9","-9999","-9999","-9999.00","-9999.00","Overcast","cloudy","0","0","0","0","0","0","METAR UKKK 212300Z 30004MPS 7000 OVC005 M02/M02 Q1031 R26/810350 TEMPO OVC004"
"1:30 AM EET on December 22, 2016","2016","12","22","01","30","Europe/Kiev","11:30 PM GMT on December 21, 2016","2016","12","21","23","30","UTC","-2.0","28.4","-3.0","26.6","93","14.4","8.9","-9999.0","-9999.0","300","WNW","5.0","3.1","1031","30.45","-6.7","19.9","-9999","-9999","-9999.00","-9999.00","Overcast","cloudy","0","0","0","0","0","0","METAR UKKK 212330Z 30004MPS 5000 BR OVC006 M02/M03 Q1031 R26/810350 TEMPO OVC004"
"2:00 AM EET on December 22, 2016","2016","12","22","02","00","Europe/Kiev","12:00 AM GMT on December 22, 2016","2016","12","22","00","00","UTC","-2","29","-3","27","90","7.2","4.5","","","350","North","10","6","1032","30.48","-999","-999","-9999","-9999","","","Mostly Cloudy","mostlycloudy","0","0","0","0","0","0","AAXX 22001 33345 32397 73502 11016 21027 30108 40322 58001 87600 333 87706 555 1/102"
"2:00 AM EET on December 22, 2016","2016","12","22","02","00","Europe/Kiev","12:00 AM GMT on December 22, 2016","2016","12","22","00","00","UTC","-2.0","28.4","-3.0","26.6","93","14.4","8.9","-9999.0","-9999.0","300","WNW","5.0","3.1","1031","30.45","-6.7","19.9","-9999","-9999","-9999.00","-9999.00","Overcast","cloudy","0","0","0","0","0","0","METAR UKKK 220000Z 30004MPS 5000 BR OVC006 M02/M03 Q1031 R26/810350 TEMPO OVC005"
"2:30 AM EET on December 22, 2016","2016","12","22","02","30","Europe/Kiev","12:30 AM GMT on December 22, 2016","2016","12","22","00","30","UTC","-3.0","26.6","-3.0","26.6","100","10.8","6.7","-9999.0","-9999.0","280","West","5.0","3.1","1031","30.45","-7.1","19.2","-9999","-9999","-9999.00","-9999.00","Overcast","cloudy","0","0","0","0","0","0","METAR UKKK 220030Z 28003MPS 5000 BR OVC006 M03/M03 Q1031 R26/810350 TEMPO OVC005"
"3:00 AM EET on December 22, 2016","2016","12","22","03","00","Europe/Kiev","1:00 AM GMT on December 22, 2016","2016","12","22","01","00","UTC","-3.0","26.6","-4.0","24.8","93","10.8","6.7","-9999.0","-9999.0","270","West","-9999.0","-9999.0","1031","30.45","-7.1","19.2","-9999","-9999","-9999.00","-9999.00","Mostly Cloudy","mostlycloudy","0","0","0","0","0","0","METAR UKKK 220100Z 27003MPS 3800 BR BKN005 M03/M04 Q1031 R26/810350 TEMPO OVC004"
"3:30 AM EET on December 22, 2016","2016","12","22","03","30","Europe/Kiev","1:30 AM GMT on December 22, 2016","2016","12","22","01","30","UTC","-3.0","26.6","-4.0","24.8","93","7.2","4.5","-9999.0","-9999.0","260","West","3.5","2.2","1031","30.45","-5.9","21.3","-9999","-9999","-9999.00","-9999.00","Mostly Cloudy","mostlycloudy","0","0","0","0","0","0","METAR UKKK 220130Z 26002MPS 3500 BR BKN005 M03/M04 Q1031 R26/810350 TEMPO OVC004"
"4:00 AM EET on December 22, 2016","2016","12","22","04","00","Europe/Kiev","2:00 AM GMT on December 22, 2016","2016","12","22","02","00","UTC","-4.0","24.8","-4.0","24.8","100","10.8","6.7","-9999.0","-9999.0","260","West","-9999.0","-9999.0","1031","30.45","-8.3","17.1","-9999","-9999","-9999.00","-9999.00","Mostly Cloudy","mostlycloudy","0","0","0","0","0","0","METAR UKKK 220200Z 26003MPS 3200 BR BKN005 M04/M04 Q1031 R26/810350 TEMPO OVC004"
"4:30 AM EET on December 22, 2016","2016","12","22","04","30","Europe/Kiev","2:30 AM GMT on December 22, 2016","2016","12","22","02","30","UTC","-4.0","24.8","-4.0","24.8","100","10.8","6.7","-9999.0","-9999.0","270","West","3.0","1.9","1031","30.45","-8.3","17.1","-9999","-9999","-9999.00","-9999.00","Scattered Clouds","partlycloudy","0","0","0","0","0","0","METAR UKKK 220230Z 27003MPS 3000 BR SCT005 M04/M04 Q1031 R26/810350 TEMPO BKN004"
"5:00 AM EET on December 22, 2016","2016","12","22","05","00","Europe/Kiev","3:00 AM GMT on December 22, 2016","2016","12","22","03","00","UTC","-3","27","-3","26","96","7.2","4.5","","","330","NNW","4","2","1032","30.48","-999","-999","-9999","-9999","","","Mist","hazy","0","0","0","0","0","0","AAXX 22031 33345 41496 33302 11026 21032 30106 40321 56002 71011 83600 333 83710 555 1/104"
"5:00 AM EET on December 22, 2016","2016","12","22","05","00","Europe/Kiev","3:00 AM GMT on December 22, 2016","2016","12","22","03","00","UTC","-4.0","24.8","-4.0","24.8","100","10.8","6.7","-9999.0","-9999.0","270","West","2.5","1.6","1031","30.45","-8.3","17.1","-9999","-9999","-9999.00","-9999.00","Clear","clear","0","0","0","0","0","0","METAR UKKK 220300Z 27003MPS 2500 BR SKC M04/M04 Q1031 R26/810350 TEMPO BKN004"
"5:30 AM EET on December 22, 2016","2016","12","22","05","30","Europe/Kiev","3:30 AM GMT on December 22, 2016","2016","12","22","03","30","UTC","-4.0","24.8","-4.0","24.8","100","10.8","6.7","-9999.0","-9999.0","270","West","-9999.0","-9999.0","1030","30.42","-8.3","17.1","-9999","-9999","-9999.00","-9999.00","Clear","clear","0","0","0","0","0","0","METAR UKKK 220330Z 27003MPS 3800 BR SKC M04/M04 Q1030 R26/810350 NOSIG"
"6:00 AM EET on December 22, 2016","2016","12","22","06","00","Europe/Kiev","4:00 AM GMT on December 22, 2016","2016","12","22","04","00","UTC","-4.0","24.8","-5.0","23.0","93","7.2","4.5","-9999.0","-9999.0","260","West","-9999.0","-9999.0","1030","30.42","-7.1","19.2","-9999","-9999","-9999.00","-9999.00","Clear","clear","0","0","0","0","0","0","METAR UKKK 220400Z 26002MPS 3600 BR SKC M04/M05 Q1030 R26/810350 NOSIG"
"6:30 AM EET on December 22, 2016","2016","12","22","06","30","Europe/Kiev","4:30 AM GMT on December 22, 2016","2016","12","22","04","30","UTC","-4.0","24.8","-5.0","23.0","93","10.8","6.7","-9999.0","-9999.0","260","West","-9999.0","-9999.0","1030","30.42","-8.3","17.1","-9999","-9999","-9999.00","-9999.00","Clear","clear","0","0","0","0","0","0","METAR UKKK 220430Z 26003MPS 3700 BR SKC M04/M05 Q1030 R26/810350 NOSIG"
"7:00 AM EET on December 22, 2016","2016","12","22","07","00","Europe/Kiev","5:00 AM GMT on December 22, 2016","2016","12","22","05","00","UTC","-4.0","24.8","-5.0","23.0","93","10.8","6.7","-9999.0","-9999.0","260","West","-9999.0","-9999.0","1030","30.42","-8.3","17.1","-9999","-9999","-9999.00","-9999.00","Clear","clear","0","0","0","0","0","0","METAR UKKK 220500Z 26003MPS 4600 BR SKC M04/M05 Q1030 R26/810350 NOSIG"
"7:30 AM EET on December 22, 2016","2016","12","22","07","30","Europe/Kiev","5:30 AM GMT on December 22, 2016","2016","12","22","05","30","UTC","-5.0","23.0","-5.0","23.0","100","10.8","6.7","-9999.0","-9999.0","260","West","-9999.0","-9999.0","1030","30.42","-9.5","14.9","-9999","-9999","-9999.00","-9999.00","Clear","clear","0","0","0","0","0","0","METAR UKKK 220530Z 26003MPS 3300 BR SKC M05/M05 Q1030 R26/810350 NOSIG"
"8:00 AM EET on December 22, 2016","2016","12","22","08","00","Europe/Kiev","6:00 AM GMT on December 22, 2016","2016","12","22","06","00","UTC","-3","26","-4","25","94","7.2","4.5","","","330","NNW","4","2","1032","30.48","-999","-999","-9999","-9999","","","Mist","hazy","0","0","0","0","0","0","AAXX 22061 33345 31996 23302 11032 21039 30104 40320 58002 71011 80001 333 21033 43002 555 1/104"
"8:00 AM EET on December 22, 2016","2016","12","22","08","00","Europe/Kiev","6:00 AM GMT on December 22, 2016","2016","12","22","06","00","UTC","-5.0","23.0","-5.0","23.0","100","10.8","6.7","-9999.0","-9999.0","270","West","4.0","2.5","1030","30.42","-9.5","14.9","-9999","-9999","-9999.00","-9999.00","Clear","clear","0","0","0","0","0","0","METAR UKKK 220600Z 27003MPS 4000 BR SKC M05/M05 Q1030 R26/810350 NOSIG"
"8:30 AM EET on December 22, 2016","2016","12","22","08","30","Europe/Kiev","6:30 AM GMT on December 22, 2016","2016","12","22","06","30","UTC","-4.0","24.8","-5.0","23.0","93","10.8","6.7","-9999.0","-9999.0","250","WSW","-9999.0","-9999.0","1030","30.42","-8.3","17.1","-9999","-9999","-9999.00","-9999.00","Clear","clear","0","0","0","0","0","0","METAR UKKK 220630Z 25003MPS 4700 BR SKC M04/M05 Q1030 R26/810350 NOSIG"
"9:00 AM EET on December 22, 2016","2016","12","22","09","00","Europe/Kiev","7:00 AM GMT on December 22, 2016","2016","12","22","07","00","UTC","-4.0","24.8","-4.0","24.8","100","10.8","6.7","-9999.0","-9999.0","280","West","4.5","2.8","1031","30.45","-8.3","17.1","-9999","-9999","-9999.00","-9999.00","Clear","clear","0","0","0","0","0","0","METAR UKKK 220700Z 28003MPS 4500 BR SKC M04/M04 Q1031 R26/810350 NOSIG"
"9:30 AM EET on December 22, 2016","2016","12","22","09","30","Europe/Kiev","7:30 AM GMT on December 22, 2016","2016","12","22","07","30","UTC","-3.0","26.6","-4.0","24.8","93","7.2","4.5","-9999.0","-9999.0","270","West","5.0","3.1","1031","30.45","-5.9","21.3","-9999","-9999","-9999.00","-9999.00","Clear","clear","0","0","0","0","0","0","METAR UKKK 220730Z 27002MPS 5000 BR SKC M03/M04 Q1031 R26/810350 NOSIG"
"10:00 AM EET on December 22, 2016","2016","12","22","10","00","Europe/Kiev","8:00 AM GMT on December 22, 2016","2016","12","22","08","00","UTC","-3.0","26.6","-4.0","24.8","93","7.2","4.5","-9999.0","-9999.0","250","WSW","6.0","3.7","1031","30.45","-5.9","21.3","-9999","-9999","-9999.00","-9999.00","Clear","clear","0","0","0","0","0","0","METAR UKKK 220800Z 25002MPS 6000 SKC M03/M04 Q1031 R26/810350 NOSIG"
"10:30 AM EET on December 22, 2016","2016","12","22","10","30","Europe/Kiev","8:30 AM GMT on December 22, 2016","2016","12","22","08","30","UTC","-2.0","28.4","-4.0","24.8","86","3.6","2.2","-9999.0","-9999.0","0","Variable","6.0","3.7","1031","30.45","-999","-999","-9999","-9999","-9999.00","-9999.00","Clear","clear","0","0","0","0","0","0","METAR UKKK 220830Z VRB01MPS 6000 SKC M02/M04 Q1031 R26/810350 NOSIG"
"11:00 AM EET on December 22, 2016","2016","12","22","11","00","Europe/Kiev","9:00 AM GMT on December 22, 2016","2016","12","22","09","00","UTC","0","33","-3","27","70","7.2","4.5","","","320","NW","20","12","1032","30.48","-999","-999","-9999","-9999","","","","","0","0","0","0","0","0","AAXX 22091 33345 42998 03202 10004 21028 30107 40320 53003 555 1/000"
"11:00 AM EET on December 22, 2016","2016","12","22","11","00","Europe/Kiev","9:00 AM GMT on December 22, 2016","2016","12","22","09","00","UTC","-1.0","30.2","-4.0","24.8","80","7.2","4.5","-9999.0","-9999.0","270","West","6.0","3.7","1031","30.45","-3.6","25.5","-9999","-9999","-9999.00","-9999.00","Clear","clear","0","0","0","0","0","0","METAR UKKK 220900Z 27002MPS 6000 SKC M01/M04 Q1031 R26/810350 NOSIG"
"11:30 AM EET on December 22, 2016","2016","12","22","11","30","Europe/Kiev","9:30 AM GMT on December 22, 2016","2016","12","22","09","30","UTC","-1.0","30.2","-3.0","26.6","86","10.8","6.7","-9999.0","-9999.0","260","West","7.0","4.3","1030","30.42","-4.7","23.5","-9999","-9999","-9999.00","-9999.00","Clear","clear","0","0","0","0","0","0","METAR UKKK 220930Z 26003MPS 7000 SKC M01/M03 Q1030 R26/810350 NOSIG"
"12:00 PM EET on December 22, 2016","2016","12","22","12","00","Europe/Kiev","10:00 AM GMT on December 22, 2016","2016","12","22","10","00","UTC","0.0","32.0","-3.0","26.6","80","10.8","6.7","-9999.0","-9999.0","260","West","7.0","4.3","1030","30.42","-3.5","25.7","-9999","-9999","-9999.00","-9999.00","Clear","clear","0","0","0","0","0","0","METAR UKKK 221000Z 26003MPS 7000 SKC M00/M03 Q1030 R26/810350 NOSIG"
"12:30 PM EET on December 22, 2016","2016","12","22","12","30","Europe/Kiev","10:30 AM GMT on December 22, 2016","2016","12","22","10","30","UTC","0.0","32.0","-3.0","26.6","80","10.8","6.7","-9999.0","-9999.0","270","West","8.0","5.0","1030","30.42","-3.5","25.7","-9999","-9999","-9999.00","-9999.00","Clear","clear","0","0","0","0","0","0","METAR UKKK 221030Z 27003MPS 8000 SKC 00/M03 Q1030 R26/810350 NOSIG"
"1:00 PM EET on December 22, 2016","2016","12","22","13","00","Europe/Kiev","11:00 AM GMT on December 22, 2016","2016","12","22","11","00","UTC","1.0","33.8","-2.0","28.4","81","10.8","6.7","-9999.0","-9999.0","270","West","8.0","5.0","1030","30.42","-2.3","27.9","-9999","-9999","-9999.00","-9999.00","Clear","clear","0","0","0","0","0","0","METAR UKKK 221100Z 27003MPS 8000 SKC 01/M02 Q1030 R26/810350 NOSIG"
"1:30 PM EET on December 22, 2016","2016","12","22","13","30","Europe/Kiev","11:30 AM GMT on December 22, 2016","2016","12","22","11","30","UTC","1.0","33.8","-2.0","28.4","81","10.8","6.7","-9999.0","-9999.0","270","West","9.0","5.6","1030","30.42","-2.3","27.9","-9999","-9999","-9999.00","-9999.00","Clear","clear","0","0","0","0","0","0","METAR UKKK 221130Z 27003MPS 9000 SKC 01/M02 Q1030 R26/810350 NOSIG"
"2:00 PM EET on December 22, 2016","2016","12","22","14","00","Europe/Kiev","12:00 PM GMT on December 22, 2016","2016","12","22","12","00","UTC","2","35","-2","29","70","7.2","4.5","","","320","NW","20","12","1031","30.46","-999","-999","-9999","-9999","","","","","0","0","0","0","0","0","AAXX 22121 33345 32998 03202 10019 21018 30102 40313 58005 555 1/001"
"2:00 PM EET on December 22, 2016","2016","12","22","14","00","Europe/Kiev","12:00 PM GMT on December 22, 2016","2016","12","22","12","00","UTC","1.0","33.8","-2.0","28.4","81","7.2","4.5","-9999.0","-9999.0","270","West","9.0","5.6","1030","30.42","-1.3","29.7","-9999","-9999","-9999.00","-9999.00","Clear","clear","0","0","0","0","0","0","METAR UKKK 221200Z 27002MPS 9000 SKC 01/M02 Q1030 R26/810350 NOSIG"
"2:30 PM EET on December 22, 2016","2016","12","22","14","30","Europe/Kiev","12:30 PM GMT on December 22, 2016","2016","12","22","12","30","UTC","0.0","32.0","-2.0","28.4","87","10.8","6.7","-9999.0","-9999.0","260","West","9.0","5.6","1030","30.42","-3.5","25.7","-9999","-9999","-9999.00","-9999.00","Clear","clear","0","0","0","0","0","0","METAR UKKK 221230Z 26003MPS 9000 SKC 00/M02 Q1030 R26/810350 NOSIG"
"3:00 PM EET on December 22, 2016","2016","12","22","15","00","Europe/Kiev","1:00 PM GMT on December 22, 2016","2016","12","22","13","00","UTC","-2.0","28.4","-3.0","26.6","93","18.0","11.2","-9999.0","-9999.0","280","West","6.0","3.7","1030","30.42","-7.4","18.7","-9999","-9999","-9999.00","-9999.00","Clear","clear","0","0","0","0","0","0","METAR UKKK 221300Z 28005MPS 6000 SKC M02/M03 Q1030 R26/810350 NOSIG"
"3:30 PM EET on December 22, 2016","2016","12","22","15","30","Europe/Kiev","1:30 PM GMT on December 22, 2016","2016","12","22","13","30","UTC","-2.0","28.4","-3.0","26.6","93","14.4","8.9","-9999.0","-9999.0","270","West","4.0","2.5","1030","30.42","-6.7","19.9","-9999","-9999","-9999.00","-9999.00","Scattered Clouds","partlycloudy","0","0","0","0","0","0","METAR UKKK 221330Z 27004MPS 4000 BR SCT004 M02/M03 Q1030 R26/810350 TEMPO 1000 BR BKN003"
"4:00 PM EET on December 22, 2016","2016","12","22","16","00","Europe/Kiev","2:00 PM GMT on December 22, 2016","2016","12","22","14","00","UTC","-2.0","28.4","-3.0","26.6","93","10.8","6.7","-9999.0","-9999.0","270","West","-9999.0","-9999.0","1031","30.45","-5.9","21.4","-9999","-9999","-9999.00","-9999.00","Scattered Clouds","partlycloudy","0","0","0","0","0","0","METAR UKKK 221400Z 27003MPS 3400 BR SCT004 M02/M03 Q1031 R26/810350 TEMPO 1000 BR BKN002"
"4:30 PM EET on December 22, 2016","2016","12","22","16","30","Europe/Kiev","2:30 PM GMT on December 22, 2016","2016","12","22","14","30","UTC","-3.0","26.6","-3.0","26.6","100","10.8","6.7","-9999.0","-9999.0","300","WNW","1.2","0.7","1031","30.45","-7.1","19.2","-9999","-9999","-9999.00","-9999.00","Mostly Cloudy","mostlycloudy","0","0","0","0","0","0","METAR UKKK 221430Z 30003MPS 1200 R26/1900U BR BKN002 M03/M03 Q1031 R26/810350 TEMPO 0300 FZFG VV001"
"4:50 PM EET on December 22, 2016","2016","12","22","16","50","Europe/Kiev","2:50 PM GMT on December 22, 2016","2016","12","22","14","50","UTC","-3.0","26.6","-3.0","26.6","100","10.8","6.7","-9999.0","-9999.0","320","NW","-9999.0","-9999.0","1031","30.45","-7.1","19.2","-9999","-9999","-9999.00","-9999.00","Light Freezing Fog","fog","1","0","0","0","0","0","SPECI UKKK 221450Z 32003MPS 290V360 0750 R26/P2000N FZFG BKN002 M03/M03 Q1031 R26/810350 TEMPO 0300 FZFG VV001"
"5:00 PM EET on December 22, 2016","2016","12","22","17","00","Europe/Kiev","3:00 PM GMT on December 22, 2016","2016","12","22","15","00","UTC","-2","28","-4","26","86","7.2","4.5","","","350","North","4","2","1032","30.48","-999","-999","-9999","-9999","","","Mist","hazy","0","0","0","0","0","0","AAXX 22151 33345 41496 83502 11021 21036 30107 40322 53005 71011 886// 333 88710 555 1/104"
"5:00 PM EET on December 22, 2016","2016","12","22","17","00","Europe/Kiev","3:00 PM GMT on December 22, 2016","2016","12","22","15","00","UTC","-3.0","26.6","-3.0","26.6","100","7.2","4.5","-9999.0","-9999.0","300","WNW","1.2","0.7","1031","30.45","-5.9","21.3","-9999","-9999","-9999.00","-9999.00","Mostly Cloudy","mostlycloudy","0","0","0","0","0","0","METAR UKKK 221500Z 30002MPS 1200 R26/P2000D BR BKN002 M03/M03 Q1031 REFZFG R26/810350 TEMPO 0300 FZFG VV001"
"5:25 PM EET on December 22, 2016","2016","12","22","17","25","Europe/Kiev","3:25 PM GMT on December 22, 2016","2016","12","22","15","25","UTC","-3.0","26.6","-3.0","26.6","100","7.2","4.5","-9999.0","-9999.0","300","WNW","0.6","0.4","1031","30.45","-5.9","21.3","-9999","-9999","-9999.00","-9999.00","Light Freezing Fog","fog","1","0","0","0","0","0","SPECI UKKK 221525Z 30002MPS 270V340 0600 R26/1000VP2000D FZFG BKN002 M03/M03 Q1031 R26/810350 TEMPO 0300 FZFG VV001"
"5:30 PM EET on December 22, 2016","2016","12","22","17","30","Europe/Kiev","3:30 PM GMT on December 22, 2016","2016","12","22","15","30","UTC","-3.0","26.6","-3.0","26.6","100","3.6","2.2","-9999.0","-9999.0","0","Variable","0.8","0.5","1031","30.45","-999","-999","-9999","-9999","-9999.00","-9999.00","Light Freezing Fog","fog","1","0","0","0","0","0","METAR UKKK 221530Z VRB01MPS 0800 R26/1000VP2000D FZFG BKN002 M03/M03 Q1031 R26/810350 TEMPO 0300 FZFG VV001"
"5:35 PM EET on December 22, 2016","2016","12","22","17","35","Europe/Kiev","3:35 PM GMT on December 22, 2016","2016","12","22","15","35","UTC","-3.0","26.6","-3.0","26.6","100","3.6","2.2","-9999.0","-9999.0","0","Variable","0.5","0.3","1031","30.45","-999","-999","-9999","-9999","-9999.00","-9999.00","Light Freezing Fog","fog","1","0","0","0","0","0","SPECI UKKK 221535Z VRB01MPS 0500 R26/1500VP2000U FZFG BKN001 M03/M03 Q1031 R26/810350 TEMPO 0300 FZFG VV001"
"6:00 PM EET on December 22, 2016","2016","12","22","18","00","Europe/Kiev","4:00 PM GMT on December 22, 2016","2016","12","22","16","00","UTC","-3.0","26.6","-3.0","26.6","100","7.2","4.5","-9999.0","-9999.0","320","NW","0.9","0.6","1031","30.45","-5.9","21.3","-9999","-9999","-9999.00","-9999.00","Light Freezing Fog","fog","1","0","0","0","0","0","METAR UKKK 221600Z 32002MPS 0900 R26/1800U FZFG BKN001 M03/M03 Q1031 R26/810350 TEMPO 0300 FZFG VV001"
"6:16 PM EET on December 22, 2016","2016","12","22","18","16","Europe/Kiev","4:16 PM GMT on December 22, 2016","2016","12","22","16","16","UTC","-3.0","26.6","-3.0","26.6","100","3.6","2.2","-9999.0","-9999.0","0","Variable","-9999.0","-9999.0","1031","30.45","-999","-999","-9999","-9999","-9999.00","-9999.00","Light Freezing Fog","fog","1","0","0","0","0","0","SPECI UKKK 221616Z VRB01MPS 0650 R26/1800U FZFG BKN001 M03/M03 Q1031 R26/810350 TEMPO 0300 FZFG VV001"
"6:30 PM EET on December 22, 2016","2016","12","22","18","30","Europe/Kiev","4:30 PM GMT on December 22, 2016","2016","12","22","16","30","UTC","-3.0","26.6","-3.0","26.6","100","3.6","2.2","-9999.0","-9999.0","0","Variable","-9999.0","-9999.0","1031","30.45","-999","-999","-9999","-9999","-9999.00","-9999.00","Light Freezing Fog","fog","1","0","0","0","0","0","METAR UKKK 221630Z VRB01MPS 0550 R26/1300N FZFG BKN001 M03/M03 Q1031 R26/810350 TEMPO 0300 FZFG VV001"
"7:00 PM EET on December 22, 2016","2016","12","22","19","00","Europe/Kiev","5:00 PM GMT on December 22, 2016","2016","12","22","17","00","UTC","-3.0","26.6","-3.0","26.6","100","7.2","4.5","-9999.0","-9999.0","280","West","-9999.0","-9999.0","1031","30.45","-5.9","21.3","-9999","-9999","-9999.00","-9999.00","Light Freezing Fog","fog","1","0","0","0","0","0","METAR UKKK 221700Z 28002MPS 250V320 0550 R26/1000V2000D FZFG BKN001 OVC007 M03/M03 Q1031 R26/810350 TEMPO 0300 FZFG VV001"
"7:30 PM EET on December 22, 2016","2016","12","22","19","30","Europe/Kiev","5:30 PM GMT on December 22, 2016","2016","12","22","17","30","UTC","-3.0","26.6","-3.0","26.6","100","7.2","4.5","-9999.0","-9999.0","280","West","0.3","0.2","1031","30.45","-5.9","21.3","-9999","-9999","-9999.00","-9999.00","Light Freezing Fog","fog","1","0","0","0","0","0","METAR UKKK 221730Z 28002MPS 240V310 0350 R26/0900N FZFG BKN001 OVC007 M03/M03 Q1031 R26/810350 TEMPO 0300 FZFG VV001"
"7:44 PM EET on December 22, 2016","2016","12","22","19","44","Europe/Kiev","5:44 PM GMT on December 22, 2016","2016","12","22","17","44","UTC","-3.0","26.6","-4.0","24.8","93","7.2","4.5","-9999.0","-9999.0","270","West","0.2","0.2","1031","30.45","-5.9","21.3","-9999","-9999","-9999.00","-9999.00","Light Freezing Fog","fog","1","0","0","0","0","0","SPECI UKKK 221744Z 27002MPS 0250 R26/0750D FZFG VV001 M03/M04 Q1031 R26/810350 NOSIG"
"8:00 PM EET on December 22, 2016","2016","12","22","20","00","Europe/Kiev","6:00 PM GMT on December 22, 2016","2016","12","22","18","00","UTC","-3","27","-4","26","92","3.6","2.2","","","290","WNW","1","1","1032","30.49","-999","-999","-9999","-9999","","","Mist","hazy","0","0","0","0","0","0","AAXX 22181 33345 31294 82901 11029 21036 30109 40324 52002 71011 886// 333 10024 88705 555 1/102"
"8:00 PM EET on December 22, 2016","2016","12","22","20","00","Europe/Kiev","6:00 PM GMT on December 22, 2016","2016","12","22","18","00","UTC","-3.0","26.6","-4.0","24.8","93","7.2","4.5","-9999.0","-9999.0","260","West","0.3","0.2","1031","30.45","-5.9","21.3","-9999","-9999","-9999.00","-9999.00","Light Freezing Fog","fog","1","0","0","0","0","0","METAR UKKK 221800Z 26002MPS 0300 R08/1000U FZFG VV002 M03/M04 Q1031 R08/810350 NOSIG"
"8:13 PM EET on December 22, 2016","2016","12","22","20","13","Europe/Kiev","6:13 PM GMT on December 22, 2016","2016","12","22","18","13","UTC","-3.0","26.6","-4.0","24.8","93","7.2","4.5","-9999.0","-9999.0","270","West","0.2","0.2","1031","30.45","-5.9","21.3","-9999","-9999","-9999.00","-9999.00","Light Freezing Fog","fog","1","0","0","0","0","0","SPECI UKKK 221813Z 27002MPS 0250 R26/0750N FZFG VV002 M03/M04 Q1031 R26/810350 NOSIG"
"8:30 PM EET on December 22, 2016","2016","12","22","20","30","Europe/Kiev","6:30 PM GMT on December 22, 2016","2016","12","22","18","30","UTC","-3.0","26.6","-4.0","24.8","93","7.2","4.5","-9999.0","-9999.0","280","West","0.2","0.2","1031","30.45","-5.9","21.3","-9999","-9999","-9999.00","-9999.00","Light Freezing Fog","fog","1","0","0","0","0","0","METAR UKKK 221830Z 28002MPS 0250 R26/0700N FZFG VV002 M03/M04 Q1031 R26/810350 NOSIG"
"9:00 PM EET on December 22, 2016","2016","12","22","21","00","Europe/Kiev","7:00 PM GMT on December 22, 2016","2016","12","22","19","00","UTC","-3.0","26.6","-4.0","24.8","93","10.8","6.7","-9999.0","-9999.0","260","West","0.3","0.2","1031","30.45","-7.1","19.2","-9999","-9999","-9999.00","-9999.00","Light Freezing Fog","fog","1","0","0","0","0","0","METAR UKKK 221900Z 26003MPS 0300 R26/0800U FZFG VV002 M03/M04 Q1031 R26/810350 NOSIG"
"9:04 PM EET on December 22, 2016","2016","12","22","21","04","Europe/Kiev","7:04 PM GMT on December 22, 2016","2016","12","22","19","04","UTC","-3.0","26.6","-4.0","24.8","93","10.8","6.7","-9999.0","-9999.0","260","West","0.3","0.2","1031","30.45","-7.1","19.2","-9999","-9999","-9999.00","-9999.00","Light Freezing Fog","fog","1","0","0","0","0","0","SPECI UKKK 221904Z 26003MPS 0300 R26/0750V1200N FZFG VV002 M03/M04 Q1031 R26/810350 NOSIG"
"9:25 PM EET on December 22, 2016","2016","12","22","21","25","Europe/Kiev","7:25 PM GMT on December 22, 2016","2016","12","22","19","25","UTC","-3.0","26.6","-4.0","24.8","93","7.2","4.5","-9999.0","-9999.0","290","WNW","0.1","0.1","1031","30.45","-5.9","21.3","-9999","-9999","-9999.00","-9999.00","Light Freezing Fog","fog","1","0","0","0","0","0","SPECI UKKK 221925Z 29002MPS 260V320 0150 R26/0550N FZFG VV002 M03/M04 Q1031 R26/810350 NOSIG"
"9:30 PM EET on December 22, 2016","2016","12","22","21","30","Europe/Kiev","7:30 PM GMT on December 22, 2016","2016","12","22","19","30","UTC","-3.0","26.6","-4.0","24.8","93","10.8","6.7","-9999.0","-9999.0","280","West","0.1","0.1","1031","30.45","-7.1","19.2","-9999","-9999","-9999.00","-9999.00","Light Freezing Fog","fog","1","0","0","0","0","0","METAR UKKK 221930Z 28003MPS 260V320 0150 R26/0550N FZFG VV002 M03/M04 Q1031 R26/810350 NOSIG"
"10:00 PM EET on December 22, 2016","2016","12","22","22","00","Europe/Kiev","8:00 PM GMT on December 22, 2016","2016","12","22","20","00","UTC","-4.0","24.8","-4.0","24.8","100","10.8","6.7","-9999.0","-9999.0","270","West","0.2","0.1","1031","30.45","-8.3","17.1","-9999","-9999","-9999.00","-9999.00","Light Freezing Fog","fog","1","0","0","0","0","0","METAR UKKK 222000Z 27003MPS 0200 R26/0550N FZFG VV002 M04/M04 Q1031 R26/810350 NOSIG"
"10:30 PM EET on December 22, 2016","2016","12","22","22","30","Europe/Kiev","8:30 PM GMT on December 22, 2016","2016","12","22","20","30","UTC","-4.0","24.8","-4.0","24.8","100","10.8","6.7","-9999.0","-9999.0","260","West","0.2","0.2","1030","30.42","-8.3","17.1","-9999","-9999","-9999.00","-9999.00","Light Freezing Fog","fog","1","0","0","0","0","0","METAR UKKK 222030Z 26003MPS 0250 R08/0800N FZFG VV002 M04/M04 Q1030 R08/810350 NOSIG"
"10:38 PM EET on December 22, 2016","2016","12","22","22","38","Europe/Kiev","8:38 PM GMT on December 22, 2016","2016","12","22","20","38","UTC","-4.0","24.8","-4.0","24.8","100","10.8","6.7","-9999.0","-9999.0","260","West","0.2","0.1","1030","30.42","-8.3","17.1","-9999","-9999","-9999.00","-9999.00","Light Freezing Fog","fog","1","0","0","0","0","0","SPECI UKKK 222038Z 26003MPS 0200 R08/0700N FZFG VV002 M04/M04 Q1030 R08/810350 NOSIG"
"11:00 PM EET on December 22, 2016","2016","12","22","23","00","Europe/Kiev","9:00 PM GMT on December 22, 2016","2016","12","22","21","00","UTC","-4","26","-4","26","97","7.2","4.5","","","290","WNW","0.5","0","1032","30.48","-999","-999","-9999","-9999","","","Heavy Fog","fog","1","0","0","0","0","0","AAXX 22211 33345 41/93 92902 11035 21036 30106 40322 58003 74542 555 1/103"
"11:00 PM EET on December 22, 2016","2016","12","22","23","00","Europe/Kiev","9:00 PM GMT on December 22, 2016","2016","12","22","21","00","UTC","-3.0","26.6","-4.0","24.8","93","10.8","6.7","-9999.0","-9999.0","270","West","0.2","0.2","1031","30.45","-7.1","19.2","-9999","-9999","-9999.00","-9999.00","Light Freezing Fog","fog","1","0","0","0","0","0","METAR UKKK 222100Z 27003MPS 240V310 0250 R08/0600V1000D FZFG VV002 M03/M04 Q1031 R08/810350 TEMPO 0300 -FZDZ FZFG OVC001"
"11:30 PM EET on December 22, 2016","2016","12","22","23","30","Europe/Kiev","9:30 PM GMT on December 22, 2016","2016","12","22","21","30","UTC","-3.0","26.6","-4.0","24.8","93","10.8","6.7","-9999.0","-9999.0","290","WNW","0.2","0.1","1030","30.42","-7.1","19.2","-9999","-9999","-9999.00","-9999.00","Light Freezing Fog","fog","1","0","0","0","0","0","METAR UKKK 222130Z 29003MPS 270V330 0200 R08/0750N FZFG VV002 M03/M04 Q1030 R08/810350 TEMPO 0300 -FZDZ FZFG OVC001"
"12:00 AM EET on December 23, 2016","2016","12","23","00","00","Europe/Kiev","10:00 PM GMT on December 22, 2016","2016","12","22","22","00","UTC","-3.0","26.6","-3.0","26.6","100","7.2","4.5","-9999.0","-9999.0","260","West","0.9","0.6","1030","30.42","-5.9","21.3","-9999","-9999","-9999.00","-9999.00","Light Freezing Fog","fog","1","0","0","0","0","0","METAR UKKK 222200Z 26002MPS 210V290 0900 R08/P2000D FZFG OVC001 M03/M03 Q1030 R08/810350 TEMPO 0300 -FZDZ FZFG OVC001"
"12:06 AM EET on December 23, 2016","2016","12","23","00","06","Europe/Kiev","10:06 PM GMT on December 22, 2016","2016","12","22","22","06","UTC","-3.0","26.6","-3.0","26.6","100","7.2","4.5","-9999.0","-9999.0","260","West","0.2","0.1","1030","30.42","-5.9","21.3","-9999","-9999","-9999.00","-9999.00","Light Freezing Fog","fog","1","0","0","0","0","0","SPECI UKKK 222206Z 26002MPS 0200 R08/0600VP2000D FZFG VV001 M03/M03 Q1030 R08/810350 TEMPO 0300 -FZDZ FZFG OVC001"
"12:30 AM EET on December 23, 2016","2016","12","23","00","30","Europe/Kiev","10:30 PM GMT on December 22, 2016","2016","12","22","22","30","UTC","-3.0","26.6","-4.0","24.8","93","10.8","6.7","-9999.0","-9999.0","250","WSW","0.2","0.2","1030","30.42","-7.1","19.2","-9999","-9999","-9999.00","-9999.00","Light Freezing Fog","fog","1","0","0","0","0","0","METAR UKKK 222230Z 25003MPS 0250 R08/0800D FZFG VV002 M03/M04 Q1030 R08/810350 TEMPO 0300 -FZDZ FZFG OVC001"
"12:49 AM EET on December 23, 2016","2016","12","23","00","49","Europe/Kiev","10:49 PM GMT on December 22, 2016","2016","12","22","22","49","UTC","-3.0","26.6","-4.0","24.8","93","10.8","6.7","-9999.0","-9999.0","270","West","0.3","0.2","1030","30.42","-7.1","19.2","-9999","-9999","-9999.00","-9999.00","Light Freezing Fog","fog","1","0","0","0","0","0","SPECI UKKK 222249Z 27003MPS 0300 R08/0600V1200D FZFG VV002 M03/M04 Q1030 R08/320145 TEMPO 0300 -FZDZ FZFG OVC001"
"1:00 AM EET on December 23, 2016","2016","12","23","01","00","Europe/Kiev","11:00 PM GMT on December 22, 2016","2016","12","22","23","00","UTC","-3.0","26.6","-4.0","24.8","93","10.8","6.7","-9999.0","-9999.0","250","WSW","0.2","0.1","1030","30.42","-7.1","19.2","-9999","-9999","-9999.00","-9999.00","Light Freezing Fog","fog","1","0","0","0","0","0","METAR UKKK 222300Z 25003MPS 0200 R08/0650N FZFG VV002 M03/M04 Q1030 R08/320145 TEMPO 0300 -FZDZ FZFG OVC001"
"1:30 AM EET on December 23, 2016","2016","12","23","01","30","Europe/Kiev","11:30 PM GMT on December 22, 2016","2016","12","22","23","30","UTC","-3.0","26.6","-4.0","24.8","93","7.2","4.5","-9999.0","-9999.0","250","WSW","0.2","0.1","1030","30.42","-5.9","21.3","-9999","-9999","-9999.00","-9999.00","Light Freezing Fog","fog","1","0","0","0","0","0","METAR UKKK 222330Z 25002MPS 0200 R08/0550N FZFG VV002 M03/M04 Q1030 R08/320145 TEMPO 0300 -FZDZ FZFG OVC001"
"2:00 AM EET on December 23, 2016","2016","12","23","02","00","Europe/Kiev","12:00 AM GMT on December 23, 2016","2016","12","23","00","00","UTC","-3","26","-4","26","98","3.6","2.2","","","310","NW","0.5","0","1032","30.47","-999","-999","-9999","-9999","","","Heavy Fog","fog","1","0","0","0","0","0","AAXX 23001 33345 31/93 93101 11034 21035 30102 40318 57004 74542 555 1/103"
"2:00 AM EET on December 23, 2016","2016","12","23","02","00","Europe/Kiev","12:00 AM GMT on December 23, 2016","2016","12","23","00","00","UTC","-3.0","26.6","-3.0","26.6","100","7.2","4.5","-9999.0","-9999.0","260","West","0.1","0.1","1030","30.42","-5.9","21.3","-9999","-9999","-9999.00","-9999.00","Light Freezing Fog","fog","1","0","0","0","0","0","METAR UKKK 230000Z 26002MPS 0150 R08/0550N FZFG VV002 M03/M03 Q1030 R08/320145 TEMPO 0200 -FZDZ FZFG OVC001"
"2:08 AM EET on December 23, 2016","2016","12","23","02","08","Europe/Kiev","12:08 AM GMT on December 23, 2016","2016","12","23","00","08","UTC","-3.0","26.6","-3.0","26.6","100","7.2","4.5","-9999.0","-9999.0","270","West","0.1","0.1","1030","30.42","-5.9","21.3","-9999","-9999","-9999.00","-9999.00","Light Freezing Fog","fog","1","0","0","0","0","0","SPECI UKKK 230008Z 27002MPS 0150 R08/0500N FZFG VV001 M03/M03 Q1030 R08/320145 TEMPO 0200 -FZDZ FZFG OVC001"
"2:30 AM EET on December 23, 2016","2016","12","23","02","30","Europe/Kiev","12:30 AM GMT on December 23, 2016","2016","12","23","00","30","UTC","-3.0","26.6","-3.0","26.6","100","10.8","6.7","-9999.0","-9999.0","290","WNW","0.1","0.1","1030","30.42","-7.1","19.2","-9999","-9999","-9999.00","-9999.00","Light Freezing Fog","fog","1","0","0","0","0","0","METAR UKKK 230030Z 29003MPS 0150 R08/0500N FZFG VV001 M03/M03 Q1030 R08/320145 TEMPO 0200 -FZDZ FZFG OVC001"
"3:00 AM EET on December 23, 2016","2016","12","23","03","00","Europe/Kiev","1:00 AM GMT on December 23, 2016","2016","12","23","01","00","UTC","-3.0","26.6","-4.0","24.8","93","10.8","6.7","-9999.0","-9999.0","280","West","0.2","0.1","1030","30.42","-7.1","19.2","-9999","-9999","-9999.00","-9999.00","Light Freezing Fog","fog","1","0","0","0","0","0","METAR UKKK 230100Z 28003MPS 0200 R26/0400V0800D FZFG VV001 M03/M04 Q1030 R26/320145 TEMPO 0200 -FZDZ FZFG OVC001"
"3:30 AM EET on December 23, 2016","2016","12","23","03","30","Europe/Kiev","1:30 AM GMT on December 23, 2016","2016","12","23","01","30","UTC","-3.0","26.6","-3.0","26.6","100","7.2","4.5","-9999.0","-9999.0","250","WSW","0.2","0.1","1030","30.42","-5.9","21.3","-9999","-9999","-9999.00","-9999.00","Light Freezing Fog","fog","1","0","0","0","0","0","METAR UKKK 230130Z 25002MPS 0200 R26/0600N FZFG VV002 M03/M03 Q1030 R26/320145 TEMPO -FZDZ"
"3:33 AM EET on December 23, 2016","2016","12","23","03","33","Europe/Kiev","1:33 AM GMT on December 23, 2016","2016","12","23","01","33","UTC","-3.0","26.6","-4.0","24.8","93","7.2","4.5","-9999.0","-9999.0","250","WSW","0.1","0.1","1030","30.42","-5.9","21.3","-9999","-9999","-9999.00","-9999.00","Light Freezing Fog","fog","1","0","0","0","0","0","SPECI UKKK 230133Z 25002MPS 0150 R26/0550N FZFG VV002 M03/M04 Q1030 R26/320145 TEMPO -FZDZ"
"4:00 AM EET on December 23, 2016","2016","12","23","04","00","Europe/Kiev","2:00 AM GMT on December 23, 2016","2016","12","23","02","00","UTC","-3.0","26.6","-4.0","24.8","93","7.2","4.5","-9999.0","-9999.0","270","West","0.2","0.1","1030","30.42","-5.9","21.3","-9999","-9999","-9999.00","-9999.00","Light Freezing Fog","fog","1","0","0","0","0","0","METAR UKKK 230200Z 27002MPS 0200 R26/0550N FZFG VV001 M03/M04 Q1030 R26/320145 TEMPO -FZDZ"
"4:30 AM EET on December 23, 2016","2016","12","23","04","30","Europe/Kiev","2:30 AM GMT on December 23, 2016","2016","12","23","02","30","UTC","-3.0","26.6","-4.0","24.8","93","7.2","4.5","-9999.0","-9999.0","250","WSW","0.1","0.1","1030","30.42","-5.9","21.3","-9999","-9999","-9999.00","-9999.00","Light Freezing Fog","fog","1","0","0","0","0","0","METAR UKKK 230230Z 25002MPS 220V280 0150 R26/0550N FZFG VV001 M03/M04 Q1030 R26/320145 TEMPO -FZDZ"
"5:00 AM EET on December 23, 2016","2016","12","23","05","00","Europe/Kiev","3:00 AM GMT on December 23, 2016","2016","12","23","03","00","UTC","-3","26","-4","26","98","3.6","2.2","","","230","SW","0.2","0","1031","30.45","-999","-999","-9999","-9999","","","Heavy Fog","fog","1","0","0","0","0","0","AAXX 23031 33345 41/92 92301 11034 21035 30095 40311 57007 74544 555 1/103"
"5:00 AM EET on December 23, 2016","2016","12","23","05","00","Europe/Kiev","3:00 AM GMT on December 23, 2016","2016","12","23","03","00","UTC","-3.0","26.6","-4.0","24.8","93","7.2","4.5","-9999.0","-9999.0","250","WSW","0.1","0.1","1029","30.39","-5.9","21.3","-9999","-9999","-9999.00","-9999.00","Light Freezing Fog","fog","1","0","0","0","0","0","METAR UKKK 230300Z 25002MPS 210V280 0150 R26/0550N FZFG VV001 M03/M04 Q1029 R26/320145 TEMPO -FZDZ"
"5:30 AM EET on December 23, 2016","2016","12","23","05","30","Europe/Kiev","3:30 AM GMT on December 23, 2016","2016","12","23","03","30","UTC","-4.0","24.8","-4.0","24.8","100","7.2","4.5","-9999.0","-9999.0","240","WSW","0.1","0.1","1029","30.39","-7.1","19.2","-9999","-9999","-9999.00","-9999.00","Light Freezing Fog","fog","1","0","0","0","0","0","METAR UKKK 230330Z 24002MPS 210V270 0150 R26/0600N FZFG VV001 M04/M04 Q1029 R26/320145 TEMPO -FZDZ"
"5:34 AM EET on December 23, 2016","2016","12","23","05","34","Europe/Kiev","3:34 AM GMT on December 23, 2016","2016","12","23","03","34","UTC","-4.0","24.8","-4.0","24.8","100","7.2","4.5","-9999.0","-9999.0","250","WSW","0.1","0.1","1029","30.39","-7.1","19.2","-9999","-9999","-9999.00","-9999.00","Light Freezing Fog","fog","1","0","0","0","0","0","SPECI UKKK 230334Z 25002MPS 0150 R26/0550N FZFG VV001 M04/M04 Q1029 R26/320145 TEMPO -FZDZ"
"6:00 AM EET on December 23, 2016","2016","12","23","06","00","Europe/Kiev","4:00 AM GMT on December 23, 2016","2016","12","23","04","00","UTC","-4.0","24.8","-4.0","24.8","100","10.8","6.7","-9999.0","-9999.0","260","West","0.1","0.1","1029","30.39","-8.3","17.1","-9999","-9999","-9999.00","-9999.00","Light Freezing Fog","fog","1","0","0","0","0","0","METAR UKKK 230400Z 26003MPS 0150 R26/0600N FZFG VV001 M04/M04 Q1029 R26/320145 TEMPO -FZDZ"
"6:10 AM EET on December 23, 2016","2016","12","23","06","10","Europe/Kiev","4:10 AM GMT on December 23, 2016","2016","12","23","04","10","UTC","-4.0","24.8","-4.0","24.8","100","7.2","4.5","-9999.0","-9999.0","260","West","0.2","0.1","1029","30.39","-7.1","19.2","-9999","-9999","-9999.00","-9999.00","Light Freezing Fog","fog","1","0","0","0","0","0","SPECI UKKK 230410Z 26002MPS 0200 R26/0550N FZFG VV001 M04/M04 Q1029 R26/320145 TEMPO -FZDZ"
"6:30 AM EET on December 23, 2016","2016","12","23","06","30","Europe/Kiev","4:30 AM GMT on December 23, 2016","2016","12","23","04","30","UTC","-4.0","24.8","-4.0","24.8","100","7.2","4.5","-9999.0","-9999.0","260","West","0.2","0.1","1029","30.39","-7.1","19.2","-9999","-9999","-9999.00","-9999.00","Light Freezing Fog","fog","1","0","0","0","0","0","METAR UKKK 230430Z 26002MPS 0200 R26/0600N FZFG VV002 M04/M04 Q1029 R26/320145 TEMPO -FZDZ"
"6:39 AM EET on December 23, 2016","2016","12","23","06","39","Europe/Kiev","4:39 AM GMT on December 23, 2016","2016","12","23","04","39","UTC","-4.0","24.8","-4.0","24.8","100","10.8","6.7","-9999.0","-9999.0","240","WSW","0.1","0.1","1029","30.39","-8.3","17.1","-9999","-9999","-9999.00","-9999.00","Light Freezing Fog","fog","1","0","0","0","0","0","SPECI UKKK 230439Z 24003MPS 0150 R26/0550N FZFG VV002 M04/M04 Q1029 R26/320145 TEMPO -FZDZ"
"7:00 AM EET on December 23, 2016","2016","12","23","07","00","Europe/Kiev","5:00 AM GMT on December 23, 2016","2016","12","23","05","00","UTC","-4.0","24.8","-4.0","24.8","100","7.2","4.5","-9999.0","-9999.0","240","WSW","0.2","0.1","1029","30.39","-7.1","19.2","-9999","-9999","-9999.00","-9999.00","Light Freezing Fog","fog","1","0","0","0","0","0","METAR UKKK 230500Z 24002MPS 0200 R26/0650N FZFG VV002 M04/M04 Q1029 R26/320145 TEMPO -FZDZ"
"7:30 AM EET on December 23, 2016","2016","12","23","07","30","Europe/Kiev","5:30 AM GMT on December 23, 2016","2016","12","23","05","30","UTC","-4.0","24.8","-5.0","23.0","93","10.8","6.7","-9999.0","-9999.0","240","WSW","0.2","0.2","1029","30.39","-8.3","17.1","-9999","-9999","-9999.00","-9999.00","Light Freezing Fog","fog","1","0","0","0","0","0","METAR UKKK 230530Z 24003MPS 200V270 0250 R26/0800N FZFG VV002 M04/M05 Q1029 R26/320145 TEMPO -FZDZ"
"7:34 AM EET on December 23, 2016","2016","12","23","07","34","Europe/Kiev","5:34 AM GMT on December 23, 2016","2016","12","23","05","34","UTC","-4.0","24.8","-4.0","24.8","100","10.8","6.7","-9999.0","-9999.0","260","West","0.2","0.2","1029","30.39","-8.3","17.1","-9999","-9999","-9999.00","-9999.00","Light Freezing Fog","fog","1","0","0","0","0","0","SPECI UKKK 230534Z 26003MPS 0250 R26/0550V0900D FZFG VV002 M04/M04 Q1029 R26/320145 TEMPO -FZDZ"
"8:00 AM EET on December 23, 2016","2016","12","23","08","00","Europe/Kiev","6:00 AM GMT on December 23, 2016","2016","12","23","06","00","UTC","-4","25","-4","24","97","7.2","4.5","","","240","WSW","0.2","0","1031","30.45","-999","-999","-9999","-9999","","","Heavy Fog","fog","1","0","0","0","0","0","AAXX 23061 33345 31/92 92402 11040 21042 30093 40309 57002 74944 333 21041 43002 555 1/103"
"8:00 AM EET on December 23, 2016","2016","12","23","08","00","Europe/Kiev","6:00 AM GMT on December 23, 2016","2016","12","23","06","00","UTC","-4.0","24.8","-4.0","24.8","100","10.8","6.7","-9999.0","-9999.0","240","WSW","0.2","0.1","1029","30.39","-8.3","17.1","-9999","-9999","-9999.00","-9999.00","Light Freezing Fog","fog","1","0","0","0","0","0","METAR UKKK 230600Z 24003MPS 0200 R26/0550N FZFG VV002 M04/M04 Q1029 R26/320145 TEMPO -FZDZ"
"8:30 AM EET on December 23, 2016","2016","12","23","08","30","Europe/Kiev","6:30 AM GMT on December 23, 2016","2016","12","23","06","30","UTC","-4.0","24.8","-4.0","24.8","100","10.8","6.7","-9999.0","-9999.0","250","WSW","0.2","0.2","1029","30.39","-8.3","17.1","-9999","-9999","-9999.00","-9999.00","Light Freezing Fog","fog","1","0","0","0","0","0","METAR UKKK 230630Z 25003MPS 210V280 0250 R26/0400V0900D FZFG VV002 M04/M04 Q1029 R26/320145 TEMPO -FZDZ"
"9:00 AM EET on December 23, 2016","2016","12","23","09","00","Europe/Kiev","7:00 AM GMT on December 23, 2016","2016","12","23","07","00","UTC","-4.0","24.8","-5.0","23.0","93","7.2","4.5","-9999.0","-9999.0","230","SW","0.2","0.1","1029","30.39","-7.1","19.2","-9999","-9999","-9999.00","-9999.00","Light Freezing Fog","fog","1","0","0","0","0","0","METAR UKKK 230700Z 23002MPS 190V260 0200 R26/0450D FZFG VV002 M04/M05 Q1029 R26/320145 TEMPO -FZDZ"
"9:30 AM EET on December 23, 2016","2016","12","23","09","30","Europe/Kiev","7:30 AM GMT on December 23, 2016","2016","12","23","07","30","UTC","-4.0","24.8","-4.0","24.8","100","7.2","4.5","-9999.0","-9999.0","230","SW","0.2","0.1","1029","30.39","-7.1","19.2","-9999","-9999","-9999.00","-9999.00","Light Freezing Fog","fog","1","0","0","0","0","0","METAR UKKK 230730Z 23002MPS 190V260 0200 R26/0450V0700N FZFG VV001 M04/M04 Q1029 R26/320145 TEMPO -FZDZ"
"10:00 AM EET on December 23, 2016","2016","12","23","10","00","Europe/Kiev","8:00 AM GMT on December 23, 2016","2016","12","23","08","00","UTC","-4.0","24.8","-4.0","24.8","100","7.2","4.5","-9999.0","-9999.0","220","SW","0.2","0.2","1029","30.39","-7.1","19.2","-9999","-9999","-9999.00","-9999.00","Light Freezing Fog","fog","1","0","0","0","0","0","METAR UKKK 230800Z 22002MPS 190V260 0250 R08/0450U FZFG VV002 M04/M04 Q1029 R08/320145 TEMPO -FZDZ"
"10:30 AM EET on December 23, 2016","2016","12","23","10","30","Europe/Kiev","8:30 AM GMT on December 23, 2016","2016","12","23","08","30","UTC","-4.0","24.8","-4.0","24.8","100","7.2","4.5","-9999.0","-9999.0","230","SW","0.4","0.2","1029","30.39","-7.1","19.2","-9999","-9999","-9999.00","-9999.00","Light Freezing Fog","fog","1","0","0","0","0","0","METAR UKKK 230830Z 23002MPS 180V270 0400 R08/0900N FZFG VV001 M04/M04 Q1029 R08/320145 TEMPO -FZDZ"
"11:00 AM EET on December 23, 2016","2016","12","23","11","00","Europe/Kiev","9:00 AM GMT on December 23, 2016","2016","12","23","09","00","UTC","-3","26","-3","26","99","7.2","4.5","","","230","SW","0.2","0","1030","30.43","-999","-999","-9999","-9999","","","Heavy Fog","fog","1","0","0","0","0","0","AAXX 23091 33345 41/92 92302 11033 21034 30088 40303 57005 74944 555 1/102"
"11:00 AM EET on December 23, 2016","2016","12","23","11","00","Europe/Kiev","9:00 AM GMT on December 23, 2016","2016","12","23","09","00","UTC","-3.0","26.6","-4.0","24.8","93","7.2","4.5","-9999.0","-9999.0","220","SW","0.6","0.4","1029","30.39","-5.9","21.3","-9999","-9999","-9999.00","-9999.00","Light Freezing Fog","fog","1","0","0","0","0","0","METAR UKKK 230900Z 22002MPS 160V260 0600 R08/0800N FZFG VV001 M03/M04 Q1029 R08/320145 TEMPO -FZDZ"
"11:30 AM EET on December 23, 2016","2016","12","23","11","30","Europe/Kiev","9:30 AM GMT on December 23, 2016","2016","12","23","09","30","UTC","-3.0","26.6","-4.0","24.8","93","10.8","6.7","-9999.0","-9999.0","250","WSW","1.0","0.6","1029","30.39","-7.1","19.2","-9999","-9999","-9999.00","-9999.00","Mostly Cloudy","mostlycloudy","0","0","0","0","0","0","METAR UKKK 230930Z 25003MPS 190V270 1000 R08/1400N BR BKN002 M03/M04 Q1029 REFZFG R08/320145 TEMPO -FZDZ"
"11:33 AM EET on December 23, 2016","2016","12","23","11","33","Europe/Kiev","9:33 AM GMT on December 23, 2016","2016","12","23","09","33","UTC","-3.0","26.6","-3.0","26.6","100","10.8","6.7","-9999.0","-9999.0","260","West","0.7","0.4","1029","30.39","-7.1","19.2","-9999","-9999","-9999.00","-9999.00","Light Freezing Fog","fog","1","0","0","0","0","0","SPECI UKKK 230933Z 26003MPS 200V270 0700 R08/1400U FZFG BKN001 M03/M03 Q1029 R08/320145 TEMPO -FZDZ"
"11:48 AM EET on December 23, 2016","2016","12","23","11","48","Europe/Kiev","9:48 AM GMT on December 23, 2016","2016","12","23","09","48","UTC","-3.0","26.6","-3.0","26.6","100","10.8","6.7","-9999.0","-9999.0","240","WSW","1.5","0.9","1028","30.36","-7.1","19.2","-9999","-9999","-9999.00","-9999.00","Mostly Cloudy","mostlycloudy","0","0","0","0","0","0","SPECI UKKK 230948Z 24003MPS 1500 BR BKN002 M03/M03 Q1028 REFZFG R26/320145 TEMPO -FZDZ"
"12:00 PM EET on December 23, 2016","2016","12","23","12","00","Europe/Kiev","10:00 AM GMT on December 23, 2016","2016","12","23","10","00","UTC","-3.0","26.6","-3.0","26.6","100","10.8","6.7","-9999.0","-9999.0","250","WSW","2.6","1.6","1028","30.36","-7.1","19.2","-9999","-9999","-9999.00","-9999.00","Mostly Cloudy","mostlycloudy","0","0","0","0","0","0","METAR UKKK 231000Z 25003MPS 2600 BR BKN003 M03/M03 Q1028 R26/320145 TEMPO -FZDZ"
"12:30 PM EET on December 23, 2016","2016","12","23","12","30","Europe/Kiev","10:30 AM GMT on December 23, 2016","2016","12","23","10","30","UTC","-2.0","28.4","-3.0","26.6","93","10.8","6.7","-9999.0","-9999.0","250","WSW","-9999.0","-9999.0","1028","30.36","-5.9","21.4","-9999","-9999","-9999.00","-9999.00","Scattered Clouds","partlycloudy","0","0","0","0","0","0","METAR UKKK 231030Z 25003MPS 4200 BR SCT005 M02/M03 Q1028 R26/810345 TEMPO -FZDZ"
"1:00 PM EET on December 23, 2016","2016","12","23","13","00","Europe/Kiev","11:00 AM GMT on December 23, 2016","2016","12","23","11","00","UTC","-2.0","28.4","-2.0","28.4","100","10.8","6.7","-9999.0","-9999.0","260","West","4.5","2.8","1027","30.33","-5.9","21.4","-9999","-9999","-9999.00","-9999.00","Scattered Clouds","partlycloudy","0","0","0","0","0","0","METAR UKKK 231100Z 26003MPS 4500 BR SCT005 M02/M02 Q1027 R26/810345 TEMPO -FZDZ"
"1:30 PM EET on December 23, 2016","2016","12","23","13","30","Europe/Kiev","11:30 AM GMT on December 23, 2016","2016","12","23","11","30","UTC","-1.0","30.2","-1.0","30.2","100","10.8","6.7","-9999.0","-9999.0","260","West","-9999.0","-9999.0","1027","30.33","-4.7","23.5","-9999","-9999","-9999.00","-9999.00","Clear","clear","0","0","0","0","0","0","METAR UKKK 231130Z 26003MPS 4600 BR SKC M01/M01 Q1027 R26/810345 TEMPO -FZDZ"
"2:00 PM EET on December 23, 2016","2016","12","23","14","00","Europe/Kiev","12:00 PM GMT on December 23, 2016","2016","12","23","12","00","UTC","1","34","-2","29","75","10.8","6.7","","","280","West","4","2","1028","30.37","-999","-999","-9999","-9999","","","Mist","hazy","0","0","0","0","0","0","AAXX 23121 33345 31996 02803 10010 21016 30071 40283 57017 71041 555 1/001"
"2:00 PM EET on December 23, 2016","2016","12","23","14","00","Europe/Kiev","12:00 PM GMT on December 23, 2016","2016","12","23","12","00","UTC","-1.0","30.2","-1.0","30.2","100","10.8","6.7","-9999.0","-9999.0","270","West","-9999.0","-9999.0","1027","30.33","-4.7","23.5","-9999","-9999","-9999.00","-9999.00","Clear","clear","0","0","0","0","0","0","METAR UKKK 231200Z 27003MPS 4800 BR SKC M01/M01 Q1027 R26/810345 NOSIG"
"2:30 PM EET on December 23, 2016","2016","12","23","14","30","Europe/Kiev","12:30 PM GMT on December 23, 2016","2016","12","23","12","30","UTC","-1.0","30.2","-1.0","30.2","100","10.8","6.7","-9999.0","-9999.0","260","West","5.0","3.1","1027","30.33","-4.7","23.5","-9999","-9999","-9999.00","-9999.00","Clear","clear","0","0","0","0","0","0","METAR UKKK 231230Z 26003MPS 5000 BR SKC M01/M01 Q1027 R26/810345 NOSIG"
"3:00 PM EET on December 23, 2016","2016","12","23","15","00","Europe/Kiev","1:00 PM GMT on December 23, 2016","2016","12","23","13","00","UTC","-1.0","30.2","-1.0","30.2","100","14.4","8.9","-9999.0","-9999.0","260","West","-9999.0","-9999.0","1027","30.33","-5.5","22.1","-9999","-9999","-9999.00","-9999.00","Clear","clear","0","0","0","0","0","0","METAR UKKK 231300Z 26004MPS 4700 BR SKC M01/M01 Q1027 R26/810345 NOSIG"
"3:30 PM EET on December 23, 2016","2016","12","23","15","30","Europe/Kiev","1:30 PM GMT on December 23, 2016","2016","12","23","13","30","UTC","-1.0","30.2","-1.0","30.2","100","10.8","6.7","-9999.0","-9999.0","250","WSW","-9999.0","-9999.0","1027","30.33","-4.7","23.5","-9999","-9999","-9999.00","-9999.00","Clear","clear","0","0","0","0","0","0","METAR UKKK 231330Z 25003MPS 4100 BR SKC M01/M01 Q1027 R26/810345 NOSIG"
"4:00 PM EET on December 23, 2016","2016","12","23","16","00","Europe/Kiev","2:00 PM GMT on December 23, 2016","2016","12","23","14","00","UTC","-1.0","30.2","-1.0","30.2","100","14.4","8.9","-9999.0","-9999.0","260","West","-9999.0","-9999.0","1027","30.33","-5.5","22.1","-9999","-9999","-9999.00","-9999.00","Clear","clear","0","0","0","0","0","0","METAR UKKK 231400Z 26004MPS 3900 BR SKC M01/M01 Q1027 R26/810345 NOSIG"
"4:30 PM EET on December 23, 2016","2016","12","23","16","30","Europe/Kiev","2:30 PM GMT on December 23, 2016","2016","12","23","14","30","UTC","-1.0","30.2","-1.0","30.2","100","14.4","8.9","-9999.0","-9999.0","250","WSW","-9999.0","-9999.0","1026","30.30","-5.5","22.1","-9999","-9999","-9999.00","-9999.00","Clear","clear","0","0","0","0","0","0","METAR UKKK 231430Z 25004MPS 3400 BR SKC M01/M01 Q1026 R26/810345 NOSIG"
"5:00 PM EET on December 23, 2016","2016","12","23","17","00","Europe/Kiev","3:00 PM GMT on December 23, 2016","2016","12","23","15","00","UTC","-0","31","-2","29","87","10.8","6.7","","","290","WNW","4","2","1028","30.35","-999","-999","-9999","-9999","","","Mist","hazy","0","0","0","0","0","0","AAXX 23151 33345 41996 02903 11004 21019 30064 40276 57007 71000 555 1/103"
"5:00 PM EET on December 23, 2016","2016","12","23","17","00","Europe/Kiev","3:00 PM GMT on December 23, 2016","2016","12","23","15","00","UTC","-1.0","30.2","-1.0","30.2","100","14.4","8.9","-9999.0","-9999.0","260","West","-9999.0","-9999.0","1026","30.30","-5.5","22.1","-9999","-9999","-9999.00","-9999.00","Clear","clear","0","0","0","0","0","0","METAR UKKK 231500Z 26004MPS 3200 BR SKC M01/M01 Q1026 R26/810345 NOSIG"
"5:30 PM EET on December 23, 2016","2016","12","23","17","30","Europe/Kiev","3:30 PM GMT on December 23, 2016","2016","12","23","15","30","UTC","-1.0","30.2","-2.0","28.4","93","14.4","8.9","-9999.0","-9999.0","270","West","2.8","1.7","1026","30.30","-5.5","22.1","-9999","-9999","-9999.00","-9999.00","Clear","clear","0","0","0","0","0","0","METAR UKKK 231530Z 27004MPS 2800 BR SKC M01/M02 Q1026 R26/810345 NOSIG"
"6:00 PM EET on December 23, 2016","2016","12","23","18","00","Europe/Kiev","4:00 PM GMT on December 23, 2016","2016","12","23","16","00","UTC","-1.0","30.2","-1.0","30.2","100","14.4","8.9","-9999.0","-9999.0","270","West","2.9","1.8","1026","30.30","-5.5","22.1","-9999","-9999","-9999.00","-9999.00","Clear","clear","0","0","0","0","0","0","METAR UKKK 231600Z 27004MPS 2900 BR SKC M01/M01 Q1026 R26/810345 NOSIG"
"6:30 PM EET on December 23, 2016","2016","12","23","18","30","Europe/Kiev","4:30 PM GMT on December 23, 2016","2016","12","23","16","30","UTC","-2.0","28.4","-2.0","28.4","100","21.6","13.4","-9999.0","-9999.0","270","West","-9999.0","-9999.0","1026","30.30","-8.0","17.6","-9999","-9999","-9999.00","-9999.00","Scattered Clouds","partlycloudy","0","0","0","0","0","0","METAR UKKK 231630Z 27006MPS 3100 BR SCT009 M02/M02 Q1026 R26/810345 NOSIG"
"7:00 PM EET on December 23, 2016","2016","12","23","19","00","Europe/Kiev","5:00 PM GMT on December 23, 2016","2016","12","23","17","00","UTC","-1.0","30.2","-2.0","28.4","93","25.2","15.7","-9999.0","-9999.0","290","WNW","2.9","1.8","1027","30.33","-7.2","19.1","-9999","-9999","-9999.00","-9999.00","Mostly Cloudy","mostlycloudy","0","0","0","0","0","0","METAR UKKK 231700Z 29007MPS 2900 BR BKN005 M01/M02 Q1027 R26/810345 TEMPO OVC004"
"7:10 PM EET on December 23, 2016","2016","12","23","19","10","Europe/Kiev","5:10 PM GMT on December 23, 2016","2016","12","23","17","10","UTC","-1.0","30.2","-2.0","28.4","93","25.2","15.7","-9999.0","-9999.0","290","WNW","2.8","1.7","1027","30.33","-7.2","19.1","-9999","-9999","-9999.00","-9999.00","Mostly Cloudy","mostlycloudy","0","0","0","0","0","0","SPECI UKKK 231710Z 29007MPS 2800 BR BKN004 M01/M02 Q1027 R26/810345 TEMPO OVC003"
"7:30 PM EET on December 23, 2016","2016","12","23","19","30","Europe/Kiev","5:30 PM GMT on December 23, 2016","2016","12","23","17","30","UTC","-1.0","30.2","-2.0","28.4","93","18.0","11.2","-9999.0","-9999.0","290","WNW","2.1","1.3","1026","30.30","-6.2","20.9","-9999","-9999","-9999.00","-9999.00","Overcast","cloudy","0","0","0","0","0","0","METAR UKKK 231730Z 29005MPS 2100 BR OVC003 M01/M02 Q1026 R26/810345 TEMPO 1000 BR OVC002"
"8:00 PM EET on December 23, 2016","2016","12","23","20","00","Europe/Kiev","6:00 PM GMT on December 23, 2016","2016","12","23","18","00","UTC","-1","30","-2","28","90","10.8","6.7","","","330","NNW","2","1","1028","30.35","-999","-999","-9999","-9999","","","Mist","hazy","0","0","0","0","0","0","AAXX 23181 33345 31495 83303 11011 21021 30064 40277 55000 71011 886// 333 10017 88710 555 1/101"
"8:00 PM EET on December 23, 2016","2016","12","23","20","00","Europe/Kiev","6:00 PM GMT on December 23, 2016","2016","12","23","18","00","UTC","-1.0","30.2","-2.0","28.4","93","18.0","11.2","-9999.0","-9999.0","290","WNW","2.1","1.3","1026","30.30","-6.2","20.9","-9999","-9999","-9999.00","-9999.00","Overcast","cloudy","0","0","0","0","0","0","METAR UKKK 231800Z 29005MPS 2100 BR OVC004 M01/M02 Q1026 R26/810345 TEMPO 1000 -FZRASN BR OVC002"
"8:30 PM EET on December 23, 2016","2016","12","23","20","30","Europe/Kiev","6:30 PM GMT on December 23, 2016","2016","12","23","18","30","UTC","-1.0","30.2","-1.0","30.2","100","18.0","11.2","-9999.0","-9999.0","300","WNW","1.9","1.2","1026","30.30","-6.2","20.9","-9999","-9999","-9999.00","-9999.00","Light Freezing Rain","sleet","0","1","0","0","0","0","METAR UKKK 231830Z 30005MPS 1900 -FZRA BR BKN004 OVC024 M01/M01 Q1026 R26/810345 TEMPO 1000 -FZRASN BR OVC002"
"9:00 PM EET on December 23, 2016","2016","12","23","21","00","Europe/Kiev","7:00 PM GMT on December 23, 2016","2016","12","23","19","00","UTC","-1.0","30.2","-1.0","30.2","100","18.0","11.2","-9999.0","-9999.0","300","WNW","2.7","1.7","1027","30.33","-6.2","20.9","-9999","-9999","-9999.00","-9999.00","Overcast","cloudy","0","0","0","0","0","0","METAR UKKK 231900Z 30005MPS 2700 BR BKN004 OVC024 M01/M01 Q1027 REFZRA R26/810345 TEMPO 1500 -FZRASN BR OVC003"
"9:30 PM EET on December 23, 2016","2016","12","23","21","30","Europe/Kiev","7:30 PM GMT on December 23, 2016","2016","12","23","19","30","UTC","-1.0","30.2","-1.0","30.2","100","21.6","13.4","-9999.0","-9999.0","300","WNW","2.7","1.7","1027","30.33","-6.7","19.9","-9999","-9999","-9999.00","-9999.00","Overcast","cloudy","0","0","0","0","0","0","METAR UKKK 231930Z 30006MPS 2700 BR OVC005 M01/M01 Q1027 R26/810345 TEMPO 1500 -FZRASN BR OVC003"
"9:49 PM EET on December 23, 2016","2016","12","23","21","49","Europe/Kiev","7:49 PM GMT on December 23, 2016","2016","12","23","19","49","UTC","-1.0","30.2","-1.0","30.2","100","21.6","13.4","-9999.0","-9999.0","300","WNW","2.0","1.2","1027","30.33","-6.7","19.9","-9999","-9999","-9999.00","-9999.00","Light Freezing Drizzle","rain","0","0","0","0","0","0","SPECI UKKK 231949Z 30006MPS 2000 -FZDZ BR OVC005 M01/M01 Q1027 R26/810345 TEMPO -FZRASN BKN004"
"9:53 PM EET on December 23, 2016","2016","12","23","21","53","Europe/Kiev","7:53 PM GMT on December 23, 2016","2016","12","23","19","53","UTC","-1.0","30.2","-1.0","30.2","100","21.6","13.4","-9999.0","-9999.0","300","WNW","1.8","1.1","1027","30.33","-6.7","19.9","-9999","-9999","-9999.00","-9999.00","Light Freezing Drizzle","rain","0","0","0","0","0","0","SPECI UKKK 231953Z 30006MPS 1800 -FZDZ BR OVC004 M01/M01 Q1027 R26/810345 TEMPO 1200 -FZRASN BR BKN004"
"10:00 PM EET on December 23, 2016","2016","12","23","22","00","Europe/Kiev","8:00 PM GMT on December 23, 2016","2016","12","23","20","00","UTC","-1.0","30.2","-1.0","30.2","100","21.6","13.4","-9999.0","-9999.0","300","WNW","2.0","1.2","1027","30.33","-6.7","19.9","-9999","-9999","-9999.00","-9999.00","Light Freezing Drizzle","rain","0","0","0","0","0","0","METAR UKKK 232000Z 30006MPS 2000 -FZDZ BR OVC005 M01/M01 Q1027 R26/810345 TEMPO 1500 -FZRASN BR BKN003"
"10:30 PM EET on December 23, 2016","2016","12","23","22","30","Europe/Kiev","8:30 PM GMT on December 23, 2016","2016","12","23","20","30","UTC","0.0","32.0","-1.0","30.2","93","18.0","11.2","-9999.0","-9999.0","300","WNW","2.8","1.7","1027","30.33","-4.9","23.2","-9999","-9999","-9999.00","-9999.00","Light Freezing Drizzle","rain","0","0","0","0","0","0","METAR UKKK 232030Z 30005MPS 2800 -FZDZ BR OVC005 M00/M01 Q1027 R26/810345 TEMPO 1500 -FZRASN BR BKN003"
"10:41 PM EET on December 23, 2016","2016","12","23","22","41","Europe/Kiev","8:41 PM GMT on December 23, 2016","2016","12","23","20","41","UTC","0.0","32.0","-1.0","30.2","93","18.0","11.2","-9999.0","-9999.0","300","WNW","2.7","1.7","1027","30.33","-4.9","23.2","-9999","-9999","-9999.00","-9999.00","Overcast","cloudy","0","0","0","0","0","0","SPECI UKKK 232041Z 30005MPS 2700 BR OVC005 M00/M01 Q1027 REFZDZ R26/810345 TEMPO 1500 -FZRASN BR BKN003"
"10:49 PM EET on December 23, 2016","2016","12","23","22","49","Europe/Kiev","8:49 PM GMT on December 23, 2016","2016","12","23","20","49","UTC","0.0","32.0","-1.0","30.2","93","18.0","11.2","-9999.0","-9999.0","300","WNW","2.6","1.6","1027","30.33","-4.9","23.2","-9999","-9999","-9999.00","-9999.00","Overcast","cloudy","0","0","0","0","0","0","SPECI UKKK 232049Z 30005MPS 2600 BR OVC004 M00/M01 Q1027 R26/810345 TEMPO 1500 -FZRASN BR BKN003"
"11:00 PM EET on December 23, 2016","2016","12","23","23","00","Europe/Kiev","9:00 PM GMT on December 23, 2016","2016","12","23","21","00","UTC","0","32","-1","30","89","10.8","6.7","","","340","NNW","2","1","1028","30.37","-999","-999","-9999","-9999","","","Mist","hazy","0","0","0","0","0","0","AAXX 23211 33345 41395 83403 10000 21011 30072 40284 52008 71022 886// 333 88707 555 1/101"
"11:00 PM EET on December 23, 2016","2016","12","23","23","00","Europe/Kiev","9:00 PM GMT on December 23, 2016","2016","12","23","21","00","UTC","0.0","32.0","-1.0","30.2","93","18.0","11.2","-9999.0","-9999.0","300","WNW","2.6","1.6","1027","30.33","-4.9","23.2","-9999","-9999","-9999.00","-9999.00","Overcast","cloudy","0","0","0","0","0","0","METAR UKKK 232100Z 30005MPS 2600 BR OVC004 M00/M01 Q1027 R26/810345 TEMPO 1500 -FZRASN BR BKN003"
"11:30 PM EET on December 23, 2016","2016","12","23","23","30","Europe/Kiev","9:30 PM GMT on December 23, 2016","2016","12","23","21","30","UTC","0.0","32.0","0.0","32.0","100","18.0","11.2","-9999.0","-9999.0","300","WNW","2.5","1.6","1027","30.33","-4.9","23.2","-9999","-9999","-9999.00","-9999.00","Overcast","cloudy","0","0","0","0","0","0","METAR UKKK 232130Z 30005MPS 2500 BR OVC004 M00/M00 Q1027 R26/810345 TEMPO 1500 -FZRASN BR BKN003"
"12:00 AM EET on December 24, 2016","2016","12","24","00","00","Europe/Kiev","10:00 PM GMT on December 23, 2016","2016","12","23","22","00","UTC","0.0","32.0","0.0","32.0","100","21.6","13.4","-9999.0","-9999.0","310","NW","2.5","1.6","1027","30.33","-5.4","22.2","-9999","-9999","-9999.00","-9999.00","Overcast","cloudy","0","0","0","0","0","0","METAR UKKK 232200Z 31006MPS 2500 BR OVC003 M00/M00 Q1027 R26/810345 TEMPO 1500 -FZRASN BR OVC002"
"12:30 AM EET on December 24, 2016","2016","12","24","00","30","Europe/Kiev","10:30 PM GMT on December 23, 2016","2016","12","23","22","30","UTC","0.0","32.0","0.0","32.0","100","21.6","13.4","-9999.0","-9999.0","310","NW","1.6","1.0","1027","30.33","-5.4","22.2","-9999","-9999","-9999.00","-9999.00","Overcast","cloudy","0","0","0","0","0","0","METAR UKKK 232230Z 31006MPS 1600 BR OVC003 00/M00 Q1027 R26/810345 TEMPO 0400 -FZRASN FZFG OVC002"
"1:00 AM EET on December 24, 2016","2016","12","24","01","00","Europe/Kiev","11:00 PM GMT on December 23, 2016","2016","12","23","23","00","UTC","0.0","32.0","0.0","32.0","100","25.2","15.7","-9999.0","-9999.0","310","NW","1.5","0.9","1027","30.33","-5.9","21.4","-9999","-9999","-9999.00","-9999.00","Overcast","cloudy","0","0","0","0","0","0","METAR UKKK 232300Z 31007MPS 1500 BR OVC002 00/M00 Q1027 R26/810345 TEMPO 0400 -FZRASN FZFG OVC001"
"1:30 AM EET on December 24, 2016","2016","12","24","01","30","Europe/Kiev","11:30 PM GMT on December 23, 2016","2016","12","23","23","30","UTC","0.0","32.0","0.0","32.0","100","25.2","15.7","-9999.0","-9999.0","310","NW","1.9","1.2","1027","30.33","-5.9","21.4","-9999","-9999","-9999.00","-9999.00","Overcast","cloudy","0","0","0","0","0","0","METAR UKKK 232330Z 31007MPS 1900 BR OVC003 M00/M00 Q1027 R26/810345 TEMPO 1000 -FZRASN BR OVC001"
"2:00 AM EET on December 24, 2016","2016","12","24","02","00","Europe/Kiev","12:00 AM GMT on December 24, 2016","2016","12","24","00","00","UTC","-0","32","-1","30","90","14.4","8.9","","","350","North","2","1","1029","30.39","-999","-999","-9999","-9999","","","Mist","hazy","0","0","0","0","0","0","AAXX 24001 33345 31295 83504 11001 21010 30077 40289 52005 71022 886// 333 88706 555 1/100"
"2:00 AM EET on December 24, 2016","2016","12","24","02","00","Europe/Kiev","12:00 AM GMT on December 24, 2016","2016","12","24","00","00","UTC","0.0","32.0","0.0","32.0","100","21.6","13.4","-9999.0","-9999.0","310","NW","-9999.0","-9999.0","1028","30.36","-5.4","22.2","-9999","-9999","-9999.00","-9999.00","Overcast","cloudy","0","0","0","0","0","0","METAR UKKK 240000Z 31006MPS 3200 BR OVC003 M00/M00 Q1028 R26/810345 TEMPO 1500 -FZDZ BR OVC002"
"2:30 AM EET on December 24, 2016","2016","12","24","02","30","Europe/Kiev","12:30 AM GMT on December 24, 2016","2016","12","24","00","30","UTC","0.0","32.0","0.0","32.0","100","21.6","13.4","-9999.0","-9999.0","310","NW","6.0","3.7","1028","30.36","-5.4","22.2","-9999","-9999","-9999.00","-9999.00","Overcast","cloudy","0","0","0","0","0","0","METAR UKKK 240030Z 31006MPS 6000 OVC005 00/M00 Q1028 R26/810345 TEMPO 1500 -FZDZ BR OVC003"
"3:00 AM EET on December 24, 2016","2016","12","24","03","00","Europe/Kiev","1:00 AM GMT on December 24, 2016","2016","12","24","01","00","UTC","0.0","32.0","0.0","32.0","100","14.4","8.9","-9999.0","-9999.0","310","NW","7.0","4.3","1028","30.36","-4.3","24.3","-9999","-9999","-9999.00","-9999.00","Overcast","cloudy","0","0","0","0","0","0","METAR UKKK 240100Z 31004MPS 7000 OVC006 00/M00 Q1028 R26/810345 TEMPO 1500 -FZDZ BR OVC003"
"3:30 AM EET on December 24, 2016","2016","12","24","03","30","Europe/Kiev","1:30 AM GMT on December 24, 2016","2016","12","24","01","30","UTC","0.0","32.0","0.0","32.0","100","14.4","8.9","-9999.0","-9999.0","310","NW","5.0","3.1","1028","30.36","-4.3","24.3","-9999","-9999","-9999.00","-9999.00","Overcast","cloudy","0","0","0","0","0","0","METAR UKKK 240130Z 31004MPS 5000 BR OVC006 00/M00 Q1028 R26/810345 TEMPO 1500 -FZDZ BR OVC003"
"4:00 AM EET on December 24, 2016","2016","12","24","04","00","Europe/Kiev","2:00 AM GMT on December 24, 2016","2016","12","24","02","00","UTC","0.0","32.0","0.0","32.0","100","14.4","8.9","-9999.0","-9999.0","300","WNW","5.0","3.1","1028","30.36","-4.3","24.3","-9999","-9999","-9999.00","-9999.00","Overcast","cloudy","0","0","0","0","0","0","METAR UKKK 240200Z 30004MPS 5000 BR OVC007 00/M00 Q1028 R26/810345 NOSIG"
"4:30 AM EET on December 24, 2016","2016","12","24","04","30","Europe/Kiev","2:30 AM GMT on December 24, 2016","2016","12","24","02","30","UTC","0.0","32.0","0.0","32.0","100","14.4","8.9","-9999.0","-9999.0","290","WNW","6.0","3.7","1027","30.33","-4.3","24.3","-9999","-9999","-9999.00","-9999.00","Overcast","cloudy","0","0","0","0","0","0","METAR UKKK 240230Z 29004MPS 6000 OVC006 00/M00 Q1027 R26/810345 TEMPO BKN005"
"5:00 AM EET on December 24, 2016","2016","12","24","05","00","Europe/Kiev","3:00 AM GMT on December 24, 2016","2016","12","24","03","00","UTC","0","33","-1","31","87","7.2","4.5","","","340","NNW","2","1","1029","30.38","-999","-999","-9999","-9999","","","Mist","hazy","0","0","0","0","0","0","AAXX 24031 33345 41395 83402 10003 21008 30074 40286 58003 71022 886// 333 88707 555 1/100"
"5:00 AM EET on December 24, 2016","2016","12","24","05","00","Europe/Kiev","3:00 AM GMT on December 24, 2016","2016","12","24","03","00","UTC","0.0","32.0","0.0","32.0","100","14.4","8.9","-9999.0","-9999.0","300","WNW","7.0","4.3","1027","30.33","-4.3","24.3","-9999","-9999","-9999.00","-9999.00","Overcast","cloudy","0","0","0","0","0","0","METAR UKKK 240300Z 30004MPS 7000 OVC005 00/M00 Q1027 R26/810345 TEMPO BKN004"
"5:30 AM EET on December 24, 2016","2016","12","24","05","30","Europe/Kiev","3:30 AM GMT on December 24, 2016","2016","12","24","03","30","UTC","0.0","32.0","0.0","32.0","100","18.0","11.2","-9999.0","-9999.0","300","WNW","6.0","3.7","1027","30.33","-4.9","23.2","-9999","-9999","-9999.00","-9999.00","Overcast","cloudy","0","0","0","0","0","0","METAR UKKK 240330Z 30005MPS 6000 OVC005 00/M00 Q1027 R26/810345 TEMPO BKN004"
"6:00 AM EET on December 24, 2016","2016","12","24","06","00","Europe/Kiev","4:00 AM GMT on December 24, 2016","2016","12","24","04","00","UTC","0.0","32.0","0.0","32.0","100","14.4","8.9","-9999.0","-9999.0","290","WNW","8.0","5.0","1027","30.33","-4.3","24.3","-9999","-9999","-9999.00","-9999.00","Overcast","cloudy","0","0","0","0","0","0","METAR UKKK 240400Z 29004MPS 8000 OVC005 00/M00 Q1027 R26/810345 TEMPO BKN004"
"6:30 AM EET on December 24, 2016","2016","12","24","06","30","Europe/Kiev","4:30 AM GMT on December 24, 2016","2016","12","24","04","30","UTC","0.0","32.0","0.0","32.0","100","14.4","8.9","-9999.0","-9999.0","290","WNW","9.0","5.6","1027","30.33","-4.3","24.3","-9999","-9999","-9999.00","-9999.00","Overcast","cloudy","0","0","0","0","0","0","METAR UKKK 240430Z 29004MPS 9000 OVC006 00/M00 Q1027 R26/810345 TEMPO BKN005"
"7:00 AM EET on December 24, 2016","2016","12","24","07","00","Europe/Kiev","5:00 AM GMT on December 24, 2016","2016","12","24","05","00","UTC","0.0","32.0","0.0","32.0","100","18.0","11.2","-9999.0","-9999.0","300","WNW","9.0","5.6","1027","30.33","-4.9","23.2","-9999","-9999","-9999.00","-9999.00","Overcast","cloudy","0","0","0","0","0","0","METAR UKKK 240500Z 30005MPS 9000 OVC006 00/M00 Q1027 R26/810345 TEMPO BKN005"
"7:30 AM EET on December 24, 2016","2016","12","24","07","30","Europe/Kiev","5:30 AM GMT on December 24, 2016","2016","12","24","05","30","UTC","0.0","32.0","0.0","32.0","100","14.4","8.9","-9999.0","-9999.0","300","WNW","9.0","5.6","1027","30.33","-4.3","24.3","-9999","-9999","-9999.00","-9999.00","Overcast","cloudy","0","0","0","0","0","0","METAR UKKK 240530Z 30004MPS 9000 BKN006 OVC025 00/M00 Q1027 R26/810345 TEMPO BKN005"
"8:00 AM EET on December 24, 2016","2016","12","24","08","00","Europe/Kiev","6:00 AM GMT on December 24, 2016","2016","12","24","06","00","UTC","0","33","-1","31","89","7.2","4.5","","","320","NW","4","2","1028","30.38","-999","-999","-9999","-9999","","","Mist","hazy","0","0","0","0","0","0","AAXX 24061 33345 31396 83202 10005 21006 30073 40285 56001 71022 886// 333 21011 43002 88707 555 1/100"
"8:00 AM EET on December 24, 2016","2016","12","24","08","00","Europe/Kiev","6:00 AM GMT on December 24, 2016","2016","12","24","06","00","UTC","0.0","32.0","0.0","32.0","100","14.4","8.9","-9999.0","-9999.0","290","WNW","9.0","5.6","1027","30.33","-4.3","24.3","-9999","-9999","-9999.00","-9999.00","Overcast","cloudy","0","0","0","0","0","0","METAR UKKK 240600Z 29004MPS 9000 BKN006 OVC027 00/M00 Q1027 R26/810345 TEMPO BKN004"
"8:30 AM EET on December 24, 2016","2016","12","24","08","30","Europe/Kiev","6:30 AM GMT on December 24, 2016","2016","12","24","06","30","UTC","0.0","32.0","0.0","32.0","100","14.4","8.9","-9999.0","-9999.0","280","West","7.0","4.3","1027","30.33","-4.3","24.3","-9999","-9999","-9999.00","-9999.00","Overcast","cloudy","0","0","0","0","0","0","METAR UKKK 240630Z 28004MPS 7000 BKN005 OVC028 00/M00 Q1027 R26/810345 TEMPO BKN004"
"9:00 AM EET on December 24, 2016","2016","12","24","09","00","Europe/Kiev","7:00 AM GMT on December 24, 2016","2016","12","24","07","00","UTC","0.0","32.0","0.0","32.0","100","14.4","8.9","-9999.0","-9999.0","280","West","6.0","3.7","1027","30.33","-4.3","24.3","-9999","-9999","-9999.00","-9999.00","Overcast","cloudy","0","0","0","0","0","0","METAR UKKK 240700Z 28004MPS 6000 BKN005 OVC028 00/M00 Q1027 R26/810345 TEMPO BKN003"
"9:02 AM EET on December 24, 2016","2016","12","24","09","02","Europe/Kiev","7:02 AM GMT on December 24, 2016","2016","12","24","07","02","UTC","0.0","32.0","0.0","32.0","100","14.4","8.9","-9999.0","-9999.0","280","West","6.0","3.7","1027","30.33","-4.3","24.3","-9999","-9999","-9999.00","-9999.00","Overcast","cloudy","0","0","0","0","0","0","SPECI UKKK 240702Z 28004MPS 6000 BKN004 OVC028 00/M00 Q1027 R26/810345 TEMPO BKN003"
"9:30 AM EET on December 24, 2016","2016","12","24","09","30","Europe/Kiev","7:30 AM GMT on December 24, 2016","2016","12","24","07","30","UTC","0.0","32.0","0.0","32.0","100","14.4","8.9","-9999.0","-9999.0","280","West","5.0","3.1","1027","30.33","-4.3","24.3","-9999","-9999","-9999.00","-9999.00","Overcast","cloudy","0","0","0","0","0","0","METAR UKKK 240730Z 28004MPS 5000 BR BKN005 OVC028 00/M00 Q1027 R26/810345 TEMPO BKN004"
"10:30 AM EET on December 24, 2016","2016","12","24","10","30","Europe/Kiev","8:30 AM GMT on December 24, 2016","2016","12","24","08","30","UTC","1.0","33.8","0.0","32.0","93","14.4","8.9","-9999.0","-9999.0","280","West","5.0","3.1","1027","30.33","-3.0","26.5","-9999","-9999","-9999.00","-9999.00","Overcast","cloudy","0","0","0","0","0","0","METAR UKKK 240830Z 28004MPS 5000 BR OVC005 01/M00 Q1027 R26/810345 TEMPO BKN004"
"11:00 AM EET on December 24, 2016","2016","12","24","11","00","Europe/Kiev","9:00 AM GMT on December 24, 2016","2016","12","24","09","00","UTC","1","33","-0","31","92","7.2","4.5","","","310","NW","4","2","1028","30.38","-999","-999","-9999","-9999","","","Mist","hazy","0","0","0","0","0","0","AAXX 24091 33345 41396 83102 10008 21003 30073 40285 54000 71022 885// 333 88707 555 1/000"
"11:00 AM EET on December 24, 2016","2016","12","24","11","00","Europe/Kiev","9:00 AM GMT on December 24, 2016","2016","12","24","09","00","UTC","1.0","33.8","0.0","32.0","93","10.8","6.7","-9999.0","-9999.0","280","West","6.0","3.7","1027","30.33","-2.3","27.9","-9999","-9999","-9999.00","-9999.00","Overcast","cloudy","0","0","0","0","0","0","METAR UKKK 240900Z 28003MPS 6000 OVC006 01/M00 Q1027 R26/810345 TEMPO BKN004"
"11:30 AM EET on December 24, 2016","2016","12","24","11","30","Europe/Kiev","9:30 AM GMT on December 24, 2016","2016","12","24","09","30","UTC","1.0","33.8","0.0","32.0","93","14.4","8.9","-9999.0","-9999.0","270","West","5.0","3.1","1027","30.33","-3.0","26.5","-9999","-9999","-9999.00","-9999.00","Overcast","cloudy","0","0","0","0","0","0","METAR UKKK 240930Z 27004MPS 5000 BR OVC006 01/M00 Q1027 R26/810345 TEMPO BKN004"
"12:00 PM EET on December 24, 2016","2016","12","24","12","00","Europe/Kiev","10:00 AM GMT on December 24, 2016","2016","12","24","10","00","UTC","1.0","33.8","0.0","32.0","93","10.8","6.7","-9999.0","-9999.0","270","West","6.0","3.7","1027","30.33","-2.3","27.9","-9999","-9999","-9999.00","-9999.00","Overcast","cloudy","0","0","0","0","0","0","METAR UKKK 241000Z 27003MPS 6000 OVC006 01/M00 Q1027 R26/810345 TEMPO BKN004"
"12:30 PM EET on December 24, 2016","2016","12","24","12","30","Europe/Kiev","10:30 AM GMT on December 24, 2016","2016","12","24","10","30","UTC","1.0","33.8","0.0","32.0","93","10.8","6.7","-9999.0","-9999.0","260","West","7.0","4.3","1026","30.30","-2.3","27.9","-9999","-9999","-9999.00","-9999.00","Overcast","cloudy","0","0","0","0","0","0","METAR UKKK 241030Z 26003MPS 7000 BKN006 OVC023 01/M00 Q1026 R26/810345 TEMPO BKN004"
"1:00 PM EET on December 24, 2016","2016","12","24","13","00","Europe/Kiev","11:00 AM GMT on December 24, 2016","2016","12","24","11","00","UTC","1.0","33.8","0.0","32.0","93","7.2","4.5","-9999.0","-9999.0","240","WSW","7.0","4.3","1026","30.30","-1.3","29.7","-9999","-9999","-9999.00","-9999.00","Overcast","cloudy","0","0","0","0","0","0","METAR UKKK 241100Z 24002MPS 210V270 7000 BKN007 OVC023 01/M00 Q1026 R26/810345 TEMPO BKN005"
"1:30 PM EET on December 24, 2016","2016","12","24","13","30","Europe/Kiev","11:30 AM GMT on December 24, 2016","2016","12","24","11","30","UTC","1.0","33.8","0.0","32.0","93","7.2","4.5","-9999.0","-9999.0","240","WSW","8.0","5.0","1026","30.30","-1.3","29.7","-9999","-9999","-9999.00","-9999.00","Overcast","cloudy","0","0","0","0","0","0","METAR UKKK 241130Z 24002MPS 8000 SCT008 OVC022 01/M00 Q1026 R26/810345 TEMPO BKN005"
"2:00 PM EET on December 24, 2016","2016","12","24","14","00","Europe/Kiev","12:00 PM GMT on December 24, 2016","2016","12","24","12","00","UTC","1","34","-0","31","85","7.2","4.5","","","280","West","4","2","1026","30.31","-999","-999","-9999","-9999","","","Mist","hazy","0","0","0","0","0","0","AAXX 24121 33345 31596 82802 10012 21005 30053 40264 58020 71022 885// 333 88623 555 1/000"
"2:00 PM EET on December 24, 2016","2016","12","24","14","00","Europe/Kiev","12:00 PM GMT on December 24, 2016","2016","12","24","12","00","UTC","1.0","33.8","0.0","32.0","93","7.2","4.5","-9999.0","-9999.0","240","WSW","9.0","5.6","1025","30.27","-1.3","29.7","-9999","-9999","-9999.00","-9999.00","Overcast","cloudy","0","0","0","0","0","0","METAR UKKK 241200Z 24002MPS 200V280 9000 OVC009 01/M00 Q1025 R26/810345 TEMPO BKN005"
"2:30 PM EET on December 24, 2016","2016","12","24","14","30","Europe/Kiev","12:30 PM GMT on December 24, 2016","2016","12","24","12","30","UTC","1.0","33.8","0.0","32.0","93","7.2","4.5","-9999.0","-9999.0","240","WSW","10.0","6.2","1025","30.27","-1.3","29.7","-9999","-9999","-9999.00","-9999.00","Overcast","cloudy","0","0","0","0","0","0","METAR UKKK 241230Z 24002MPS 9999 OVC019 01/M00 Q1025 R26/810345 NOSIG"
"3:00 PM EET on December 24, 2016","2016","12","24","15","00","Europe/Kiev","1:00 PM GMT on December 24, 2016","2016","12","24","13","00","UTC","1.0","33.8","0.0","32.0","93","7.2","4.5","-9999.0","-9999.0","210","SSW","9.0","5.6","1025","30.27","-1.3","29.7","-9999","-9999","-9999.00","-9999.00","Overcast","cloudy","0","0","0","0","0","0","METAR UKKK 241300Z 21002MPS 180V240 9000 OVC020 01/M00 Q1025 R26/810345 NOSIG"
"3:30 PM EET on December 24, 2016","2016","12","24","15","30","Europe/Kiev","1:30 PM GMT on December 24, 2016","2016","12","24","13","30","UTC","1.0","33.8","-1.0","30.2","87","7.2","4.5","-9999.0","-9999.0","220","SW","10.0","6.2","1025","30.27","-1.3","29.7","-9999","-9999","-9999.00","-9999.00","Overcast","cloudy","0","0","0","0","0","0","METAR UKKK 241330Z 22002MPS 190V250 9999 OVC020 01/M01 Q1025 R26/810345 NOSIG"
"4:00 PM EET on December 24, 2016","2016","12","24","16","00","Europe/Kiev","2:00 PM GMT on December 24, 2016","2016","12","24","14","00","UTC","1.0","33.8","-1.0","30.2","87","7.2","4.5","-9999.0","-9999.0","220","SW","10.0","6.2","1024","30.24","-1.3","29.7","-9999","-9999","-9999.00","-9999.00","Overcast","cloudy","0","0","0","0","0","0","METAR UKKK 241400Z 22002MPS 9999 OVC019 01/M01 Q1024 R26/810345 NOSIG"
"4:30 PM EET on December 24, 2016","2016","12","24","16","30","Europe/Kiev","2:30 PM GMT on December 24, 2016","2016","12","24","14","30","UTC","1.0","33.8","-1.0","30.2","87","7.2","4.5","-9999.0","-9999.0","230","SW","10.0","6.2","1024","30.24","-1.3","29.7","-9999","-9999","-9999.00","-9999.00","Overcast","cloudy","0","0","0","0","0","0","METAR UKKK 241430Z 23002MPS 190V250 9999 OVC017 01/M01 Q1024 R26/810345 NOSIG"
"5:00 PM EET on December 24, 2016","2016","12","24","17","00","Europe/Kiev","3:00 PM GMT on December 24, 2016","2016","12","24","15","00","UTC","1","33","-2","29","80","7.2","4.5","","","250","WSW","10","6","1025","30.28","-999","-999","-9999","-9999","","","Overcast","cloudy","0","0","0","0","0","0","AAXX 24151 33345 42497 82502 10007 21016 30042 40253 57011 885// 333 88619 555 1/100"
"5:00 PM EET on December 24, 2016","2016","12","24","17","00","Europe/Kiev","3:00 PM GMT on December 24, 2016","2016","12","24","15","00","UTC","1.0","33.8","-2.0","28.4","81","10.8","6.7","-9999.0","-9999.0","230","SW","10.0","6.2","1024","30.24","-2.3","27.9","-9999","-9999","-9999.00","-9999.00","Overcast","cloudy","0","0","0","0","0","0","METAR UKKK 241500Z 23003MPS 9999 OVC018 01/M02 Q1024 R26/810345 NOSIG"
"5:30 PM EET on December 24, 2016","2016","12","24","17","30","Europe/Kiev","3:30 PM GMT on December 24, 2016","2016","12","24","15","30","UTC","1.0","33.8","-2.0","28.4","81","10.8","6.7","-9999.0","-9999.0","220","SW","10.0","6.2","1024","30.24","-2.3","27.9","-9999","-9999","-9999.00","-9999.00","Overcast","cloudy","0","0","0","0","0","0","METAR UKKK 241530Z 22003MPS 9999 OVC016 01/M02 Q1024 R26/810345 NOSIG"
"6:00 PM EET on December 24, 2016","2016","12","24","18","00","Europe/Kiev","4:00 PM GMT on December 24, 2016","2016","12","24","16","00","UTC","1.0","33.8","-2.0","28.4","81","14.4","8.9","-9999.0","-9999.0","220","SW","10.0","6.2","1023","30.21","-3.0","26.5","-9999","-9999","-9999.00","-9999.00","Overcast","cloudy","0","0","0","0","0","0","METAR UKKK 241600Z 22004MPS 9999 OVC016 01/M02 Q1023 R26/810345 NOSIG"
"6:30 PM EET on December 24, 2016","2016","12","24","18","30","Europe/Kiev","4:30 PM GMT on December 24, 2016","2016","12","24","16","30","UTC","1.0","33.8","-2.0","28.4","81","14.4","8.9","-9999.0","-9999.0","230","SW","9.0","5.6","1023","30.21","-3.0","26.5","-9999","-9999","-9999.00","-9999.00","Overcast","cloudy","0","0","0","0","0","0","METAR UKKK 241630Z 23004MPS 190V250 9000 OVC015 01/M02 Q1023 R26/810345 NOSIG"
"7:00 PM EET on December 24, 2016","2016","12","24","19","00","Europe/Kiev","5:00 PM GMT on December 24, 2016","2016","12","24","17","00","UTC","1.0","33.8","-2.0","28.4","81","14.4","8.9","-9999.0","-9999.0","220","SW","10.0","6.2","1022","30.18","-3.0","26.5","-9999","-9999","-9999.00","-9999.00","Overcast","cloudy","0","0","0","0","0","0","METAR UKKK 241700Z 22004MPS 190V250 9999 OVC015 01/M02 Q1022 R26/810345 NOSIG"
"7:30 PM EET on December 24, 2016","2016","12","24","19","30","Europe/Kiev","5:30 PM GMT on December 24, 2016","2016","12","24","17","30","UTC","0.0","32.0","-2.0","28.4","87","18.0","11.2","-9999.0","-9999.0","230","SW","10.0","6.2","1022","30.18","-4.9","23.2","-9999","-9999","-9999.00","-9999.00","Overcast","cloudy","0","0","0","0","0","0","METAR UKKK 241730Z 23005MPS 9999 OVC015 00/M02 Q1022 R26/810345 NOSIG"
"8:00 PM EET on December 24, 2016","2016","12","24","20","00","Europe/Kiev","6:00 PM GMT on December 24, 2016","2016","12","24","18","00","UTC","0","33","-2","28","74","10.8","6.7","","","250","WSW","10","6","1023","30.22","-999","-999","-9999","-9999","","","Overcast","cloudy","0","0","0","0","0","0","AAXX 24181 33345 32497 82503 10004 21023 30022 40233 57020 886// 333 10013 88715 555 1/101"
"8:00 PM EET on December 24, 2016","2016","12","24","20","00","Europe/Kiev","6:00 PM GMT on December 24, 2016","2016","12","24","18","00","UTC","0.0","32.0","-2.0","28.4","87","18.0","11.2","-9999.0","-9999.0","230","SW","10.0","6.2","1022","30.18","-4.9","23.2","-9999","-9999","-9999.00","-9999.00","Overcast","cloudy","0","0","0","0","0","0","METAR UKKK 241800Z 23005MPS 200V260 9999 OVC014 00/M02 Q1022 R26/290045 NOSIG"
"8:30 PM EET on December 24, 2016","2016","12","24","20","30","Europe/Kiev","6:30 PM GMT on December 24, 2016","2016","12","24","18","30","UTC","0.0","32.0","-2.0","28.4","87","18.0","11.2","-9999.0","-9999.0","230","SW","10.0","6.2","1022","30.18","-4.9","23.2","-9999","-9999","-9999.00","-9999.00","Overcast","cloudy","0","0","0","0","0","0","METAR UKKK 241830Z 23005MPS 9999 OVC013 00/M02 Q1022 R26/290045 NOSIG"
"9:00 PM EET on December 24, 2016","2016","12","24","21","00","Europe/Kiev","7:00 PM GMT on December 24, 2016","2016","12","24","19","00","UTC","0.0","32.0","-2.0","28.4","87","18.0","11.2","-9999.0","-9999.0","230","SW","10.0","6.2","1021","30.15","-4.9","23.2","-9999","-9999","-9999.00","-9999.00","Overcast","cloudy","0","0","0","0","0","0","METAR UKKK 241900Z 23005MPS 9999 OVC012 M00/M02 Q1021 R26/290045 NOSIG"
"9:30 PM EET on December 24, 2016","2016","12","24","21","30","Europe/Kiev","7:30 PM GMT on December 24, 2016","2016","12","24","19","30","UTC","0.0","32.0","-2.0","28.4","87","14.4","8.9","-9999.0","-9999.0","240","WSW","10.0","6.2","1021","30.15","-4.3","24.3","-9999","-9999","-9999.00","-9999.00","Overcast","cloudy","0","0","0","0","0","0","METAR UKKK 241930Z 24004MPS 9999 OVC011 M00/M02 Q1021 R26/290045 NOSIG"
"10:00 PM EET on December 24, 2016","2016","12","24","22","00","Europe/Kiev","8:00 PM GMT on December 24, 2016","2016","12","24","20","00","UTC","0.0","32.0","-2.0","28.4","87","18.0","11.2","-9999.0","-9999.0","240","WSW","10.0","6.2","1021","30.15","-4.9","23.2","-9999","-9999","-9999.00","-9999.00","Overcast","cloudy","0","0","0","0","0","0","METAR UKKK 242000Z 24005MPS 9999 OVC009 M00/M02 Q1021 R26/290045 NOSIG"
"10:30 PM EET on December 24, 2016","2016","12","24","22","30","Europe/Kiev","8:30 PM GMT on December 24, 2016","2016","12","24","20","30","UTC","-1.0","30.2","-2.0","28.4","93","14.4","8.9","-9999.0","-9999.0","230","SW","10.0","6.2","1020","30.12","-5.5","22.1","-9999","-9999","-9999.00","-9999.00","Overcast","cloudy","0","0","0","0","0","0","METAR UKKK 242030Z 23004MPS 190V250 9999 OVC008 M01/M02 Q1020 R26/290045 NOSIG"
"11:00 PM EET on December 24, 2016","2016","12","24","23","00","Europe/Kiev","9:00 PM GMT on December 24, 2016","2016","12","24","21","00","UTC","-1","30","-3","26","80","18.0","11.2","","","240","WSW","10","6","1022","30.17","-999","-999","-9999","-9999","","","Overcast","cloudy","0","0","0","0","0","0","AAXX 24211 33345 42397 82405 11010 21032 30005 40217 57017 886// 333 88709 555 1/101"
"11:00 PM EET on December 24, 2016","2016","12","24","23","00","Europe/Kiev","9:00 PM GMT on December 24, 2016","2016","12","24","21","00","UTC","-1.0","30.2","-3.0","26.6","86","18.0","11.2","-9999.0","-9999.0","230","SW","10.0","6.2","1020","30.12","-6.2","20.9","-9999","-9999","-9999.00","-9999.00","Overcast","cloudy","0","0","0","0","0","0","METAR UKKK 242100Z 23005MPS 9999 OVC008 M01/M03 Q1020 R26/290045 TEMPO OVC006"
"11:30 PM EET on December 24, 2016","2016","12","24","23","30","Europe/Kiev","9:30 PM GMT on December 24, 2016","2016","12","24","21","30","UTC","-1.0","30.2","-3.0","26.6","86","21.6","13.4","-9999.0","-9999.0","230","SW","10.0","6.2","1020","30.12","-6.7","19.9","-9999","-9999","-9999.00","-9999.00","Overcast","cloudy","0","0","0","0","0","0","METAR UKKK 242130Z 23006MPS 9999 OVC008 M01/M03 Q1020 R26/290045 TEMPO OVC006"
"12:00 AM EET on December 25, 2016","2016","12","25","00","00","Europe/Kiev","10:00 PM GMT on December 24, 2016","2016","12","24","22","00","UTC","-1.0","30.2","-3.0","26.6","86","21.6","13.4","-9999.0","-9999.0","240","WSW","10.0","6.2","1019","30.09","-6.7","19.9","-9999","-9999","-9999.00","-9999.00","Overcast","cloudy","0","0","0","0","0","0","METAR UKKK 242200Z 24006MPS 210V270 9999 OVC008 M01/M03 Q1019 R26/290045 TEMPO OVC006"
"12:30 AM EET on December 25, 2016","2016","12","25","00","30","Europe/Kiev","10:30 PM GMT on December 24, 2016","2016","12","24","22","30","UTC","-1.0","30.2","-3.0","26.6","86","25.2","15.7","-9999.0","-9999.0","250","WSW","10.0","6.2","1019","30.09","-7.2","19.1","-9999","-9999","-9999.00","-9999.00","Overcast","cloudy","0","0","0","0","0","0","METAR UKKK 242230Z 25007MPS 9999 OVC008 M01/M03 Q1019 R26/290045 TEMPO OVC006"
"1:00 AM EET on December 25, 2016","2016","12","25","01","00","Europe/Kiev","11:00 PM GMT on December 24, 2016","2016","12","24","23","00","UTC","-1.0","30.2","-3.0","26.6","86","21.6","13.4","-9999.0","-9999.0","250","WSW","10.0","6.2","1019","30.09","-6.7","19.9","-9999","-9999","-9999.00","-9999.00","Overcast","cloudy","0","0","0","0","0","0","METAR UKKK 242300Z 25006MPS 9999 OVC007 M01/M03 Q1019 R26/290045 TEMPO OVC006"
"1:30 AM EET on December 25, 2016","2016","12","25","01","30","Europe/Kiev","11:30 PM GMT on December 24, 2016","2016","12","24","23","30","UTC","-1.0","30.2","-3.0","26.6","86","14.4","8.9","-9999.0","-9999.0","220","SW","10.0","6.2","1018","30.06","-5.5","22.1","-9999","-9999","-9999.00","-9999.00","Overcast","cloudy","0","0","0","0","0","0","METAR UKKK 242330Z 22004MPS 180V260 9999 OVC008 M01/M03 Q1018 R26/290045 TEMPO OVC006"
"2:00 AM EET on December 25, 2016","2016","12","25","02","00","Europe/Kiev","12:00 AM GMT on December 25, 2016","2016","12","25","00","00","UTC","-1","30","-3","27","84","10.8","6.7","","","240","WSW","4","2","1019","30.10","-999","-999","-9999","-9999","","","Mist","hazy","0","0","0","0","0","0","AAXX 25001 33345 31396 82403 11013 21028 39982 40193 57023 71022 886// 333 88709 555 1/101"
"2:00 AM EET on December 25, 2016","2016","12","25","02","00","Europe/Kiev","12:00 AM GMT on December 25, 2016","2016","12","25","00","00","UTC","-1.0","30.2","-3.0","26.6","86","14.4","8.9","-9999.0","-9999.0","220","SW","10.0","6.2","1018","30.06","-5.5","22.1","-9999","-9999","-9999.00","-9999.00","Overcast","cloudy","0","0","0","0","0","0","METAR UKKK 250000Z 22004MPS 190V250 9999 OVC007 M01/M03 Q1018 R26/290045 TEMPO OVC006"
"2:30 AM EET on December 25, 2016","2016","12","25","02","30","Europe/Kiev","12:30 AM GMT on December 25, 2016","2016","12","25","00","30","UTC","-1.0","30.2","-2.0","28.4","93","14.4","8.9","-9999.0","-9999.0","230","SW","10.0","6.2","1017","30.04","-5.5","22.1","-9999","-9999","-9999.00","-9999.00","Overcast","cloudy","0","0","0","0","0","0","METAR UKKK 250030Z 23004MPS 9999 OVC007 M01/M02 Q1017 R26/290045 TEMPO OVC005"
"3:00 AM EET on December 25, 2016","2016","12","25","03","00","Europe/Kiev","1:00 AM GMT on December 25, 2016","2016","12","25","01","00","UTC","-1.0","30.2","-2.0","28.4","93","14.4","8.9","-9999.0","-9999.0","230","SW","8.0","5.0","1017","30.04","-5.5","22.1","-9999","-9999","-9999.00","-9999.00","Overcast","cloudy","0","0","0","0","0","0","METAR UKKK 250100Z 23004MPS 200V260 8000 OVC006 M01/M02 Q1017 R26/290045 TEMPO 2000 BR OVC005"
"3:30 AM EET on December 25, 2016","2016","12","25","03","30","Europe/Kiev","1:30 AM GMT on December 25, 2016","2016","12","25","01","30","UTC","-1.0","30.2","-2.0","28.4","93","18.0","11.2","-9999.0","-9999.0","230","SW","8.0","5.0","1016","30.01","-6.2","20.9","-9999","-9999","-9999.00","-9999.00","Overcast","cloudy","0","0","0","0","0","0","METAR UKKK 250130Z 23005MPS 190V260 8000 OVC006 M01/M02 Q1016 R26/290045 TEMPO 2000 BR OVC005"
"4:00 AM EET on December 25, 2016","2016","12","25","04","00","Europe/Kiev","2:00 AM GMT on December 25, 2016","2016","12","25","02","00","UTC","-1.0","30.2","-2.0","28.4","93","14.4","8.9","-9999.0","-9999.0","230","SW","9.0","5.6","1016","30.01","-5.5","22.1","-9999","-9999","-9999.00","-9999.00","Overcast","cloudy","0","0","0","0","0","0","METAR UKKK 250200Z 23004MPS 9000 OVC006 M01/M02 Q1016 R26/290045 TEMPO 2000 BR OVC005"
"4:30 AM EET on December 25, 2016","2016","12","25","04","30","Europe/Kiev","2:30 AM GMT on December 25, 2016","2016","12","25","02","30","UTC","-1.0","30.2","-2.0","28.4","93","14.4","8.9","-9999.0","-9999.0","220","SW","-9999.0","-9999.0","1016","30.01","-5.5","22.1","-9999","-9999","-9999.00","-9999.00","Light Snow","snow","0","0","1","0","0","0","METAR UKKK 250230Z 22004MPS 4600 -SN BR BKN008 OVC020 M01/M02 Q1016 R26/290045 TEMPO 2000 BR OVC005"
"5:00 AM EET on December 25, 2016","2016","12","25","05","00","Europe/Kiev","3:00 AM GMT on December 25, 2016","2016","12","25","03","00","UTC","-1","29","-2","28","92","10.8","6.7","","","230","SW","4","2","1017","30.03","-999","-999","-9999","-9999","","","Mist","hazy","0","0","0","0","0","0","AAXX 25031 33345 41396 82303 11014 21025 39957 40168 57025 71072 885// 333 88709 555 1/101"
"5:00 AM EET on December 25, 2016","2016","12","25","05","00","Europe/Kiev","3:00 AM GMT on December 25, 2016","2016","12","25","03","00","UTC","-1.0","30.2","-2.0","28.4","93","14.4","8.9","-9999.0","-9999.0","220","SW","8.0","5.0","1015","29.98","-5.5","22.1","-9999","-9999","-9999.00","-9999.00","Light Snow","snow","0","0","1","0","0","0","METAR UKKK 250300Z 22004MPS 190V260 8000 -SN BKN008 OVC020 M01/M02 Q1015 R26/590145 TEMPO 2000 -SN BR OVC005"
"5:30 AM EET on December 25, 2016","2016","12","25","05","30","Europe/Kiev","3:30 AM GMT on December 25, 2016","2016","12","25","03","30","UTC","-1.0","30.2","-2.0","28.4","93","14.4","8.9","-9999.0","-9999.0","210","SSW","10.0","6.2","1015","29.98","-5.5","22.1","-9999","-9999","-9999.00","-9999.00","Overcast","cloudy","0","0","0","0","0","0","METAR UKKK 250330Z 21004MPS 180V240 9999 OVC008 M01/M02 Q1015 R26/590145 TEMPO 2000 -SN BR OVC005"
"6:00 AM EET on December 25, 2016","2016","12","25","06","00","Europe/Kiev","4:00 AM GMT on December 25, 2016","2016","12","25","04","00","UTC","-1.0","30.2","-2.0","28.4","93","14.4","8.9","-9999.0","-9999.0","220","SW","5.0","3.1","1015","29.98","-5.5","22.1","-9999","-9999","-9999.00","-9999.00","Light Snow","snow","0","0","1","0","0","0","METAR UKKK 250400Z 22004MPS 200V270 5000 -SN BKN007 BKN020 M01/M02 Q1015 R26/590145 TEMPO 2000 -SN BR OVC005"
"6:30 AM EET on December 25, 2016","2016","12","25","06","30","Europe/Kiev","4:30 AM GMT on December 25, 2016","2016","12","25","04","30","UTC","-1.0","30.2","-2.0","28.4","93","14.4","8.9","-9999.0","-9999.0","230","SW","3.0","1.9","1014","29.95","-5.5","22.1","-9999","-9999","-9999.00","-9999.00","Light Freezing Drizzle","rain","0","0","0","0","0","0","METAR UKKK 250430Z 23004MPS 3000 -FZDZ BR OVC005 M01/M02 Q1014 R26/590145 TEMPO 1800 -FZDZ BR OVC003"
"7:00 AM EET on December 25, 2016","2016","12","25","07","00","Europe/Kiev","5:00 AM GMT on December 25, 2016","2016","12","25","05","00","UTC","-1.0","30.2","-2.0","28.4","93","14.4","8.9","-9999.0","-9999.0","230","SW","-9999.0","-9999.0","1014","29.95","-5.5","22.1","-9999","-9999","-9999.00","-9999.00","Light Snow","snow","0","0","1","0","0","0","METAR UKKK 250500Z 23004MPS 3600 -SN BR BKN006 OVC026 M01/M02 Q1014 REFZDZ R26/590145 TEMPO 1800 -FZDZ BR OVC003"
"7:30 AM EET on December 25, 2016","2016","12","25","07","30","Europe/Kiev","5:30 AM GMT on December 25, 2016","2016","12","25","05","30","UTC","-1.0","30.2","-2.0","28.4","93","14.4","8.9","-9999.0","-9999.0","230","SW","-9999.0","-9999.0","1014","29.95","-5.5","22.1","-9999","-9999","-9999.00","-9999.00","Light Snow","snow","0","0","1","0","0","0","METAR UKKK 250530Z 23004MPS 3400 -SN BR BKN006 OVC026 M01/M02 Q1014 R26/590145 TEMPO 1800 -FZDZ BR OVC003"
"8:00 AM EET on December 25, 2016","2016","12","25","08","00","Europe/Kiev","6:00 AM GMT on December 25, 2016","2016","12","25","06","00","UTC","-1","30","-2","28","90","10.8","6.7","","","250","WSW","4","2","1015","29.98","-999","-999","-9999","-9999","","","Light Snow","snow","0","0","1","0","0","0","AAXX 25061 33345 11296 82503 11013 21021 39940 40151 57017 69922 77172 8872/ 333 21015 47002 88705 555 1/101"
"8:00 AM EET on December 25, 2016","2016","12","25","08","00","Europe/Kiev","6:00 AM GMT on December 25, 2016","2016","12","25","06","00","UTC","-1.0","30.2","-2.0","28.4","93","14.4","8.9","-9999.0","-9999.0","230","SW","1.3","0.8","1014","29.95","-5.5","22.1","-9999","-9999","-9999.00","-9999.00","Snow Showers","snow","0","0","1","0","0","0","METAR UKKK 250600Z 23004MPS 1300 R26/2000N SHSN BR BKN006 BKN027CB M01/M02 Q1014 R26/590145 TEMPO 1000 SHSN BKN005 BKN012CB"
"8:30 AM EET on December 25, 2016","2016","12","25","08","30","Europe/Kiev","6:30 AM GMT on December 25, 2016","2016","12","25","06","30","UTC","-1.0","30.2","-2.0","28.4","93","14.4","8.9","-9999.0","-9999.0","230","SW","1.8","1.1","1013","29.92","-5.5","22.1","-9999","-9999","-9999.00","-9999.00","Snow Showers","snow","0","0","1","0","0","0","METAR UKKK 250630Z 23004MPS 1800 SHSN BR BKN006 BKN027CB M01/M02 Q1013 R26/590240 TEMPO 0300 +SHSN BKN001 BKN012CB"
"8:43 AM EET on December 25, 2016","2016","12","25","08","43","Europe/Kiev","6:43 AM GMT on December 25, 2016","2016","12","25","06","43","UTC","-1.0","30.2","-2.0","28.4","93","14.4","8.9","-9999.0","-9999.0","230","SW","2.4","1.5","1013","29.92","-5.5","22.1","-9999","-9999","-9999.00","-9999.00","Light Snow Showers","snow","0","0","1","0","0","0","SPECI UKKK 250643Z 23004MPS 200V260 2400 -SHSN BR BKN006 BKN030CB M01/M02 Q1013 RESHSN R26/590240 TEMPO 1200 SHSN BKN003 BKN012CB"
"8:47 AM EET on December 25, 2016","2016","12","25","08","47","Europe/Kiev","6:47 AM GMT on December 25, 2016","2016","12","25","06","47","UTC","-1.0","30.2","-2.0","28.4","93","14.4","8.9","-9999.0","-9999.0","230","SW","2.5","1.6","1013","29.92","-5.5","22.1","-9999","-9999","-9999.00","-9999.00","Light Snow Showers","snow","0","0","1","0","0","0","SPECI UKKK 250647Z 23004MPS 200V260 2500 -SHSN BR BKN006 BKN030CB M01/M02 Q1013 RESHSN R26/590240 TEMPO 1200 SHSN BKN003 BKN012CB"
"9:00 AM EET on December 25, 2016","2016","12","25","09","00","Europe/Kiev","7:00 AM GMT on December 25, 2016","2016","12","25","07","00","UTC","-1.0","30.2","-2.0","28.4","93","14.4","8.9","-9999.0","-9999.0","230","SW","3.0","1.9","1013","29.92","-5.5","22.1","-9999","-9999","-9999.00","-9999.00","Light Snow Showers","snow","0","0","1","0","0","0","METAR UKKK 250700Z 23004MPS 200V260 3000 -SHSN BR BKN006 BKN030CB M01/M02 Q1013 R26/590240 TEMPO 1200 SHSN BKN003 BKN012CB"
"9:30 AM EET on December 25, 2016","2016","12","25","09","30","Europe/Kiev","7:30 AM GMT on December 25, 2016","2016","12","25","07","30","UTC","-1.0","30.2","-2.0","28.4","93","14.4","8.9","-9999.0","-9999.0","240","WSW","-9999.0","-9999.0","1013","29.92","-5.5","22.1","-9999","-9999","-9999.00","-9999.00","Light Snow","snow","0","0","1","0","0","0","METAR UKKK 250730Z 24004MPS 200V260 3400 -SN BR BKN007 OVC033 M01/M02 Q1013 R26/590240 TEMPO 1200 SHSN BKN003 BKN012CB"
"10:00 AM EET on December 25, 2016","2016","12","25","10","00","Europe/Kiev","8:00 AM GMT on December 25, 2016","2016","12","25","08","00","UTC","-1.0","30.2","-1.0","30.2","100","14.4","8.9","-9999.0","-9999.0","240","WSW","-9999.0","-9999.0","1013","29.92","-5.5","22.1","-9999","-9999","-9999.00","-9999.00","Light Snow","snow","0","0","1","0","0","0","METAR UKKK 250800Z 24004MPS 3600 -SN BR BKN007 OVC030 M01/M01 Q1013 R26/590240 NOSIG"
"10:30 AM EET on December 25, 2016","2016","12","25","10","30","Europe/Kiev","8:30 AM GMT on December 25, 2016","2016","12","25","08","30","UTC","0.0","32.0","-1.0","30.2","93","14.4","8.9","-9999.0","-9999.0","250","WSW","-9999.0","-9999.0","1013","29.92","-4.3","24.3","-9999","-9999","-9999.00","-9999.00","Light Snow","snow","0","0","1","0","0","0","METAR UKKK 250830Z 25004MPS 3600 -SN BR BKN007 OVC030 M00/M01 Q1013 R26/590240 NOSIG"
"11:00 AM EET on December 25, 2016","2016","12","25","11","00","Europe/Kiev","9:00 AM GMT on December 25, 2016","2016","12","25","09","00","UTC","-0","32","-1","30","87","10.8","6.7","","","270","West","4","2","1014","29.95","-999","-999","-9999","-9999","","","Light Snow","snow","0","0","1","0","0","0","AAXX 25091 33345 41396 82703 11001 21013 39933 40142 57007 77177 8872/ 333 88707 555 1/100"
"11:00 AM EET on December 25, 2016","2016","12","25","11","00","Europe/Kiev","9:00 AM GMT on December 25, 2016","2016","12","25","09","00","UTC","0.0","32.0","-1.0","30.2","93","14.4","8.9","-9999.0","-9999.0","260","West","-9999.0","-9999.0","1013","29.92","-4.3","24.3","-9999","-9999","-9999.00","-9999.00","Light Snow","snow","0","0","1","0","0","0","METAR UKKK 250900Z 26004MPS 3700 -SN BR BKN006 OVC026 M00/M01 Q1013 R26/610245 TEMPO 1200 SHSN BR BKN003 BKN012CB"
"11:30 AM EET on December 25, 2016","2016","12","25","11","30","Europe/Kiev","9:30 AM GMT on December 25, 2016","2016","12","25","09","30","UTC","0.0","32.0","-1.0","30.2","93","14.4","8.9","-9999.0","-9999.0","260","West","6.0","3.7","1012","29.89","-4.3","24.3","-9999","-9999","-9999.00","-9999.00","Light Snow","snow","0","0","1","0","0","0","METAR UKKK 250930Z 26004MPS 6000 -SN BKN006 OVC027 M00/M01 Q1012 R26/610245 NOSIG"
"12:00 PM EET on December 25, 2016","2016","12","25","12","00","Europe/Kiev","10:00 AM GMT on December 25, 2016","2016","12","25","10","00","UTC","0.0","32.0","-1.0","30.2","93","14.4","8.9","-9999.0","-9999.0","260","West","8.0","5.0","1012","29.89","-4.3","24.3","-9999","-9999","-9999.00","-9999.00","Light Snow","snow","0","0","1","0","0","0","METAR UKKK 251000Z 26004MPS 8000 -SN BKN007 OVC026 00/M01 Q1012 R26/610245 NOSIG"
"12:30 PM EET on December 25, 2016","2016","12","25","12","30","Europe/Kiev","10:30 AM GMT on December 25, 2016","2016","12","25","10","30","UTC","0.0","32.0","-1.0","30.2","93","14.4","8.9","-9999.0","-9999.0","250","WSW","9.0","5.6","1012","29.89","-4.3","24.3","-9999","-9999","-9999.00","-9999.00","Overcast","cloudy","0","0","0","0","0","0","METAR UKKK 251030Z 25004MPS 9000 OVC007 00/M01 Q1012 R26/610245 NOSIG"
"1:00 PM EET on December 25, 2016","2016","12","25","13","00","Europe/Kiev","11:00 AM GMT on December 25, 2016","2016","12","25","11","00","UTC","0.0","32.0","-1.0","30.2","93","14.4","8.9","-9999.0","-9999.0","250","WSW","9.0","5.6","1012","29.89","-4.3","24.3","-9999","-9999","-9999.00","-9999.00","Overcast","cloudy","0","0","0","0","0","0","METAR UKKK 251100Z 25004MPS 9000 OVC007 00/M01 Q1012 R26/610245 NOSIG"
"1:30 PM EET on December 25, 2016","2016","12","25","13","30","Europe/Kiev","11:30 AM GMT on December 25, 2016","2016","12","25","11","30","UTC","1.0","33.8","0.0","32.0","93","18.0","11.2","-9999.0","-9999.0","260","West","10.0","6.2","1012","29.89","-3.7","25.4","-9999","-9999","-9999.00","-9999.00","Overcast","cloudy","0","0","0","0","0","0","METAR UKKK 251130Z 26005MPS 9999 OVC008 01/M00 Q1012 R26/610245 NOSIG"
"2:00 PM EET on December 25, 2016","2016","12","25","14","00","Europe/Kiev","12:00 PM GMT on December 25, 2016","2016","12","25","12","00","UTC","1","34","-0","31","85","10.8","6.7","","","300","WNW","4","2","1013","29.92","-999","-999","-9999","-9999","","","Mist","hazy","0","0","0","0","0","0","AAXX 25121 33345 /1396 83003 10009 21005 39923 40131 57010 71072 885// 333 87709 555 1/100 69971"
"2:00 PM EET on December 25, 2016","2016","12","25","14","00","Europe/Kiev","12:00 PM GMT on December 25, 2016","2016","12","25","12","00","UTC","1.0","33.8","0.0","32.0","93","18.0","11.2","-9999.0","-9999.0","270","West","10.0","6.2","1012","29.89","-3.7","25.4","-9999","-9999","-9999.00","-9999.00","Overcast","cloudy","0","0","0","0","0","0","METAR UKKK 251200Z 27005MPS 9999 OVC007 01/M00 Q1012 R26/610245 NOSIG"
"2:30 PM EET on December 25, 2016","2016","12","25","14","30","Europe/Kiev","12:30 PM GMT on December 25, 2016","2016","12","25","12","30","UTC","1.0","33.8","0.0","32.0","93","14.4","8.9","-9999.0","-9999.0","270","West","6.0","3.7","1012","29.89","-3.0","26.5","-9999","-9999","-9999.00","-9999.00","Light Snow","snow","0","0","1","0","0","0","METAR UKKK 251230Z 27004MPS 6000 -SN BKN007 OVC022 01/M00 Q1012 R26/610245 NOSIG"
"3:00 PM EET on December 25, 2016","2016","12","25","15","00","Europe/Kiev","1:00 PM GMT on December 25, 2016","2016","12","25","13","00","UTC","1.0","33.8","0.0","32.0","93","14.4","8.9","-9999.0","-9999.0","270","West","9.0","5.6","1012","29.89","-3.0","26.5","-9999","-9999","-9999.00","-9999.00","Light Snow","snow","0","0","1","0","0","0","METAR UKKK 251300Z 27004MPS 9000 -SN BKN008 OVC024 01/M00 Q1012 R26/610245 NOSIG"
"3:30 PM EET on December 25, 2016","2016","12","25","15","30","Europe/Kiev","1:30 PM GMT on December 25, 2016","2016","12","25","13","30","UTC","1.0","33.8","0.0","32.0","93","18.0","11.2","-9999.0","-9999.0","270","West","10.0","6.2","1012","29.89","-3.7","25.4","-9999","-9999","-9999.00","-9999.00","Mostly Cloudy","mostlycloudy","0","0","0","0","0","0","METAR UKKK 251330Z 27005MPS 9999 BKN008 BKN040 01/M00 Q1012 R26/610245 NOSIG"
"4:00 PM EET on December 25, 2016","2016","12","25","16","00","Europe/Kiev","2:00 PM GMT on December 25, 2016","2016","12","25","14","00","UTC","1.0","33.8","0.0","32.0","93","14.4","8.9","-9999.0","-9999.0","270","West","9.0","5.6","1012","29.89","-3.0","26.5","-9999","-9999","-9999.00","-9999.00","Mostly Cloudy","mostlycloudy","0","0","0","0","0","0","METAR UKKK 251400Z 27004MPS 9000 BKN010 BKN040 01/00 Q1012 R26/610245 NOSIG"
"4:30 PM EET on December 25, 2016","2016","12","25","16","30","Europe/Kiev","2:30 PM GMT on December 25, 2016","2016","12","25","14","30","UTC","1.0","33.8","0.0","32.0","93","14.4","8.9","-9999.0","-9999.0","260","West","7.0","4.3","1012","29.89","-3.0","26.5","-9999","-9999","-9999.00","-9999.00","Overcast","cloudy","0","0","0","0","0","0","METAR UKKK 251430Z 26004MPS 7000 OVC015 01/00 Q1012 R26/610245 NOSIG"
"5:00 PM EET on December 25, 2016","2016","12","25","17","00","Europe/Kiev","3:00 PM GMT on December 25, 2016","2016","12","25","15","00","UTC","1","34","-0","32","87","10.8","6.7","","","300","WNW","4","2","1014","29.94","-999","-999","-9999","-9999","","","Mist","hazy","0","0","0","0","0","0","AAXX 25151 33345 41496 83003 10012 21002 39930 40138 53007 71022 885// 333 86713 555 1/100"
"5:00 PM EET on December 25, 2016","2016","12","25","17","00","Europe/Kiev","3:00 PM GMT on December 25, 2016","2016","12","25","15","00","UTC","1.0","33.8","0.0","32.0","93","18.0","11.2","-9999.0","-9999.0","270","West","9.0","5.6","1013","29.92","-3.7","25.4","-9999","-9999","-9999.00","-9999.00","Overcast","cloudy","0","0","0","0","0","0","METAR UKKK 251500Z 27005MPS 9000 OVC017 01/M00 Q1013 R26/290145 NOSIG"
"5:30 PM EET on December 25, 2016","2016","12","25","17","30","Europe/Kiev","3:30 PM GMT on December 25, 2016","2016","12","25","15","30","UTC","1.0","33.8","0.0","32.0","93","14.4","8.9","-9999.0","-9999.0","260","West","8.0","5.0","1013","29.92","-3.0","26.5","-9999","-9999","-9999.00","-9999.00","Mostly Cloudy","mostlycloudy","0","0","0","0","0","0","METAR UKKK 251530Z 26004MPS 8000 BKN020 01/M00 Q1013 R26/290145 NOSIG"
"6:00 PM EET on December 25, 2016","2016","12","25","18","00","Europe/Kiev","4:00 PM GMT on December 25, 2016","2016","12","25","16","00","UTC","1.0","33.8","0.0","32.0","93","14.4","8.9","-9999.0","-9999.0","270","West","9.0","5.6","1013","29.92","-3.0","26.5","-9999","-9999","-9999.00","-9999.00","Overcast","cloudy","0","0","0","0","0","0","METAR UKKK 251600Z 27004MPS 9000 OVC007 01/M00 Q1013 R26/290145 NOSIG"
"6:30 PM EET on December 25, 2016","2016","12","25","18","30","Europe/Kiev","4:30 PM GMT on December 25, 2016","2016","12","25","16","30","UTC","1.0","33.8","0.0","32.0","93","14.4","8.9","-9999.0","-9999.0","270","West","8.0","5.0","1013","29.92","-3.0","26.5","-9999","-9999","-9999.00","-9999.00","Overcast","cloudy","0","0","0","0","0","0","METAR UKKK 251630Z 27004MPS 8000 OVC015 01/M00 Q1013 R26/290145 NOSIG"
"7:00 PM EET on December 25, 2016","2016","12","25","19","00","Europe/Kiev","5:00 PM GMT on December 25, 2016","2016","12","25","17","00","UTC","1.0","33.8","0.0","32.0","93","10.8","6.7","-9999.0","-9999.0","260","West","7.0","4.3","1013","29.92","-2.3","27.9","-9999","-9999","-9999.00","-9999.00","Mostly Cloudy","mostlycloudy","0","0","0","0","0","0","METAR UKKK 251700Z 26003MPS 7000 BKN005 BKN043 01/00 Q1013 R26/290145 TEMPO BKN004"
"7:30 PM EET on December 25, 2016","2016","12","25","19","30","Europe/Kiev","5:30 PM GMT on December 25, 2016","2016","12","25","17","30","UTC","1.0","33.8","0.0","32.0","93","10.8","6.7","-9999.0","-9999.0","260","West","5.0","3.1","1013","29.92","-2.3","27.9","-9999","-9999","-9999.00","-9999.00","Mostly Cloudy","mostlycloudy","0","0","0","0","0","0","METAR UKKK 251730Z 26003MPS 5000 BR BKN005 BKN043 01/00 Q1013 R26/290145 TEMPO BKN004"
"8:00 PM EET on December 25, 2016","2016","12","25","20","00","Europe/Kiev","6:00 PM GMT on December 25, 2016","2016","12","25","18","00","UTC","1","34","-0","32","88","10.8","6.7","","","290","WNW","4","2","1014","29.96","-999","-999","-9999","-9999","","","Mist","hazy","0","0","0","0","0","0","AAXX 25181 33345 11296 82903 10010 21001 39936 40145 52006 69972 71022 885// 333 10014 85706 555 1/100"
"8:00 PM EET on December 25, 2016","2016","12","25","20","00","Europe/Kiev","6:00 PM GMT on December 25, 2016","2016","12","25","18","00","UTC","1.0","33.8","0.0","32.0","93","14.4","8.9","-9999.0","-9999.0","260","West","5.0","3.1","1013","29.92","-3.0","26.5","-9999","-9999","-9999.00","-9999.00","Mostly Cloudy","mostlycloudy","0","0","0","0","0","0","METAR UKKK 251800Z 26004MPS 5000 BR BKN006 BKN039 01/00 Q1013 R26/290145 TEMPO BKN005"
"8:30 PM EET on December 25, 2016","2016","12","25","20","30","Europe/Kiev","6:30 PM GMT on December 25, 2016","2016","12","25","18","30","UTC","1.0","33.8","0.0","32.0","93","14.4","8.9","-9999.0","-9999.0","270","West","5.0","3.1","1014","29.95","-3.0","26.5","-9999","-9999","-9999.00","-9999.00","Mostly Cloudy","mostlycloudy","0","0","0","0","0","0","METAR UKKK 251830Z 27004MPS 5000 BR BKN006 BKN039 01/00 Q1014 R26/290145 TEMPO BKN005"
"9:00 PM EET on December 25, 2016","2016","12","25","21","00","Europe/Kiev","7:00 PM GMT on December 25, 2016","2016","12","25","19","00","UTC","1.0","33.8","0.0","32.0","93","14.4","8.9","-9999.0","-9999.0","270","West","5.0","3.1","1014","29.95","-3.0","26.5","-9999","-9999","-9999.00","-9999.00","Mostly Cloudy","mostlycloudy","0","0","0","0","0","0","METAR UKKK 251900Z 27004MPS 5000 BR BKN006 BKN039 01/00 Q1014 R26/290145 TEMPO BKN005"
"9:30 PM EET on December 25, 2016","2016","12","25","21","30","Europe/Kiev","7:30 PM GMT on December 25, 2016","2016","12","25","19","30","UTC","1.0","33.8","0.0","32.0","93","14.4","8.9","-9999.0","-9999.0","270","West","-9999.0","-9999.0","1014","29.95","-3.0","26.5","-9999","-9999","-9999.00","-9999.00","Mostly Cloudy","mostlycloudy","0","0","0","0","0","0","METAR UKKK 251930Z 27004MPS 4600 BR BKN005 BKN039 01/00 Q1014 R26/290145 TEMPO BKN005"
"10:00 PM EET on December 25, 2016","2016","12","25","22","00","Europe/Kiev","8:00 PM GMT on December 25, 2016","2016","12","25","20","00","UTC","1.0","33.8","0.0","32.0","93","10.8","6.7","-9999.0","-9999.0","270","West","-9999.0","-9999.0","1014","29.95","-2.3","27.9","-9999","-9999","-9999.00","-9999.00","Mostly Cloudy","mostlycloudy","0","0","0","0","0","0","METAR UKKK 252000Z 27003MPS 4600 BR BKN007 BKN039 01/00 Q1014 R26/290145 TEMPO BKN005"
"10:30 PM EET on December 25, 2016","2016","12","25","22","30","Europe/Kiev","8:30 PM GMT on December 25, 2016","2016","12","25","20","30","UTC","0.0","32.0","0.0","32.0","100","14.4","8.9","-9999.0","-9999.0","270","West","5.0","3.1","1014","29.95","-4.3","24.3","-9999","-9999","-9999.00","-9999.00","Overcast","cloudy","0","0","0","0","0","0","METAR UKKK 252030Z 27004MPS 5000 BR OVC005 00/M00 Q1014 R26/290145 TEMPO BKN005"
"11:00 PM EET on December 25, 2016","2016","12","25","23","00","Europe/Kiev","9:00 PM GMT on December 25, 2016","2016","12","25","21","00","UTC","1","33","0","32","94","7.2","4.5","","","320","NW","4","2","1016","30.01","-999","-999","-9999","-9999","","","Mist","hazy","0","0","0","0","0","0","AAXX 25211 33345 41396 63202 10008 21000 39951 40160 52015 71022 86600 333 86707 555 1/103"
"11:00 PM EET on December 25, 2016","2016","12","25","23","00","Europe/Kiev","9:00 PM GMT on December 25, 2016","2016","12","25","21","00","UTC","0.0","32.0","-1.0","30.2","93","10.8","6.7","-9999.0","-9999.0","280","West","3.5","2.2","1015","29.98","-3.5","25.7","-9999","-9999","-9999.00","-9999.00","Mostly Cloudy","mostlycloudy","0","0","0","0","0","0","METAR UKKK 252100Z 28003MPS 3500 BR BKN010 M00/M01 Q1015 R26/290145 TEMPO 2000 BR BKN005"
"11:30 PM EET on December 25, 2016","2016","12","25","23","30","Europe/Kiev","9:30 PM GMT on December 25, 2016","2016","12","25","21","30","UTC","0.0","32.0","-1.0","30.2","93","7.2","4.5","-9999.0","-9999.0","290","WNW","-9999.0","-9999.0","1015","29.98","-2.5","27.6","-9999","-9999","-9999.00","-9999.00","Mostly Cloudy","mostlycloudy","0","0","0","0","0","0","METAR UKKK 252130Z 29002MPS 3200 BR BKN010 M00/M01 Q1015 R26/290145 TEMPO 1200 BR BKN005"
"12:00 AM EET on December 26, 2016","2016","12","26","00","00","Europe/Kiev","10:00 PM GMT on December 25, 2016","2016","12","25","22","00","UTC","1.0","33.8","-1.0","30.2","87","10.8","6.7","-9999.0","-9999.0","290","WNW","9.0","5.6","1015","29.98","-2.3","27.9","-9999","-9999","-9999.00","-9999.00","Mostly Cloudy","mostlycloudy","0","0","0","0","0","0","METAR UKKK 252200Z 29003MPS 9000 BKN009 01/M01 Q1015 R26/290145 NOSIG"
"12:30 AM EET on December 26, 2016","2016","12","26","00","30","Europe/Kiev","10:30 PM GMT on December 25, 2016","2016","12","25","22","30","UTC","1.0","33.8","-1.0","30.2","87","10.8","6.7","-9999.0","-9999.0","300","WNW","10.0","6.2","1015","29.98","-2.3","27.9","-9999","-9999","-9999.00","-9999.00","Mostly Cloudy","mostlycloudy","0","0","0","0","0","0","METAR UKKK 252230Z 30003MPS 9999 BKN009 01/M01 Q1015 R26/290145 NOSIG"
"1:00 AM EET on December 26, 2016","2016","12","26","01","00","Europe/Kiev","11:00 PM GMT on December 25, 2016","2016","12","25","23","00","UTC","1.0","33.8","0.0","32.0","93","7.2","4.5","-9999.0","-9999.0","240","WSW","7.0","4.3","1016","30.01","-1.3","29.7","-9999","-9999","-9999.00","-9999.00","Mostly Cloudy","mostlycloudy","0","0","0","0","0","0","METAR UKKK 252300Z 24002MPS 210V270 7000 BKN010 BKN050 01/M00 Q1016 R26/290145 NOSIG"
"1:30 AM EET on December 26, 2016","2016","12","26","01","30","Europe/Kiev","11:30 PM GMT on December 25, 2016","2016","12","25","23","30","UTC","1.0","33.8","0.0","32.0","93","10.8","6.7","-9999.0","-9999.0","260","West","8.0","5.0","1016","30.01","-2.3","27.9","-9999","-9999","-9999.00","-9999.00","Mostly Cloudy","mostlycloudy","0","0","0","0","0","0","METAR UKKK 252330Z 26003MPS 8000 BKN010 BKN050 01/M00 Q1016 R26/290145 NOSIG"
"2:00 AM EET on December 26, 2016","2016","12","26","02","00","Europe/Kiev","12:00 AM GMT on December 26, 2016","2016","12","26","00","00","UTC","1","33","-1","31","87","7.2","4.5","","","320","NW","4","2","1017","30.05","-999","-999","-9999","-9999","","","Mist","hazy","0","0","0","0","0","0","AAXX 26001 33345 31396 73202 10006 21008 39964 40174 52013 71022 86630 333 86709 555 1/101"
"2:00 AM EET on December 26, 2016","2016","12","26","02","00","Europe/Kiev","12:00 AM GMT on December 26, 2016","2016","12","26","00","00","UTC","1.0","33.8","0.0","32.0","93","7.2","4.5","-9999.0","-9999.0","270","West","7.0","4.3","1016","30.01","-1.3","29.7","-9999","-9999","-9999.00","-9999.00","Mostly Cloudy","mostlycloudy","0","0","0","0","0","0","METAR UKKK 260000Z 27002MPS 7000 BKN010 BKN050 01/M00 Q1016 R26/290145 NOSIG"
"2:30 AM EET on December 26, 2016","2016","12","26","02","30","Europe/Kiev","12:30 AM GMT on December 26, 2016","2016","12","26","00","30","UTC","1.0","33.8","0.0","32.0","93","10.8","6.7","-9999.0","-9999.0","270","West","6.0","3.7","1017","30.04","-2.3","27.9","-9999","-9999","-9999.00","-9999.00","Overcast","cloudy","0","0","0","0","0","0","METAR UKKK 260030Z 27003MPS 6000 OVC007 01/00 Q1017 R26/290145 TEMPO BKN006"
"3:00 AM EET on December 26, 2016","2016","12","26","03","00","Europe/Kiev","1:00 AM GMT on December 26, 2016","2016","12","26","01","00","UTC","1.0","33.8","0.0","32.0","93","10.8","6.7","-9999.0","-9999.0","270","West","6.0","3.7","1017","30.04","-2.3","27.9","-9999","-9999","-9999.00","-9999.00","Overcast","cloudy","0","0","0","0","0","0","METAR UKKK 260100Z 27003MPS 6000 OVC005 01/00 Q1017 R26/290145 TEMPO BKN005"
"3:19 AM EET on December 26, 2016","2016","12","26","03","19","Europe/Kiev","1:19 AM GMT on December 26, 2016","2016","12","26","01","19","UTC","1.0","33.8","0.0","32.0","93","10.8","6.7","-9999.0","-9999.0","280","West","-9999.0","-9999.0","1017","30.04","-2.3","27.9","-9999","-9999","-9999.00","-9999.00","Overcast","cloudy","0","0","0","0","0","0","SPECI UKKK 260119Z 28003MPS 4900 BR OVC004 01/00 Q1017 R26/290145 TEMPO BKN003"
"3:30 AM EET on December 26, 2016","2016","12","26","03","30","Europe/Kiev","1:30 AM GMT on December 26, 2016","2016","12","26","01","30","UTC","1.0","33.8","0.0","32.0","93","10.8","6.7","-9999.0","-9999.0","270","West","-9999.0","-9999.0","1017","30.04","-2.3","27.9","-9999","-9999","-9999.00","-9999.00","Overcast","cloudy","0","0","0","0","0","0","METAR UKKK 260130Z 27003MPS 4700 BR OVC004 01/00 Q1017 R26/290145 TEMPO BKN003"
"4:00 AM EET on December 26, 2016","2016","12","26","04","00","Europe/Kiev","2:00 AM GMT on December 26, 2016","2016","12","26","02","00","UTC","1.0","33.8","0.0","32.0","93","10.8","6.7","-9999.0","-9999.0","270","West","-9999.0","-9999.0","1017","30.04","-2.3","27.9","-9999","-9999","-9999.00","-9999.00","Overcast","cloudy","0","0","0","0","0","0","METAR UKKK 260200Z 27003MPS 4900 BR OVC003 01/00 Q1017 R26/290145 TEMPO BKN003"
"4:30 AM EET on December 26, 2016","2016","12","26","04","30","Europe/Kiev","2:30 AM GMT on December 26, 2016","2016","12","26","02","30","UTC","1.0","33.8","0.0","32.0","93","10.8","6.7","-9999.0","-9999.0","280","West","-9999.0","-9999.0","1017","30.04","-2.3","27.9","-9999","-9999","-9999.00","-9999.00","Overcast","cloudy","0","0","0","0","0","0","METAR UKKK 260230Z 28003MPS 4100 BR OVC003 01/00 Q1017 R26/290145 TEMPO BKN002"
"5:00 AM EET on December 26, 2016","2016","12","26","05","00","Europe/Kiev","3:00 AM GMT on December 26, 2016","2016","12","26","03","00","UTC","1","33","-0","32","93","7.2","4.5","","","310","NW","2","1","1019","30.08","-999","-999","-9999","-9999","","","Mist","hazy","0","0","0","0","0","0","AAXX 26031 33345 41295 83102 10007 21001 39976 40186 52012 71022 886// 333 88705 555 1/100"
"5:00 AM EET on December 26, 2016","2016","12","26","05","00","Europe/Kiev","3:00 AM GMT on December 26, 2016","2016","12","26","03","00","UTC","1.0","33.8","0.0","32.0","93","7.2","4.5","-9999.0","-9999.0","280","West","2.4","1.5","1017","30.04","-1.3","29.7","-9999","-9999","-9999.00","-9999.00","Overcast","cloudy","0","0","0","0","0","0","METAR UKKK 260300Z 28002MPS 2400 BR OVC002 01/00 Q1017 R26/290145 TEMPO 1500 BR BKN001"
"5:08 AM EET on December 26, 2016","2016","12","26","05","08","Europe/Kiev","3:08 AM GMT on December 26, 2016","2016","12","26","03","08","UTC","1.0","33.8","0.0","32.0","93","10.8","6.7","-9999.0","-9999.0","280","West","1.3","0.8","1017","30.04","-2.3","27.9","-9999","-9999","-9999.00","-9999.00","Overcast","cloudy","0","0","0","0","0","0","SPECI UKKK 260308Z 28003MPS 1300 R26/1900N BR OVC002 01/00 Q1017 R26/290145 TEMPO 0800 FG VV001"
"5:15 AM EET on December 26, 2016","2016","12","26","05","15","Europe/Kiev","3:15 AM GMT on December 26, 2016","2016","12","26","03","15","UTC","1.0","33.8","0.0","32.0","93","10.8","6.7","-9999.0","-9999.0","280","West","0.7","0.4","1017","30.04","-2.3","27.9","-9999","-9999","-9999.00","-9999.00","Overcast","cloudy","0","0","0","0","0","0","SPECI UKKK 260315Z 28003MPS 0700 R26/1800D PRFG OVC002 01/00 Q1017 R26/290145 TEMPO 0400 FG VV001"
"5:30 AM EET on December 26, 2016","2016","12","26","05","30","Europe/Kiev","3:30 AM GMT on December 26, 2016","2016","12","26","03","30","UTC","1.0","33.8","0.0","32.0","93","10.8","6.7","-9999.0","-9999.0","280","West","0.7","0.4","1018","30.06","-2.3","27.9","-9999","-9999","-9999.00","-9999.00","Fog","fog","1","0","0","0","0","0","METAR UKKK 260330Z 28003MPS 0700 R26/1400N FG VV002 01/00 Q1018 R26/290145 TEMPO 0400 FG VV001"
"5:35 AM EET on December 26, 2016","2016","12","26","05","35","Europe/Kiev","3:35 AM GMT on December 26, 2016","2016","12","26","03","35","UTC","1.0","33.8","0.0","32.0","93","10.8","6.7","-9999.0","-9999.0","280","West","0.6","0.4","1018","30.06","-2.3","27.9","-9999","-9999","-9999.00","-9999.00","Fog","fog","1","0","0","0","0","0","SPECI UKKK 260335Z 28003MPS 0600 R26/1400N FG VV001 01/00 Q1018 R26/290145 TEMPO 0400 FG VV001"
"6:00 AM EET on December 26, 2016","2016","12","26","06","00","Europe/Kiev","4:00 AM GMT on December 26, 2016","2016","12","26","04","00","UTC","1.0","33.8","0.0","32.0","93","10.8","6.7","-9999.0","-9999.0","280","West","1.7","1.1","1018","30.06","-2.3","27.9","-9999","-9999","-9999.00","-9999.00","Overcast","cloudy","0","0","0","0","0","0","METAR UKKK 260400Z 28003MPS 1700 BR OVC002 01/00 Q1018 R26/290145 TEMPO 0400 FG VV001"
"6:30 AM EET on December 26, 2016","2016","12","26","06","30","Europe/Kiev","4:30 AM GMT on December 26, 2016","2016","12","26","04","30","UTC","1.0","33.8","1.0","33.8","100","14.4","8.9","-9999.0","-9999.0","280","West","6.0","3.7","1018","30.06","-3.0","26.5","-9999","-9999","-9999.00","-9999.00","Overcast","cloudy","0","0","0","0","0","0","METAR UKKK 260430Z 28004MPS 6000 OVC004 01/01 Q1018 R26/290145 TEMPO OVC003"
"6:51 AM EET on December 26, 2016","2016","12","26","06","51","Europe/Kiev","4:51 AM GMT on December 26, 2016","2016","12","26","04","51","UTC","1.0","33.8","0.0","32.0","93","14.4","8.9","-9999.0","-9999.0","300","WNW","9.0","5.6","1018","30.06","-3.0","26.5","-9999","-9999","-9999.00","-9999.00","Overcast","cloudy","0","0","0","0","0","0","SPECI UKKK 260451Z 30004MPS 9000 OVC008 01/00 Q1018 R26/290145 TEMPO OVC005"
"7:00 AM EET on December 26, 2016","2016","12","26","07","00","Europe/Kiev","5:00 AM GMT on December 26, 2016","2016","12","26","05","00","UTC","1.0","33.8","0.0","32.0","93","14.4","8.9","-9999.0","-9999.0","300","WNW","10.0","6.2","1018","30.06","-3.0","26.5","-9999","-9999","-9999.00","-9999.00","Overcast","cloudy","0","0","0","0","0","0","METAR UKKK 260500Z 30004MPS 9999 OVC008 01/M00 Q1018 R26/290145 NOSIG"
"7:30 AM EET on December 26, 2016","2016","12","26","07","30","Europe/Kiev","5:30 AM GMT on December 26, 2016","2016","12","26","05","30","UTC","1.0","33.8","-1.0","30.2","87","10.8","6.7","-9999.0","-9999.0","300","WNW","10.0","6.2","1019","30.09","-2.3","27.9","-9999","-9999","-9999.00","-9999.00","Mostly Cloudy","mostlycloudy","0","0","0","0","0","0","METAR UKKK 260530Z 30003MPS 9999 BKN010 01/M01 Q1019 R26/290145 NOSIG"
"8:00 AM EET on December 26, 2016","2016","12","26","08","00","Europe/Kiev","6:00 AM GMT on December 26, 2016","2016","12","26","06","00","UTC","1","33","-1","31","87","7.2","4.5","","","320","NW","4","2","1020","30.13","-999","-999","-9999","-9999","","","Mist","hazy","0","0","0","0","0","0","AAXX 26061 33345 31496 83202 10006 21008 39992 40202 52016 71022 886// 333 20001 43003 88710 555 1/100"
"8:00 AM EET on December 26, 2016","2016","12","26","08","00","Europe/Kiev","6:00 AM GMT on December 26, 2016","2016","12","26","06","00","UTC","0.0","32.0","-1.0","30.2","93","10.8","6.7","-9999.0","-9999.0","290","WNW","10.0","6.2","1019","30.09","-3.5","25.7","-9999","-9999","-9999.00","-9999.00","Mostly Cloudy","mostlycloudy","0","0","0","0","0","0","METAR UKKK 260600Z 29003MPS 9999 BKN009 00/M01 Q1019 R26/290145 NOSIG"
"8:30 AM EET on December 26, 2016","2016","12","26","08","30","Europe/Kiev","6:30 AM GMT on December 26, 2016","2016","12","26","06","30","UTC","0.0","32.0","-1.0","30.2","93","10.8","6.7","-9999.0","-9999.0","260","West","10.0","6.2","1019","30.09","-3.5","25.7","-9999","-9999","-9999.00","-9999.00","Mostly Cloudy","mostlycloudy","0","0","0","0","0","0","METAR UKKK 260630Z 26003MPS 230V290 9999 BKN010 00/M01 Q1019 R26/290145 NOSIG"
"9:00 AM EET on December 26, 2016","2016","12","26","09","00","Europe/Kiev","7:00 AM GMT on December 26, 2016","2016","12","26","07","00","UTC","0.0","32.0","-1.0","30.2","93","7.2","4.5","-9999.0","-9999.0","270","West","10.0","6.2","1019","30.09","-2.5","27.6","-9999","-9999","-9999.00","-9999.00","Mostly Cloudy","mostlycloudy","0","0","0","0","0","0","METAR UKKK 260700Z 27002MPS 220V290 9999 BKN009 00/M01 Q1019 R26/290145 NOSIG"
"9:30 AM EET on December 26, 2016","2016","12","26","09","30","Europe/Kiev","7:30 AM GMT on December 26, 2016","2016","12","26","07","30","UTC","0.0","32.0","-1.0","30.2","93","10.8","6.7","-9999.0","-9999.0","230","SW","10.0","6.2","1019","30.09","-3.5","25.7","-9999","-9999","-9999.00","-9999.00","Mostly Cloudy","mostlycloudy","0","0","0","0","0","0","METAR UKKK 260730Z 23003MPS 9999 BKN009 00/M01 Q1019 R26/290145 NOSIG"
"10:00 AM EET on December 26, 2016","2016","12","26","10","00","Europe/Kiev","8:00 AM GMT on December 26, 2016","2016","12","26","08","00","UTC","1.0","33.8","-1.0","30.2","87","10.8","6.7","-9999.0","-9999.0","230","SW","10.0","6.2","1020","30.12","-2.3","27.9","-9999","-9999","-9999.00","-9999.00","Mostly Cloudy","mostlycloudy","0","0","0","0","0","0","METAR UKKK 260800Z 23003MPS 200V260 9999 BKN009 01/M01 Q1020 R26/290145 NOSIG"
"10:30 AM EET on December 26, 2016","2016","12","26","10","30","Europe/Kiev","8:30 AM GMT on December 26, 2016","2016","12","26","08","30","UTC","1.0","33.8","-1.0","30.2","87","7.2","4.5","-9999.0","-9999.0","220","SW","10.0","6.2","1020","30.12","-1.3","29.7","-9999","-9999","-9999.00","-9999.00","Mostly Cloudy","mostlycloudy","0","0","0","0","0","0","METAR UKKK 260830Z 22002MPS 180V260 9999 BKN009 01/M01 Q1020 R26/290145 NOSIG"
"11:00 AM EET on December 26, 2016","2016","12","26","11","00","Europe/Kiev","9:00 AM GMT on December 26, 2016","2016","12","26","09","00","UTC","2","36","-1","30","72","7.2","4.5","","","240","WSW","20","12","1021","30.15","-999","-999","-9999","-9999","","","Scattered Clouds","partlycloudy","0","0","0","0","0","0","AAXX 26091 33345 42598 22402 10023 21010 30000 40209 52008 82500 555 1/100"
"11:00 AM EET on December 26, 2016","2016","12","26","11","00","Europe/Kiev","9:00 AM GMT on December 26, 2016","2016","12","26","09","00","UTC","2.0","35.6","-1.0","30.2","81","14.4","8.9","-9999.0","-9999.0","240","WSW","10.0","6.2","1020","30.12","-1.8","28.7","-9999","-9999","-9999.00","-9999.00","Scattered Clouds","partlycloudy","0","0","0","0","0","0","METAR UKKK 260900Z 24004MPS 9999 SCT012 02/M01 Q1020 R26/290145 NOSIG"
"11:30 AM EET on December 26, 2016","2016","12","26","11","30","Europe/Kiev","9:30 AM GMT on December 26, 2016","2016","12","26","09","30","UTC","2.0","35.6","-1.0","30.2","81","18.0","11.2","-9999.0","-9999.0","240","WSW","10.0","6.2","1019","30.09","-2.4","27.7","-9999","-9999","-9999.00","-9999.00","Partly Cloudy","partlycloudy","0","0","0","0","0","0","METAR UKKK 260930Z 24005MPS 9999 FEW013 02/M01 Q1019 R26/290145 NOSIG"
"12:00 PM EET on December 26, 2016","2016","12","26","12","00","Europe/Kiev","10:00 AM GMT on December 26, 2016","2016","12","26","10","00","UTC","2.0","35.6","-1.0","30.2","81","18.0","11.2","-9999.0","-9999.0","230","SW","10.0","6.2","1019","30.09","-2.4","27.7","-9999","-9999","-9999.00","-9999.00","Partly Cloudy","partlycloudy","0","0","0","0","0","0","METAR UKKK 261000Z 23005MPS 200V260 9999 FEW013 02/M01 Q1019 R26/290145 NOSIG"
"12:30 PM EET on December 26, 2016","2016","12","26","12","30","Europe/Kiev","10:30 AM GMT on December 26, 2016","2016","12","26","10","30","UTC","3.0","37.4","-2.0","28.4","70","14.4","8.9","-9999.0","-9999.0","220","SW","10.0","6.2","1019","30.09","-0.6","30.9","-9999","-9999","-9999.00","-9999.00","Partly Cloudy","partlycloudy","0","0","0","0","0","0","METAR UKKK 261030Z 22004MPS 9999 FEW013 03/M02 Q1019 R26/290145 NOSIG"
"1:00 PM EET on December 26, 2016","2016","12","26","13","00","Europe/Kiev","11:00 AM GMT on December 26, 2016","2016","12","26","11","00","UTC","3.0","37.4","-2.0","28.4","70","14.4","8.9","-9999.0","-9999.0","220","SW","10.0","6.2","1018","30.06","-0.6","30.9","-9999","-9999","-9999.00","-9999.00","Partly Cloudy","partlycloudy","0","0","0","0","0","0","METAR UKKK 261100Z 22004MPS 190V250 9999 FEW013 03/M02 Q1018 R26/290145 NOSIG"
"1:30 PM EET on December 26, 2016","2016","12","26","13","30","Europe/Kiev","11:30 AM GMT on December 26, 2016","2016","12","26","11","30","UTC","3.0","37.4","-3.0","26.6","65","18.0","11.2","-9999.0","-9999.0","230","SW","-9999.0","-9999.0","1018","30.06","-1.2","29.9","-9999","-9999","-9999.00","-9999.00","Clear","clear","0","0","0","0","0","0","METAR UKKK 261130Z 23005MPS CAVOK 03/M03 Q1018 R26/290145 NOSIG"
"2:00 PM EET on December 26, 2016","2016","12","26","14","00","Europe/Kiev","12:00 PM GMT on December 26, 2016","2016","12","26","12","00","UTC","3","37","-3","26","54","18.0","11.2","","","260","West","20","12","1020","30.12","-999","-999","-9999","-9999","","","Partly Cloudy","partlycloudy","0","0","0","0","0","0","AAXX 26121 33345 32598 42605 10030 21031 39989 40197 58011 84500 555 1/001"
"2:00 PM EET on December 26, 2016","2016","12","26","14","00","Europe/Kiev","12:00 PM GMT on December 26, 2016","2016","12","26","12","00","UTC","2.0","35.6","-3.0","26.6","70","14.4","8.9","-9999.0","-9999.0","230","SW","-9999.0","-9999.0","1018","30.06","-1.8","28.7","-9999","-9999","-9999.00","-9999.00","Clear","clear","0","0","0","0","0","0","METAR UKKK 261200Z 23004MPS CAVOK 02/M03 Q1018 R26/290145 NOSIG"
"2:30 PM EET on December 26, 2016","2016","12","26","14","30","Europe/Kiev","12:30 PM GMT on December 26, 2016","2016","12","26","12","30","UTC","2.0","35.6","-3.0","26.6","70","14.4","8.9","-9999.0","-9999.0","230","SW","-9999.0","-9999.0","1018","30.06","-1.8","28.7","-9999","-9999","-9999.00","-9999.00","Clear","clear","0","0","0","0","0","0","METAR UKKK 261230Z 23004MPS CAVOK 02/M03 Q1018 R26/290045 NOSIG"
"3:00 PM EET on December 26, 2016","2016","12","26","15","00","Europe/Kiev","1:00 PM GMT on December 26, 2016","2016","12","26","13","00","UTC","2.0","35.6","-3.0","26.6","70","14.4","8.9","-9999.0","-9999.0","230","SW","-9999.0","-9999.0","1018","30.06","-1.8","28.7","-9999","-9999","-9999.00","-9999.00","Clear","clear","0","0","0","0","0","0","METAR UKKK 261300Z 23004MPS CAVOK 02/M03 Q1018 R26/290045 NOSIG"
"3:30 PM EET on December 26, 2016","2016","12","26","15","30","Europe/Kiev","1:30 PM GMT on December 26, 2016","2016","12","26","13","30","UTC","2.0","35.6","-3.0","26.6","70","14.4","8.9","-9999.0","-9999.0","220","SW","-9999.0","-9999.0","1018","30.06","-1.8","28.7","-9999","-9999","-9999.00","-9999.00","Clear","clear","0","0","0","0","0","0","METAR UKKK 261330Z 22004MPS 190V250 CAVOK 02/M03 Q1018 R26/290045 NOSIG"
"4:00 PM EET on December 26, 2016","2016","12","26","16","00","Europe/Kiev","2:00 PM GMT on December 26, 2016","2016","12","26","14","00","UTC","2.0","35.6","-4.0","24.8","65","18.0","11.2","-9999.0","-9999.0","220","SW","10.0","6.2","1018","30.06","-2.4","27.7","-9999","-9999","-9999.00","-9999.00","Mostly Cloudy","mostlycloudy","0","0","0","0","0","0","METAR UKKK 261400Z 22005MPS 180V240 9999 SCT024 BKN120 02/M04 Q1018 R26/290045 NOSIG"
"4:30 PM EET on December 26, 2016","2016","12","26","16","30","Europe/Kiev","2:30 PM GMT on December 26, 2016","2016","12","26","14","30","UTC","1.0","33.8","-4.0","24.8","70","14.4","8.9","-9999.0","-9999.0","220","SW","10.0","6.2","1018","30.06","-3.0","26.5","-9999","-9999","-9999.00","-9999.00","Mostly Cloudy","mostlycloudy","0","0","0","0","0","0","METAR UKKK 261430Z 22004MPS 170V240 9999 SCT023 BKN120 01/M04 Q1018 R26/290045 NOSIG"
"5:00 PM EET on December 26, 2016","2016","12","26","17","00","Europe/Kiev","3:00 PM GMT on December 26, 2016","2016","12","26","15","00","UTC","1","34","-3","26","64","10.8","6.7","","","220","SW","20","12","1019","30.08","-999","-999","-9999","-9999","","","Scattered Clouds","partlycloudy","0","0","0","0","0","0","AAXX 26151 33345 42598 22203 10013 21032 39977 40186 57012 82500 555 1/101"
"5:00 PM EET on December 26, 2016","2016","12","26","17","00","Europe/Kiev","3:00 PM GMT on December 26, 2016","2016","12","26","15","00","UTC","1.0","33.8","-4.0","24.8","70","18.0","11.2","-9999.0","-9999.0","210","SSW","10.0","6.2","1017","30.04","-3.7","25.4","-9999","-9999","-9999.00","-9999.00","Mostly Cloudy","mostlycloudy","0","0","0","0","0","0","METAR UKKK 261500Z 21005MPS 9999 SCT021 BKN120 01/M04 Q1017 R26/290050 NOSIG"
"5:30 PM EET on December 26, 2016","2016","12","26","17","30","Europe/Kiev","3:30 PM GMT on December 26, 2016","2016","12","26","15","30","UTC","1.0","33.8","-3.0","26.6","75","14.4","8.9","-9999.0","-9999.0","210","SSW","10.0","6.2","1017","30.04","-3.0","26.5","-9999","-9999","-9999.00","-9999.00","Mostly Cloudy","mostlycloudy","0","0","0","0","0","0","METAR UKKK 261530Z 21004MPS 190V250 9999 SCT019 BKN083 01/M03 Q1017 R26/290050 NOSIG"
"6:00 PM EET on December 26, 2016","2016","12","26","18","00","Europe/Kiev","4:00 PM GMT on December 26, 2016","2016","12","26","16","00","UTC","1.0","33.8","-3.0","26.6","75","21.6","13.4","-9999.0","-9999.0","220","SW","10.0","6.2","1016","30.01","-4.2","24.5","-9999","-9999","-9999.00","-9999.00","Mostly Cloudy","mostlycloudy","0","0","0","0","0","0","METAR UKKK 261600Z 22006MPS 9999 SCT017 BKN033 01/M03 Q1016 R26/290050 NOSIG"
"6:30 PM EET on December 26, 2016","2016","12","26","18","30","Europe/Kiev","4:30 PM GMT on December 26, 2016","2016","12","26","16","30","UTC","1.0","33.8","-3.0","26.6","75","18.0","11.2","-9999.0","-9999.0","220","SW","10.0","6.2","1016","30.01","-3.7","25.4","-9999","-9999","-9999.00","-9999.00","Mostly Cloudy","mostlycloudy","0","0","0","0","0","0","METAR UKKK 261630Z 22005MPS 9999 SCT018 BKN028 01/M03 Q1016 R26/290050 NOSIG"
"7:00 PM EET on December 26, 2016","2016","12","26","19","00","Europe/Kiev","5:00 PM GMT on December 26, 2016","2016","12","26","17","00","UTC","1.0","33.8","-2.0","28.4","81","18.0","11.2","36.0","22.4","230","SW","8.0","5.0","1016","30.01","-3.7","25.4","-9999","-9999","-9999.00","-9999.00","Light Snow","snow","0","0","1","0","0","0","METAR UKKK 261700Z 23005G10MPS 190V250 8000 -SN BKN017 OVC026 01/M02 Q1016 R26/290050 NOSIG"
"7:30 PM EET on December 26, 2016","2016","12","26","19","30","Europe/Kiev","5:30 PM GMT on December 26, 2016","2016","12","26","17","30","UTC","1.0","33.8","-2.0","28.4","81","21.6","13.4","-9999.0","-9999.0","220","SW","9.0","5.6","1016","30.01","-4.2","24.5","-9999","-9999","-9999.00","-9999.00","Light Rain","snow","0","1","1","0","0","0","METAR UKKK 261730Z 22006MPS 9000 -RASN BKN014 OVC025 01/M02 Q1016 R26/290050 NOSIG"
"8:00 PM EET on December 26, 2016","2016","12","26","20","00","Europe/Kiev","6:00 PM GMT on December 26, 2016","2016","12","26","18","00","UTC","0","33","-2","29","78","18.0","11.2","","","240","WSW","10","6","1017","30.03","-999","-999","-9999","-9999","","","Light Snow","snow","0","0","1","0","0","0","AAXX 26181 33345 11497 82405 10005 21018 39957 40167 57020 69902 72271 886// 333 10037 88712 555 1/100"
"8:00 PM EET on December 26, 2016","2016","12","26","20","00","Europe/Kiev","6:00 PM GMT on December 26, 2016","2016","12","26","18","00","UTC","0.0","32.0","-1.0","30.2","93","21.6","13.4","-9999.0","-9999.0","220","SW","-9999.0","-9999.0","1015","29.98","-5.4","22.2","-9999","-9999","-9999.00","-9999.00","Light Rain","rain","0","1","0","0","0","0","METAR UKKK 261800Z 22006MPS 4400 -RA BR BKN009 OVC024 00/M01 Q1015 R26/290050 NOSIG"
"8:30 PM EET on December 26, 2016","2016","12","26","20","30","Europe/Kiev","6:30 PM GMT on December 26, 2016","2016","12","26","18","30","UTC","0.0","32.0","0.0","32.0","100","21.6","13.4","-9999.0","-9999.0","220","SW","3.5","2.2","1015","29.98","-5.4","22.2","-9999","-9999","-9999.00","-9999.00","Light Rain","rain","0","1","0","0","0","0","METAR UKKK 261830Z 22006MPS 3500 -RA BR BKN006 OVC022 00/M00 Q1015 WS RWY26 R26/290050 NOSIG"
"9:00 PM EET on December 26, 2016","2016","12","26","21","00","Europe/Kiev","7:00 PM GMT on December 26, 2016","2016","12","26","19","00","UTC","0.0","32.0","0.0","32.0","100","21.6","13.4","-9999.0","-9999.0","230","SW","6.0","3.7","1015","29.98","-5.4","22.2","-9999","-9999","-9999.00","-9999.00","Light Rain","rain","0","1","0","0","0","0","METAR UKKK 261900Z 23006MPS 6000 -RA BKN005 OVC021 00/M00 Q1015 R26/290050 TEMPO BKN003"
"9:16 PM EET on December 26, 2016","2016","12","26","21","16","Europe/Kiev","7:16 PM GMT on December 26, 2016","2016","12","26","19","16","UTC","0.0","32.0","0.0","32.0","100","18.0","11.2","-9999.0","-9999.0","230","SW","2.4","1.5","1014","29.95","-4.9","23.2","-9999","-9999","-9999.00","-9999.00","Light Rain","rain","0","1","0","0","0","0","SPECI UKKK 261916Z 23005MPS 2400 -RA BR BKN004 OVC019 00/M00 Q1014 R26/290050 TEMPO 1000 BR BKN003"
"9:30 PM EET on December 26, 2016","2016","12","26","21","30","Europe/Kiev","7:30 PM GMT on December 26, 2016","2016","12","26","19","30","UTC","1.0","33.8","0.0","32.0","93","21.6","13.4","-9999.0","-9999.0","220","SW","1.9","1.2","1014","29.95","-4.2","24.5","-9999","-9999","-9999.00","-9999.00","Light Rain","rain","0","1","0","0","0","0","METAR UKKK 261930Z 22006MPS 190V250 1900 -RA BR BKN004 OVC015 01/M00 Q1014 R26/290245 TEMPO 1000 BR BKN003"
"10:00 PM EET on December 26, 2016","2016","12","26","22","00","Europe/Kiev","8:00 PM GMT on December 26, 2016","2016","12","26","20","00","UTC","1.0","33.8","0.0","32.0","93","18.0","11.2","-9999.0","-9999.0","230","SW","6.0","3.7","1014","29.95","-3.7","25.4","-9999","-9999","-9999.00","-9999.00","Light Drizzle","rain","0","0","0","0","0","0","METAR UKKK 262000Z 23005MPS 6000 -DZ OVC005 01/00 Q1014 R26/290245 TEMPO BKN004"
"10:30 PM EET on December 26, 2016","2016","12","26","22","30","Europe/Kiev","8:30 PM GMT on December 26, 2016","2016","12","26","20","30","UTC","1.0","33.8","1.0","33.8","100","18.0","11.2","-9999.0","-9999.0","220","SW","-9999.0","-9999.0","1014","29.95","-3.7","25.4","-9999","-9999","-9999.00","-9999.00","Light Drizzle","rain","0","0","0","0","0","0","METAR UKKK 262030Z 22005MPS 190V250 4100 -DZ BR OVC004 01/01 Q1014 R26/290245 TEMPO BKN003"
"11:00 PM EET on December 26, 2016","2016","12","26","23","00","Europe/Kiev","9:00 PM GMT on December 26, 2016","2016","12","26","21","00","UTC","1","33","0","33","97","18.0","11.2","","","240","WSW","4","2","1014","29.96","-999","-999","-9999","-9999","","","Light Drizzle","rain","0","1","0","0","0","0","AAXX 26211 33345 41496 82405 10008 20003 39936 40145 57021 72052 886// 333 88710 555 1/100"
"11:00 PM EET on December 26, 2016","2016","12","26","23","00","Europe/Kiev","9:00 PM GMT on December 26, 2016","2016","12","26","21","00","UTC","1.0","33.8","1.0","33.8","100","21.6","13.4","-9999.0","-9999.0","220","SW","6.0","3.7","1013","29.92","-4.2","24.5","-9999","-9999","-9999.00","-9999.00","Light Drizzle","rain","0","0","0","0","0","0","METAR UKKK 262100Z 22006MPS 200V260 6000 -DZ OVC004 01/01 Q1013 R26/290245 TEMPO BKN003"
"11:30 PM EET on December 26, 2016","2016","12","26","23","30","Europe/Kiev","9:30 PM GMT on December 26, 2016","2016","12","26","21","30","UTC","1.0","33.8","1.0","33.8","100","21.6","13.4","-9999.0","-9999.0","230","SW","7.0","4.3","1013","29.92","-4.2","24.5","-9999","-9999","-9999.00","-9999.00","Light Drizzle","rain","0","0","0","0","0","0","METAR UKKK 262130Z 23006MPS 200V260 7000 -DZ OVC004 01/01 Q1013 R26/290245 TEMPO BKN003"
"11:53 PM EET on December 26, 2016","2016","12","26","23","53","Europe/Kiev","9:53 PM GMT on December 26, 2016","2016","12","26","21","53","UTC","1.0","33.8","1.0","33.8","100","21.6","13.4","-9999.0","-9999.0","220","SW","1.4","0.9","1012","29.89","-4.2","24.5","-9999","-9999","-9999.00","-9999.00","Light Drizzle","rain","0","0","0","0","0","0","SPECI UKKK 262153Z 22006MPS 1400 R26/1700VP2000D -DZ BR OVC003 01/01 Q1012 R26/290245 TEMPO 1000 BR BKN002"
"12:00 AM EET on December 27, 2016","2016","12","27","00","00","Europe/Kiev","10:00 PM GMT on December 26, 2016","2016","12","26","22","00","UTC","1.0","33.8","1.0","33.8","100","21.6","13.4","-9999.0","-9999.0","220","SW","1.5","0.9","1012","29.89","-4.2","24.5","-9999","-9999","-9999.00","-9999.00","Light Drizzle","rain","0","0","0","0","0","0","METAR UKKK 262200Z 22006MPS 1500 -DZ BR OVC003 01/01 Q1012 R26/290245 TEMPO 1000 BR BKN002"
"12:30 AM EET on December 27, 2016","2016","12","27","00","30","Europe/Kiev","10:30 PM GMT on December 26, 2016","2016","12","26","22","30","UTC","1.0","33.8","1.0","33.8","100","21.6","13.4","-9999.0","-9999.0","230","SW","3.5","2.2","1012","29.89","-4.2","24.5","-9999","-9999","-9999.00","-9999.00","Light Drizzle","rain","0","0","0","0","0","0","METAR UKKK 262230Z 23006MPS 3500 -DZ BR OVC003 01/01 Q1012 R26/290245 TEMPO 1000 BR BKN002"
"1:00 AM EET on December 27, 2016","2016","12","27","01","00","Europe/Kiev","11:00 PM GMT on December 26, 2016","2016","12","26","23","00","UTC","1.0","33.8","1.0","33.8","100","18.0","11.2","-9999.0","-9999.0","230","SW","1.8","1.1","1011","29.86","-3.7","25.4","-9999","-9999","-9999.00","-9999.00","Light Drizzle","rain","0","0","0","0","0","0","METAR UKKK 262300Z 23005MPS 1800 -DZ BR OVC004 01/01 Q1011 R26/290345 TEMPO 1000 BR BKN002"
"1:30 AM EET on December 27, 2016","2016","12","27","01","30","Europe/Kiev","11:30 PM GMT on December 26, 2016","2016","12","26","23","30","UTC","1.0","33.8","1.0","33.8","100","21.6","13.4","-9999.0","-9999.0","230","SW","2.4","1.5","1011","29.86","-4.2","24.5","-9999","-9999","-9999.00","-9999.00","Light Drizzle","rain","0","0","0","0","0","0","METAR UKKK 262330Z 23006MPS 200V260 2400 -DZ BR OVC004 01/01 Q1011 R26/290345 TEMPO BKN003"
"2:00 AM EET on December 27, 2016","2016","12","27","02","00","Europe/Kiev","12:00 AM GMT on December 27, 2016","2016","12","27","00","00","UTC","2","35","1","34","93","21.6","13.4","","","250","WSW","4","2","1012","29.88","-999","-999","-9999","-9999","","","Light Drizzle","rain","0","1","0","0","0","0","AAXX 27001 33345 /1296 82506 10015 20010 39909 40117 57027 72062 886// 333 88706 555 1/000 60011"
"2:00 AM EET on December 27, 2016","2016","12","27","02","00","Europe/Kiev","12:00 AM GMT on December 27, 2016","2016","12","27","00","00","UTC","2.0","35.6","1.0","33.8","93","21.6","13.4","-9999.0","-9999.0","230","SW","6.0","3.7","1010","29.83","-2.9","26.8","-9999","-9999","-9999.00","-9999.00","Light Drizzle","rain","0","0","0","0","0","0","METAR UKKK 270000Z 23006MPS 6000 -DZ OVC004 02/01 Q1010 R26/290345 TEMPO BKN003"
"2:30 AM EET on December 27, 2016","2016","12","27","02","30","Europe/Kiev","12:30 AM GMT on December 27, 2016","2016","12","27","00","30","UTC","2.0","35.6","1.0","33.8","93","18.0","11.2","-9999.0","-9999.0","230","SW","5.0","3.1","1010","29.83","-2.4","27.7","-9999","-9999","-9999.00","-9999.00","Light Drizzle","rain","0","0","0","0","0","0","METAR UKKK 270030Z 23005MPS 5000 -DZ BR OVC004 02/01 Q1010 R26/290345 TEMPO BKN003"
"3:00 AM EET on December 27, 2016","2016","12","27","03","00","Europe/Kiev","1:00 AM GMT on December 27, 2016","2016","12","27","01","00","UTC","2.0","35.6","2.0","35.6","100","18.0","11.2","-9999.0","-9999.0","230","SW","6.0","3.7","1010","29.83","-2.4","27.7","-9999","-9999","-9999.00","-9999.00","Light Rain","rain","0","1","0","0","0","0","METAR UKKK 270100Z 23005MPS 6000 -RA OVC003 02/02 Q1010 R26/290345 TEMPO BKN003"
"3:30 AM EET on December 27, 2016","2016","12","27","03","30","Europe/Kiev","1:30 AM GMT on December 27, 2016","2016","12","27","01","30","UTC","2.0","35.6","2.0","35.6","100","18.0","11.2","-9999.0","-9999.0","240","WSW","4.5","2.8","1009","29.80","-2.4","27.7","-9999","-9999","-9999.00","-9999.00","Light Rain","rain","0","1","0","0","0","0","METAR UKKK 270130Z 24005MPS 4500 -RA BR OVC004 02/02 Q1009 R26/290345 TEMPO 1000 BR BKN002"
"4:00 AM EET on December 27, 2016","2016","12","27","04","00","Europe/Kiev","2:00 AM GMT on December 27, 2016","2016","12","27","02","00","UTC","3.0","37.4","2.0","35.6","93","18.0","11.2","-9999.0","-9999.0","240","WSW","5.0","3.1","1009","29.80","-1.2","29.9","-9999","-9999","-9999.00","-9999.00","Light Rain Showers","rain","0","1","0","0","0","0","METAR UKKK 270200Z 24005MPS 5000 -SHRA BR BKN004 BKN023CB 03/02 Q1009 R26/290345 TEMPO 1000 BR BKN002"
"4:30 AM EET on December 27, 2016","2016","12","27","04","30","Europe/Kiev","2:30 AM GMT on December 27, 2016","2016","12","27","02","30","UTC","3.0","37.4","3.0","37.4","100","21.6","13.4","-9999.0","-9999.0","250","WSW","6.0","3.7","1009","29.80","-1.6","29.1","-9999","-9999","-9999.00","-9999.00","Light Rain Showers","rain","0","1","0","0","0","0","METAR UKKK 270230Z 25006MPS 6000 -SHRA BKN004 BKN024CB 03/03 Q1009 R26/290345 TEMPO BKN003"
"5:00 AM EET on December 27, 2016","2016","12","27","05","00","Europe/Kiev","3:00 AM GMT on December 27, 2016","2016","12","27","03","00","UTC","3","38","3","37","94","21.6","13.4","","","290","WNW","4","2","1010","29.82","-999","-999","-9999","-9999","","","Light Rain","rain","0","1","0","0","0","0","AAXX 27031 33345 41396 82906 10034 20027 39890 40096 57019 76162 8872/ 333 88707 555 1/000"
"5:00 AM EET on December 27, 2016","2016","12","27","05","00","Europe/Kiev","3:00 AM GMT on December 27, 2016","2016","12","27","03","00","UTC","3.0","37.4","3.0","37.4","100","25.2","15.7","-9999.0","-9999.0","260","West","7.0","4.3","1008","29.77","-2.1","28.3","-9999","-9999","-9999.00","-9999.00","Light Rain","rain","0","1","0","0","0","0","METAR UKKK 270300Z 26007MPS 7000 -RA BKN004 OVC020 03/03 Q1008 R26/290345 TEMPO BKN003"
"5:13 AM EET on December 27, 2016","2016","12","27","05","13","Europe/Kiev","3:13 AM GMT on December 27, 2016","2016","12","27","03","13","UTC","3.0","37.4","3.0","37.4","100","25.2","15.7","-9999.0","-9999.0","260","West","9.0","5.6","1008","29.77","-2.1","28.3","-9999","-9999","-9999.00","-9999.00","Light Rain","rain","0","1","0","0","0","0","SPECI UKKK 270313Z 26007MPS 9000 -RA BKN006 OVC019 03/03 Q1008 R26/290345 TEMPO BKN003"
"5:30 AM EET on December 27, 2016","2016","12","27","05","30","Europe/Kiev","3:30 AM GMT on December 27, 2016","2016","12","27","03","30","UTC","3.0","37.4","3.0","37.4","100","25.2","15.7","-9999.0","-9999.0","260","West","9.0","5.6","1009","29.80","-2.1","28.3","-9999","-9999","-9999.00","-9999.00","Light Rain","rain","0","1","0","0","0","0","METAR UKKK 270330Z 26007MPS 9000 -RA BKN007 OVC019 03/03 Q1009 R26/290345 TEMPO OVC004"
"6:00 AM EET on December 27, 2016","2016","12","27","06","00","Europe/Kiev","4:00 AM GMT on December 27, 2016","2016","12","27","04","00","UTC","4.0","39.2","3.0","37.4","93","21.6","13.4","-9999.0","-9999.0","270","West","10.0","6.2","1009","29.80","-0.4","31.3","-9999","-9999","-9999.00","-9999.00","Light Rain","rain","0","1","0","0","0","0","METAR UKKK 270400Z 27006MPS 9999 -RA OVC009 04/03 Q1009 R26/290345 NOSIG"
"6:30 AM EET on December 27, 2016","2016","12","27","06","30","Europe/Kiev","4:30 AM GMT on December 27, 2016","2016","12","27","04","30","UTC","4.0","39.2","3.0","37.4","93","25.2","15.7","-9999.0","-9999.0","280","West","10.0","6.2","1009","29.80","-0.8","30.6","-9999","-9999","-9999.00","-9999.00","Mostly Cloudy","mostlycloudy","0","0","0","0","0","0","METAR UKKK 270430Z 28007MPS 9999 SCT009 BKN026 04/03 Q1009 R26/290345 NOSIG"
"7:00 AM EET on December 27, 2016","2016","12","27","07","00","Europe/Kiev","5:00 AM GMT on December 27, 2016","2016","12","27","05","00","UTC","3.0","37.4","2.0","35.6","93","25.2","15.7","-9999.0","-9999.0","290","WNW","10.0","6.2","1009","29.80","-2.1","28.3","-9999","-9999","-9999.00","-9999.00","Mostly Cloudy","mostlycloudy","0","0","0","0","0","0","METAR UKKK 270500Z 29007MPS 9999 SCT018 BKN040 03/02 Q1009 R26/290345 NOSIG"
"7:30 AM EET on December 27, 2016","2016","12","27","07","30","Europe/Kiev","5:30 AM GMT on December 27, 2016","2016","12","27","05","30","UTC","3.0","37.4","2.0","35.6","93","21.6","13.4","-9999.0","-9999.0","270","West","10.0","6.2","1009","29.80","-1.6","29.1","-9999","-9999","-9999.00","-9999.00","Mostly Cloudy","mostlycloudy","0","0","0","0","0","0","METAR UKKK 270530Z 27006MPS 9999 FEW012 BKN036 03/02 Q1009 R26/290245 NOSIG"
"8:00 AM EET on December 27, 2016","2016","12","27","08","00","Europe/Kiev","6:00 AM GMT on December 27, 2016","2016","12","27","06","00","UTC","3","38","1","35","82","14.4","8.9","","","300","WNW","10","6","1010","29.83","-999","-999","-9999","-9999","","","Partly Cloudy","partlycloudy","0","0","0","0","0","0","AAXX 27061 33345 11997 23004 10032 20014 39896 40102 53006 60042 70261 82030 333 20002 42001 555 1/100"
"8:00 AM EET on December 27, 2016","2016","12","27","08","00","Europe/Kiev","6:00 AM GMT on December 27, 2016","2016","12","27","06","00","UTC","3.0","37.4","2.0","35.6","93","21.6","13.4","-9999.0","-9999.0","270","West","10.0","6.2","1009","29.80","-1.6","29.1","-9999","-9999","-9999.00","-9999.00","Mostly Cloudy","mostlycloudy","0","0","0","0","0","0","METAR UKKK 270600Z 27006MPS 9999 BKN025 03/02 Q1009 R26/290245 NOSIG"
"8:30 AM EET on December 27, 2016","2016","12","27","08","30","Europe/Kiev","6:30 AM GMT on December 27, 2016","2016","12","27","06","30","UTC","3.0","37.4","1.0","33.8","87","21.6","13.4","-9999.0","-9999.0","270","West","10.0","6.2","1009","29.80","-1.6","29.1","-9999","-9999","-9999.00","-9999.00","Mostly Cloudy","mostlycloudy","0","0","0","0","0","0","METAR UKKK 270630Z 27006MPS 9999 BKN040 03/01 Q1009 R26/290245 NOSIG"
"9:00 AM EET on December 27, 2016","2016","12","27","09","00","Europe/Kiev","7:00 AM GMT on December 27, 2016","2016","12","27","07","00","UTC","3.0","37.4","1.0","33.8","87","21.6","13.4","-9999.0","-9999.0","270","West","10.0","6.2","1010","29.83","-1.6","29.1","-9999","-9999","-9999.00","-9999.00","Mostly Cloudy","mostlycloudy","0","0","0","0","0","0","METAR UKKK 270700Z 27006MPS 9999 BKN020 03/01 Q1010 R26/290245 NOSIG"
"9:30 AM EET on December 27, 2016","2016","12","27","09","30","Europe/Kiev","7:30 AM GMT on December 27, 2016","2016","12","27","07","30","UTC","3.0","37.4","0.0","32.0","81","28.8","17.9","-9999.0","-9999.0","280","West","10.0","6.2","1010","29.83","-2.4","27.6","-9999","-9999","-9999.00","-9999.00","Mostly Cloudy","mostlycloudy","0","0","0","0","0","0","METAR UKKK 270730Z 28008MPS 9999 BKN023 03/M00 Q1010 R26/290245 NOSIG"
"9:55 AM EET on December 27, 2016","2016","12","27","09","55","Europe/Kiev","7:55 AM GMT on December 27, 2016","2016","12","27","07","55","UTC","3.0","37.4","-1.0","30.2","75","32.4","20.1","50.4","31.3","290","WNW","10.0","6.2","1010","29.83","-2.8","27.0","-9999","-9999","-9999.00","-9999.00","Scattered Clouds","partlycloudy","0","0","0","0","0","0","SPECI UKKK 270755Z 29009G14MPS 9999 SCT027 03/M01 Q1010 R26/290245 NOSIG"
"10:00 AM EET on December 27, 2016","2016","12","27","10","00","Europe/Kiev","8:00 AM GMT on December 27, 2016","2016","12","27","08","00","UTC","3.0","37.4","-1.0","30.2","75","32.4","20.1","50.4","31.3","290","WNW","10.0","6.2","1010","29.83","-2.8","27.0","-9999","-9999","-9999.00","-9999.00","Scattered Clouds","partlycloudy","0","0","0","0","0","0","METAR UKKK 270800Z 29009G14MPS 9999 SCT027 03/M01 Q1010 R26/290245 NOSIG"
"10:30 AM EET on December 27, 2016","2016","12","27","10","30","Europe/Kiev","8:30 AM GMT on December 27, 2016","2016","12","27","08","30","UTC","3.0","37.4","-1.0","30.2","75","28.8","17.9","-9999.0","-9999.0","290","WNW","10.0","6.2","1010","29.83","-2.4","27.6","-9999","-9999","-9999.00","-9999.00","Scattered Clouds","partlycloudy","0","0","0","0","0","0","METAR UKKK 270830Z 29008MPS 9999 SCT023 03/M01 Q1010 WS RWY26 R26/290245 NOSIG"
"11:00 AM EET on December 27, 2016","2016","12","27","11","00","Europe/Kiev","9:00 AM GMT on December 27, 2016","2016","12","27","09","00","UTC","3","37","-1","30","69","14.4","8.9","","","300","WNW","20","12","1011","29.86","-999","-999","-9999","-9999","","","Mostly Cloudy","mostlycloudy","0","0","0","0","0","0","AAXX 27091 33345 42598 63004 10029 21009 39905 40112 52009 86900 555 1/000"
"11:00 AM EET on December 27, 2016","2016","12","27","11","00","Europe/Kiev","9:00 AM GMT on December 27, 2016","2016","12","27","09","00","UTC","2.0","35.6","0.0","32.0","87","28.8","17.9","-9999.0","-9999.0","270","West","10.0","6.2","1010","29.83","-3.7","25.3","-9999","-9999","-9999.00","-9999.00","Mostly Cloudy","mostlycloudy","0","0","0","0","0","0","METAR UKKK 270900Z 27008MPS 9999 BKN026 02/M00 Q1010 R26/290245 NOSIG"
"11:30 AM EET on December 27, 2016","2016","12","27","11","30","Europe/Kiev","9:30 AM GMT on December 27, 2016","2016","12","27","09","30","UTC","3.0","37.4","-1.0","30.2","75","28.8","17.9","-9999.0","-9999.0","280","West","10.0","6.2","1010","29.83","-2.4","27.6","-9999","-9999","-9999.00","-9999.00","Mostly Cloudy","mostlycloudy","0","0","0","0","0","0","METAR UKKK 270930Z 28008MPS 9999 BKN026 03/M01 Q1010 R26/290245 NOSIG"
"12:00 PM EET on December 27, 2016","2016","12","27","12","00","Europe/Kiev","10:00 AM GMT on December 27, 2016","2016","12","27","10","00","UTC","3.0","37.4","-2.0","28.4","70","28.8","17.9","-9999.0","-9999.0","270","West","10.0","6.2","1010","29.83","-2.4","27.6","-9999","-9999","-9999.00","-9999.00","Partly Cloudy","partlycloudy","0","0","0","0","0","0","METAR UKKK 271000Z 27008MPS 9999 FEW026 03/M02 Q1010 R26/290050 TEMPO 30011G18MPS"
"12:30 PM EET on December 27, 2016","2016","12","27","12","30","Europe/Kiev","10:30 AM GMT on December 27, 2016","2016","12","27","10","30","UTC","3.0","37.4","-1.0","30.2","75","32.4","20.1","-9999.0","-9999.0","270","West","10.0","6.2","1009","29.80","-2.8","27.0","-9999","-9999","-9999.00","-9999.00","Scattered Clouds","partlycloudy","0","0","0","0","0","0","METAR UKKK 271030Z 27009MPS 9999 SCT033 03/M01 Q1009 R26/290050 TEMPO 30011G18MPS"
"1:00 PM EET on December 27, 2016","2016","12","27","13","00","Europe/Kiev","11:00 AM GMT on December 27, 2016","2016","12","27","11","00","UTC","3.0","37.4","-1.0","30.2","75","36.0","22.4","-9999.0","-9999.0","280","West","10.0","6.2","1009","29.80","-3.1","26.5","-9999","-9999","-9999.00","-9999.00","Mostly Cloudy","mostlycloudy","0","0","0","0","0","0","METAR UKKK 271100Z 28010MPS 9999 BKN027 03/M01 Q1009 R26/290050 TEMPO 30011G18MPS"
"1:30 PM EET on December 27, 2016","2016","12","27","13","30","Europe/Kiev","11:30 AM GMT on December 27, 2016","2016","12","27","11","30","UTC","4.0","39.2","-1.0","30.2","70","32.4","20.1","-9999.0","-9999.0","270","West","-9999.0","-9999.0","1009","29.80","-1.4","29.4","-9999","-9999","-9999.00","-9999.00","Clear","clear","0","0","0","0","0","0","METAR UKKK 271130Z 27009MPS CAVOK 04/M01 Q1009 R26/290050 TEMPO 30011G18MPS"
"2:00 PM EET on December 27, 2016","2016","12","27","14","00","Europe/Kiev","12:00 PM GMT on December 27, 2016","2016","12","27","12","00","UTC","4","38","-2","29","60","21.6","13.4","","","290","WNW","20","12","1010","29.82","-999","-999","-9999","-9999","","","Mostly Cloudy","mostlycloudy","0","0","0","0","0","0","AAXX 27121 33345 32598 62906 10036 21017 39890 40096 58015 85540 555 1/000"
"2:00 PM EET on December 27, 2016","2016","12","27","14","00","Europe/Kiev","12:00 PM GMT on December 27, 2016","2016","12","27","12","00","UTC","3.0","37.4","-1.0","30.2","75","25.2","15.7","-9999.0","-9999.0","260","West","10.0","6.2","1009","29.80","-2.1","28.3","-9999","-9999","-9999.00","-9999.00","Mostly Cloudy","mostlycloudy","0","0","0","0","0","0","METAR UKKK 271200Z 26007MPS 9999 BKN024 03/M01 Q1009 R26/290050 TEMPO 30012G19MPS"
"2:30 PM EET on December 27, 2016","2016","12","27","14","30","Europe/Kiev","12:30 PM GMT on December 27, 2016","2016","12","27","12","30","UTC","3.0","37.4","-1.0","30.2","75","25.2","15.7","-9999.0","-9999.0","250","WSW","10.0","6.2","1008","29.77","-2.1","28.3","-9999","-9999","-9999.00","-9999.00","Mostly Cloudy","mostlycloudy","0","0","0","0","0","0","METAR UKKK 271230Z 25007MPS 9999 BKN029 03/M01 Q1008 R26/290050 TEMPO 30012G19MPS"
"3:00 PM EET on December 27, 2016","2016","12","27","15","00","Europe/Kiev","1:00 PM GMT on December 27, 2016","2016","12","27","13","00","UTC","3.0","37.4","-1.0","30.2","75","21.6","13.4","-9999.0","-9999.0","250","WSW","10.0","6.2","1008","29.77","-1.6","29.1","-9999","-9999","-9999.00","-9999.00","Mostly Cloudy","mostlycloudy","0","0","0","0","0","0","METAR UKKK 271300Z 25006MPS 9999 BKN026 03/M01 Q1008 R26/290050 TEMPO 30012G19MPS"
"3:30 PM EET on December 27, 2016","2016","12","27","15","30","Europe/Kiev","1:30 PM GMT on December 27, 2016","2016","12","27","13","30","UTC","3.0","37.4","-1.0","30.2","75","25.2","15.7","-9999.0","-9999.0","250","WSW","10.0","6.2","1008","29.77","-2.1","28.3","-9999","-9999","-9999.00","-9999.00","Mostly Cloudy","mostlycloudy","0","0","0","0","0","0","METAR UKKK 271330Z 25007MPS 9999 BKN026 03/M01 Q1008 R26/290050 TEMPO 28012G19MPS"
"4:00 PM EET on December 27, 2016","2016","12","27","16","00","Europe/Kiev","2:00 PM GMT on December 27, 2016","2016","12","27","14","00","UTC","3.0","37.4","-1.0","30.2","75","25.2","15.7","-9999.0","-9999.0","250","WSW","10.0","6.2","1007","29.74","-2.1","28.3","-9999","-9999","-9999.00","-9999.00","Mostly Cloudy","mostlycloudy","0","0","0","0","0","0","METAR UKKK 271400Z 25007MPS 9999 BKN020 03/M01 Q1007 R26/290050 TEMPO 28012G19MPS"
"4:30 PM EET on December 27, 2016","2016","12","27","16","30","Europe/Kiev","2:30 PM GMT on December 27, 2016","2016","12","27","14","30","UTC","2.0","35.6","0.0","32.0","87","25.2","15.7","-9999.0","-9999.0","250","WSW","9.0","5.6","1007","29.74","-3.3","26.0","-9999","-9999","-9999.00","-9999.00","Light Snow Showers","snow","0","1","1","0","0","0","METAR UKKK 271430Z 25007MPS 9000 -SHSNRA SCT020CB OVC035 02/00 Q1007 R26/290145 TEMPO 28012G19MPS"
"5:00 PM EET on December 27, 2016","2016","12","27","17","00","Europe/Kiev","3:00 PM GMT on December 27, 2016","2016","12","27","15","00","UTC","2","36","0","32","81","18.0","11.2","","","270","West","20","12","1008","29.78","-999","-999","-9999","-9999","","","Light Snow Showers","snow","0","0","1","0","0","0","AAXX 27151 33345 41498 72705 10020 20001 39878 40085 57012 72622 87900 555 1/100"
"5:00 PM EET on December 27, 2016","2016","12","27","17","00","Europe/Kiev","3:00 PM GMT on December 27, 2016","2016","12","27","15","00","UTC","2.0","35.6","0.0","32.0","87","25.2","15.7","-9999.0","-9999.0","250","WSW","10.0","6.2","1007","29.74","-3.3","26.0","-9999","-9999","-9999.00","-9999.00","Overcast","cloudy","0","0","0","0","0","0","METAR UKKK 271500Z 25007MPS 9999 FEW020CB OVC040 02/M00 Q1007 R26/290145 TEMPO 28014G20MPS"
"5:30 PM EET on December 27, 2016","2016","12","27","17","30","Europe/Kiev","3:30 PM GMT on December 27, 2016","2016","12","27","15","30","UTC","2.0","35.6","0.0","32.0","87","25.2","15.7","-9999.0","-9999.0","250","WSW","10.0","6.2","1007","29.74","-3.3","26.0","-9999","-9999","-9999.00","-9999.00","Light Rain","snow","0","1","1","0","0","0","METAR UKKK 271530Z 25007MPS 9999 -RASN SCT013 OVC033 02/M00 Q1007 R26/290145 TEMPO 28014G20MPS"
"6:00 PM EET on December 27, 2016","2016","12","27","18","00","Europe/Kiev","4:00 PM GMT on December 27, 2016","2016","12","27","16","00","UTC","2.0","35.6","0.0","32.0","87","25.2","15.7","-9999.0","-9999.0","250","WSW","10.0","6.2","1006","29.71","-3.3","26.0","-9999","-9999","-9999.00","-9999.00","Light Snow","snow","0","1","1","0","0","0","METAR UKKK 271600Z 25007MPS 9999 -SNRA SCT012 OVC025 02/00 Q1006 R26/290145 TEMPO 28014G20MPS"
"6:30 PM EET on December 27, 2016","2016","12","27","18","30","Europe/Kiev","4:30 PM GMT on December 27, 2016","2016","12","27","16","30","UTC","2.0","35.6","0.0","32.0","87","25.2","15.7","-9999.0","-9999.0","260","West","10.0","6.2","1006","29.71","-3.3","26.0","-9999","-9999","-9999.00","-9999.00","Light Rain","snow","0","1","1","0","0","0","METAR UKKK 271630Z 26007MPS 9999 -RASN SCT008 OVC020 02/00 Q1006 R26/290245 TEMPO 28014G20MPS"
"7:00 PM EET on December 27, 2016","2016","12","27","19","00","Europe/Kiev","5:00 PM GMT on December 27, 2016","2016","12","27","17","00","UTC","2.0","35.6","1.0","33.8","93","28.8","17.9","-9999.0","-9999.0","260","West","9.0","5.6","1006","29.71","-3.7","25.3","-9999","-9999","-9999.00","-9999.00","Light Rain","snow","0","1","1","0","0","0","METAR UKKK 271700Z 26008MPS 9000 -RASN SCT010 OVC020 02/01 Q1006 R26/290245 TEMPO 28014G20MPS"
"7:30 PM EET on December 27, 2016","2016","12","27","19","30","Europe/Kiev","5:30 PM GMT on December 27, 2016","2016","12","27","17","30","UTC","2.0","35.6","1.0","33.8","93","28.8","17.9","-9999.0","-9999.0","260","West","10.0","6.2","1006","29.71","-3.7","25.3","-9999","-9999","-9999.00","-9999.00","Light Rain","rain","0","1","0","0","0","0","METAR UKKK 271730Z 26008MPS 9999 -RA SCT009 OVC022 02/01 Q1006 R26/290245 TEMPO 28014G20MPS"
"8:00 PM EET on December 27, 2016","2016","12","27","20","00","Europe/Kiev","6:00 PM GMT on December 27, 2016","2016","12","27","18","00","UTC","2","36","1","33","85","21.6","13.4","","","290","WNW","20","12","1007","29.74","-999","-999","-9999","-9999","","","Light Rain","rain","0","1","0","0","0","0","AAXX 27181 33345 11498 82906 10022 20006 39864 40070 57014 69932 72186 887// 333 10041 88713 555 11000"
"8:00 PM EET on December 27, 2016","2016","12","27","20","00","Europe/Kiev","6:00 PM GMT on December 27, 2016","2016","12","27","18","00","UTC","2.0","35.6","1.0","33.8","93","28.8","17.9","-9999.0","-9999.0","260","West","10.0","6.2","1006","29.71","-3.7","25.3","-9999","-9999","-9999.00","-9999.00","Overcast","cloudy","0","0","0","0","0","0","METAR UKKK 271800Z 26008MPS 9999 SCT010 OVC022 02/01 Q1006 R26/290145 TEMPO 29011G17MPS"
"8:30 PM EET on December 27, 2016","2016","12","27","20","30","Europe/Kiev","6:30 PM GMT on December 27, 2016","2016","12","27","18","30","UTC","2.0","35.6","1.0","33.8","93","28.8","17.9","-9999.0","-9999.0","260","West","10.0","6.2","1006","29.71","-3.7","25.3","-9999","-9999","-9999.00","-9999.00","Light Rain","rain","0","1","0","0","0","0","METAR UKKK 271830Z 26008MPS 9999 -RA SCT010 OVC027 02/01 Q1006 R26/290145 TEMPO 29011G17MPS"
"9:00 PM EET on December 27, 2016","2016","12","27","21","00","Europe/Kiev","7:00 PM GMT on December 27, 2016","2016","12","27","19","00","UTC","2.0","35.6","1.0","33.8","93","21.6","13.4","-9999.0","-9999.0","250","WSW","10.0","6.2","1005","29.68","-2.9","26.8","-9999","-9999","-9999.00","-9999.00","Light Rain","rain","0","1","0","0","0","0","METAR UKKK 271900Z 25006MPS 9999 -RA SCT014 OVC033 02/01 Q1005 R26/290145 TEMPO 29011G17MPS"
"9:10 PM EET on December 27, 2016","2016","12","27","21","10","Europe/Kiev","7:10 PM GMT on December 27, 2016","2016","12","27","19","10","UTC","2.0","35.6","1.0","33.8","93","25.2","15.7","46.8","29.1","250","WSW","10.0","6.2","1005","29.68","-3.3","26.0","-9999","-9999","-9999.00","-9999.00","Light Rain","rain","0","1","0","0","0","0","SPECI UKKK 271910Z 25007G13MPS 9999 -RA SCT011 OVC033 02/01 Q1005 R26/290145 TEMPO 29011G17MPS"
"9:30 PM EET on December 27, 2016","2016","12","27","21","30","Europe/Kiev","7:30 PM GMT on December 27, 2016","2016","12","27","19","30","UTC","2.0","35.6","1.0","33.8","93","28.8","17.9","-9999.0","-9999.0","270","West","10.0","6.2","1005","29.68","-3.7","25.3","-9999","-9999","-9999.00","-9999.00","Light Rain","rain","0","1","0","0","0","0","METAR UKKK 271930Z 27008MPS 9999 -RA SCT013 OVC033 02/01 Q1005 R26/290145 TEMPO 28011G17MPS"
"10:00 PM EET on December 27, 2016","2016","12","27","22","00","Europe/Kiev","8:00 PM GMT on December 27, 2016","2016","12","27","20","00","UTC","2.0","35.6","0.0","32.0","87","25.2","15.7","-9999.0","-9999.0","270","West","10.0","6.2","1005","29.68","-3.3","26.0","-9999","-9999","-9999.00","-9999.00","Mostly Cloudy","mostlycloudy","0","0","0","0","0","0","METAR UKKK 272000Z 27007MPS 9999 SCT016 BKN026 02/00 Q1005 R26/290145 TEMPO 28011G17MPS"
"10:30 PM EET on December 27, 2016","2016","12","27","22","30","Europe/Kiev","8:30 PM GMT on December 27, 2016","2016","12","27","20","30","UTC","2.0","35.6","0.0","32.0","87","25.2","15.7","-9999.0","-9999.0","260","West","10.0","6.2","1005","29.68","-3.3","26.0","-9999","-9999","-9999.00","-9999.00","Mostly Cloudy","mostlycloudy","0","0","0","0","0","0","METAR UKKK 272030Z 26007MPS 9999 SCT016 BKN026 02/00 Q1005 R26/290145 TEMPO 28011G17MPS"
"11:00 PM EET on December 27, 2016","2016","12","27","23","00","Europe/Kiev","9:00 PM GMT on December 27, 2016","2016","12","27","21","00","UTC","2","36","-0","32","79","21.6","13.4","","","280","West","20","12","1006","29.72","-999","-999","-9999","-9999","","","Mostly Cloudy","mostlycloudy","0","0","0","0","0","0","AAXX 27211 33345 42598 62806 10023 21001 39858 40064 56006 86500 555 11100"
"11:00 PM EET on December 27, 2016","2016","12","27","23","00","Europe/Kiev","9:00 PM GMT on December 27, 2016","2016","12","27","21","00","UTC","2.0","35.6","0.0","32.0","87","28.8","17.9","-9999.0","-9999.0","260","West","10.0","6.2","1005","29.68","-3.7","25.3","-9999","-9999","-9999.00","-9999.00","Mostly Cloudy","mostlycloudy","0","0","0","0","0","0","METAR UKKK 272100Z 26008MPS 9999 SCT016 BKN033 02/M00 Q1005 R26/290145 TEMPO 28011G17MPS"
"11:30 PM EET on December 27, 2016","2016","12","27","23","30","Europe/Kiev","9:30 PM GMT on December 27, 2016","2016","12","27","21","30","UTC","2.0","35.6","-1.0","30.2","81","32.4","20.1","-9999.0","-9999.0","260","West","10.0","6.2","1005","29.68","-4.1","24.7","-9999","-9999","-9999.00","-9999.00","Mostly Cloudy","mostlycloudy","0","0","0","0","0","0","METAR UKKK 272130Z 26009MPS 9999 SCT016 BKN033 02/M01 Q1005 R26/290145 TEMPO 28011G17MPS"
"12:00 AM EET on December 28, 2016","2016","12","28","00","00","Europe/Kiev","10:00 PM GMT on December 27, 2016","2016","12","27","22","00","UTC","2.0","35.6","-1.0","30.2","81","28.8","17.9","-9999.0","-9999.0","260","West","10.0","6.2","1005","29.68","-3.7","25.3","-9999","-9999","-9999.00","-9999.00","Mostly Cloudy","mostlycloudy","0","0","0","0","0","0","METAR UKKK 272200Z 26008MPS 9999 BKN026 02/M01 Q1005 R26/290145 TEMPO 27011G17MPS"
"12:30 AM EET on December 28, 2016","2016","12","28","00","30","Europe/Kiev","10:30 PM GMT on December 27, 2016","2016","12","27","22","30","UTC","2.0","35.6","-1.0","30.2","81","32.4","20.1","-9999.0","-9999.0","260","West","10.0","6.2","1005","29.68","-4.1","24.7","-9999","-9999","-9999.00","-9999.00","Light Rain","rain","0","1","0","0","0","0","METAR UKKK 272230Z 26009MPS 9999 -RA OVC026 02/M01 Q1005 R26/290145 TEMPO 27011G17MPS"
"12:49 AM EET on December 28, 2016","2016","12","28","00","49","Europe/Kiev","10:49 PM GMT on December 27, 2016","2016","12","27","22","49","UTC","2.0","35.6","-1.0","30.2","81","36.0","22.4","54.0","33.6","270","West","10.0","6.2","1005","29.68","-4.4","24.1","-9999","-9999","-9999.00","-9999.00","Overcast","cloudy","0","0","0","0","0","0","SPECI UKKK 272249Z 27010G15MPS 9999 OVC026 02/M01 Q1005 R26/290145 TEMPO 27011G17MPS"
"1:00 AM EET on December 28, 2016","2016","12","28","01","00","Europe/Kiev","11:00 PM GMT on December 27, 2016","2016","12","27","23","00","UTC","2.0","35.6","-1.0","30.2","81","36.0","22.4","-9999.0","-9999.0","270","West","10.0","6.2","1004","29.65","-4.4","24.1","-9999","-9999","-9999.00","-9999.00","Overcast","cloudy","0","0","0","0","0","0","METAR UKKK 272300Z 27010MPS 9999 OVC024 02/M01 Q1004 R26/290145 TEMPO 27011G17MPS"
"1:30 AM EET on December 28, 2016","2016","12","28","01","30","Europe/Kiev","11:30 PM GMT on December 27, 2016","2016","12","27","23","30","UTC","2.0","35.6","-1.0","30.2","81","36.0","22.4","-9999.0","-9999.0","270","West","10.0","6.2","1005","29.68","-4.4","24.1","-9999","-9999","-9999.00","-9999.00","Light Rain","snow","0","1","1","0","0","0","METAR UKKK 272330Z 27010MPS 9999 -RASN OVC024 02/M01 Q1005 R26/290145 TEMPO 27011G17MPS"
"2:00 AM EET on December 28, 2016","2016","12","28","02","00","Europe/Kiev","12:00 AM GMT on December 28, 2016","2016","12","28","00","00","UTC","2","36","-1","30","71","18.0","11.2","","","310","NW","20","12","1006","29.71","-999","-999","-9999","-9999","","","Overcast","cloudy","0","0","0","0","0","0","AAXX 28001 33345 32498 83105 10025 21011 39853 40059 57005 885// 333 88619 555 11000"
"2:00 AM EET on December 28, 2016","2016","12","28","02","00","Europe/Kiev","12:00 AM GMT on December 28, 2016","2016","12","28","00","00","UTC","2.0","35.6","-1.0","30.2","81","28.8","17.9","-9999.0","-9999.0","280","West","10.0","6.2","1005","29.68","-3.7","25.3","-9999","-9999","-9999.00","-9999.00","Light Rain","snow","0","1","1","0","0","0","METAR UKKK 280000Z 28008MPS 9999 -RASN SCT016 OVC026 02/M01 Q1005 R26/290145 TEMPO 27011G17MPS"
"2:30 AM EET on December 28, 2016","2016","12","28","02","30","Europe/Kiev","12:30 AM GMT on December 28, 2016","2016","12","28","00","30","UTC","2.0","35.6","-1.0","30.2","81","36.0","22.4","-9999.0","-9999.0","270","West","10.0","6.2","1005","29.68","-4.4","24.1","-9999","-9999","-9999.00","-9999.00","Light Rain","snow","0","1","1","0","0","0","METAR UKKK 280030Z 27010MPS 9999 -RASN SCT016 OVC026 02/M01 Q1005 R26/290145 TEMPO 27011G17MPS"
"3:00 AM EET on December 28, 2016","2016","12","28","03","00","Europe/Kiev","1:00 AM GMT on December 28, 2016","2016","12","28","01","00","UTC","1.0","33.8","-1.0","30.2","87","32.4","20.1","-9999.0","-9999.0","280","West","9.0","5.6","1005","29.68","-5.4","22.3","-9999","-9999","-9999.00","-9999.00","Light Rain","snow","0","1","1","0","0","0","METAR UKKK 280100Z 28009MPS 9000 -RASN SCT011 OVC026 01/M01 Q1005 R26/290145 TEMPO 27011G17MPS"
"3:30 AM EET on December 28, 2016","2016","12","28","03","30","Europe/Kiev","1:30 AM GMT on December 28, 2016","2016","12","28","01","30","UTC","1.0","33.8","0.0","32.0","93","32.4","20.1","-9999.0","-9999.0","280","West","-9999.0","-9999.0","1005","29.68","-5.4","22.3","-9999","-9999","-9999.00","-9999.00","Light Snow","snow","0","1","1","0","0","0","METAR UKKK 280130Z 28009MPS 4600 -SNRA SCT008 OVC020 01/M00 Q1005 R26/290245 TEMPO 27011G17MPS 1200 SHRASN BKN003 BKN010CB"
"4:00 AM EET on December 28, 2016","2016","12","28","04","00","Europe/Kiev","2:00 AM GMT on December 28, 2016","2016","12","28","02","00","UTC","1.0","33.8","0.0","32.0","93","28.8","17.9","-9999.0","-9999.0","290","WNW","6.0","3.7","1005","29.68","-5.0","23.0","-9999","-9999","-9999.00","-9999.00","Light Snow","snow","0","1","1","0","0","0","METAR UKKK 280200Z 29008MPS 6000 -SNRA SCT008 OVC020 01/00 Q1005 R26/290245 TEMPO 31011G17MPS"
"4:30 AM EET on December 28, 2016","2016","12","28","04","30","Europe/Kiev","2:30 AM GMT on December 28, 2016","2016","12","28","02","30","UTC","1.0","33.8","0.0","32.0","93","28.8","17.9","-9999.0","-9999.0","280","West","3.5","2.2","1005","29.68","-5.0","23.0","-9999","-9999","-9999.00","-9999.00","Light Snow","snow","0","1","1","0","0","0","METAR UKKK 280230Z 28008MPS 3500 -SNRA SCT007 OVC020 01/00 Q1005 R26/290245 TEMPO 31011G17MPS 2100 -SHRASN BKN004 BKN010CB"
"4:39 AM EET on December 28, 2016","2016","12","28","04","39","Europe/Kiev","2:39 AM GMT on December 28, 2016","2016","12","28","02","39","UTC","1.0","33.8","0.0","32.0","93","28.8","17.9","46.8","29.1","280","West","2.6","1.6","1005","29.68","-5.0","23.0","-9999","-9999","-9999.00","-9999.00","Light Snow","snow","0","1","1","0","0","0","SPECI UKKK 280239Z 28008G13MPS 2600 -SNRA SCT006 OVC020 01/M00 Q1005 R26/290245 TEMPO 31011G17MPS 2100 -SHRASN BKN004 BKN010CB"
"5:00 AM EET on December 28, 2016","2016","12","28","05","00","Europe/Kiev","3:00 AM GMT on December 28, 2016","2016","12","28","03","00","UTC","0","33","-0","31","92","18.0","11.2","","","310","NW","10","6","1006","29.73","-999","-999","-9999","-9999","","","Light Snow","snow","0","0","1","0","0","0","AAXX 28031 33345 41297 83105 10005 21003 39858 40065 53005 77172 8872/ 333 88706 555 14100"
"5:00 AM EET on December 28, 2016","2016","12","28","05","00","Europe/Kiev","3:00 AM GMT on December 28, 2016","2016","12","28","03","00","UTC","0.0","32.0","0.0","32.0","100","28.8","17.9","-9999.0","-9999.0","290","WNW","2.2","1.4","1005","29.68","-6.3","20.6","-9999","-9999","-9999.00","-9999.00","Light Snow","snow","0","0","1","0","0","0","METAR UKKK 280300Z 29008MPS 2200 -SN BR BKN005 OVC014 00/00 Q1005 R26/290245 TEMPO 31011G17MPS 1400 SHRASN BKN004 BKN010CB"
"5:30 AM EET on December 28, 2016","2016","12","28","05","30","Europe/Kiev","3:30 AM GMT on December 28, 2016","2016","12","28","03","30","UTC","1.0","33.8","0.0","32.0","93","28.8","17.9","46.8","29.1","290","WNW","2.5","1.6","1005","29.68","-5.0","23.0","-9999","-9999","-9999.00","-9999.00","Light Snow","snow","0","0","1","0","0","0","METAR UKKK 280330Z 29008G13MPS 2500 -SN BR BKN007 OVC014 01/00 Q1005 R26/290245 TEMPO 31011G17MPS 1400 SHRASN BKN004 BKN010CB"
"6:00 AM EET on December 28, 2016","2016","12","28","06","00","Europe/Kiev","4:00 AM GMT on December 28, 2016","2016","12","28","04","00","UTC","0.0","32.0","0.0","32.0","100","28.8","17.9","-9999.0","-9999.0","290","WNW","3.0","1.9","1006","29.71","-6.3","20.6","-9999","-9999","-9999.00","-9999.00","Light Snow","snow","0","0","1","0","0","0","METAR UKKK 280400Z 29008MPS 3000 -SN BR BKN007 OVC016 00/00 Q1006 R26/290245 TEMPO 31011G17MPS 1500 SHRASN BKN005 BKN010CB"
"6:30 AM EET on December 28, 2016","2016","12","28","06","30","Europe/Kiev","4:30 AM GMT on December 28, 2016","2016","12","28","04","30","UTC","0.0","32.0","0.0","32.0","100","25.2","15.7","-9999.0","-9999.0","300","WNW","-9999.0","-9999.0","1006","29.71","-5.9","21.4","-9999","-9999","-9999.00","-9999.00","Light Snow","snow","0","0","1","0","0","0","METAR UKKK 280430Z 30007MPS 3100 -SN BR BKN007 OVC017 00/M00 Q1006 R26/290245 TEMPO 31011G17MPS"
"7:00 AM EET on December 28, 2016","2016","12","28","07","00","Europe/Kiev","5:00 AM GMT on December 28, 2016","2016","12","28","05","00","UTC","0.0","32.0","0.0","32.0","100","28.8","17.9","-9999.0","-9999.0","300","WNW","-9999.0","-9999.0","1006","29.71","-6.3","20.6","-9999","-9999","-9999.00","-9999.00","Light Snow","snow","0","0","1","0","0","0","METAR UKKK 280500Z 30008MPS 4100 -SN BR BKN008 OVC017 00/00 Q1006 R26/290245 TEMPO 31011G17MPS 2000 SHSN BKN007 BKN010CB"
"7:22 AM EET on December 28, 2016","2016","12","28","07","22","Europe/Kiev","5:22 AM GMT on December 28, 2016","2016","12","28","05","22","UTC","0.0","32.0","0.0","32.0","100","25.2","15.7","43.2","26.8","300","WNW","-9999.0","-9999.0","1007","29.74","-5.9","21.4","-9999","-9999","-9999.00","-9999.00","Light Snow","snow","0","0","1","0","0","0","SPECI UKKK 280522Z 30007G12MPS 3600 -SN BR BKN007 OVC017 00/M00 Q1007 R26/590145 TEMPO 31011G17MPS 2000 SHSN BKN007 BKN010CB"
"7:30 AM EET on December 28, 2016","2016","12","28","07","30","Europe/Kiev","5:30 AM GMT on December 28, 2016","2016","12","28","05","30","UTC","0.0","32.0","0.0","32.0","100","28.8","17.9","-9999.0","-9999.0","310","NW","-9999.0","-9999.0","1007","29.74","-6.3","20.6","-9999","-9999","-9999.00","-9999.00","Light Snow","snow","0","0","1","0","0","0","METAR UKKK 280530Z 31008MPS 4100 -SN BR BKN008 OVC017 00/M00 Q1007 R26/590145 TEMPO 31011G17MPS 2000 SHSN BKN006 BKN010CB"
"8:00 AM EET on December 28, 2016","2016","12","28","08","00","Europe/Kiev","6:00 AM GMT on December 28, 2016","2016","12","28","06","00","UTC","1","33","-0","31","90","14.4","8.9","","","340","NNW","4","2","1008","29.78","-999","-999","-9999","-9999","","","Light Snow","snow","0","0","1","0","0","0","AAXX 28061 33345 11396 83404 10006 21005 39876 40084 52018 60022 77172 8872/ 333 20004 43002 88708 555 1/100"
"8:00 AM EET on December 28, 2016","2016","12","28","08","00","Europe/Kiev","6:00 AM GMT on December 28, 2016","2016","12","28","06","00","UTC","0.0","32.0","0.0","32.0","100","28.8","17.9","-9999.0","-9999.0","310","NW","-9999.0","-9999.0","1007","29.74","-6.3","20.6","-9999","-9999","-9999.00","-9999.00","Light Snow","snow","0","0","1","0","0","0","METAR UKKK 280600Z 31008MPS 3800 -SN BR BKN008 OVC017 00/M00 Q1007 R26/590145 TEMPO 31011G17MPS 2000 SHSN BKN006 BKN010CB"
"8:30 AM EET on December 28, 2016","2016","12","28","08","30","Europe/Kiev","6:30 AM GMT on December 28, 2016","2016","12","28","06","30","UTC","0.0","32.0","0.0","32.0","100","28.8","17.9","46.8","29.1","310","NW","-9999.0","-9999.0","1008","29.77","-6.3","20.6","-9999","-9999","-9999.00","-9999.00","Light Snow","snow","0","0","1","0","0","0","METAR UKKK 280630Z 31008G13MPS 3800 -SN BR BKN007 OVC026 00/M00 Q1008 R26/590145 TEMPO 31011G17MPS 2000 SHSN BKN006 BKN010CB"
"9:00 AM EET on December 28, 2016","2016","12","28","09","00","Europe/Kiev","7:00 AM GMT on December 28, 2016","2016","12","28","07","00","UTC","0.0","32.0","0.0","32.0","100","28.8","17.9","-9999.0","-9999.0","320","NW","10.0","6.2","1009","29.80","-6.3","20.6","-9999","-9999","-9999.00","-9999.00","Light Snow","snow","0","0","1","0","0","0","METAR UKKK 280700Z 32008MPS 9999 -SN BKN010 OVC026 00/M00 Q1009 R26/590145 TEMPO 31011G17MPS 2000 SHSN BKN006 BKN010CB"
"9:30 AM EET on December 28, 2016","2016","12","28","09","30","Europe/Kiev","7:30 AM GMT on December 28, 2016","2016","12","28","07","30","UTC","1.0","33.8","-1.0","30.2","87","28.8","17.9","-9999.0","-9999.0","320","NW","10.0","6.2","1009","29.80","-5.0","23.0","-9999","-9999","-9999.00","-9999.00","Overcast","cloudy","0","0","0","0","0","0","METAR UKKK 280730Z 32008MPS 9999 OVC012 01/M01 Q1009 R26/590145 TEMPO 31011G17MPS 2000 SHSN BKN006 BKN010CB"
"10:00 AM EET on December 28, 2016","2016","12","28","10","00","Europe/Kiev","8:00 AM GMT on December 28, 2016","2016","12","28","08","00","UTC","1.0","33.8","-1.0","30.2","87","28.8","17.9","-9999.0","-9999.0","320","NW","10.0","6.2","1010","29.83","-5.0","23.0","-9999","-9999","-9999.00","-9999.00","Light Snow","snow","0","0","1","0","0","0","METAR UKKK 280800Z 32008MPS 9999 -SN BKN013 OVC030 01/M01 Q1010 R26/290050 TEMPO 31011G17MPS 2000 SHSN BKN006 BKN010CB"
"10:30 AM EET on December 28, 2016","2016","12","28","10","30","Europe/Kiev","8:30 AM GMT on December 28, 2016","2016","12","28","08","30","UTC","1.0","33.8","-1.0","30.2","87","25.2","15.7","-9999.0","-9999.0","320","NW","10.0","6.2","1010","29.83","-4.6","23.7","-9999","-9999","-9999.00","-9999.00","Light Snow","snow","0","0","1","0","0","0","METAR UKKK 280830Z 32007MPS 9999 -SN BKN015 OVC033 01/M01 Q1010 R26/290050 TEMPO 31011G17MPS"
"11:00 AM EET on December 28, 2016","2016","12","28","11","00","Europe/Kiev","9:00 AM GMT on December 28, 2016","2016","12","28","09","00","UTC","1","34","-2","29","75","18.0","11.2","","","0","North","10","6","1012","29.87","-999","-999","-9999","-9999","","","Light Snow","snow","0","0","1","0","0","0","AAXX 28091 33345 41497 83605 10010 21016 39907 40115 52031 72272 8477/ 555 1/100"
"11:00 AM EET on December 28, 2016","2016","12","28","11","00","Europe/Kiev","9:00 AM GMT on December 28, 2016","2016","12","28","09","00","UTC","1.0","33.8","-1.0","30.2","87","25.2","15.7","-9999.0","-9999.0","320","NW","-9999.0","-9999.0","1010","29.83","-4.6","23.7","-9999","-9999","-9999.00","-9999.00","Clear","clear","0","0","0","0","0","0","METAR UKKK 280900Z 32007MPS CAVOK 01/M01 Q1010 R26/290050 TEMPO 31011G17MPS"
"11:30 AM EET on December 28, 2016","2016","12","28","11","30","Europe/Kiev","9:30 AM GMT on December 28, 2016","2016","12","28","09","30","UTC","1.0","33.8","-1.0","30.2","87","25.2","15.7","-9999.0","-9999.0","320","NW","10.0","6.2","1011","29.86","-4.6","23.7","-9999","-9999","-9999.00","-9999.00","Overcast","cloudy","0","0","0","0","0","0","METAR UKKK 280930Z 32007MPS 300V360 9999 SCT017 OVC053 01/M01 Q1011 R26/290050 TEMPO 31011G17MPS"
"12:00 PM EET on December 28, 2016","2016","12","28","12","00","Europe/Kiev","10:00 AM GMT on December 28, 2016","2016","12","28","10","00","UTC","1.0","33.8","-1.0","30.2","87","28.8","17.9","-9999.0","-9999.0","330","NNW","10.0","6.2","1011","29.86","-5.0","23.0","-9999","-9999","-9999.00","-9999.00","Overcast","cloudy","0","0","0","0","0","0","METAR UKKK 281000Z 33008MPS 9999 SCT014 OVC053 01/M01 Q1011 R26/290050 TEMPO 31011G17MPS"
"12:30 PM EET on December 28, 2016","2016","12","28","12","30","Europe/Kiev","10:30 AM GMT on December 28, 2016","2016","12","28","10","30","UTC","1.0","33.8","-1.0","30.2","87","28.8","17.9","-9999.0","-9999.0","320","NW","10.0","6.2","1011","29.86","-5.0","23.0","-9999","-9999","-9999.00","-9999.00","Overcast","cloudy","0","0","0","0","0","0","METAR UKKK 281030Z 32008MPS 9999 SCT015 OVC053 01/M01 Q1011 R26/290050 TEMPO 31011G17MPS"
"1:00 PM EET on December 28, 2016","2016","12","28","13","00","Europe/Kiev","11:00 AM GMT on December 28, 2016","2016","12","28","11","00","UTC","1.0","33.8","-1.0","30.2","87","21.6","13.4","-9999.0","-9999.0","330","NNW","10.0","6.2","1012","29.89","-4.2","24.5","-9999","-9999","-9999.00","-9999.00","Overcast","cloudy","0","0","0","0","0","0","METAR UKKK 281100Z 33006MPS 300V360 9999 SCT014 OVC038 01/M01 Q1012 R26/290050 TEMPO 31011G17MPS"
"1:30 PM EET on December 28, 2016","2016","12","28","13","30","Europe/Kiev","11:30 AM GMT on December 28, 2016","2016","12","28","11","30","UTC","1.0","33.8","-1.0","30.2","87","25.2","15.7","-9999.0","-9999.0","330","NNW","10.0","6.2","1012","29.89","-4.6","23.7","-9999","-9999","-9999.00","-9999.00","Overcast","cloudy","0","0","0","0","0","0","METAR UKKK 281130Z 33007MPS 9999 SCT013 OVC038 01/M01 Q1012 R26/290050 TEMPO 31011G17MPS 1000 SHSN BKN003 BKN010CB"
"2:00 PM EET on December 28, 2016","2016","12","28","14","00","Europe/Kiev","12:00 PM GMT on December 28, 2016","2016","12","28","12","00","UTC","1","34","-2","28","72","18.0","11.2","","","10","North","20","12","1014","29.95","-999","-999","-9999","-9999","","","Partly Cloudy","partlycloudy","0","0","0","0","0","0","AAXX 28121 33345 /1598 70105 10012 21020 39932 40140 52025 70272 86970 555 1/100 69911"
"2:00 PM EET on December 28, 2016","2016","12","28","14","00","Europe/Kiev","12:00 PM GMT on December 28, 2016","2016","12","28","12","00","UTC","1.0","33.8","-1.0","30.2","87","21.6","13.4","-9999.0","-9999.0","330","NNW","10.0","6.2","1013","29.92","-4.2","24.5","-9999","-9999","-9999.00","-9999.00","Overcast","cloudy","0","0","0","0","0","0","METAR UKKK 281200Z 33006MPS 300V360 9999 SCT013 OVC038 01/M01 Q1013 R26/290050 TEMPO 31011G17MPS 1000 SHSN BKN003 BKN010CB"
"2:30 PM EET on December 28, 2016","2016","12","28","14","30","Europe/Kiev","12:30 PM GMT on December 28, 2016","2016","12","28","12","30","UTC","1.0","33.8","-1.0","30.2","87","21.6","13.4","-9999.0","-9999.0","330","NNW","10.0","6.2","1014","29.95","-4.2","24.5","-9999","-9999","-9999.00","-9999.00","Overcast","cloudy","0","0","0","0","0","0","METAR UKKK 281230Z 33006MPS 300V360 9999 SCT012 OVC038 01/M01 Q1014 R26/290050 TEMPO 31011G17MPS"
"3:00 PM EET on December 28, 2016","2016","12","28","15","00","Europe/Kiev","1:00 PM GMT on December 28, 2016","2016","12","28","13","00","UTC","1.0","33.8","-2.0","28.4","81","18.0","11.2","-9999.0","-9999.0","340","NNW","10.0","6.2","1014","29.95","-3.7","25.4","-9999","-9999","-9999.00","-9999.00","Overcast","cloudy","0","0","0","0","0","0","METAR UKKK 281300Z 34005MPS 9999 SCT012 OVC038 01/M02 Q1014 R26/290050 TEMPO 31011G17MPS"
"3:30 PM EET on December 28, 2016","2016","12","28","15","30","Europe/Kiev","1:30 PM GMT on December 28, 2016","2016","12","28","13","30","UTC","1.0","33.8","-2.0","28.4","81","18.0","11.2","-9999.0","-9999.0","330","NNW","10.0","6.2","1015","29.98","-3.7","25.4","-9999","-9999","-9999.00","-9999.00","Overcast","cloudy","0","0","0","0","0","0","METAR UKKK 281330Z 33005MPS 9999 SCT015 OVC043 01/M02 Q1015 R26/290050 TEMPO 31011G17MPS"
"4:00 PM EET on December 28, 2016","2016","12","28","16","00","Europe/Kiev","2:00 PM GMT on December 28, 2016","2016","12","28","14","00","UTC","1.0","33.8","-1.0","30.2","87","21.6","13.4","-9999.0","-9999.0","330","NNW","10.0","6.2","1015","29.98","-4.2","24.5","-9999","-9999","-9999.00","-9999.00","Overcast","cloudy","0","0","0","0","0","0","METAR UKKK 281400Z 33006MPS 9999 SCT012 OVC043 01/M01 Q1015 R26/290050 TEMPO 31011G17MPS 1000 SHSN BKN003 BKN010CB"
"4:30 PM EET on December 28, 2016","2016","12","28","16","30","Europe/Kiev","2:30 PM GMT on December 28, 2016","2016","12","28","14","30","UTC","0.0","32.0","-1.0","30.2","93","18.0","11.2","-9999.0","-9999.0","330","NNW","10.0","6.2","1016","30.01","-4.9","23.2","-9999","-9999","-9999.00","-9999.00","Light Snow","snow","0","0","1","0","0","0","METAR UKKK 281430Z 33005MPS 9999 -SN SCT010 OVC025 00/M01 Q1016 R26/290050 TEMPO 31011G17MPS 1000 SHSN BKN003 BKN010CB"
"5:00 PM EET on December 28, 2016","2016","12","28","17","00","Europe/Kiev","3:00 PM GMT on December 28, 2016","2016","12","28","15","00","UTC","1","33","-2","29","81","10.8","6.7","","","0","North","10","6","1017","30.05","-999","-999","-9999","-9999","","","Mostly Cloudy","mostlycloudy","0","0","0","0","0","0","AAXX 28151 33345 42497 63603 10008 21015 39965 40174 52033 86500 333 86713 555 1/101"
"5:00 PM EET on December 28, 2016","2016","12","28","17","00","Europe/Kiev","3:00 PM GMT on December 28, 2016","2016","12","28","15","00","UTC","0.0","32.0","-1.0","30.2","93","18.0","11.2","-9999.0","-9999.0","340","NNW","9.0","5.6","1016","30.01","-4.9","23.2","-9999","-9999","-9999.00","-9999.00","Light Snow","snow","0","0","1","0","0","0","METAR UKKK 281500Z 34005MPS 300V010 9000 -SN BKN009 OVC026 00/M01 Q1016 R26/290050 TEMPO 31011G17MPS 1000 SHSN BKN003 BKN010CB"
"5:07 PM EET on December 28, 2016","2016","12","28","17","07","Europe/Kiev","3:07 PM GMT on December 28, 2016","2016","12","28","15","07","UTC","0.0","32.0","-1.0","30.2","93","18.0","11.2","-9999.0","-9999.0","330","NNW","1.6","1.0","1017","30.04","-4.9","23.2","-9999","-9999","-9999.00","-9999.00","Snow","snow","0","0","1","0","0","0","SPECI UKKK 281507Z 33005MPS 1600 SN BKN006 OVC020 00/M01 Q1017 R26/290050 TEMPO 31011G17MPS 0600 +SHSN BKN002 BKN010CB"
"5:13 PM EET on December 28, 2016","2016","12","28","17","13","Europe/Kiev","3:13 PM GMT on December 28, 2016","2016","12","28","15","13","UTC","0.0","32.0","-1.0","30.2","93","18.0","11.2","39.6","24.6","330","NNW","1.8","1.1","1017","30.04","-4.9","23.2","-9999","-9999","-9999.00","-9999.00","Snow","snow","0","0","1","0","0","0","SPECI UKKK 281513Z 33005G11MPS 300V360 1800 SN BKN004 OVC020 00/M01 Q1017 R26/290050 TEMPO 31011G17MPS 0600 +SHSN BKN002 BKN010CB"
"5:14 PM EET on December 28, 2016","2016","12","28","17","14","Europe/Kiev","3:14 PM GMT on December 28, 2016","2016","12","28","15","14","UTC","0.0","32.0","-1.0","30.2","93","21.6","13.4","39.6","24.6","330","NNW","-9999.0","-9999.0","1017","30.04","-5.4","22.2","-9999","-9999","-9999.00","-9999.00","Heavy Snow","snow","0","0","1","0","0","0","SPECI UKKK 281514Z 33006G11MPS 300V360 0750 R26/1600VP2000D +SN BKN004 OVC020 00/M01 Q1017 R26/290050 TEMPO 31011G17MPS 0600 +SHSN BKN002 BKN010CB"
"5:27 PM EET on December 28, 2016","2016","12","28","17","27","Europe/Kiev","3:27 PM GMT on December 28, 2016","2016","12","28","15","27","UTC","0.0","32.0","-1.0","30.2","93","14.4","8.9","-9999.0","-9999.0","330","NNW","-9999.0","-9999.0","1017","30.04","-4.3","24.3","-9999","-9999","-9999.00","-9999.00","Light Snow","snow","0","0","1","0","0","0","SPECI UKKK 281527Z 33004MPS 4400 -SN BKN007 OVC020 00/M01 Q1017 RESN R26/290050 TEMPO 31011G17MPS 0600 +SHSN BKN002 BKN010CB"
"5:30 PM EET on December 28, 2016","2016","12","28","17","30","Europe/Kiev","3:30 PM GMT on December 28, 2016","2016","12","28","15","30","UTC","0.0","32.0","-1.0","30.2","93","14.4","8.9","-9999.0","-9999.0","330","NNW","6.0","3.7","1017","30.04","-4.3","24.3","-9999","-9999","-9999.00","-9999.00","Light Snow","snow","0","0","1","0","0","0","METAR UKKK 281530Z 33004MPS 300V360 6000 -SN BKN010 OVC023 00/M01 Q1017 R26/290050 TEMPO 31011G17MPS 0600 +SHSN BKN002 BKN010CB"
"6:00 PM EET on December 28, 2016","2016","12","28","18","00","Europe/Kiev","4:00 PM GMT on December 28, 2016","2016","12","28","16","00","UTC","1.0","33.8","-2.0","28.4","81","21.6","13.4","-9999.0","-9999.0","350","North","9.0","5.6","1018","30.06","-4.2","24.5","-9999","-9999","-9999.00","-9999.00","Light Snow","snow","0","0","1","0","0","0","METAR UKKK 281600Z 35006MPS 9000 -SN SCT014 OVC026 01/M02 Q1018 R26/590240 TEMPO 31011G17MPS 1500 SHSN BKN003 BKN010CB"
"6:30 PM EET on December 28, 2016","2016","12","28","18","30","Europe/Kiev","4:30 PM GMT on December 28, 2016","2016","12","28","16","30","UTC","0.0","32.0","-2.0","28.4","87","25.2","15.7","-9999.0","-9999.0","350","North","10.0","6.2","1018","30.06","-5.9","21.4","-9999","-9999","-9999.00","-9999.00","Light Snow","snow","0","0","1","0","0","0","METAR UKKK 281630Z 35007MPS 310V010 9999 -SN SCT014 OVC045 00/M02 Q1018 R26/590240 TEMPO 31011G17MPS"
"7:00 PM EET on December 28, 2016","2016","12","28","19","00","Europe/Kiev","5:00 PM GMT on December 28, 2016","2016","12","28","17","00","UTC","0.0","32.0","-2.0","28.4","87","21.6","13.4","-9999.0","-9999.0","340","NNW","10.0","6.2","1019","30.09","-5.4","22.2","-9999","-9999","-9999.00","-9999.00","Light Snow","snow","0","0","1","0","0","0","METAR UKKK 281700Z 34006MPS 9999 -SN SCT016 OVC041 00/M02 Q1019 R26/590240 NOSIG"
"7:30 PM EET on December 28, 2016","2016","12","28","19","30","Europe/Kiev","5:30 PM GMT on December 28, 2016","2016","12","28","17","30","UTC","0.0","32.0","-2.0","28.4","87","21.6","13.4","-9999.0","-9999.0","340","NNW","10.0","6.2","1019","30.09","-5.4","22.2","-9999","-9999","-9999.00","-9999.00","Light Snow","snow","0","0","1","0","0","0","METAR UKKK 281730Z 34006MPS 310V010 9999 -SN SCT016 OVC026 00/M02 Q1019 R26/590240 NOSIG"
"8:00 PM EET on December 28, 2016","2016","12","28","20","00","Europe/Kiev","6:00 PM GMT on December 28, 2016","2016","12","28","18","00","UTC","0","33","-2","28","74","18.0","11.2","","","10","North","10","6","1021","30.15","-999","-999","-9999","-9999","","","Partly Cloudy","partlycloudy","0","0","0","0","0","0","AAXX 28181 33345 11497 80105 10004 21023 39998 40208 52033 69952 70282 889// 333 10015 88919 555 1/101"
"8:00 PM EET on December 28, 2016","2016","12","28","20","00","Europe/Kiev","6:00 PM GMT on December 28, 2016","2016","12","28","18","00","UTC","0.0","32.0","-2.0","28.4","87","21.6","13.4","39.6","24.6","340","NNW","10.0","6.2","1020","30.12","-5.4","22.2","-9999","-9999","-9999.00","-9999.00","Mostly Cloudy","mostlycloudy","0","0","0","0","0","0","METAR UKKK 281800Z 34006G11MPS 300V360 9999 BKN017 BKN026 00/M02 Q1020 R26/590240 NOSIG"
"8:30 PM EET on December 28, 2016","2016","12","28","20","30","Europe/Kiev","6:30 PM GMT on December 28, 2016","2016","12","28","18","30","UTC","0.0","32.0","-3.0","26.6","80","21.6","13.4","-9999.0","-9999.0","340","NNW","10.0","6.2","1020","30.12","-5.4","22.2","-9999","-9999","-9999.00","-9999.00","Mostly Cloudy","mostlycloudy","0","0","0","0","0","0","METAR UKKK 281830Z 34006MPS 310V010 9999 BKN016 BKN029 00/M03 Q1020 R26/590240 NOSIG"
"9:00 PM EET on December 28, 2016","2016","12","28","21","00","Europe/Kiev","7:00 PM GMT on December 28, 2016","2016","12","28","19","00","UTC","0.0","32.0","-2.0","28.4","87","18.0","11.2","-9999.0","-9999.0","340","NNW","10.0","6.2","1021","30.15","-4.9","23.2","-9999","-9999","-9999.00","-9999.00","Mostly Cloudy","mostlycloudy","0","0","0","0","0","0","METAR UKKK 281900Z 34005MPS 9999 BKN014 BKN033 00/M02 Q1021 R26/590240 NOSIG"
"9:30 PM EET on December 28, 2016","2016","12","28","21","30","Europe/Kiev","7:30 PM GMT on December 28, 2016","2016","12","28","19","30","UTC","0.0","32.0","-2.0","28.4","87","18.0","11.2","-9999.0","-9999.0","340","NNW","10.0","6.2","1021","30.15","-4.9","23.2","-9999","-9999","-9999.00","-9999.00","Mostly Cloudy","mostlycloudy","0","0","0","0","0","0","METAR UKKK 281930Z 34005MPS 310V010 9999 BKN015 BKN033 00/M02 Q1021 R26/590240 NOSIG"
"10:00 PM EET on December 28, 2016","2016","12","28","22","00","Europe/Kiev","8:00 PM GMT on December 28, 2016","2016","12","28","20","00","UTC","0.0","32.0","-3.0","26.6","80","18.0","11.2","-9999.0","-9999.0","340","NNW","10.0","6.2","1022","30.18","-4.9","23.2","-9999","-9999","-9999.00","-9999.00","Mostly Cloudy","mostlycloudy","0","0","0","0","0","0","METAR UKKK 282000Z 34005MPS 9999 BKN017 BKN040 M00/M03 Q1022 WS RWY26 R26/590240 NOSIG"
"10:30 PM EET on December 28, 2016","2016","12","28","22","30","Europe/Kiev","8:30 PM GMT on December 28, 2016","2016","12","28","20","30","UTC","0.0","32.0","-3.0","26.6","80","18.0","11.2","-9999.0","-9999.0","340","NNW","10.0","6.2","1022","30.18","-4.9","23.2","-9999","-9999","-9999.00","-9999.00","Mostly Cloudy","mostlycloudy","0","0","0","0","0","0","METAR UKKK 282030Z 34005MPS 9999 BKN020 BKN044 M00/M03 Q1022 R26/590240 NOSIG"
"11:00 PM EET on December 28, 2016","2016","12","28","23","00","Europe/Kiev","9:00 PM GMT on December 28, 2016","2016","12","28","21","00","UTC","0","32","-3","26","71","14.4","8.9","","","10","North","20","12","1024","30.24","-999","-999","-9999","-9999","","","Mostly Cloudy","mostlycloudy","0","0","0","0","0","0","AAXX 28211 33345 42598 70104 10000 21033 30028 40239 52030 85570 555 1/101"
"11:00 PM EET on December 28, 2016","2016","12","28","23","00","Europe/Kiev","9:00 PM GMT on December 28, 2016","2016","12","28","21","00","UTC","0.0","32.0","-3.0","26.6","80","18.0","11.2","-9999.0","-9999.0","340","NNW","10.0","6.2","1023","30.21","-4.9","23.2","-9999","-9999","-9999.00","-9999.00","Mostly Cloudy","mostlycloudy","0","0","0","0","0","0","METAR UKKK 282100Z 34005MPS 300V010 9999 SCT017 BKN050 M00/M03 Q1023 WS RWY26 R26/590240 NOSIG"
"11:30 PM EET on December 28, 2016","2016","12","28","23","30","Europe/Kiev","9:30 PM GMT on December 28, 2016","2016","12","28","21","30","UTC","0.0","32.0","-4.0","24.8","75","14.4","8.9","-9999.0","-9999.0","330","NNW","10.0","6.2","1023","30.21","-4.3","24.3","-9999","-9999","-9999.00","-9999.00","Mostly Cloudy","mostlycloudy","0","0","0","0","0","0","METAR UKKK 282130Z 33004MPS 9999 SCT019 BKN047 M00/M04 Q1023 R26/590240 NOSIG"
"12:00 AM EET on December 29, 2016","2016","12","29","00","00","Europe/Kiev","10:00 PM GMT on December 28, 2016","2016","12","28","22","00","UTC","0.0","32.0","-4.0","24.8","75","14.4","8.9","-9999.0","-9999.0","340","NNW","10.0","6.2","1023","30.21","-4.3","24.3","-9999","-9999","-9999.00","-9999.00","Light Snow","snow","0","0","1","0","0","0","METAR UKKK 282200Z 34004MPS 300V010 9999 -SN FEW020 OVC046 M00/M04 Q1023 R26/590240 NOSIG"
"12:30 AM EET on December 29, 2016","2016","12","29","00","30","Europe/Kiev","10:30 PM GMT on December 28, 2016","2016","12","28","22","30","UTC","0.0","32.0","-4.0","24.8","75","14.4","8.9","-9999.0","-9999.0","340","NNW","10.0","6.2","1024","30.24","-4.3","24.3","-9999","-9999","-9999.00","-9999.00","Light Snow","snow","0","0","1","0","0","0","METAR UKKK 282230Z 34004MPS 280V010 9999 -SN SCT019 OVC041 M00/M04 Q1024 R26/590240 NOSIG"
"1:00 AM EET on December 29, 2016","2016","12","29","01","00","Europe/Kiev","11:00 PM GMT on December 28, 2016","2016","12","28","23","00","UTC","-1.0","30.2","-3.0","26.6","86","18.0","11.2","-9999.0","-9999.0","330","NNW","10.0","6.2","1024","30.24","-6.2","20.9","-9999","-9999","-9999.00","-9999.00","Light Snow","snow","0","0","1","0","0","0","METAR UKKK 282300Z 33005MPS 300V360 9999 -SN SCT017 OVC038 M01/M03 Q1024 R26/590240 NOSIG"
"1:30 AM EET on December 29, 2016","2016","12","29","01","30","Europe/Kiev","11:30 PM GMT on December 28, 2016","2016","12","28","23","30","UTC","-1.0","30.2","-3.0","26.6","86","14.4","8.9","-9999.0","-9999.0","330","NNW","10.0","6.2","1024","30.24","-5.5","22.1","-9999","-9999","-9999.00","-9999.00","Light Snow","snow","0","0","1","0","0","0","METAR UKKK 282330Z 33004MPS 9999 -SN SCT020 OVC038 M01/M03 Q1024 R26/590240 NOSIG"
"2:00 AM EET on December 29, 2016","2016","12","29","02","00","Europe/Kiev","12:00 AM GMT on December 29, 2016","2016","12","29","00","00","UTC","-0","31","-3","26","76","10.8","6.7","","","10","North","10","6","1026","30.30","-999","-999","-9999","-9999","","","Light Snow","snow","0","0","1","0","0","0","AAXX 29001 33345 /1597 80103 11004 21031 30049 40261 52021 72222 8657/ 555 1/101 69901"
"2:00 AM EET on December 29, 2016","2016","12","29","02","00","Europe/Kiev","12:00 AM GMT on December 29, 2016","2016","12","29","00","00","UTC","-1.0","30.2","-3.0","26.6","86","14.4","8.9","-9999.0","-9999.0","330","NNW","8.0","5.0","1025","30.27","-5.5","22.1","-9999","-9999","-9999.00","-9999.00","Light Snow","snow","0","0","1","0","0","0","METAR UKKK 290000Z 33004MPS 8000 -SN BKN015 OVC033 M01/M03 Q1025 R26/590240 NOSIG"
"2:30 AM EET on December 29, 2016","2016","12","29","02","30","Europe/Kiev","12:30 AM GMT on December 29, 2016","2016","12","29","00","30","UTC","-1.0","30.2","-3.0","26.6","86","18.0","11.2","-9999.0","-9999.0","330","NNW","10.0","6.2","1025","30.27","-6.2","20.9","-9999","-9999","-9999.00","-9999.00","Light Snow","snow","0","0","1","0","0","0","METAR UKKK 290030Z 33005MPS 9999 -SN BKN019 OVC030 M01/M03 Q1025 R26/590240 NOSIG"
"3:00 AM EET on December 29, 2016","2016","12","29","03","00","Europe/Kiev","1:00 AM GMT on December 29, 2016","2016","12","29","01","00","UTC","-1.0","30.2","-3.0","26.6","86","14.4","8.9","-9999.0","-9999.0","330","NNW","9.0","5.6","1025","30.27","-5.5","22.1","-9999","-9999","-9999.00","-9999.00","Light Snow","snow","0","0","1","0","0","0","METAR UKKK 290100Z 33004MPS 300V360 9000 -SN BKN014 OVC023 M01/M03 Q1025 R26/590240 NOSIG"
"3:30 AM EET on December 29, 2016","2016","12","29","03","30","Europe/Kiev","1:30 AM GMT on December 29, 2016","2016","12","29","01","30","UTC","-1.0","30.2","-3.0","26.6","86","14.4","8.9","-9999.0","-9999.0","340","NNW","10.0","6.2","1026","30.30","-5.5","22.1","-9999","-9999","-9999.00","-9999.00","Light Snow","snow","0","0","1","0","0","0","METAR UKKK 290130Z 34004MPS 300V010 9999 -SN BKN013 OVC023 M01/M03 Q1026 R26/590240 NOSIG"
"4:00 AM EET on December 29, 2016","2016","12","29","04","00","Europe/Kiev","2:00 AM GMT on December 29, 2016","2016","12","29","02","00","UTC","-1.0","30.2","-3.0","26.6","86","14.4","8.9","-9999.0","-9999.0","330","NNW","6.0","3.7","1026","30.30","-5.5","22.1","-9999","-9999","-9999.00","-9999.00","Light Snow","snow","0","0","1","0","0","0","METAR UKKK 290200Z 33004MPS 6000 -SN BKN010 OVC022 M01/M03 Q1026 R26/590240 NOSIG"
"4:04 AM EET on December 29, 2016","2016","12","29","04","04","Europe/Kiev","2:04 AM GMT on December 29, 2016","2016","12","29","02","04","UTC","-1.0","30.2","-3.0","26.6","86","14.4","8.9","-9999.0","-9999.0","330","NNW","1.1","0.7","1026","30.30","-5.5","22.1","-9999","-9999","-9999.00","-9999.00","Snow","snow","0","0","1","0","0","0","SPECI UKKK 290204Z 33004MPS 1100 R26/1700VP2000D SN BKN007 OVC022 M01/M03 Q1026 R26/590240 TEMPO 1000 SHSN BKN010CB"
"4:20 AM EET on December 29, 2016","2016","12","29","04","20","Europe/Kiev","2:20 AM GMT on December 29, 2016","2016","12","29","02","20","UTC","-1.0","30.2","-2.0","28.4","93","14.4","8.9","-9999.0","-9999.0","340","NNW","5.0","3.1","1026","30.30","-5.5","22.1","-9999","-9999","-9999.00","-9999.00","Light Snow","snow","0","0","1","0","0","0","SPECI UKKK 290220Z 34004MPS 320V030 5000 -SN BKN009 OVC019 M01/M02 Q1026 RESN R26/590340 TEMPO 1000 SHSN BKN010CB"
"4:30 AM EET on December 29, 2016","2016","12","29","04","30","Europe/Kiev","2:30 AM GMT on December 29, 2016","2016","12","29","02","30","UTC","-1.0","30.2","-2.0","28.4","93","14.4","8.9","-9999.0","-9999.0","340","NNW","10.0","6.2","1026","30.30","-5.5","22.1","-9999","-9999","-9999.00","-9999.00","Light Snow","snow","0","0","1","0","0","0","METAR UKKK 290230Z 34004MPS 310V010 9999 -SN OVC010 M01/M02 Q1026 R26/590340 TEMPO 2000 SHSN BKN010CB"
"5:00 AM EET on December 29, 2016","2016","12","29","05","00","Europe/Kiev","3:00 AM GMT on December 29, 2016","2016","12","29","03","00","UTC","-1","31","-3","27","81","18.0","11.2","","","20","NNE","4","2","1028","30.36","-999","-999","-9999","-9999","","","Light Snow","snow","0","0","1","0","0","0","AAXX 29031 33345 41496 70205 11007 21026 30067 40280 52018 72272 87500 333 87712 555 1/101"
"5:00 AM EET on December 29, 2016","2016","12","29","05","00","Europe/Kiev","3:00 AM GMT on December 29, 2016","2016","12","29","03","00","UTC","-1.0","30.2","-3.0","26.6","86","21.6","13.4","-9999.0","-9999.0","360","North","8.0","5.0","1027","30.33","-6.7","19.9","-9999","-9999","-9999.00","-9999.00","Light Snow","snow","0","0","1","0","0","0","METAR UKKK 290300Z 36006MPS 320V040 8000 -SN BKN009 OVC022 M01/M03 Q1027 R26/590340 TEMPO 2000 SHSN BKN010CB"
"5:30 AM EET on December 29, 2016","2016","12","29","05","30","Europe/Kiev","3:30 AM GMT on December 29, 2016","2016","12","29","03","30","UTC","-1.0","30.2","-3.0","26.6","86","18.0","11.2","-9999.0","-9999.0","360","North","2.7","1.7","1027","30.33","-6.2","20.9","-9999","-9999","-9999.00","-9999.00","Light Snow","snow","0","0","1","0","0","0","METAR UKKK 290330Z 36005MPS 2700 -SN BKN010 OVC025 M01/M03 Q1027 R26/590340 TEMPO 2000 SHSN BKN010CB"
"5:33 AM EET on December 29, 2016","2016","12","29","05","33","Europe/Kiev","3:33 AM GMT on December 29, 2016","2016","12","29","03","33","UTC","-1.0","30.2","-3.0","26.6","86","18.0","11.2","-9999.0","-9999.0","360","North","1.7","1.1","1027","30.33","-6.2","20.9","-9999","-9999","-9999.00","-9999.00","Snow","snow","0","0","1","0","0","0","SPECI UKKK 290333Z 36005MPS 320V020 1700 SN BKN009 OVC025 M01/M03 Q1027 R26/590340 TEMPO 1000 SHSN BKN010CB"
"5:47 AM EET on December 29, 2016","2016","12","29","05","47","Europe/Kiev","3:47 AM GMT on December 29, 2016","2016","12","29","03","47","UTC","-1.0","30.2","-3.0","26.6","86","18.0","11.2","-9999.0","-9999.0","350","North","7.0","4.3","1027","30.33","-6.2","20.9","-9999","-9999","-9999.00","-9999.00","Light Snow","snow","0","0","1","0","0","0","SPECI UKKK 290347Z 35005MPS 7000 -SN BKN014 OVC020 M01/M03 Q1027 RESN R26/590340 TEMPO 1000 SHSN BKN010CB"
"6:00 AM EET on December 29, 2016","2016","12","29","06","00","Europe/Kiev","4:00 AM GMT on December 29, 2016","2016","12","29","04","00","UTC","-1.0","30.2","-3.0","26.6","86","18.0","11.2","-9999.0","-9999.0","360","North","10.0","6.2","1027","30.33","-6.2","20.9","-9999","-9999","-9999.00","-9999.00","Light Snow","snow","0","0","1","0","0","0","METAR UKKK 290400Z 36005MPS 330V030 9999 -SN OVC013 M01/M03 Q1027 R26/590340 TEMPO 2000 SHSN BKN010CB"
"6:30 AM EET on December 29, 2016","2016","12","29","06","30","Europe/Kiev","4:30 AM GMT on December 29, 2016","2016","12","29","04","30","UTC","-1.0","30.2","-3.0","26.6","86","18.0","11.2","-9999.0","-9999.0","10","North","8.0","5.0","1028","30.36","-6.2","20.9","-9999","-9999","-9999.00","-9999.00","Light Snow","snow","0","0","1","0","0","0","METAR UKKK 290430Z 01005MPS 330V040 8000 -SN OVC013 M01/M03 Q1028 R26/590340 TEMPO 2000 SHSN BKN010CB"
"7:00 AM EET on December 29, 2016","2016","12","29","07","00","Europe/Kiev","5:00 AM GMT on December 29, 2016","2016","12","29","05","00","UTC","-1.0","30.2","-3.0","26.6","86","18.0","11.2","-9999.0","-9999.0","10","North","9.0","5.6","1028","30.36","-6.2","20.9","-9999","-9999","-9999.00","-9999.00","Light Snow","snow","0","0","1","0","0","0","METAR UKKK 290500Z 01005MPS 320V030 9000 -SN OVC013 M01/M03 Q1028 R26/590340 NOSIG"
"7:30 AM EET on December 29, 2016","2016","12","29","07","30","Europe/Kiev","5:30 AM GMT on December 29, 2016","2016","12","29","05","30","UTC","-1.0","30.2","-3.0","26.6","86","18.0","11.2","-9999.0","-9999.0","10","North","10.0","6.2","1029","30.39","-6.2","20.9","-9999","-9999","-9999.00","-9999.00","Overcast","cloudy","0","0","0","0","0","0","METAR UKKK 290530Z 01005MPS 340V040 9999 BKN014 OVC029 M01/M03 Q1029 R26/590340 NOSIG"
"8:00 AM EET on December 29, 2016","2016","12","29","08","00","Europe/Kiev","6:00 AM GMT on December 29, 2016","2016","12","29","06","00","UTC","-1","31","-3","27","77","21.6","13.4","","","20","NNE","10","6","1030","30.43","-999","-999","-9999","-9999","","","Partly Cloudy","partlycloudy","0","0","0","0","0","0","AAXX 29061 33345 11497 80206 11008 21030 30091 40304 52024 69902 70272 885// 333 21010 47001 88713 555 1/102"
"8:00 AM EET on December 29, 2016","2016","12","29","08","00","Europe/Kiev","6:00 AM GMT on December 29, 2016","2016","12","29","06","00","UTC","-1.0","30.2","-3.0","26.6","86","21.6","13.4","-9999.0","-9999.0","360","North","10.0","6.2","1029","30.39","-6.7","19.9","-9999","-9999","-9999.00","-9999.00","Overcast","cloudy","0","0","0","0","0","0","METAR UKKK 290600Z 36006MPS 330V040 9999 BKN014 OVC027 M01/M03 Q1029 R26/590240 NOSIG"
"8:30 AM EET on December 29, 2016","2016","12","29","08","30","Europe/Kiev","6:30 AM GMT on December 29, 2016","2016","12","29","06","30","UTC","-1.0","30.2","-3.0","26.6","86","21.6","13.4","-9999.0","-9999.0","10","North","10.0","6.2","1030","30.42","-6.7","19.9","-9999","-9999","-9999.00","-9999.00","Overcast","cloudy","0","0","0","0","0","0","METAR UKKK 290630Z 01006MPS 9999 BKN014 OVC026 M01/M03 Q1030 R26/590240 NOSIG"
"9:00 AM EET on December 29, 2016","2016","12","29","09","00","Europe/Kiev","7:00 AM GMT on December 29, 2016","2016","12","29","07","00","UTC","-1.0","30.2","-4.0","24.8","80","21.6","13.4","-9999.0","-9999.0","10","North","10.0","6.2","1030","30.42","-6.7","19.9","-9999","-9999","-9999.00","-9999.00","Overcast","cloudy","0","0","0","0","0","0","METAR UKKK 290700Z 01006MPS 330V060 9999 BKN014 OVC026 M01/M04 Q1030 R26/590240 NOSIG"
"9:30 AM EET on December 29, 2016","2016","12","29","09","30","Europe/Kiev","7:30 AM GMT on December 29, 2016","2016","12","29","07","30","UTC","-1.0","30.2","-4.0","24.8","80","21.6","13.4","-9999.0","-9999.0","10","North","10.0","6.2","1030","30.42","-6.7","19.9","-9999","-9999","-9999.00","-9999.00","Overcast","cloudy","0","0","0","0","0","0","METAR UKKK 290730Z 01006MPS 330V040 9999 BKN013 OVC026 M01/M04 Q1030 R26/590240 NOSIG"
"10:00 AM EET on December 29, 2016","2016","12","29","10","00","Europe/Kiev","8:00 AM GMT on December 29, 2016","2016","12","29","08","00","UTC","-1.0","30.2","-3.0","26.6","86","21.6","13.4","-9999.0","-9999.0","10","North","10.0","6.2","1030","30.42","-6.7","19.9","-9999","-9999","-9999.00","-9999.00","Overcast","cloudy","0","0","0","0","0","0","METAR UKKK 290800Z 01006MPS 9999 BKN013 OVC040 M01/M03 Q1030 R26/590240 NOSIG"
"10:30 AM EET on December 29, 2016","2016","12","29","10","30","Europe/Kiev","8:30 AM GMT on December 29, 2016","2016","12","29","08","30","UTC","-1.0","30.2","-4.0","24.8","80","21.6","13.4","-9999.0","-9999.0","10","North","10.0","6.2","1031","30.45","-6.7","19.9","-9999","-9999","-9999.00","-9999.00","Light Snow","snow","0","0","1","0","0","0","METAR UKKK 290830Z 01006MPS 9999 -SN BKN013 OVC040 M01/M04 Q1031 R26/590240 NOSIG"
"11:00 AM EET on December 29, 2016","2016","12","29","11","00","Europe/Kiev","9:00 AM GMT on December 29, 2016","2016","12","29","09","00","UTC","-1","30","-3","26","78","21.6","13.4","","","20","NNE","10","6","1032","30.48","-999","-999","-9999","-9999","","","Light Snow","snow","0","0","1","0","0","0","AAXX 29091 33345 41497 80206 11009 21034 30109 40322 52018 77172 885// 555 1/101"
"11:00 AM EET on December 29, 2016","2016","12","29","11","00","Europe/Kiev","9:00 AM GMT on December 29, 2016","2016","12","29","09","00","UTC","-1.0","30.2","-3.0","26.6","86","21.6","13.4","-9999.0","-9999.0","10","North","9.0","5.6","1031","30.45","-6.7","19.9","-9999","-9999","-9999.00","-9999.00","Light Snow","snow","0","0","1","0","0","0","METAR UKKK 290900Z 01006MPS 330V040 9000 -SN BKN013 OVC040 M01/M03 Q1031 R26/590240 NOSIG"
"11:30 AM EET on December 29, 2016","2016","12","29","11","30","Europe/Kiev","9:30 AM GMT on December 29, 2016","2016","12","29","09","30","UTC","-1.0","30.2","-4.0","24.8","80","25.2","15.7","-9999.0","-9999.0","360","North","10.0","6.2","1031","30.45","-7.2","19.1","-9999","-9999","-9999.00","-9999.00","Light Snow","snow","0","0","1","0","0","0","METAR UKKK 290930Z 36007MPS 340V040 9999 -SN BKN013 OVC040 M01/M04 Q1031 R26/590240 NOSIG"
"12:00 PM EET on December 29, 2016","2016","12","29","12","00","Europe/Kiev","10:00 AM GMT on December 29, 2016","2016","12","29","10","00","UTC","-1.0","30.2","-4.0","24.8","80","18.0","11.2","-9999.0","-9999.0","360","North","10.0","6.2","1032","30.48","-6.2","20.9","-9999","-9999","-9999.00","-9999.00","Overcast","cloudy","0","0","0","0","0","0","METAR UKKK 291000Z 36005MPS 340V040 9999 BKN015 OVC033 M01/M04 Q1032 R26/810250 NOSIG"
"12:30 PM EET on December 29, 2016","2016","12","29","12","30","Europe/Kiev","10:30 AM GMT on December 29, 2016","2016","12","29","10","30","UTC","-1.0","30.2","-4.0","24.8","80","21.6","13.4","-9999.0","-9999.0","360","North","10.0","6.2","1032","30.48","-6.7","19.9","-9999","-9999","-9999.00","-9999.00","Overcast","cloudy","0","0","0","0","0","0","METAR UKKK 291030Z 36006MPS 330V040 9999 BKN015 OVC033 M01/M04 Q1032 R26/810250 NOSIG"
"1:00 PM EET on December 29, 2016","2016","12","29","13","00","Europe/Kiev","11:00 AM GMT on December 29, 2016","2016","12","29","11","00","UTC","-1.0","30.2","-4.0","24.8","80","21.6","13.4","-9999.0","-9999.0","10","North","10.0","6.2","1032","30.48","-6.7","19.9","-9999","-9999","-9999.00","-9999.00","Overcast","cloudy","0","0","0","0","0","0","METAR UKKK 291100Z 01006MPS 330V030 9999 BKN015 OVC033 M01/M04 Q1032 R26/810250 NOSIG"
"1:30 PM EET on December 29, 2016","2016","12","29","13","30","Europe/Kiev","11:30 AM GMT on December 29, 2016","2016","12","29","11","30","UTC","-1.0","30.2","-4.0","24.8","80","18.0","11.2","-9999.0","-9999.0","360","North","10.0","6.2","1032","30.48","-6.2","20.9","-9999","-9999","-9999.00","-9999.00","Overcast","cloudy","0","0","0","0","0","0","METAR UKKK 291130Z 36005MPS 330V030 9999 BKN015 OVC033 M01/M04 Q1032 R26/810250 NOSIG"
"2:00 PM EET on December 29, 2016","2016","12","29","14","00","Europe/Kiev","12:00 PM GMT on December 29, 2016","2016","12","29","12","00","UTC","-1","31","-4","26","72","18.0","11.2","","","30","NNE","20","12","1034","30.54","-999","-999","-9999","-9999","","","Partly Cloudy","partlycloudy","0","0","0","0","0","0","AAXX 29121 33345 /1598 70305 11008 21036 30126 40340 51017 70272 87500 333 87621 555 1/101 69901"
"2:00 PM EET on December 29, 2016","2016","12","29","14","00","Europe/Kiev","12:00 PM GMT on December 29, 2016","2016","12","29","12","00","UTC","-1.0","30.2","-4.0","24.8","80","21.6","13.4","-9999.0","-9999.0","360","North","10.0","6.2","1032","30.48","-6.7","19.9","-9999","-9999","-9999.00","-9999.00","Overcast","cloudy","0","0","0","0","0","0","METAR UKKK 291200Z 36006MPS 9999 BKN015 OVC033 M01/M04 Q1032 R26/810250 NOSIG"
"2:30 PM EET on December 29, 2016","2016","12","29","14","30","Europe/Kiev","12:30 PM GMT on December 29, 2016","2016","12","29","12","30","UTC","-1.0","30.2","-4.0","24.8","80","21.6","13.4","-9999.0","-9999.0","360","North","10.0","6.2","1033","30.51","-6.7","19.9","-9999","-9999","-9999.00","-9999.00","Overcast","cloudy","0","0","0","0","0","0","METAR UKKK 291230Z 36006MPS 9999 BKN014 OVC030 M01/M04 Q1033 R26/810250 NOSIG"
"3:00 PM EET on December 29, 2016","2016","12","29","15","00","Europe/Kiev","1:00 PM GMT on December 29, 2016","2016","12","29","13","00","UTC","-1.0","30.2","-4.0","24.8","80","18.0","11.2","-9999.0","-9999.0","10","North","10.0","6.2","1033","30.51","-6.2","20.9","-9999","-9999","-9999.00","-9999.00","Overcast","cloudy","0","0","0","0","0","0","METAR UKKK 291300Z 01005MPS 9999 BKN014 OVC030 M01/M04 Q1033 R26/810250 NOSIG"
"3:30 PM EET on December 29, 2016","2016","12","29","15","30","Europe/Kiev","1:30 PM GMT on December 29, 2016","2016","12","29","13","30","UTC","-1.0","30.2","-4.0","24.8","80","14.4","8.9","-9999.0","-9999.0","360","North","10.0","6.2","1033","30.51","-5.5","22.1","-9999","-9999","-9999.00","-9999.00","Mostly Cloudy","mostlycloudy","0","0","0","0","0","0","METAR UKKK 291330Z 36004MPS 9999 BKN019 M01/M04 Q1033 R26/810250 NOSIG"
"4:00 PM EET on December 29, 2016","2016","12","29","16","00","Europe/Kiev","2:00 PM GMT on December 29, 2016","2016","12","29","14","00","UTC","-1.0","30.2","-4.0","24.8","80","21.6","13.4","-9999.0","-9999.0","10","North","10.0","6.2","1033","30.51","-6.7","19.9","-9999","-9999","-9999.00","-9999.00","Mostly Cloudy","mostlycloudy","0","0","0","0","0","0","METAR UKKK 291400Z 01006MPS 330V040 9999 BKN017 M01/M04 Q1033 R26/810250 NOSIG"
"4:30 PM EET on December 29, 2016","2016","12","29","16","30","Europe/Kiev","2:30 PM GMT on December 29, 2016","2016","12","29","14","30","UTC","-1.0","30.2","-4.0","24.8","80","21.6","13.4","-9999.0","-9999.0","10","North","10.0","6.2","1033","30.51","-6.7","19.9","-9999","-9999","-9999.00","-9999.00","Mostly Cloudy","mostlycloudy","0","0","0","0","0","0","METAR UKKK 291430Z 01006MPS 320V030 9999 BKN017 M01/M04 Q1033 R08/810250 NOSIG"
"5:00 PM EET on December 29, 2016","2016","12","29","17","00","Europe/Kiev","3:00 PM GMT on December 29, 2016","2016","12","29","15","00","UTC","-1","30","-4","25","73","14.4","8.9","","","20","NNE","20","12","1035","30.56","-999","-999","-9999","-9999","","","Overcast","cloudy","0","0","0","0","0","0","AAXX 29151 33345 42598 80204 11011 21040 30132 40347 53006 885// 333 88631 555 1/102"
"5:00 PM EET on December 29, 2016","2016","12","29","17","00","Europe/Kiev","3:00 PM GMT on December 29, 2016","2016","12","29","15","00","UTC","-1.0","30.2","-4.0","24.8","80","18.0","11.2","-9999.0","-9999.0","360","North","10.0","6.2","1033","30.51","-6.2","20.9","-9999","-9999","-9999.00","-9999.00","Mostly Cloudy","mostlycloudy","0","0","0","0","0","0","METAR UKKK 291500Z 36005MPS 9999 BKN017 M01/M04 Q1033 R08/810250 NOSIG"
"5:30 PM EET on December 29, 2016","2016","12","29","17","30","Europe/Kiev","3:30 PM GMT on December 29, 2016","2016","12","29","15","30","UTC","-1.0","30.2","-5.0","23.0","75","25.2","15.7","-9999.0","-9999.0","360","North","10.0","6.2","1034","30.54","-7.2","19.1","-9999","-9999","-9999.00","-9999.00","Mostly Cloudy","mostlycloudy","0","0","0","0","0","0","METAR UKKK 291530Z 36007MPS 9999 BKN017 M01/M05 Q1034 R08/810250 NOSIG"
"6:00 PM EET on December 29, 2016","2016","12","29","18","00","Europe/Kiev","4:00 PM GMT on December 29, 2016","2016","12","29","16","00","UTC","-1.0","30.2","-5.0","23.0","75","18.0","11.2","-9999.0","-9999.0","20","NNE","10.0","6.2","1034","30.54","-6.2","20.9","-9999","-9999","-9999.00","-9999.00","Mostly Cloudy","mostlycloudy","0","0","0","0","0","0","METAR UKKK 291600Z 02005MPS 9999 BKN017 M01/M05 Q1034 R08/810250 NOSIG"
"6:30 PM EET on December 29, 2016","2016","12","29","18","30","Europe/Kiev","4:30 PM GMT on December 29, 2016","2016","12","29","16","30","UTC","-1.0","30.2","-4.0","24.8","80","18.0","11.2","-9999.0","-9999.0","10","North","10.0","6.2","1034","30.54","-6.2","20.9","-9999","-9999","-9999.00","-9999.00","Mostly Cloudy","mostlycloudy","0","0","0","0","0","0","METAR UKKK 291630Z 01005MPS 9999 BKN017 M01/M04 Q1034 R08/810250 NOSIG"
"7:00 PM EET on December 29, 2016","2016","12","29","19","00","Europe/Kiev","5:00 PM GMT on December 29, 2016","2016","12","29","17","00","UTC","-1.0","30.2","-4.0","24.8","80","21.6","13.4","-9999.0","-9999.0","10","North","10.0","6.2","1035","30.57","-6.7","19.9","-9999","-9999","-9999.00","-9999.00","Mostly Cloudy","mostlycloudy","0","0","0","0","0","0","METAR UKKK 291700Z 01006MPS 9999 BKN022 M01/M04 Q1035 R08/810250 NOSIG"
"7:30 PM EET on December 29, 2016","2016","12","29","19","30","Europe/Kiev","5:30 PM GMT on December 29, 2016","2016","12","29","17","30","UTC","-1.0","30.2","-4.0","24.8","80","18.0","11.2","-9999.0","-9999.0","10","North","10.0","6.2","1035","30.57","-6.2","20.9","-9999","-9999","-9999.00","-9999.00","Mostly Cloudy","mostlycloudy","0","0","0","0","0","0","METAR UKKK 291730Z 01005MPS 9999 BKN024 M01/M04 Q1035 R08/810250 NOSIG"
"8:00 PM EET on December 29, 2016","2016","12","29","20","00","Europe/Kiev","6:00 PM GMT on December 29, 2016","2016","12","29","18","00","UTC","-1","30","-5","24","69","14.4","8.9","","","30","NNE","20","12","1036","30.61","-999","-999","-9999","-9999","","","Overcast","cloudy","0","0","0","0","0","0","AAXX 29181 33345 12598 80304 11010 21046 30148 40363 52016 69902 885// 333 11006 88632 555 1/102"
"8:00 PM EET on December 29, 2016","2016","12","29","20","00","Europe/Kiev","6:00 PM GMT on December 29, 2016","2016","12","29","18","00","UTC","-1.0","30.2","-5.0","23.0","75","18.0","11.2","-9999.0","-9999.0","360","North","10.0","6.2","1035","30.57","-6.2","20.9","-9999","-9999","-9999.00","-9999.00","Mostly Cloudy","mostlycloudy","0","0","0","0","0","0","METAR UKKK 291800Z 36005MPS 9999 BKN024 M01/M05 Q1035 R08/810250 NOSIG"
"8:30 PM EET on December 29, 2016","2016","12","29","20","30","Europe/Kiev","6:30 PM GMT on December 29, 2016","2016","12","29","18","30","UTC","-1.0","30.2","-5.0","23.0","75","18.0","11.2","-9999.0","-9999.0","10","North","10.0","6.2","1035","30.57","-6.2","20.9","-9999","-9999","-9999.00","-9999.00","Light Snow","snow","0","0","1","0","0","0","METAR UKKK 291830Z 01005MPS 9999 -SN OVC025 M01/M05 Q1035 R08/810250 NOSIG"
"9:00 PM EET on December 29, 2016","2016","12","29","21","00","Europe/Kiev","7:00 PM GMT on December 29, 2016","2016","12","29","19","00","UTC","-1.0","30.2","-5.0","23.0","75","14.4","8.9","-9999.0","-9999.0","10","North","10.0","6.2","1035","30.57","-5.5","22.1","-9999","-9999","-9999.00","-9999.00","Light Snow","snow","0","0","1","0","0","0","METAR UKKK 291900Z 01004MPS 9999 -SN OVC021 M01/M05 Q1035 R08/810250 NOSIG"
"9:30 PM EET on December 29, 2016","2016","12","29","21","30","Europe/Kiev","7:30 PM GMT on December 29, 2016","2016","12","29","19","30","UTC","-1.0","30.2","-5.0","23.0","75","18.0","11.2","-9999.0","-9999.0","360","North","10.0","6.2","1035","30.57","-6.2","20.9","-9999","-9999","-9999.00","-9999.00","Mostly Cloudy","mostlycloudy","0","0","0","0","0","0","METAR UKKK 291930Z 36005MPS 9999 BKN026 M01/M05 Q1035 R08/810250 NOSIG"
"10:00 PM EET on December 29, 2016","2016","12","29","22","00","Europe/Kiev","8:00 PM GMT on December 29, 2016","2016","12","29","20","00","UTC","-1.0","30.2","-5.0","23.0","75","14.4","8.9","-9999.0","-9999.0","10","North","10.0","6.2","1036","30.60","-5.5","22.1","-9999","-9999","-9999.00","-9999.00","Mostly Cloudy","mostlycloudy","0","0","0","0","0","0","METAR UKKK 292000Z 01004MPS 9999 BKN021 M01/M05 Q1036 R08/810250 NOSIG"
"10:30 PM EET on December 29, 2016","2016","12","29","22","30","Europe/Kiev","8:30 PM GMT on December 29, 2016","2016","12","29","20","30","UTC","-1.0","30.2","-5.0","23.0","75","10.8","6.7","-9999.0","-9999.0","360","North","10.0","6.2","1036","30.60","-4.7","23.5","-9999","-9999","-9999.00","-9999.00","Overcast","cloudy","0","0","0","0","0","0","METAR UKKK 292030Z 36003MPS 9999 OVC020 M01/M05 Q1036 R08/810250 NOSIG"
"11:00 PM EET on December 29, 2016","2016","12","29","23","00","Europe/Kiev","9:00 PM GMT on December 29, 2016","2016","12","29","21","00","UTC","-1","30","-5","24","69","10.8","6.7","","","30","NNE","20","12","1038","30.65","-999","-999","-9999","-9999","","","Partly Cloudy","partlycloudy","0","0","0","0","0","0","AAXX 29211 33345 41598 80303 11013 21046 30162 40377 52014 70272 885// 333 88625 555 1/102"
"11:00 PM EET on December 29, 2016","2016","12","29","23","00","Europe/Kiev","9:00 PM GMT on December 29, 2016","2016","12","29","21","00","UTC","-1.0","30.2","-5.0","23.0","75","14.4","8.9","-9999.0","-9999.0","360","North","10.0","6.2","1036","30.60","-5.5","22.1","-9999","-9999","-9999.00","-9999.00","Overcast","cloudy","0","0","0","0","0","0","METAR UKKK 292100Z 36004MPS 9999 OVC022 M01/M05 Q1036 R08/810250 NOSIG"
"11:30 PM EET on December 29, 2016","2016","12","29","23","30","Europe/Kiev","9:30 PM GMT on December 29, 2016","2016","12","29","21","30","UTC","-2.0","28.4","-5.0","23.0","80","14.4","8.9","-9999.0","-9999.0","350","North","10.0","6.2","1036","30.60","-6.7","19.9","-9999","-9999","-9999.00","-9999.00","Mostly Cloudy","mostlycloudy","0","0","0","0","0","0","METAR UKKK 292130Z 35004MPS 9999 BKN022 M02/M05 Q1036 R08/810250 NOSIG"
"12:00 AM EET on December 30, 2016","2016","12","30","00","00","Europe/Kiev","10:00 PM GMT on December 29, 2016","2016","12","29","22","00","UTC","-2.0","28.4","-5.0","23.0","80","18.0","11.2","-9999.0","-9999.0","360","North","10.0","6.2","1036","30.60","-7.4","18.7","-9999","-9999","-9999.00","-9999.00","Mostly Cloudy","mostlycloudy","0","0","0","0","0","0","METAR UKKK 292200Z 36005MPS 9999 BKN022 M02/M05 Q1036 R08/810250 NOSIG"
"12:30 AM EET on December 30, 2016","2016","12","30","00","30","Europe/Kiev","10:30 PM GMT on December 29, 2016","2016","12","29","22","30","UTC","-2.0","28.4","-5.0","23.0","80","14.4","8.9","-9999.0","-9999.0","350","North","10.0","6.2","1036","30.60","-6.7","19.9","-9999","-9999","-9999.00","-9999.00","Mostly Cloudy","mostlycloudy","0","0","0","0","0","0","METAR UKKK 292230Z 35004MPS 9999 BKN021 M02/M05 Q1036 R08/810250 NOSIG"
"1:00 AM EET on December 30, 2016","2016","12","30","01","00","Europe/Kiev","11:00 PM GMT on December 29, 2016","2016","12","29","23","00","UTC","-2.0","28.4","-6.0","21.2","74","14.4","8.9","-9999.0","-9999.0","360","North","10.0","6.2","1036","30.60","-6.7","19.9","-9999","-9999","-9999.00","-9999.00","Overcast","cloudy","0","0","0","0","0","0","METAR UKKK 292300Z 36004MPS 9999 OVC020 M02/M06 Q1036 R08/810250 NOSIG"
"1:30 AM EET on December 30, 2016","2016","12","30","01","30","Europe/Kiev","11:30 PM GMT on December 29, 2016","2016","12","29","23","30","UTC","-2.0","28.4","-6.0","21.2","74","14.4","8.9","-9999.0","-9999.0","350","North","10.0","6.2","1036","30.60","-6.7","19.9","-9999","-9999","-9999.00","-9999.00","Overcast","cloudy","0","0","0","0","0","0","METAR UKKK 292330Z 35004MPS 310V010 9999 OVC019 M02/M06 Q1036 R08/810250 NOSIG"
"2:00 AM EET on December 30, 2016","2016","12","30","02","00","Europe/Kiev","12:00 AM GMT on December 30, 2016","2016","12","30","00","00","UTC","-2","28","-6","21","67","10.8","6.7","","","30","NNE","20","12","1038","30.66","-999","-999","-9999","-9999","","","Partly Cloudy","partlycloudy","0","0","0","0","0","0","AAXX 30001 33345 /1598 80303 11020 21059 30164 40380 51002 70272 885// 333 88621 555 1/102 69901"
"2:00 AM EET on December 30, 2016","2016","12","30","02","00","Europe/Kiev","12:00 AM GMT on December 30, 2016","2016","12","30","00","00","UTC","-2.0","28.4","-6.0","21.2","74","14.4","8.9","-9999.0","-9999.0","10","North","10.0","6.2","1036","30.60","-6.7","19.9","-9999","-9999","-9999.00","-9999.00","Overcast","cloudy","0","0","0","0","0","0","METAR UKKK 300000Z 01004MPS 340V040 9999 OVC018 M02/M06 Q1036 R08/810250 NOSIG"
"2:30 AM EET on December 30, 2016","2016","12","30","02","30","Europe/Kiev","12:30 AM GMT on December 30, 2016","2016","12","30","00","30","UTC","-2.0","28.4","-6.0","21.2","74","10.8","6.7","-9999.0","-9999.0","20","NNE","10.0","6.2","1036","30.60","-5.9","21.4","-9999","-9999","-9999.00","-9999.00","Overcast","cloudy","0","0","0","0","0","0","METAR UKKK 300030Z 02003MPS 9999 OVC018 M02/M06 Q1036 R08/810250 NOSIG"
"3:00 AM EET on December 30, 2016","2016","12","30","03","00","Europe/Kiev","1:00 AM GMT on December 30, 2016","2016","12","30","01","00","UTC","-2.0","28.4","-6.0","21.2","74","10.8","6.7","-9999.0","-9999.0","330","NNW","10.0","6.2","1036","30.60","-5.9","21.4","-9999","-9999","-9999.00","-9999.00","Overcast","cloudy","0","0","0","0","0","0","METAR UKKK 300100Z 33003MPS 9999 OVC018 M02/M06 Q1036 R08/810250 NOSIG"
"3:30 AM EET on December 30, 2016","2016","12","30","03","30","Europe/Kiev","1:30 AM GMT on December 30, 2016","2016","12","30","01","30","UTC","-2.0","28.4","-6.0","21.2","74","10.8","6.7","-9999.0","-9999.0","340","NNW","10.0","6.2","1036","30.60","-5.9","21.4","-9999","-9999","-9999.00","-9999.00","Overcast","cloudy","0","0","0","0","0","0","METAR UKKK 300130Z 34003MPS 310V010 9999 OVC018 M02/M06 Q1036 R08/810250 NOSIG"
"4:00 AM EET on December 30, 2016","2016","12","30","04","00","Europe/Kiev","2:00 AM GMT on December 30, 2016","2016","12","30","02","00","UTC","-3.0","26.6","-6.0","21.2","80","10.8","6.7","-9999.0","-9999.0","320","NW","10.0","6.2","1036","30.60","-7.1","19.2","-9999","-9999","-9999.00","-9999.00","Overcast","cloudy","0","0","0","0","0","0","METAR UKKK 300200Z 32003MPS 9999 OVC017 M03/M06 Q1036 R08/810250 NOSIG"
"4:30 AM EET on December 30, 2016","2016","12","30","04","30","Europe/Kiev","2:30 AM GMT on December 30, 2016","2016","12","30","02","30","UTC","-3.0","26.6","-6.0","21.2","80","7.2","4.5","-9999.0","-9999.0","340","NNW","10.0","6.2","1036","30.60","-5.9","21.3","-9999","-9999","-9999.00","-9999.00","Overcast","cloudy","0","0","0","0","0","0","METAR UKKK 300230Z 34002MPS 310V030 9999 OVC016 M03/M06 Q1036 R08/810250 NOSIG"
"5:00 AM EET on December 30, 2016","2016","12","30","05","00","Europe/Kiev","3:00 AM GMT on December 30, 2016","2016","12","30","03","00","UTC","-3","27","-6","21","70","7.2","4.5","","","10","North","20","12","1037","30.63","-999","-999","-9999","-9999","","","Overcast","cloudy","0","0","0","0","0","0","AAXX 30031 33345 42498 80102 11026 21060 30154 40370 58010 885// 333 88619 555 1/102"
"5:00 AM EET on December 30, 2016","2016","12","30","05","00","Europe/Kiev","3:00 AM GMT on December 30, 2016","2016","12","30","03","00","UTC","-3.0","26.6","-6.0","21.2","80","10.8","6.7","-9999.0","-9999.0","330","NNW","10.0","6.2","1035","30.57","-7.1","19.2","-9999","-9999","-9999.00","-9999.00","Overcast","cloudy","0","0","0","0","0","0","METAR UKKK 300300Z 33003MPS 290V010 9999 OVC016 M03/M06 Q1035 R08/810250 NOSIG"
"5:30 AM EET on December 30, 2016","2016","12","30","05","30","Europe/Kiev","3:30 AM GMT on December 30, 2016","2016","12","30","03","30","UTC","-3.0","26.6","-5.0","23.0","86","10.8","6.7","-9999.0","-9999.0","310","NW","8.0","5.0","1035","30.57","-7.1","19.2","-9999","-9999","-9999.00","-9999.00","Light Snow","snow","0","0","1","0","0","0","METAR UKKK 300330Z 31003MPS 280V020 8000 -SN OVC017 M03/M05 Q1035 R08/810250 NOSIG"
"6:00 AM EET on December 30, 2016","2016","12","30","06","00","Europe/Kiev","4:00 AM GMT on December 30, 2016","2016","12","30","04","00","UTC","-3.0","26.6","-5.0","23.0","86","10.8","6.7","-9999.0","-9999.0","320","NW","9.0","5.6","1036","30.60","-7.1","19.2","-9999","-9999","-9999.00","-9999.00","Light Snow","snow","0","0","1","0","0","0","METAR UKKK 300400Z 32003MPS 9000 -SN OVC017 M03/M05 Q1036 R08/810250 NOSIG"
"6:30 AM EET on December 30, 2016","2016","12","30","06","30","Europe/Kiev","4:30 AM GMT on December 30, 2016","2016","12","30","04","30","UTC","-3.0","26.6","-6.0","21.2","80","10.8","6.7","-9999.0","-9999.0","330","NNW","6.0","3.7","1036","30.60","-7.1","19.2","-9999","-9999","-9999.00","-9999.00","Light Snow","snow","0","0","1","0","0","0","METAR UKKK 300430Z 33003MPS 6000 -SN OVC018 M03/M06 Q1036 R08/810250 NOSIG"
"7:00 AM EET on December 30, 2016","2016","12","30","07","00","Europe/Kiev","5:00 AM GMT on December 30, 2016","2016","12","30","05","00","UTC","-3.0","26.6","-6.0","21.2","80","10.8","6.7","-9999.0","-9999.0","330","NNW","10.0","6.2","1036","30.60","-7.1","19.2","-9999","-9999","-9999.00","-9999.00","Light Snow","snow","0","0","1","0","0","0","METAR UKKK 300500Z 33003MPS 9999 -SN OVC017 M03/M06 Q1036 R08/810250 NOSIG"
"7:30 AM EET on December 30, 2016","2016","12","30","07","30","Europe/Kiev","5:30 AM GMT on December 30, 2016","2016","12","30","05","30","UTC","-3.0","26.6","-6.0","21.2","80","14.4","8.9","-9999.0","-9999.0","330","NNW","9.0","5.6","1035","30.57","-8.0","17.7","-9999","-9999","-9999.00","-9999.00","Overcast","cloudy","0","0","0","0","0","0","METAR UKKK 300530Z 33004MPS 270V360 9000 OVC018 M03/M06 Q1035 R08/810250 NOSIG"
"8:00 AM EET on December 30, 2016","2016","12","30","08","00","Europe/Kiev","6:00 AM GMT on December 30, 2016","2016","12","30","06","00","UTC","-3","27","-6","21","69","7.2","4.5","","","320","NW","20","12","1037","30.62","-999","-999","-9999","-9999","","","Overcast","cloudy","0","0","0","0","0","0","AAXX 30061 33345 12498 83202 11028 21062 30153 40369 56001 69902 885// 333 21028 43001 88618 555 1/103"
"8:00 AM EET on December 30, 2016","2016","12","30","08","00","Europe/Kiev","6:00 AM GMT on December 30, 2016","2016","12","30","06","00","UTC","-3.0","26.6","-6.0","21.2","80","7.2","4.5","-9999.0","-9999.0","310","NW","10.0","6.2","1035","30.57","-5.9","21.3","-9999","-9999","-9999.00","-9999.00","Overcast","cloudy","0","0","0","0","0","0","METAR UKKK 300600Z 31002MPS 280V350 9999 OVC018 M03/M06 Q1035 R08/810250 NOSIG"
"8:30 AM EET on December 30, 2016","2016","12","30","08","30","Europe/Kiev","6:30 AM GMT on December 30, 2016","2016","12","30","06","30","UTC","-3.0","26.6","-6.0","21.2","80","10.8","6.7","-9999.0","-9999.0","340","NNW","10.0","6.2","1036","30.60","-7.1","19.2","-9999","-9999","-9999.00","-9999.00","Overcast","cloudy","0","0","0","0","0","0","METAR UKKK 300630Z 34003MPS 9999 OVC017 M03/M06 Q1036 R26/810250 NOSIG"
"9:00 AM EET on December 30, 2016","2016","12","30","09","00","Europe/Kiev","7:00 AM GMT on December 30, 2016","2016","12","30","07","00","UTC","-3.0","26.6","-6.0","21.2","80","14.4","8.9","-9999.0","-9999.0","330","NNW","10.0","6.2","1036","30.60","-8.0","17.7","-9999","-9999","-9999.00","-9999.00","Overcast","cloudy","0","0","0","0","0","0","METAR UKKK 300700Z 33004MPS 9999 OVC019 M03/M06 Q1036 R26/810250 NOSIG"
"9:30 AM EET on December 30, 2016","2016","12","30","09","30","Europe/Kiev","7:30 AM GMT on December 30, 2016","2016","12","30","07","30","UTC","-3.0","26.6","-7.0","19.4","74","14.4","8.9","-9999.0","-9999.0","320","NW","10.0","6.2","1036","30.60","-8.0","17.7","-9999","-9999","-9999.00","-9999.00","Overcast","cloudy","0","0","0","0","0","0","METAR UKKK 300730Z 32004MPS 9999 OVC019 M03/M07 Q1036 R26/810250 NOSIG"
"10:00 AM EET on December 30, 2016","2016","12","30","10","00","Europe/Kiev","8:00 AM GMT on December 30, 2016","2016","12","30","08","00","UTC","-3.0","26.6","-7.0","19.4","74","10.8","6.7","-9999.0","-9999.0","350","North","10.0","6.2","1036","30.60","-7.1","19.2","-9999","-9999","-9999.00","-9999.00","Overcast","cloudy","0","0","0","0","0","0","METAR UKKK 300800Z 35003MPS 9999 OVC019 M03/M07 Q1036 R26/810250 NOSIG"
"10:30 AM EET on December 30, 2016","2016","12","30","10","30","Europe/Kiev","8:30 AM GMT on December 30, 2016","2016","12","30","08","30","UTC","-3.0","26.6","-7.0","19.4","74","7.2","4.5","-9999.0","-9999.0","300","WNW","10.0","6.2","1035","30.57","-5.9","21.3","-9999","-9999","-9999.00","-9999.00","Mostly Cloudy","mostlycloudy","0","0","0","0","0","0","METAR UKKK 300830Z 30002MPS 230V010 9999 BKN019 M03/M07 Q1035 R26/810250 NOSIG"
"11:00 AM EET on December 30, 2016","2016","12","30","11","00","Europe/Kiev","9:00 AM GMT on December 30, 2016","2016","12","30","09","00","UTC","-2","28","-7","20","61","7.2","4.5","","","330","NNW","20","12","1037","30.62","-999","-999","-9999","-9999","","","Mostly Cloudy","mostlycloudy","0","0","0","0","0","0","AAXX 30091 33345 42598 63302 11024 21068 30153 40369 54000 86500 333 86622 555 1/102"
"11:00 AM EET on December 30, 2016","2016","12","30","11","00","Europe/Kiev","9:00 AM GMT on December 30, 2016","2016","12","30","09","00","UTC","-3.0","26.6","-7.0","19.4","74","14.4","8.9","-9999.0","-9999.0","280","West","10.0","6.2","1035","30.57","-8.0","17.7","-9999","-9999","-9999.00","-9999.00","Mostly Cloudy","mostlycloudy","0","0","0","0","0","0","METAR UKKK 300900Z 28004MPS 9999 BKN021 M03/M07 Q1035 R26/810250 NOSIG"
"11:30 AM EET on December 30, 2016","2016","12","30","11","30","Europe/Kiev","9:30 AM GMT on December 30, 2016","2016","12","30","09","30","UTC","-2.0","28.4","-7.0","19.4","69","14.4","8.9","-9999.0","-9999.0","290","WNW","10.0","6.2","1035","30.57","-6.7","19.9","-9999","-9999","-9999.00","-9999.00","Mostly Cloudy","mostlycloudy","0","0","0","0","0","0","METAR UKKK 300930Z 29004MPS 9999 BKN022 M02/M07 Q1035 R26/810250 NOSIG"
"12:00 PM EET on December 30, 2016","2016","12","30","12","00","Europe/Kiev","10:00 AM GMT on December 30, 2016","2016","12","30","10","00","UTC","-2.0","28.4","-7.0","19.4","69","14.4","8.9","-9999.0","-9999.0","280","West","10.0","6.2","1035","30.57","-6.7","19.9","-9999","-9999","-9999.00","-9999.00","Mostly Cloudy","mostlycloudy","0","0","0","0","0","0","METAR UKKK 301000Z 28004MPS 9999 BKN021 M02/M07 Q1035 R26/810250 NOSIG"
"12:30 PM EET on December 30, 2016","2016","12","30","12","30","Europe/Kiev","10:30 AM GMT on December 30, 2016","2016","12","30","10","30","UTC","-2.0","28.4","-7.0","19.4","69","10.8","6.7","-9999.0","-9999.0","270","West","10.0","6.2","1035","30.57","-5.9","21.4","-9999","-9999","-9999.00","-9999.00","Mostly Cloudy","mostlycloudy","0","0","0","0","0","0","METAR UKKK 301030Z 27003MPS 9999 BKN022 M02/M07 Q1035 R26/810250 NOSIG"
"1:00 PM EET on December 30, 2016","2016","12","30","13","00","Europe/Kiev","11:00 AM GMT on December 30, 2016","2016","12","30","11","00","UTC","-1.0","30.2","-6.0","21.2","69","14.4","8.9","-9999.0","-9999.0","280","West","10.0","6.2","1034","30.54","-5.5","22.1","-9999","-9999","-9999.00","-9999.00","Scattered Clouds","partlycloudy","0","0","0","0","0","0","METAR UKKK 301100Z 28004MPS 9999 SCT022 M01/M06 Q1034 R26/810250 NOSIG"
"1:30 PM EET on December 30, 2016","2016","12","30","13","30","Europe/Kiev","11:30 AM GMT on December 30, 2016","2016","12","30","11","30","UTC","-2.0","28.4","-6.0","21.2","74","14.4","8.9","-9999.0","-9999.0","280","West","10.0","6.2","1034","30.54","-6.7","19.9","-9999","-9999","-9999.00","-9999.00","Scattered Clouds","partlycloudy","0","0","0","0","0","0","METAR UKKK 301130Z 28004MPS 9999 SCT022 M02/M06 Q1034 R26/810250 NOSIG"
"2:00 PM EET on December 30, 2016","2016","12","30","14","00","Europe/Kiev","12:00 PM GMT on December 30, 2016","2016","12","30","12","00","UTC","-1","31","-6","21","54","10.8","6.7","","","310","NW","20","12","1035","30.57","-999","-999","-9999","-9999","","","Partly Cloudy","partlycloudy","0","0","0","0","0","0","AAXX 30121 33345 32998 43103 11006 21062 30138 40352 58015 84040 555 1/101"
"2:00 PM EET on December 30, 2016","2016","12","30","14","00","Europe/Kiev","12:00 PM GMT on December 30, 2016","2016","12","30","12","00","UTC","-1.0","30.2","-6.0","21.2","69","18.0","11.2","-9999.0","-9999.0","290","WNW","10.0","6.2","1034","30.54","-6.2","20.9","-9999","-9999","-9999.00","-9999.00","Scattered Clouds","partlycloudy","0","0","0","0","0","0","METAR UKKK 301200Z 29005MPS 9999 SCT022 M01/M06 Q1034 R26/810250 NOSIG"
"2:30 PM EET on December 30, 2016","2016","12","30","14","30","Europe/Kiev","12:30 PM GMT on December 30, 2016","2016","12","30","12","30","UTC","-1.0","30.2","-6.0","21.2","69","14.4","8.9","-9999.0","-9999.0","270","West","10.0","6.2","1033","30.51","-5.5","22.1","-9999","-9999","-9999.00","-9999.00","Scattered Clouds","partlycloudy","0","0","0","0","0","0","METAR UKKK 301230Z 27004MPS 9999 SCT022 M01/M06 Q1033 R26/810250 NOSIG"
"3:00 PM EET on December 30, 2016","2016","12","30","15","00","Europe/Kiev","1:00 PM GMT on December 30, 2016","2016","12","30","13","00","UTC","-2.0","28.4","-6.0","21.2","74","14.4","8.9","-9999.0","-9999.0","280","West","10.0","6.2","1033","30.51","-6.7","19.9","-9999","-9999","-9999.00","-9999.00","Scattered Clouds","partlycloudy","0","0","0","0","0","0","METAR UKKK 301300Z 28004MPS 9999 SCT023 M02/M06 Q1033 R26/810250 NOSIG"
"3:30 PM EET on December 30, 2016","2016","12","30","15","30","Europe/Kiev","1:30 PM GMT on December 30, 2016","2016","12","30","13","30","UTC","-2.0","28.4","-7.0","19.4","69","14.4","8.9","-9999.0","-9999.0","270","West","10.0","6.2","1033","30.51","-6.7","19.9","-9999","-9999","-9999.00","-9999.00","Scattered Clouds","partlycloudy","0","0","0","0","0","0","METAR UKKK 301330Z 27004MPS 9999 SCT022 M02/M07 Q1033 R26/810250 NOSIG"
"4:00 PM EET on December 30, 2016","2016","12","30","16","00","Europe/Kiev","2:00 PM GMT on December 30, 2016","2016","12","30","14","00","UTC","-3.0","26.6","-7.0","19.4","74","10.8","6.7","-9999.0","-9999.0","270","West","10.0","6.2","1033","30.51","-7.1","19.2","-9999","-9999","-9999.00","-9999.00","Scattered Clouds","partlycloudy","0","0","0","0","0","0","METAR UKKK 301400Z 27003MPS 9999 SCT022 M03/M07 Q1033 R26/810250 NOSIG"
"4:30 PM EET on December 30, 2016","2016","12","30","16","30","Europe/Kiev","2:30 PM GMT on December 30, 2016","2016","12","30","14","30","UTC","-3.0","26.6","-6.0","21.2","80","14.4","8.9","-9999.0","-9999.0","280","West","10.0","6.2","1033","30.51","-8.0","17.7","-9999","-9999","-9999.00","-9999.00","Scattered Clouds","partlycloudy","0","0","0","0","0","0","METAR UKKK 301430Z 28004MPS 9999 SCT022 M03/M06 Q1033 R26/810250 NOSIG"
"5:00 PM EET on December 30, 2016","2016","12","30","17","00","Europe/Kiev","3:00 PM GMT on December 30, 2016","2016","12","30","15","00","UTC","-2","28","-6","21","67","7.2","4.5","","","320","NW","20","12","1034","30.55","-999","-999","-9999","-9999","","","Scattered Clouds","partlycloudy","0","0","0","0","0","0","AAXX 30151 33345 42998 23202 11023 21059 30130 40345 57008 82040 555 1/106"
"5:00 PM EET on December 30, 2016","2016","12","30","17","00","Europe/Kiev","3:00 PM GMT on December 30, 2016","2016","12","30","15","00","UTC","-3.0","26.6","-6.0","21.2","80","14.4","8.9","-9999.0","-9999.0","300","WNW","10.0","6.2","1033","30.51","-8.0","17.7","-9999","-9999","-9999.00","-9999.00","Scattered Clouds","partlycloudy","0","0","0","0","0","0","METAR UKKK 301500Z 30004MPS 9999 SCT021 M03/M06 Q1033 R26/810250 NOSIG"
"5:30 PM EET on December 30, 2016","2016","12","30","17","30","Europe/Kiev","3:30 PM GMT on December 30, 2016","2016","12","30","15","30","UTC","-3.0","26.6","-6.0","21.2","80","14.4","8.9","-9999.0","-9999.0","300","WNW","10.0","6.2","1033","30.51","-8.0","17.7","-9999","-9999","-9999.00","-9999.00","Scattered Clouds","partlycloudy","0","0","0","0","0","0","METAR UKKK 301530Z 30004MPS 9999 SCT022 M03/M06 Q1033 R26/810250 NOSIG"
"6:00 PM EET on December 30, 2016","2016","12","30","18","00","Europe/Kiev","4:00 PM GMT on December 30, 2016","2016","12","30","16","00","UTC","-3.0","26.6","-6.0","21.2","80","10.8","6.7","-9999.0","-9999.0","260","West","10.0","6.2","1032","30.48","-7.1","19.2","-9999","-9999","-9999.00","-9999.00","Scattered Clouds","partlycloudy","0","0","0","0","0","0","METAR UKKK 301600Z 26003MPS 9999 SCT020 M03/M06 Q1032 R26/810250 NOSIG"
"6:30 PM EET on December 30, 2016","2016","12","30","18","30","Europe/Kiev","4:30 PM GMT on December 30, 2016","2016","12","30","16","30","UTC","-4.0","24.8","-7.0","19.4","80","10.8","6.7","-9999.0","-9999.0","260","West","10.0","6.2","1033","30.51","-8.3","17.1","-9999","-9999","-9999.00","-9999.00","Scattered Clouds","partlycloudy","0","0","0","0","0","0","METAR UKKK 301630Z 26003MPS 9999 SCT020 M04/M07 Q1033 R26/810250 NOSIG"
"7:00 PM EET on December 30, 2016","2016","12","30","19","00","Europe/Kiev","5:00 PM GMT on December 30, 2016","2016","12","30","17","00","UTC","-4.0","24.8","-7.0","19.4","80","7.2","4.5","-9999.0","-9999.0","260","West","9.0","5.6","1032","30.48","-7.1","19.2","-9999","-9999","-9999.00","-9999.00","Scattered Clouds","partlycloudy","0","0","0","0","0","0","METAR UKKK 301700Z 26002MPS 9000 SCT020 M04/M07 Q1032 R26/810250 NOSIG"
"7:30 PM EET on December 30, 2016","2016","12","30","19","30","Europe/Kiev","5:30 PM GMT on December 30, 2016","2016","12","30","17","30","UTC","-4.0","24.8","-6.0","21.2","86","10.8","6.7","-9999.0","-9999.0","270","West","10.0","6.2","1032","30.48","-8.3","17.1","-9999","-9999","-9999.00","-9999.00","Mostly Cloudy","mostlycloudy","0","0","0","0","0","0","METAR UKKK 301730Z 27003MPS 9999 SCT022 BKN150 M04/M06 Q1032 R26/810250 NOSIG"
"8:00 PM EET on December 30, 2016","2016","12","30","20","00","Europe/Kiev","6:00 PM GMT on December 30, 2016","2016","12","30","18","00","UTC","-3","26","-6","21","75","3.6","2.2","","","280","West","20","12","1034","30.54","-999","-999","-9999","-9999","","","Partly Cloudy","partlycloudy","0","0","0","0","0","0","AAXX 30181 33345 32998 32801 11032 21060 30125 40341 57005 83030 333 11004 555 1/105"
"8:00 PM EET on December 30, 2016","2016","12","30","20","00","Europe/Kiev","6:00 PM GMT on December 30, 2016","2016","12","30","18","00","UTC","-4.0","24.8","-6.0","21.2","86","10.8","6.7","-9999.0","-9999.0","260","West","10.0","6.2","1032","30.48","-8.3","17.1","-9999","-9999","-9999.00","-9999.00","Mostly Cloudy","mostlycloudy","0","0","0","0","0","0","METAR UKKK 301800Z 26003MPS 9999 SCT022 BKN150 M04/M06 Q1032 R26/810250 NOSIG"
"8:30 PM EET on December 30, 2016","2016","12","30","20","30","Europe/Kiev","6:30 PM GMT on December 30, 2016","2016","12","30","18","30","UTC","-4.0","24.8","-6.0","21.2","86","10.8","6.7","-9999.0","-9999.0","230","SW","7.0","4.3","1032","30.48","-8.3","17.1","-9999","-9999","-9999.00","-9999.00","Mostly Cloudy","mostlycloudy","0","0","0","0","0","0","METAR UKKK 301830Z 23003MPS 7000 SCT022 BKN150 M04/M06 Q1032 R26/810250 NOSIG"
"9:00 PM EET on December 30, 2016","2016","12","30","21","00","Europe/Kiev","7:00 PM GMT on December 30, 2016","2016","12","30","19","00","UTC","-4.0","24.8","-6.0","21.2","86","7.2","4.5","-9999.0","-9999.0","240","WSW","10.0","6.2","1032","30.48","-7.1","19.2","-9999","-9999","-9999.00","-9999.00","Mostly Cloudy","mostlycloudy","0","0","0","0","0","0","METAR UKKK 301900Z 24002MPS 9999 SCT022 BKN150 M04/M06 Q1032 R26/810250 NOSIG"
"9:30 PM EET on December 30, 2016","2016","12","30","21","30","Europe/Kiev","7:30 PM GMT on December 30, 2016","2016","12","30","19","30","UTC","-4.0","24.8","-5.0","23.0","93","7.2","4.5","-9999.0","-9999.0","230","SW","8.0","5.0","1032","30.48","-7.1","19.2","-9999","-9999","-9999.00","-9999.00","Mostly Cloudy","mostlycloudy","0","0","0","0","0","0","METAR UKKK 301930Z 23002MPS 8000 SCT022 BKN150 M04/M05 Q1032 R26/810250 NOSIG"
"10:00 PM EET on December 30, 2016","2016","12","30","22","00","Europe/Kiev","8:00 PM GMT on December 30, 2016","2016","12","30","20","00","UTC","-3.0","26.6","-5.0","23.0","86","7.2","4.5","-9999.0","-9999.0","240","WSW","10.0","6.2","1031","30.45","-5.9","21.3","-9999","-9999","-9999.00","-9999.00","Mostly Cloudy","mostlycloudy","0","0","0","0","0","0","METAR UKKK 302000Z 24002MPS 9999 SCT020 BKN150 M03/M05 Q1031 R26/810250 NOSIG"
"10:30 PM EET on December 30, 2016","2016","12","30","22","30","Europe/Kiev","8:30 PM GMT on December 30, 2016","2016","12","30","20","30","UTC","-2.0","28.4","-5.0","23.0","80","7.2","4.5","-9999.0","-9999.0","250","WSW","10.0","6.2","1031","30.45","-4.8","23.4","-9999","-9999","-9999.00","-9999.00","Overcast","cloudy","0","0","0","0","0","0","METAR UKKK 302030Z 25002MPS 9999 OVC019 M02/M05 Q1031 R26/810250 NOSIG"
"11:00 PM EET on December 30, 2016","2016","12","30","23","00","Europe/Kiev","9:00 PM GMT on December 30, 2016","2016","12","30","21","00","UTC","-2","28","-5","24","77","0.0","0.0","","","","","20","12","1033","30.51","-999","-999","-9999","-9999","","","Overcast","cloudy","0","0","0","0","0","0","AAXX 30211 33345 42598 80000 11021 21046 30115 40330 57010 885// 333 88620 555 1/102"
"11:00 PM EET on December 30, 2016","2016","12","30","23","00","Europe/Kiev","9:00 PM GMT on December 30, 2016","2016","12","30","21","00","UTC","-2.0","28.4","-4.0","24.8","86","10.8","6.7","-9999.0","-9999.0","270","West","10.0","6.2","1031","30.45","-5.9","21.4","-9999","-9999","-9999.00","-9999.00","Overcast","cloudy","0","0","0","0","0","0","METAR UKKK 302100Z 27003MPS 9999 OVC019 M02/M04 Q1031 R26/810250 NOSIG"
"11:30 PM EET on December 30, 2016","2016","12","30","23","30","Europe/Kiev","9:30 PM GMT on December 30, 2016","2016","12","30","21","30","UTC","-1.0","30.2","-4.0","24.8","80","10.8","6.7","-9999.0","-9999.0","250","WSW","10.0","6.2","1031","30.45","-4.7","23.5","-9999","-9999","-9999.00","-9999.00","Overcast","cloudy","0","0","0","0","0","0","METAR UKKK 302130Z 25003MPS 9999 OVC019 M01/M04 Q1031 R26/810250 NOSIG"
"12:00 AM EET on December 31, 2016","2016","12","31","00","00","Europe/Kiev","10:00 PM GMT on December 30, 2016","2016","12","30","22","00","UTC","-1.0","30.2","-4.0","24.8","80","10.8","6.7","-9999.0","-9999.0","240","WSW","10.0","6.2","1031","30.45","-4.7","23.5","-9999","-9999","-9999.00","-9999.00","Overcast","cloudy","0","0","0","0","0","0","METAR UKKK 302200Z 24003MPS 9999 OVC019 M01/M04 Q1031 R26/810250 NOSIG"
"12:30 AM EET on December 31, 2016","2016","12","31","00","30","Europe/Kiev","10:30 PM GMT on December 30, 2016","2016","12","30","22","30","UTC","-1.0","30.2","-4.0","24.8","80","10.8","6.7","-9999.0","-9999.0","250","WSW","10.0","6.2","1030","30.42","-4.7","23.5","-9999","-9999","-9999.00","-9999.00","Overcast","cloudy","0","0","0","0","0","0","METAR UKKK 302230Z 25003MPS 230V290 9999 OVC019 M01/M04 Q1030 R26/810250 NOSIG"
"1:00 AM EET on December 31, 2016","2016","12","31","01","00","Europe/Kiev","11:00 PM GMT on December 30, 2016","2016","12","30","23","00","UTC","-1.0","30.2","-4.0","24.8","80","14.4","8.9","-9999.0","-9999.0","260","West","10.0","6.2","1030","30.42","-5.5","22.1","-9999","-9999","-9999.00","-9999.00","Overcast","cloudy","0","0","0","0","0","0","METAR UKKK 302300Z 26004MPS 9999 OVC016 M01/M04 Q1030 R26/810250 NOSIG"
"1:30 AM EET on December 31, 2016","2016","12","31","01","30","Europe/Kiev","11:30 PM GMT on December 30, 2016","2016","12","30","23","30","UTC","-1.0","30.2","-4.0","24.8","80","14.4","8.9","-9999.0","-9999.0","250","WSW","10.0","6.2","1029","30.39","-5.5","22.1","-9999","-9999","-9999.00","-9999.00","Overcast","cloudy","0","0","0","0","0","0","METAR UKKK 302330Z 25004MPS 9999 OVC015 M01/M04 Q1029 R26/810250 NOSIG"
"2:00 AM EET on December 31, 2016","2016","12","31","02","00","Europe/Kiev","12:00 AM GMT on December 31, 2016","2016","12","31","00","00","UTC","-1","30","-4","26","78","10.8","6.7","","","290","WNW","20","12","1031","30.45","-999","-999","-9999","-9999","","","Overcast","cloudy","0","0","0","0","0","0","AAXX 31001 33345 32498 82903 11012 21035 30096 40310 57019 886// 333 88715 555 1/102"
"2:00 AM EET on December 31, 2016","2016","12","31","02","00","Europe/Kiev","12:00 AM GMT on December 31, 2016","2016","12","31","00","00","UTC","-1.0","30.2","-4.0","24.8","80","14.4","8.9","-9999.0","-9999.0","260","West","10.0","6.2","1029","30.39","-5.5","22.1","-9999","-9999","-9999.00","-9999.00","Overcast","cloudy","0","0","0","0","0","0","METAR UKKK 310000Z 26004MPS 9999 OVC014 M01/M04 Q1029 R26/810250 NOSIG"
"2:30 AM EET on December 31, 2016","2016","12","31","02","30","Europe/Kiev","12:30 AM GMT on December 31, 2016","2016","12","31","00","30","UTC","-1.0","30.2","-3.0","26.6","86","18.0","11.2","-9999.0","-9999.0","270","West","10.0","6.2","1029","30.39","-6.2","20.9","-9999","-9999","-9999.00","-9999.00","Overcast","cloudy","0","0","0","0","0","0","METAR UKKK 310030Z 27005MPS 9999 OVC013 M01/M03 Q1029 R26/810250 NOSIG"
"3:00 AM EET on December 31, 2016","2016","12","31","03","00","Europe/Kiev","1:00 AM GMT on December 31, 2016","2016","12","31","01","00","UTC","-1.0","30.2","-4.0","24.8","80","21.6","13.4","-9999.0","-9999.0","280","West","10.0","6.2","1028","30.36","-6.7","19.9","-9999","-9999","-9999.00","-9999.00","Overcast","cloudy","0","0","0","0","0","0","METAR UKKK 310100Z 28006MPS 9999 OVC013 M01/M04 Q1028 R26/810250 NOSIG"
"3:30 AM EET on December 31, 2016","2016","12","31","03","30","Europe/Kiev","1:30 AM GMT on December 31, 2016","2016","12","31","01","30","UTC","-1.0","30.2","-4.0","24.8","80","21.6","13.4","-9999.0","-9999.0","270","West","10.0","6.2","1028","30.36","-6.7","19.9","-9999","-9999","-9999.00","-9999.00","Overcast","cloudy","0","0","0","0","0","0","METAR UKKK 310130Z 27006MPS 9999 OVC013 M01/M04 Q1028 R26/810250 NOSIG"
"4:00 AM EET on December 31, 2016","2016","12","31","04","00","Europe/Kiev","2:00 AM GMT on December 31, 2016","2016","12","31","02","00","UTC","-1.0","30.2","-4.0","24.8","80","21.6","13.4","-9999.0","-9999.0","290","WNW","10.0","6.2","1028","30.36","-6.7","19.9","-9999","-9999","-9999.00","-9999.00","Overcast","cloudy","0","0","0","0","0","0","METAR UKKK 310200Z 29006MPS 9999 OVC013 M01/M04 Q1028 R26/810250 NOSIG"
"4:30 AM EET on December 31, 2016","2016","12","31","04","30","Europe/Kiev","2:30 AM GMT on December 31, 2016","2016","12","31","02","30","UTC","-1.0","30.2","-4.0","24.8","80","18.0","11.2","-9999.0","-9999.0","280","West","10.0","6.2","1027","30.33","-6.2","20.9","-9999","-9999","-9999.00","-9999.00","Overcast","cloudy","0","0","0","0","0","0","METAR UKKK 310230Z 28005MPS 9999 OVC012 M01/M04 Q1027 R26/810250 NOSIG"
"5:00 AM EET on December 31, 2016","2016","12","31","05","00","Europe/Kiev","3:00 AM GMT on December 31, 2016","2016","12","31","03","00","UTC","-1","29","-4","25","80","10.8","6.7","","","320","NW","10","6","1029","30.38","-999","-999","-9999","-9999","","","Overcast","cloudy","0","0","0","0","0","0","AAXX 31031 33345 42497 83203 11014 21037 30073 40287 57023 886// 333 88712 555 1/102"
"5:00 AM EET on December 31, 2016","2016","12","31","05","00","Europe/Kiev","3:00 AM GMT on December 31, 2016","2016","12","31","03","00","UTC","-1.0","30.2","-4.0","24.8","80","18.0","11.2","-9999.0","-9999.0","280","West","10.0","6.2","1027","30.33","-6.2","20.9","-9999","-9999","-9999.00","-9999.00","Overcast","cloudy","0","0","0","0","0","0","METAR UKKK 310300Z 28005MPS 9999 OVC012 M01/M04 Q1027 R26/810250 NOSIG"
"5:30 AM EET on December 31, 2016","2016","12","31","05","30","Europe/Kiev","3:30 AM GMT on December 31, 2016","2016","12","31","03","30","UTC","-1.0","30.2","-3.0","26.6","86","21.6","13.4","-9999.0","-9999.0","290","WNW","10.0","6.2","1027","30.33","-6.7","19.9","-9999","-9999","-9999.00","-9999.00","Overcast","cloudy","0","0","0","0","0","0","METAR UKKK 310330Z 29006MPS 9999 OVC012 M01/M03 Q1027 R26/810250 NOSIG"
"6:00 AM EET on December 31, 2016","2016","12","31","06","00","Europe/Kiev","4:00 AM GMT on December 31, 2016","2016","12","31","04","00","UTC","-2.0","28.4","-4.0","24.8","86","21.6","13.4","-9999.0","-9999.0","280","West","10.0","6.2","1027","30.33","-8.0","17.6","-9999","-9999","-9999.00","-9999.00","Overcast","cloudy","0","0","0","0","0","0","METAR UKKK 310400Z 28006MPS 9999 OVC010 M02/M04 Q1027 R26/810250 NOSIG"
"6:30 AM EET on December 31, 2016","2016","12","31","06","30","Europe/Kiev","4:30 AM GMT on December 31, 2016","2016","12","31","04","30","UTC","-2.0","28.4","-3.0","26.6","93","21.6","13.4","-9999.0","-9999.0","280","West","10.0","6.2","1027","30.33","-8.0","17.6","-9999","-9999","-9999.00","-9999.00","Overcast","cloudy","0","0","0","0","0","0","METAR UKKK 310430Z 28006MPS 9999 OVC009 M02/M03 Q1027 R26/810250 NOSIG"
"7:00 AM EET on December 31, 2016","2016","12","31","07","00","Europe/Kiev","5:00 AM GMT on December 31, 2016","2016","12","31","05","00","UTC","-2.0","28.4","-4.0","24.8","86","21.6","13.4","-9999.0","-9999.0","280","West","9.0","5.6","1026","30.30","-8.0","17.6","-9999","-9999","-9999.00","-9999.00","Overcast","cloudy","0","0","0","0","0","0","METAR UKKK 310500Z 28006MPS 9000 OVC008 M02/M04 Q1026 R26/810250 NOSIG"
"7:30 AM EET on December 31, 2016","2016","12","31","07","30","Europe/Kiev","5:30 AM GMT on December 31, 2016","2016","12","31","05","30","UTC","-2.0","28.4","-3.0","26.6","93","18.0","11.2","-9999.0","-9999.0","270","West","8.0","5.0","1026","30.30","-7.4","18.7","-9999","-9999","-9999.00","-9999.00","Overcast","cloudy","0","0","0","0","0","0","METAR UKKK 310530Z 27005MPS 8000 OVC008 M02/M03 Q1026 R26/810250 NOSIG"
"8:00 AM EET on December 31, 2016","2016","12","31","08","00","Europe/Kiev","6:00 AM GMT on December 31, 2016","2016","12","31","06","00","UTC","-2","28","-4","26","87","10.8","6.7","","","300","WNW","10","6","1028","30.35","-999","-999","-9999","-9999","","","Overcast","cloudy","0","0","0","0","0","0","AAXX 31061 33345 32397 83003 11020 21035 30061 40275 57012 886// 333 21036 47001 88708 555 1/104"
"8:00 AM EET on December 31, 2016","2016","12","31","08","00","Europe/Kiev","6:00 AM GMT on December 31, 2016","2016","12","31","06","00","UTC","-2.0","28.4","-4.0","24.8","86","18.0","11.2","-9999.0","-9999.0","270","West","8.0","5.0","1026","30.30","-7.4","18.7","-9999","-9999","-9999.00","-9999.00","Mostly Cloudy","mostlycloudy","0","0","0","0","0","0","METAR UKKK 310600Z 27005MPS 8000 BKN007 M02/M04 Q1026 R26/810250 NOSIG"
"8:30 AM EET on December 31, 2016","2016","12","31","08","30","Europe/Kiev","6:30 AM GMT on December 31, 2016","2016","12","31","06","30","UTC","-2.0","28.4","-3.0","26.6","93","21.6","13.4","-9999.0","-9999.0","270","West","7.0","4.3","1026","30.30","-8.0","17.6","-9999","-9999","-9999.00","-9999.00","Mostly Cloudy","mostlycloudy","0","0","0","0","0","0","METAR UKKK 310630Z 27006MPS 7000 BKN007 M02/M03 Q1026 R26/810250 NOSIG"
"9:00 AM EET on December 31, 2016","2016","12","31","09","00","Europe/Kiev","7:00 AM GMT on December 31, 2016","2016","12","31","07","00","UTC","-2.0","28.4","-3.0","26.6","93","25.2","15.7","-9999.0","-9999.0","270","West","7.0","4.3","1026","30.30","-8.5","16.7","-9999","-9999","-9999.00","-9999.00","Mostly Cloudy","mostlycloudy","0","0","0","0","0","0","METAR UKKK 310700Z 27007MPS 7000 BKN006 M02/M03 Q1026 R26/810250 NOSIG"
"9:30 AM EET on December 31, 2016","2016","12","31","09","30","Europe/Kiev","7:30 AM GMT on December 31, 2016","2016","12","31","07","30","UTC","-2.0","28.4","-3.0","26.6","93","21.6","13.4","-9999.0","-9999.0","270","West","6.0","3.7","1026","30.30","-8.0","17.6","-9999","-9999","-9999.00","-9999.00","Mostly Cloudy","mostlycloudy","0","0","0","0","0","0","METAR UKKK 310730Z 27006MPS 6000 BKN006 M02/M03 Q1026 R26/810250 TEMPO BKN005"
"10:00 AM EET on December 31, 2016","2016","12","31","10","00","Europe/Kiev","8:00 AM GMT on December 31, 2016","2016","12","31","08","00","UTC","-2.0","28.4","-3.0","26.6","93","21.6","13.4","-9999.0","-9999.0","270","West","7.0","4.3","1025","30.27","-8.0","17.6","-9999","-9999","-9999.00","-9999.00","Mostly Cloudy","mostlycloudy","0","0","0","0","0","0","METAR UKKK 310800Z 27006MPS 7000 BKN006 M02/M03 Q1025 R26/810250 NOSIG"
"10:30 AM EET on December 31, 2016","2016","12","31","10","30","Europe/Kiev","8:30 AM GMT on December 31, 2016","2016","12","31","08","30","UTC","-1.0","30.2","-3.0","26.6","86","18.0","11.2","-9999.0","-9999.0","260","West","8.0","5.0","1025","30.27","-6.2","20.9","-9999","-9999","-9999.00","-9999.00","Scattered Clouds","partlycloudy","0","0","0","0","0","0","METAR UKKK 310830Z 26005MPS 8000 SCT006 M01/M03 Q1025 R26/810250 NOSIG"
"11:00 AM EET on December 31, 2016","2016","12","31","11","00","Europe/Kiev","9:00 AM GMT on December 31, 2016","2016","12","31","09","00","UTC","-0","31","-3","26","76","14.4","8.9","","","280","West","20","12","1026","30.31","-999","-999","-9999","-9999","","","","","0","0","0","0","0","0","AAXX 31091 33345 42998 02804 11004 21031 30050 40262 57011 555 1/101"
"11:00 AM EET on December 31, 2016","2016","12","31","11","00","Europe/Kiev","9:00 AM GMT on December 31, 2016","2016","12","31","09","00","UTC","-1.0","30.2","-3.0","26.6","86","21.6","13.4","-9999.0","-9999.0","260","West","8.0","5.0","1025","30.27","-6.7","19.9","-9999","-9999","-9999.00","-9999.00","Partly Cloudy","partlycloudy","0","0","0","0","0","0","METAR UKKK 310900Z 26006MPS 8000 FEW008 M01/M03 Q1025 R26/810250 NOSIG"
"11:30 AM EET on December 31, 2016","2016","12","31","11","30","Europe/Kiev","9:30 AM GMT on December 31, 2016","2016","12","31","09","30","UTC","0.0","32.0","-3.0","26.6","80","18.0","11.2","-9999.0","-9999.0","260","West","9.0","5.6","1024","30.24","-4.9","23.2","-9999","-9999","-9999.00","-9999.00","Clear","clear","0","0","0","0","0","0","METAR UKKK 310930Z 26005MPS 9000 SKC 00/M03 Q1024 R26/810250 NOSIG"
"12:00 PM EET on December 31, 2016","2016","12","31","12","00","Europe/Kiev","10:00 AM GMT on December 31, 2016","2016","12","31","10","00","UTC","1.0","33.8","-3.0","26.6","75","21.6","13.4","-9999.0","-9999.0","270","West","9.0","5.6","1024","30.24","-4.2","24.5","-9999","-9999","-9999.00","-9999.00","Clear","clear","0","0","0","0","0","0","METAR UKKK 311000Z 27006MPS 9000 SKC 01/M03 Q1024 R26/810250 NOSIG"
"12:30 PM EET on December 31, 2016","2016","12","31","12","30","Europe/Kiev","10:30 AM GMT on December 31, 2016","2016","12","31","10","30","UTC","1.0","33.8","-3.0","26.6","75","21.6","13.4","-9999.0","-9999.0","270","West","-9999.0","-9999.0","1023","30.21","-4.2","24.5","-9999","-9999","-9999.00","-9999.00","Clear","clear","0","0","0","0","0","0","METAR UKKK 311030Z 27006MPS CAVOK 01/M03 Q1023 R26/810250 NOSIG"
"1:00 PM EET on December 31, 2016","2016","12","31","13","00","Europe/Kiev","11:00 AM GMT on December 31, 2016","2016","12","31","11","00","UTC","2.0","35.6","-3.0","26.6","70","18.0","11.2","-9999.0","-9999.0","260","West","-9999.0","-9999.0","1023","30.21","-2.4","27.7","-9999","-9999","-9999.00","-9999.00","Clear","clear","0","0","0","0","0","0","METAR UKKK 311100Z 26005MPS CAVOK 02/M03 Q1023 R26/810250 NOSIG"
"1:30 PM EET on December 31, 2016","2016","12","31","13","30","Europe/Kiev","11:30 AM GMT on December 31, 2016","2016","12","31","11","30","UTC","2.0","35.6","-3.0","26.6","70","18.0","11.2","-9999.0","-9999.0","260","West","-9999.0","-9999.0","1022","30.18","-2.4","27.7","-9999","-9999","-9999.00","-9999.00","Clear","clear","0","0","0","0","0","0","METAR UKKK 311130Z 26005MPS CAVOK 02/M03 Q1022 R26/810250 NOSIG"
"2:00 PM EET on December 31, 2016","2016","12","31","14","00","Europe/Kiev","12:00 PM GMT on December 31, 2016","2016","12","31","12","00","UTC","2","36","-4","26","54","14.4","8.9","","","280","West","20","12","1023","30.22","-999","-999","-9999","-9999","","","Clear","clear","0","0","0","0","0","0","AAXX 31121 33345 32998 72804 10024 21036 30023 40232 57027 80001 555 1/001"
"2:00 PM EET on December 31, 2016","2016","12","31","14","00","Europe/Kiev","12:00 PM GMT on December 31, 2016","2016","12","31","12","00","UTC","2.0","35.6","-3.0","26.6","70","18.0","11.2","-9999.0","-9999.0","270","West","-9999.0","-9999.0","1022","30.18","-2.4","27.7","-9999","-9999","-9999.00","-9999.00","Clear","clear","0","0","0","0","0","0","METAR UKKK 311200Z 27005MPS CAVOK 02/M03 Q1022 R26/810250 NOSIG"
"2:30 PM EET on December 31, 2016","2016","12","31","14","30","Europe/Kiev","12:30 PM GMT on December 31, 2016","2016","12","31","12","30","UTC","2.0","35.6","-3.0","26.6","70","18.0","11.2","-9999.0","-9999.0","250","WSW","-9999.0","-9999.0","1022","30.18","-2.4","27.7","-9999","-9999","-9999.00","-9999.00","Clear","clear","0","0","0","0","0","0","METAR UKKK 311230Z 25005MPS CAVOK 02/M03 Q1022 R26/810250 NOSIG"
"3:00 PM EET on December 31, 2016","2016","12","31","15","00","Europe/Kiev","1:00 PM GMT on December 31, 2016","2016","12","31","13","00","UTC","2.0","35.6","-3.0","26.6","70","14.4","8.9","-9999.0","-9999.0","260","West","-9999.0","-9999.0","1021","30.15","-1.8","28.7","-9999","-9999","-9999.00","-9999.00","Clear","clear","0","0","0","0","0","0","METAR UKKK 311300Z 26004MPS CAVOK 02/M03 Q1021 R26/810250 NOSIG"
"3:30 PM EET on December 31, 2016","2016","12","31","15","30","Europe/Kiev","1:30 PM GMT on December 31, 2016","2016","12","31","13","30","UTC","1.0","33.8","-3.0","26.6","75","14.4","8.9","-9999.0","-9999.0","250","WSW","-9999.0","-9999.0","1021","30.15","-3.0","26.5","-9999","-9999","-9999.00","-9999.00","Clear","clear","0","0","0","0","0","0","METAR UKKK 311330Z 25004MPS CAVOK 01/M03 Q1021 R26/810250 NOSIG"
"4:00 PM EET on December 31, 2016","2016","12","31","16","00","Europe/Kiev","2:00 PM GMT on December 31, 2016","2016","12","31","14","00","UTC","1.0","33.8","-3.0","26.6","75","14.4","8.9","-9999.0","-9999.0","260","West","-9999.0","-9999.0","1021","30.15","-3.0","26.5","-9999","-9999","-9999.00","-9999.00","Clear","clear","0","0","0","0","0","0","METAR UKKK 311400Z 26004MPS CAVOK 01/M03 Q1021 R26/810250 NOSIG"
"4:30 PM EET on December 31, 2016","2016","12","31","16","30","Europe/Kiev","2:30 PM GMT on December 31, 2016","2016","12","31","14","30","UTC","0.0","32.0","-3.0","26.6","80","14.4","8.9","-9999.0","-9999.0","250","WSW","9.0","5.6","1021","30.15","-4.3","24.3","-9999","-9999","-9999.00","-9999.00","Unknown","unknown","0","0","0","0","0","0","METAR UKKK 311430Z 25004MPS 9000 NSC 00/M03 Q1021 R26/810250 NOSIG"
"5:00 PM EET on December 31, 2016","2016","12","31","17","00","Europe/Kiev","3:00 PM GMT on December 31, 2016","2016","12","31","15","00","UTC","1","33","-3","26","67","10.8","6.7","","","280","West","20","12","1022","30.17","-999","-999","-9999","-9999","","","Clear","clear","0","0","0","0","0","0","AAXX 31151 33345 42998 32803 10008 21032 30005 40215 57018 80001 555 1/102"
"5:00 PM EET on December 31, 2016","2016","12","31","17","00","Europe/Kiev","3:00 PM GMT on December 31, 2016","2016","12","31","15","00","UTC","0.0","32.0","-3.0","26.6","80","14.4","8.9","-9999.0","-9999.0","250","WSW","9.0","5.6","1020","30.12","-4.3","24.3","-9999","-9999","-9999.00","-9999.00","Unknown","unknown","0","0","0","0","0","0","METAR UKKK 311500Z 25004MPS 9000 NSC 00/M03 Q1020 R26/810250 NOSIG"
"5:30 PM EET on December 31, 2016","2016","12","31","17","30","Europe/Kiev","3:30 PM GMT on December 31, 2016","2016","12","31","15","30","UTC","0.0","32.0","-3.0","26.6","80","14.4","8.9","-9999.0","-9999.0","260","West","9.0","5.6","1020","30.12","-4.3","24.3","-9999","-9999","-9999.00","-9999.00","Unknown","unknown","0","0","0","0","0","0","METAR UKKK 311530Z 26004MPS 9000 NSC 00/M03 Q1020 R26/810250 NOSIG"
"6:00 PM EET on December 31, 2016","2016","12","31","18","00","Europe/Kiev","4:00 PM GMT on December 31, 2016","2016","12","31","16","00","UTC","0.0","32.0","-3.0","26.6","80","18.0","11.2","-9999.0","-9999.0","270","West","9.0","5.6","1020","30.12","-4.9","23.2","-9999","-9999","-9999.00","-9999.00","Unknown","unknown","0","0","0","0","0","0","METAR UKKK 311600Z 27005MPS 9000 NSC 00/M03 Q1020 R26/810250 NOSIG"
"6:30 PM EET on December 31, 2016","2016","12","31","18","30","Europe/Kiev","4:30 PM GMT on December 31, 2016","2016","12","31","16","30","UTC","0.0","32.0","-4.0","24.8","75","14.4","8.9","-9999.0","-9999.0","270","West","9.0","5.6","1020","30.12","-4.3","24.3","-9999","-9999","-9999.00","-9999.00","Unknown","unknown","0","0","0","0","0","0","METAR UKKK 311630Z 27004MPS 9000 NSC M00/M04 Q1020 R26/810250 NOSIG"
"7:00 PM EET on December 31, 2016","2016","12","31","19","00","Europe/Kiev","5:00 PM GMT on December 31, 2016","2016","12","31","17","00","UTC","-1.0","30.2","-4.0","24.8","80","14.4","8.9","-9999.0","-9999.0","270","West","9.0","5.6","1020","30.12","-5.5","22.1","-9999","-9999","-9999.00","-9999.00","Unknown","unknown","0","0","0","0","0","0","METAR UKKK 311700Z 27004MPS 9000 NSC M01/M04 Q1020 R26/810250 NOSIG"
"7:30 PM EET on December 31, 2016","2016","12","31","19","30","Europe/Kiev","5:30 PM GMT on December 31, 2016","2016","12","31","17","30","UTC","-1.0","30.2","-4.0","24.8","80","14.4","8.9","-9999.0","-9999.0","270","West","9.0","5.6","1019","30.09","-5.5","22.1","-9999","-9999","-9999.00","-9999.00","Unknown","unknown","0","0","0","0","0","0","METAR UKKK 311730Z 27004MPS 9000 NSC M01/M04 Q1019 R26/810250 NOSIG"
"8:00 PM EET on December 31, 2016","2016","12","31","20","00","Europe/Kiev","6:00 PM GMT on December 31, 2016","2016","12","31","18","00","UTC","-0","32","-4","25","65","7.2","4.5","","","320","NW","20","12","1020","30.14","-999","-999","-9999","-9999","","","Clear","clear","0","0","0","0","0","0","AAXX 31181 33345 32998 23202 11001 21040 39994 40205 57011 80001 333 10025 555 1/103"
"8:00 PM EET on December 31, 2016","2016","12","31","20","00","Europe/Kiev","6:00 PM GMT on December 31, 2016","2016","12","31","18","00","UTC","-1.0","30.2","-5.0","23.0","75","14.4","8.9","-9999.0","-9999.0","280","West","9.0","5.6","1019","30.09","-5.5","22.1","-9999","-9999","-9999.00","-9999.00","Unknown","unknown","0","0","0","0","0","0","METAR UKKK 311800Z 28004MPS 9000 NSC M01/M05 Q1019 R26/810250 NOSIG"
"8:30 PM EET on December 31, 2016","2016","12","31","20","30","Europe/Kiev","6:30 PM GMT on December 31, 2016","2016","12","31","18","30","UTC","-1.0","30.2","-5.0","23.0","75","14.4","8.9","-9999.0","-9999.0","280","West","8.0","5.0","1019","30.09","-5.5","22.1","-9999","-9999","-9999.00","-9999.00","Unknown","unknown","0","0","0","0","0","0","METAR UKKK 311830Z 28004MPS 8000 NSC M01/M05 Q1019 R26/810250 NOSIG"
"9:00 PM EET on December 31, 2016","2016","12","31","21","00","Europe/Kiev","7:00 PM GMT on December 31, 2016","2016","12","31","19","00","UTC","-1.0","30.2","-5.0","23.0","75","14.4","8.9","-9999.0","-9999.0","280","West","9.0","5.6","1019","30.09","-5.5","22.1","-9999","-9999","-9999.00","-9999.00","Unknown","unknown","0","0","0","0","0","0","METAR UKKK 311900Z 28004MPS 9000 NSC M01/M05 Q1019 R26/810250 NOSIG"
"9:30 PM EET on December 31, 2016","2016","12","31","21","30","Europe/Kiev","7:30 PM GMT on December 31, 2016","2016","12","31","19","30","UTC","-2.0","28.4","-5.0","23.0","80","14.4","8.9","-9999.0","-9999.0","270","West","8.0","5.0","1018","30.06","-6.7","19.9","-9999","-9999","-9999.00","-9999.00","Unknown","unknown","0","0","0","0","0","0","METAR UKKK 311930Z 27004MPS 8000 NSC M02/M05 Q1018 R26/810250 NOSIG"
"10:00 PM EET on December 31, 2016","2016","12","31","22","00","Europe/Kiev","8:00 PM GMT on December 31, 2016","2016","12","31","20","00","UTC","-2.0","28.4","-5.0","23.0","80","18.0","11.2","-9999.0","-9999.0","270","West","8.0","5.0","1018","30.06","-7.4","18.7","-9999","-9999","-9999.00","-9999.00","Unknown","unknown","0","0","0","0","0","0","METAR UKKK 312000Z 27005MPS 8000 NSC M02/M05 Q1018 R26/810250 NOSIG"
"10:30 PM EET on December 31, 2016","2016","12","31","22","30","Europe/Kiev","8:30 PM GMT on December 31, 2016","2016","12","31","20","30","UTC","-2.0","28.4","-5.0","23.0","80","18.0","11.2","-9999.0","-9999.0","280","West","7.0","4.3","1017","30.04","-7.4","18.7","-9999","-9999","-9999.00","-9999.00","Clear","clear","0","0","0","0","0","0","METAR UKKK 312030Z 28005MPS 7000 SKC M02/M05 Q1017 R26/810250 NOSIG"
"11:00 PM EET on December 31, 2016","2016","12","31","23","00","Europe/Kiev","9:00 PM GMT on December 31, 2016","2016","12","31","21","00","UTC","-1","31","-4","24","67","10.8","6.7","","","340","NNW","20","12","1019","30.09","-999","-999","-9999","-9999","","","","","0","0","0","0","0","0","AAXX 31211 33345 42998 03403 11008 21043 39978 40189 57016 555 1/103"
"11:00 PM EET on December 31, 2016","2016","12","31","23","00","Europe/Kiev","9:00 PM GMT on December 31, 2016","2016","12","31","21","00","UTC","-2.0","28.4","-4.0","24.8","86","18.0","11.2","-9999.0","-9999.0","280","West","8.0","5.0","1017","30.04","-7.4","18.7","-9999","-9999","-9999.00","-9999.00","Clear","clear","0","0","0","0","0","0","METAR UKKK 312100Z 28005MPS 8000 SKC M02/M04 Q1017 R26/810250 NOSIG"
"11:30 PM EET on December 31, 2016","2016","12","31","23","30","Europe/Kiev","9:30 PM GMT on December 31, 2016","2016","12","31","21","30","UTC","-2.0","28.4","-5.0","23.0","80","18.0","11.2","-9999.0","-9999.0","280","West","7.0","4.3","1017","30.04","-7.4","18.7","-9999","-9999","-9999.00","-9999.00","Clear","clear","0","0","0","0","0","0","METAR UKKK 312130Z 28005MPS 7000 SKC M02/M05 Q1017 R26/810250 NOSIG"
