"date.pretty","date.year","date.mon","date.mday","date.hour","date.min","date.tzname","utcdate.pretty","utcdate.year","utcdate.mon","utcdate.mday","utcdate.hour","utcdate.min","utcdate.tzname","tempm","tempi","dewptm","dewpti","hum","wspdm","wspdi","wgustm","wgusti","wdird","wdire","vism","visi","pressurem","pressurei","windchillm","windchilli","heatindexm","heatindexi","precipm","precipi","conds","icon","fog","rain","snow","hail","thunder","tornado","metar"
"12:00 AM EEST on August 01, 2016","2016","08","01","00","00","Europe/Kiev","9:00 PM GMT on July 31, 2016","2016","07","31","21","00","UTC","23","73","17","63","62","7.2","4.5","","","210","SSW","20","12","1014","29.96","-999","-999","-9999","-9999","","","","","0","0","0","0","0","0","AAXX 31211 33345 42998 02102 10228 20171 39952 40144 52010 555 10021"
"12:00 AM EEST on August 01, 2016","2016","08","01","00","00","Europe/Kiev","9:00 PM GMT on July 31, 2016","2016","07","31","21","00","UTC","20.0","68.0","17.0","62.6","83","3.6","2.2","-9999.0","-9999.0","0","Variable","-9999.0","-9999.0","1015","29.98","-999","-999","-9999","-9999","-9999.00","-9999.00","Clear","clear","0","0","0","0","0","0","METAR UKKK 312100Z VRB01MPS CAVOK 20/17 Q1015 R26/CLRD70 NOSIG"
"12:30 AM EEST on August 01, 2016","2016","08","01","00","30","Europe/Kiev","9:30 PM GMT on July 31, 2016","2016","07","31","21","30","UTC","20.0","68.0","17.0","62.6","83","3.6","2.2","-9999.0","-9999.0","0","Variable","-9999.0","-9999.0","1015","29.98","-999","-999","-9999","-9999","-9999.00","-9999.00","Clear","clear","0","0","0","0","0","0","METAR UKKK 312130Z VRB01MPS CAVOK 20/17 Q1015 R08/CLRD70 NOSIG"
"1:00 AM EEST on August 01, 2016","2016","08","01","01","00","Europe/Kiev","10:00 PM GMT on July 31, 2016","2016","07","31","22","00","UTC","19.0","66.2","16.0","60.8","83","3.6","2.2","-9999.0","-9999.0","0","Variable","9.0","5.6","1015","29.98","-999","-999","-9999","-9999","-9999.00","-9999.00","Clear","clear","0","0","0","0","0","0","METAR UKKK 312200Z VRB01MPS 9000 SKC 19/16 Q1015 R08/CLRD70 NOSIG"
"1:30 AM EEST on August 01, 2016","2016","08","01","01","30","Europe/Kiev","10:30 PM GMT on July 31, 2016","2016","07","31","22","30","UTC","19.0","66.2","17.0","62.6","88","0.0","0.0","-9999.0","-9999.0","0","North","-9999.0","-9999.0","1014","29.95","-999","-999","-9999","-9999","-9999.00","-9999.00","Clear","clear","0","0","0","0","0","0","METAR UKKK 312230Z 00000MPS CAVOK 19/17 Q1014 R08/CLRD70 NOSIG"
"2:00 AM EEST on August 01, 2016","2016","08","01","02","00","Europe/Kiev","11:00 PM GMT on July 31, 2016","2016","07","31","23","00","UTC","19.0","66.2","17.0","62.6","88","0.0","0.0","-9999.0","-9999.0","0","North","-9999.0","-9999.0","1014","29.95","-999","-999","-9999","-9999","-9999.00","-9999.00","Clear","clear","0","0","0","0","0","0","METAR UKKK 312300Z 00000MPS CAVOK 19/17 Q1014 R08/CLRD70 NOSIG"
"2:30 AM EEST on August 01, 2016","2016","08","01","02","30","Europe/Kiev","11:30 PM GMT on July 31, 2016","2016","07","31","23","30","UTC","18.0","64.4","16.0","60.8","88","3.6","2.2","-9999.0","-9999.0","100","East","-9999.0","-9999.0","1014","29.95","-999","-999","-9999","-9999","-9999.00","-9999.00","Clear","clear","0","0","0","0","0","0","METAR UKKK 312330Z 10001MPS CAVOK 18/16 Q1014 R08/CLRD70 NOSIG"
"3:00 AM EEST on August 01, 2016","2016","08","01","03","00","Europe/Kiev","12:00 AM GMT on August 01, 2016","2016","08","01","00","00","UTC","21","69","17","63","75","7.2","4.5","","","190","South","10","6","1014","29.94","-999","-999","-9999","-9999","","","","","0","0","0","0","0","0","AAXX 01001 33345 32997 01902 10207 20171 39945 40139 58007 555 10020"
"3:00 AM EEST on August 01, 2016","2016","08","01","03","00","Europe/Kiev","12:00 AM GMT on August 01, 2016","2016","08","01","00","00","UTC","19.0","66.2","16.0","60.8","83","3.6","2.2","-9999.0","-9999.0","80","East","-9999.0","-9999.0","1014","29.95","-999","-999","-9999","-9999","-9999.00","-9999.00","Clear","clear","0","0","0","0","0","0","METAR UKKK 010000Z 08001MPS CAVOK 19/16 Q1014 R08/CLRD70 NOSIG"
"3:30 AM EEST on August 01, 2016","2016","08","01","03","30","Europe/Kiev","12:30 AM GMT on August 01, 2016","2016","08","01","00","30","UTC","19.0","66.2","16.0","60.8","83","3.6","2.2","-9999.0","-9999.0","0","Variable","-9999.0","-9999.0","1014","29.95","-999","-999","-9999","-9999","-9999.00","-9999.00","Clear","clear","0","0","0","0","0","0","METAR UKKK 010030Z VRB01MPS CAVOK 19/16 Q1014 R08/CLRD70 NOSIG"
"4:00 AM EEST on August 01, 2016","2016","08","01","04","00","Europe/Kiev","1:00 AM GMT on August 01, 2016","2016","08","01","01","00","UTC","22.0","71.6","16.0","60.8","69","7.2","4.5","-9999.0","-9999.0","180","South","-9999.0","-9999.0","1014","29.95","-999","-999","-9999","-9999","-9999.00","-9999.00","Clear","clear","0","0","0","0","0","0","METAR UKKK 010100Z 18002MPS 140V230 CAVOK 22/16 Q1014 R08/CLRD70 NOSIG"
"4:30 AM EEST on August 01, 2016","2016","08","01","04","30","Europe/Kiev","1:30 AM GMT on August 01, 2016","2016","08","01","01","30","UTC","22.0","71.6","16.0","60.8","69","7.2","4.5","-9999.0","-9999.0","190","South","-9999.0","-9999.0","1014","29.95","-999","-999","-9999","-9999","-9999.00","-9999.00","Clear","clear","0","0","0","0","0","0","METAR UKKK 010130Z 19002MPS 140V240 CAVOK 22/16 Q1014 R08/CLRD70 NOSIG"
"5:00 AM EEST on August 01, 2016","2016","08","01","05","00","Europe/Kiev","2:00 AM GMT on August 01, 2016","2016","08","01","02","00","UTC","22.0","71.6","16.0","60.8","69","7.2","4.5","-9999.0","-9999.0","180","South","-9999.0","-9999.0","1014","29.95","-999","-999","-9999","-9999","-9999.00","-9999.00","Clear","clear","0","0","0","0","0","0","METAR UKKK 010200Z 18002MPS 120V250 CAVOK 22/16 Q1014 R08/CLRD70 NOSIG"
"5:30 AM EEST on August 01, 2016","2016","08","01","05","30","Europe/Kiev","2:30 AM GMT on August 01, 2016","2016","08","01","02","30","UTC","22.0","71.6","16.0","60.8","69","7.2","4.5","-9999.0","-9999.0","180","South","-9999.0","-9999.0","1014","29.95","-999","-999","-9999","-9999","-9999.00","-9999.00","Clear","clear","0","0","0","0","0","0","METAR UKKK 010230Z 18002MPS 110V220 CAVOK 22/16 Q1014 R08/CLRD70 NOSIG"
"6:00 AM EEST on August 01, 2016","2016","08","01","06","00","Europe/Kiev","3:00 AM GMT on August 01, 2016","2016","08","01","03","00","UTC","20","67","17","63","84","7.2","4.5","","","190","South","20","12","1014","29.95","-999","-999","-9999","-9999","","","","","0","0","0","0","0","0","AAXX 01031 33345 42998 01902 10197 20174 39946 40140 53001 555 10019"
"6:00 AM EEST on August 01, 2016","2016","08","01","06","00","Europe/Kiev","3:00 AM GMT on August 01, 2016","2016","08","01","03","00","UTC","21.0","69.8","16.0","60.8","73","3.6","2.2","-9999.0","-9999.0","0","Variable","-9999.0","-9999.0","1014","29.95","-999","-999","-9999","-9999","-9999.00","-9999.00","Clear","clear","0","0","0","0","0","0","METAR UKKK 010300Z VRB01MPS CAVOK 21/16 Q1014 R08/CLRD70 NOSIG"
"6:30 AM EEST on August 01, 2016","2016","08","01","06","30","Europe/Kiev","3:30 AM GMT on August 01, 2016","2016","08","01","03","30","UTC","21.0","69.8","17.0","62.6","78","0.0","0.0","-9999.0","-9999.0","0","North","-9999.0","-9999.0","1014","29.95","-999","-999","-9999","-9999","-9999.00","-9999.00","Clear","clear","0","0","0","0","0","0","METAR UKKK 010330Z 00000MPS CAVOK 21/17 Q1014 R08/CLRD70 NOSIG"
"7:00 AM EEST on August 01, 2016","2016","08","01","07","00","Europe/Kiev","4:00 AM GMT on August 01, 2016","2016","08","01","04","00","UTC","22.0","71.6","17.0","62.6","73","0.0","0.0","-9999.0","-9999.0","0","North","-9999.0","-9999.0","1014","29.95","-999","-999","-9999","-9999","-9999.00","-9999.00","Clear","clear","0","0","0","0","0","0","METAR UKKK 010400Z 00000MPS CAVOK 22/17 Q1014 R08/CLRD70 NOSIG"
"7:30 AM EEST on August 01, 2016","2016","08","01","07","30","Europe/Kiev","4:30 AM GMT on August 01, 2016","2016","08","01","04","30","UTC","23.0","73.4","17.0","62.6","69","3.6","2.2","-9999.0","-9999.0","0","Variable","-9999.0","-9999.0","1014","29.95","-999","-999","-9999","-9999","-9999.00","-9999.00","Clear","clear","0","0","0","0","0","0","METAR UKKK 010430Z VRB01MPS CAVOK 23/17 Q1014 R08/CLRD70 NOSIG"
"8:00 AM EEST on August 01, 2016","2016","08","01","08","00","Europe/Kiev","5:00 AM GMT on August 01, 2016","2016","08","01","05","00","UTC","24.0","75.2","18.0","64.4","69","3.6","2.2","-9999.0","-9999.0","0","Variable","-9999.0","-9999.0","1014","29.95","-999","-999","-9999","-9999","-9999.00","-9999.00","Clear","clear","0","0","0","0","0","0","METAR UKKK 010500Z VRB01MPS CAVOK 24/18 Q1014 R08/CLRD70 NOSIG"
"8:30 AM EEST on August 01, 2016","2016","08","01","08","30","Europe/Kiev","5:30 AM GMT on August 01, 2016","2016","08","01","05","30","UTC","25.0","77.0","18.0","64.4","65","3.6","2.2","-9999.0","-9999.0","0","Variable","-9999.0","-9999.0","1014","29.95","-999","-999","-9999","-9999","-9999.00","-9999.00","Clear","clear","0","0","0","0","0","0","METAR UKKK 010530Z VRB01MPS CAVOK 25/18 Q1014 R08/CLRD70 NOSIG"
"9:00 AM EEST on August 01, 2016","2016","08","01","09","00","Europe/Kiev","6:00 AM GMT on August 01, 2016","2016","08","01","06","00","UTC","25","76","18","64","58","10.8","6.7","","","200","SSW","20","12","1014","29.94","-999","-999","-9999","-9999","","","","","0","0","0","0","0","0","AAXX 01061 33345 32998 02003 10247 20177 39946 40137 54000 333 20196 555 10035"
"9:00 AM EEST on August 01, 2016","2016","08","01","09","00","Europe/Kiev","6:00 AM GMT on August 01, 2016","2016","08","01","06","00","UTC","26.0","78.8","19.0","66.2","65","3.6","2.2","-9999.0","-9999.0","0","Variable","-9999.0","-9999.0","1014","29.95","-999","-999","-9999","-9999","-9999.00","-9999.00","Clear","clear","0","0","0","0","0","0","METAR UKKK 010600Z VRB01MPS CAVOK 26/19 Q1014 R08/CLRD70 NOSIG"
"9:30 AM EEST on August 01, 2016","2016","08","01","09","30","Europe/Kiev","6:30 AM GMT on August 01, 2016","2016","08","01","06","30","UTC","27.0","80.6","18.0","64.4","58","7.2","4.5","-9999.0","-9999.0","150","SSE","-9999.0","-9999.0","1014","29.95","-999","-999","27.9","82.3","-9999.00","-9999.00","Clear","clear","0","0","0","0","0","0","METAR UKKK 010630Z 15002MPS 100V210 CAVOK 27/18 Q1014 R08/CLRD70 NOSIG"
"10:00 AM EEST on August 01, 2016","2016","08","01","10","00","Europe/Kiev","7:00 AM GMT on August 01, 2016","2016","08","01","07","00","UTC","27.0","80.6","18.0","64.4","58","7.2","4.5","-9999.0","-9999.0","140","SE","-9999.0","-9999.0","1014","29.95","-999","-999","27.9","82.3","-9999.00","-9999.00","Clear","clear","0","0","0","0","0","0","METAR UKKK 010700Z 14002MPS 100V180 CAVOK 27/18 Q1014 R08/CLRD70 NOSIG"
"10:30 AM EEST on August 01, 2016","2016","08","01","10","30","Europe/Kiev","7:30 AM GMT on August 01, 2016","2016","08","01","07","30","UTC","28.0","82.4","18.0","64.4","54","7.2","4.5","-9999.0","-9999.0","150","SSE","-9999.0","-9999.0","1014","29.95","-999","-999","28.8","83.9","-9999.00","-9999.00","Clear","clear","0","0","0","0","0","0","METAR UKKK 010730Z 15002MPS 100V190 CAVOK 28/18 Q1014 R08/CLRD70 NOSIG"
"11:00 AM EEST on August 01, 2016","2016","08","01","11","00","Europe/Kiev","8:00 AM GMT on August 01, 2016","2016","08","01","08","00","UTC","29.0","84.2","18.0","64.4","51","10.8","6.7","-9999.0","-9999.0","160","SSE","-9999.0","-9999.0","1014","29.95","-999","-999","29.8","85.6","-9999.00","-9999.00","Clear","clear","0","0","0","0","0","0","METAR UKKK 010800Z 16003MPS 120V210 CAVOK 29/18 Q1014 R08/CLRD70 NOSIG"
"11:30 AM EEST on August 01, 2016","2016","08","01","11","30","Europe/Kiev","8:30 AM GMT on August 01, 2016","2016","08","01","08","30","UTC","30.0","86.0","18.0","64.4","48","10.8","6.7","-9999.0","-9999.0","170","South","9.0","5.6","1014","29.95","-999","-999","30.7","87.3","-9999.00","-9999.00","Clear","clear","0","0","0","0","0","0","METAR UKKK 010830Z 17003MPS 120V260 9000 SKC 30/18 Q1014 R08/CLRD70 NOSIG"
"12:00 PM EEST on August 01, 2016","2016","08","01","12","00","Europe/Kiev","9:00 AM GMT on August 01, 2016","2016","08","01","09","00","UTC","30","87","18","65","38","7.2","4.5","","","170","South","20","12","1013","29.91","-999","-999","-9999","-9999","","","","","0","0","0","0","0","0","AAXX 01091 33345 42998 01702 10304 20184 39942 40129 58004 555 10053"
"12:00 PM EEST on August 01, 2016","2016","08","01","12","00","Europe/Kiev","9:00 AM GMT on August 01, 2016","2016","08","01","09","00","UTC","30.0","86.0","18.0","64.4","48","14.4","8.9","-9999.0","-9999.0","190","South","-9999.0","-9999.0","1014","29.95","-999","-999","30.7","87.3","-9999.00","-9999.00","Clear","clear","0","0","0","0","0","0","METAR UKKK 010900Z 19004MPS 110V240 CAVOK 30/18 Q1014 R08/CLRD70 NOSIG"
"12:30 PM EEST on August 01, 2016","2016","08","01","12","30","Europe/Kiev","9:30 AM GMT on August 01, 2016","2016","08","01","09","30","UTC","31.0","87.8","18.0","64.4","46","10.8","6.7","-9999.0","-9999.0","190","South","-9999.0","-9999.0","1013","29.92","-999","-999","31.9","89.4","-9999.00","-9999.00","Clear","clear","0","0","0","0","0","0","METAR UKKK 010930Z 19003MPS 130V240 CAVOK 31/18 Q1013 R08/CLRD70 NOSIG"
"1:00 PM EEST on August 01, 2016","2016","08","01","13","00","Europe/Kiev","10:00 AM GMT on August 01, 2016","2016","08","01","10","00","UTC","30.0","86.0","17.0","62.6","45","10.8","6.7","-9999.0","-9999.0","190","South","-9999.0","-9999.0","1013","29.92","-999","-999","30.3","86.6","-9999.00","-9999.00","Clear","clear","0","0","0","0","0","0","METAR UKKK 011000Z 19003MPS 140V230 CAVOK 30/17 Q1013 R08/CLRD70 NOSIG"
"1:30 PM EEST on August 01, 2016","2016","08","01","13","30","Europe/Kiev","10:30 AM GMT on August 01, 2016","2016","08","01","10","30","UTC","30.0","86.0","17.0","62.6","45","10.8","6.7","-9999.0","-9999.0","200","SSW","-9999.0","-9999.0","1013","29.92","-999","-999","30.3","86.6","-9999.00","-9999.00","Clear","clear","0","0","0","0","0","0","METAR UKKK 011030Z 20003MPS 140V260 CAVOK 30/17 Q1013 R08/CLRD70 NOSIG"
"2:00 PM EEST on August 01, 2016","2016","08","01","14","00","Europe/Kiev","11:00 AM GMT on August 01, 2016","2016","08","01","11","00","UTC","31.0","87.8","17.0","62.6","43","14.4","8.9","-9999.0","-9999.0","170","South","-9999.0","-9999.0","1013","29.92","-999","-999","31.4","88.5","-9999.00","-9999.00","Clear","clear","0","0","0","0","0","0","METAR UKKK 011100Z 17004MPS 120V240 CAVOK 31/17 Q1013 R08/CLRD70 NOSIG"
"2:30 PM EEST on August 01, 2016","2016","08","01","14","30","Europe/Kiev","11:30 AM GMT on August 01, 2016","2016","08","01","11","30","UTC","31.0","87.8","16.0","60.8","40","14.4","8.9","-9999.0","-9999.0","160","SSE","-9999.0","-9999.0","1013","29.92","-999","-999","30.9","87.6","-9999.00","-9999.00","Clear","clear","0","0","0","0","0","0","METAR UKKK 011130Z 16004MPS 120V220 CAVOK 31/16 Q1013 R08/CLRD70 NOSIG"
"3:00 PM EEST on August 01, 2016","2016","08","01","15","00","Europe/Kiev","12:00 PM GMT on August 01, 2016","2016","08","01","12","00","UTC","32","90","15","59","26","18.0","11.2","","","200","SSW","20","12","1012","29.88","-999","-999","-9999","-9999","","","Partly Cloudy","partlycloudy","0","0","0","0","0","0","AAXX 01121 33345 32698 32005 10325 20152 39933 40119 57009 83200 555 10054"
"3:00 PM EEST on August 01, 2016","2016","08","01","15","00","Europe/Kiev","12:00 PM GMT on August 01, 2016","2016","08","01","12","00","UTC","31.0","87.8","16.0","60.8","40","14.4","8.9","-9999.0","-9999.0","180","South","-9999.0","-9999.0","1013","29.92","-999","-999","30.9","87.6","-9999.00","-9999.00","Clear","clear","0","0","0","0","0","0","METAR UKKK 011200Z 18004MPS 120V230 CAVOK 31/16 Q1013 R08/CLRD70 NOSIG"
"3:30 PM EEST on August 01, 2016","2016","08","01","15","30","Europe/Kiev","12:30 PM GMT on August 01, 2016","2016","08","01","12","30","UTC","32.0","89.6","16.0","60.8","38","10.8","6.7","-9999.0","-9999.0","160","SSE","-9999.0","-9999.0","1013","29.92","-999","-999","31.9","89.5","-9999.00","-9999.00","Clear","clear","0","0","0","0","0","0","METAR UKKK 011230Z 16003MPS 120V210 CAVOK 32/16 Q1013 R08/CLRD70 NOSIG"
"4:00 PM EEST on August 01, 2016","2016","08","01","16","00","Europe/Kiev","1:00 PM GMT on August 01, 2016","2016","08","01","13","00","UTC","31.0","87.8","16.0","60.8","40","10.8","6.7","-9999.0","-9999.0","180","South","-9999.0","-9999.0","1012","29.89","-999","-999","30.9","87.6","-9999.00","-9999.00","Clear","clear","0","0","0","0","0","0","METAR UKKK 011300Z 18003MPS 140V230 CAVOK 31/16 Q1012 R08/CLRD70 NOSIG"
"4:30 PM EEST on August 01, 2016","2016","08","01","16","30","Europe/Kiev","1:30 PM GMT on August 01, 2016","2016","08","01","13","30","UTC","31.0","87.8","16.0","60.8","40","10.8","6.7","-9999.0","-9999.0","170","South","-9999.0","-9999.0","1012","29.89","-999","-999","30.9","87.6","-9999.00","-9999.00","Clear","clear","0","0","0","0","0","0","METAR UKKK 011330Z 17003MPS 130V210 CAVOK 31/16 Q1012 R26/CLRD70 NOSIG"
"5:00 PM EEST on August 01, 2016","2016","08","01","17","00","Europe/Kiev","2:00 PM GMT on August 01, 2016","2016","08","01","14","00","UTC","32.0","89.6","16.0","60.8","38","10.8","6.7","-9999.0","-9999.0","160","SSE","-9999.0","-9999.0","1012","29.89","-999","-999","31.9","89.5","-9999.00","-9999.00","Clear","clear","0","0","0","0","0","0","METAR UKKK 011400Z 16003MPS 120V210 CAVOK 32/16 Q1012 R08/CLRD70 NOSIG"
"5:30 PM EEST on August 01, 2016","2016","08","01","17","30","Europe/Kiev","2:30 PM GMT on August 01, 2016","2016","08","01","14","30","UTC","32.0","89.6","16.0","60.8","38","10.8","6.7","-9999.0","-9999.0","160","SSE","9.0","5.6","1012","29.89","-999","-999","31.9","89.5","-9999.00","-9999.00","Unknown","unknown","0","0","0","0","0","0","METAR UKKK 011430Z 16003MPS 110V220 9000 NSC 32/16 Q1012 R08/CLRD70 NOSIG"
"6:00 PM EEST on August 01, 2016","2016","08","01","18","00","Europe/Kiev","3:00 PM GMT on August 01, 2016","2016","08","01","15","00","UTC","32","90","15","59","25","14.4","8.9","","","210","SSW","20","12","1011","29.85","-999","-999","-9999","-9999","","","Scattered Clouds","partlycloudy","0","0","0","0","0","0","AAXX 01151 33345 42598 12104 10321 20148 39920 40106 57013 81200 555 10042"
"6:00 PM EEST on August 01, 2016","2016","08","01","18","00","Europe/Kiev","3:00 PM GMT on August 01, 2016","2016","08","01","15","00","UTC","32.0","89.6","16.0","60.8","38","14.4","8.9","-9999.0","-9999.0","170","South","-9999.0","-9999.0","1011","29.86","-999","-999","31.9","89.5","-9999.00","-9999.00","Clear","clear","0","0","0","0","0","0","METAR UKKK 011500Z 17004MPS 130V230 CAVOK 32/16 Q1011 R08/CLRD70 NOSIG"
"6:30 PM EEST on August 01, 2016","2016","08","01","18","30","Europe/Kiev","3:30 PM GMT on August 01, 2016","2016","08","01","15","30","UTC","32.0","89.6","16.0","60.8","38","10.8","6.7","-9999.0","-9999.0","180","South","-9999.0","-9999.0","1011","29.86","-999","-999","31.9","89.5","-9999.00","-9999.00","Clear","clear","0","0","0","0","0","0","METAR UKKK 011530Z 18003MPS 120V240 CAVOK 32/16 Q1011 R08/CLRD70 NOSIG"
"7:00 PM EEST on August 01, 2016","2016","08","01","19","00","Europe/Kiev","4:00 PM GMT on August 01, 2016","2016","08","01","16","00","UTC","31.0","87.8","15.0","59.0","38","10.8","6.7","-9999.0","-9999.0","160","SSE","-9999.0","-9999.0","1011","29.86","-999","-999","30.6","87.1","-9999.00","-9999.00","Clear","clear","0","0","0","0","0","0","METAR UKKK 011600Z 16003MPS 120V230 CAVOK 31/15 Q1011 R08/CLRD70 NOSIG"
"7:30 PM EEST on August 01, 2016","2016","08","01","19","30","Europe/Kiev","4:30 PM GMT on August 01, 2016","2016","08","01","16","30","UTC","30.0","86.0","16.0","60.8","43","7.2","4.5","-9999.0","-9999.0","150","SSE","-9999.0","-9999.0","1011","29.86","-999","-999","30.1","86.1","-9999.00","-9999.00","Clear","clear","0","0","0","0","0","0","METAR UKKK 011630Z 15002MPS 110V190 CAVOK 30/16 Q1011 R08/CLRD70 NOSIG"
"8:00 PM EEST on August 01, 2016","2016","08","01","20","00","Europe/Kiev","5:00 PM GMT on August 01, 2016","2016","08","01","17","00","UTC","29.0","84.2","17.0","62.6","48","10.8","6.7","-9999.0","-9999.0","120","ESE","-9999.0","-9999.0","1011","29.86","-999","-999","29.4","85.0","-9999.00","-9999.00","Clear","clear","0","0","0","0","0","0","METAR UKKK 011700Z 12003MPS CAVOK 29/17 Q1011 R08/CLRD70 NOSIG"
"8:30 PM EEST on August 01, 2016","2016","08","01","20","30","Europe/Kiev","5:30 PM GMT on August 01, 2016","2016","08","01","17","30","UTC","28.0","82.4","18.0","64.4","54","10.8","6.7","-9999.0","-9999.0","130","SE","-9999.0","-9999.0","1011","29.86","-999","-999","28.8","83.9","-9999.00","-9999.00","Clear","clear","0","0","0","0","0","0","METAR UKKK 011730Z 13003MPS CAVOK 28/18 Q1011 R08/CLRD70 NOSIG"
"9:00 PM EEST on August 01, 2016","2016","08","01","21","00","Europe/Kiev","6:00 PM GMT on August 01, 2016","2016","08","01","18","00","UTC","28","82","17","63","43","10.8","6.7","","","200","SSW","20","12","1011","29.86","-999","-999","-9999","-9999","","","","","0","0","0","0","0","0","AAXX 01181 33345 32998 02003 10276 20173 39922 40111 53002 333 10328 555 10026"
"9:00 PM EEST on August 01, 2016","2016","08","01","21","00","Europe/Kiev","6:00 PM GMT on August 01, 2016","2016","08","01","18","00","UTC","27.0","80.6","18.0","64.4","58","10.8","6.7","-9999.0","-9999.0","130","SE","-9999.0","-9999.0","1012","29.89","-999","-999","27.9","82.3","-9999.00","-9999.00","Clear","clear","0","0","0","0","0","0","METAR UKKK 011800Z 13003MPS CAVOK 27/18 Q1012 R08/CLRD70 NOSIG"
"9:30 PM EEST on August 01, 2016","2016","08","01","21","30","Europe/Kiev","6:30 PM GMT on August 01, 2016","2016","08","01","18","30","UTC","26.0","78.8","18.0","64.4","61","7.2","4.5","-9999.0","-9999.0","120","ESE","-9999.0","-9999.0","1012","29.89","-999","-999","-9999","-9999","-9999.00","-9999.00","Clear","clear","0","0","0","0","0","0","METAR UKKK 011830Z 12002MPS CAVOK 26/18 Q1012 R08/CLRD70 NOSIG"
"10:00 PM EEST on August 01, 2016","2016","08","01","22","00","Europe/Kiev","7:00 PM GMT on August 01, 2016","2016","08","01","19","00","UTC","26.0","78.8","18.0","64.4","61","10.8","6.7","-9999.0","-9999.0","130","SE","-9999.0","-9999.0","1011","29.86","-999","-999","-9999","-9999","-9999.00","-9999.00","Clear","clear","0","0","0","0","0","0","METAR UKKK 011900Z 13003MPS CAVOK 26/18 Q1011 R08/CLRD70 NOSIG"
"10:30 PM EEST on August 01, 2016","2016","08","01","22","30","Europe/Kiev","7:30 PM GMT on August 01, 2016","2016","08","01","19","30","UTC","26.0","78.8","18.0","64.4","61","10.8","6.7","-9999.0","-9999.0","130","SE","-9999.0","-9999.0","1011","29.86","-999","-999","-9999","-9999","-9999.00","-9999.00","Clear","clear","0","0","0","0","0","0","METAR UKKK 011930Z 13003MPS CAVOK 26/18 Q1011 R08/CLRD70 NOSIG"
"11:00 PM EEST on August 01, 2016","2016","08","01","23","00","Europe/Kiev","8:00 PM GMT on August 01, 2016","2016","08","01","20","00","UTC","26.0","78.8","17.0","62.6","57","10.8","6.7","-9999.0","-9999.0","140","SE","-9999.0","-9999.0","1011","29.86","-999","-999","-9999","-9999","-9999.00","-9999.00","Clear","clear","0","0","0","0","0","0","METAR UKKK 012000Z 14003MPS 100V170 CAVOK 26/17 Q1011 R08/CLRD70 NOSIG"
"11:30 PM EEST on August 01, 2016","2016","08","01","23","30","Europe/Kiev","8:30 PM GMT on August 01, 2016","2016","08","01","20","30","UTC","25.0","77.0","17.0","62.6","61","10.8","6.7","-9999.0","-9999.0","150","SSE","-9999.0","-9999.0","1011","29.86","-999","-999","-9999","-9999","-9999.00","-9999.00","Clear","clear","0","0","0","0","0","0","METAR UKKK 012030Z 15003MPS 120V190 CAVOK 25/17 Q1011 R08/CLRD70 NOSIG"
"12:00 AM EEST on August 02, 2016","2016","08","02","00","00","Europe/Kiev","9:00 PM GMT on August 01, 2016","2016","08","01","21","00","UTC","24","75","18","64","62","7.2","4.5","","","190","South","20","12","1011","29.86","-999","-999","-9999","-9999","","","","","0","0","0","0","0","0","AAXX 01211 33345 42998 01902 10240 20180 39921 40112 58001 555 10022"
"12:00 AM EEST on August 02, 2016","2016","08","02","00","00","Europe/Kiev","9:00 PM GMT on August 01, 2016","2016","08","01","21","00","UTC","25.0","77.0","17.0","62.6","61","10.8","6.7","-9999.0","-9999.0","140","SE","-9999.0","-9999.0","1011","29.86","-999","-999","-9999","-9999","-9999.00","-9999.00","Clear","clear","0","0","0","0","0","0","METAR UKKK 012100Z 14003MPS 110V180 CAVOK 25/17 Q1011 R08/CLRD70 NOSIG"
"12:30 AM EEST on August 02, 2016","2016","08","02","00","30","Europe/Kiev","9:30 PM GMT on August 01, 2016","2016","08","01","21","30","UTC","25.0","77.0","17.0","62.6","61","10.8","6.7","-9999.0","-9999.0","150","SSE","-9999.0","-9999.0","1011","29.86","-999","-999","-9999","-9999","-9999.00","-9999.00","Clear","clear","0","0","0","0","0","0","METAR UKKK 012130Z 15003MPS 100V180 CAVOK 25/17 Q1011 R08/CLRD70 NOSIG"
"1:00 AM EEST on August 02, 2016","2016","08","02","01","00","Europe/Kiev","10:00 PM GMT on August 01, 2016","2016","08","01","22","00","UTC","25.0","77.0","17.0","62.6","61","7.2","4.5","-9999.0","-9999.0","140","SE","-9999.0","-9999.0","1011","29.86","-999","-999","-9999","-9999","-9999.00","-9999.00","Clear","clear","0","0","0","0","0","0","METAR UKKK 012200Z 14002MPS 110V190 CAVOK 25/17 Q1011 R08/CLRD70 NOSIG"
"1:24 AM EEST on August 02, 2016","2016","08","02","01","24","Europe/Kiev","10:24 PM GMT on August 01, 2016","2016","08","01","22","24","UTC","24.0","75.2","18.0","64.4","69","18.0","11.2","-9999.0","-9999.0","300","WNW","-9999.0","-9999.0","1012","29.89","-999","-999","-9999","-9999","-9999.00","-9999.00","Clear","clear","0","0","0","0","0","0","SPECI UKKK 012224Z 30005MPS CAVOK 24/18 Q1012 R08/CLRD70 NOSIG"
"1:30 AM EEST on August 02, 2016","2016","08","02","01","30","Europe/Kiev","10:30 PM GMT on August 01, 2016","2016","08","01","22","30","UTC","24.0","75.2","17.0","62.6","65","10.8","6.7","-9999.0","-9999.0","300","WNW","-9999.0","-9999.0","1012","29.89","-999","-999","-9999","-9999","-9999.00","-9999.00","Clear","clear","0","0","0","0","0","0","METAR UKKK 012230Z 30003MPS CAVOK 24/17 Q1012 R08/CLRD70 NOSIG"
"2:00 AM EEST on August 02, 2016","2016","08","02","02","00","Europe/Kiev","11:00 PM GMT on August 01, 2016","2016","08","01","23","00","UTC","22.0","71.6","17.0","62.6","73","7.2","4.5","-9999.0","-9999.0","50","NE","-9999.0","-9999.0","1012","29.89","-999","-999","-9999","-9999","-9999.00","-9999.00","Clear","clear","0","0","0","0","0","0","METAR UKKK 012300Z 05002MPS CAVOK 22/17 Q1012 R08/CLRD70 TEMPO VRB09G14MPS 2100 -TSRA SCT025CB"
"2:30 AM EEST on August 02, 2016","2016","08","02","02","30","Europe/Kiev","11:30 PM GMT on August 01, 2016","2016","08","01","23","30","UTC","22.0","71.6","18.0","64.4","78","0.0","0.0","-9999.0","-9999.0","0","North","10.0","6.2","1012","29.89","-999","-999","-9999","-9999","-9999.00","-9999.00","Mostly Cloudy","mostlycloudy","0","0","0","0","0","0","METAR UKKK 012330Z 00000MPS 9999 SCT030CB BKN080 22/18 Q1012 R08/CLRD70 TEMPO VRB09G14MPS 2100 -TSRA SCT025CB"
"2:36 AM EEST on August 02, 2016","2016","08","02","02","36","Europe/Kiev","11:36 PM GMT on August 01, 2016","2016","08","01","23","36","UTC","22.0","71.6","18.0","64.4","78","3.6","2.2","-9999.0","-9999.0","0","Variable","10.0","6.2","1012","29.89","-999","-999","-9999","-9999","-9999.00","-9999.00","Mostly Cloudy","mostlycloudy","0","0","0","0","1","0","SPECI UKKK 012336Z VRB01MPS 9999 VCTS SCT030CB BKN080 22/18 Q1012 R08/CLRD70 TEMPO VRB11G18MPS 0500 +TSRAGR BKN002 BKN020CB"
"3:00 AM EEST on August 02, 2016","2016","08","02","03","00","Europe/Kiev","12:00 AM GMT on August 02, 2016","2016","08","02","00","00","UTC","23","73","17","63","64","0.0","0.0","","","","","20","12","1012","29.87","-999","-999","-9999","-9999","","","Partly Cloudy","partlycloudy","0","0","0","0","0","0","AAXX 02001 33345 31598 50000 10230 20174 39923 40115 53002 70291 82301 555 10022"
"3:00 AM EEST on August 02, 2016","2016","08","02","03","00","Europe/Kiev","12:00 AM GMT on August 02, 2016","2016","08","02","00","00","UTC","23.0","73.4","18.0","64.4","73","7.2","4.5","-9999.0","-9999.0","110","ESE","10.0","6.2","1012","29.89","-999","-999","-9999","-9999","-9999.00","-9999.00","Mostly Cloudy","mostlycloudy","0","0","0","0","1","0","METAR UKKK 020000Z 11002MPS 9999 VCTS SCT030CB BKN080 23/18 Q1012 R08/CLRD70 TEMPO VRB11G18MPS 0500 +TSRAGR BKN002 BKN020CB"
"3:02 AM EEST on August 02, 2016","2016","08","02","03","02","Europe/Kiev","12:02 AM GMT on August 02, 2016","2016","08","02","00","02","UTC","23.0","73.4","18.0","64.4","73","7.2","4.5","-9999.0","-9999.0","100","East","10.0","6.2","1012","29.89","-999","-999","-9999","-9999","-9999.00","-9999.00","Thunderstorm","tstorms","0","0","0","0","1","0","SPECI UKKK 020002Z 10002MPS 9999 TS SCT030CB BKN080 23/18 Q1012 R08/CLRD70 TEMPO VRB11G18MPS 0500 +TSRAGR BKN002 BKN020CB"
"3:30 AM EEST on August 02, 2016","2016","08","02","03","30","Europe/Kiev","12:30 AM GMT on August 02, 2016","2016","08","02","00","30","UTC","22.0","71.6","18.0","64.4","78","7.2","4.5","-9999.0","-9999.0","40","NE","10.0","6.2","1012","29.89","-999","-999","-9999","-9999","-9999.00","-9999.00","Thunderstorm","tstorms","0","0","0","0","1","0","METAR UKKK 020030Z 04002MPS 9999 TS SCT030CB BKN100 22/18 Q1012 R08/CLRD70 TEMPO VRB11G18MPS 0500 +TSRAGR BKN002 BKN020CB"
"3:38 AM EEST on August 02, 2016","2016","08","02","03","38","Europe/Kiev","12:38 AM GMT on August 02, 2016","2016","08","02","00","38","UTC","22.0","71.6","18.0","64.4","78","0.0","0.0","-9999.0","-9999.0","0","North","10.0","6.2","1012","29.89","-999","-999","-9999","-9999","-9999.00","-9999.00","Mostly Cloudy","mostlycloudy","0","0","0","0","1","0","SPECI UKKK 020038Z 00000MPS 9999 VCTS SCT030CB BKN100 22/18 Q1012 RETS R08/CLRD70 TEMPO VRB11G18MPS 0500 +TSRAGR BKN002 BKN020CB"
"4:00 AM EEST on August 02, 2016","2016","08","02","04","00","Europe/Kiev","1:00 AM GMT on August 02, 2016","2016","08","02","01","00","UTC","22.0","71.6","18.0","64.4","78","10.8","6.7","-9999.0","-9999.0","240","WSW","10.0","6.2","1012","29.89","-999","-999","-9999","-9999","-9999.00","-9999.00","Mostly Cloudy","mostlycloudy","0","0","0","0","0","0","METAR UKKK 020100Z 24003MPS 200V270 9999 SCT033CB BKN100 22/18 Q1012 R08/CLRD70 TEMPO VRB11G18MPS 0500 +TSRAGR BKN002 BKN020CB"
"4:30 AM EEST on August 02, 2016","2016","08","02","04","30","Europe/Kiev","1:30 AM GMT on August 02, 2016","2016","08","02","01","30","UTC","21.0","69.8","19.0","66.2","88","21.6","13.4","-9999.0","-9999.0","290","WNW","10.0","6.2","1012","29.89","-999","-999","-9999","-9999","-9999.00","-9999.00","Mostly Cloudy","mostlycloudy","0","0","0","0","0","0","METAR UKKK 020130Z 29006MPS 9999 FEW033CB BKN100 21/19 Q1012 R08/CLRD70 TEMPO VRB11G18MPS 0500 +TSRAGR BKN002 BKN020CB"
"5:00 AM EEST on August 02, 2016","2016","08","02","05","00","Europe/Kiev","2:00 AM GMT on August 02, 2016","2016","08","02","02","00","UTC","20.0","68.0","18.0","64.4","88","21.6","13.4","-9999.0","-9999.0","320","NW","10.0","6.2","1012","29.89","-999","-999","-9999","-9999","-9999.00","-9999.00","Mostly Cloudy","mostlycloudy","0","0","0","0","0","0","METAR UKKK 020200Z 32006MPS 9999 FEW033CB BKN100 20/18 Q1012 R08/CLRD70 TEMPO VRB11G18MPS 0500 +TSRAGR BKN002 BKN020CB"
"5:30 AM EEST on August 02, 2016","2016","08","02","05","30","Europe/Kiev","2:30 AM GMT on August 02, 2016","2016","08","02","02","30","UTC","20.0","68.0","18.0","64.4","88","14.4","8.9","-9999.0","-9999.0","290","WNW","-9999.0","-9999.0","1012","29.89","-999","-999","-9999","-9999","-9999.00","-9999.00","Clear","clear","0","0","0","0","0","0","METAR UKKK 020230Z 29004MPS 250V320 CAVOK 20/18 Q1012 R08/CLRD70 TEMPO VRB11G18MPS 0500 +TSRAGR BKN002 BKN020CB"
"6:00 AM EEST on August 02, 2016","2016","08","02","06","00","Europe/Kiev","3:00 AM GMT on August 02, 2016","2016","08","02","03","00","UTC","21","69","18","65","82","7.2","4.5","","","350","North","20","12","1012","29.90","-999","-999","-9999","-9999","","","Partly Cloudy","partlycloudy","0","0","0","0","0","0","AAXX 02031 33345 41698 63502 10206 20182 39932 40125 52009 70292 82540 555 10021"
"6:00 AM EEST on August 02, 2016","2016","08","02","06","00","Europe/Kiev","3:00 AM GMT on August 02, 2016","2016","08","02","03","00","UTC","20.0","68.0","18.0","64.4","88","14.4","8.9","-9999.0","-9999.0","310","NW","-9999.0","-9999.0","1013","29.92","-999","-999","-9999","-9999","-9999.00","-9999.00","Clear","clear","0","0","0","0","0","0","METAR UKKK 020300Z 31004MPS CAVOK 20/18 Q1013 R26/CLRD70 NOSIG"
"6:30 AM EEST on August 02, 2016","2016","08","02","06","30","Europe/Kiev","3:30 AM GMT on August 02, 2016","2016","08","02","03","30","UTC","20.0","68.0","18.0","64.4","88","10.8","6.7","-9999.0","-9999.0","20","NNE","-9999.0","-9999.0","1012","29.89","-999","-999","-9999","-9999","-9999.00","-9999.00","Clear","clear","0","0","0","0","0","0","METAR UKKK 020330Z 02003MPS 340V060 CAVOK 20/18 Q1012 R26/CLRD70 NOSIG"
"7:00 AM EEST on August 02, 2016","2016","08","02","07","00","Europe/Kiev","4:00 AM GMT on August 02, 2016","2016","08","02","04","00","UTC","21.0","69.8","18.0","64.4","83","10.8","6.7","-9999.0","-9999.0","10","North","-9999.0","-9999.0","1012","29.89","-999","-999","-9999","-9999","-9999.00","-9999.00","Clear","clear","0","0","0","0","0","0","METAR UKKK 020400Z 01003MPS 330V050 CAVOK 21/18 Q1012 R26/CLRD70 NOSIG"
"7:30 AM EEST on August 02, 2016","2016","08","02","07","30","Europe/Kiev","4:30 AM GMT on August 02, 2016","2016","08","02","04","30","UTC","21.0","69.8","18.0","64.4","83","10.8","6.7","-9999.0","-9999.0","40","NE","-9999.0","-9999.0","1012","29.89","-999","-999","-9999","-9999","-9999.00","-9999.00","Clear","clear","0","0","0","0","0","0","METAR UKKK 020430Z 04003MPS 010V080 CAVOK 21/18 Q1012 R26/CLRD70 NOSIG"
"8:00 AM EEST on August 02, 2016","2016","08","02","08","00","Europe/Kiev","5:00 AM GMT on August 02, 2016","2016","08","02","05","00","UTC","22.0","71.6","19.0","66.2","83","3.6","2.2","-9999.0","-9999.0","0","Variable","-9999.0","-9999.0","1013","29.92","-999","-999","-9999","-9999","-9999.00","-9999.00","Clear","clear","0","0","0","0","0","0","METAR UKKK 020500Z VRB01MPS CAVOK 22/19 Q1013 R26/CLRD70 NOSIG"
"8:23 AM EEST on August 02, 2016","2016","08","02","08","23","Europe/Kiev","5:23 AM GMT on August 02, 2016","2016","08","02","05","23","UTC","22.0","71.6","19.0","66.2","83","7.2","4.5","-9999.0","-9999.0","320","NW","10.0","6.2","1013","29.92","-999","-999","-9999","-9999","-9999.00","-9999.00","Mostly Cloudy","mostlycloudy","0","0","0","0","1","0","SPECI UKKK 020523Z 32002MPS 290V010 9999 VCTS SCT030CB BKN100 22/19 Q1013 R26/CLRD70 TEMPO VRB11G17MPS 2100 -TSRA SCT020CB"
"8:30 AM EEST on August 02, 2016","2016","08","02","08","30","Europe/Kiev","5:30 AM GMT on August 02, 2016","2016","08","02","05","30","UTC","22.0","71.6","19.0","66.2","83","7.2","4.5","-9999.0","-9999.0","300","WNW","10.0","6.2","1013","29.92","-999","-999","-9999","-9999","-9999.00","-9999.00","Light Rain Showers","rain","0","1","0","0","1","0","METAR UKKK 020530Z 30002MPS 270V340 9999 VCTS -SHRA SCT030CB BKN100 22/19 Q1013 R26/CLRD70 TEMPO VRB11G17MPS 2100 -TSRA SCT020CB"
"9:00 AM EEST on August 02, 2016","2016","08","02","09","00","Europe/Kiev","6:00 AM GMT on August 02, 2016","2016","08","02","06","00","UTC","23","73","19","66","72","7.2","4.5","","","320","NW","20","12","1012","29.90","-999","-999","-9999","-9999","","","Partly Cloudy","partlycloudy","0","0","0","0","0","0","AAXX 02061 33345 31998 73202 10227 20188 39932 40124 54000 70292 87040 333 20205 555 10031"
"9:00 AM EEST on August 02, 2016","2016","08","02","09","00","Europe/Kiev","6:00 AM GMT on August 02, 2016","2016","08","02","06","00","UTC","22.0","71.6","19.0","66.2","83","14.4","8.9","-9999.0","-9999.0","280","West","10.0","6.2","1013","29.92","-999","-999","-9999","-9999","-9999.00","-9999.00","Mostly Cloudy","mostlycloudy","0","0","0","0","0","0","METAR UKKK 020600Z 28004MPS 9999 FEW030CB BKN100 22/19 Q1013 R26/CLRD70 TEMPO VRB11G17MPS 2100 -TSRA SCT020CB"
"9:30 AM EEST on August 02, 2016","2016","08","02","09","30","Europe/Kiev","6:30 AM GMT on August 02, 2016","2016","08","02","06","30","UTC","23.0","73.4","20.0","68.0","83","10.8","6.7","-9999.0","-9999.0","280","West","-9999.0","-9999.0","1013","29.92","-999","-999","-9999","-9999","-9999.00","-9999.00","Clear","clear","0","0","0","0","0","0","METAR UKKK 020630Z 28003MPS CAVOK 23/20 Q1013 R26/CLRD70 TEMPO VRB11G17MPS 2100 -TSRA SCT020CB"
"10:00 AM EEST on August 02, 2016","2016","08","02","10","00","Europe/Kiev","7:00 AM GMT on August 02, 2016","2016","08","02","07","00","UTC","24.0","75.2","20.0","68.0","78","14.4","8.9","-9999.0","-9999.0","300","WNW","10.0","6.2","1013","29.92","-999","-999","-9999","-9999","-9999.00","-9999.00","Mostly Cloudy","mostlycloudy","0","0","0","0","0","0","METAR UKKK 020700Z 30004MPS 260V340 9999 FEW013 SCT030CB BKN100 24/20 Q1013 R26/CLRD70 TEMPO VRB11G17MPS 2100 -TSRA SCT020CB"
"10:30 AM EEST on August 02, 2016","2016","08","02","10","30","Europe/Kiev","7:30 AM GMT on August 02, 2016","2016","08","02","07","30","UTC","23.0","73.4","20.0","68.0","83","18.0","11.2","-9999.0","-9999.0","290","WNW","10.0","6.2","1013","29.92","-999","-999","-9999","-9999","-9999.00","-9999.00","Mostly Cloudy","mostlycloudy","0","0","0","0","0","0","METAR UKKK 020730Z 29005MPS 9999 FEW014 SCT030CB BKN100 23/20 Q1013 R26/CLRD70 TEMPO VRB11G17MPS 2100 -TSRA SCT020CB"
"11:00 AM EEST on August 02, 2016","2016","08","02","11","00","Europe/Kiev","8:00 AM GMT on August 02, 2016","2016","08","02","08","00","UTC","23.0","73.4","19.0","66.2","78","14.4","8.9","-9999.0","-9999.0","300","WNW","10.0","6.2","1013","29.92","-999","-999","-9999","-9999","-9999.00","-9999.00","Mostly Cloudy","mostlycloudy","0","0","0","0","0","0","METAR UKKK 020800Z 30004MPS 9999 SCT016 BKN100 23/19 Q1013 R26/CLRD70 NOSIG"
"11:30 AM EEST on August 02, 2016","2016","08","02","11","30","Europe/Kiev","8:30 AM GMT on August 02, 2016","2016","08","02","08","30","UTC","24.0","75.2","19.0","66.2","73","14.4","8.9","-9999.0","-9999.0","320","NW","10.0","6.2","1013","29.92","-999","-999","-9999","-9999","-9999.00","-9999.00","Mostly Cloudy","mostlycloudy","0","0","0","0","0","0","METAR UKKK 020830Z 32004MPS 290V350 9999 SCT017 BKN100 24/19 Q1013 R26/CLRD70 NOSIG"
"12:00 PM EEST on August 02, 2016","2016","08","02","12","00","Europe/Kiev","9:00 AM GMT on August 02, 2016","2016","08","02","09","00","UTC","25","76","19","66","64","10.8","6.7","","","10","North","20","12","1013","29.91","-999","-999","-9999","-9999","","","Mostly Cloudy","mostlycloudy","0","0","0","0","0","0","AAXX 02091 33345 42598 70103 10247 20189 39938 40129 53006 85879 555 10050"
"12:00 PM EEST on August 02, 2016","2016","08","02","12","00","Europe/Kiev","9:00 AM GMT on August 02, 2016","2016","08","02","09","00","UTC","25.0","77.0","20.0","68.0","74","14.4","8.9","-9999.0","-9999.0","300","WNW","10.0","6.2","1013","29.92","-999","-999","-9999","-9999","-9999.00","-9999.00","Mostly Cloudy","mostlycloudy","0","0","0","0","0","0","METAR UKKK 020900Z 30004MPS 250V340 9999 SCT019 BKN100 25/20 Q1013 R26/CLRD70 NOSIG"
"12:30 PM EEST on August 02, 2016","2016","08","02","12","30","Europe/Kiev","9:30 AM GMT on August 02, 2016","2016","08","02","09","30","UTC","25.0","77.0","19.0","66.2","69","14.4","8.9","-9999.0","-9999.0","300","WNW","10.0","6.2","1013","29.92","-999","-999","-9999","-9999","-9999.00","-9999.00","Mostly Cloudy","mostlycloudy","0","0","0","0","0","0","METAR UKKK 020930Z 30004MPS 9999 SCT019 BKN100 25/19 Q1013 R26/CLRD70 NOSIG"
"1:00 PM EEST on August 02, 2016","2016","08","02","13","00","Europe/Kiev","10:00 AM GMT on August 02, 2016","2016","08","02","10","00","UTC","26.0","78.8","19.0","66.2","65","18.0","11.2","-9999.0","-9999.0","310","NW","10.0","6.2","1013","29.92","-999","-999","-9999","-9999","-9999.00","-9999.00","Mostly Cloudy","mostlycloudy","0","0","0","0","0","0","METAR UKKK 021000Z 31005MPS 9999 SCT019 BKN100 26/19 Q1013 R26/CLRD70 NOSIG"
"1:30 PM EEST on August 02, 2016","2016","08","02","13","30","Europe/Kiev","10:30 AM GMT on August 02, 2016","2016","08","02","10","30","UTC","26.0","78.8","19.0","66.2","65","14.4","8.9","-9999.0","-9999.0","320","NW","10.0","6.2","1013","29.92","-999","-999","-9999","-9999","-9999.00","-9999.00","Mostly Cloudy","mostlycloudy","0","0","0","0","0","0","METAR UKKK 021030Z 32004MPS 270V350 9999 SCT025 BKN100 26/19 Q1013 R26/CLRD70 NOSIG"
"2:00 PM EEST on August 02, 2016","2016","08","02","14","00","Europe/Kiev","11:00 AM GMT on August 02, 2016","2016","08","02","11","00","UTC","27.0","80.6","18.0","64.4","58","14.4","8.9","-9999.0","-9999.0","340","NNW","10.0","6.2","1013","29.92","-999","-999","27.9","82.3","-9999.00","-9999.00","Mostly Cloudy","mostlycloudy","0","0","0","0","0","0","METAR UKKK 021100Z 34004MPS 310V010 9999 BKN034 27/18 Q1013 R26/CLRD70 NOSIG"
"2:30 PM EEST on August 02, 2016","2016","08","02","14","30","Europe/Kiev","11:30 AM GMT on August 02, 2016","2016","08","02","11","30","UTC","27.0","80.6","18.0","64.4","58","14.4","8.9","-9999.0","-9999.0","340","NNW","10.0","6.2","1013","29.92","-999","-999","27.9","82.3","-9999.00","-9999.00","Mostly Cloudy","mostlycloudy","0","0","0","0","0","0","METAR UKKK 021130Z 34004MPS 300V020 9999 BKN034 27/18 Q1013 R26/CLRD70 NOSIG"
"3:00 PM EEST on August 02, 2016","2016","08","02","15","00","Europe/Kiev","12:00 PM GMT on August 02, 2016","2016","08","02","12","00","UTC","27","81","18","65","48","7.2","4.5","","","30","NNE","20","12","1012","29.89","-999","-999","-9999","-9999","","","Mostly Cloudy","mostlycloudy","0","0","0","0","0","0","AAXX 02121 33345 32598 60302 10274 20182 39931 40120 58007 86902 555 10050"
"3:00 PM EEST on August 02, 2016","2016","08","02","15","00","Europe/Kiev","12:00 PM GMT on August 02, 2016","2016","08","02","12","00","UTC","28.0","82.4","18.0","64.4","54","21.6","13.4","-9999.0","-9999.0","330","NNW","10.0","6.2","1013","29.92","-999","-999","28.8","83.9","-9999.00","-9999.00","Mostly Cloudy","mostlycloudy","0","0","0","0","0","0","METAR UKKK 021200Z 33006MPS 9999 BKN036 28/18 Q1013 R26/CLRD70 NOSIG"
"3:30 PM EEST on August 02, 2016","2016","08","02","15","30","Europe/Kiev","12:30 PM GMT on August 02, 2016","2016","08","02","12","30","UTC","27.0","80.6","18.0","64.4","58","21.6","13.4","-9999.0","-9999.0","330","NNW","-9999.0","-9999.0","1013","29.92","-999","-999","27.9","82.3","-9999.00","-9999.00","Clear","clear","0","0","0","0","0","0","METAR UKKK 021230Z 33006MPS 290V350 CAVOK 27/18 Q1013 R26/CLRD70 NOSIG"
"4:00 PM EEST on August 02, 2016","2016","08","02","16","00","Europe/Kiev","1:00 PM GMT on August 02, 2016","2016","08","02","13","00","UTC","28.0","82.4","18.0","64.4","54","18.0","11.2","-9999.0","-9999.0","350","North","10.0","6.2","1013","29.92","-999","-999","28.8","83.9","-9999.00","-9999.00","Mostly Cloudy","mostlycloudy","0","0","0","0","0","0","METAR UKKK 021300Z 35005MPS 310V020 9999 BKN036 28/18 Q1013 R26/CLRD70 NOSIG"
"4:30 PM EEST on August 02, 2016","2016","08","02","16","30","Europe/Kiev","1:30 PM GMT on August 02, 2016","2016","08","02","13","30","UTC","27.0","80.6","18.0","64.4","58","10.8","6.7","-9999.0","-9999.0","350","North","10.0","6.2","1012","29.89","-999","-999","27.9","82.3","-9999.00","-9999.00","Mostly Cloudy","mostlycloudy","0","0","0","0","0","0","METAR UKKK 021330Z 35003MPS 310V050 9999 BKN036 27/18 Q1012 R26/CLRD70 NOSIG"
"5:00 PM EEST on August 02, 2016","2016","08","02","17","00","Europe/Kiev","2:00 PM GMT on August 02, 2016","2016","08","02","14","00","UTC","27.0","80.6","18.0","64.4","58","14.4","8.9","-9999.0","-9999.0","360","North","10.0","6.2","1012","29.89","-999","-999","27.9","82.3","-9999.00","-9999.00","Mostly Cloudy","mostlycloudy","0","0","0","0","0","0","METAR UKKK 021400Z 36004MPS 9999 BKN036 27/18 Q1012 R26/CLRD70 NOSIG"
"5:30 PM EEST on August 02, 2016","2016","08","02","17","30","Europe/Kiev","2:30 PM GMT on August 02, 2016","2016","08","02","14","30","UTC","26.0","78.8","18.0","64.4","61","21.6","13.4","-9999.0","-9999.0","340","NNW","10.0","6.2","1012","29.89","-999","-999","-9999","-9999","-9999.00","-9999.00","Mostly Cloudy","mostlycloudy","0","0","0","0","0","0","METAR UKKK 021430Z 34006MPS 9999 BKN036 26/18 Q1012 R26/CLRD70 NOSIG"
"6:00 PM EEST on August 02, 2016","2016","08","02","18","00","Europe/Kiev","3:00 PM GMT on August 02, 2016","2016","08","02","15","00","UTC","26","79","18","65","52","14.4","8.9","","","350","North","20","12","1012","29.87","-999","-999","-9999","-9999","","","Mostly Cloudy","mostlycloudy","0","0","0","0","0","0","AAXX 02151 33345 42498 63504 10261 20181 39925 40115 57006 85934 555 10039"
"6:00 PM EEST on August 02, 2016","2016","08","02","18","00","Europe/Kiev","3:00 PM GMT on August 02, 2016","2016","08","02","15","00","UTC","25.0","77.0","18.0","64.4","65","21.6","13.4","-9999.0","-9999.0","330","NNW","10.0","6.2","1012","29.89","-999","-999","-9999","-9999","-9999.00","-9999.00","Mostly Cloudy","mostlycloudy","0","0","0","0","0","0","METAR UKKK 021500Z 33006MPS 9999 BKN031 25/18 Q1012 R26/CLRD70 NOSIG"
"6:30 PM EEST on August 02, 2016","2016","08","02","18","30","Europe/Kiev","3:30 PM GMT on August 02, 2016","2016","08","02","15","30","UTC","25.0","77.0","18.0","64.4","65","18.0","11.2","-9999.0","-9999.0","350","North","10.0","6.2","1012","29.89","-999","-999","-9999","-9999","-9999.00","-9999.00","Mostly Cloudy","mostlycloudy","0","0","0","0","0","0","METAR UKKK 021530Z 35005MPS 320V030 9999 FEW028CB BKN040 25/18 Q1012 R26/CLRD70 NOSIG"
"7:00 PM EEST on August 02, 2016","2016","08","02","19","00","Europe/Kiev","4:00 PM GMT on August 02, 2016","2016","08","02","16","00","UTC","24.0","75.2","18.0","64.4","69","21.6","13.4","-9999.0","-9999.0","330","NNW","10.0","6.2","1013","29.92","-999","-999","-9999","-9999","-9999.00","-9999.00","Mostly Cloudy","mostlycloudy","0","0","0","0","0","0","METAR UKKK 021600Z 33006MPS 9999 FEW028CB BKN040 24/18 Q1013 R26/CLRD70 NOSIG"
"7:30 PM EEST on August 02, 2016","2016","08","02","19","30","Europe/Kiev","4:30 PM GMT on August 02, 2016","2016","08","02","16","30","UTC","24.0","75.2","17.0","62.6","65","18.0","11.2","-9999.0","-9999.0","20","NNE","10.0","6.2","1013","29.92","-999","-999","-9999","-9999","-9999.00","-9999.00","Mostly Cloudy","mostlycloudy","0","0","0","0","0","0","METAR UKKK 021630Z 02005MPS 350V050 9999 SCT029 BKN100 24/17 Q1013 R26/CLRD70 NOSIG"
"8:00 PM EEST on August 02, 2016","2016","08","02","20","00","Europe/Kiev","5:00 PM GMT on August 02, 2016","2016","08","02","17","00","UTC","23.0","73.4","17.0","62.6","69","18.0","11.2","-9999.0","-9999.0","20","NNE","10.0","6.2","1013","29.92","-999","-999","-9999","-9999","-9999.00","-9999.00","Mostly Cloudy","mostlycloudy","0","0","0","0","0","0","METAR UKKK 021700Z 02005MPS 9999 SCT026 BKN100 23/17 Q1013 R26/CLRD70 NOSIG"
"8:30 PM EEST on August 02, 2016","2016","08","02","20","30","Europe/Kiev","5:30 PM GMT on August 02, 2016","2016","08","02","17","30","UTC","23.0","73.4","17.0","62.6","69","14.4","8.9","-9999.0","-9999.0","10","North","-9999.0","-9999.0","1013","29.92","-999","-999","-9999","-9999","-9999.00","-9999.00","Clear","clear","0","0","0","0","0","0","METAR UKKK 021730Z 01004MPS CAVOK 23/17 Q1013 R26/CLRD70 NOSIG"
"9:00 PM EEST on August 02, 2016","2016","08","02","21","00","Europe/Kiev","6:00 PM GMT on August 02, 2016","2016","08","02","18","00","UTC","23","73","18","64","65","10.8","6.7","","","30","NNE","20","12","1013","29.92","-999","-999","-9999","-9999","","","Partly Cloudy","partlycloudy","0","0","0","0","0","0","AAXX 02181 33345 32598 60303 10226 20175 39940 40132 53015 84945 333 10279 555 10023"
"9:00 PM EEST on August 02, 2016","2016","08","02","21","00","Europe/Kiev","6:00 PM GMT on August 02, 2016","2016","08","02","18","00","UTC","22.0","71.6","17.0","62.6","73","14.4","8.9","-9999.0","-9999.0","350","North","-9999.0","-9999.0","1014","29.95","-999","-999","-9999","-9999","-9999.00","-9999.00","Clear","clear","0","0","0","0","0","0","METAR UKKK 021800Z 35004MPS CAVOK 22/17 Q1014 R26/CLRD70 NOSIG"
"9:30 PM EEST on August 02, 2016","2016","08","02","21","30","Europe/Kiev","6:30 PM GMT on August 02, 2016","2016","08","02","18","30","UTC","22.0","71.6","17.0","62.6","73","14.4","8.9","-9999.0","-9999.0","360","North","-9999.0","-9999.0","1014","29.95","-999","-999","-9999","-9999","-9999.00","-9999.00","Clear","clear","0","0","0","0","0","0","METAR UKKK 021830Z 36004MPS CAVOK 22/17 Q1014 R26/CLRD70 NOSIG"
"10:00 PM EEST on August 02, 2016","2016","08","02","22","00","Europe/Kiev","7:00 PM GMT on August 02, 2016","2016","08","02","19","00","UTC","22.0","71.6","17.0","62.6","73","10.8","6.7","-9999.0","-9999.0","360","North","-9999.0","-9999.0","1013","29.92","-999","-999","-9999","-9999","-9999.00","-9999.00","Clear","clear","0","0","0","0","0","0","METAR UKKK 021900Z 36003MPS 330V030 CAVOK 22/17 Q1013 R26/CLRD70 NOSIG"
"10:30 PM EEST on August 02, 2016","2016","08","02","22","30","Europe/Kiev","7:30 PM GMT on August 02, 2016","2016","08","02","19","30","UTC","22.0","71.6","17.0","62.6","73","10.8","6.7","-9999.0","-9999.0","360","North","-9999.0","-9999.0","1013","29.92","-999","-999","-9999","-9999","-9999.00","-9999.00","Clear","clear","0","0","0","0","0","0","METAR UKKK 021930Z 36003MPS 330V040 CAVOK 22/17 Q1013 R26/CLRD70 NOSIG"
"11:00 PM EEST on August 02, 2016","2016","08","02","23","00","Europe/Kiev","8:00 PM GMT on August 02, 2016","2016","08","02","20","00","UTC","21.0","69.8","17.0","62.6","78","10.8","6.7","-9999.0","-9999.0","10","North","-9999.0","-9999.0","1014","29.95","-999","-999","-9999","-9999","-9999.00","-9999.00","Clear","clear","0","0","0","0","0","0","METAR UKKK 022000Z 01003MPS 340V040 CAVOK 21/17 Q1014 R26/CLRD70 NOSIG"
"11:30 PM EEST on August 02, 2016","2016","08","02","23","30","Europe/Kiev","8:30 PM GMT on August 02, 2016","2016","08","02","20","30","UTC","21.0","69.8","17.0","62.6","78","10.8","6.7","-9999.0","-9999.0","350","North","-9999.0","-9999.0","1014","29.95","-999","-999","-9999","-9999","-9999.00","-9999.00","Clear","clear","0","0","0","0","0","0","METAR UKKK 022030Z 35003MPS CAVOK 21/17 Q1014 R08/CLRD70 NOSIG"
"12:00 AM EEST on August 03, 2016","2016","08","03","00","00","Europe/Kiev","9:00 PM GMT on August 02, 2016","2016","08","02","21","00","UTC","21","71","16","61","64","7.2","4.5","","","30","NNE","20","12","1013","29.92","-999","-999","-9999","-9999","","","Partly Cloudy","partlycloudy","0","0","0","0","0","0","AAXX 02211 33345 42998 60302 10214 20163 39939 40132 58001 84072 555 10020"
"12:00 AM EEST on August 03, 2016","2016","08","03","00","00","Europe/Kiev","9:00 PM GMT on August 02, 2016","2016","08","02","21","00","UTC","21.0","69.8","17.0","62.6","78","10.8","6.7","-9999.0","-9999.0","340","NNW","-9999.0","-9999.0","1014","29.95","-999","-999","-9999","-9999","-9999.00","-9999.00","Clear","clear","0","0","0","0","0","0","METAR UKKK 022100Z 34003MPS CAVOK 21/17 Q1014 R08/CLRD70 NOSIG"
"12:30 AM EEST on August 03, 2016","2016","08","03","00","30","Europe/Kiev","9:30 PM GMT on August 02, 2016","2016","08","02","21","30","UTC","21.0","69.8","17.0","62.6","78","10.8","6.7","-9999.0","-9999.0","340","NNW","-9999.0","-9999.0","1013","29.92","-999","-999","-9999","-9999","-9999.00","-9999.00","Clear","clear","0","0","0","0","0","0","METAR UKKK 022130Z 34003MPS CAVOK 21/17 Q1013 R08/CLRD70 NOSIG"
"1:00 AM EEST on August 03, 2016","2016","08","03","01","00","Europe/Kiev","10:00 PM GMT on August 02, 2016","2016","08","02","22","00","UTC","20.0","68.0","17.0","62.6","83","10.8","6.7","-9999.0","-9999.0","350","North","-9999.0","-9999.0","1013","29.92","-999","-999","-9999","-9999","-9999.00","-9999.00","Clear","clear","0","0","0","0","0","0","METAR UKKK 022200Z 35003MPS CAVOK 20/17 Q1013 R08/CLRD70 NOSIG"
"1:30 AM EEST on August 03, 2016","2016","08","03","01","30","Europe/Kiev","10:30 PM GMT on August 02, 2016","2016","08","02","22","30","UTC","20.0","68.0","17.0","62.6","83","10.8","6.7","-9999.0","-9999.0","20","NNE","-9999.0","-9999.0","1013","29.92","-999","-999","-9999","-9999","-9999.00","-9999.00","Clear","clear","0","0","0","0","0","0","METAR UKKK 022230Z 02003MPS CAVOK 20/17 Q1013 R08/CLRD70 NOSIG"
"2:00 AM EEST on August 03, 2016","2016","08","03","02","00","Europe/Kiev","11:00 PM GMT on August 02, 2016","2016","08","02","23","00","UTC","20.0","68.0","17.0","62.6","83","7.2","4.5","-9999.0","-9999.0","340","NNW","-9999.0","-9999.0","1013","29.92","-999","-999","-9999","-9999","-9999.00","-9999.00","Clear","clear","0","0","0","0","0","0","METAR UKKK 022300Z 34002MPS 290V360 CAVOK 20/17 Q1013 R08/CLRD70 NOSIG"
"2:30 AM EEST on August 03, 2016","2016","08","03","02","30","Europe/Kiev","11:30 PM GMT on August 02, 2016","2016","08","02","23","30","UTC","20.0","68.0","17.0","62.6","83","7.2","4.5","-9999.0","-9999.0","360","North","-9999.0","-9999.0","1013","29.92","-999","-999","-9999","-9999","-9999.00","-9999.00","Clear","clear","0","0","0","0","0","0","METAR UKKK 022330Z 36002MPS CAVOK 20/17 Q1013 R08/CLRD70 NOSIG"
"3:00 AM EEST on August 03, 2016","2016","08","03","03","00","Europe/Kiev","12:00 AM GMT on August 03, 2016","2016","08","03","00","00","UTC","20","69","16","60","65","10.8","6.7","","","40","NE","20","12","1013","29.91","-999","-999","-9999","-9999","","","Mostly Cloudy","mostlycloudy","0","0","0","0","0","0","AAXX 03001 33345 32998 50403 10204 20155 39935 40129 57004 85080 555 10019"
"3:00 AM EEST on August 03, 2016","2016","08","03","03","00","Europe/Kiev","12:00 AM GMT on August 03, 2016","2016","08","03","00","00","UTC","19.0","66.2","17.0","62.6","88","7.2","4.5","-9999.0","-9999.0","360","North","-9999.0","-9999.0","1013","29.92","-999","-999","-9999","-9999","-9999.00","-9999.00","Clear","clear","0","0","0","0","0","0","METAR UKKK 030000Z 36002MPS CAVOK 19/17 Q1013 R08/CLRD70 NOSIG"
"3:30 AM EEST on August 03, 2016","2016","08","03","03","30","Europe/Kiev","12:30 AM GMT on August 03, 2016","2016","08","03","00","30","UTC","19.0","66.2","17.0","62.6","88","10.8","6.7","-9999.0","-9999.0","10","North","10.0","6.2","1013","29.92","-999","-999","-9999","-9999","-9999.00","-9999.00","Mostly Cloudy","mostlycloudy","0","0","0","0","0","0","METAR UKKK 030030Z 01003MPS 350V060 9999 FEW014 BKN100 19/17 Q1013 R08/CLRD70 NOSIG"
"4:00 AM EEST on August 03, 2016","2016","08","03","04","00","Europe/Kiev","1:00 AM GMT on August 03, 2016","2016","08","03","01","00","UTC","19.0","66.2","16.0","60.8","83","14.4","8.9","-9999.0","-9999.0","10","North","-9999.0","-9999.0","1013","29.92","-999","-999","-9999","-9999","-9999.00","-9999.00","Clear","clear","0","0","0","0","0","0","METAR UKKK 030100Z 01004MPS CAVOK 19/16 Q1013 R08/CLRD70 NOSIG"
"4:30 AM EEST on August 03, 2016","2016","08","03","04","30","Europe/Kiev","1:30 AM GMT on August 03, 2016","2016","08","03","01","30","UTC","19.0","66.2","16.0","60.8","83","14.4","8.9","-9999.0","-9999.0","10","North","-9999.0","-9999.0","1013","29.92","-999","-999","-9999","-9999","-9999.00","-9999.00","Clear","clear","0","0","0","0","0","0","METAR UKKK 030130Z 01004MPS CAVOK 19/16 Q1013 R08/CLRD70 NOSIG"
"5:00 AM EEST on August 03, 2016","2016","08","03","05","00","Europe/Kiev","2:00 AM GMT on August 03, 2016","2016","08","03","02","00","UTC","19.0","66.2","16.0","60.8","83","10.8","6.7","-9999.0","-9999.0","20","NNE","-9999.0","-9999.0","1013","29.92","-999","-999","-9999","-9999","-9999.00","-9999.00","Clear","clear","0","0","0","0","0","0","METAR UKKK 030200Z 030200Z 02003MPS CAVOK 19/16 Q1013 R08/CLRD70 NOSIG"
"5:30 AM EEST on August 03, 2016","2016","08","03","05","30","Europe/Kiev","2:30 AM GMT on August 03, 2016","2016","08","03","02","30","UTC","19.0","66.2","16.0","60.8","83","10.8","6.7","-9999.0","-9999.0","10","North","-9999.0","-9999.0","1013","29.92","-999","-999","-9999","-9999","-9999.00","-9999.00","Clear","clear","0","0","0","0","0","0","METAR UKKK 030230Z 01003MPS CAVOK 19/16 Q1013 R08/CLRD70 NOSIG"
"6:00 AM EEST on August 03, 2016","2016","08","03","06","00","Europe/Kiev","3:00 AM GMT on August 03, 2016","2016","08","03","03","00","UTC","19","66","16","61","79","7.2","4.5","","","50","NE","20","12","1013","29.93","-999","-999","-9999","-9999","","","Partly Cloudy","partlycloudy","0","0","0","0","0","0","AAXX 03031 33345 42998 70502 10191 20161 39939 40134 53004 84049 555 10019"
"6:00 AM EEST on August 03, 2016","2016","08","03","06","00","Europe/Kiev","3:00 AM GMT on August 03, 2016","2016","08","03","03","00","UTC","18.0","64.4","16.0","60.8","88","10.8","6.7","-9999.0","-9999.0","20","NNE","-9999.0","-9999.0","1014","29.95","-999","-999","-9999","-9999","-9999.00","-9999.00","Clear","clear","0","0","0","0","0","0","METAR UKKK 030300Z 02003MPS CAVOK 18/16 Q1014 R08/CLRD70 NOSIG"
"6:30 AM EEST on August 03, 2016","2016","08","03","06","30","Europe/Kiev","3:30 AM GMT on August 03, 2016","2016","08","03","03","30","UTC","19.0","66.2","16.0","60.8","83","10.8","6.7","-9999.0","-9999.0","10","North","-9999.0","-9999.0","1013","29.92","-999","-999","-9999","-9999","-9999.00","-9999.00","Clear","clear","0","0","0","0","0","0","METAR UKKK 030330Z 01003MPS 340V060 CAVOK 19/16 Q1013 R08/CLRD70 NOSIG"
"7:00 AM EEST on August 03, 2016","2016","08","03","07","00","Europe/Kiev","4:00 AM GMT on August 03, 2016","2016","08","03","04","00","UTC","20.0","68.0","17.0","62.6","83","14.4","8.9","-9999.0","-9999.0","10","North","-9999.0","-9999.0","1013","29.92","-999","-999","-9999","-9999","-9999.00","-9999.00","Clear","clear","0","0","0","0","0","0","METAR UKKK 030400Z 01004MPS CAVOK 20/17 Q1013 R08/CLRD70 NOSIG"
"7:30 AM EEST on August 03, 2016","2016","08","03","07","30","Europe/Kiev","4:30 AM GMT on August 03, 2016","2016","08","03","04","30","UTC","20.0","68.0","16.0","60.8","78","10.8","6.7","28.8","17.9","20","NNE","-9999.0","-9999.0","1013","29.92","-999","-999","-9999","-9999","-9999.00","-9999.00","Clear","clear","0","0","0","0","0","0","METAR UKKK 030430Z 02003G08MPS 340V070 CAVOK 20/16 Q1013 R08/CLRD70 NOSIG"
"8:00 AM EEST on August 03, 2016","2016","08","03","08","00","Europe/Kiev","5:00 AM GMT on August 03, 2016","2016","08","03","05","00","UTC","19.0","66.2","16.0","60.8","83","14.4","8.9","-9999.0","-9999.0","10","North","10.0","6.2","1014","29.95","-999","-999","-9999","-9999","-9999.00","-9999.00","Mostly Cloudy","mostlycloudy","0","0","0","0","0","0","METAR UKKK 030500Z 01004MPS 9999 FEW033CB BKN100 19/16 Q1014 R08/CLRD70 NOSIG"
"8:30 AM EEST on August 03, 2016","2016","08","03","08","30","Europe/Kiev","5:30 AM GMT on August 03, 2016","2016","08","03","05","30","UTC","19.0","66.2","16.0","60.8","83","14.4","8.9","-9999.0","-9999.0","360","North","10.0","6.2","1014","29.95","-999","-999","-9999","-9999","-9999.00","-9999.00","Light Rain Showers","rain","0","1","0","0","0","0","METAR UKKK 030530Z 36004MPS 9999 -SHRA SCT033CB BKN100 19/16 Q1014 R08/190060 NOSIG"
"9:00 AM EEST on August 03, 2016","2016","08","03","09","00","Europe/Kiev","6:00 AM GMT on August 03, 2016","2016","08","03","06","00","UTC","19","66","16","60","77","7.2","4.5","","","40","NE","20","12","1014","29.93","-999","-999","-9999","-9999","","","Overcast","cloudy","0","0","0","0","0","0","AAXX 03061 33345 32998 80402 10190 20158 39940 40135 51001 8807/ 333 20188 555 10021"
"9:00 AM EEST on August 03, 2016","2016","08","03","09","00","Europe/Kiev","6:00 AM GMT on August 03, 2016","2016","08","03","06","00","UTC","19.0","66.2","16.0","60.8","83","14.4","8.9","-9999.0","-9999.0","10","North","10.0","6.2","1014","29.95","-999","-999","-9999","-9999","-9999.00","-9999.00","Light Rain Showers","rain","0","1","0","0","0","0","METAR UKKK 030600Z 01004MPS 9999 -SHRA SCT030CB BKN100 19/16 Q1014 R08/190060 NOSIG"
"9:30 AM EEST on August 03, 2016","2016","08","03","09","30","Europe/Kiev","6:30 AM GMT on August 03, 2016","2016","08","03","06","30","UTC","20.0","68.0","17.0","62.6","83","14.4","8.9","-9999.0","-9999.0","10","North","10.0","6.2","1014","29.95","-999","-999","-9999","-9999","-9999.00","-9999.00","Light Rain Showers","rain","0","1","0","0","0","0","METAR UKKK 030630Z 01004MPS 340V040 9999 -SHRA SCT030CB BKN100 20/17 Q1014 R08/190060 NOSIG"
"10:00 AM EEST on August 03, 2016","2016","08","03","10","00","Europe/Kiev","7:00 AM GMT on August 03, 2016","2016","08","03","07","00","UTC","21.0","69.8","17.0","62.6","78","14.4","8.9","-9999.0","-9999.0","10","North","10.0","6.2","1014","29.95","-999","-999","-9999","-9999","-9999.00","-9999.00","Mostly Cloudy","mostlycloudy","0","0","0","0","0","0","METAR UKKK 030700Z 01004MPS 9999 FEW030CB BKN100 21/17 Q1014 R08/190060 NOSIG"
"10:30 AM EEST on August 03, 2016","2016","08","03","10","30","Europe/Kiev","7:30 AM GMT on August 03, 2016","2016","08","03","07","30","UTC","22.0","71.6","17.0","62.6","73","14.4","8.9","-9999.0","-9999.0","10","North","10.0","6.2","1014","29.95","-999","-999","-9999","-9999","-9999.00","-9999.00","Mostly Cloudy","mostlycloudy","0","0","0","0","0","0","METAR UKKK 030730Z 01004MPS 9999 FEW030CB BKN100 22/17 Q1014 R08/CLRD70 NOSIG"
"11:00 AM EEST on August 03, 2016","2016","08","03","11","00","Europe/Kiev","8:00 AM GMT on August 03, 2016","2016","08","03","08","00","UTC","22.0","71.6","17.0","62.6","73","14.4","8.9","-9999.0","-9999.0","10","North","10.0","6.2","1014","29.95","-999","-999","-9999","-9999","-9999.00","-9999.00","Mostly Cloudy","mostlycloudy","0","0","0","0","0","0","METAR UKKK 030800Z 01004MPS 320V060 9999 SCT023 BKN100 22/17 Q1014 R08/CLRD70 NOSIG"
"11:30 AM EEST on August 03, 2016","2016","08","03","11","30","Europe/Kiev","8:30 AM GMT on August 03, 2016","2016","08","03","08","30","UTC","23.0","73.4","16.0","60.8","65","14.4","8.9","-9999.0","-9999.0","10","North","10.0","6.2","1014","29.95","-999","-999","-9999","-9999","-9999.00","-9999.00","Mostly Cloudy","mostlycloudy","0","0","0","0","0","0","METAR UKKK 030830Z 01004MPS 9999 SCT023 BKN100 23/16 Q1014 R08/CLRD70 NOSIG"
"12:00 PM EEST on August 03, 2016","2016","08","03","12","00","Europe/Kiev","9:00 AM GMT on August 03, 2016","2016","08","03","09","00","UTC","22","72","16","61","59","10.8","6.7","","","50","NE","20","12","1014","29.94","-999","-999","-9999","-9999","","","Partly Cloudy","partlycloudy","0","0","0","0","0","0","AAXX 03091 33345 41598 70503 10224 20160 39946 40139 52006 70262 83230 555 10040"
"12:00 PM EEST on August 03, 2016","2016","08","03","12","00","Europe/Kiev","9:00 AM GMT on August 03, 2016","2016","08","03","09","00","UTC","22.0","71.6","15.0","59.0","64","14.4","8.9","-9999.0","-9999.0","340","NNW","10.0","6.2","1014","29.95","-999","-999","-9999","-9999","-9999.00","-9999.00","Mostly Cloudy","mostlycloudy","0","0","0","0","0","0","METAR UKKK 030900Z 34004MPS 9999 SCT026 BKN100 22/15 Q1014 R08/CLRD70 NOSIG"
"12:30 PM EEST on August 03, 2016","2016","08","03","12","30","Europe/Kiev","9:30 AM GMT on August 03, 2016","2016","08","03","09","30","UTC","22.0","71.6","15.0","59.0","64","14.4","8.9","-9999.0","-9999.0","350","North","10.0","6.2","1014","29.95","-999","-999","-9999","-9999","-9999.00","-9999.00","Mostly Cloudy","mostlycloudy","0","0","0","0","0","0","METAR UKKK 030930Z 35004MPS 310V010 9999 FEW026 BKN100 22/15 Q1014 R08/CLRD70 NOSIG"
"1:00 PM EEST on August 03, 2016","2016","08","03","13","00","Europe/Kiev","10:00 AM GMT on August 03, 2016","2016","08","03","10","00","UTC","23.0","73.4","15.0","59.0","61","10.8","6.7","-9999.0","-9999.0","350","North","10.0","6.2","1014","29.95","-999","-999","-9999","-9999","-9999.00","-9999.00","Mostly Cloudy","mostlycloudy","0","0","0","0","0","0","METAR UKKK 031000Z 35003MPS 310V010 9999 FEW026 BKN100 23/15 Q1014 R08/CLRD70 NOSIG"
"1:30 PM EEST on August 03, 2016","2016","08","03","13","30","Europe/Kiev","10:30 AM GMT on August 03, 2016","2016","08","03","10","30","UTC","23.0","73.4","14.0","57.2","57","10.8","6.7","-9999.0","-9999.0","360","North","-9999.0","-9999.0","1014","29.95","-999","-999","-9999","-9999","-9999.00","-9999.00","Clear","clear","0","0","0","0","0","0","METAR UKKK 031030Z 36003MPS 310V050 CAVOK 23/14 Q1014 R08/CLRD70 NOSIG"
"2:00 PM EEST on August 03, 2016","2016","08","03","14","00","Europe/Kiev","11:00 AM GMT on August 03, 2016","2016","08","03","11","00","UTC","23.0","73.4","12.0","53.6","50","10.8","6.7","-9999.0","-9999.0","350","North","-9999.0","-9999.0","1014","29.95","-999","-999","-9999","-9999","-9999.00","-9999.00","Clear","clear","0","0","0","0","0","0","METAR UKKK 031100Z 35003MPS CAVOK 23/12 Q1014 R08/CLRD70 NOSIG"
"2:30 PM EEST on August 03, 2016","2016","08","03","14","30","Europe/Kiev","11:30 AM GMT on August 03, 2016","2016","08","03","11","30","UTC","23.0","73.4","12.0","53.6","50","7.2","4.5","-9999.0","-9999.0","30","NNE","-9999.0","-9999.0","1014","29.95","-999","-999","-9999","-9999","-9999.00","-9999.00","Clear","clear","0","0","0","0","0","0","METAR UKKK 031130Z 03002MPS 340V090 CAVOK 23/12 Q1014 R08/CLRD70 NOSIG"
"3:00 PM EEST on August 03, 2016","2016","08","03","15","00","Europe/Kiev","12:00 PM GMT on August 03, 2016","2016","08","03","12","00","UTC","23","73","12","53","40","7.2","4.5","","","40","NE","20","12","1014","29.95","-999","-999","-9999","-9999","","","Partly Cloudy","partlycloudy","0","0","0","0","0","0","AAXX 03121 33345 31598 70402 10230 20119 39947 40140 51001 70262 81156 555 10032"
"3:00 PM EEST on August 03, 2016","2016","08","03","15","00","Europe/Kiev","12:00 PM GMT on August 03, 2016","2016","08","03","12","00","UTC","23.0","73.4","12.0","53.6","50","3.6","2.2","-9999.0","-9999.0","0","Variable","-9999.0","-9999.0","1014","29.95","-999","-999","-9999","-9999","-9999.00","-9999.00","Clear","clear","0","0","0","0","0","0","METAR UKKK 031200Z VRB01MPS CAVOK 23/12 Q1014 R26/CLRD70 NOSIG"
"3:30 PM EEST on August 03, 2016","2016","08","03","15","30","Europe/Kiev","12:30 PM GMT on August 03, 2016","2016","08","03","12","30","UTC","24.0","75.2","14.0","57.2","53","3.6","2.2","-9999.0","-9999.0","0","Variable","-9999.0","-9999.0","1014","29.95","-999","-999","-9999","-9999","-9999.00","-9999.00","Clear","clear","0","0","0","0","0","0","METAR UKKK 031230Z VRB01MPS CAVOK 24/14 Q1014 R26/CLRD70 NOSIG"
"4:00 PM EEST on August 03, 2016","2016","08","03","16","00","Europe/Kiev","1:00 PM GMT on August 03, 2016","2016","08","03","13","00","UTC","24.0","75.2","13.0","55.4","50","7.2","4.5","-9999.0","-9999.0","230","SW","-9999.0","-9999.0","1014","29.95","-999","-999","-9999","-9999","-9999.00","-9999.00","Clear","clear","0","0","0","0","0","0","METAR UKKK 031300Z 23002MPS CAVOK 24/13 Q1014 R26/CLRD70 NOSIG"
"4:30 PM EEST on August 03, 2016","2016","08","03","16","30","Europe/Kiev","1:30 PM GMT on August 03, 2016","2016","08","03","13","30","UTC","24.0","75.2","13.0","55.4","50","7.2","4.5","-9999.0","-9999.0","350","North","10.0","6.2","1013","29.92","-999","-999","-9999","-9999","-9999.00","-9999.00","Mostly Cloudy","mostlycloudy","0","0","0","0","0","0","METAR UKKK 031330Z 35002MPS 300V040 9999 SCT046 BKN100 24/13 Q1013 R26/CLRD70 NOSIG"
"5:00 PM EEST on August 03, 2016","2016","08","03","17","00","Europe/Kiev","2:00 PM GMT on August 03, 2016","2016","08","03","14","00","UTC","25.0","77.0","14.0","57.2","50","7.2","4.5","-9999.0","-9999.0","360","North","10.0","6.2","1013","29.92","-999","-999","-9999","-9999","-9999.00","-9999.00","Mostly Cloudy","mostlycloudy","0","0","0","0","0","0","METAR UKKK 031400Z 36002MPS 300V050 9999 SCT046 BKN100 25/14 Q1013 R26/CLRD70 NOSIG"
"5:30 PM EEST on August 03, 2016","2016","08","03","17","30","Europe/Kiev","2:30 PM GMT on August 03, 2016","2016","08","03","14","30","UTC","25.0","77.0","14.0","57.2","50","10.8","6.7","-9999.0","-9999.0","360","North","-9999.0","-9999.0","1013","29.92","-999","-999","-9999","-9999","-9999.00","-9999.00","Clear","clear","0","0","0","0","0","0","METAR UKKK 031430Z 36003MPS 310V030 CAVOK 25/14 Q1013 R26/CLRD70 NOSIG"
"6:00 PM EEST on August 03, 2016","2016","08","03","18","00","Europe/Kiev","3:00 PM GMT on August 03, 2016","2016","08","03","15","00","UTC","24","76","14","57","41","7.2","4.5","","","60","ENE","20","12","1013","29.92","-999","-999","-9999","-9999","","","Partly Cloudy","partlycloudy","0","0","0","0","0","0","AAXX 03151 33345 42598 60602 10244 20139 39940 40131 58007 83131 555 10037"
"6:00 PM EEST on August 03, 2016","2016","08","03","18","00","Europe/Kiev","3:00 PM GMT on August 03, 2016","2016","08","03","15","00","UTC","26.0","78.8","14.0","57.2","47","7.2","4.5","-9999.0","-9999.0","30","NNE","-9999.0","-9999.0","1013","29.92","-999","-999","-9999","-9999","-9999.00","-9999.00","Clear","clear","0","0","0","0","0","0","METAR UKKK 031500Z 03002MPS 350V060 CAVOK 26/14 Q1013 R26/CLRD70 NOSIG"
"6:30 PM EEST on August 03, 2016","2016","08","03","18","30","Europe/Kiev","3:30 PM GMT on August 03, 2016","2016","08","03","15","30","UTC","26.0","78.8","13.0","55.4","44","7.2","4.5","-9999.0","-9999.0","40","NE","-9999.0","-9999.0","1014","29.95","-999","-999","-9999","-9999","-9999.00","-9999.00","Clear","clear","0","0","0","0","0","0","METAR UKKK 031530Z 04002MPS 340V090 CAVOK 26/13 Q1014 R26/CLRD70 NOSIG"
"7:00 PM EEST on August 03, 2016","2016","08","03","19","00","Europe/Kiev","4:00 PM GMT on August 03, 2016","2016","08","03","16","00","UTC","25.0","77.0","13.0","55.4","47","10.8","6.7","-9999.0","-9999.0","80","East","-9999.0","-9999.0","1014","29.95","-999","-999","-9999","-9999","-9999.00","-9999.00","Clear","clear","0","0","0","0","0","0","METAR UKKK 031600Z 08003MPS 040V100 CAVOK 25/13 Q1014 R26/CLRD70 NOSIG"
"7:30 PM EEST on August 03, 2016","2016","08","03","19","30","Europe/Kiev","4:30 PM GMT on August 03, 2016","2016","08","03","16","30","UTC","24.0","75.2","15.0","59.0","57","3.6","2.2","-9999.0","-9999.0","0","Variable","-9999.0","-9999.0","1014","29.95","-999","-999","-9999","-9999","-9999.00","-9999.00","Clear","clear","0","0","0","0","0","0","METAR UKKK 031630Z VRB01MPS CAVOK 24/15 Q1014 R26/CLRD70 NOSIG"
"8:00 PM EEST on August 03, 2016","2016","08","03","20","00","Europe/Kiev","5:00 PM GMT on August 03, 2016","2016","08","03","17","00","UTC","23.0","73.4","14.0","57.2","57","0.0","0.0","-9999.0","-9999.0","0","North","-9999.0","-9999.0","1014","29.95","-999","-999","-9999","-9999","-9999.00","-9999.00","Clear","clear","0","0","0","0","0","0","METAR UKKK 031700Z 00000MPS CAVOK 23/14 Q1014 R26/CLRD70 NOSIG"
"8:30 PM EEST on August 03, 2016","2016","08","03","20","30","Europe/Kiev","5:30 PM GMT on August 03, 2016","2016","08","03","17","30","UTC","22.0","71.6","14.0","57.2","60","3.6","2.2","-9999.0","-9999.0","0","Variable","-9999.0","-9999.0","1014","29.95","-999","-999","-9999","-9999","-9999.00","-9999.00","Clear","clear","0","0","0","0","0","0","METAR UKKK 031730Z VRB01MPS CAVOK 22/14 Q1014 R26/CLRD70 NOSIG"
"9:00 PM EEST on August 03, 2016","2016","08","03","21","00","Europe/Kiev","6:00 PM GMT on August 03, 2016","2016","08","03","18","00","UTC","21","69","15","58","60","0.0","0.0","","","","","20","12","1014","29.96","-999","-999","-9999","-9999","","","","","0","0","0","0","0","0","AAXX 03181 33345 12998 00000 10207 20146 39950 40144 53010 69902 333 10256 555 10019"
"9:00 PM EEST on August 03, 2016","2016","08","03","21","00","Europe/Kiev","6:00 PM GMT on August 03, 2016","2016","08","03","18","00","UTC","20.0","68.0","14.0","57.2","68","0.0","0.0","-9999.0","-9999.0","0","North","-9999.0","-9999.0","1015","29.98","-999","-999","-9999","-9999","-9999.00","-9999.00","Clear","clear","0","0","0","0","0","0","METAR UKKK 031800Z 00000MPS CAVOK 20/14 Q1015 R26/CLRD70 NOSIG"
"9:30 PM EEST on August 03, 2016","2016","08","03","21","30","Europe/Kiev","6:30 PM GMT on August 03, 2016","2016","08","03","18","30","UTC","19.0","66.2","14.0","57.2","73","0.0","0.0","-9999.0","-9999.0","0","North","9.0","5.6","1015","29.98","-999","-999","-9999","-9999","-9999.00","-9999.00","Clear","clear","0","0","0","0","0","0","METAR UKKK 031830Z 00000MPS 9000 SKC 19/14 Q1015 R26/CLRD70 NOSIG"
"10:00 PM EEST on August 03, 2016","2016","08","03","22","00","Europe/Kiev","7:00 PM GMT on August 03, 2016","2016","08","03","19","00","UTC","18.0","64.4","14.0","57.2","77","0.0","0.0","-9999.0","-9999.0","0","North","-9999.0","-9999.0","1015","29.98","-999","-999","-9999","-9999","-9999.00","-9999.00","Clear","clear","0","0","0","0","0","0","METAR UKKK 031900Z 00000MPS CAVOK 18/14 Q1015 R26/CLRD70 NOSIG"
"10:30 PM EEST on August 03, 2016","2016","08","03","22","30","Europe/Kiev","7:30 PM GMT on August 03, 2016","2016","08","03","19","30","UTC","17.0","62.6","15.0","59.0","88","0.0","0.0","-9999.0","-9999.0","0","North","9.0","5.6","1015","29.98","-999","-999","-9999","-9999","-9999.00","-9999.00","Clear","clear","0","0","0","0","0","0","METAR UKKK 031930Z 00000MPS 9000 SKC 17/15 Q1015 R26/CLRD70 NOSIG"
"11:00 PM EEST on August 03, 2016","2016","08","03","23","00","Europe/Kiev","8:00 PM GMT on August 03, 2016","2016","08","03","20","00","UTC","16.0","60.8","15.0","59.0","94","0.0","0.0","-9999.0","-9999.0","0","North","8.0","5.0","1015","29.98","-999","-999","-9999","-9999","-9999.00","-9999.00","Clear","clear","0","0","0","0","0","0","METAR UKKK 032000Z 00000MPS 8000 SKC 16/15 Q1015 R26/CLRD70 NOSIG"
"11:30 PM EEST on August 03, 2016","2016","08","03","23","30","Europe/Kiev","8:30 PM GMT on August 03, 2016","2016","08","03","20","30","UTC","16.0","60.8","14.0","57.2","88","0.0","0.0","-9999.0","-9999.0","0","North","9.0","5.6","1015","29.98","-999","-999","-9999","-9999","-9999.00","-9999.00","Clear","clear","0","0","0","0","0","0","METAR UKKK 032030Z 00000MPS 9000 SKC 16/14 Q1015 R26/CLRD70 NOSIG"
"12:00 AM EEST on August 04, 2016","2016","08","04","00","00","Europe/Kiev","9:00 PM GMT on August 03, 2016","2016","08","03","21","00","UTC","19","66","13","56","62","0.0","0.0","","","","","20","12","1016","29.99","-999","-999","-9999","-9999","","","","","0","0","0","0","0","0","AAXX 03211 33345 42998 00000 10188 20134 39959 40155 52009 555 10016"
"12:00 AM EEST on August 04, 2016","2016","08","04","00","00","Europe/Kiev","9:00 PM GMT on August 03, 2016","2016","08","03","21","00","UTC","15.0","59.0","14.0","57.2","94","0.0","0.0","-9999.0","-9999.0","0","North","9.0","5.6","1015","29.98","-999","-999","-9999","-9999","-9999.00","-9999.00","Clear","clear","0","0","0","0","0","0","METAR UKKK 032100Z 00000MPS 9000 SKC 15/14 Q1015 R26/CLRD70 NOSIG"
"12:30 AM EEST on August 04, 2016","2016","08","04","00","30","Europe/Kiev","9:30 PM GMT on August 03, 2016","2016","08","03","21","30","UTC","15.0","59.0","14.0","57.2","94","0.0","0.0","-9999.0","-9999.0","0","North","-9999.0","-9999.0","1016","30.01","-999","-999","-9999","-9999","-9999.00","-9999.00","Clear","clear","0","0","0","0","0","0","METAR UKKK 032130Z 00000MPS CAVOK 15/14 Q1016 R26/CLRD70 NOSIG"
"1:00 AM EEST on August 04, 2016","2016","08","04","01","00","Europe/Kiev","10:00 PM GMT on August 03, 2016","2016","08","03","22","00","UTC","14.0","57.2","14.0","57.2","100","0.0","0.0","-9999.0","-9999.0","0","North","-9999.0","-9999.0","1016","30.01","-999","-999","-9999","-9999","-9999.00","-9999.00","Clear","clear","0","0","0","0","0","0","METAR UKKK 032200Z 00000MPS CAVOK 14/14 Q1016 R26/CLRD70 NOSIG"
"1:30 AM EEST on August 04, 2016","2016","08","04","01","30","Europe/Kiev","10:30 PM GMT on August 03, 2016","2016","08","03","22","30","UTC","14.0","57.2","14.0","57.2","100","0.0","0.0","-9999.0","-9999.0","0","North","-9999.0","-9999.0","1016","30.01","-999","-999","-9999","-9999","-9999.00","-9999.00","Clear","clear","0","0","0","0","0","0","METAR UKKK 032230Z 00000MPS CAVOK 14/14 Q1016 R26/CLRD70 NOSIG"
"2:00 AM EEST on August 04, 2016","2016","08","04","02","00","Europe/Kiev","11:00 PM GMT on August 03, 2016","2016","08","03","23","00","UTC","14.0","57.2","13.0","55.4","94","0.0","0.0","-9999.0","-9999.0","0","North","-9999.0","-9999.0","1016","30.01","-999","-999","-9999","-9999","-9999.00","-9999.00","Clear","clear","0","0","0","0","0","0","METAR UKKK 032300Z 00000MPS CAVOK 14/13 Q1016 R26/CLRD70 NOSIG"
"2:30 AM EEST on August 04, 2016","2016","08","04","02","30","Europe/Kiev","11:30 PM GMT on August 03, 2016","2016","08","03","23","30","UTC","14.0","57.2","13.0","55.4","94","0.0","0.0","-9999.0","-9999.0","0","North","-9999.0","-9999.0","1017","30.04","-999","-999","-9999","-9999","-9999.00","-9999.00","Clear","clear","0","0","0","0","0","0","METAR UKKK 032330Z 00000MPS CAVOK 14/13 Q1017 R26/CLRD70 NOSIG"
"3:00 AM EEST on August 04, 2016","2016","08","04","03","00","Europe/Kiev","12:00 AM GMT on August 04, 2016","2016","08","04","00","00","UTC","18","64","14","57","72","0.0","0.0","","","","","10","6","1017","30.02","-999","-999","-9999","-9999","","","","","0","0","0","0","0","0","AAXX 04001 33345 32997 00000 10180 20140 39970 40166 52011 555 10015"
"3:00 AM EEST on August 04, 2016","2016","08","04","03","00","Europe/Kiev","12:00 AM GMT on August 04, 2016","2016","08","04","00","00","UTC","14.0","57.2","14.0","57.2","100","0.0","0.0","-9999.0","-9999.0","0","North","9.0","5.6","1017","30.04","-999","-999","-9999","-9999","-9999.00","-9999.00","Clear","clear","0","0","0","0","0","0","METAR UKKK 040000Z 00000MPS 9000 SKC 14/14 Q1017 R26/CLRD70 NOSIG"
"3:30 AM EEST on August 04, 2016","2016","08","04","03","30","Europe/Kiev","12:30 AM GMT on August 04, 2016","2016","08","04","00","30","UTC","14.0","57.2","13.0","55.4","94","0.0","0.0","-9999.0","-9999.0","0","North","9.0","5.6","1017","30.04","-999","-999","-9999","-9999","-9999.00","-9999.00","Clear","clear","0","0","0","0","0","0","METAR UKKK 040030Z 00000MPS 9000 SKC 14/13 Q1017 R26/CLRD70 NOSIG"
"4:00 AM EEST on August 04, 2016","2016","08","04","04","00","Europe/Kiev","1:00 AM GMT on August 04, 2016","2016","08","04","01","00","UTC","13.0","55.4","13.0","55.4","100","0.0","0.0","-9999.0","-9999.0","0","North","6.0","3.7","1017","30.04","-999","-999","-9999","-9999","-9999.00","-9999.00","Clear","clear","0","0","0","0","0","0","METAR UKKK 040100Z 00000MPS 6000 SKC 13/13 Q1017 R26/CLRD70 NOSIG"
"4:30 AM EEST on August 04, 2016","2016","08","04","04","30","Europe/Kiev","1:30 AM GMT on August 04, 2016","2016","08","04","01","30","UTC","13.0","55.4","13.0","55.4","100","0.0","0.0","-9999.0","-9999.0","0","North","2.8","1.7","1017","30.04","-999","-999","-9999","-9999","-9999.00","-9999.00","Clear","clear","0","0","0","0","0","0","METAR UKKK 040130Z 00000MPS 2800 BR SKC 13/13 Q1017 R26/CLRD70 TEMPO 0400 FG"
"4:45 AM EEST on August 04, 2016","2016","08","04","04","45","Europe/Kiev","1:45 AM GMT on August 04, 2016","2016","08","04","01","45","UTC","13.0","55.4","13.0","55.4","100","0.0","0.0","-9999.0","-9999.0","0","North","1.1","0.7","1017","30.04","-999","-999","-9999","-9999","-9999.00","-9999.00","Clear","clear","0","0","0","0","0","0","SPECI UKKK 040145Z 00000MPS 1100 R26/P2000D BR SKC 13/13 Q1017 R26/CLRD70 TEMPO 0400 FG"
"5:00 AM EEST on August 04, 2016","2016","08","04","05","00","Europe/Kiev","2:00 AM GMT on August 04, 2016","2016","08","04","02","00","UTC","13.0","55.4","13.0","55.4","100","0.0","0.0","-9999.0","-9999.0","0","North","-9999.0","-9999.0","1017","30.04","-999","-999","-9999","-9999","-9999.00","-9999.00","Clear","clear","0","0","0","0","0","0","METAR UKKK 040200Z 00000MPS 4900 BR SKC 13/13 Q1017 R26/CLRD70 TEMPO 0400 FG"
"5:06 AM EEST on August 04, 2016","2016","08","04","05","06","Europe/Kiev","2:06 AM GMT on August 04, 2016","2016","08","04","02","06","UTC","13.0","55.4","13.0","55.4","100","0.0","0.0","-9999.0","-9999.0","0","North","1.4","0.9","1017","30.04","-999","-999","-9999","-9999","-9999.00","-9999.00","Clear","clear","0","0","0","0","0","0","SPECI UKKK 040206Z 00000MPS 1400 R26/P2000D BR SKC 13/13 Q1017 R26/CLRD70 TEMPO 0400 FG"
"5:08 AM EEST on August 04, 2016","2016","08","04","05","08","Europe/Kiev","2:08 AM GMT on August 04, 2016","2016","08","04","02","08","UTC","13.0","55.4","13.0","55.4","100","0.0","0.0","-9999.0","-9999.0","0","North","0.6","0.4","1017","30.04","-999","-999","-9999","-9999","-9999.00","-9999.00","Clear","clear","0","0","0","0","0","0","SPECI UKKK 040208Z 00000MPS 0600 R26/P2000D PRFG SKC 13/13 Q1017 R26/CLRD70 TEMPO 0400 FG"
"5:30 AM EEST on August 04, 2016","2016","08","04","05","30","Europe/Kiev","2:30 AM GMT on August 04, 2016","2016","08","04","02","30","UTC","13.0","55.4","13.0","55.4","100","0.0","0.0","-9999.0","-9999.0","0","North","-9999.0","-9999.0","1017","30.04","-999","-999","-9999","-9999","-9999.00","-9999.00","Mist","hazy","0","0","0","0","0","0","METAR UKKK 040230Z 00000MPS 3200 BR NSC 13/13 Q1017 R26/CLRD70 TEMPO 0400 FG"
"5:35 AM EEST on August 04, 2016","2016","08","04","05","35","Europe/Kiev","2:35 AM GMT on August 04, 2016","2016","08","04","02","35","UTC","13.0","55.4","13.0","55.4","100","0.0","0.0","-9999.0","-9999.0","0","North","1.4","0.9","1017","30.04","-999","-999","-9999","-9999","-9999.00","-9999.00","Mist","hazy","0","0","0","0","0","0","SPECI UKKK 040235Z 00000MPS 1400 R26/P2000N BR NSC 13/13 Q1017 R26/CLRD70 TEMPO 0400 FG"
"6:00 AM EEST on August 04, 2016","2016","08","04","06","00","Europe/Kiev","3:00 AM GMT on August 04, 2016","2016","08","04","03","00","UTC","16","61","14","57","82","0.0","0.0","","","","","4","2","1017","30.04","-999","-999","-9999","-9999","","","Mist","hazy","0","0","0","0","0","0","AAXX 04031 33345 41996 30000 10160 20139 39975 40173 52005 71000 81084 555 10014"
"6:00 AM EEST on August 04, 2016","2016","08","04","06","00","Europe/Kiev","3:00 AM GMT on August 04, 2016","2016","08","04","03","00","UTC","14.0","57.2","14.0","57.2","100","0.0","0.0","-9999.0","-9999.0","0","North","-9999.0","-9999.0","1017","30.04","-999","-999","-9999","-9999","-9999.00","-9999.00","Mist","hazy","0","0","0","0","0","0","METAR UKKK 040300Z 00000MPS 4300 BR NSC 14/14 Q1017 R26/CLRD70 NOSIG"
"6:30 AM EEST on August 04, 2016","2016","08","04","06","30","Europe/Kiev","3:30 AM GMT on August 04, 2016","2016","08","04","03","30","UTC","14.0","57.2","14.0","57.2","100","0.0","0.0","-9999.0","-9999.0","0","North","-9999.0","-9999.0","1017","30.04","-999","-999","-9999","-9999","-9999.00","-9999.00","Clear","clear","0","0","0","0","0","0","METAR UKKK 040330Z 00000MPS CAVOK 14/14 Q1017 R26/CLRD70 NOSIG"
"7:00 AM EEST on August 04, 2016","2016","08","04","07","00","Europe/Kiev","4:00 AM GMT on August 04, 2016","2016","08","04","04","00","UTC","16.0","60.8","16.0","60.8","100","0.0","0.0","-9999.0","-9999.0","0","North","9.0","5.6","1017","30.04","-999","-999","-9999","-9999","-9999.00","-9999.00","Unknown","unknown","0","0","0","0","0","0","METAR UKKK 040400Z 00000MPS 9000 NSC 16/16 Q1017 R26/CLRD70 NOSIG"
"7:30 AM EEST on August 04, 2016","2016","08","04","07","30","Europe/Kiev","4:30 AM GMT on August 04, 2016","2016","08","04","04","30","UTC","18.0","64.4","16.0","60.8","88","0.0","0.0","-9999.0","-9999.0","0","North","-9999.0","-9999.0","1018","30.06","-999","-999","-9999","-9999","-9999.00","-9999.00","Clear","clear","0","0","0","0","0","0","METAR UKKK 040430Z 00000MPS CAVOK 18/16 Q1018 R26/CLRD70 NOSIG"
"8:00 AM EEST on August 04, 2016","2016","08","04","08","00","Europe/Kiev","5:00 AM GMT on August 04, 2016","2016","08","04","05","00","UTC","21.0","69.8","16.0","60.8","73","0.0","0.0","-9999.0","-9999.0","0","North","-9999.0","-9999.0","1018","30.06","-999","-999","-9999","-9999","-9999.00","-9999.00","Clear","clear","0","0","0","0","0","0","METAR UKKK 040500Z 00000MPS CAVOK 21/16 Q1018 R26/CLRD70 NOSIG"
"8:30 AM EEST on August 04, 2016","2016","08","04","08","30","Europe/Kiev","5:30 AM GMT on August 04, 2016","2016","08","04","05","30","UTC","22.0","71.6","16.0","60.8","69","3.6","2.2","-9999.0","-9999.0","0","Variable","-9999.0","-9999.0","1018","30.06","-999","-999","-9999","-9999","-9999.00","-9999.00","Clear","clear","0","0","0","0","0","0","METAR UKKK 040530Z VRB01MPS CAVOK 22/16 Q1018 R26/CLRD70 NOSIG"
"9:00 AM EEST on August 04, 2016","2016","08","04","09","00","Europe/Kiev","6:00 AM GMT on August 04, 2016","2016","08","04","06","00","UTC","22","72","15","59","55","3.6","2.2","","","150","SSE","20","12","1018","30.06","-999","-999","-9999","-9999","","","Clear","clear","0","0","0","0","0","0","AAXX 04061 33345 32998 21501 10220 20151 39985 40179 52010 80001 333 20160 555 10032"
"9:00 AM EEST on August 04, 2016","2016","08","04","09","00","Europe/Kiev","6:00 AM GMT on August 04, 2016","2016","08","04","06","00","UTC","23.0","73.4","15.0","59.0","61","0.0","0.0","-9999.0","-9999.0","0","North","-9999.0","-9999.0","1018","30.06","-999","-999","-9999","-9999","-9999.00","-9999.00","Clear","clear","0","0","0","0","0","0","METAR UKKK 040600Z 00000MPS CAVOK 23/15 Q1018 R26/CLRD70 NOSIG"
"9:30 AM EEST on August 04, 2016","2016","08","04","09","30","Europe/Kiev","6:30 AM GMT on August 04, 2016","2016","08","04","06","30","UTC","24.0","75.2","14.0","57.2","53","3.6","2.2","-9999.0","-9999.0","0","Variable","-9999.0","-9999.0","1018","30.06","-999","-999","-9999","-9999","-9999.00","-9999.00","Clear","clear","0","0","0","0","0","0","METAR UKKK 040630Z VRB01MPS CAVOK 24/14 Q1018 R26/CLRD70 NOSIG"
"10:00 AM EEST on August 04, 2016","2016","08","04","10","00","Europe/Kiev","7:00 AM GMT on August 04, 2016","2016","08","04","07","00","UTC","24.0","75.2","14.0","57.2","53","3.6","2.2","-9999.0","-9999.0","0","Variable","-9999.0","-9999.0","1018","30.06","-999","-999","-9999","-9999","-9999.00","-9999.00","Clear","clear","0","0","0","0","0","0","METAR UKKK 040700Z VRB01MPS CAVOK 24/14 Q1018 R26/CLRD70 NOSIG"
"10:30 AM EEST on August 04, 2016","2016","08","04","10","30","Europe/Kiev","7:30 AM GMT on August 04, 2016","2016","08","04","07","30","UTC","25.0","77.0","14.0","57.2","50","10.8","6.7","-9999.0","-9999.0","270","West","-9999.0","-9999.0","1018","30.06","-999","-999","-9999","-9999","-9999.00","-9999.00","Clear","clear","0","0","0","0","0","0","METAR UKKK 040730Z 27003MPS 200V320 CAVOK 25/14 Q1018 R26/CLRD70 NOSIG"
"11:00 AM EEST on August 04, 2016","2016","08","04","11","00","Europe/Kiev","8:00 AM GMT on August 04, 2016","2016","08","04","08","00","UTC","25.0","77.0","14.0","57.2","50","3.6","2.2","-9999.0","-9999.0","0","Variable","-9999.0","-9999.0","1018","30.06","-999","-999","-9999","-9999","-9999.00","-9999.00","Clear","clear","0","0","0","0","0","0","METAR UKKK 040800Z VRB01MPS CAVOK 25/14 Q1018 R26/CLRD70 NOSIG"
"11:30 AM EEST on August 04, 2016","2016","08","04","11","30","Europe/Kiev","8:30 AM GMT on August 04, 2016","2016","08","04","08","30","UTC","25.0","77.0","12.0","53.6","44","7.2","4.5","-9999.0","-9999.0","290","WNW","-9999.0","-9999.0","1018","30.06","-999","-999","-9999","-9999","-9999.00","-9999.00","Clear","clear","0","0","0","0","0","0","METAR UKKK 040830Z 29002MPS 200V340 CAVOK 25/12 Q1018 R26/CLRD70 NOSIG"
"12:00 PM EEST on August 04, 2016","2016","08","04","12","00","Europe/Kiev","9:00 AM GMT on August 04, 2016","2016","08","04","09","00","UTC","26","79","10","50","26","3.6","2.2","","","270","West","20","12","1018","30.05","-999","-999","-9999","-9999","","","Mostly Cloudy","mostlycloudy","0","0","0","0","0","0","AAXX 04091 33345 42598 62701 10260 20100 39984 40176 58001 86800 555 10044"
"12:00 PM EEST on August 04, 2016","2016","08","04","12","00","Europe/Kiev","9:00 AM GMT on August 04, 2016","2016","08","04","09","00","UTC","27.0","80.6","12.0","53.6","39","3.6","2.2","-9999.0","-9999.0","0","Variable","-9999.0","-9999.0","1018","30.06","-999","-999","26.8","80.3","-9999.00","-9999.00","Clear","clear","0","0","0","0","0","0","METAR UKKK 040900Z VRB01MPS CAVOK 27/12 Q1018 R26/CLRD70 NOSIG"
"12:30 PM EEST on August 04, 2016","2016","08","04","12","30","Europe/Kiev","9:30 AM GMT on August 04, 2016","2016","08","04","09","30","UTC","26.0","78.8","12.0","53.6","42","7.2","4.5","-9999.0","-9999.0","260","West","-9999.0","-9999.0","1018","30.06","-999","-999","-9999","-9999","-9999.00","-9999.00","Clear","clear","0","0","0","0","0","0","METAR UKKK 040930Z 26002MPS 220V320 CAVOK 26/12 Q1018 R26/CLRD70 NOSIG"
"1:00 PM EEST on August 04, 2016","2016","08","04","13","00","Europe/Kiev","10:00 AM GMT on August 04, 2016","2016","08","04","10","00","UTC","26.0","78.8","11.0","51.8","39","3.6","2.2","-9999.0","-9999.0","0","Variable","-9999.0","-9999.0","1018","30.06","-999","-999","-9999","-9999","-9999.00","-9999.00","Clear","clear","0","0","0","0","0","0","METAR UKKK 041000Z VRB01MPS CAVOK 26/11 Q1018 R26/CLRD70 NOSIG"
"1:30 PM EEST on August 04, 2016","2016","08","04","13","30","Europe/Kiev","10:30 AM GMT on August 04, 2016","2016","08","04","10","30","UTC","27.0","80.6","11.0","51.8","37","3.6","2.2","-9999.0","-9999.0","0","Variable","-9999.0","-9999.0","1018","30.06","-999","-999","-9999","-9999","-9999.00","-9999.00","Clear","clear","0","0","0","0","0","0","METAR UKKK 041030Z VRB01MPS CAVOK 27/11 Q1018 R26/CLRD70 NOSIG"
"2:00 PM EEST on August 04, 2016","2016","08","04","14","00","Europe/Kiev","11:00 AM GMT on August 04, 2016","2016","08","04","11","00","UTC","28.0","82.4","11.0","51.8","35","14.4","8.9","-9999.0","-9999.0","250","WSW","-9999.0","-9999.0","1018","30.06","-999","-999","-9999","-9999","-9999.00","-9999.00","Clear","clear","0","0","0","0","0","0","METAR UKKK 041100Z 25004MPS 220V340 CAVOK 28/11 Q1018 R26/CLRD70 NOSIG"
"2:30 PM EEST on August 04, 2016","2016","08","04","14","30","Europe/Kiev","11:30 AM GMT on August 04, 2016","2016","08","04","11","30","UTC","27.0","80.6","11.0","51.8","37","7.2","4.5","-9999.0","-9999.0","240","WSW","-9999.0","-9999.0","1018","30.06","-999","-999","-9999","-9999","-9999.00","-9999.00","Clear","clear","0","0","0","0","0","0","METAR UKKK 041130Z 24002MPS 140V300 CAVOK 27/11 Q1018 R26/CLRD70 NOSIG"
"3:00 PM EEST on August 04, 2016","2016","08","04","15","00","Europe/Kiev","12:00 PM GMT on August 04, 2016","2016","08","04","12","00","UTC","29","83","9","48","19","7.2","4.5","","","280","West","20","12","1017","30.03","-999","-999","-9999","-9999","","","Partly Cloudy","partlycloudy","0","0","0","0","0","0","AAXX 04121 33345 32598 52802 10286 20087 39979 40169 57005 83202 555 10053"
"3:00 PM EEST on August 04, 2016","2016","08","04","15","00","Europe/Kiev","12:00 PM GMT on August 04, 2016","2016","08","04","12","00","UTC","28.0","82.4","11.0","51.8","35","7.2","4.5","-9999.0","-9999.0","270","West","-9999.0","-9999.0","1017","30.04","-999","-999","-9999","-9999","-9999.00","-9999.00","Clear","clear","0","0","0","0","0","0","METAR UKKK 041200Z 27002MPS CAVOK 28/11 Q1017 R26/CLRD70 NOSIG"
"3:30 PM EEST on August 04, 2016","2016","08","04","15","30","Europe/Kiev","12:30 PM GMT on August 04, 2016","2016","08","04","12","30","UTC","28.0","82.4","9.0","48.2","30","7.2","4.5","-9999.0","-9999.0","120","ESE","-9999.0","-9999.0","1017","30.04","-999","-999","-9999","-9999","-9999.00","-9999.00","Clear","clear","0","0","0","0","0","0","METAR UKKK 041230Z 12002MPS 070V160 CAVOK 28/09 Q1017 R26/CLRD70 NOSIG"
"4:00 PM EEST on August 04, 2016","2016","08","04","16","00","Europe/Kiev","1:00 PM GMT on August 04, 2016","2016","08","04","13","00","UTC","29.0","84.2","11.0","51.8","33","7.2","4.5","-9999.0","-9999.0","270","West","-9999.0","-9999.0","1017","30.04","-999","-999","-9999","-9999","-9999.00","-9999.00","Clear","clear","0","0","0","0","0","0","METAR UKKK 041300Z 27002MPS CAVOK 29/11 Q1017 R26/CLRD70 NOSIG"
"4:30 PM EEST on August 04, 2016","2016","08","04","16","30","Europe/Kiev","1:30 PM GMT on August 04, 2016","2016","08","04","13","30","UTC","27.0","80.6","11.0","51.8","37","7.2","4.5","-9999.0","-9999.0","220","SW","-9999.0","-9999.0","1017","30.04","-999","-999","-9999","-9999","-9999.00","-9999.00","Clear","clear","0","0","0","0","0","0","METAR UKKK 041330Z 22002MPS 150V280 CAVOK 27/11 Q1017 R26/CLRD70 NOSIG"
"5:00 PM EEST on August 04, 2016","2016","08","04","17","00","Europe/Kiev","2:00 PM GMT on August 04, 2016","2016","08","04","14","00","UTC","27.0","80.6","11.0","51.8","37","3.6","2.2","-9999.0","-9999.0","0","Variable","-9999.0","-9999.0","1017","30.04","-999","-999","-9999","-9999","-9999.00","-9999.00","Clear","clear","0","0","0","0","0","0","METAR UKKK 041400Z VRB01MPS CAVOK 27/11 Q1017 R26/CLRD70 NOSIG"
"5:30 PM EEST on August 04, 2016","2016","08","04","17","30","Europe/Kiev","2:30 PM GMT on August 04, 2016","2016","08","04","14","30","UTC","29.0","84.2","12.0","53.6","35","3.6","2.2","-9999.0","-9999.0","0","Variable","-9999.0","-9999.0","1017","30.04","-999","-999","28.2","82.8","-9999.00","-9999.00","Clear","clear","0","0","0","0","0","0","METAR UKKK 041430Z VRB01MPS CAVOK 29/12 Q1017 R08/CLRD70 NOSIG"
"6:00 PM EEST on August 04, 2016","2016","08","04","18","00","Europe/Kiev","3:00 PM GMT on August 04, 2016","2016","08","04","15","00","UTC","27","81","11","52","26","3.6","2.2","","","210","SSW","20","12","1016","30.02","-999","-999","-9999","-9999","","","Scattered Clouds","partlycloudy","0","0","0","0","0","0","AAXX 04151 33345 42598 42101 10270 20110 39974 40165 57005 81240 555 10033"
"6:00 PM EEST on August 04, 2016","2016","08","04","18","00","Europe/Kiev","3:00 PM GMT on August 04, 2016","2016","08","04","15","00","UTC","27.0","80.6","12.0","53.6","39","7.2","4.5","-9999.0","-9999.0","210","SSW","-9999.0","-9999.0","1017","30.04","-999","-999","26.8","80.3","-9999.00","-9999.00","Clear","clear","0","0","0","0","0","0","METAR UKKK 041500Z 21002MPS CAVOK 27/12 Q1017 R08/CLRD70 NOSIG"
"6:30 PM EEST on August 04, 2016","2016","08","04","18","30","Europe/Kiev","3:30 PM GMT on August 04, 2016","2016","08","04","15","30","UTC","28.0","82.4","11.0","51.8","35","7.2","4.5","-9999.0","-9999.0","200","SSW","9.0","5.6","1017","30.04","-999","-999","-9999","-9999","-9999.00","-9999.00","Unknown","unknown","0","0","0","0","0","0","METAR UKKK 041530Z 20002MPS 170V250 9000 NSC 28/11 Q1017 R26/CLRD70 NOSIG"
"7:00 PM EEST on August 04, 2016","2016","08","04","19","00","Europe/Kiev","4:00 PM GMT on August 04, 2016","2016","08","04","16","00","UTC","28.0","82.4","12.0","53.6","37","7.2","4.5","-9999.0","-9999.0","250","WSW","-9999.0","-9999.0","1017","30.04","-999","-999","27.5","81.4","-9999.00","-9999.00","Clear","clear","0","0","0","0","0","0","METAR UKKK 041600Z 25002MPS 230V300 CAVOK 28/12 Q1017 R26/CLRD70 NOSIG"
"7:30 PM EEST on August 04, 2016","2016","08","04","19","30","Europe/Kiev","4:30 PM GMT on August 04, 2016","2016","08","04","16","30","UTC","27.0","80.6","12.0","53.6","39","7.2","4.5","-9999.0","-9999.0","220","SW","-9999.0","-9999.0","1017","30.04","-999","-999","26.8","80.3","-9999.00","-9999.00","Clear","clear","0","0","0","0","0","0","METAR UKKK 041630Z 22002MPS CAVOK 27/12 Q1017 R26/CLRD70 NOSIG"
"8:00 PM EEST on August 04, 2016","2016","08","04","20","00","Europe/Kiev","5:00 PM GMT on August 04, 2016","2016","08","04","17","00","UTC","26.0","78.8","12.0","53.6","42","7.2","4.5","-9999.0","-9999.0","230","SW","-9999.0","-9999.0","1017","30.04","-999","-999","-9999","-9999","-9999.00","-9999.00","Clear","clear","0","0","0","0","0","0","METAR UKKK 041700Z 23002MPS CAVOK 26/12 Q1017 R26/CLRD70 NOSIG"
"8:30 PM EEST on August 04, 2016","2016","08","04","20","30","Europe/Kiev","5:30 PM GMT on August 04, 2016","2016","08","04","17","30","UTC","23.0","73.4","13.0","55.4","53","7.2","4.5","-9999.0","-9999.0","230","SW","-9999.0","-9999.0","1017","30.04","-999","-999","-9999","-9999","-9999.00","-9999.00","Clear","clear","0","0","0","0","0","0","METAR UKKK 041730Z 23002MPS CAVOK 23/13 Q1017 R26/CLRD70 NOSIG"
"9:00 PM EEST on August 04, 2016","2016","08","04","21","00","Europe/Kiev","6:00 PM GMT on August 04, 2016","2016","08","04","18","00","UTC","24","75","12","54","37","7.2","4.5","","","240","WSW","20","12","1017","30.04","-999","-999","-9999","-9999","","","","","0","0","0","0","0","0","AAXX 04181 33345 32998 02402 10237 20122 39978 40171 53004 333 10289 555 10021"
"9:00 PM EEST on August 04, 2016","2016","08","04","21","00","Europe/Kiev","6:00 PM GMT on August 04, 2016","2016","08","04","18","00","UTC","22.0","71.6","13.0","55.4","57","7.2","4.5","-9999.0","-9999.0","210","SSW","-9999.0","-9999.0","1017","30.04","-999","-999","-9999","-9999","-9999.00","-9999.00","Clear","clear","0","0","0","0","0","0","METAR UKKK 041800Z 21002MPS CAVOK 22/13 Q1017 R26/CLRD70 NOSIG"
"9:30 PM EEST on August 04, 2016","2016","08","04","21","30","Europe/Kiev","6:30 PM GMT on August 04, 2016","2016","08","04","18","30","UTC","20.0","68.0","13.0","55.4","64","7.2","4.5","-9999.0","-9999.0","200","SSW","9.0","5.6","1017","30.04","-999","-999","-9999","-9999","-9999.00","-9999.00","Unknown","unknown","0","0","0","0","0","0","METAR UKKK 041830Z 20002MPS 9000 NSC 20/13 Q1017 R26/CLRD70 NOSIG"
"10:00 PM EEST on August 04, 2016","2016","08","04","22","00","Europe/Kiev","7:00 PM GMT on August 04, 2016","2016","08","04","19","00","UTC","19.0","66.2","14.0","57.2","73","7.2","4.5","-9999.0","-9999.0","210","SSW","9.0","5.6","1018","30.06","-999","-999","-9999","-9999","-9999.00","-9999.00","Unknown","unknown","0","0","0","0","0","0","METAR UKKK 041900Z 21002MPS 9000 NSC 19/14 Q1018 R26/CLRD70 NOSIG"
"10:30 PM EEST on August 04, 2016","2016","08","04","22","30","Europe/Kiev","7:30 PM GMT on August 04, 2016","2016","08","04","19","30","UTC","19.0","66.2","13.0","55.4","68","3.6","2.2","-9999.0","-9999.0","220","SW","8.0","5.0","1018","30.06","-999","-999","-9999","-9999","-9999.00","-9999.00","Unknown","unknown","0","0","0","0","0","0","METAR UKKK 041930Z 22001MPS 8000 NSC 19/13 Q1018 R26/CLRD70 NOSIG"
"11:00 PM EEST on August 04, 2016","2016","08","04","23","00","Europe/Kiev","8:00 PM GMT on August 04, 2016","2016","08","04","20","00","UTC","18.0","64.4","13.0","55.4","73","0.0","0.0","-9999.0","-9999.0","0","North","-9999.0","-9999.0","1018","30.06","-999","-999","-9999","-9999","-9999.00","-9999.00","Clear","clear","0","0","0","0","0","0","METAR UKKK 042000Z 00000MPS CAVOK 18/13 Q1018 R26/CLRD70 NOSIG"
"11:30 PM EEST on August 04, 2016","2016","08","04","23","30","Europe/Kiev","8:30 PM GMT on August 04, 2016","2016","08","04","20","30","UTC","18.0","64.4","13.0","55.4","73","0.0","0.0","-9999.0","-9999.0","0","North","-9999.0","-9999.0","1018","30.06","-999","-999","-9999","-9999","-9999.00","-9999.00","Clear","clear","0","0","0","0","0","0","METAR UKKK 042030Z 00000MPS CAVOK 18/13 Q1018 R26/CLRD70 NOSIG"
"12:00 AM EEST on August 05, 2016","2016","08","05","00","00","Europe/Kiev","9:00 PM GMT on August 04, 2016","2016","08","04","21","00","UTC","20","68","11","52","47","7.2","4.5","","","210","SSW","20","12","1018","30.06","-999","-999","-9999","-9999","","","","","0","0","0","0","0","0","AAXX 04211 33345 42998 02102 10199 20112 39983 40178 52005 555 10018"
"12:00 AM EEST on August 05, 2016","2016","08","05","00","00","Europe/Kiev","9:00 PM GMT on August 04, 2016","2016","08","04","21","00","UTC","17.0","62.6","13.0","55.4","77","3.6","2.2","-9999.0","-9999.0","0","Variable","-9999.0","-9999.0","1018","30.06","-999","-999","-9999","-9999","-9999.00","-9999.00","Clear","clear","0","0","0","0","0","0","METAR UKKK 042100Z VRB01MPS CAVOK 17/13 Q1018 R26/CLRD70 NOSIG"
"12:30 AM EEST on August 05, 2016","2016","08","05","00","30","Europe/Kiev","9:30 PM GMT on August 04, 2016","2016","08","04","21","30","UTC","17.0","62.6","13.0","55.4","77","3.6","2.2","-9999.0","-9999.0","0","Variable","-9999.0","-9999.0","1018","30.06","-999","-999","-9999","-9999","-9999.00","-9999.00","Clear","clear","0","0","0","0","0","0","METAR UKKK 042130Z VRB01MPS CAVOK 17/13 Q1018 R26/CLRD70 NOSIG"
"1:00 AM EEST on August 05, 2016","2016","08","05","01","00","Europe/Kiev","10:00 PM GMT on August 04, 2016","2016","08","04","22","00","UTC","18.0","64.4","13.0","55.4","73","7.2","4.5","-9999.0","-9999.0","90","East","-9999.0","-9999.0","1018","30.06","-999","-999","-9999","-9999","-9999.00","-9999.00","Clear","clear","0","0","0","0","0","0","METAR UKKK 042200Z 09002MPS 060V140 CAVOK 18/13 Q1018 R26/CLRD70 NOSIG"
"1:30 AM EEST on August 05, 2016","2016","08","05","01","30","Europe/Kiev","10:30 PM GMT on August 04, 2016","2016","08","04","22","30","UTC","17.0","62.6","12.0","53.6","72","0.0","0.0","-9999.0","-9999.0","0","North","-9999.0","-9999.0","1018","30.06","-999","-999","-9999","-9999","-9999.00","-9999.00","Clear","clear","0","0","0","0","0","0","METAR UKKK 042230Z 00000MPS CAVOK 17/12 Q1018 R26/CLRD70 NOSIG"
"2:00 AM EEST on August 05, 2016","2016","08","05","02","00","Europe/Kiev","11:00 PM GMT on August 04, 2016","2016","08","04","23","00","UTC","16.0","60.8","12.0","53.6","77","0.0","0.0","-9999.0","-9999.0","0","North","-9999.0","-9999.0","1018","30.06","-999","-999","-9999","-9999","-9999.00","-9999.00","Clear","clear","0","0","0","0","0","0","METAR UKKK 042300Z 00000MPS CAVOK 16/12 Q1018 R08/CLRD70 NOSIG"
"2:30 AM EEST on August 05, 2016","2016","08","05","02","30","Europe/Kiev","11:30 PM GMT on August 04, 2016","2016","08","04","23","30","UTC","17.0","62.6","12.0","53.6","72","0.0","0.0","-9999.0","-9999.0","0","North","-9999.0","-9999.0","1018","30.06","-999","-999","-9999","-9999","-9999.00","-9999.00","Clear","clear","0","0","0","0","0","0","METAR UKKK 042330Z 00000MPS CAVOK 17/12 Q1018 R08/CLRD70 NOSIG"
"3:00 AM EEST on August 05, 2016","2016","08","05","03","00","Europe/Kiev","12:00 AM GMT on August 05, 2016","2016","08","05","00","00","UTC","18","65","12","54","58","7.2","4.5","","","190","South","20","12","1018","30.08","-999","-999","-9999","-9999","","","","","0","0","0","0","0","0","AAXX 05001 33345 32998 01902 10182 20121 39988 40185 52005 555 10017"
"3:00 AM EEST on August 05, 2016","2016","08","05","03","00","Europe/Kiev","12:00 AM GMT on August 05, 2016","2016","08","05","00","00","UTC","18.0","64.4","12.0","53.6","68","3.6","2.2","-9999.0","-9999.0","0","Variable","-9999.0","-9999.0","1018","30.06","-999","-999","-9999","-9999","-9999.00","-9999.00","Clear","clear","0","0","0","0","0","0","METAR UKKK 050000Z VRB01MPS CAVOK 18/12 Q1018 R08/CLRD70 NOSIG"
"3:30 AM EEST on August 05, 2016","2016","08","05","03","30","Europe/Kiev","12:30 AM GMT on August 05, 2016","2016","08","05","00","30","UTC","17.0","62.6","12.0","53.6","72","0.0","0.0","-9999.0","-9999.0","0","North","-9999.0","-9999.0","1019","30.09","-999","-999","-9999","-9999","-9999.00","-9999.00","Clear","clear","0","0","0","0","0","0","METAR UKKK 050030Z 00000MPS CAVOK 17/12 Q1019 R08/CLRD70 NOSIG"
"4:00 AM EEST on August 05, 2016","2016","08","05","04","00","Europe/Kiev","1:00 AM GMT on August 05, 2016","2016","08","05","01","00","UTC","16.0","60.8","12.0","53.6","77","0.0","0.0","-9999.0","-9999.0","0","North","-9999.0","-9999.0","1019","30.09","-999","-999","-9999","-9999","-9999.00","-9999.00","Clear","clear","0","0","0","0","0","0","METAR UKKK 050100Z 00000MPS CAVOK 16/12 Q1019 R08/CLRD70 NOSIG"
"4:30 AM EEST on August 05, 2016","2016","08","05","04","30","Europe/Kiev","1:30 AM GMT on August 05, 2016","2016","08","05","01","30","UTC","16.0","60.8","11.0","51.8","72","0.0","0.0","-9999.0","-9999.0","0","North","-9999.0","-9999.0","1019","30.09","-999","-999","-9999","-9999","-9999.00","-9999.00","Clear","clear","0","0","0","0","0","0","METAR UKKK 050130Z 00000MPS CAVOK 16/11 Q1019 R08/CLRD70 NOSIG"
"5:00 AM EEST on August 05, 2016","2016","08","05","05","00","Europe/Kiev","2:00 AM GMT on August 05, 2016","2016","08","05","02","00","UTC","15.0","59.0","12.0","53.6","82","0.0","0.0","-9999.0","-9999.0","0","North","-9999.0","-9999.0","1019","30.09","-999","-999","-9999","-9999","-9999.00","-9999.00","Clear","clear","0","0","0","0","0","0","METAR UKKK 050200Z 00000MPS CAVOK 15/12 Q1019 R08/CLRD70 NOSIG"
"5:30 AM EEST on August 05, 2016","2016","08","05","05","30","Europe/Kiev","2:30 AM GMT on August 05, 2016","2016","08","05","02","30","UTC","15.0","59.0","12.0","53.6","82","0.0","0.0","-9999.0","-9999.0","0","North","-9999.0","-9999.0","1019","30.09","-999","-999","-9999","-9999","-9999.00","-9999.00","Clear","clear","0","0","0","0","0","0","METAR UKKK 050230Z 00000MPS CAVOK 15/12 Q1019 R08/CLRD70 NOSIG"
"6:00 AM EEST on August 05, 2016","2016","08","05","06","00","Europe/Kiev","3:00 AM GMT on August 05, 2016","2016","08","05","03","00","UTC","16","61","12","54","70","0.0","0.0","","","","","20","12","1019","30.09","-999","-999","-9999","-9999","","","","","0","0","0","0","0","0","AAXX 05031 33345 42998 00000 10160 20120 39991 40189 52003 555 10015"
"6:00 AM EEST on August 05, 2016","2016","08","05","06","00","Europe/Kiev","3:00 AM GMT on August 05, 2016","2016","08","05","03","00","UTC","15.0","59.0","12.0","53.6","82","0.0","0.0","-9999.0","-9999.0","0","North","-9999.0","-9999.0","1019","30.09","-999","-999","-9999","-9999","-9999.00","-9999.00","Clear","clear","0","0","0","0","0","0","METAR UKKK 050300Z 00000MPS CAVOK 15/12 Q1019 R08/CLRD70 NOSIG"
"6:30 AM EEST on August 05, 2016","2016","08","05","06","30","Europe/Kiev","3:30 AM GMT on August 05, 2016","2016","08","05","03","30","UTC","16.0","60.8","13.0","55.4","82","0.0","0.0","-9999.0","-9999.0","0","North","-9999.0","-9999.0","1019","30.09","-999","-999","-9999","-9999","-9999.00","-9999.00","Clear","clear","0","0","0","0","0","0","METAR UKKK 050330Z 00000MPS CAVOK 16/13 Q1019 R08/CLRD70 NOSIG"
"7:00 AM EEST on August 05, 2016","2016","08","05","07","00","Europe/Kiev","4:00 AM GMT on August 05, 2016","2016","08","05","04","00","UTC","18.0","64.4","14.0","57.2","77","0.0","0.0","-9999.0","-9999.0","0","North","-9999.0","-9999.0","1019","30.09","-999","-999","-9999","-9999","-9999.00","-9999.00","Clear","clear","0","0","0","0","0","0","METAR UKKK 050400Z 00000MPS CAVOK 18/14 Q1019 R08/CLRD70 NOSIG"
"7:30 AM EEST on August 05, 2016","2016","08","05","07","30","Europe/Kiev","4:30 AM GMT on August 05, 2016","2016","08","05","04","30","UTC","20.0","68.0","14.0","57.2","68","0.0","0.0","-9999.0","-9999.0","0","North","-9999.0","-9999.0","1019","30.09","-999","-999","-9999","-9999","-9999.00","-9999.00","Clear","clear","0","0","0","0","0","0","METAR UKKK 050430Z 00000MPS CAVOK 20/14 Q1019 R08/CLRD70 NOSIG"
"8:00 AM EEST on August 05, 2016","2016","08","05","08","00","Europe/Kiev","5:00 AM GMT on August 05, 2016","2016","08","05","05","00","UTC","21.0","69.8","14.0","57.2","64","0.0","0.0","-9999.0","-9999.0","0","North","9.0","5.6","1019","30.09","-999","-999","-9999","-9999","-9999.00","-9999.00","Clear","clear","0","0","0","0","0","0","METAR UKKK 050500Z 00000MPS 9000 SKC 21/14 Q1019 R08/CLRD70 NOSIG"
"8:30 AM EEST on August 05, 2016","2016","08","05","08","30","Europe/Kiev","5:30 AM GMT on August 05, 2016","2016","08","05","05","30","UTC","22.0","71.6","14.0","57.2","60","3.6","2.2","-9999.0","-9999.0","0","Variable","-9999.0","-9999.0","1019","30.09","-999","-999","-9999","-9999","-9999.00","-9999.00","Clear","clear","0","0","0","0","0","0","METAR UKKK 050530Z VRB01MPS CAVOK 22/14 Q1019 R08/CLRD70 NOSIG"
"9:00 AM EEST on August 05, 2016","2016","08","05","09","00","Europe/Kiev","6:00 AM GMT on August 05, 2016","2016","08","05","06","00","UTC","22","72","14","57","49","7.2","4.5","","","210","SSW","20","12","1019","30.09","-999","-999","-9999","-9999","","","","","0","0","0","0","0","0","AAXX 05061 33345 32998 02102 10221 20139 39996 40190 52005 333 20159 555 10033"
"9:00 AM EEST on August 05, 2016","2016","08","05","09","00","Europe/Kiev","6:00 AM GMT on August 05, 2016","2016","08","05","06","00","UTC","24.0","75.2","15.0","59.0","57","3.6","2.2","-9999.0","-9999.0","0","Variable","-9999.0","-9999.0","1019","30.09","-999","-999","-9999","-9999","-9999.00","-9999.00","Clear","clear","0","0","0","0","0","0","METAR UKKK 050600Z VRB01MPS CAVOK 24/15 Q1019 R08/CLRD70 NOSIG"
"9:30 AM EEST on August 05, 2016","2016","08","05","09","30","Europe/Kiev","6:30 AM GMT on August 05, 2016","2016","08","05","06","30","UTC","25.0","77.0","15.0","59.0","54","7.2","4.5","-9999.0","-9999.0","180","South","-9999.0","-9999.0","1019","30.09","-999","-999","-9999","-9999","-9999.00","-9999.00","Clear","clear","0","0","0","0","0","0","METAR UKKK 050630Z 18002MPS 130V250 CAVOK 25/15 Q1019 R08/CLRD70 NOSIG"
"10:00 AM EEST on August 05, 2016","2016","08","05","10","00","Europe/Kiev","7:00 AM GMT on August 05, 2016","2016","08","05","07","00","UTC","25.0","77.0","15.0","59.0","54","7.2","4.5","-9999.0","-9999.0","210","SSW","-9999.0","-9999.0","1019","30.09","-999","-999","-9999","-9999","-9999.00","-9999.00","Clear","clear","0","0","0","0","0","0","METAR UKKK 050700Z 21002MPS 160V280 CAVOK 25/15 Q1019 R08/CLRD70 NOSIG"
"10:30 AM EEST on August 05, 2016","2016","08","05","10","30","Europe/Kiev","7:30 AM GMT on August 05, 2016","2016","08","05","07","30","UTC","26.0","78.8","15.0","59.0","51","7.2","4.5","-9999.0","-9999.0","190","South","-9999.0","-9999.0","1019","30.09","-999","-999","-9999","-9999","-9999.00","-9999.00","Clear","clear","0","0","0","0","0","0","METAR UKKK 050730Z 19002MPS 120V270 CAVOK 26/15 Q1019 R26/CLRD70 NOSIG"
"11:00 AM EEST on August 05, 2016","2016","08","05","11","00","Europe/Kiev","8:00 AM GMT on August 05, 2016","2016","08","05","08","00","UTC","27.0","80.6","15.0","59.0","48","7.2","4.5","-9999.0","-9999.0","240","WSW","-9999.0","-9999.0","1019","30.09","-999","-999","27.3","81.1","-9999.00","-9999.00","Clear","clear","0","0","0","0","0","0","METAR UKKK 050800Z 24002MPS 210V290 CAVOK 27/15 Q1019 R26/CLRD70 NOSIG"
"11:30 AM EEST on August 05, 2016","2016","08","05","11","30","Europe/Kiev","8:30 AM GMT on August 05, 2016","2016","08","05","08","30","UTC","28.0","82.4","14.0","57.2","42","7.2","4.5","-9999.0","-9999.0","180","South","-9999.0","-9999.0","1019","30.09","-999","-999","27.8","82.0","-9999.00","-9999.00","Clear","clear","0","0","0","0","0","0","METAR UKKK 050830Z 18002MPS CAVOK 28/14 Q1019 R26/CLRD70 NOSIG"
"12:00 PM EEST on August 05, 2016","2016","08","05","12","00","Europe/Kiev","9:00 AM GMT on August 05, 2016","2016","08","05","09","00","UTC","28","82","15","60","36","7.2","4.5","","","160","SSE","20","12","1019","30.09","-999","-999","-9999","-9999","","","","","0","0","0","0","0","0","AAXX 05091 33345 42998 01602 10277 20153 39999 40189 52003 555 10051"
"12:00 PM EEST on August 05, 2016","2016","08","05","12","00","Europe/Kiev","9:00 AM GMT on August 05, 2016","2016","08","05","09","00","UTC","28.0","82.4","14.0","57.2","42","7.2","4.5","-9999.0","-9999.0","120","ESE","-9999.0","-9999.0","1020","30.12","-999","-999","27.8","82.0","-9999.00","-9999.00","Clear","clear","0","0","0","0","0","0","METAR UKKK 050900Z 12002MPS 050V170 CAVOK 28/14 Q1020 R26/CLRD70 NOSIG"
"12:30 PM EEST on August 05, 2016","2016","08","05","12","30","Europe/Kiev","9:30 AM GMT on August 05, 2016","2016","08","05","09","30","UTC","28.0","82.4","13.0","55.4","39","7.2","4.5","-9999.0","-9999.0","30","NNE","-9999.0","-9999.0","1019","30.09","-999","-999","27.6","81.7","-9999.00","-9999.00","Clear","clear","0","0","0","0","0","0","METAR UKKK 050930Z 03002MPS 300V080 CAVOK 28/13 Q1019 R26/CLRD70 NOSIG"
"1:00 PM EEST on August 05, 2016","2016","08","05","13","00","Europe/Kiev","10:00 AM GMT on August 05, 2016","2016","08","05","10","00","UTC","29.0","84.2","13.0","55.4","37","7.2","4.5","-9999.0","-9999.0","180","South","-9999.0","-9999.0","1019","30.09","-999","-999","28.4","83.0","-9999.00","-9999.00","Clear","clear","0","0","0","0","0","0","METAR UKKK 051000Z 18002MPS 120V250 CAVOK 29/13 Q1019 R26/CLRD70 NOSIG"
"1:30 PM EEST on August 05, 2016","2016","08","05","13","30","Europe/Kiev","10:30 AM GMT on August 05, 2016","2016","08","05","10","30","UTC","29.0","84.2","14.0","57.2","40","7.2","4.5","-9999.0","-9999.0","120","ESE","-9999.0","-9999.0","1019","30.09","-999","-999","28.6","83.5","-9999.00","-9999.00","Clear","clear","0","0","0","0","0","0","METAR UKKK 051030Z 12002MPS CAVOK 29/14 Q1019 R26/CLRD70 NOSIG"
"2:00 PM EEST on August 05, 2016","2016","08","05","14","00","Europe/Kiev","11:00 AM GMT on August 05, 2016","2016","08","05","11","00","UTC","30.0","86.0","14.0","57.2","37","7.2","4.5","25.2","15.7","150","SSE","-9999.0","-9999.0","1019","30.09","-999","-999","29.4","84.9","-9999.00","-9999.00","Clear","clear","0","0","0","0","0","0","METAR UKKK 051100Z 15002G07MPS CAVOK 30/14 Q1019 R08/CLRD70 NOSIG"
"2:30 PM EEST on August 05, 2016","2016","08","05","14","30","Europe/Kiev","11:30 AM GMT on August 05, 2016","2016","08","05","11","30","UTC","29.0","84.2","12.0","53.6","35","14.4","8.9","-9999.0","-9999.0","100","East","-9999.0","-9999.0","1019","30.09","-999","-999","28.2","82.8","-9999.00","-9999.00","Clear","clear","0","0","0","0","0","0","METAR UKKK 051130Z 10004MPS 060V150 CAVOK 29/12 Q1019 R08/CLRD70 NOSIG"
"3:00 PM EEST on August 05, 2016","2016","08","05","15","00","Europe/Kiev","12:00 PM GMT on August 05, 2016","2016","08","05","12","00","UTC","30","86","12","54","23","7.2","4.5","","","180","South","20","12","1018","30.06","-999","-999","-9999","-9999","","","Scattered Clouds","partlycloudy","0","0","0","0","0","0","AAXX 05121 33345 32698 21802 10301 20120 39991 40180 58008 82100 555 10054"
"3:00 PM EEST on August 05, 2016","2016","08","05","15","00","Europe/Kiev","12:00 PM GMT on August 05, 2016","2016","08","05","12","00","UTC","29.0","84.2","13.0","55.4","37","7.2","4.5","-9999.0","-9999.0","60","ENE","-9999.0","-9999.0","1019","30.09","-999","-999","28.4","83.0","-9999.00","-9999.00","Clear","clear","0","0","0","0","0","0","METAR UKKK 051200Z 06002MPS 350V130 CAVOK 29/13 Q1019 R08/CLRD70 NOSIG"
"3:30 PM EEST on August 05, 2016","2016","08","05","15","30","Europe/Kiev","12:30 PM GMT on August 05, 2016","2016","08","05","12","30","UTC","30.0","86.0","13.0","55.4","35","10.8","6.7","-9999.0","-9999.0","70","ENE","-9999.0","-9999.0","1018","30.06","-999","-999","29.2","84.5","-9999.00","-9999.00","Clear","clear","0","0","0","0","0","0","METAR UKKK 051230Z 07003MPS CAVOK 30/13 Q1018 R08/CLRD70 NOSIG"
"4:00 PM EEST on August 05, 2016","2016","08","05","16","00","Europe/Kiev","1:00 PM GMT on August 05, 2016","2016","08","05","13","00","UTC","30.0","86.0","13.0","55.4","35","7.2","4.5","-9999.0","-9999.0","90","East","-9999.0","-9999.0","1018","30.06","-999","-999","29.2","84.5","-9999.00","-9999.00","Clear","clear","0","0","0","0","0","0","METAR UKKK 051300Z 09002MPS CAVOK 30/13 Q1018 R08/CLRD70 NOSIG"
"4:30 PM EEST on August 05, 2016","2016","08","05","16","30","Europe/Kiev","1:30 PM GMT on August 05, 2016","2016","08","05","13","30","UTC","29.0","84.2","13.0","55.4","37","10.8","6.7","-9999.0","-9999.0","100","East","-9999.0","-9999.0","1018","30.06","-999","-999","28.4","83.0","-9999.00","-9999.00","Clear","clear","0","0","0","0","0","0","METAR UKKK 051330Z 10003MPS 050V190 CAVOK 29/13 Q1018 R08/CLRD70 NOSIG"
"5:00 PM EEST on August 05, 2016","2016","08","05","17","00","Europe/Kiev","2:00 PM GMT on August 05, 2016","2016","08","05","14","00","UTC","29.0","84.2","13.0","55.4","37","10.8","6.7","-9999.0","-9999.0","90","East","-9999.0","-9999.0","1018","30.06","-999","-999","28.4","83.0","-9999.00","-9999.00","Clear","clear","0","0","0","0","0","0","METAR UKKK 051400Z 09003MPS 050V140 CAVOK 29/13 Q1018 R08/CLRD70 NOSIG"
"5:30 PM EEST on August 05, 2016","2016","08","05","17","30","Europe/Kiev","2:30 PM GMT on August 05, 2016","2016","08","05","14","30","UTC","29.0","84.2","13.0","55.4","37","10.8","6.7","-9999.0","-9999.0","110","ESE","-9999.0","-9999.0","1018","30.06","-999","-999","28.4","83.0","-9999.00","-9999.00","Clear","clear","0","0","0","0","0","0","METAR UKKK 051430Z 11003MPS 030V160 CAVOK 29/13 Q1018 R08/CLRD70 NOSIG"
"6:00 PM EEST on August 05, 2016","2016","08","05","18","00","Europe/Kiev","3:00 PM GMT on August 05, 2016","2016","08","05","15","00","UTC","29","84","13","56","28","3.6","2.2","","","190","South","20","12","1017","30.04","-999","-999","-9999","-9999","","","Scattered Clouds","partlycloudy","0","0","0","0","0","0","AAXX 05151 33345 42698 21901 10290 20134 39982 40171 57009 82100 555 10037"
"6:00 PM EEST on August 05, 2016","2016","08","05","18","00","Europe/Kiev","3:00 PM GMT on August 05, 2016","2016","08","05","15","00","UTC","29.0","84.2","13.0","55.4","37","7.2","4.5","-9999.0","-9999.0","130","SE","-9999.0","-9999.0","1018","30.06","-999","-999","28.4","83.0","-9999.00","-9999.00","Clear","clear","0","0","0","0","0","0","METAR UKKK 051500Z 13002MPS 060V200 CAVOK 29/13 Q1018 R08/CLRD70 NOSIG"
"6:30 PM EEST on August 05, 2016","2016","08","05","18","30","Europe/Kiev","3:30 PM GMT on August 05, 2016","2016","08","05","15","30","UTC","29.0","84.2","13.0","55.4","37","10.8","6.7","-9999.0","-9999.0","120","ESE","-9999.0","-9999.0","1018","30.06","-999","-999","28.4","83.0","-9999.00","-9999.00","Clear","clear","0","0","0","0","0","0","METAR UKKK 051530Z 12003MPS 090V170 CAVOK 29/13 Q1018 R08/CLRD70 NOSIG"
"7:00 PM EEST on August 05, 2016","2016","08","05","19","00","Europe/Kiev","4:00 PM GMT on August 05, 2016","2016","08","05","16","00","UTC","28.0","82.4","13.0","55.4","39","10.8","6.7","-9999.0","-9999.0","140","SE","-9999.0","-9999.0","1018","30.06","-999","-999","27.6","81.7","-9999.00","-9999.00","Clear","clear","0","0","0","0","0","0","METAR UKKK 051600Z 14003MPS 100V180 CAVOK 28/13 Q1018 R08/CLRD70 NOSIG"
"7:30 PM EEST on August 05, 2016","2016","08","05","19","30","Europe/Kiev","4:30 PM GMT on August 05, 2016","2016","08","05","16","30","UTC","27.0","80.6","14.0","57.2","45","14.4","8.9","-9999.0","-9999.0","130","SE","-9999.0","-9999.0","1018","30.06","-999","-999","27.1","80.8","-9999.00","-9999.00","Clear","clear","0","0","0","0","0","0","METAR UKKK 051630Z 13004MPS 100V170 CAVOK 27/14 Q1018 R08/CLRD70 NOSIG"
"8:00 PM EEST on August 05, 2016","2016","08","05","20","00","Europe/Kiev","5:00 PM GMT on August 05, 2016","2016","08","05","17","00","UTC","26.0","78.8","13.0","55.4","44","14.4","8.9","-9999.0","-9999.0","130","SE","-9999.0","-9999.0","1018","30.06","-999","-999","-9999","-9999","-9999.00","-9999.00","Clear","clear","0","0","0","0","0","0","METAR UKKK 051700Z 13004MPS 100V170 CAVOK 26/13 Q1018 R08/CLRD70 NOSIG"
"8:30 PM EEST on August 05, 2016","2016","08","05","20","30","Europe/Kiev","5:30 PM GMT on August 05, 2016","2016","08","05","17","30","UTC","25.0","77.0","14.0","57.2","50","10.8","6.7","-9999.0","-9999.0","130","SE","-9999.0","-9999.0","1018","30.06","-999","-999","-9999","-9999","-9999.00","-9999.00","Clear","clear","0","0","0","0","0","0","METAR UKKK 051730Z 13003MPS CAVOK 25/14 Q1018 R08/CLRD70 NOSIG"
"9:00 PM EEST on August 05, 2016","2016","08","05","21","00","Europe/Kiev","6:00 PM GMT on August 05, 2016","2016","08","05","18","00","UTC","24","75","16","60","51","0.0","0.0","","","","","20","12","1018","30.07","-999","-999","-9999","-9999","","","Clear","clear","0","0","0","0","0","0","AAXX 05181 33345 32998 10000 10240 20158 39989 40182 53007 80001 333 10304 555 10023"
"9:00 PM EEST on August 05, 2016","2016","08","05","21","00","Europe/Kiev","6:00 PM GMT on August 05, 2016","2016","08","05","18","00","UTC","25.0","77.0","14.0","57.2","50","10.8","6.7","-9999.0","-9999.0","130","SE","-9999.0","-9999.0","1018","30.06","-999","-999","-9999","-9999","-9999.00","-9999.00","Clear","clear","0","0","0","0","0","0","METAR UKKK 051800Z 13003MPS 100V160 CAVOK 25/14 Q1018 R08/CLRD70 NOSIG"
"9:30 PM EEST on August 05, 2016","2016","08","05","21","30","Europe/Kiev","6:30 PM GMT on August 05, 2016","2016","08","05","18","30","UTC","24.0","75.2","14.0","57.2","53","7.2","4.5","-9999.0","-9999.0","140","SE","-9999.0","-9999.0","1019","30.09","-999","-999","-9999","-9999","-9999.00","-9999.00","Clear","clear","0","0","0","0","0","0","METAR UKKK 051830Z 14002MPS 100V160 CAVOK 24/14 Q1019 R08/CLRD70 NOSIG"
"10:00 PM EEST on August 05, 2016","2016","08","05","22","00","Europe/Kiev","7:00 PM GMT on August 05, 2016","2016","08","05","19","00","UTC","23.0","73.4","15.0","59.0","61","7.2","4.5","-9999.0","-9999.0","140","SE","-9999.0","-9999.0","1019","30.09","-999","-999","-9999","-9999","-9999.00","-9999.00","Clear","clear","0","0","0","0","0","0","METAR UKKK 051900Z 14002MPS 120V180 CAVOK 23/15 Q1019 R08/CLRD70 NOSIG"
"10:30 PM EEST on August 05, 2016","2016","08","05","22","30","Europe/Kiev","7:30 PM GMT on August 05, 2016","2016","08","05","19","30","UTC","22.0","71.6","14.0","57.2","60","7.2","4.5","-9999.0","-9999.0","140","SE","-9999.0","-9999.0","1019","30.09","-999","-999","-9999","-9999","-9999.00","-9999.00","Clear","clear","0","0","0","0","0","0","METAR UKKK 051930Z 14002MPS 110V170 CAVOK 22/14 Q1019 R08/CLRD70 NOSIG"
"11:00 PM EEST on August 05, 2016","2016","08","05","23","00","Europe/Kiev","8:00 PM GMT on August 05, 2016","2016","08","05","20","00","UTC","22.0","71.6","14.0","57.2","60","7.2","4.5","-9999.0","-9999.0","140","SE","-9999.0","-9999.0","1019","30.09","-999","-999","-9999","-9999","-9999.00","-9999.00","Clear","clear","0","0","0","0","0","0","METAR UKKK 052000Z 14002MPS CAVOK 22/14 Q1019 R08/CLRD70 NOSIG"
"11:30 PM EEST on August 05, 2016","2016","08","05","23","30","Europe/Kiev","8:30 PM GMT on August 05, 2016","2016","08","05","20","30","UTC","22.0","71.6","14.0","57.2","60","7.2","4.5","-9999.0","-9999.0","140","SE","-9999.0","-9999.0","1019","30.09","-999","-999","-9999","-9999","-9999.00","-9999.00","Clear","clear","0","0","0","0","0","0","METAR UKKK 052030Z 14002MPS 110V170 CAVOK 22/14 Q1019 R08/CLRD70 NOSIG"
"12:00 AM EEST on August 06, 2016","2016","08","06","00","00","Europe/Kiev","9:00 PM GMT on August 05, 2016","2016","08","05","21","00","UTC","22","71","15","59","57","3.6","2.2","","","190","South","20","12","1018","30.08","-999","-999","-9999","-9999","","","","","0","0","0","0","0","0","AAXX 05211 33345 42998 01901 10216 20150 39990 40184 51001 555 10019"
"12:00 AM EEST on August 06, 2016","2016","08","06","00","00","Europe/Kiev","9:00 PM GMT on August 05, 2016","2016","08","05","21","00","UTC","21.0","69.8","14.0","57.2","64","3.6","2.2","-9999.0","-9999.0","120","ESE","-9999.0","-9999.0","1019","30.09","-999","-999","-9999","-9999","-9999.00","-9999.00","Clear","clear","0","0","0","0","0","0","METAR UKKK 052100Z 12001MPS CAVOK 21/14 Q1019 R08/CLRD70 NOSIG"
"12:30 AM EEST on August 06, 2016","2016","08","06","00","30","Europe/Kiev","9:30 PM GMT on August 05, 2016","2016","08","05","21","30","UTC","19.0","66.2","15.0","59.0","78","3.6","2.2","-9999.0","-9999.0","120","ESE","-9999.0","-9999.0","1019","30.09","-999","-999","-9999","-9999","-9999.00","-9999.00","Clear","clear","0","0","0","0","0","0","METAR UKKK 052130Z 12001MPS CAVOK 19/15 Q1019 R08/CLRD70 NOSIG"
"1:00 AM EEST on August 06, 2016","2016","08","06","01","00","Europe/Kiev","10:00 PM GMT on August 05, 2016","2016","08","05","22","00","UTC","18.0","64.4","14.0","57.2","77","3.6","2.2","-9999.0","-9999.0","110","ESE","9.0","5.6","1019","30.09","-999","-999","-9999","-9999","-9999.00","-9999.00","Clear","clear","0","0","0","0","0","0","METAR UKKK 052200Z 11001MPS 9000 SKC 18/14 Q1019 R08/CLRD70 NOSIG"
"1:30 AM EEST on August 06, 2016","2016","08","06","01","30","Europe/Kiev","10:30 PM GMT on August 05, 2016","2016","08","05","22","30","UTC","17.0","62.6","14.0","57.2","82","3.6","2.2","-9999.0","-9999.0","60","ENE","-9999.0","-9999.0","1019","30.09","-999","-999","-9999","-9999","-9999.00","-9999.00","Clear","clear","0","0","0","0","0","0","METAR UKKK 052230Z 06001MPS CAVOK 17/14 Q1019 R08/CLRD70 NOSIG"
"2:00 AM EEST on August 06, 2016","2016","08","06","02","00","Europe/Kiev","11:00 PM GMT on August 05, 2016","2016","08","05","23","00","UTC","18.0","64.4","14.0","57.2","77","7.2","4.5","-9999.0","-9999.0","80","East","-9999.0","-9999.0","1019","30.09","-999","-999","-9999","-9999","-9999.00","-9999.00","Clear","clear","0","0","0","0","0","0","METAR UKKK 052300Z 08002MPS CAVOK 18/14 Q1019 R08/CLRD70 NOSIG"
"2:30 AM EEST on August 06, 2016","2016","08","06","02","30","Europe/Kiev","11:30 PM GMT on August 05, 2016","2016","08","05","23","30","UTC","18.0","64.4","14.0","57.2","77","7.2","4.5","-9999.0","-9999.0","80","East","-9999.0","-9999.0","1019","30.09","-999","-999","-9999","-9999","-9999.00","-9999.00","Clear","clear","0","0","0","0","0","0","METAR UKKK 052330Z 08002MPS CAVOK 18/14 Q1019 R08/CLRD70 NOSIG"
"3:00 AM EEST on August 06, 2016","2016","08","06","03","00","Europe/Kiev","12:00 AM GMT on August 06, 2016","2016","08","06","00","00","UTC","19","67","15","59","68","0.0","0.0","","","","","20","12","1019","30.08","-999","-999","-9999","-9999","","","","","0","0","0","0","0","0","AAXX 06001 33345 32998 00000 10192 20149 39990 40186 54000 555 10017"
"3:00 AM EEST on August 06, 2016","2016","08","06","03","00","Europe/Kiev","12:00 AM GMT on August 06, 2016","2016","08","06","00","00","UTC","17.0","62.6","14.0","57.2","82","7.2","4.5","-9999.0","-9999.0","90","East","-9999.0","-9999.0","1019","30.09","-999","-999","-9999","-9999","-9999.00","-9999.00","Clear","clear","0","0","0","0","0","0","METAR UKKK 060000Z 09002MPS CAVOK 17/14 Q1019 R08/CLRD70 NOSIG"
"3:30 AM EEST on August 06, 2016","2016","08","06","03","30","Europe/Kiev","12:30 AM GMT on August 06, 2016","2016","08","06","00","30","UTC","17.0","62.6","15.0","59.0","88","3.6","2.2","-9999.0","-9999.0","90","East","-9999.0","-9999.0","1019","30.09","-999","-999","-9999","-9999","-9999.00","-9999.00","Clear","clear","0","0","0","0","0","0","METAR UKKK 060030Z 09001MPS CAVOK 17/15 Q1019 R08/CLRD70 NOSIG"
"4:00 AM EEST on August 06, 2016","2016","08","06","04","00","Europe/Kiev","1:00 AM GMT on August 06, 2016","2016","08","06","01","00","UTC","16.0","60.8","14.0","57.2","88","3.6","2.2","-9999.0","-9999.0","100","East","-9999.0","-9999.0","1019","30.09","-999","-999","-9999","-9999","-9999.00","-9999.00","Clear","clear","0","0","0","0","0","0","METAR UKKK 060100Z 10001MPS CAVOK 16/14 Q1019 R08/CLRD70 NOSIG"
"4:30 AM EEST on August 06, 2016","2016","08","06","04","30","Europe/Kiev","1:30 AM GMT on August 06, 2016","2016","08","06","01","30","UTC","16.0","60.8","15.0","59.0","94","0.0","0.0","-9999.0","-9999.0","0","North","-9999.0","-9999.0","1019","30.09","-999","-999","-9999","-9999","-9999.00","-9999.00","Clear","clear","0","0","0","0","0","0","METAR UKKK 060130Z 00000MPS CAVOK 16/15 Q1019 R08/CLRD70 NOSIG"
"5:00 AM EEST on August 06, 2016","2016","08","06","05","00","Europe/Kiev","2:00 AM GMT on August 06, 2016","2016","08","06","02","00","UTC","15.0","59.0","13.0","55.4","88","3.6","2.2","-9999.0","-9999.0","100","East","-9999.0","-9999.0","1019","30.09","-999","-999","-9999","-9999","-9999.00","-9999.00","Clear","clear","0","0","0","0","0","0","METAR UKKK 060200Z 10001MPS CAVOK 15/13 Q1019 R08/CLRD70 NOSIG"
"5:30 AM EEST on August 06, 2016","2016","08","06","05","30","Europe/Kiev","2:30 AM GMT on August 06, 2016","2016","08","06","02","30","UTC","16.0","60.8","14.0","57.2","88","3.6","2.2","-9999.0","-9999.0","90","East","-9999.0","-9999.0","1019","30.09","-999","-999","-9999","-9999","-9999.00","-9999.00","Clear","clear","0","0","0","0","0","0","METAR UKKK 060230Z 09001MPS CAVOK 16/14 Q1019 R08/CLRD70 NOSIG"
"6:00 AM EEST on August 06, 2016","2016","08","06","06","00","Europe/Kiev","3:00 AM GMT on August 06, 2016","2016","08","06","03","00","UTC","20","67","14","58","66","3.6","2.2","","","90","East","20","12","1018","30.08","-999","-999","-9999","-9999","","","","","0","0","0","0","0","0","AAXX 06031 33345 42998 00901 10196 20145 39989 40185 58001 555 10016"
"6:00 AM EEST on August 06, 2016","2016","08","06","06","00","Europe/Kiev","3:00 AM GMT on August 06, 2016","2016","08","06","03","00","UTC","16.0","60.8","15.0","59.0","94","7.2","4.5","-9999.0","-9999.0","90","East","-9999.0","-9999.0","1019","30.09","-999","-999","-9999","-9999","-9999.00","-9999.00","Clear","clear","0","0","0","0","0","0","METAR UKKK 060300Z 09002MPS CAVOK 16/15 Q1019 R08/CLRD70 NOSIG"
"6:30 AM EEST on August 06, 2016","2016","08","06","06","30","Europe/Kiev","3:30 AM GMT on August 06, 2016","2016","08","06","03","30","UTC","18.0","64.4","15.0","59.0","83","7.2","4.5","-9999.0","-9999.0","90","East","-9999.0","-9999.0","1019","30.09","-999","-999","-9999","-9999","-9999.00","-9999.00","Clear","clear","0","0","0","0","0","0","METAR UKKK 060330Z 09002MPS CAVOK 18/15 Q1019 R08/CLRD70 NOSIG"
"7:00 AM EEST on August 06, 2016","2016","08","06","07","00","Europe/Kiev","4:00 AM GMT on August 06, 2016","2016","08","06","04","00","UTC","20.0","68.0","16.0","60.8","78","7.2","4.5","-9999.0","-9999.0","90","East","-9999.0","-9999.0","1019","30.09","-999","-999","-9999","-9999","-9999.00","-9999.00","Clear","clear","0","0","0","0","0","0","METAR UKKK 060400Z 09002MPS CAVOK 20/16 Q1019 R08/CLRD70 NOSIG"
"7:30 AM EEST on August 06, 2016","2016","08","06","07","30","Europe/Kiev","4:30 AM GMT on August 06, 2016","2016","08","06","04","30","UTC","21.0","69.8","16.0","60.8","73","7.2","4.5","-9999.0","-9999.0","90","East","-9999.0","-9999.0","1019","30.09","-999","-999","-9999","-9999","-9999.00","-9999.00","Clear","clear","0","0","0","0","0","0","METAR UKKK 060430Z 09002MPS CAVOK 21/16 Q1019 R08/CLRD70 NOSIG"
"8:00 AM EEST on August 06, 2016","2016","08","06","08","00","Europe/Kiev","5:00 AM GMT on August 06, 2016","2016","08","06","05","00","UTC","22.0","71.6","15.0","59.0","64","7.2","4.5","-9999.0","-9999.0","90","East","-9999.0","-9999.0","1019","30.09","-999","-999","-9999","-9999","-9999.00","-9999.00","Clear","clear","0","0","0","0","0","0","METAR UKKK 060500Z 09002MPS CAVOK 22/15 Q1019 R08/CLRD70 NOSIG"
"8:30 AM EEST on August 06, 2016","2016","08","06","08","30","Europe/Kiev","5:30 AM GMT on August 06, 2016","2016","08","06","05","30","UTC","23.0","73.4","16.0","60.8","65","7.2","4.5","-9999.0","-9999.0","90","East","-9999.0","-9999.0","1019","30.09","-999","-999","-9999","-9999","-9999.00","-9999.00","Clear","clear","0","0","0","0","0","0","METAR UKKK 060530Z 09002MPS 030V140 CAVOK 23/16 Q1019 R08/CLRD70 NOSIG"
"9:00 AM EEST on August 06, 2016","2016","08","06","09","00","Europe/Kiev","6:00 AM GMT on August 06, 2016","2016","08","06","06","00","UTC","24","75","16","60","50","0.0","0.0","","","","","20","12","1018","30.07","-999","-999","-9999","-9999","","","","","0","0","0","0","0","0","AAXX 06061 33345 32998 00000 10238 20155 39989 40182 54000 333 20184 555 10035"
"9:00 AM EEST on August 06, 2016","2016","08","06","09","00","Europe/Kiev","6:00 AM GMT on August 06, 2016","2016","08","06","06","00","UTC","24.0","75.2","15.0","59.0","57","7.2","4.5","-9999.0","-9999.0","100","East","-9999.0","-9999.0","1019","30.09","-999","-999","-9999","-9999","-9999.00","-9999.00","Clear","clear","0","0","0","0","0","0","METAR UKKK 060600Z 10002MPS 050V150 CAVOK 24/15 Q1019 R08/CLRD70 NOSIG"
"9:30 AM EEST on August 06, 2016","2016","08","06","09","30","Europe/Kiev","6:30 AM GMT on August 06, 2016","2016","08","06","06","30","UTC","26.0","78.8","14.0","57.2","47","7.2","4.5","-9999.0","-9999.0","110","ESE","-9999.0","-9999.0","1018","30.06","-999","-999","-9999","-9999","-9999.00","-9999.00","Clear","clear","0","0","0","0","0","0","METAR UKKK 060630Z 11002MPS 060V190 CAVOK 26/14 Q1018 R08/CLRD70 NOSIG"
"10:00 AM EEST on August 06, 2016","2016","08","06","10","00","Europe/Kiev","7:00 AM GMT on August 06, 2016","2016","08","06","07","00","UTC","26.0","78.8","14.0","57.2","47","10.8","6.7","-9999.0","-9999.0","150","SSE","-9999.0","-9999.0","1018","30.06","-999","-999","-9999","-9999","-9999.00","-9999.00","Clear","clear","0","0","0","0","0","0","METAR UKKK 060700Z 15003MPS 110V200 CAVOK 26/14 Q1018 R08/CLRD70 NOSIG"
"10:30 AM EEST on August 06, 2016","2016","08","06","10","30","Europe/Kiev","7:30 AM GMT on August 06, 2016","2016","08","06","07","30","UTC","27.0","80.6","14.0","57.2","45","7.2","4.5","-9999.0","-9999.0","140","SE","-9999.0","-9999.0","1018","30.06","-999","-999","27.1","80.8","-9999.00","-9999.00","Clear","clear","0","0","0","0","0","0","METAR UKKK 060730Z 14002MPS 080V220 CAVOK 27/14 Q1018 R08/CLRD70 NOSIG"
"11:00 AM EEST on August 06, 2016","2016","08","06","11","00","Europe/Kiev","8:00 AM GMT on August 06, 2016","2016","08","06","08","00","UTC","28.0","82.4","13.0","55.4","39","7.2","4.5","-9999.0","-9999.0","100","East","-9999.0","-9999.0","1018","30.06","-999","-999","27.6","81.7","-9999.00","-9999.00","Clear","clear","0","0","0","0","0","0","METAR UKKK 060800Z 10002MPS CAVOK 28/13 Q1018 R08/CLRD70 NOSIG"
"11:30 AM EEST on August 06, 2016","2016","08","06","11","30","Europe/Kiev","8:30 AM GMT on August 06, 2016","2016","08","06","08","30","UTC","28.0","82.4","13.0","55.4","39","10.8","6.7","-9999.0","-9999.0","110","ESE","-9999.0","-9999.0","1018","30.06","-999","-999","27.6","81.7","-9999.00","-9999.00","Clear","clear","0","0","0","0","0","0","METAR UKKK 060830Z 11003MPS 030V170 CAVOK 28/13 Q1018 R08/CLRD70 NOSIG"
"12:00 PM EEST on August 06, 2016","2016","08","06","12","00","Europe/Kiev","9:00 AM GMT on August 06, 2016","2016","08","06","09","00","UTC","28","83","13","55","28","7.2","4.5","","","150","SSE","20","12","1018","30.06","-999","-999","-9999","-9999","","","","","0","0","0","0","0","0","AAXX 06091 33345 42998 01502 10285 20129 39987 40177 58002 555 10053"
"12:00 PM EEST on August 06, 2016","2016","08","06","12","00","Europe/Kiev","9:00 AM GMT on August 06, 2016","2016","08","06","09","00","UTC","28.0","82.4","14.0","57.2","42","14.4","8.9","-9999.0","-9999.0","120","ESE","-9999.0","-9999.0","1018","30.06","-999","-999","27.8","82.0","-9999.00","-9999.00","Clear","clear","0","0","0","0","0","0","METAR UKKK 060900Z 12004MPS 080V190 CAVOK 28/14 Q1018 R08/CLRD70 NOSIG"
"12:30 PM EEST on August 06, 2016","2016","08","06","12","30","Europe/Kiev","9:30 AM GMT on August 06, 2016","2016","08","06","09","30","UTC","28.0","82.4","14.0","57.2","42","10.8","6.7","-9999.0","-9999.0","50","NE","-9999.0","-9999.0","1018","30.06","-999","-999","27.8","82.0","-9999.00","-9999.00","Clear","clear","0","0","0","0","0","0","METAR UKKK 060930Z 05003MPS 360V160 CAVOK 28/14 Q1018 R08/CLRD70 NOSIG"
"1:00 PM EEST on August 06, 2016","2016","08","06","13","00","Europe/Kiev","10:00 AM GMT on August 06, 2016","2016","08","06","10","00","UTC","29.0","84.2","14.0","57.2","40","10.8","6.7","-9999.0","-9999.0","80","East","-9999.0","-9999.0","1018","30.06","-999","-999","28.6","83.5","-9999.00","-9999.00","Clear","clear","0","0","0","0","0","0","METAR UKKK 061000Z 08003MPS CAVOK 29/14 Q1018 R08/CLRD70 NOSIG"
"1:30 PM EEST on August 06, 2016","2016","08","06","13","30","Europe/Kiev","10:30 AM GMT on August 06, 2016","2016","08","06","10","30","UTC","29.0","84.2","13.0","55.4","37","14.4","8.9","-9999.0","-9999.0","120","ESE","-9999.0","-9999.0","1018","30.06","-999","-999","28.4","83.0","-9999.00","-9999.00","Clear","clear","0","0","0","0","0","0","METAR UKKK 061030Z 12004MPS 080V150 CAVOK 29/13 Q1018 R08/CLRD70 NOSIG"
"2:00 PM EEST on August 06, 2016","2016","08","06","14","00","Europe/Kiev","11:00 AM GMT on August 06, 2016","2016","08","06","11","00","UTC","30.0","86.0","14.0","57.2","37","7.2","4.5","-9999.0","-9999.0","140","SE","-9999.0","-9999.0","1018","30.06","-999","-999","29.4","84.9","-9999.00","-9999.00","Clear","clear","0","0","0","0","0","0","METAR UKKK 061100Z 14002MPS CAVOK 30/14 Q1018 R08/CLRD70 NOSIG"
"2:30 PM EEST on August 06, 2016","2016","08","06","14","30","Europe/Kiev","11:30 AM GMT on August 06, 2016","2016","08","06","11","30","UTC","30.0","86.0","13.0","55.4","35","10.8","6.7","-9999.0","-9999.0","100","East","-9999.0","-9999.0","1017","30.04","-999","-999","29.2","84.5","-9999.00","-9999.00","Clear","clear","0","0","0","0","0","0","METAR UKKK 061130Z 10003MPS CAVOK 30/13 Q1017 R08/CLRD70 NOSIG"
"3:00 PM EEST on August 06, 2016","2016","08","06","15","00","Europe/Kiev","12:00 PM GMT on August 06, 2016","2016","08","06","12","00","UTC","31","87","12","53","21","7.2","4.5","","","210","SSW","20","12","1017","30.02","-999","-999","-9999","-9999","","","","","0","0","0","0","0","0","AAXX 06121 33345 32998 02102 10308 20117 39978 40166 57009 555 10031"
"3:00 PM EEST on August 06, 2016","2016","08","06","15","00","Europe/Kiev","12:00 PM GMT on August 06, 2016","2016","08","06","12","00","UTC","30.0","86.0","13.0","55.4","35","3.6","2.2","-9999.0","-9999.0","0","Variable","-9999.0","-9999.0","1017","30.04","-999","-999","29.2","84.5","-9999.00","-9999.00","Clear","clear","0","0","0","0","0","0","METAR UKKK 061200Z VRB01MPS CAVOK 30/13 Q1017 R08/CLRD70 NOSIG"
"3:30 PM EEST on August 06, 2016","2016","08","06","15","30","Europe/Kiev","12:30 PM GMT on August 06, 2016","2016","08","06","12","30","UTC","30.0","86.0","12.0","53.6","33","7.2","4.5","-9999.0","-9999.0","60","ENE","-9999.0","-9999.0","1017","30.04","-999","-999","29.0","84.2","-9999.00","-9999.00","Clear","clear","0","0","0","0","0","0","METAR UKKK 061230Z 06002MPS CAVOK 30/12 Q1017 R08/CLRD70 NOSIG"
"4:00 PM EEST on August 06, 2016","2016","08","06","16","00","Europe/Kiev","1:00 PM GMT on August 06, 2016","2016","08","06","13","00","UTC","31.0","87.8","12.0","53.6","31","7.2","4.5","-9999.0","-9999.0","190","South","-9999.0","-9999.0","1017","30.04","-999","-999","29.8","85.7","-9999.00","-9999.00","Clear","clear","0","0","0","0","0","0","METAR UKKK 061300Z 19002MPS CAVOK 31/12 Q1017 R08/CLRD70 NOSIG"
"4:30 PM EEST on August 06, 2016","2016","08","06","16","30","Europe/Kiev","1:30 PM GMT on August 06, 2016","2016","08","06","13","30","UTC","31.0","87.8","12.0","53.6","31","10.8","6.7","-9999.0","-9999.0","160","SSE","-9999.0","-9999.0","1017","30.04","-999","-999","29.8","85.7","-9999.00","-9999.00","Clear","clear","0","0","0","0","0","0","METAR UKKK 061330Z 16003MPS 100V230 CAVOK 31/12 Q1017 R08/CLRD70 NOSIG"
"5:00 PM EEST on August 06, 2016","2016","08","06","17","00","Europe/Kiev","2:00 PM GMT on August 06, 2016","2016","08","06","14","00","UTC","30.0","86.0","13.0","55.4","35","10.8","6.7","-9999.0","-9999.0","50","NE","-9999.0","-9999.0","1017","30.04","-999","-999","29.2","84.5","-9999.00","-9999.00","Clear","clear","0","0","0","0","0","0","METAR UKKK 061400Z 05003MPS 010V100 CAVOK 30/13 Q1017 R08/CLRD70 NOSIG"
"5:30 PM EEST on August 06, 2016","2016","08","06","17","30","Europe/Kiev","2:30 PM GMT on August 06, 2016","2016","08","06","14","30","UTC","31.0","87.8","14.0","57.2","35","3.6","2.2","-9999.0","-9999.0","0","Variable","-9999.0","-9999.0","1016","30.01","-999","-999","30.3","86.5","-9999.00","-9999.00","Clear","clear","0","0","0","0","0","0","METAR UKKK 061430Z VRB01MPS CAVOK 31/14 Q1016 R08/CLRD70 NOSIG"
"6:00 PM EEST on August 06, 2016","2016","08","06","18","00","Europe/Kiev","3:00 PM GMT on August 06, 2016","2016","08","06","15","00","UTC","32","89","14","56","23","3.6","2.2","","","150","SSE","20","12","1015","29.99","-999","-999","-9999","-9999","","","Clear","clear","0","0","0","0","0","0","AAXX 06151 33345 42998 21501 10315 20135 39967 40154 57011 80001 555 10044"
"6:00 PM EEST on August 06, 2016","2016","08","06","18","00","Europe/Kiev","3:00 PM GMT on August 06, 2016","2016","08","06","15","00","UTC","31.0","87.8","13.0","55.4","33","3.6","2.2","-9999.0","-9999.0","0","Variable","-9999.0","-9999.0","1016","30.01","-999","-999","30.0","86.1","-9999.00","-9999.00","Clear","clear","0","0","0","0","0","0","METAR UKKK 061500Z VRB01MPS CAVOK 31/13 Q1016 R08/CLRD70 NOSIG"
"6:30 PM EEST on August 06, 2016","2016","08","06","18","30","Europe/Kiev","3:30 PM GMT on August 06, 2016","2016","08","06","15","30","UTC","30.0","86.0","13.0","55.4","35","7.2","4.5","-9999.0","-9999.0","130","SE","-9999.0","-9999.0","1016","30.01","-999","-999","29.2","84.5","-9999.00","-9999.00","Clear","clear","0","0","0","0","0","0","METAR UKKK 061530Z 13002MPS CAVOK 30/13 Q1016 R08/CLRD70 NOSIG"
"7:00 PM EEST on August 06, 2016","2016","08","06","19","00","Europe/Kiev","4:00 PM GMT on August 06, 2016","2016","08","06","16","00","UTC","30.0","86.0","15.0","59.0","40","3.6","2.2","-9999.0","-9999.0","0","Variable","-9999.0","-9999.0","1016","30.01","-999","-999","29.7","85.4","-9999.00","-9999.00","Clear","clear","0","0","0","0","0","0","METAR UKKK 061600Z VRB01MPS CAVOK 30/15 Q1016 R08/CLRD70 NOSIG"
"7:30 PM EEST on August 06, 2016","2016","08","06","19","30","Europe/Kiev","4:30 PM GMT on August 06, 2016","2016","08","06","16","30","UTC","29.0","84.2","13.0","55.4","37","3.6","2.2","-9999.0","-9999.0","0","Variable","9.0","5.6","1016","30.01","-999","-999","28.4","83.0","-9999.00","-9999.00","Clear","clear","0","0","0","0","0","0","METAR UKKK 061630Z VRB01MPS 9000 SKC 29/13 Q1016 R08/CLRD70 NOSIG"
"8:00 PM EEST on August 06, 2016","2016","08","06","20","00","Europe/Kiev","5:00 PM GMT on August 06, 2016","2016","08","06","17","00","UTC","28.0","82.4","14.0","57.2","42","0.0","0.0","-9999.0","-9999.0","0","North","9.0","5.6","1016","30.01","-999","-999","27.8","82.0","-9999.00","-9999.00","Clear","clear","0","0","0","0","0","0","METAR UKKK 061700Z 00000MPS 9000 SKC 28/14 Q1016 R08/CLRD70 NOSIG"
"8:30 PM EEST on August 06, 2016","2016","08","06","20","30","Europe/Kiev","5:30 PM GMT on August 06, 2016","2016","08","06","17","30","UTC","26.0","78.8","15.0","59.0","51","7.2","4.5","-9999.0","-9999.0","90","East","9.0","5.6","1016","30.01","-999","-999","-9999","-9999","-9999.00","-9999.00","Clear","clear","0","0","0","0","0","0","METAR UKKK 061730Z 09002MPS 9000 SKC 26/15 Q1016 R08/CLRD70 NOSIG"
"9:00 PM EEST on August 06, 2016","2016","08","06","21","00","Europe/Kiev","6:00 PM GMT on August 06, 2016","2016","08","06","18","00","UTC","26","78","16","62","47","0.0","0.0","","","","","20","12","1016","30.01","-999","-999","-9999","-9999","","","","","0","0","0","0","0","0","AAXX 06181 33345 32998 00000 10255 20164 39969 40160 53002 333 10317 555 10025"
"9:00 PM EEST on August 06, 2016","2016","08","06","21","00","Europe/Kiev","6:00 PM GMT on August 06, 2016","2016","08","06","18","00","UTC","25.0","77.0","15.0","59.0","54","7.2","4.5","-9999.0","-9999.0","80","East","4.0","2.5","1016","30.01","-999","-999","-9999","-9999","-9999.00","-9999.00","Smoke","hazy","0","0","0","0","0","0","METAR UKKK 061800Z 08002MPS 4000 FU SKC 25/15 Q1016 R08/CLRD70 NOSIG"
"9:30 PM EEST on August 06, 2016","2016","08","06","21","30","Europe/Kiev","6:30 PM GMT on August 06, 2016","2016","08","06","18","30","UTC","23.0","73.4","16.0","60.8","65","0.0","0.0","-9999.0","-9999.0","0","North","6.0","3.7","1017","30.04","-999","-999","-9999","-9999","-9999.00","-9999.00","Clear","clear","0","0","0","0","0","0","METAR UKKK 061830Z 00000MPS 6000 SKC 23/16 Q1017 R08/CLRD70 NOSIG"
"10:00 PM EEST on August 06, 2016","2016","08","06","22","00","Europe/Kiev","7:00 PM GMT on August 06, 2016","2016","08","06","19","00","UTC","22.0","71.6","16.0","60.8","69","0.0","0.0","-9999.0","-9999.0","0","North","7.0","4.3","1017","30.04","-999","-999","-9999","-9999","-9999.00","-9999.00","Clear","clear","0","0","0","0","0","0","METAR UKKK 061900Z 00000MPS 7000 SKC 22/16 Q1017 R08/CLRD70 NOSIG"
"10:30 PM EEST on August 06, 2016","2016","08","06","22","30","Europe/Kiev","7:30 PM GMT on August 06, 2016","2016","08","06","19","30","UTC","21.0","69.8","16.0","60.8","73","3.6","2.2","-9999.0","-9999.0","260","West","8.0","5.0","1017","30.04","-999","-999","-9999","-9999","-9999.00","-9999.00","Clear","clear","0","0","0","0","0","0","METAR UKKK 061930Z 26001MPS 8000 SKC 21/16 Q1017 R08/CLRD70 NOSIG"
"11:00 PM EEST on August 06, 2016","2016","08","06","23","00","Europe/Kiev","8:00 PM GMT on August 06, 2016","2016","08","06","20","00","UTC","21.0","69.8","16.0","60.8","73","0.0","0.0","-9999.0","-9999.0","0","North","8.0","5.0","1016","30.01","-999","-999","-9999","-9999","-9999.00","-9999.00","Clear","clear","0","0","0","0","0","0","METAR UKKK 062000Z 00000MPS 8000 SKC 21/16 Q1016 R08/CLRD70 NOSIG"
"11:30 PM EEST on August 06, 2016","2016","08","06","23","30","Europe/Kiev","8:30 PM GMT on August 06, 2016","2016","08","06","20","30","UTC","20.0","68.0","16.0","60.8","78","0.0","0.0","-9999.0","-9999.0","0","North","-9999.0","-9999.0","1017","30.04","-999","-999","-9999","-9999","-9999.00","-9999.00","Clear","clear","0","0","0","0","0","0","METAR UKKK 062030Z 00000MPS CAVOK 20/16 Q1017 R08/CLRD70 NOSIG"
"12:00 AM EEST on August 07, 2016","2016","08","07","00","00","Europe/Kiev","9:00 PM GMT on August 06, 2016","2016","08","06","21","00","UTC","23","73","16","60","56","3.6","2.2","","","330","NNW","20","12","1016","30.01","-999","-999","-9999","-9999","","","","","0","0","0","0","0","0","AAXX 06211 33345 42998 03301 10229 20158 39970 40163 52001 555 10021"
"12:00 AM EEST on August 07, 2016","2016","08","07","00","00","Europe/Kiev","9:00 PM GMT on August 06, 2016","2016","08","06","21","00","UTC","20.0","68.0","16.0","60.8","78","0.0","0.0","-9999.0","-9999.0","0","North","-9999.0","-9999.0","1017","30.04","-999","-999","-9999","-9999","-9999.00","-9999.00","Clear","clear","0","0","0","0","0","0","METAR UKKK 062100Z 00000MPS CAVOK 20/16 Q1017 R08/CLRD70 NOSIG"
"12:30 AM EEST on August 07, 2016","2016","08","07","00","30","Europe/Kiev","9:30 PM GMT on August 06, 2016","2016","08","06","21","30","UTC","20.0","68.0","16.0","60.8","78","0.0","0.0","-9999.0","-9999.0","0","North","-9999.0","-9999.0","1017","30.04","-999","-999","-9999","-9999","-9999.00","-9999.00","Clear","clear","0","0","0","0","0","0","METAR UKKK 062130Z 00000MPS CAVOK 20/16 Q1017 R08/CLRD70 NOSIG"
"1:00 AM EEST on August 07, 2016","2016","08","07","01","00","Europe/Kiev","10:00 PM GMT on August 06, 2016","2016","08","06","22","00","UTC","19.0","66.2","16.0","60.8","83","0.0","0.0","-9999.0","-9999.0","0","North","-9999.0","-9999.0","1017","30.04","-999","-999","-9999","-9999","-9999.00","-9999.00","Clear","clear","0","0","0","0","0","0","METAR UKKK 062200Z 00000MPS CAVOK 19/16 Q1017 R08/CLRD70 NOSIG"
"1:30 AM EEST on August 07, 2016","2016","08","07","01","30","Europe/Kiev","10:30 PM GMT on August 06, 2016","2016","08","06","22","30","UTC","19.0","66.2","16.0","60.8","83","0.0","0.0","-9999.0","-9999.0","0","North","-9999.0","-9999.0","1017","30.04","-999","-999","-9999","-9999","-9999.00","-9999.00","Clear","clear","0","0","0","0","0","0","METAR UKKK 062230Z 00000MPS CAVOK 19/16 Q1017 R08/CLRD70 NOSIG"
"2:00 AM EEST on August 07, 2016","2016","08","07","02","00","Europe/Kiev","11:00 PM GMT on August 06, 2016","2016","08","06","23","00","UTC","18.0","64.4","16.0","60.8","88","0.0","0.0","-9999.0","-9999.0","0","North","-9999.0","-9999.0","1017","30.04","-999","-999","-9999","-9999","-9999.00","-9999.00","Clear","clear","0","0","0","0","0","0","METAR UKKK 062300Z 00000MPS CAVOK 18/16 Q1017 R08/CLRD70 NOSIG"
"2:30 AM EEST on August 07, 2016","2016","08","07","02","30","Europe/Kiev","11:30 PM GMT on August 06, 2016","2016","08","06","23","30","UTC","18.0","64.4","16.0","60.8","88","0.0","0.0","-9999.0","-9999.0","0","North","9.0","5.6","1016","30.01","-999","-999","-9999","-9999","-9999.00","-9999.00","Clear","clear","0","0","0","0","0","0","METAR UKKK 062330Z 00000MPS 9000 SKC 18/16 Q1016 R08/CLRD70 NOSIG"
"3:00 AM EEST on August 07, 2016","2016","08","07","03","00","Europe/Kiev","12:00 AM GMT on August 07, 2016","2016","08","07","00","00","UTC","23","74","16","60","53","7.2","4.5","","","310","NW","20","12","1016","30.01","-999","-999","-9999","-9999","","","","","0","0","0","0","0","0","AAXX 07001 33345 32998 03102 10231 20157 39968 40161 58002 555 10020"
"3:00 AM EEST on August 07, 2016","2016","08","07","03","00","Europe/Kiev","12:00 AM GMT on August 07, 2016","2016","08","07","00","00","UTC","18.0","64.4","16.0","60.8","88","0.0","0.0","-9999.0","-9999.0","0","North","9.0","5.6","1016","30.01","-999","-999","-9999","-9999","-9999.00","-9999.00","Clear","clear","0","0","0","0","0","0","METAR UKKK 070000Z 00000MPS 9000 SKC 18/16 Q1016 R08/CLRD70 NOSIG"
"3:30 AM EEST on August 07, 2016","2016","08","07","03","30","Europe/Kiev","12:30 AM GMT on August 07, 2016","2016","08","07","00","30","UTC","18.0","64.4","16.0","60.8","88","0.0","0.0","-9999.0","-9999.0","0","North","-9999.0","-9999.0","1016","30.01","-999","-999","-9999","-9999","-9999.00","-9999.00","Clear","clear","0","0","0","0","0","0","METAR UKKK 070030Z 00000MPS CAVOK 18/16 Q1016 R08/CLRD70 NOSIG"
"4:00 AM EEST on August 07, 2016","2016","08","07","04","00","Europe/Kiev","1:00 AM GMT on August 07, 2016","2016","08","07","01","00","UTC","18.0","64.4","16.0","60.8","88","0.0","0.0","-9999.0","-9999.0","0","North","-9999.0","-9999.0","1016","30.01","-999","-999","-9999","-9999","-9999.00","-9999.00","Clear","clear","0","0","0","0","0","0","METAR UKKK 070100Z 00000MPS CAVOK 18/16 Q1016 R08/CLRD70 NOSIG"
"4:30 AM EEST on August 07, 2016","2016","08","07","04","30","Europe/Kiev","1:30 AM GMT on August 07, 2016","2016","08","07","01","30","UTC","17.0","62.6","16.0","60.8","94","3.6","2.2","-9999.0","-9999.0","240","WSW","-9999.0","-9999.0","1016","30.01","-999","-999","-9999","-9999","-9999.00","-9999.00","Clear","clear","0","0","0","0","0","0","METAR UKKK 070130Z 24001MPS CAVOK 17/16 Q1016 R08/CLRD70 NOSIG"
"5:00 AM EEST on August 07, 2016","2016","08","07","05","00","Europe/Kiev","2:00 AM GMT on August 07, 2016","2016","08","07","02","00","UTC","16.0","60.8","15.0","59.0","94","0.0","0.0","-9999.0","-9999.0","0","North","8.0","5.0","1016","30.01","-999","-999","-9999","-9999","-9999.00","-9999.00","Clear","clear","0","0","0","0","0","0","METAR UKKK 070200Z 00000MPS 8000 SKC 16/15 Q1016 R08/CLRD70 NOSIG"
"5:30 AM EEST on August 07, 2016","2016","08","07","05","30","Europe/Kiev","2:30 AM GMT on August 07, 2016","2016","08","07","02","30","UTC","17.0","62.6","16.0","60.8","94","0.0","0.0","-9999.0","-9999.0","0","North","9.0","5.6","1016","30.01","-999","-999","-9999","-9999","-9999.00","-9999.00","Clear","clear","0","0","0","0","0","0","METAR UKKK 070230Z 00000MPS 9000 SKC 17/16 Q1016 R08/CLRD70 NOSIG"
"6:00 AM EEST on August 07, 2016","2016","08","07","06","00","Europe/Kiev","3:00 AM GMT on August 07, 2016","2016","08","07","03","00","UTC","21","69","16","60","65","0.0","0.0","","","","","20","12","1016","30.00","-999","-999","-9999","-9999","","","","","0","0","0","0","0","0","AAXX 07031 33345 42998 00000 10207 20155 39964 40158 57004 555 10018"
"6:00 AM EEST on August 07, 2016","2016","08","07","06","00","Europe/Kiev","3:00 AM GMT on August 07, 2016","2016","08","07","03","00","UTC","18.0","64.4","16.0","60.8","88","14.4","8.9","-9999.0","-9999.0","270","West","10.0","6.2","1016","30.01","-999","-999","-9999","-9999","-9999.00","-9999.00","Clear","clear","0","0","0","0","0","0","METAR UKKK 070300Z 27004MPS 9999 SKC 18/16 Q1016 R26/CLRD70 NOSIG"
"6:30 AM EEST on August 07, 2016","2016","08","07","06","30","Europe/Kiev","3:30 AM GMT on August 07, 2016","2016","08","07","03","30","UTC","19.0","66.2","15.0","59.0","78","7.2","4.5","-9999.0","-9999.0","240","WSW","-9999.0","-9999.0","1016","30.01","-999","-999","-9999","-9999","-9999.00","-9999.00","Clear","clear","0","0","0","0","0","0","METAR UKKK 070330Z 24002MPS CAVOK 19/15 Q1016 R26/CLRD70 NOSIG"
"7:00 AM EEST on August 07, 2016","2016","08","07","07","00","Europe/Kiev","4:00 AM GMT on August 07, 2016","2016","08","07","04","00","UTC","20.0","68.0","16.0","60.8","78","10.8","6.7","-9999.0","-9999.0","260","West","-9999.0","-9999.0","1016","30.01","-999","-999","-9999","-9999","-9999.00","-9999.00","Clear","clear","0","0","0","0","0","0","METAR UKKK 070400Z 26003MPS CAVOK 20/16 Q1016 R26/CLRD70 NOSIG"
"7:30 AM EEST on August 07, 2016","2016","08","07","07","30","Europe/Kiev","4:30 AM GMT on August 07, 2016","2016","08","07","04","30","UTC","20.0","68.0","15.0","59.0","73","14.4","8.9","-9999.0","-9999.0","270","West","-9999.0","-9999.0","1017","30.04","-999","-999","-9999","-9999","-9999.00","-9999.00","Clear","clear","0","0","0","0","0","0","METAR UKKK 070430Z 27004MPS CAVOK 20/15 Q1017 R26/CLRD70 NOSIG"
"8:00 AM EEST on August 07, 2016","2016","08","07","08","00","Europe/Kiev","5:00 AM GMT on August 07, 2016","2016","08","07","05","00","UTC","21.0","69.8","15.0","59.0","68","14.4","8.9","-9999.0","-9999.0","290","WNW","-9999.0","-9999.0","1017","30.04","-999","-999","-9999","-9999","-9999.00","-9999.00","Clear","clear","0","0","0","0","0","0","METAR UKKK 070500Z 29004MPS CAVOK 21/15 Q1017 R26/CLRD70 NOSIG"
"8:30 AM EEST on August 07, 2016","2016","08","07","08","30","Europe/Kiev","5:30 AM GMT on August 07, 2016","2016","08","07","05","30","UTC","21.0","69.8","16.0","60.8","73","18.0","11.2","-9999.0","-9999.0","290","WNW","-9999.0","-9999.0","1017","30.04","-999","-999","-9999","-9999","-9999.00","-9999.00","Clear","clear","0","0","0","0","0","0","METAR UKKK 070530Z 29005MPS CAVOK 21/16 Q1017 R26/CLRD70 NOSIG"
"9:00 AM EEST on August 07, 2016","2016","08","07","09","00","Europe/Kiev","6:00 AM GMT on August 07, 2016","2016","08","07","06","00","UTC","23","73","16","60","56","14.4","8.9","","","340","NNW","20","12","1017","30.03","-999","-999","-9999","-9999","","","","","0","0","0","0","0","0","AAXX 07061 33345 32998 03404 10229 20158 39975 40168 53011 333 20206 555 10033"
"9:00 AM EEST on August 07, 2016","2016","08","07","09","00","Europe/Kiev","6:00 AM GMT on August 07, 2016","2016","08","07","06","00","UTC","21.0","69.8","17.0","62.6","78","21.6","13.4","-9999.0","-9999.0","290","WNW","-9999.0","-9999.0","1017","30.04","-999","-999","-9999","-9999","-9999.00","-9999.00","Clear","clear","0","0","0","0","0","0","METAR UKKK 070600Z 29006MPS CAVOK 21/17 Q1017 R26/CLRD70 NOSIG"
"9:30 AM EEST on August 07, 2016","2016","08","07","09","30","Europe/Kiev","6:30 AM GMT on August 07, 2016","2016","08","07","06","30","UTC","20.0","68.0","17.0","62.6","83","21.6","13.4","-9999.0","-9999.0","300","WNW","-9999.0","-9999.0","1018","30.06","-999","-999","-9999","-9999","-9999.00","-9999.00","Clear","clear","0","0","0","0","0","0","METAR UKKK 070630Z 30006MPS CAVOK 20/17 Q1018 R26/CLRD70 NOSIG"
"10:00 AM EEST on August 07, 2016","2016","08","07","10","00","Europe/Kiev","7:00 AM GMT on August 07, 2016","2016","08","07","07","00","UTC","21.0","69.8","17.0","62.6","78","18.0","11.2","-9999.0","-9999.0","310","NW","10.0","6.2","1018","30.06","-999","-999","-9999","-9999","-9999.00","-9999.00","Scattered Clouds","partlycloudy","0","0","0","0","0","0","METAR UKKK 070700Z 31005MPS 290V350 9999 SCT013 21/17 Q1018 R26/CLRD70 NOSIG"
"10:30 AM EEST on August 07, 2016","2016","08","07","10","30","Europe/Kiev","7:30 AM GMT on August 07, 2016","2016","08","07","07","30","UTC","22.0","71.6","18.0","64.4","78","21.6","13.4","-9999.0","-9999.0","310","NW","10.0","6.2","1018","30.06","-999","-999","-9999","-9999","-9999.00","-9999.00","Mostly Cloudy","mostlycloudy","0","0","0","0","0","0","METAR UKKK 070730Z 31006MPS 9999 BKN012 22/18 Q1018 R26/CLRD70 NOSIG"
"11:00 AM EEST on August 07, 2016","2016","08","07","11","00","Europe/Kiev","8:00 AM GMT on August 07, 2016","2016","08","07","08","00","UTC","21.0","69.8","17.0","62.6","78","18.0","11.2","-9999.0","-9999.0","330","NNW","10.0","6.2","1018","30.06","-999","-999","-9999","-9999","-9999.00","-9999.00","Mostly Cloudy","mostlycloudy","0","0","0","0","0","0","METAR UKKK 070800Z 33005MPS 9999 BKN013 21/17 Q1018 R26/CLRD70 NOSIG"
"11:30 AM EEST on August 07, 2016","2016","08","07","11","30","Europe/Kiev","8:30 AM GMT on August 07, 2016","2016","08","07","08","30","UTC","22.0","71.6","18.0","64.4","78","18.0","11.2","-9999.0","-9999.0","340","NNW","10.0","6.2","1018","30.06","-999","-999","-9999","-9999","-9999.00","-9999.00","Mostly Cloudy","mostlycloudy","0","0","0","0","0","0","METAR UKKK 070830Z 34005MPS 9999 BKN013 22/18 Q1018 R26/CLRD70 NOSIG"
"12:00 PM EEST on August 07, 2016","2016","08","07","12","00","Europe/Kiev","9:00 AM GMT on August 07, 2016","2016","08","07","09","00","UTC","22","72","17","63","66","14.4","8.9","","","0","North","10","6","1018","30.05","-999","-999","-9999","-9999","","","Mostly Cloudy","mostlycloudy","0","0","0","0","0","0","AAXX 07091 33345 42497 63604 10225 20172 39983 40176 52008 86600 333 86712 555 10045"
"12:00 PM EEST on August 07, 2016","2016","08","07","12","00","Europe/Kiev","9:00 AM GMT on August 07, 2016","2016","08","07","09","00","UTC","22.0","71.6","18.0","64.4","78","25.2","15.7","-9999.0","-9999.0","310","NW","10.0","6.2","1018","30.06","-999","-999","-9999","-9999","-9999.00","-9999.00","Mostly Cloudy","mostlycloudy","0","0","0","0","0","0","METAR UKKK 070900Z 31007MPS 9999 BKN013 22/18 Q1018 R26/CLRD70 NOSIG"
"12:30 PM EEST on August 07, 2016","2016","08","07","12","30","Europe/Kiev","9:30 AM GMT on August 07, 2016","2016","08","07","09","30","UTC","23.0","73.4","18.0","64.4","73","21.6","13.4","-9999.0","-9999.0","330","NNW","10.0","6.2","1018","30.06","-999","-999","-9999","-9999","-9999.00","-9999.00","Mostly Cloudy","mostlycloudy","0","0","0","0","0","0","METAR UKKK 070930Z 33006MPS 9999 BKN017 23/18 Q1018 R26/CLRD70 NOSIG"
"1:00 PM EEST on August 07, 2016","2016","08","07","13","00","Europe/Kiev","10:00 AM GMT on August 07, 2016","2016","08","07","10","00","UTC","23.0","73.4","18.0","64.4","73","25.2","15.7","-9999.0","-9999.0","330","NNW","10.0","6.2","1018","30.06","-999","-999","-9999","-9999","-9999.00","-9999.00","Mostly Cloudy","mostlycloudy","0","0","0","0","0","0","METAR UKKK 071000Z 33007MPS 9999 BKN020 23/18 Q1018 R26/CLRD70 NOSIG"
"1:03 PM EEST on August 07, 2016","2016","08","07","13","03","Europe/Kiev","10:03 AM GMT on August 07, 2016","2016","08","07","10","03","UTC","24.0","75.2","18.0","64.4","69","25.2","15.7","43.2","26.8","330","NNW","10.0","6.2","1018","30.06","-999","-999","-9999","-9999","-9999.00","-9999.00","Mostly Cloudy","mostlycloudy","0","0","0","0","0","0","SPECI UKKK 071003Z 33007G12MPS 9999 BKN020 24/18 Q1018 R26/CLRD70 NOSIG"
"1:30 PM EEST on August 07, 2016","2016","08","07","13","30","Europe/Kiev","10:30 AM GMT on August 07, 2016","2016","08","07","10","30","UTC","23.0","73.4","17.0","62.6","69","25.2","15.7","-9999.0","-9999.0","320","NW","10.0","6.2","1018","30.06","-999","-999","-9999","-9999","-9999.00","-9999.00","Mostly Cloudy","mostlycloudy","0","0","0","0","0","0","METAR UKKK 071030Z 32007MPS 9999 BKN022 23/17 Q1018 R26/CLRD70 NOSIG"
"2:00 PM EEST on August 07, 2016","2016","08","07","14","00","Europe/Kiev","11:00 AM GMT on August 07, 2016","2016","08","07","11","00","UTC","23.0","73.4","17.0","62.6","69","25.2","15.7","-9999.0","-9999.0","320","NW","10.0","6.2","1018","30.06","-999","-999","-9999","-9999","-9999.00","-9999.00","Mostly Cloudy","mostlycloudy","0","0","0","0","0","0","METAR UKKK 071100Z 32007MPS 9999 BKN022 23/17 Q1018 R26/CLRD70 NOSIG"
"2:30 PM EEST on August 07, 2016","2016","08","07","14","30","Europe/Kiev","11:30 AM GMT on August 07, 2016","2016","08","07","11","30","UTC","23.0","73.4","16.0","60.8","65","25.2","15.7","-9999.0","-9999.0","340","NNW","10.0","6.2","1019","30.09","-999","-999","-9999","-9999","-9999.00","-9999.00","Mostly Cloudy","mostlycloudy","0","0","0","0","0","0","METAR UKKK 071130Z 34007MPS 9999 BKN022 23/16 Q1019 R26/CLRD70 NOSIG"
"3:00 PM EEST on August 07, 2016","2016","08","07","15","00","Europe/Kiev","12:00 PM GMT on August 07, 2016","2016","08","07","12","00","UTC","23","74","16","61","54","14.4","8.9","","","10","North","20","12","1018","30.06","-999","-999","-9999","-9999","","","Mostly Cloudy","mostlycloudy","0","0","0","0","0","0","AAXX 07121 33345 32598 70104 10233 20159 39987 40180 52004 86830 333 84830 555 10040"
"3:00 PM EEST on August 07, 2016","2016","08","07","15","00","Europe/Kiev","12:00 PM GMT on August 07, 2016","2016","08","07","12","00","UTC","23.0","73.4","15.0","59.0","61","25.2","15.7","-9999.0","-9999.0","340","NNW","10.0","6.2","1019","30.09","-999","-999","-9999","-9999","-9999.00","-9999.00","Mostly Cloudy","mostlycloudy","0","0","0","0","0","0","METAR UKKK 071200Z 34007MPS 310V010 9999 BKN022 23/15 Q1019 R26/CLRD70 NOSIG"
"3:01 PM EEST on August 07, 2016","2016","08","07","15","01","Europe/Kiev","12:01 PM GMT on August 07, 2016","2016","08","07","12","01","UTC","23.0","73.4","15.0","59.0","61","25.2","15.7","43.2","26.8","340","NNW","10.0","6.2","1019","30.09","-999","-999","-9999","-9999","-9999.00","-9999.00","Mostly Cloudy","mostlycloudy","0","0","0","0","0","0","SPECI UKKK 071201Z 34007G12MPS 310V010 9999 BKN022 23/15 Q1019 R26/CLRD70 NOSIG"
"3:30 PM EEST on August 07, 2016","2016","08","07","15","30","Europe/Kiev","12:30 PM GMT on August 07, 2016","2016","08","07","12","30","UTC","24.0","75.2","15.0","59.0","57","25.2","15.7","-9999.0","-9999.0","350","North","10.0","6.2","1019","30.09","-999","-999","-9999","-9999","-9999.00","-9999.00","Mostly Cloudy","mostlycloudy","0","0","0","0","0","0","METAR UKKK 071230Z 35007MPS 9999 SCT033 BKN100 24/15 Q1019 R26/CLRD70 NOSIG"
"4:00 PM EEST on August 07, 2016","2016","08","07","16","00","Europe/Kiev","1:00 PM GMT on August 07, 2016","2016","08","07","13","00","UTC","23.0","73.4","15.0","59.0","61","28.8","17.9","-9999.0","-9999.0","320","NW","10.0","6.2","1019","30.09","-999","-999","-9999","-9999","-9999.00","-9999.00","Mostly Cloudy","mostlycloudy","0","0","0","0","0","0","METAR UKKK 071300Z 32008MPS 300V360 9999 SCT033 BKN100 23/15 Q1019 R26/CLRD70 NOSIG"
"4:30 PM EEST on August 07, 2016","2016","08","07","16","30","Europe/Kiev","1:30 PM GMT on August 07, 2016","2016","08","07","13","30","UTC","22.0","71.6","14.0","57.2","60","28.8","17.9","-9999.0","-9999.0","320","NW","10.0","6.2","1019","30.09","-999","-999","-9999","-9999","-9999.00","-9999.00","Mostly Cloudy","mostlycloudy","0","0","0","0","0","0","METAR UKKK 071330Z 32008MPS 9999 SCT033 BKN100 22/14 Q1019 R26/CLRD70 NOSIG"
"5:00 PM EEST on August 07, 2016","2016","08","07","17","00","Europe/Kiev","2:00 PM GMT on August 07, 2016","2016","08","07","14","00","UTC","21.0","69.8","12.0","53.6","56","25.2","15.7","-9999.0","-9999.0","330","NNW","-9999.0","-9999.0","1019","30.09","-999","-999","-9999","-9999","-9999.00","-9999.00","Clear","clear","0","0","0","0","0","0","METAR UKKK 071400Z 33007MPS CAVOK 21/12 Q1019 WS RWY26 R26/CLRD70 NOSIG"
"5:30 PM EEST on August 07, 2016","2016","08","07","17","30","Europe/Kiev","2:30 PM GMT on August 07, 2016","2016","08","07","14","30","UTC","20.0","68.0","12.0","53.6","60","25.2","15.7","-9999.0","-9999.0","340","NNW","-9999.0","-9999.0","1020","30.12","-999","-999","-9999","-9999","-9999.00","-9999.00","Clear","clear","0","0","0","0","0","0","METAR UKKK 071430Z 34007MPS CAVOK 20/12 Q1020 R26/CLRD70 NOSIG"
"6:00 PM EEST on August 07, 2016","2016","08","07","18","00","Europe/Kiev","3:00 PM GMT on August 07, 2016","2016","08","07","15","00","UTC","21","70","11","52","43","18.0","11.2","","","20","NNE","20","12","1019","30.10","-999","-999","-9999","-9999","","","Partly Cloudy","partlycloudy","0","0","0","0","0","0","AAXX 07151 33345 42998 40205 10210 20113 39997 40192 52010 84030 555 10032"
"6:00 PM EEST on August 07, 2016","2016","08","07","18","00","Europe/Kiev","3:00 PM GMT on August 07, 2016","2016","08","07","15","00","UTC","20.0","68.0","12.0","53.6","60","21.6","13.4","-9999.0","-9999.0","360","North","-9999.0","-9999.0","1019","30.09","-999","-999","-9999","-9999","-9999.00","-9999.00","Clear","clear","0","0","0","0","0","0","METAR UKKK 071500Z 36006MPS 320V030 CAVOK 20/12 Q1019 R26/CLRD70 NOSIG"
"6:30 PM EEST on August 07, 2016","2016","08","07","18","30","Europe/Kiev","3:30 PM GMT on August 07, 2016","2016","08","07","15","30","UTC","21.0","69.8","13.0","55.4","60","18.0","11.2","-9999.0","-9999.0","350","North","-9999.0","-9999.0","1019","30.09","-999","-999","-9999","-9999","-9999.00","-9999.00","Clear","clear","0","0","0","0","0","0","METAR UKKK 071530Z 35005MPS 300V040 CAVOK 21/13 Q1019 R26/CLRD70 NOSIG"
"7:00 PM EEST on August 07, 2016","2016","08","07","19","00","Europe/Kiev","4:00 PM GMT on August 07, 2016","2016","08","07","16","00","UTC","21.0","69.8","13.0","55.4","60","14.4","8.9","-9999.0","-9999.0","350","North","-9999.0","-9999.0","1020","30.12","-999","-999","-9999","-9999","-9999.00","-9999.00","Clear","clear","0","0","0","0","0","0","METAR UKKK 071600Z 35004MPS 310V040 CAVOK 21/13 Q1020 R26/CLRD70 NOSIG"
"7:30 PM EEST on August 07, 2016","2016","08","07","19","30","Europe/Kiev","4:30 PM GMT on August 07, 2016","2016","08","07","16","30","UTC","21.0","69.8","14.0","57.2","64","14.4","8.9","-9999.0","-9999.0","340","NNW","-9999.0","-9999.0","1020","30.12","-999","-999","-9999","-9999","-9999.00","-9999.00","Clear","clear","0","0","0","0","0","0","METAR UKKK 071630Z 34004MPS CAVOK 21/14 Q1020 R26/CLRD70 NOSIG"
"8:00 PM EEST on August 07, 2016","2016","08","07","20","00","Europe/Kiev","5:00 PM GMT on August 07, 2016","2016","08","07","17","00","UTC","20.0","68.0","14.0","57.2","68","10.8","6.7","-9999.0","-9999.0","350","North","-9999.0","-9999.0","1020","30.12","-999","-999","-9999","-9999","-9999.00","-9999.00","Clear","clear","0","0","0","0","0","0","METAR UKKK 071700Z 35003MPS 310V020 CAVOK 20/14 Q1020 R26/CLRD70 NOSIG"
"8:30 PM EEST on August 07, 2016","2016","08","07","20","30","Europe/Kiev","5:30 PM GMT on August 07, 2016","2016","08","07","17","30","UTC","20.0","68.0","13.0","55.4","64","10.8","6.7","-9999.0","-9999.0","330","NNW","-9999.0","-9999.0","1020","30.12","-999","-999","-9999","-9999","-9999.00","-9999.00","Clear","clear","0","0","0","0","0","0","METAR UKKK 071730Z 33003MPS CAVOK 20/13 Q1020 R26/CLRD70 NOSIG"
"9:00 PM EEST on August 07, 2016","2016","08","07","21","00","Europe/Kiev","6:00 PM GMT on August 07, 2016","2016","08","07","18","00","UTC","20","67","13","56","58","7.2","4.5","","","0","North","20","12","1020","30.13","-999","-999","-9999","-9999","","","","","0","0","0","0","0","0","AAXX 07181 33345 32998 03602 10196 20131 30005 40201 52008 333 10244 555 10019"
"9:00 PM EEST on August 07, 2016","2016","08","07","21","00","Europe/Kiev","6:00 PM GMT on August 07, 2016","2016","08","07","18","00","UTC","19.0","66.2","13.0","55.4","68","10.8","6.7","-9999.0","-9999.0","330","NNW","-9999.0","-9999.0","1020","30.12","-999","-999","-9999","-9999","-9999.00","-9999.00","Clear","clear","0","0","0","0","0","0","METAR UKKK 071800Z 33003MPS CAVOK 19/13 Q1020 R26/CLRD70 NOSIG"
"9:30 PM EEST on August 07, 2016","2016","08","07","21","30","Europe/Kiev","6:30 PM GMT on August 07, 2016","2016","08","07","18","30","UTC","19.0","66.2","13.0","55.4","68","7.2","4.5","-9999.0","-9999.0","320","NW","-9999.0","-9999.0","1020","30.12","-999","-999","-9999","-9999","-9999.00","-9999.00","Clear","clear","0","0","0","0","0","0","METAR UKKK 071830Z 32002MPS CAVOK 19/13 Q1020 R26/CLRD70 NOSIG"
"10:00 PM EEST on August 07, 2016","2016","08","07","22","00","Europe/Kiev","7:00 PM GMT on August 07, 2016","2016","08","07","19","00","UTC","17.0","62.6","13.0","55.4","77","7.2","4.5","-9999.0","-9999.0","330","NNW","-9999.0","-9999.0","1021","30.15","-999","-999","-9999","-9999","-9999.00","-9999.00","Clear","clear","0","0","0","0","0","0","METAR UKKK 071900Z 33002MPS CAVOK 17/13 Q1021 R26/CLRD70 NOSIG"
"10:30 PM EEST on August 07, 2016","2016","08","07","22","30","Europe/Kiev","7:30 PM GMT on August 07, 2016","2016","08","07","19","30","UTC","16.0","60.8","13.0","55.4","82","3.6","2.2","-9999.0","-9999.0","290","WNW","-9999.0","-9999.0","1021","30.15","-999","-999","-9999","-9999","-9999.00","-9999.00","Clear","clear","0","0","0","0","0","0","METAR UKKK 071930Z 29001MPS CAVOK 16/13 Q1021 R26/CLRD70 NOSIG"
"11:00 PM EEST on August 07, 2016","2016","08","07","23","00","Europe/Kiev","8:00 PM GMT on August 07, 2016","2016","08","07","20","00","UTC","15.0","59.0","13.0","55.4","88","7.2","4.5","-9999.0","-9999.0","260","West","9.0","5.6","1021","30.15","-999","-999","-9999","-9999","-9999.00","-9999.00","Unknown","unknown","0","0","0","0","0","0","METAR UKKK 072000Z 26002MPS 9000 NSC 15/13 Q1021 R26/CLRD70 NOSIG"
"11:30 PM EEST on August 07, 2016","2016","08","07","23","30","Europe/Kiev","8:30 PM GMT on August 07, 2016","2016","08","07","20","30","UTC","15.0","59.0","13.0","55.4","88","7.2","4.5","-9999.0","-9999.0","260","West","-9999.0","-9999.0","1021","30.15","-999","-999","-9999","-9999","-9999.00","-9999.00","Clear","clear","0","0","0","0","0","0","METAR UKKK 072030Z 26002MPS CAVOK 15/13 Q1021 R26/CLRD70 NOSIG"
"12:00 AM EEST on August 08, 2016","2016","08","08","00","00","Europe/Kiev","9:00 PM GMT on August 07, 2016","2016","08","07","21","00","UTC","17","62","13","55","70","3.6","2.2","","","330","NNW","20","12","1021","30.15","-999","-999","-9999","-9999","","","","","0","0","0","0","0","0","AAXX 07211 33345 42998 03301 10169 20126 30011 40209 52006 555 10015"
"12:00 AM EEST on August 08, 2016","2016","08","08","00","00","Europe/Kiev","9:00 PM GMT on August 07, 2016","2016","08","07","21","00","UTC","16.0","60.8","12.0","53.6","77","7.2","4.5","-9999.0","-9999.0","280","West","-9999.0","-9999.0","1021","30.15","-999","-999","-9999","-9999","-9999.00","-9999.00","Clear","clear","0","0","0","0","0","0","METAR UKKK 072100Z 28002MPS CAVOK 16/12 Q1021 R26/CLRD70 NOSIG"
"12:30 AM EEST on August 08, 2016","2016","08","08","00","30","Europe/Kiev","9:30 PM GMT on August 07, 2016","2016","08","07","21","30","UTC","17.0","62.6","11.0","51.8","68","14.4","8.9","-9999.0","-9999.0","330","NNW","-9999.0","-9999.0","1021","30.15","-999","-999","-9999","-9999","-9999.00","-9999.00","Clear","clear","0","0","0","0","0","0","METAR UKKK 072130Z 33004MPS CAVOK 17/11 Q1021 R26/CLRD70 NOSIG"
"1:00 AM EEST on August 08, 2016","2016","08","08","01","00","Europe/Kiev","10:00 PM GMT on August 07, 2016","2016","08","07","22","00","UTC","18.0","64.4","10.0","50.0","59","14.4","8.9","-9999.0","-9999.0","340","NNW","-9999.0","-9999.0","1021","30.15","-999","-999","-9999","-9999","-9999.00","-9999.00","Clear","clear","0","0","0","0","0","0","METAR UKKK 072200Z 34004MPS 310V010 CAVOK 18/10 Q1021 R26/CLRD70 NOSIG"
"1:30 AM EEST on August 08, 2016","2016","08","08","01","30","Europe/Kiev","10:30 PM GMT on August 07, 2016","2016","08","07","22","30","UTC","17.0","62.6","10.0","50.0","63","14.4","8.9","-9999.0","-9999.0","350","North","-9999.0","-9999.0","1021","30.15","-999","-999","-9999","-9999","-9999.00","-9999.00","Clear","clear","0","0","0","0","0","0","METAR UKKK 072230Z 35004MPS CAVOK 17/10 Q1021 R26/CLRD70 NOSIG"
"2:00 AM EEST on August 08, 2016","2016","08","08","02","00","Europe/Kiev","11:00 PM GMT on August 07, 2016","2016","08","07","23","00","UTC","16.0","60.8","10.0","50.0","68","10.8","6.7","-9999.0","-9999.0","340","NNW","-9999.0","-9999.0","1021","30.15","-999","-999","-9999","-9999","-9999.00","-9999.00","Clear","clear","0","0","0","0","0","0","METAR UKKK 072300Z 34003MPS CAVOK 16/10 Q1021 R26/CLRD70 NOSIG"
"2:30 AM EEST on August 08, 2016","2016","08","08","02","30","Europe/Kiev","11:30 PM GMT on August 07, 2016","2016","08","07","23","30","UTC","16.0","60.8","9.0","48.2","63","14.4","8.9","-9999.0","-9999.0","340","NNW","-9999.0","-9999.0","1021","30.15","-999","-999","-9999","-9999","-9999.00","-9999.00","Clear","clear","0","0","0","0","0","0","METAR UKKK 072330Z 34004MPS CAVOK 16/09 Q1021 R26/CLRD70 NOSIG"
"3:00 AM EEST on August 08, 2016","2016","08","08","03","00","Europe/Kiev","12:00 AM GMT on August 08, 2016","2016","08","08","00","00","UTC","17","62","9","49","52","7.2","4.5","","","0","North","20","12","1021","30.16","-999","-999","-9999","-9999","","","","","0","0","0","0","0","0","AAXX 08001 33345 32998 03602 10168 20093 30013 40211 52002 555 10014"
"3:00 AM EEST on August 08, 2016","2016","08","08","03","00","Europe/Kiev","12:00 AM GMT on August 08, 2016","2016","08","08","00","00","UTC","15.0","59.0","9.0","48.2","67","10.8","6.7","-9999.0","-9999.0","340","NNW","-9999.0","-9999.0","1021","30.15","-999","-999","-9999","-9999","-9999.00","-9999.00","Clear","clear","0","0","0","0","0","0","METAR UKKK 080000Z 34003MPS CAVOK 15/09 Q1021 R26/CLRD70 NOSIG"
"3:30 AM EEST on August 08, 2016","2016","08","08","03","30","Europe/Kiev","12:30 AM GMT on August 08, 2016","2016","08","08","00","30","UTC","14.0","57.2","9.0","48.2","72","10.8","6.7","-9999.0","-9999.0","330","NNW","-9999.0","-9999.0","1021","30.15","-999","-999","-9999","-9999","-9999.00","-9999.00","Clear","clear","0","0","0","0","0","0","METAR UKKK 080030Z 33003MPS CAVOK 14/09 Q1021 R26/CLRD70 NOSIG"
"4:00 AM EEST on August 08, 2016","2016","08","08","04","00","Europe/Kiev","1:00 AM GMT on August 08, 2016","2016","08","08","01","00","UTC","15.0","59.0","9.0","48.2","67","14.4","8.9","-9999.0","-9999.0","330","NNW","-9999.0","-9999.0","1021","30.15","-999","-999","-9999","-9999","-9999.00","-9999.00","Clear","clear","0","0","0","0","0","0","METAR UKKK 080100Z 33004MPS 300V360 CAVOK 15/09 Q1021 R26/CLRD70 NOSIG"
"4:30 AM EEST on August 08, 2016","2016","08","08","04","30","Europe/Kiev","1:30 AM GMT on August 08, 2016","2016","08","08","01","30","UTC","15.0","59.0","9.0","48.2","67","10.8","6.7","-9999.0","-9999.0","340","NNW","-9999.0","-9999.0","1021","30.15","-999","-999","-9999","-9999","-9999.00","-9999.00","Clear","clear","0","0","0","0","0","0","METAR UKKK 080130Z 34003MPS CAVOK 15/09 Q1021 R08/CLRD70 NOSIG"
"5:00 AM EEST on August 08, 2016","2016","08","08","05","00","Europe/Kiev","2:00 AM GMT on August 08, 2016","2016","08","08","02","00","UTC","14.0","57.2","9.0","48.2","72","10.8","6.7","-9999.0","-9999.0","320","NW","-9999.0","-9999.0","1021","30.15","-999","-999","-9999","-9999","-9999.00","-9999.00","Clear","clear","0","0","0","0","0","0","METAR UKKK 080200Z 32003MPS CAVOK 14/09 Q1021 R08/CLRD70 NOSIG"
"5:30 AM EEST on August 08, 2016","2016","08","08","05","30","Europe/Kiev","2:30 AM GMT on August 08, 2016","2016","08","08","02","30","UTC","14.0","57.2","8.0","46.4","67","10.8","6.7","-9999.0","-9999.0","330","NNW","-9999.0","-9999.0","1022","30.18","-999","-999","-9999","-9999","-9999.00","-9999.00","Clear","clear","0","0","0","0","0","0","METAR UKKK 080230Z 33003MPS CAVOK 14/08 Q1022 R26/CLRD70 NOSIG"
"6:00 AM EEST on August 08, 2016","2016","08","08","06","00","Europe/Kiev","3:00 AM GMT on August 08, 2016","2016","08","08","03","00","UTC","14","58","9","48","60","3.6","2.2","","","320","NW","20","12","1022","30.18","-999","-999","-9999","-9999","","","","","0","0","0","0","0","0","AAXX 08031 33345 42998 03201 10143 20088 30020 40220 52007 555 10012"
"6:00 AM EEST on August 08, 2016","2016","08","08","06","00","Europe/Kiev","3:00 AM GMT on August 08, 2016","2016","08","08","03","00","UTC","13.0","55.4","9.0","48.2","77","7.2","4.5","-9999.0","-9999.0","310","NW","-9999.0","-9999.0","1022","30.18","-999","-999","-9999","-9999","-9999.00","-9999.00","Clear","clear","0","0","0","0","0","0","METAR UKKK 080300Z 31002MPS CAVOK 13/09 Q1022 R26/CLRD70 NOSIG"
"6:30 AM EEST on August 08, 2016","2016","08","08","06","30","Europe/Kiev","3:30 AM GMT on August 08, 2016","2016","08","08","03","30","UTC","14.0","57.2","9.0","48.2","72","7.2","4.5","-9999.0","-9999.0","280","West","-9999.0","-9999.0","1022","30.18","-999","-999","-9999","-9999","-9999.00","-9999.00","Clear","clear","0","0","0","0","0","0","METAR UKKK 080330Z 28002MPS CAVOK 14/09 Q1022 R26/CLRD70 NOSIG"
"7:00 AM EEST on August 08, 2016","2016","08","08","07","00","Europe/Kiev","4:00 AM GMT on August 08, 2016","2016","08","08","04","00","UTC","15.0","59.0","9.0","48.2","67","7.2","4.5","-9999.0","-9999.0","300","WNW","-9999.0","-9999.0","1022","30.18","-999","-999","-9999","-9999","-9999.00","-9999.00","Clear","clear","0","0","0","0","0","0","METAR UKKK 080400Z 30002MPS CAVOK 15/09 Q1022 R26/CLRD70 NOSIG"
"7:30 AM EEST on August 08, 2016","2016","08","08","07","30","Europe/Kiev","4:30 AM GMT on August 08, 2016","2016","08","08","04","30","UTC","16.0","60.8","10.0","50.0","68","7.2","4.5","-9999.0","-9999.0","320","NW","-9999.0","-9999.0","1022","30.18","-999","-999","-9999","-9999","-9999.00","-9999.00","Clear","clear","0","0","0","0","0","0","METAR UKKK 080430Z 32002MPS 290V040 CAVOK 16/10 Q1022 R26/CLRD70 NOSIG"
"8:00 AM EEST on August 08, 2016","2016","08","08","08","00","Europe/Kiev","5:00 AM GMT on August 08, 2016","2016","08","08","05","00","UTC","17.0","62.6","11.0","51.8","68","7.2","4.5","-9999.0","-9999.0","360","North","-9999.0","-9999.0","1022","30.18","-999","-999","-9999","-9999","-9999.00","-9999.00","Clear","clear","0","0","0","0","0","0","METAR UKKK 080500Z 36002MPS 320V070 CAVOK 17/11 Q1022 R26/CLRD70 NOSIG"
"8:30 AM EEST on August 08, 2016","2016","08","08","08","30","Europe/Kiev","5:30 AM GMT on August 08, 2016","2016","08","08","05","30","UTC","18.0","64.4","11.0","51.8","64","10.8","6.7","-9999.0","-9999.0","360","North","-9999.0","-9999.0","1022","30.18","-999","-999","-9999","-9999","-9999.00","-9999.00","Clear","clear","0","0","0","0","0","0","METAR UKKK 080530Z 36003MPS 330V030 CAVOK 18/11 Q1022 R26/CLRD70 NOSIG"
"9:00 AM EEST on August 08, 2016","2016","08","08","09","00","Europe/Kiev","6:00 AM GMT on August 08, 2016","2016","08","08","06","00","UTC","19","66","11","52","50","7.2","4.5","","","60","ENE","20","12","1022","30.19","-999","-999","-9999","-9999","","","","","0","0","0","0","0","0","AAXX 08061 33345 32998 00602 10189 20110 30026 40223 52006 333 20142 555 10031"
"9:00 AM EEST on August 08, 2016","2016","08","08","09","00","Europe/Kiev","6:00 AM GMT on August 08, 2016","2016","08","08","06","00","UTC","19.0","66.2","11.0","51.8","60","7.2","4.5","-9999.0","-9999.0","30","NNE","-9999.0","-9999.0","1022","30.18","-999","-999","-9999","-9999","-9999.00","-9999.00","Clear","clear","0","0","0","0","0","0","METAR UKKK 080600Z 03002MPS 300V110 CAVOK 19/11 Q1022 R26/CLRD70 NOSIG"
"9:30 AM EEST on August 08, 2016","2016","08","08","09","30","Europe/Kiev","6:30 AM GMT on August 08, 2016","2016","08","08","06","30","UTC","19.0","66.2","10.0","50.0","56","10.8","6.7","-9999.0","-9999.0","350","North","-9999.0","-9999.0","1022","30.18","-999","-999","-9999","-9999","-9999.00","-9999.00","Clear","clear","0","0","0","0","0","0","METAR UKKK 080630Z 35003MPS 310V020 CAVOK 19/10 Q1022 R26/CLRD70 NOSIG"
"10:00 AM EEST on August 08, 2016","2016","08","08","10","00","Europe/Kiev","7:00 AM GMT on August 08, 2016","2016","08","08","07","00","UTC","20.0","68.0","10.0","50.0","52","10.8","6.7","-9999.0","-9999.0","340","NNW","-9999.0","-9999.0","1022","30.18","-999","-999","-9999","-9999","-9999.00","-9999.00","Clear","clear","0","0","0","0","0","0","METAR UKKK 080700Z 34003MPS 290V030 CAVOK 20/10 Q1022 R26/CLRD70 NOSIG"
"10:30 AM EEST on August 08, 2016","2016","08","08","10","30","Europe/Kiev","7:30 AM GMT on August 08, 2016","2016","08","08","07","30","UTC","20.0","68.0","10.0","50.0","52","14.4","8.9","-9999.0","-9999.0","350","North","10.0","6.2","1022","30.18","-999","-999","-9999","-9999","-9999.00","-9999.00","Scattered Clouds","partlycloudy","0","0","0","0","0","0","METAR UKKK 080730Z 35004MPS 300V050 9999 SCT040 20/10 Q1022 R26/CLRD70 NOSIG"
"11:00 AM EEST on August 08, 2016","2016","08","08","11","00","Europe/Kiev","8:00 AM GMT on August 08, 2016","2016","08","08","08","00","UTC","21.0","69.8","11.0","51.8","53","14.4","8.9","-9999.0","-9999.0","330","NNW","10.0","6.2","1022","30.18","-999","-999","-9999","-9999","-9999.00","-9999.00","Scattered Clouds","partlycloudy","0","0","0","0","0","0","METAR UKKK 080800Z 33004MPS 9999 SCT043 21/11 Q1022 R26/CLRD70 NOSIG"
"11:30 AM EEST on August 08, 2016","2016","08","08","11","30","Europe/Kiev","8:30 AM GMT on August 08, 2016","2016","08","08","08","30","UTC","22.0","71.6","10.0","50.0","46","14.4","8.9","-9999.0","-9999.0","340","NNW","10.0","6.2","1022","30.18","-999","-999","-9999","-9999","-9999.00","-9999.00","Scattered Clouds","partlycloudy","0","0","0","0","0","0","METAR UKKK 080830Z 34004MPS 280V060 9999 SCT043 22/10 Q1022 R26/CLRD70 NOSIG"
"12:00 PM EEST on August 08, 2016","2016","08","08","12","00","Europe/Kiev","9:00 AM GMT on August 08, 2016","2016","08","08","09","00","UTC","22","71","10","50","37","10.8","6.7","","","330","NNW","20","12","1021","30.16","-999","-999","-9999","-9999","","","Scattered Clouds","partlycloudy","0","0","0","0","0","0","AAXX 08091 33345 42698 23303 10215 20101 30017 40212 58009 82200 555 10038"
"12:00 PM EEST on August 08, 2016","2016","08","08","12","00","Europe/Kiev","9:00 AM GMT on August 08, 2016","2016","08","08","09","00","UTC","22.0","71.6","10.0","50.0","46","14.4","8.9","-9999.0","-9999.0","330","NNW","10.0","6.2","1021","30.15","-999","-999","-9999","-9999","-9999.00","-9999.00","Scattered Clouds","partlycloudy","0","0","0","0","0","0","METAR UKKK 080900Z 33004MPS 280V010 9999 SCT048 22/10 Q1021 R26/CLRD70 NOSIG"
"12:30 PM EEST on August 08, 2016","2016","08","08","12","30","Europe/Kiev","9:30 AM GMT on August 08, 2016","2016","08","08","09","30","UTC","22.0","71.6","10.0","50.0","46","10.8","6.7","-9999.0","-9999.0","340","NNW","10.0","6.2","1021","30.15","-999","-999","-9999","-9999","-9999.00","-9999.00","Scattered Clouds","partlycloudy","0","0","0","0","0","0","METAR UKKK 080930Z 34003MPS 260V040 9999 SCT048 22/10 Q1021 R26/CLRD70 NOSIG"
"1:00 PM EEST on August 08, 2016","2016","08","08","13","00","Europe/Kiev","10:00 AM GMT on August 08, 2016","2016","08","08","10","00","UTC","23.0","73.4","9.0","48.2","41","14.4","8.9","-9999.0","-9999.0","320","NW","-9999.0","-9999.0","1021","30.15","-999","-999","-9999","-9999","-9999.00","-9999.00","Clear","clear","0","0","0","0","0","0","METAR UKKK 081000Z 32004MPS 270V010 CAVOK 23/09 Q1021 R26/CLRD70 NOSIG"
"1:30 PM EEST on August 08, 2016","2016","08","08","13","30","Europe/Kiev","10:30 AM GMT on August 08, 2016","2016","08","08","10","30","UTC","23.0","73.4","9.0","48.2","41","14.4","8.9","-9999.0","-9999.0","320","NW","-9999.0","-9999.0","1021","30.15","-999","-999","-9999","-9999","-9999.00","-9999.00","Clear","clear","0","0","0","0","0","0","METAR UKKK 081030Z 32004MPS 240V030 CAVOK 23/09 Q1021 R26/CLRD70 NOSIG"
"2:00 PM EEST on August 08, 2016","2016","08","08","14","00","Europe/Kiev","11:00 AM GMT on August 08, 2016","2016","08","08","11","00","UTC","24.0","75.2","10.0","50.0","41","21.6","13.4","-9999.0","-9999.0","310","NW","-9999.0","-9999.0","1021","30.15","-999","-999","-9999","-9999","-9999.00","-9999.00","Clear","clear","0","0","0","0","0","0","METAR UKKK 081100Z 31006MPS 280V350 CAVOK 24/10 Q1021 R26/CLRD70 NOSIG"
"2:30 PM EEST on August 08, 2016","2016","08","08","14","30","Europe/Kiev","11:30 AM GMT on August 08, 2016","2016","08","08","11","30","UTC","24.0","75.2","9.0","48.2","38","14.4","8.9","32.4","20.1","330","NNW","-9999.0","-9999.0","1021","30.15","-999","-999","-9999","-9999","-9999.00","-9999.00","Clear","clear","0","0","0","0","0","0","METAR UKKK 081130Z 33004G09MPS 280V010 CAVOK 24/09 Q1021 R26/CLRD70 NOSIG"
"3:00 PM EEST on August 08, 2016","2016","08","08","15","00","Europe/Kiev","12:00 PM GMT on August 08, 2016","2016","08","08","12","00","UTC","24","76","10","49","28","7.2","4.5","","","40","NE","20","12","1020","30.12","-999","-999","-9999","-9999","","","Scattered Clouds","partlycloudy","0","0","0","0","0","0","AAXX 08121 33345 32698 20402 10242 20096 30007 40200 57010 82100 555 10050"
"3:00 PM EEST on August 08, 2016","2016","08","08","15","00","Europe/Kiev","12:00 PM GMT on August 08, 2016","2016","08","08","12","00","UTC","25.0","77.0","9.0","48.2","36","7.2","4.5","-9999.0","-9999.0","310","NW","-9999.0","-9999.0","1020","30.12","-999","-999","-9999","-9999","-9999.00","-9999.00","Clear","clear","0","0","0","0","0","0","METAR UKKK 081200Z 31002MPS CAVOK 25/09 Q1020 R26/CLRD70 NOSIG"
"3:30 PM EEST on August 08, 2016","2016","08","08","15","30","Europe/Kiev","12:30 PM GMT on August 08, 2016","2016","08","08","12","30","UTC","25.0","77.0","9.0","48.2","36","14.4","8.9","-9999.0","-9999.0","290","WNW","-9999.0","-9999.0","1020","30.12","-999","-999","-9999","-9999","-9999.00","-9999.00","Clear","clear","0","0","0","0","0","0","METAR UKKK 081230Z 29004MPS 230V030 CAVOK 25/09 Q1020 R26/CLRD70 NOSIG"
"4:00 PM EEST on August 08, 2016","2016","08","08","16","00","Europe/Kiev","1:00 PM GMT on August 08, 2016","2016","08","08","13","00","UTC","24.0","75.2","9.0","48.2","38","14.4","8.9","-9999.0","-9999.0","310","NW","-9999.0","-9999.0","1020","30.12","-999","-999","-9999","-9999","-9999.00","-9999.00","Clear","clear","0","0","0","0","0","0","METAR UKKK 081300Z 31004MPS 220V360 CAVOK 24/09 Q1020 R26/CLRD70 NOSIG"
"4:30 PM EEST on August 08, 2016","2016","08","08","16","30","Europe/Kiev","1:30 PM GMT on August 08, 2016","2016","08","08","13","30","UTC","25.0","77.0","9.0","48.2","36","7.2","4.5","-9999.0","-9999.0","20","NNE","-9999.0","-9999.0","1020","30.12","-999","-999","-9999","-9999","-9999.00","-9999.00","Clear","clear","0","0","0","0","0","0","METAR UKKK 081330Z 02002MPS CAVOK 25/09 Q1020 R26/CLRD70 NOSIG"
"5:00 PM EEST on August 08, 2016","2016","08","08","17","00","Europe/Kiev","2:00 PM GMT on August 08, 2016","2016","08","08","14","00","UTC","25.0","77.0","9.0","48.2","36","10.8","6.7","-9999.0","-9999.0","50","NE","-9999.0","-9999.0","1020","30.12","-999","-999","-9999","-9999","-9999.00","-9999.00","Clear","clear","0","0","0","0","0","0","METAR UKKK 081400Z 05003MPS CAVOK 25/09 Q1020 R26/CLRD70 NOSIG"
"5:30 PM EEST on August 08, 2016","2016","08","08","17","30","Europe/Kiev","2:30 PM GMT on August 08, 2016","2016","08","08","14","30","UTC","25.0","77.0","9.0","48.2","36","7.2","4.5","-9999.0","-9999.0","330","NNW","-9999.0","-9999.0","1020","30.12","-999","-999","-9999","-9999","-9999.00","-9999.00","Clear","clear","0","0","0","0","0","0","METAR UKKK 081430Z 33002MPS CAVOK 25/09 Q1020 R26/CLRD70 NOSIG"
"6:00 PM EEST on August 08, 2016","2016","08","08","18","00","Europe/Kiev","3:00 PM GMT on August 08, 2016","2016","08","08","15","00","UTC","24","76","9","49","27","14.4","8.9","","","60","ENE","20","12","1019","30.10","-999","-999","-9999","-9999","","","","","0","0","0","0","0","0","AAXX 08151 33345 42998 00604 10242 20093 39999 40192 57008 555 10038"
"6:00 PM EEST on August 08, 2016","2016","08","08","18","00","Europe/Kiev","3:00 PM GMT on August 08, 2016","2016","08","08","15","00","UTC","25.0","77.0","10.0","50.0","39","10.8","6.7","-9999.0","-9999.0","40","NE","-9999.0","-9999.0","1020","30.12","-999","-999","-9999","-9999","-9999.00","-9999.00","Clear","clear","0","0","0","0","0","0","METAR UKKK 081500Z 04003MPS 340V080 CAVOK 25/10 Q1020 R26/CLRD70 NOSIG"
"6:30 PM EEST on August 08, 2016","2016","08","08","18","30","Europe/Kiev","3:30 PM GMT on August 08, 2016","2016","08","08","15","30","UTC","24.0","75.2","11.0","51.8","44","10.8","6.7","-9999.0","-9999.0","60","ENE","-9999.0","-9999.0","1019","30.09","-999","-999","-9999","-9999","-9999.00","-9999.00","Clear","clear","0","0","0","0","0","0","METAR UKKK 081530Z 06003MPS 030V100 CAVOK 24/11 Q1019 R26/CLRD70 NOSIG"
"7:00 PM EEST on August 08, 2016","2016","08","08","19","00","Europe/Kiev","4:00 PM GMT on August 08, 2016","2016","08","08","16","00","UTC","24.0","75.2","10.0","50.0","41","10.8","6.7","-9999.0","-9999.0","30","NNE","-9999.0","-9999.0","1019","30.09","-999","-999","-9999","-9999","-9999.00","-9999.00","Clear","clear","0","0","0","0","0","0","METAR UKKK 081600Z 03003MPS 350V070 CAVOK 24/10 Q1019 R08/CLRD70 NOSIG"
"7:30 PM EEST on August 08, 2016","2016","08","08","19","30","Europe/Kiev","4:30 PM GMT on August 08, 2016","2016","08","08","16","30","UTC","23.0","73.4","11.0","51.8","47","10.8","6.7","-9999.0","-9999.0","70","ENE","-9999.0","-9999.0","1019","30.09","-999","-999","-9999","-9999","-9999.00","-9999.00","Clear","clear","0","0","0","0","0","0","METAR UKKK 081630Z 07003MPS CAVOK 23/11 Q1019 R08/CLRD70 NOSIG"
"8:00 PM EEST on August 08, 2016","2016","08","08","20","00","Europe/Kiev","5:00 PM GMT on August 08, 2016","2016","08","08","17","00","UTC","22.0","71.6","11.0","51.8","50","7.2","4.5","-9999.0","-9999.0","60","ENE","9.0","5.6","1019","30.09","-999","-999","-9999","-9999","-9999.00","-9999.00","Clear","clear","0","0","0","0","0","0","METAR UKKK 081700Z 06002MPS 030V110 9000 SKC 22/11 Q1019 R08/CLRD70 NOSIG"
"8:30 PM EEST on August 08, 2016","2016","08","08","20","30","Europe/Kiev","5:30 PM GMT on August 08, 2016","2016","08","08","17","30","UTC","20.0","68.0","11.0","51.8","56","3.6","2.2","-9999.0","-9999.0","0","Variable","-9999.0","-9999.0","1019","30.09","-999","-999","-9999","-9999","-9999.00","-9999.00","Clear","clear","0","0","0","0","0","0","METAR UKKK 081730Z VRB01MPS CAVOK 20/11 Q1019 R08/CLRD70 NOSIG"
"9:00 PM EEST on August 08, 2016","2016","08","08","21","00","Europe/Kiev","6:00 PM GMT on August 08, 2016","2016","08","08","18","00","UTC","20","68","11","51","45","0.0","0.0","","","","","20","12","1019","30.11","-999","-999","-9999","-9999","","","","","0","0","0","0","0","0","AAXX 08181 33345 32998 00000 10202 20107 39998 40194 57001 333 10248 555 10019"
"9:00 PM EEST on August 08, 2016","2016","08","08","21","00","Europe/Kiev","6:00 PM GMT on August 08, 2016","2016","08","08","18","00","UTC","19.0","66.2","10.0","50.0","56","7.2","4.5","-9999.0","-9999.0","110","ESE","-9999.0","-9999.0","1020","30.12","-999","-999","-9999","-9999","-9999.00","-9999.00","Clear","clear","0","0","0","0","0","0","METAR UKKK 081800Z 11002MPS CAVOK 19/10 Q1020 R08/CLRD70 NOSIG"
"9:30 PM EEST on August 08, 2016","2016","08","08","21","30","Europe/Kiev","6:30 PM GMT on August 08, 2016","2016","08","08","18","30","UTC","18.0","64.4","11.0","51.8","64","0.0","0.0","-9999.0","-9999.0","0","North","9.0","5.6","1020","30.12","-999","-999","-9999","-9999","-9999.00","-9999.00","Clear","clear","0","0","0","0","0","0","METAR UKKK 081830Z 00000MPS 9000 SKC 18/11 Q1020 R08/CLRD70 NOSIG"
"10:00 PM EEST on August 08, 2016","2016","08","08","22","00","Europe/Kiev","7:00 PM GMT on August 08, 2016","2016","08","08","19","00","UTC","16.0","60.8","11.0","51.8","72","0.0","0.0","-9999.0","-9999.0","0","North","9.0","5.6","1020","30.12","-999","-999","-9999","-9999","-9999.00","-9999.00","Clear","clear","0","0","0","0","0","0","METAR UKKK 081900Z 00000MPS 9000 SKC 16/11 Q1020 R08/CLRD70 NOSIG"
"10:30 PM EEST on August 08, 2016","2016","08","08","22","30","Europe/Kiev","7:30 PM GMT on August 08, 2016","2016","08","08","19","30","UTC","16.0","60.8","11.0","51.8","72","0.0","0.0","-9999.0","-9999.0","0","North","6.0","3.7","1020","30.12","-999","-999","-9999","-9999","-9999.00","-9999.00","Clear","clear","0","0","0","0","0","0","METAR UKKK 081930Z 00000MPS 6000 SKC 16/11 Q1020 R08/CLRD70 NOSIG"
"11:00 PM EEST on August 08, 2016","2016","08","08","23","00","Europe/Kiev","8:00 PM GMT on August 08, 2016","2016","08","08","20","00","UTC","16.0","60.8","11.0","51.8","72","0.0","0.0","-9999.0","-9999.0","0","North","-9999.0","-9999.0","1020","30.12","-999","-999","-9999","-9999","-9999.00","-9999.00","Smoke","hazy","0","0","0","0","0","0","METAR UKKK 082000Z 00000MPS 3900 FU SKC 16/11 Q1020 R08/CLRD70 NOSIG"
"11:30 PM EEST on August 08, 2016","2016","08","08","23","30","Europe/Kiev","8:30 PM GMT on August 08, 2016","2016","08","08","20","30","UTC","14.0","57.2","12.0","53.6","88","3.6","2.2","-9999.0","-9999.0","230","SW","10.0","6.2","1020","30.12","-999","-999","-9999","-9999","-9999.00","-9999.00","Clear","clear","0","0","0","0","0","0","METAR UKKK 082030Z 23001MPS 9999 SKC 14/12 Q1020 R08/CLRD70 NOSIG"
"12:00 AM EEST on August 09, 2016","2016","08","09","00","00","Europe/Kiev","9:00 PM GMT on August 08, 2016","2016","08","08","21","00","UTC","18","64","11","52","55","0.0","0.0","","","","","20","12","1020","30.12","-999","-999","-9999","-9999","","","","","0","0","0","0","0","0","AAXX 08211 33345 42998 00000 10176 20109 30001 40198 53003 555 10015"
"12:00 AM EEST on August 09, 2016","2016","08","09","00","00","Europe/Kiev","9:00 PM GMT on August 08, 2016","2016","08","08","21","00","UTC","14.0","57.2","12.0","53.6","88","0.0","0.0","-9999.0","-9999.0","0","North","8.0","5.0","1020","30.12","-999","-999","-9999","-9999","-9999.00","-9999.00","Clear","clear","0","0","0","0","0","0","METAR UKKK 082100Z 00000MPS 8000 SKC 14/12 Q1020 R08/CLRD70 NOSIG"
"12:30 AM EEST on August 09, 2016","2016","08","09","00","30","Europe/Kiev","9:30 PM GMT on August 08, 2016","2016","08","08","21","30","UTC","13.0","55.4","11.0","51.8","88","0.0","0.0","-9999.0","-9999.0","0","North","5.0","3.1","1020","30.12","-999","-999","-9999","-9999","-9999.00","-9999.00","Smoke","hazy","0","0","0","0","0","0","METAR UKKK 082130Z 00000MPS 5000 FU SKC 13/11 Q1020 R08/CLRD70 NOSIG"
"1:00 AM EEST on August 09, 2016","2016","08","09","01","00","Europe/Kiev","10:00 PM GMT on August 08, 2016","2016","08","08","22","00","UTC","14.0","57.2","11.0","51.8","82","0.0","0.0","-9999.0","-9999.0","0","North","9.0","5.6","1020","30.12","-999","-999","-9999","-9999","-9999.00","-9999.00","Clear","clear","0","0","0","0","0","0","METAR UKKK 082200Z 00000MPS 9000 SKC 14/11 Q1020 R08/CLRD70 NOSIG"
"1:30 AM EEST on August 09, 2016","2016","08","09","01","30","Europe/Kiev","10:30 PM GMT on August 08, 2016","2016","08","08","22","30","UTC","13.0","55.4","11.0","51.8","88","0.0","0.0","-9999.0","-9999.0","0","North","9.0","5.6","1020","30.12","-999","-999","-9999","-9999","-9999.00","-9999.00","Clear","clear","0","0","0","0","0","0","METAR UKKK 082230Z 00000MPS 9000 SKC 13/11 Q1020 R08/CLRD70 NOSIG"
"2:00 AM EEST on August 09, 2016","2016","08","09","02","00","Europe/Kiev","11:00 PM GMT on August 08, 2016","2016","08","08","23","00","UTC","13.0","55.4","11.0","51.8","88","0.0","0.0","-9999.0","-9999.0","0","North","9.0","5.6","1020","30.12","-999","-999","-9999","-9999","-9999.00","-9999.00","Clear","clear","0","0","0","0","0","0","METAR UKKK 082300Z 00000MPS 9000 SKC 13/11 Q1020 R08/CLRD70 NOSIG"
"2:30 AM EEST on August 09, 2016","2016","08","09","02","30","Europe/Kiev","11:30 PM GMT on August 08, 2016","2016","08","08","23","30","UTC","12.0","53.6","11.0","51.8","94","0.0","0.0","-9999.0","-9999.0","0","North","9.0","5.6","1020","30.12","-999","-999","-9999","-9999","-9999.00","-9999.00","Clear","clear","0","0","0","0","0","0","METAR UKKK 082330Z 00000MPS 9000 SKC 12/11 Q1020 R08/CLRD70 NOSIG"
"3:00 AM EEST on August 09, 2016","2016","08","09","03","00","Europe/Kiev","12:00 AM GMT on August 09, 2016","2016","08","09","00","00","UTC","15","60","10","51","64","0.0","0.0","","","","","20","12","1020","30.13","-999","-999","-9999","-9999","","","","","0","0","0","0","0","0","AAXX 09001 33345 32998 00000 10154 20105 30002 40201 52001 555 10013"
"3:00 AM EEST on August 09, 2016","2016","08","09","03","00","Europe/Kiev","12:00 AM GMT on August 09, 2016","2016","08","09","00","00","UTC","12.0","53.6","10.0","50.0","88","3.6","2.2","-9999.0","-9999.0","0","Variable","-9999.0","-9999.0","1020","30.12","-999","-999","-9999","-9999","-9999.00","-9999.00","Clear","clear","0","0","0","0","0","0","METAR UKKK 090000Z VRB01MPS CAVOK 12/10 Q1020 R08/CLRD70 NOSIG"
"3:30 AM EEST on August 09, 2016","2016","08","09","03","30","Europe/Kiev","12:30 AM GMT on August 09, 2016","2016","08","09","00","30","UTC","12.0","53.6","10.0","50.0","88","0.0","0.0","-9999.0","-9999.0","0","North","-9999.0","-9999.0","1020","30.12","-999","-999","-9999","-9999","-9999.00","-9999.00","Clear","clear","0","0","0","0","0","0","METAR UKKK 090030Z 00000MPS CAVOK 12/10 Q1020 R08/CLRD70 NOSIG"
"4:00 AM EEST on August 09, 2016","2016","08","09","04","00","Europe/Kiev","1:00 AM GMT on August 09, 2016","2016","08","09","01","00","UTC","12.0","53.6","11.0","51.8","94","0.0","0.0","-9999.0","-9999.0","0","North","-9999.0","-9999.0","1020","30.12","-999","-999","-9999","-9999","-9999.00","-9999.00","Clear","clear","0","0","0","0","0","0","METAR UKKK 090100Z 00000MPS CAVOK 12/11 Q1020 R08/CLRD70 NOSIG"
"4:30 AM EEST on August 09, 2016","2016","08","09","04","30","Europe/Kiev","1:30 AM GMT on August 09, 2016","2016","08","09","01","30","UTC","11.0","51.8","11.0","51.8","100","0.0","0.0","-9999.0","-9999.0","0","North","-9999.0","-9999.0","1020","30.12","-999","-999","-9999","-9999","-9999.00","-9999.00","Clear","clear","0","0","0","0","0","0","METAR UKKK 090130Z 00000MPS CAVOK 11/11 Q1020 R08/CLRD70 NOSIG"
"5:00 AM EEST on August 09, 2016","2016","08","09","05","00","Europe/Kiev","2:00 AM GMT on August 09, 2016","2016","08","09","02","00","UTC","11.0","51.8","11.0","51.8","100","0.0","0.0","-9999.0","-9999.0","0","North","-9999.0","-9999.0","1020","30.12","-999","-999","-9999","-9999","-9999.00","-9999.00","Clear","clear","0","0","0","0","0","0","METAR UKKK 090200Z 00000MPS CAVOK 11/11 Q1020 R08/CLRD70 NOSIG"
"5:30 AM EEST on August 09, 2016","2016","08","09","05","30","Europe/Kiev","2:30 AM GMT on August 09, 2016","2016","08","09","02","30","UTC","11.0","51.8","11.0","51.8","100","0.0","0.0","-9999.0","-9999.0","0","North","-9999.0","-9999.0","1020","30.12","-999","-999","-9999","-9999","-9999.00","-9999.00","Clear","clear","0","0","0","0","0","0","METAR UKKK 090230Z 00000MPS CAVOK 11/11 Q1020 R08/CLRD70 NOSIG"
"6:00 AM EEST on August 09, 2016","2016","08","09","06","00","Europe/Kiev","3:00 AM GMT on August 09, 2016","2016","08","09","03","00","UTC","15","59","10","51","67","0.0","0.0","","","","","20","12","1020","30.12","-999","-999","-9999","-9999","","","","","0","0","0","0","0","0","AAXX 09031 33345 42998 00000 10150 20105 30001 40200 58001 555 10012"
"6:00 AM EEST on August 09, 2016","2016","08","09","06","00","Europe/Kiev","3:00 AM GMT on August 09, 2016","2016","08","09","03","00","UTC","11.0","51.8","10.0","50.0","94","0.0","0.0","-9999.0","-9999.0","0","North","-9999.0","-9999.0","1020","30.12","-999","-999","-9999","-9999","-9999.00","-9999.00","Clear","clear","0","0","0","0","0","0","METAR UKKK 090300Z 00000MPS CAVOK 11/10 Q1020 R08/CLRD70 NOSIG"
"6:30 AM EEST on August 09, 2016","2016","08","09","06","30","Europe/Kiev","3:30 AM GMT on August 09, 2016","2016","08","09","03","30","UTC","13.0","55.4","11.0","51.8","88","0.0","0.0","-9999.0","-9999.0","0","North","-9999.0","-9999.0","1020","30.12","-999","-999","-9999","-9999","-9999.00","-9999.00","Clear","clear","0","0","0","0","0","0","METAR UKKK 090330Z 00000MPS CAVOK 13/11 Q1020 R08/CLRD70 NOSIG"
"7:00 AM EEST on August 09, 2016","2016","08","09","07","00","Europe/Kiev","4:00 AM GMT on August 09, 2016","2016","08","09","04","00","UTC","15.0","59.0","13.0","55.4","88","0.0","0.0","-9999.0","-9999.0","0","North","-9999.0","-9999.0","1020","30.12","-999","-999","-9999","-9999","-9999.00","-9999.00","Clear","clear","0","0","0","0","0","0","METAR UKKK 090400Z 00000MPS CAVOK 15/13 Q1020 R08/CLRD70 NOSIG"
"7:30 AM EEST on August 09, 2016","2016","08","09","07","30","Europe/Kiev","4:30 AM GMT on August 09, 2016","2016","08","09","04","30","UTC","18.0","64.4","13.0","55.4","73","0.0","0.0","-9999.0","-9999.0","0","North","-9999.0","-9999.0","1020","30.12","-999","-999","-9999","-9999","-9999.00","-9999.00","Clear","clear","0","0","0","0","0","0","METAR UKKK 090430Z 00000MPS CAVOK 18/13 Q1020 R08/CLRD70 NOSIG"
"8:00 AM EEST on August 09, 2016","2016","08","09","08","00","Europe/Kiev","5:00 AM GMT on August 09, 2016","2016","08","09","05","00","UTC","20.0","68.0","12.0","53.6","60","0.0","0.0","-9999.0","-9999.0","0","North","-9999.0","-9999.0","1020","30.12","-999","-999","-9999","-9999","-9999.00","-9999.00","Clear","clear","0","0","0","0","0","0","METAR UKKK 090500Z 00000MPS CAVOK 20/12 Q1020 R08/CLRD70 NOSIG"
"8:30 AM EEST on August 09, 2016","2016","08","09","08","30","Europe/Kiev","5:30 AM GMT on August 09, 2016","2016","08","09","05","30","UTC","21.0","69.8","11.0","51.8","53","0.0","0.0","-9999.0","-9999.0","0","North","-9999.0","-9999.0","1020","30.12","-999","-999","-9999","-9999","-9999.00","-9999.00","Clear","clear","0","0","0","0","0","0","METAR UKKK 090530Z 00000MPS CAVOK 21/11 Q1020 R08/CLRD70 NOSIG"
"9:00 AM EEST on August 09, 2016","2016","08","09","09","00","Europe/Kiev","6:00 AM GMT on August 09, 2016","2016","08","09","06","00","UTC","21","71","12","54","44","3.6","2.2","","","150","SSE","20","12","1020","30.12","-999","-999","-9999","-9999","","","","","0","0","0","0","0","0","AAXX 09061 33345 32998 01501 10214 20120 30002 40197 53001 333 20148 555 10032"
"9:00 AM EEST on August 09, 2016","2016","08","09","09","00","Europe/Kiev","6:00 AM GMT on August 09, 2016","2016","08","09","06","00","UTC","22.0","71.6","11.0","51.8","50","0.0","0.0","-9999.0","-9999.0","0","North","-9999.0","-9999.0","1020","30.12","-999","-999","-9999","-9999","-9999.00","-9999.00","Clear","clear","0","0","0","0","0","0","METAR UKKK 090600Z 00000MPS CAVOK 22/11 Q1020 R08/CLRD70 NOSIG"
"9:30 AM EEST on August 09, 2016","2016","08","09","09","30","Europe/Kiev","6:30 AM GMT on August 09, 2016","2016","08","09","06","30","UTC","23.0","73.4","10.0","50.0","44","3.6","2.2","-9999.0","-9999.0","0","Variable","-9999.0","-9999.0","1020","30.12","-999","-999","-9999","-9999","-9999.00","-9999.00","Clear","clear","0","0","0","0","0","0","METAR UKKK 090630Z VRB01MPS CAVOK 23/10 Q1020 R08/CLRD70 NOSIG"
"10:00 AM EEST on August 09, 2016","2016","08","09","10","00","Europe/Kiev","7:00 AM GMT on August 09, 2016","2016","08","09","07","00","UTC","23.0","73.4","10.0","50.0","44","3.6","2.2","-9999.0","-9999.0","0","Variable","9.0","5.6","1020","30.12","-999","-999","-9999","-9999","-9999.00","-9999.00","Clear","clear","0","0","0","0","0","0","METAR UKKK 090700Z VRB01MPS 9000 SKC 23/10 Q1020 R08/CLRD70 NOSIG"
"10:30 AM EEST on August 09, 2016","2016","08","09","10","30","Europe/Kiev","7:30 AM GMT on August 09, 2016","2016","08","09","07","30","UTC","24.0","75.2","11.0","51.8","44","7.2","4.5","-9999.0","-9999.0","100","East","-9999.0","-9999.0","1020","30.12","-999","-999","-9999","-9999","-9999.00","-9999.00","Clear","clear","0","0","0","0","0","0","METAR UKKK 090730Z 10002MPS CAVOK 24/11 Q1020 R08/CLRD70 NOSIG"
"11:00 AM EEST on August 09, 2016","2016","08","09","11","00","Europe/Kiev","8:00 AM GMT on August 09, 2016","2016","08","09","08","00","UTC","24.0","75.2","11.0","51.8","44","7.2","4.5","-9999.0","-9999.0","120","ESE","-9999.0","-9999.0","1019","30.09","-999","-999","-9999","-9999","-9999.00","-9999.00","Clear","clear","0","0","0","0","0","0","METAR UKKK 090800Z 12002MPS 090V170 CAVOK 24/11 Q1019 R08/CLRD70 NOSIG"
"11:30 AM EEST on August 09, 2016","2016","08","09","11","30","Europe/Kiev","8:30 AM GMT on August 09, 2016","2016","08","09","08","30","UTC","24.0","75.2","10.0","50.0","41","3.6","2.2","-9999.0","-9999.0","0","Variable","-9999.0","-9999.0","1019","30.09","-999","-999","-9999","-9999","-9999.00","-9999.00","Clear","clear","0","0","0","0","0","0","METAR UKKK 090830Z VRB01MPS CAVOK 24/10 Q1019 R08/CLRD70 NOSIG"
"12:00 PM EEST on August 09, 2016","2016","08","09","12","00","Europe/Kiev","9:00 AM GMT on August 09, 2016","2016","08","09","09","00","UTC","25","76","10","49","28","7.2","4.5","","","190","South","20","12","1019","30.08","-999","-999","-9999","-9999","","","","","0","0","0","0","0","0","AAXX 09091 33345 42998 01902 10246 20097 39993 40186 58009 555 10050"
"12:00 PM EEST on August 09, 2016","2016","08","09","12","00","Europe/Kiev","9:00 AM GMT on August 09, 2016","2016","08","09","09","00","UTC","25.0","77.0","10.0","50.0","39","3.6","2.2","-9999.0","-9999.0","0","Variable","-9999.0","-9999.0","1019","30.09","-999","-999","-9999","-9999","-9999.00","-9999.00","Clear","clear","0","0","0","0","0","0","METAR UKKK 090900Z VRB01MPS CAVOK 25/10 Q1019 R08/CLRD70 NOSIG"
"12:30 PM EEST on August 09, 2016","2016","08","09","12","30","Europe/Kiev","9:30 AM GMT on August 09, 2016","2016","08","09","09","30","UTC","25.0","77.0","10.0","50.0","39","7.2","4.5","-9999.0","-9999.0","90","East","-9999.0","-9999.0","1018","30.06","-999","-999","-9999","-9999","-9999.00","-9999.00","Clear","clear","0","0","0","0","0","0","METAR UKKK 090930Z 09002MPS CAVOK 25/10 Q1018 R08/CLRD70 NOSIG"
"1:00 PM EEST on August 09, 2016","2016","08","09","13","00","Europe/Kiev","10:00 AM GMT on August 09, 2016","2016","08","09","10","00","UTC","26.0","78.8","10.0","50.0","36","7.2","4.5","-9999.0","-9999.0","200","SSW","-9999.0","-9999.0","1018","30.06","-999","-999","-9999","-9999","-9999.00","-9999.00","Clear","clear","0","0","0","0","0","0","METAR UKKK 091000Z 20002MPS 150V250 CAVOK 26/10 Q1018 R08/CLRD70 NOSIG"
"1:30 PM EEST on August 09, 2016","2016","08","09","13","30","Europe/Kiev","10:30 AM GMT on August 09, 2016","2016","08","09","10","30","UTC","25.0","77.0","10.0","50.0","39","10.8","6.7","-9999.0","-9999.0","100","East","-9999.0","-9999.0","1018","30.06","-999","-999","-9999","-9999","-9999.00","-9999.00","Clear","clear","0","0","0","0","0","0","METAR UKKK 091030Z 10003MPS CAVOK 25/10 Q1018 R08/CLRD70 NOSIG"
"2:00 PM EEST on August 09, 2016","2016","08","09","14","00","Europe/Kiev","11:00 AM GMT on August 09, 2016","2016","08","09","11","00","UTC","26.0","78.8","10.0","50.0","36","10.8","6.7","-9999.0","-9999.0","20","NNE","-9999.0","-9999.0","1018","30.06","-999","-999","-9999","-9999","-9999.00","-9999.00","Clear","clear","0","0","0","0","0","0","METAR UKKK 091100Z 02003MPS CAVOK 26/10 Q1018 R08/CLRD70 NOSIG"
"2:30 PM EEST on August 09, 2016","2016","08","09","14","30","Europe/Kiev","11:30 AM GMT on August 09, 2016","2016","08","09","11","30","UTC","26.0","78.8","9.0","48.2","34","7.2","4.5","-9999.0","-9999.0","180","South","-9999.0","-9999.0","1018","30.06","-999","-999","-9999","-9999","-9999.00","-9999.00","Clear","clear","0","0","0","0","0","0","METAR UKKK 091130Z 18002MPS 130V250 CAVOK 26/09 Q1018 R08/CLRD70 NOSIG"
"3:00 PM EEST on August 09, 2016","2016","08","09","15","00","Europe/Kiev","12:00 PM GMT on August 09, 2016","2016","08","09","12","00","UTC","27","81","8","47","20","7.2","4.5","","","190","South","20","12","1017","30.03","-999","-999","-9999","-9999","","","","","0","0","0","0","0","0","AAXX 09121 33345 32998 01902 10271 20081 39977 40168 57016 555 10053"
"3:00 PM EEST on August 09, 2016","2016","08","09","15","00","Europe/Kiev","12:00 PM GMT on August 09, 2016","2016","08","09","12","00","UTC","27.0","80.6","10.0","50.0","34","7.2","4.5","-9999.0","-9999.0","140","SE","-9999.0","-9999.0","1017","30.04","-999","-999","-9999","-9999","-9999.00","-9999.00","Clear","clear","0","0","0","0","0","0","METAR UKKK 091200Z 14002MPS CAVOK 27/10 Q1017 R08/CLRD70 NOSIG"
"3:30 PM EEST on August 09, 2016","2016","08","09","15","30","Europe/Kiev","12:30 PM GMT on August 09, 2016","2016","08","09","12","30","UTC","27.0","80.6","9.0","48.2","32","7.2","4.5","-9999.0","-9999.0","130","SE","-9999.0","-9999.0","1017","30.04","-999","-999","-9999","-9999","-9999.00","-9999.00","Clear","clear","0","0","0","0","0","0","METAR UKKK 091230Z 13002MPS 030V180 CAVOK 27/09 Q1017 R08/CLRD70 NOSIG"
"4:00 PM EEST on August 09, 2016","2016","08","09","16","00","Europe/Kiev","1:00 PM GMT on August 09, 2016","2016","08","09","13","00","UTC","27.0","80.6","9.0","48.2","32","3.6","2.2","-9999.0","-9999.0","0","Variable","-9999.0","-9999.0","1017","30.04","-999","-999","-9999","-9999","-9999.00","-9999.00","Clear","clear","0","0","0","0","0","0","METAR UKKK 091300Z VRB01MPS CAVOK 27/09 Q1017 R08/CLRD70 NOSIG"
"4:30 PM EEST on August 09, 2016","2016","08","09","16","30","Europe/Kiev","1:30 PM GMT on August 09, 2016","2016","08","09","13","30","UTC","27.0","80.6","10.0","50.0","34","10.8","6.7","-9999.0","-9999.0","120","ESE","-9999.0","-9999.0","1016","30.01","-999","-999","-9999","-9999","-9999.00","-9999.00","Clear","clear","0","0","0","0","0","0","METAR UKKK 091330Z 12003MPS 080V170 CAVOK 27/10 Q1016 R08/CLRD70 NOSIG"
"5:00 PM EEST on August 09, 2016","2016","08","09","17","00","Europe/Kiev","2:00 PM GMT on August 09, 2016","2016","08","09","14","00","UTC","27.0","80.6","10.0","50.0","34","7.2","4.5","-9999.0","-9999.0","80","East","-9999.0","-9999.0","1016","30.01","-999","-999","-9999","-9999","-9999.00","-9999.00","Clear","clear","0","0","0","0","0","0","METAR UKKK 091400Z 08002MPS 010V170 CAVOK 27/10 Q1016 R08/CLRD70 NOSIG"
"5:30 PM EEST on August 09, 2016","2016","08","09","17","30","Europe/Kiev","2:30 PM GMT on August 09, 2016","2016","08","09","14","30","UTC","27.0","80.6","10.0","50.0","34","7.2","4.5","-9999.0","-9999.0","140","SE","-9999.0","-9999.0","1016","30.01","-999","-999","-9999","-9999","-9999.00","-9999.00","Clear","clear","0","0","0","0","0","0","METAR UKKK 091430Z 14002MPS 050V210 CAVOK 27/10 Q1016 R08/CLRD70 NOSIG"
"6:00 PM EEST on August 09, 2016","2016","08","09","18","00","Europe/Kiev","3:00 PM GMT on August 09, 2016","2016","08","09","15","00","UTC","27","80","9","48","23","7.2","4.5","","","170","South","20","12","1015","29.99","-999","-999","-9999","-9999","","","","","0","0","0","0","0","0","AAXX 09151 33345 42998 01702 10269 20091 39963 40154 57014 555 10040"
"6:00 PM EEST on August 09, 2016","2016","08","09","18","00","Europe/Kiev","3:00 PM GMT on August 09, 2016","2016","08","09","15","00","UTC","27.0","80.6","11.0","51.8","37","3.6","2.2","-9999.0","-9999.0","0","Variable","-9999.0","-9999.0","1016","30.01","-999","-999","-9999","-9999","-9999.00","-9999.00","Clear","clear","0","0","0","0","0","0","METAR UKKK 091500Z VRB01MPS CAVOK 27/11 Q1016 R08/CLRD70 NOSIG"
"6:30 PM EEST on August 09, 2016","2016","08","09","18","30","Europe/Kiev","3:30 PM GMT on August 09, 2016","2016","08","09","15","30","UTC","26.0","78.8","10.0","50.0","36","7.2","4.5","-9999.0","-9999.0","110","ESE","-9999.0","-9999.0","1016","30.01","-999","-999","-9999","-9999","-9999.00","-9999.00","Clear","clear","0","0","0","0","0","0","METAR UKKK 091530Z 11002MPS 060V170 CAVOK 26/10 Q1016 R08/CLRD70 NOSIG"
"7:00 PM EEST on August 09, 2016","2016","08","09","19","00","Europe/Kiev","4:00 PM GMT on August 09, 2016","2016","08","09","16","00","UTC","26.0","78.8","9.0","48.2","34","7.2","4.5","-9999.0","-9999.0","110","ESE","-9999.0","-9999.0","1016","30.01","-999","-999","-9999","-9999","-9999.00","-9999.00","Clear","clear","0","0","0","0","0","0","METAR UKKK 091600Z 11002MPS 080V170 CAVOK 26/09 Q1016 R08/CLRD70 NOSIG"
"7:30 PM EEST on August 09, 2016","2016","08","09","19","30","Europe/Kiev","4:30 PM GMT on August 09, 2016","2016","08","09","16","30","UTC","25.0","77.0","10.0","50.0","39","7.2","4.5","-9999.0","-9999.0","120","ESE","-9999.0","-9999.0","1015","29.98","-999","-999","-9999","-9999","-9999.00","-9999.00","Clear","clear","0","0","0","0","0","0","METAR UKKK 091630Z 12002MPS 100V180 CAVOK 25/10 Q1015 R08/CLRD70 NOSIG"
"8:00 PM EEST on August 09, 2016","2016","08","09","20","00","Europe/Kiev","5:00 PM GMT on August 09, 2016","2016","08","09","17","00","UTC","24.0","75.2","10.0","50.0","41","3.6","2.2","-9999.0","-9999.0","130","SE","-9999.0","-9999.0","1016","30.01","-999","-999","-9999","-9999","-9999.00","-9999.00","Clear","clear","0","0","0","0","0","0","METAR UKKK 091700Z 13001MPS CAVOK 24/10 Q1016 R08/CLRD70 NOSIG"
"8:30 PM EEST on August 09, 2016","2016","08","09","20","30","Europe/Kiev","5:30 PM GMT on August 09, 2016","2016","08","09","17","30","UTC","22.0","71.6","10.0","50.0","46","7.2","4.5","-9999.0","-9999.0","130","SE","-9999.0","-9999.0","1016","30.01","-999","-999","-9999","-9999","-9999.00","-9999.00","Clear","clear","0","0","0","0","0","0","METAR UKKK 091730Z 13002MPS CAVOK 22/10 Q1016 R08/CLRD70 NOSIG"
"9:00 PM EEST on August 09, 2016","2016","08","09","21","00","Europe/Kiev","6:00 PM GMT on August 09, 2016","2016","08","09","18","00","UTC","22","71","11","52","41","0.0","0.0","","","","","20","12","1016","30.00","-999","-999","-9999","-9999","","","Clear","clear","0","0","0","0","0","0","AAXX 09181 33345 32998 10000 10216 20112 39963 40157 55000 80000 333 10276 555 10020"
"9:00 PM EEST on August 09, 2016","2016","08","09","21","00","Europe/Kiev","6:00 PM GMT on August 09, 2016","2016","08","09","18","00","UTC","21.0","69.8","10.0","50.0","49","7.2","4.5","-9999.0","-9999.0","120","ESE","-9999.0","-9999.0","1016","30.01","-999","-999","-9999","-9999","-9999.00","-9999.00","Clear","clear","0","0","0","0","0","0","METAR UKKK 091800Z 12002MPS CAVOK 21/10 Q1016 R08/CLRD70 NOSIG"
"9:30 PM EEST on August 09, 2016","2016","08","09","21","30","Europe/Kiev","6:30 PM GMT on August 09, 2016","2016","08","09","18","30","UTC","21.0","69.8","10.0","50.0","49","7.2","4.5","-9999.0","-9999.0","110","ESE","9.0","5.6","1016","30.01","-999","-999","-9999","-9999","-9999.00","-9999.00","Unknown","unknown","0","0","0","0","0","0","METAR UKKK 091830Z 11002MPS 9000 NSC 21/10 Q1016 R08/CLRD70 NOSIG"
"10:00 PM EEST on August 09, 2016","2016","08","09","22","00","Europe/Kiev","7:00 PM GMT on August 09, 2016","2016","08","09","19","00","UTC","19.0","66.2","11.0","51.8","60","7.2","4.5","-9999.0","-9999.0","110","ESE","-9999.0","-9999.0","1016","30.01","-999","-999","-9999","-9999","-9999.00","-9999.00","Clear","clear","0","0","0","0","0","0","METAR UKKK 091900Z 11002MPS CAVOK 19/11 Q1016 R08/CLRD70 NOSIG"
"10:30 PM EEST on August 09, 2016","2016","08","09","22","30","Europe/Kiev","7:30 PM GMT on August 09, 2016","2016","08","09","19","30","UTC","18.0","64.4","12.0","53.6","68","3.6","2.2","-9999.0","-9999.0","130","SE","-9999.0","-9999.0","1016","30.01","-999","-999","-9999","-9999","-9999.00","-9999.00","Clear","clear","0","0","0","0","0","0","METAR UKKK 091930Z 13001MPS CAVOK 18/12 Q1016 R08/CLRD70 NOSIG"
"11:00 PM EEST on August 09, 2016","2016","08","09","23","00","Europe/Kiev","8:00 PM GMT on August 09, 2016","2016","08","09","20","00","UTC","17.0","62.6","11.0","51.8","68","7.2","4.5","-9999.0","-9999.0","90","East","9.0","5.6","1016","30.01","-999","-999","-9999","-9999","-9999.00","-9999.00","Clear","clear","0","0","0","0","0","0","METAR UKKK 092000Z 09002MPS 9000 SKC 17/11 Q1016 R08/CLRD70 NOSIG"
"11:30 PM EEST on August 09, 2016","2016","08","09","23","30","Europe/Kiev","8:30 PM GMT on August 09, 2016","2016","08","09","20","30","UTC","17.0","62.6","11.0","51.8","68","7.2","4.5","-9999.0","-9999.0","110","ESE","9.0","5.6","1016","30.01","-999","-999","-9999","-9999","-9999.00","-9999.00","Clear","clear","0","0","0","0","0","0","METAR UKKK 092030Z 11002MPS 9000 SKC 17/11 Q1016 R08/CLRD70 NOSIG"
"12:00 AM EEST on August 10, 2016","2016","08","10","00","00","Europe/Kiev","9:00 PM GMT on August 09, 2016","2016","08","09","21","00","UTC","19","66","11","52","51","3.6","2.2","","","190","South","20","12","1016","30.01","-999","-999","-9999","-9999","","","","","0","0","0","0","0","0","AAXX 09211 33345 42998 01901 10188 20111 39965 40161 52002 555 10017"
"12:00 AM EEST on August 10, 2016","2016","08","10","00","00","Europe/Kiev","9:00 PM GMT on August 09, 2016","2016","08","09","21","00","UTC","18.0","64.4","11.0","51.8","64","7.2","4.5","-9999.0","-9999.0","120","ESE","-9999.0","-9999.0","1016","30.01","-999","-999","-9999","-9999","-9999.00","-9999.00","Clear","clear","0","0","0","0","0","0","METAR UKKK 092100Z 12002MPS CAVOK 18/11 Q1016 R08/CLRD70 NOSIG"
"12:30 AM EEST on August 10, 2016","2016","08","10","00","30","Europe/Kiev","9:30 PM GMT on August 09, 2016","2016","08","09","21","30","UTC","17.0","62.6","11.0","51.8","68","7.2","4.5","-9999.0","-9999.0","120","ESE","-9999.0","-9999.0","1016","30.01","-999","-999","-9999","-9999","-9999.00","-9999.00","Clear","clear","0","0","0","0","0","0","METAR UKKK 092130Z 12002MPS CAVOK 17/11 Q1016 R08/CLRD70 NOSIG"
"1:00 AM EEST on August 10, 2016","2016","08","10","01","00","Europe/Kiev","10:00 PM GMT on August 09, 2016","2016","08","09","22","00","UTC","17.0","62.6","11.0","51.8","68","7.2","4.5","-9999.0","-9999.0","130","SE","-9999.0","-9999.0","1016","30.01","-999","-999","-9999","-9999","-9999.00","-9999.00","Clear","clear","0","0","0","0","0","0","METAR UKKK 092200Z 13002MPS CAVOK 17/11 Q1016 R08/CLRD70 NOSIG"
"1:30 AM EEST on August 10, 2016","2016","08","10","01","30","Europe/Kiev","10:30 PM GMT on August 09, 2016","2016","08","09","22","30","UTC","16.0","60.8","11.0","51.8","72","3.6","2.2","-9999.0","-9999.0","0","Variable","-9999.0","-9999.0","1016","30.01","-999","-999","-9999","-9999","-9999.00","-9999.00","Clear","clear","0","0","0","0","0","0","METAR UKKK 092230Z VRB01MPS CAVOK 16/11 Q1016 R08/CLRD70 NOSIG"
"2:00 AM EEST on August 10, 2016","2016","08","10","02","00","Europe/Kiev","11:00 PM GMT on August 09, 2016","2016","08","09","23","00","UTC","15.0","59.0","12.0","53.6","82","7.2","4.5","-9999.0","-9999.0","90","East","-9999.0","-9999.0","1016","30.01","-999","-999","-9999","-9999","-9999.00","-9999.00","Clear","clear","0","0","0","0","0","0","METAR UKKK 092300Z 09002MPS CAVOK 15/12 Q1016 R08/CLRD70 NOSIG"
"2:30 AM EEST on August 10, 2016","2016","08","10","02","30","Europe/Kiev","11:30 PM GMT on August 09, 2016","2016","08","09","23","30","UTC","16.0","60.8","12.0","53.6","77","10.8","6.7","-9999.0","-9999.0","80","East","-9999.0","-9999.0","1015","29.98","-999","-999","-9999","-9999","-9999.00","-9999.00","Clear","clear","0","0","0","0","0","0","METAR UKKK 092330Z 08003MPS CAVOK 16/12 Q1015 R08/CLRD70 NOSIG"
"3:00 AM EEST on August 10, 2016","2016","08","10","03","00","Europe/Kiev","12:00 AM GMT on August 10, 2016","2016","08","10","00","00","UTC","18","64","12","54","62","0.0","0.0","","","","","20","12","1016","29.99","-999","-999","-9999","-9999","","","","","0","0","0","0","0","0","AAXX 10001 33345 32998 00000 10175 20123 39958 40155 58007 555 10015"
"3:00 AM EEST on August 10, 2016","2016","08","10","03","00","Europe/Kiev","12:00 AM GMT on August 10, 2016","2016","08","10","00","00","UTC","15.0","59.0","12.0","53.6","82","0.0","0.0","-9999.0","-9999.0","0","North","-9999.0","-9999.0","1015","29.98","-999","-999","-9999","-9999","-9999.00","-9999.00","Clear","clear","0","0","0","0","0","0","METAR UKKK 100000Z 00000MPS CAVOK 15/12 Q1015 R08/CLRD70 NOSIG"
"3:30 AM EEST on August 10, 2016","2016","08","10","03","30","Europe/Kiev","12:30 AM GMT on August 10, 2016","2016","08","10","00","30","UTC","14.0","57.2","12.0","53.6","88","0.0","0.0","-9999.0","-9999.0","0","North","-9999.0","-9999.0","1015","29.98","-999","-999","-9999","-9999","-9999.00","-9999.00","Clear","clear","0","0","0","0","0","0","METAR UKKK 100030Z 00000MPS CAVOK 14/12 Q1015 R08/CLRD70 NOSIG"
"4:00 AM EEST on August 10, 2016","2016","08","10","04","00","Europe/Kiev","1:00 AM GMT on August 10, 2016","2016","08","10","01","00","UTC","13.0","55.4","12.0","53.6","94","0.0","0.0","-9999.0","-9999.0","0","North","-9999.0","-9999.0","1015","29.98","-999","-999","-9999","-9999","-9999.00","-9999.00","Clear","clear","0","0","0","0","0","0","METAR UKKK 100100Z 00000MPS CAVOK 13/12 Q1015 R08/CLRD70 NOSIG"
"4:30 AM EEST on August 10, 2016","2016","08","10","04","30","Europe/Kiev","1:30 AM GMT on August 10, 2016","2016","08","10","01","30","UTC","14.0","57.2","12.0","53.6","88","0.0","0.0","-9999.0","-9999.0","0","North","-9999.0","-9999.0","1015","29.98","-999","-999","-9999","-9999","-9999.00","-9999.00","Clear","clear","0","0","0","0","0","0","METAR UKKK 100130Z 00000MPS CAVOK 14/12 Q1015 R08/CLRD70 NOSIG"
"5:00 AM EEST on August 10, 2016","2016","08","10","05","00","Europe/Kiev","2:00 AM GMT on August 10, 2016","2016","08","10","02","00","UTC","14.0","57.2","12.0","53.6","88","7.2","4.5","-9999.0","-9999.0","80","East","-9999.0","-9999.0","1015","29.98","-999","-999","-9999","-9999","-9999.00","-9999.00","Clear","clear","0","0","0","0","0","0","METAR UKKK 100200Z 08002MPS CAVOK 14/12 Q1015 R08/CLRD70 NOSIG"
"5:30 AM EEST on August 10, 2016","2016","08","10","05","30","Europe/Kiev","2:30 AM GMT on August 10, 2016","2016","08","10","02","30","UTC","15.0","59.0","12.0","53.6","82","7.2","4.5","-9999.0","-9999.0","80","East","-9999.0","-9999.0","1015","29.98","-999","-999","-9999","-9999","-9999.00","-9999.00","Clear","clear","0","0","0","0","0","0","METAR UKKK 100230Z 08002MPS CAVOK 15/12 Q1015 R08/CLRD70 NOSIG"
"6:00 AM EEST on August 10, 2016","2016","08","10","06","00","Europe/Kiev","3:00 AM GMT on August 10, 2016","2016","08","10","03","00","UTC","16","60","12","54","75","0.0","0.0","","","","","20","12","1015","29.99","-999","-999","-9999","-9999","","","","","0","0","0","0","0","0","AAXX 10031 33345 42998 00000 10156 20123 39955 40153 56003 555 10013"
"6:00 AM EEST on August 10, 2016","2016","08","10","06","00","Europe/Kiev","3:00 AM GMT on August 10, 2016","2016","08","10","03","00","UTC","15.0","59.0","12.0","53.6","82","7.2","4.5","-9999.0","-9999.0","90","East","-9999.0","-9999.0","1015","29.98","-999","-999","-9999","-9999","-9999.00","-9999.00","Clear","clear","0","0","0","0","0","0","METAR UKKK 100300Z 09002MPS CAVOK 15/12 Q1015 R08/CLRD70 NOSIG"
"6:30 AM EEST on August 10, 2016","2016","08","10","06","30","Europe/Kiev","3:30 AM GMT on August 10, 2016","2016","08","10","03","30","UTC","15.0","59.0","12.0","53.6","82","7.2","4.5","-9999.0","-9999.0","80","East","-9999.0","-9999.0","1015","29.98","-999","-999","-9999","-9999","-9999.00","-9999.00","Clear","clear","0","0","0","0","0","0","METAR UKKK 100330Z 08002MPS CAVOK 15/12 Q1015 R08/CLRD70 NOSIG"
"7:00 AM EEST on August 10, 2016","2016","08","10","07","00","Europe/Kiev","4:00 AM GMT on August 10, 2016","2016","08","10","04","00","UTC","18.0","64.4","13.0","55.4","73","7.2","4.5","-9999.0","-9999.0","90","East","-9999.0","-9999.0","1015","29.98","-999","-999","-9999","-9999","-9999.00","-9999.00","Clear","clear","0","0","0","0","0","0","METAR UKKK 100400Z 09002MPS CAVOK 18/13 Q1015 R08/CLRD70 NOSIG"
"7:30 AM EEST on August 10, 2016","2016","08","10","07","30","Europe/Kiev","4:30 AM GMT on August 10, 2016","2016","08","10","04","30","UTC","20.0","68.0","14.0","57.2","68","3.6","2.2","-9999.0","-9999.0","80","East","-9999.0","-9999.0","1015","29.98","-999","-999","-9999","-9999","-9999.00","-9999.00","Clear","clear","0","0","0","0","0","0","METAR UKKK 100430Z 08001MPS CAVOK 20/14 Q1015 R08/CLRD70 NOSIG"
"8:00 AM EEST on August 10, 2016","2016","08","10","08","00","Europe/Kiev","5:00 AM GMT on August 10, 2016","2016","08","10","05","00","UTC","21.0","69.8","13.0","55.4","60","7.2","4.5","-9999.0","-9999.0","80","East","-9999.0","-9999.0","1015","29.98","-999","-999","-9999","-9999","-9999.00","-9999.00","Clear","clear","0","0","0","0","0","0","METAR UKKK 100500Z 08002MPS CAVOK 21/13 Q1015 R08/CLRD70 NOSIG"
"8:30 AM EEST on August 10, 2016","2016","08","10","08","30","Europe/Kiev","5:30 AM GMT on August 10, 2016","2016","08","10","05","30","UTC","22.0","71.6","13.0","55.4","57","7.2","4.5","-9999.0","-9999.0","100","East","-9999.0","-9999.0","1015","29.98","-999","-999","-9999","-9999","-9999.00","-9999.00","Clear","clear","0","0","0","0","0","0","METAR UKKK 100530Z 10002MPS 050V140 CAVOK 22/13 Q1015 R08/CLRD70 NOSIG"
"9:00 AM EEST on August 10, 2016","2016","08","10","09","00","Europe/Kiev","6:00 AM GMT on August 10, 2016","2016","08","10","06","00","UTC","23","73","12","54","42","3.6","2.2","","","170","South","20","12","1015","29.97","-999","-999","-9999","-9999","","","","","0","0","0","0","0","0","AAXX 10061 33345 32998 01701 10228 20125 39956 40149 53001 333 20156 555 10033"
"9:00 AM EEST on August 10, 2016","2016","08","10","09","00","Europe/Kiev","6:00 AM GMT on August 10, 2016","2016","08","10","06","00","UTC","23.0","73.4","12.0","53.6","50","7.2","4.5","-9999.0","-9999.0","120","ESE","-9999.0","-9999.0","1015","29.98","-999","-999","-9999","-9999","-9999.00","-9999.00","Clear","clear","0","0","0","0","0","0","METAR UKKK 100600Z 12002MPS 080V150 CAVOK 23/12 Q1015 R08/CLRD70 NOSIG"
"9:30 AM EEST on August 10, 2016","2016","08","10","09","30","Europe/Kiev","6:30 AM GMT on August 10, 2016","2016","08","10","06","30","UTC","24.0","75.2","12.0","53.6","47","7.2","4.5","-9999.0","-9999.0","80","East","-9999.0","-9999.0","1015","29.98","-999","-999","-9999","-9999","-9999.00","-9999.00","Clear","clear","0","0","0","0","0","0","METAR UKKK 100630Z 08002MPS 060V120 CAVOK 24/12 Q1015 R08/CLRD70 NOSIG"
"10:00 AM EEST on August 10, 2016","2016","08","10","10","00","Europe/Kiev","7:00 AM GMT on August 10, 2016","2016","08","10","07","00","UTC","25.0","77.0","11.0","51.8","41","7.2","4.5","-9999.0","-9999.0","100","East","-9999.0","-9999.0","1015","29.98","-999","-999","-9999","-9999","-9999.00","-9999.00","Clear","clear","0","0","0","0","0","0","METAR UKKK 100700Z 10002MPS 060V170 CAVOK 25/11 Q1015 R08/CLRD70 NOSIG"
"10:30 AM EEST on August 10, 2016","2016","08","10","10","30","Europe/Kiev","7:30 AM GMT on August 10, 2016","2016","08","10","07","30","UTC","25.0","77.0","10.0","50.0","39","7.2","4.5","-9999.0","-9999.0","90","East","-9999.0","-9999.0","1015","29.98","-999","-999","-9999","-9999","-9999.00","-9999.00","Clear","clear","0","0","0","0","0","0","METAR UKKK 100730Z 09002MPS 040V180 CAVOK 25/10 Q1015 R08/CLRD70 NOSIG"
"11:00 AM EEST on August 10, 2016","2016","08","10","11","00","Europe/Kiev","8:00 AM GMT on August 10, 2016","2016","08","10","08","00","UTC","26.0","78.8","11.0","51.8","39","10.8","6.7","-9999.0","-9999.0","100","East","-9999.0","-9999.0","1015","29.98","-999","-999","-9999","-9999","-9999.00","-9999.00","Clear","clear","0","0","0","0","0","0","METAR UKKK 100800Z 10003MPS CAVOK 26/11 Q1015 R08/CLRD70 NOSIG"
"11:30 AM EEST on August 10, 2016","2016","08","10","11","30","Europe/Kiev","8:30 AM GMT on August 10, 2016","2016","08","10","08","30","UTC","26.0","78.8","9.0","48.2","34","10.8","6.7","-9999.0","-9999.0","50","NE","-9999.0","-9999.0","1015","29.98","-999","-999","-9999","-9999","-9999.00","-9999.00","Clear","clear","0","0","0","0","0","0","METAR UKKK 100830Z 05003MPS 010V090 CAVOK 26/09 Q1015 R08/CLRD70 NOSIG"
"12:00 PM EEST on August 10, 2016","2016","08","10","12","00","Europe/Kiev","9:00 AM GMT on August 10, 2016","2016","08","10","09","00","UTC","27","81","10","50","24","7.2","4.5","","","150","SSE","20","12","1014","29.94","-999","-999","-9999","-9999","","","Scattered Clouds","partlycloudy","0","0","0","0","0","0","AAXX 10091 33345 42598 31502 10271 20102 39949 40139 58007 82802 555 10050"
"12:00 PM EEST on August 10, 2016","2016","08","10","12","00","Europe/Kiev","9:00 AM GMT on August 10, 2016","2016","08","10","09","00","UTC","27.0","80.6","9.0","48.2","32","7.2","4.5","-9999.0","-9999.0","150","SSE","-9999.0","-9999.0","1014","29.95","-999","-999","-9999","-9999","-9999.00","-9999.00","Clear","clear","0","0","0","0","0","0","METAR UKKK 100900Z 15002MPS CAVOK 27/09 Q1014 R08/CLRD70 NOSIG"
"12:30 PM EEST on August 10, 2016","2016","08","10","12","30","Europe/Kiev","9:30 AM GMT on August 10, 2016","2016","08","10","09","30","UTC","27.0","80.6","10.0","50.0","34","7.2","4.5","-9999.0","-9999.0","110","ESE","-9999.0","-9999.0","1014","29.95","-999","-999","-9999","-9999","-9999.00","-9999.00","Clear","clear","0","0","0","0","0","0","METAR UKKK 100930Z 11002MPS 080V180 CAVOK 27/10 Q1014 R08/CLRD70 NOSIG"
"1:00 PM EEST on August 10, 2016","2016","08","10","13","00","Europe/Kiev","10:00 AM GMT on August 10, 2016","2016","08","10","10","00","UTC","27.0","80.6","10.0","50.0","34","7.2","4.5","-9999.0","-9999.0","90","East","-9999.0","-9999.0","1014","29.95","-999","-999","-9999","-9999","-9999.00","-9999.00","Clear","clear","0","0","0","0","0","0","METAR UKKK 101000Z 09002MPS CAVOK 27/10 Q1014 R08/CLRD70 NOSIG"
"1:30 PM EEST on August 10, 2016","2016","08","10","13","30","Europe/Kiev","10:30 AM GMT on August 10, 2016","2016","08","10","10","30","UTC","28.0","82.4","10.0","50.0","32","7.2","4.5","-9999.0","-9999.0","320","NW","-9999.0","-9999.0","1014","29.95","-999","-999","-9999","-9999","-9999.00","-9999.00","Clear","clear","0","0","0","0","0","0","METAR UKKK 101030Z 32002MPS CAVOK 28/10 Q1014 R08/CLRD70 NOSIG"
"2:00 PM EEST on August 10, 2016","2016","08","10","14","00","Europe/Kiev","11:00 AM GMT on August 10, 2016","2016","08","10","11","00","UTC","28.0","82.4","10.0","50.0","32","7.2","4.5","-9999.0","-9999.0","210","SSW","-9999.0","-9999.0","1014","29.95","-999","-999","-9999","-9999","-9999.00","-9999.00","Clear","clear","0","0","0","0","0","0","METAR UKKK 101100Z 21002MPS CAVOK 28/10 Q1014 R08/CLRD70 NOSIG"
"2:30 PM EEST on August 10, 2016","2016","08","10","14","30","Europe/Kiev","11:30 AM GMT on August 10, 2016","2016","08","10","11","30","UTC","28.0","82.4","10.0","50.0","32","7.2","4.5","-9999.0","-9999.0","190","South","-9999.0","-9999.0","1013","29.92","-999","-999","-9999","-9999","-9999.00","-9999.00","Clear","clear","0","0","0","0","0","0","METAR UKKK 101130Z 19002MPS CAVOK 28/10 Q1013 R08/CLRD70 NOSIG"
"3:00 PM EEST on August 10, 2016","2016","08","10","15","00","Europe/Kiev","12:00 PM GMT on August 10, 2016","2016","08","10","12","00","UTC","29","84","10","49","20","7.2","4.5","","","230","SW","20","12","1012","29.90","-999","-999","-9999","-9999","","","Scattered Clouds","partlycloudy","0","0","0","0","0","0","AAXX 10121 33345 32598 52302 10291 20095 39934 40123 57015 82802 555 10054"
"3:00 PM EEST on August 10, 2016","2016","08","10","15","00","Europe/Kiev","12:00 PM GMT on August 10, 2016","2016","08","10","12","00","UTC","28.0","82.4","8.0","46.4","28","7.2","4.5","-9999.0","-9999.0","110","ESE","-9999.0","-9999.0","1013","29.92","-999","-999","-9999","-9999","-9999.00","-9999.00","Clear","clear","0","0","0","0","0","0","METAR UKKK 101200Z 11002MPS CAVOK 28/08 Q1013 R08/CLRD70 NOSIG"
"3:30 PM EEST on August 10, 2016","2016","08","10","15","30","Europe/Kiev","12:30 PM GMT on August 10, 2016","2016","08","10","12","30","UTC","29.0","84.2","10.0","50.0","30","7.2","4.5","-9999.0","-9999.0","200","SSW","-9999.0","-9999.0","1013","29.92","-999","-999","-9999","-9999","-9999.00","-9999.00","Clear","clear","0","0","0","0","0","0","METAR UKKK 101230Z 20002MPS 150V250 CAVOK 29/10 Q1013 R08/CLRD70 NOSIG"
"4:00 PM EEST on August 10, 2016","2016","08","10","16","00","Europe/Kiev","1:00 PM GMT on August 10, 2016","2016","08","10","13","00","UTC","29.0","84.2","10.0","50.0","30","3.6","2.2","-9999.0","-9999.0","0","Variable","-9999.0","-9999.0","1012","29.89","-999","-999","-9999","-9999","-9999.00","-9999.00","Clear","clear","0","0","0","0","0","0","METAR UKKK 101300Z VRB01MPS CAVOK 29/10 Q1012 R08/CLRD70 NOSIG"
"4:30 PM EEST on August 10, 2016","2016","08","10","16","30","Europe/Kiev","1:30 PM GMT on August 10, 2016","2016","08","10","13","30","UTC","28.0","82.4","9.0","48.2","30","10.8","6.7","-9999.0","-9999.0","170","South","-9999.0","-9999.0","1012","29.89","-999","-999","-9999","-9999","-9999.00","-9999.00","Clear","clear","0","0","0","0","0","0","METAR UKKK 101330Z 17003MPS 120V230 CAVOK 28/09 Q1012 R08/CLRD70 NOSIG"
"5:00 PM EEST on August 10, 2016","2016","08","10","17","00","Europe/Kiev","2:00 PM GMT on August 10, 2016","2016","08","10","14","00","UTC","29.0","84.2","6.0","42.8","23","7.2","4.5","-9999.0","-9999.0","160","SSE","-9999.0","-9999.0","1012","29.89","-999","-999","-9999","-9999","-9999.00","-9999.00","Clear","clear","0","0","0","0","0","0","METAR UKKK 101400Z 16002MPS CAVOK 29/06 Q1012 R08/CLRD70 NOSIG"
"5:30 PM EEST on August 10, 2016","2016","08","10","17","30","Europe/Kiev","2:30 PM GMT on August 10, 2016","2016","08","10","14","30","UTC","29.0","84.2","9.0","48.2","29","7.2","4.5","-9999.0","-9999.0","160","SSE","-9999.0","-9999.0","1012","29.89","-999","-999","-9999","-9999","-9999.00","-9999.00","Clear","clear","0","0","0","0","0","0","METAR UKKK 101430Z 16002MPS 070V240 CAVOK 29/09 Q1012 R08/CLRD70 NOSIG"
"6:00 PM EEST on August 10, 2016","2016","08","10","18","00","Europe/Kiev","3:00 PM GMT on August 10, 2016","2016","08","10","15","00","UTC","29","85","7","45","15","3.6","2.2","","","330","NNW","20","12","1011","29.86","-999","-999","-9999","-9999","","","Scattered Clouds","partlycloudy","0","0","0","0","0","0","AAXX 10151 33345 42598 43301 10292 20072 39923 40111 57011 82812 555 10042"
"6:00 PM EEST on August 10, 2016","2016","08","10","18","00","Europe/Kiev","3:00 PM GMT on August 10, 2016","2016","08","10","15","00","UTC","29.0","84.2","10.0","50.0","30","3.6","2.2","-9999.0","-9999.0","0","Variable","-9999.0","-9999.0","1012","29.89","-999","-999","-9999","-9999","-9999.00","-9999.00","Clear","clear","0","0","0","0","0","0","METAR UKKK 101500Z VRB01MPS CAVOK 29/10 Q1012 R08/CLRD70 NOSIG"
"6:30 PM EEST on August 10, 2016","2016","08","10","18","30","Europe/Kiev","3:30 PM GMT on August 10, 2016","2016","08","10","15","30","UTC","29.0","84.2","10.0","50.0","30","3.6","2.2","-9999.0","-9999.0","0","Variable","-9999.0","-9999.0","1012","29.89","-999","-999","-9999","-9999","-9999.00","-9999.00","Clear","clear","0","0","0","0","0","0","METAR UKKK 101530Z VRB01MPS CAVOK 29/10 Q1012 R08/CLRD70 NOSIG"
"7:00 PM EEST on August 10, 2016","2016","08","10","19","00","Europe/Kiev","4:00 PM GMT on August 10, 2016","2016","08","10","16","00","UTC","28.0","82.4","10.0","50.0","32","3.6","2.2","-9999.0","-9999.0","0","Variable","-9999.0","-9999.0","1012","29.89","-999","-999","-9999","-9999","-9999.00","-9999.00","Clear","clear","0","0","0","0","0","0","METAR UKKK 101600Z VRB01MPS CAVOK 28/10 Q1012 R08/CLRD70 NOSIG"
"7:30 PM EEST on August 10, 2016","2016","08","10","19","30","Europe/Kiev","4:30 PM GMT on August 10, 2016","2016","08","10","16","30","UTC","28.0","82.4","9.0","48.2","30","0.0","0.0","-9999.0","-9999.0","0","North","-9999.0","-9999.0","1012","29.89","-999","-999","-9999","-9999","-9999.00","-9999.00","Clear","clear","0","0","0","0","0","0","METAR UKKK 101630Z 00000MPS CAVOK 28/09 Q1012 R08/CLRD70 NOSIG"
"8:00 PM EEST on August 10, 2016","2016","08","10","20","00","Europe/Kiev","5:00 PM GMT on August 10, 2016","2016","08","10","17","00","UTC","25.0","77.0","10.0","50.0","39","0.0","0.0","-9999.0","-9999.0","0","North","-9999.0","-9999.0","1012","29.89","-999","-999","-9999","-9999","-9999.00","-9999.00","Clear","clear","0","0","0","0","0","0","METAR UKKK 101700Z 00000MPS CAVOK 25/10 Q1012 R08/CLRD70 NOSIG"
"8:30 PM EEST on August 10, 2016","2016","08","10","20","30","Europe/Kiev","5:30 PM GMT on August 10, 2016","2016","08","10","17","30","UTC","22.0","71.6","11.0","51.8","50","0.0","0.0","-9999.0","-9999.0","0","North","6.0","3.7","1012","29.89","-999","-999","-9999","-9999","-9999.00","-9999.00","Unknown","unknown","0","0","0","0","0","0","METAR UKKK 101730Z 00000MPS 6000 NSC 22/11 Q1012 R08/CLRD70 NOSIG"
"9:00 PM EEST on August 10, 2016","2016","08","10","21","00","Europe/Kiev","6:00 PM GMT on August 10, 2016","2016","08","10","18","00","UTC","23","74","11","51","34","0.0","0.0","","","","","20","12","1012","29.88","-999","-999","-9999","-9999","","","Clear","clear","0","0","0","0","0","0","AAXX 10181 33345 32998 20000 10234 20107 39925 40117 53002 80002 333 10303 555 10022"
"9:00 PM EEST on August 10, 2016","2016","08","10","21","00","Europe/Kiev","6:00 PM GMT on August 10, 2016","2016","08","10","18","00","UTC","21.0","69.8","13.0","55.4","60","3.6","2.2","-9999.0","-9999.0","0","Variable","9.0","5.6","1012","29.89","-999","-999","-9999","-9999","-9999.00","-9999.00","Clear","clear","0","0","0","0","0","0","METAR UKKK 101800Z VRB01MPS 9000 SKC 21/13 Q1012 R08/CLRD70 NOSIG"
"9:30 PM EEST on August 10, 2016","2016","08","10","21","30","Europe/Kiev","6:30 PM GMT on August 10, 2016","2016","08","10","18","30","UTC","20.0","68.0","12.0","53.6","60","3.6","2.2","-9999.0","-9999.0","0","Variable","8.0","5.0","1012","29.89","-999","-999","-9999","-9999","-9999.00","-9999.00","Clear","clear","0","0","0","0","0","0","METAR UKKK 101830Z VRB01MPS 8000 SKC 20/12 Q1012 R08/CLRD70 NOSIG"
"10:00 PM EEST on August 10, 2016","2016","08","10","22","00","Europe/Kiev","7:00 PM GMT on August 10, 2016","2016","08","10","19","00","UTC","21.0","69.8","12.0","53.6","56","7.2","4.5","-9999.0","-9999.0","110","ESE","-9999.0","-9999.0","1012","29.89","-999","-999","-9999","-9999","-9999.00","-9999.00","Clear","clear","0","0","0","0","0","0","METAR UKKK 101900Z 11002MPS CAVOK 21/12 Q1012 R08/CLRD70 NOSIG"
"10:30 PM EEST on August 10, 2016","2016","08","10","22","30","Europe/Kiev","7:30 PM GMT on August 10, 2016","2016","08","10","19","30","UTC","19.0","66.2","13.0","55.4","68","0.0","0.0","-9999.0","-9999.0","0","North","-9999.0","-9999.0","1012","29.89","-999","-999","-9999","-9999","-9999.00","-9999.00","Clear","clear","0","0","0","0","0","0","METAR UKKK 101930Z 00000MPS CAVOK 19/13 Q1012 R08/CLRD70 NOSIG"
"11:00 PM EEST on August 10, 2016","2016","08","10","23","00","Europe/Kiev","8:00 PM GMT on August 10, 2016","2016","08","10","20","00","UTC","19.0","66.2","13.0","55.4","68","0.0","0.0","-9999.0","-9999.0","0","North","9.0","5.6","1012","29.89","-999","-999","-9999","-9999","-9999.00","-9999.00","Clear","clear","0","0","0","0","0","0","METAR UKKK 102000Z 00000MPS 9000 SKC 19/13 Q1012 R08/CLRD70 NOSIG"
"11:30 PM EEST on August 10, 2016","2016","08","10","23","30","Europe/Kiev","8:30 PM GMT on August 10, 2016","2016","08","10","20","30","UTC","18.0","64.4","13.0","55.4","73","7.2","4.5","-9999.0","-9999.0","250","WSW","8.0","5.0","1012","29.89","-999","-999","-9999","-9999","-9999.00","-9999.00","Clear","clear","0","0","0","0","0","0","METAR UKKK 102030Z 25002MPS 8000 SKC 18/13 Q1012 R08/CLRD70 NOSIG"
"12:00 AM EEST on August 11, 2016","2016","08","11","00","00","Europe/Kiev","9:00 PM GMT on August 10, 2016","2016","08","10","21","00","UTC","21","70","14","58","57","0.0","0.0","","","","","20","12","1012","29.88","-999","-999","-9999","-9999","","","","","0","0","0","0","0","0","AAXX 10211 33345 42998 00000 10211 20145 39923 40116 58002 555 10019"
"12:00 AM EEST on August 11, 2016","2016","08","11","00","00","Europe/Kiev","9:00 PM GMT on August 10, 2016","2016","08","10","21","00","UTC","17.0","62.6","13.0","55.4","77","0.0","0.0","-9999.0","-9999.0","0","North","-9999.0","-9999.0","1012","29.89","-999","-999","-9999","-9999","-9999.00","-9999.00","Clear","clear","0","0","0","0","0","0","METAR UKKK 102100Z 00000MPS CAVOK 17/13 Q1012 R08/CLRD70 NOSIG"
"12:30 AM EEST on August 11, 2016","2016","08","11","00","30","Europe/Kiev","9:30 PM GMT on August 10, 2016","2016","08","10","21","30","UTC","18.0","64.4","13.0","55.4","73","7.2","4.5","-9999.0","-9999.0","90","East","-9999.0","-9999.0","1012","29.89","-999","-999","-9999","-9999","-9999.00","-9999.00","Clear","clear","0","0","0","0","0","0","METAR UKKK 102130Z 09002MPS CAVOK 18/13 Q1012 R08/CLRD70 NOSIG"
"1:00 AM EEST on August 11, 2016","2016","08","11","01","00","Europe/Kiev","10:00 PM GMT on August 10, 2016","2016","08","10","22","00","UTC","17.0","62.6","14.0","57.2","82","10.8","6.7","-9999.0","-9999.0","90","East","-9999.0","-9999.0","1011","29.86","-999","-999","-9999","-9999","-9999.00","-9999.00","Clear","clear","0","0","0","0","0","0","METAR UKKK 102200Z 09003MPS CAVOK 17/14 Q1011 R08/CLRD70 NOSIG"
"1:30 AM EEST on August 11, 2016","2016","08","11","01","30","Europe/Kiev","10:30 PM GMT on August 10, 2016","2016","08","10","22","30","UTC","19.0","66.2","15.0","59.0","78","7.2","4.5","-9999.0","-9999.0","100","East","-9999.0","-9999.0","1011","29.86","-999","-999","-9999","-9999","-9999.00","-9999.00","Clear","clear","0","0","0","0","0","0","METAR UKKK 102230Z 10002MPS CAVOK 19/15 Q1011 R08/CLRD70 NOSIG"
"2:00 AM EEST on August 11, 2016","2016","08","11","02","00","Europe/Kiev","11:00 PM GMT on August 10, 2016","2016","08","10","23","00","UTC","17.0","62.6","15.0","59.0","88","3.6","2.2","-9999.0","-9999.0","0","Variable","-9999.0","-9999.0","1011","29.86","-999","-999","-9999","-9999","-9999.00","-9999.00","Clear","clear","0","0","0","0","0","0","METAR UKKK 102300Z VRB01MPS CAVOK 17/15 Q1011 R08/CLRD70 NOSIG"
"2:30 AM EEST on August 11, 2016","2016","08","11","02","30","Europe/Kiev","11:30 PM GMT on August 10, 2016","2016","08","10","23","30","UTC","18.0","64.4","15.0","59.0","83","7.2","4.5","-9999.0","-9999.0","100","East","-9999.0","-9999.0","1011","29.86","-999","-999","-9999","-9999","-9999.00","-9999.00","Clear","clear","0","0","0","0","0","0","METAR UKKK 102330Z 10002MPS CAVOK 18/15 Q1011 R08/CLRD70 NOSIG"
"3:00 AM EEST on August 11, 2016","2016","08","11","03","00","Europe/Kiev","12:00 AM GMT on August 11, 2016","2016","08","11","00","00","UTC","19","66","16","60","76","3.6","2.2","","","210","SSW","20","12","1011","29.86","-999","-999","-9999","-9999","","","","","0","0","0","0","0","0","AAXX 11001 33345 32998 02101 10188 20156 39915 40110 57008 555 10016"
"3:00 AM EEST on August 11, 2016","2016","08","11","03","00","Europe/Kiev","12:00 AM GMT on August 11, 2016","2016","08","11","00","00","UTC","17.0","62.6","16.0","60.8","94","7.2","4.5","-9999.0","-9999.0","90","East","-9999.0","-9999.0","1011","29.86","-999","-999","-9999","-9999","-9999.00","-9999.00","Clear","clear","0","0","0","0","0","0","METAR UKKK 110000Z 09002MPS CAVOK 17/16 Q1011 R08/CLRD70 NOSIG"
"3:30 AM EEST on August 11, 2016","2016","08","11","03","30","Europe/Kiev","12:30 AM GMT on August 11, 2016","2016","08","11","00","30","UTC","16.0","60.8","15.0","59.0","94","7.2","4.5","-9999.0","-9999.0","80","East","9.0","5.6","1011","29.86","-999","-999","-9999","-9999","-9999.00","-9999.00","Clear","clear","0","0","0","0","0","0","METAR UKKK 110030Z 08002MPS 9000 SKC 16/15 Q1011 R08/CLRD70 NOSIG"
"4:00 AM EEST on August 11, 2016","2016","08","11","04","00","Europe/Kiev","1:00 AM GMT on August 11, 2016","2016","08","11","01","00","UTC","16.0","60.8","15.0","59.0","94","3.6","2.2","-9999.0","-9999.0","0","Variable","9.0","5.6","1011","29.86","-999","-999","-9999","-9999","-9999.00","-9999.00","Clear","clear","0","0","0","0","0","0","METAR UKKK 110100Z VRB01MPS 9000 SKC 16/15 Q1011 R08/CLRD70 NOSIG"
"4:30 AM EEST on August 11, 2016","2016","08","11","04","30","Europe/Kiev","1:30 AM GMT on August 11, 2016","2016","08","11","01","30","UTC","15.0","59.0","14.0","57.2","94","0.0","0.0","-9999.0","-9999.0","0","North","5.0","3.1","1011","29.86","-999","-999","-9999","-9999","-9999.00","-9999.00","Smoke","hazy","0","0","0","0","0","0","METAR UKKK 110130Z 00000MPS 5000 FU SKC 15/14 Q1011 R08/CLRD70 NOSIG"
"5:00 AM EEST on August 11, 2016","2016","08","11","05","00","Europe/Kiev","2:00 AM GMT on August 11, 2016","2016","08","11","02","00","UTC","15.0","59.0","15.0","59.0","100","3.6","2.2","-9999.0","-9999.0","70","ENE","9.0","5.6","1011","29.86","-999","-999","-9999","-9999","-9999.00","-9999.00","Clear","clear","0","0","0","0","0","0","METAR UKKK 110200Z 07001MPS 9000 SKC 15/15 Q1011 R08/CLRD70 NOSIG"
"5:30 AM EEST on August 11, 2016","2016","08","11","05","30","Europe/Kiev","2:30 AM GMT on August 11, 2016","2016","08","11","02","30","UTC","15.0","59.0","15.0","59.0","100","0.0","0.0","-9999.0","-9999.0","0","North","6.0","3.7","1011","29.86","-999","-999","-9999","-9999","-9999.00","-9999.00","Clear","clear","0","0","0","0","0","0","METAR UKKK 110230Z 00000MPS 6000 SKC 15/15 Q1011 R08/CLRD70 NOSIG"
"6:00 AM EEST on August 11, 2016","2016","08","11","06","00","Europe/Kiev","3:00 AM GMT on August 11, 2016","2016","08","11","03","00","UTC","17","62","15","60","89","0.0","0.0","","","","","4","2","1011","29.87","-999","-999","-9999","-9999","","","Mist","hazy","0","0","0","0","0","0","AAXX 11031 33345 41996 00000 10168 20153 39917 40113 53002 71000 555 10015"
"6:00 AM EEST on August 11, 2016","2016","08","11","06","00","Europe/Kiev","3:00 AM GMT on August 11, 2016","2016","08","11","03","00","UTC","15.0","59.0","14.0","57.2","94","0.0","0.0","-9999.0","-9999.0","0","North","-9999.0","-9999.0","1011","29.86","-999","-999","-9999","-9999","-9999.00","-9999.00","Clear","clear","0","0","0","0","0","0","METAR UKKK 110300Z 00000MPS CAVOK 15/14 Q1011 R08/CLRD70 NOSIG"
"6:30 AM EEST on August 11, 2016","2016","08","11","06","30","Europe/Kiev","3:30 AM GMT on August 11, 2016","2016","08","11","03","30","UTC","16.0","60.8","15.0","59.0","94","0.0","0.0","-9999.0","-9999.0","0","North","8.0","5.0","1011","29.86","-999","-999","-9999","-9999","-9999.00","-9999.00","Clear","clear","0","0","0","0","0","0","METAR UKKK 110330Z 00000MPS 8000 SKC 16/15 Q1011 R08/CLRD70 NOSIG"
"7:00 AM EEST on August 11, 2016","2016","08","11","07","00","Europe/Kiev","4:00 AM GMT on August 11, 2016","2016","08","11","04","00","UTC","19.0","66.2","16.0","60.8","83","0.0","0.0","-9999.0","-9999.0","0","North","-9999.0","-9999.0","1011","29.86","-999","-999","-9999","-9999","-9999.00","-9999.00","Clear","clear","0","0","0","0","0","0","METAR UKKK 110400Z 00000MPS CAVOK 19/16 Q1011 R08/CLRD70 NOSIG"
"7:30 AM EEST on August 11, 2016","2016","08","11","07","30","Europe/Kiev","4:30 AM GMT on August 11, 2016","2016","08","11","04","30","UTC","21.0","69.8","16.0","60.8","73","3.6","2.2","-9999.0","-9999.0","0","Variable","-9999.0","-9999.0","1011","29.86","-999","-999","-9999","-9999","-9999.00","-9999.00","Clear","clear","0","0","0","0","0","0","METAR UKKK 110430Z VRB01MPS CAVOK 21/16 Q1011 R26/CLRD70 NOSIG"
"8:00 AM EEST on August 11, 2016","2016","08","11","08","00","Europe/Kiev","5:00 AM GMT on August 11, 2016","2016","08","11","05","00","UTC","22.0","71.6","16.0","60.8","69","10.8","6.7","-9999.0","-9999.0","160","SSE","-9999.0","-9999.0","1011","29.86","-999","-999","-9999","-9999","-9999.00","-9999.00","Clear","clear","0","0","0","0","0","0","METAR UKKK 110500Z 16003MPS 110V210 CAVOK 22/16 Q1011 R26/CLRD70 NOSIG"
"8:30 AM EEST on August 11, 2016","2016","08","11","08","30","Europe/Kiev","5:30 AM GMT on August 11, 2016","2016","08","11","05","30","UTC","23.0","73.4","16.0","60.8","65","7.2","4.5","-9999.0","-9999.0","160","SSE","-9999.0","-9999.0","1012","29.89","-999","-999","-9999","-9999","-9999.00","-9999.00","Clear","clear","0","0","0","0","0","0","METAR UKKK 110530Z 16002MPS 090V220 CAVOK 23/16 Q1012 R26/CLRD70 NOSIG"
"9:00 AM EEST on August 11, 2016","2016","08","11","09","00","Europe/Kiev","6:00 AM GMT on August 11, 2016","2016","08","11","06","00","UTC","23","73","16","62","59","7.2","4.5","","","190","South","20","12","1011","29.87","-999","-999","-9999","-9999","","","Clear","clear","0","0","0","0","0","0","AAXX 11061 33345 32998 41902 10227 20165 39922 40114 52005 80005 333 20165 555 10033"
"9:00 AM EEST on August 11, 2016","2016","08","11","09","00","Europe/Kiev","6:00 AM GMT on August 11, 2016","2016","08","11","06","00","UTC","24.0","75.2","16.0","60.8","61","10.8","6.7","-9999.0","-9999.0","190","South","-9999.0","-9999.0","1012","29.89","-999","-999","-9999","-9999","-9999.00","-9999.00","Clear","clear","0","0","0","0","0","0","METAR UKKK 110600Z 19003MPS 150V220 CAVOK 24/16 Q1012 R26/CLRD70 NOSIG"
"9:30 AM EEST on August 11, 2016","2016","08","11","09","30","Europe/Kiev","6:30 AM GMT on August 11, 2016","2016","08","11","06","30","UTC","25.0","77.0","16.0","60.8","57","10.8","6.7","-9999.0","-9999.0","210","SSW","-9999.0","-9999.0","1012","29.89","-999","-999","-9999","-9999","-9999.00","-9999.00","Clear","clear","0","0","0","0","0","0","METAR UKKK 110630Z 21003MPS 190V250 CAVOK 25/16 Q1012 R26/CLRD70 NOSIG"
"10:00 AM EEST on August 11, 2016","2016","08","11","10","00","Europe/Kiev","7:00 AM GMT on August 11, 2016","2016","08","11","07","00","UTC","26.0","78.8","16.0","60.8","54","10.8","6.7","-9999.0","-9999.0","210","SSW","-9999.0","-9999.0","1011","29.86","-999","-999","-9999","-9999","-9999.00","-9999.00","Clear","clear","0","0","0","0","0","0","METAR UKKK 110700Z 21003MPS 180V250 CAVOK 26/16 Q1011 R26/CLRD70 NOSIG"
"10:30 AM EEST on August 11, 2016","2016","08","11","10","30","Europe/Kiev","7:30 AM GMT on August 11, 2016","2016","08","11","07","30","UTC","27.0","80.6","14.0","57.2","45","10.8","6.7","-9999.0","-9999.0","220","SW","-9999.0","-9999.0","1011","29.86","-999","-999","27.1","80.8","-9999.00","-9999.00","Clear","clear","0","0","0","0","0","0","METAR UKKK 110730Z 22003MPS 180V260 CAVOK 27/14 Q1011 R26/CLRD70 NOSIG"
"11:00 AM EEST on August 11, 2016","2016","08","11","11","00","Europe/Kiev","8:00 AM GMT on August 11, 2016","2016","08","11","08","00","UTC","28.0","82.4","14.0","57.2","42","10.8","6.7","-9999.0","-9999.0","210","SSW","-9999.0","-9999.0","1011","29.86","-999","-999","27.8","82.0","-9999.00","-9999.00","Clear","clear","0","0","0","0","0","0","METAR UKKK 110800Z 21003MPS 130V260 CAVOK 28/14 Q1011 R26/CLRD70 NOSIG"
"11:30 AM EEST on August 11, 2016","2016","08","11","11","30","Europe/Kiev","8:30 AM GMT on August 11, 2016","2016","08","11","08","30","UTC","28.0","82.4","13.0","55.4","39","10.8","6.7","-9999.0","-9999.0","240","WSW","-9999.0","-9999.0","1011","29.86","-999","-999","27.6","81.7","-9999.00","-9999.00","Clear","clear","0","0","0","0","0","0","METAR UKKK 110830Z 24003MPS 200V290 CAVOK 28/13 Q1011 R26/CLRD70 NOSIG"
"12:00 PM EEST on August 11, 2016","2016","08","11","12","00","Europe/Kiev","9:00 AM GMT on August 11, 2016","2016","08","11","09","00","UTC","30","85","11","52","22","10.8","6.7","","","250","WSW","20","12","1011","29.85","-999","-999","-9999","-9999","","","Scattered Clouds","partlycloudy","0","0","0","0","0","0","AAXX 11091 33345 42598 72503 10296 20111 39918 40106 58004 82205 555 10051"
"12:00 PM EEST on August 11, 2016","2016","08","11","12","00","Europe/Kiev","9:00 AM GMT on August 11, 2016","2016","08","11","09","00","UTC","29.0","84.2","12.0","53.6","35","14.4","8.9","-9999.0","-9999.0","230","SW","9.0","5.6","1011","29.86","-999","-999","28.2","82.8","-9999.00","-9999.00","Mostly Cloudy","mostlycloudy","0","0","0","0","0","0","METAR UKKK 110900Z 23004MPS 170V280 9000 FEW040 BKN200 29/12 Q1011 R26/CLRD70 NOSIG"
"12:30 PM EEST on August 11, 2016","2016","08","11","12","30","Europe/Kiev","9:30 AM GMT on August 11, 2016","2016","08","11","09","30","UTC","29.0","84.2","12.0","53.6","35","7.2","4.5","-9999.0","-9999.0","220","SW","10.0","6.2","1011","29.86","-999","-999","28.2","82.8","-9999.00","-9999.00","Mostly Cloudy","mostlycloudy","0","0","0","0","0","0","METAR UKKK 110930Z 22002MPS 160V290 9999 FEW040 BKN200 29/12 Q1011 R26/CLRD70 NOSIG"
"1:00 PM EEST on August 11, 2016","2016","08","11","13","00","Europe/Kiev","10:00 AM GMT on August 11, 2016","2016","08","11","10","00","UTC","30.0","86.0","11.0","51.8","31","10.8","6.7","-9999.0","-9999.0","260","West","-9999.0","-9999.0","1011","29.86","-999","-999","-9999","-9999","-9999.00","-9999.00","Clear","clear","0","0","0","0","0","0","METAR UKKK 111000Z 26003MPS 190V300 CAVOK 30/11 Q1011 R26/CLRD70 NOSIG"
"1:30 PM EEST on August 11, 2016","2016","08","11","13","30","Europe/Kiev","10:30 AM GMT on August 11, 2016","2016","08","11","10","30","UTC","30.0","86.0","11.0","51.8","31","14.4","8.9","-9999.0","-9999.0","260","West","-9999.0","-9999.0","1011","29.86","-999","-999","-9999","-9999","-9999.00","-9999.00","Clear","clear","0","0","0","0","0","0","METAR UKKK 111030Z 26004MPS 210V300 CAVOK 30/11 Q1011 R26/CLRD70 NOSIG"
"2:00 PM EEST on August 11, 2016","2016","08","11","14","00","Europe/Kiev","11:00 AM GMT on August 11, 2016","2016","08","11","11","00","UTC","29.0","84.2","11.0","51.8","33","14.4","8.9","-9999.0","-9999.0","250","WSW","-9999.0","-9999.0","1011","29.86","-999","-999","-9999","-9999","-9999.00","-9999.00","Clear","clear","0","0","0","0","0","0","METAR UKKK 111100Z 25004MPS 190V280 CAVOK 29/11 Q1011 R26/CLRD70 NOSIG"
"2:30 PM EEST on August 11, 2016","2016","08","11","14","30","Europe/Kiev","11:30 AM GMT on August 11, 2016","2016","08","11","11","30","UTC","30.0","86.0","11.0","51.8","31","21.6","13.4","-9999.0","-9999.0","270","West","-9999.0","-9999.0","1011","29.86","-999","-999","-9999","-9999","-9999.00","-9999.00","Clear","clear","0","0","0","0","0","0","METAR UKKK 111130Z 27006MPS CAVOK 30/11 Q1011 R26/CLRD70 NOSIG"
"3:00 PM EEST on August 11, 2016","2016","08","11","15","00","Europe/Kiev","12:00 PM GMT on August 11, 2016","2016","08","11","12","00","UTC","29","85","10","51","21","7.2","4.5","","","300","WNW","20","12","1011","29.85","-999","-999","-9999","-9999","","","Scattered Clouds","partlycloudy","0","0","0","0","0","0","AAXX 11121 33345 32698 73002 10293 20104 39918 40106 54000 82139 555 10040"
"3:00 PM EEST on August 11, 2016","2016","08","11","15","00","Europe/Kiev","12:00 PM GMT on August 11, 2016","2016","08","11","12","00","UTC","29.0","84.2","13.0","55.4","37","21.6","13.4","-9999.0","-9999.0","290","WNW","-9999.0","-9999.0","1011","29.86","-999","-999","28.4","83.0","-9999.00","-9999.00","Clear","clear","0","0","0","0","0","0","METAR UKKK 111200Z 29006MPS 260V320 CAVOK 29/13 Q1011 R26/CLRD70 NOSIG"
"3:30 PM EEST on August 11, 2016","2016","08","11","15","30","Europe/Kiev","12:30 PM GMT on August 11, 2016","2016","08","11","12","30","UTC","29.0","84.2","14.0","57.2","40","21.6","13.4","-9999.0","-9999.0","290","WNW","-9999.0","-9999.0","1011","29.86","-999","-999","28.6","83.5","-9999.00","-9999.00","Clear","clear","0","0","0","0","0","0","METAR UKKK 111230Z 29006MPS CAVOK 29/14 Q1011 R26/CLRD70 NOSIG"
"4:00 PM EEST on August 11, 2016","2016","08","11","16","00","Europe/Kiev","1:00 PM GMT on August 11, 2016","2016","08","11","13","00","UTC","28.0","82.4","16.0","60.8","48","25.2","15.7","-9999.0","-9999.0","300","WNW","-9999.0","-9999.0","1012","29.89","-999","-999","28.3","82.9","-9999.00","-9999.00","Clear","clear","0","0","0","0","0","0","METAR UKKK 111300Z 30007MPS CAVOK 28/16 Q1012 R26/CLRD70 NOSIG"
"4:30 PM EEST on August 11, 2016","2016","08","11","16","30","Europe/Kiev","1:30 PM GMT on August 11, 2016","2016","08","11","13","30","UTC","27.0","80.6","16.0","60.8","51","28.8","17.9","-9999.0","-9999.0","310","NW","-9999.0","-9999.0","1012","29.89","-999","-999","27.5","81.5","-9999.00","-9999.00","Clear","clear","0","0","0","0","0","0","METAR UKKK 111330Z 31008MPS 280V340 CAVOK 27/16 Q1012 R26/CLRD70 NOSIG"
"5:00 PM EEST on August 11, 2016","2016","08","11","17","00","Europe/Kiev","2:00 PM GMT on August 11, 2016","2016","08","11","14","00","UTC","25.0","77.0","16.0","60.8","57","32.4","20.1","-9999.0","-9999.0","300","WNW","-9999.0","-9999.0","1012","29.89","-999","-999","-9999","-9999","-9999.00","-9999.00","Clear","clear","0","0","0","0","0","0","METAR UKKK 111400Z 30009MPS CAVOK 25/16 Q1012 R26/CLRD70 TEMPO 32010G18MPS"
"5:30 PM EEST on August 11, 2016","2016","08","11","17","30","Europe/Kiev","2:30 PM GMT on August 11, 2016","2016","08","11","14","30","UTC","23.0","73.4","16.0","60.8","65","32.4","20.1","-9999.0","-9999.0","310","NW","-9999.0","-9999.0","1013","29.92","-999","-999","-9999","-9999","-9999.00","-9999.00","Clear","clear","0","0","0","0","0","0","METAR UKKK 111430Z 31009MPS CAVOK 23/16 Q1013 R26/CLRD70 TEMPO 32010G18MPS"
"6:00 PM EEST on August 11, 2016","2016","08","11","18","00","Europe/Kiev","3:00 PM GMT on August 11, 2016","2016","08","11","15","00","UTC","23","74","16","60","53","14.4","8.9","","","0","North","10","6","1012","29.90","-999","-999","-9999","-9999","","","Scattered Clouds","partlycloudy","0","0","0","0","0","0","AAXX 11151 33345 42697 73604 10234 20158 39932 40124 53014 82240 555 10029"
"6:00 PM EEST on August 11, 2016","2016","08","11","18","00","Europe/Kiev","3:00 PM GMT on August 11, 2016","2016","08","11","15","00","UTC","22.0","71.6","15.0","59.0","64","28.8","17.9","-9999.0","-9999.0","310","NW","-9999.0","-9999.0","1013","29.92","-999","-999","-9999","-9999","-9999.00","-9999.00","Clear","clear","0","0","0","0","0","0","METAR UKKK 111500Z 31008MPS CAVOK 22/15 Q1013 R26/CLRD70 TEMPO 32010G18MPS"
"6:30 PM EEST on August 11, 2016","2016","08","11","18","30","Europe/Kiev","3:30 PM GMT on August 11, 2016","2016","08","11","15","30","UTC","21.0","69.8","15.0","59.0","68","28.8","17.9","-9999.0","-9999.0","300","WNW","-9999.0","-9999.0","1013","29.92","-999","-999","-9999","-9999","-9999.00","-9999.00","Clear","clear","0","0","0","0","0","0","METAR UKKK 111530Z 30008MPS CAVOK 21/15 Q1013 R26/CLRD70 TEMPO 32010G18MPS"
"7:00 PM EEST on August 11, 2016","2016","08","11","19","00","Europe/Kiev","4:00 PM GMT on August 11, 2016","2016","08","11","16","00","UTC","20.0","68.0","15.0","59.0","73","28.8","17.9","-9999.0","-9999.0","310","NW","-9999.0","-9999.0","1014","29.95","-999","-999","-9999","-9999","-9999.00","-9999.00","Clear","clear","0","0","0","0","0","0","METAR UKKK 111600Z 31008MPS CAVOK 20/15 Q1014 R26/CLRD70 TEMPO 32010G18MPS"
"7:30 PM EEST on August 11, 2016","2016","08","11","19","30","Europe/Kiev","4:30 PM GMT on August 11, 2016","2016","08","11","16","30","UTC","20.0","68.0","14.0","57.2","68","28.8","17.9","-9999.0","-9999.0","310","NW","-9999.0","-9999.0","1014","29.95","-999","-999","-9999","-9999","-9999.00","-9999.00","Clear","clear","0","0","0","0","0","0","METAR UKKK 111630Z 31008MPS CAVOK 20/14 Q1014 R26/CLRD70 TEMPO 32010G18MPS"
"8:00 PM EEST on August 11, 2016","2016","08","11","20","00","Europe/Kiev","5:00 PM GMT on August 11, 2016","2016","08","11","17","00","UTC","18.0","64.4","14.0","57.2","77","25.2","15.7","-9999.0","-9999.0","330","NNW","-9999.0","-9999.0","1014","29.95","-999","-999","-9999","-9999","-9999.00","-9999.00","Clear","clear","0","0","0","0","0","0","METAR UKKK 111700Z 33007MPS CAVOK 18/14 Q1014 R26/CLRD70 TEMPO 32010G18MPS"
"8:30 PM EEST on August 11, 2016","2016","08","11","20","30","Europe/Kiev","5:30 PM GMT on August 11, 2016","2016","08","11","17","30","UTC","17.0","62.6","13.0","55.4","77","25.2","15.7","-9999.0","-9999.0","310","NW","10.0","6.2","1015","29.98","-999","-999","-9999","-9999","-9999.00","-9999.00","Mostly Cloudy","mostlycloudy","0","0","0","0","0","0","METAR UKKK 111730Z 31007MPS 9999 SCT014 BKN100 17/13 Q1015 R26/CLRD70 TEMPO 32010G18MPS"
"9:00 PM EEST on August 11, 2016","2016","08","11","21","00","Europe/Kiev","6:00 PM GMT on August 11, 2016","2016","08","11","18","00","UTC","17","63","13","56","70","18.0","11.2","","","10","North","10","6","1016","29.99","-999","-999","-9999","-9999","","","Overcast","cloudy","0","0","0","0","0","0","AAXX 11181 33345 32497 80105 10171 20132 39958 40155 52026 8662/ 333 10309 86713 555 10020"
"9:00 PM EEST on August 11, 2016","2016","08","11","21","00","Europe/Kiev","6:00 PM GMT on August 11, 2016","2016","08","11","18","00","UTC","17.0","62.6","13.0","55.4","77","21.6","13.4","-9999.0","-9999.0","330","NNW","10.0","6.2","1015","29.98","-999","-999","-9999","-9999","-9999.00","-9999.00","Mostly Cloudy","mostlycloudy","0","0","0","0","0","0","METAR UKKK 111800Z 33006MPS 310V020 9999 SCT014 BKN100 17/13 Q1015 R26/CLRD70 TEMPO 32012G17MPS"
"9:30 PM EEST on August 11, 2016","2016","08","11","21","30","Europe/Kiev","6:30 PM GMT on August 11, 2016","2016","08","11","18","30","UTC","16.0","60.8","13.0","55.4","82","21.6","13.4","-9999.0","-9999.0","330","NNW","10.0","6.2","1016","30.01","-999","-999","-9999","-9999","-9999.00","-9999.00","Mostly Cloudy","mostlycloudy","0","0","0","0","0","0","METAR UKKK 111830Z 33006MPS 9999 BKN013 16/13 Q1016 R26/CLRD70 TEMPO 32012G17MPS"
"10:00 PM EEST on August 11, 2016","2016","08","11","22","00","Europe/Kiev","7:00 PM GMT on August 11, 2016","2016","08","11","19","00","UTC","16.0","60.8","13.0","55.4","82","18.0","11.2","-9999.0","-9999.0","340","NNW","10.0","6.2","1016","30.01","-999","-999","-9999","-9999","-9999.00","-9999.00","Mostly Cloudy","mostlycloudy","0","0","0","0","0","0","METAR UKKK 111900Z 34005MPS 300V010 9999 SCT023CB BKN043 16/13 Q1016 R26/CLRD70 TEMPO 32012G17MPS 2100 -TSRAGR BKN004 BKN015CB"
"10:30 PM EEST on August 11, 2016","2016","08","11","22","30","Europe/Kiev","7:30 PM GMT on August 11, 2016","2016","08","11","19","30","UTC","16.0","60.8","13.0","55.4","82","18.0","11.2","-9999.0","-9999.0","320","NW","10.0","6.2","1016","30.01","-999","-999","-9999","-9999","-9999.00","-9999.00","Mostly Cloudy","mostlycloudy","0","0","0","0","0","0","METAR UKKK 111930Z 32005MPS 9999 BKN012 16/13 Q1016 R26/CLRD70 TEMPO 32012G17MPS 2100 -TSRAGR BKN004 BKN015CB"
"11:00 PM EEST on August 11, 2016","2016","08","11","23","00","Europe/Kiev","8:00 PM GMT on August 11, 2016","2016","08","11","20","00","UTC","16.0","60.8","13.0","55.4","82","18.0","11.2","-9999.0","-9999.0","340","NNW","10.0","6.2","1016","30.01","-999","-999","-9999","-9999","-9999.00","-9999.00","Mostly Cloudy","mostlycloudy","0","0","0","0","0","0","METAR UKKK 112000Z 34005MPS 300V010 9999 BKN011 16/13 Q1016 R26/CLRD70 TEMPO 32012G17MPS 2100 -TSRAGR BKN004 BKN015CB"
"11:30 PM EEST on August 11, 2016","2016","08","11","23","30","Europe/Kiev","8:30 PM GMT on August 11, 2016","2016","08","11","20","30","UTC","15.0","59.0","12.0","53.6","82","21.6","13.4","-9999.0","-9999.0","330","NNW","10.0","6.2","1017","30.04","-999","-999","-9999","-9999","-9999.00","-9999.00","Mostly Cloudy","mostlycloudy","0","0","0","0","0","0","METAR UKKK 112030Z 33006MPS 9999 BKN012 15/12 Q1017 R26/CLRD70 TEMPO 32012G17MPS 2100 -TSRAGR BKN004 BKN015CB"
"12:00 AM EEST on August 12, 2016","2016","08","12","00","00","Europe/Kiev","9:00 PM GMT on August 11, 2016","2016","08","11","21","00","UTC","16","60","12","54","74","14.4","8.9","","","0","North","10","6","1016","30.01","-999","-999","-9999","-9999","","","Overcast","cloudy","0","0","0","0","0","0","AAXX 11211 33345 42497 83604 10155 20122 39965 40163 52007 8567/ 333 85712 555 10018"
"12:00 AM EEST on August 12, 2016","2016","08","12","00","00","Europe/Kiev","9:00 PM GMT on August 11, 2016","2016","08","11","21","00","UTC","15.0","59.0","12.0","53.6","82","21.6","13.4","-9999.0","-9999.0","330","NNW","10.0","6.2","1016","30.01","-999","-999","-9999","-9999","-9999.00","-9999.00","Mostly Cloudy","mostlycloudy","0","0","0","0","0","0","METAR UKKK 112100Z 33006MPS 9999 BKN013 15/12 Q1016 R26/CLRD70 NOSIG"
"12:30 AM EEST on August 12, 2016","2016","08","12","00","30","Europe/Kiev","9:30 PM GMT on August 11, 2016","2016","08","11","21","30","UTC","15.0","59.0","12.0","53.6","82","18.0","11.2","-9999.0","-9999.0","350","North","10.0","6.2","1017","30.04","-999","-999","-9999","-9999","-9999.00","-9999.00","Mostly Cloudy","mostlycloudy","0","0","0","0","0","0","METAR UKKK 112130Z 35005MPS 320V020 9999 BKN013 15/12 Q1017 R26/CLRD70 NOSIG"
"1:00 AM EEST on August 12, 2016","2016","08","12","01","00","Europe/Kiev","10:00 PM GMT on August 11, 2016","2016","08","11","22","00","UTC","15.0","59.0","11.0","51.8","77","14.4","8.9","-9999.0","-9999.0","350","North","10.0","6.2","1016","30.01","-999","-999","-9999","-9999","-9999.00","-9999.00","Overcast","cloudy","0","0","0","0","0","0","METAR UKKK 112200Z 35004MPS 320V020 9999 OVC015 15/11 Q1016 R26/CLRD70 NOSIG"
"1:30 AM EEST on August 12, 2016","2016","08","12","01","30","Europe/Kiev","10:30 PM GMT on August 11, 2016","2016","08","11","22","30","UTC","15.0","59.0","11.0","51.8","77","18.0","11.2","-9999.0","-9999.0","350","North","10.0","6.2","1016","30.01","-999","-999","-9999","-9999","-9999.00","-9999.00","Overcast","cloudy","0","0","0","0","0","0","METAR UKKK 112230Z 35005MPS 320V020 9999 OVC014 15/11 Q1016 R26/CLRD70 NOSIG"
"2:00 AM EEST on August 12, 2016","2016","08","12","02","00","Europe/Kiev","11:00 PM GMT on August 11, 2016","2016","08","11","23","00","UTC","15.0","59.0","11.0","51.8","77","18.0","11.2","-9999.0","-9999.0","330","NNW","10.0","6.2","1016","30.01","-999","-999","-9999","-9999","-9999.00","-9999.00","Overcast","cloudy","0","0","0","0","0","0","METAR UKKK 112300Z 33005MPS 290V350 9999 OVC014 15/11 Q1016 R26/CLRD70 NOSIG"
"2:30 AM EEST on August 12, 2016","2016","08","12","02","30","Europe/Kiev","11:30 PM GMT on August 11, 2016","2016","08","11","23","30","UTC","14.0","57.2","11.0","51.8","82","21.6","13.4","-9999.0","-9999.0","320","NW","10.0","6.2","1016","30.01","-999","-999","-9999","-9999","-9999.00","-9999.00","Overcast","cloudy","0","0","0","0","0","0","METAR UKKK 112330Z 32006MPS 9999 OVC013 14/11 Q1016 R26/CLRD70 NOSIG"
"3:00 AM EEST on August 12, 2016","2016","08","12","03","00","Europe/Kiev","12:00 AM GMT on August 12, 2016","2016","08","12","00","00","UTC","14","58","11","52","74","18.0","11.2","","","0","North","10","6","1016","30.01","-999","-999","-9999","-9999","","","Overcast","cloudy","0","0","0","0","0","0","AAXX 12001 33345 32497 83605 10145 20111 39963 40162 58002 886// 333 88710 555 10016"
"3:00 AM EEST on August 12, 2016","2016","08","12","03","00","Europe/Kiev","12:00 AM GMT on August 12, 2016","2016","08","12","00","00","UTC","14.0","57.2","11.0","51.8","82","21.6","13.4","-9999.0","-9999.0","320","NW","10.0","6.2","1016","30.01","-999","-999","-9999","-9999","-9999.00","-9999.00","Overcast","cloudy","0","0","0","0","0","0","METAR UKKK 120000Z 32006MPS 9999 OVC014 14/11 Q1016 R26/CLRD70 NOSIG"
"3:30 AM EEST on August 12, 2016","2016","08","12","03","30","Europe/Kiev","12:30 AM GMT on August 12, 2016","2016","08","12","00","30","UTC","14.0","57.2","11.0","51.8","82","21.6","13.4","-9999.0","-9999.0","320","NW","10.0","6.2","1016","30.01","-999","-999","-9999","-9999","-9999.00","-9999.00","Overcast","cloudy","0","0","0","0","0","0","METAR UKKK 120030Z 32006MPS 9999 OVC014 14/11 Q1016 R26/CLRD70 NOSIG"
"4:00 AM EEST on August 12, 2016","2016","08","12","04","00","Europe/Kiev","1:00 AM GMT on August 12, 2016","2016","08","12","01","00","UTC","14.0","57.2","11.0","51.8","82","14.4","8.9","-9999.0","-9999.0","340","NNW","10.0","6.2","1016","30.01","-999","-999","-9999","-9999","-9999.00","-9999.00","Overcast","cloudy","0","0","0","0","0","0","METAR UKKK 120100Z 34004MPS 290V030 9999 OVC014 14/11 Q1016 R26/CLRD70 NOSIG"
"4:30 AM EEST on August 12, 2016","2016","08","12","04","30","Europe/Kiev","1:30 AM GMT on August 12, 2016","2016","08","12","01","30","UTC","14.0","57.2","11.0","51.8","82","18.0","11.2","-9999.0","-9999.0","340","NNW","10.0","6.2","1016","30.01","-999","-999","-9999","-9999","-9999.00","-9999.00","Overcast","cloudy","0","0","0","0","0","0","METAR UKKK 120130Z 34005MPS 310V010 9999 OVC014 14/11 Q1016 R26/CLRD70 NOSIG"
"5:00 AM EEST on August 12, 2016","2016","08","12","05","00","Europe/Kiev","2:00 AM GMT on August 12, 2016","2016","08","12","02","00","UTC","13.0","55.4","11.0","51.8","88","14.4","8.9","-9999.0","-9999.0","340","NNW","10.0","6.2","1016","30.01","-999","-999","-9999","-9999","-9999.00","-9999.00","Light Rain Showers","rain","0","1","0","0","0","0","METAR UKKK 120200Z 34004MPS 310V010 9999 -SHRA SCT021CB OVC043 13/11 Q1016 R26/290158 NOSIG"
"5:30 AM EEST on August 12, 2016","2016","08","12","05","30","Europe/Kiev","2:30 AM GMT on August 12, 2016","2016","08","12","02","30","UTC","13.0","55.4","11.0","51.8","88","10.8","6.7","-9999.0","-9999.0","330","NNW","10.0","6.2","1016","30.01","-999","-999","-9999","-9999","-9999.00","-9999.00","Light Rain","rain","0","1","0","0","0","0","METAR UKKK 120230Z 33003MPS 310V010 9999 -RA BKN013 OVC030 13/11 Q1016 R26/290158 NOSIG"
"6:00 AM EEST on August 12, 2016","2016","08","12","06","00","Europe/Kiev","3:00 AM GMT on August 12, 2016","2016","08","12","03","00","UTC","13","56","11","53","84","10.8","6.7","","","10","North","4","2","1017","30.04","-999","-999","-9999","-9999","","","Light Rain","rain","0","1","0","0","0","0","AAXX 12031 33345 41496 80103 10131 20114 39971 40171 53008 76162 8872/ 333 88711 555 11014"
"6:00 AM EEST on August 12, 2016","2016","08","12","06","00","Europe/Kiev","3:00 AM GMT on August 12, 2016","2016","08","12","03","00","UTC","13.0","55.4","11.0","51.8","88","14.4","8.9","-9999.0","-9999.0","330","NNW","10.0","6.2","1017","30.04","-999","-999","-9999","-9999","-9999.00","-9999.00","Light Rain","rain","0","1","0","0","0","0","METAR UKKK 120300Z 33004MPS 300V360 9999 -RA OVC009 13/11 Q1017 R26/290158 TEMPO 2100 -SHRA BKN005 BKN015CB"
"6:30 AM EEST on August 12, 2016","2016","08","12","06","30","Europe/Kiev","3:30 AM GMT on August 12, 2016","2016","08","12","03","30","UTC","13.0","55.4","11.0","51.8","88","14.4","8.9","-9999.0","-9999.0","340","NNW","10.0","6.2","1017","30.04","-999","-999","-9999","-9999","-9999.00","-9999.00","Overcast","cloudy","0","0","0","0","0","0","METAR UKKK 120330Z 34004MPS 300V360 9999 OVC009 13/11 Q1017 R26/290158 TEMPO 2100 -SHRA BKN005 BKN015CB"
"7:00 AM EEST on August 12, 2016","2016","08","12","07","00","Europe/Kiev","4:00 AM GMT on August 12, 2016","2016","08","12","04","00","UTC","13.0","55.4","11.0","51.8","88","14.4","8.9","-9999.0","-9999.0","350","North","10.0","6.2","1017","30.04","-999","-999","-9999","-9999","-9999.00","-9999.00","Light Rain","rain","0","1","0","0","0","0","METAR UKKK 120400Z 35004MPS 320V020 9999 -RA OVC011 13/11 Q1017 R26/290158 TEMPO 2100 -SHRA BKN005 BKN015CB"
"7:30 AM EEST on August 12, 2016","2016","08","12","07","30","Europe/Kiev","4:30 AM GMT on August 12, 2016","2016","08","12","04","30","UTC","12.0","53.6","11.0","51.8","94","14.4","8.9","-9999.0","-9999.0","350","North","10.0","6.2","1017","30.04","-999","-999","-9999","-9999","-9999.00","-9999.00","Overcast","cloudy","0","0","0","0","0","0","METAR UKKK 120430Z 35004MPS 320V020 9999 OVC012 12/11 Q1017 R26/290158 TEMPO 2100 -SHRA BKN005 BKN015CB"
"8:00 AM EEST on August 12, 2016","2016","08","12","08","00","Europe/Kiev","5:00 AM GMT on August 12, 2016","2016","08","12","05","00","UTC","13.0","55.4","11.0","51.8","88","14.4","8.9","-9999.0","-9999.0","350","North","10.0","6.2","1018","30.06","-999","-999","-9999","-9999","-9999.00","-9999.00","Overcast","cloudy","0","0","0","0","0","0","METAR UKKK 120500Z 35004MPS 320V020 9999 BKN014 OVC024 13/11 Q1018 R26/290158 TEMPO 2100 -SHRA BKN005 BKN015CB"
"8:30 AM EEST on August 12, 2016","2016","08","12","08","30","Europe/Kiev","5:30 AM GMT on August 12, 2016","2016","08","12","05","30","UTC","13.0","55.4","10.0","50.0","82","14.4","8.9","-9999.0","-9999.0","340","NNW","10.0","6.2","1018","30.06","-999","-999","-9999","-9999","-9999.00","-9999.00","Light Rain","rain","0","1","0","0","0","0","METAR UKKK 120530Z 34004MPS 290V360 9999 -RA SCT014 OVC025 13/10 Q1018 R26/290158 NOSIG"
"9:00 AM EEST on August 12, 2016","2016","08","12","09","00","Europe/Kiev","6:00 AM GMT on August 12, 2016","2016","08","12","06","00","UTC","13","55","8","46","64","21.6","13.4","","","40","NE","10","6","1018","30.07","-999","-999","-9999","-9999","","","Light Rain","rain","0","1","0","0","0","0","AAXX 12061 33345 11497 80406 10130 20079 39983 40183 52012 69942 76162 8472/ 333 20128 555 11013"
"9:00 AM EEST on August 12, 2016","2016","08","12","09","00","Europe/Kiev","6:00 AM GMT on August 12, 2016","2016","08","12","06","00","UTC","13.0","55.4","10.0","50.0","82","14.4","8.9","-9999.0","-9999.0","350","North","10.0","6.2","1018","30.06","-999","-999","-9999","-9999","-9999.00","-9999.00","Mostly Cloudy","mostlycloudy","0","0","0","0","0","0","METAR UKKK 120600Z 35004MPS 320V040 9999 SCT025 BKN073 13/10 Q1018 R26/290158 NOSIG"
"9:30 AM EEST on August 12, 2016","2016","08","12","09","30","Europe/Kiev","6:30 AM GMT on August 12, 2016","2016","08","12","06","30","UTC","13.0","55.4","10.0","50.0","82","14.4","8.9","-9999.0","-9999.0","360","North","10.0","6.2","1018","30.06","-999","-999","-9999","-9999","-9999.00","-9999.00","Mostly Cloudy","mostlycloudy","0","0","0","0","0","0","METAR UKKK 120630Z 36004MPS 330V040 9999 BKN024 13/10 Q1018 R26/290158 NOSIG"
"10:00 AM EEST on August 12, 2016","2016","08","12","10","00","Europe/Kiev","7:00 AM GMT on August 12, 2016","2016","08","12","07","00","UTC","13.0","55.4","10.0","50.0","82","18.0","11.2","-9999.0","-9999.0","360","North","10.0","6.2","1018","30.06","-999","-999","-9999","-9999","-9999.00","-9999.00","Mostly Cloudy","mostlycloudy","0","0","0","0","0","0","METAR UKKK 120700Z 36005MPS 330V030 9999 BKN019 13/10 Q1018 R26/290158 NOSIG"
"10:30 AM EEST on August 12, 2016","2016","08","12","10","30","Europe/Kiev","7:30 AM GMT on August 12, 2016","2016","08","12","07","30","UTC","13.0","55.4","10.0","50.0","82","14.4","8.9","-9999.0","-9999.0","20","NNE","10.0","6.2","1018","30.06","-999","-999","-9999","-9999","-9999.00","-9999.00","Mostly Cloudy","mostlycloudy","0","0","0","0","0","0","METAR UKKK 120730Z 02004MPS 340V060 9999 BKN021 13/10 Q1018 R26/290058 NOSIG"
"11:00 AM EEST on August 12, 2016","2016","08","12","11","00","Europe/Kiev","8:00 AM GMT on August 12, 2016","2016","08","12","08","00","UTC","14.0","57.2","9.0","48.2","72","21.6","13.4","-9999.0","-9999.0","20","NNE","10.0","6.2","1018","30.06","-999","-999","-9999","-9999","-9999.00","-9999.00","Mostly Cloudy","mostlycloudy","0","0","0","0","0","0","METAR UKKK 120800Z 02006MPS 330V050 9999 SCT020 BKN076 14/09 Q1018 R26/290058 NOSIG"
"11:30 AM EEST on August 12, 2016","2016","08","12","11","30","Europe/Kiev","8:30 AM GMT on August 12, 2016","2016","08","12","08","30","UTC","13.0","55.4","9.0","48.2","77","21.6","13.4","-9999.0","-9999.0","20","NNE","10.0","6.2","1018","30.06","-999","-999","-9999","-9999","-9999.00","-9999.00","Mostly Cloudy","mostlycloudy","0","0","0","0","0","0","METAR UKKK 120830Z 02006MPS 350V070 9999 SCT020 BKN076 13/09 Q1018 R26/290058 NOSIG"
"12:00 PM EEST on August 12, 2016","2016","08","12","12","00","Europe/Kiev","9:00 AM GMT on August 12, 2016","2016","08","12","09","00","UTC","13","55","9","47","68","18.0","11.2","","","40","NE","20","12","1019","30.09","-999","-999","-9999","-9999","","","Light Rain","rain","0","1","0","0","0","0","AAXX 12091 33345 41498 80405 10130 20086 39988 40188 52005 76162 8872/ 333 88716 555 10016"
"12:00 PM EEST on August 12, 2016","2016","08","12","12","00","Europe/Kiev","9:00 AM GMT on August 12, 2016","2016","08","12","09","00","UTC","13.0","55.4","10.0","50.0","82","14.4","8.9","-9999.0","-9999.0","20","NNE","10.0","6.2","1019","30.09","-999","-999","-9999","-9999","-9999.00","-9999.00","Mostly Cloudy","mostlycloudy","0","0","0","0","0","0","METAR UKKK 120900Z 02004MPS 330V060 9999 SCT020 BKN076 13/10 Q1019 R26/290058 NOSIG"
"12:30 PM EEST on August 12, 2016","2016","08","12","12","30","Europe/Kiev","9:30 AM GMT on August 12, 2016","2016","08","12","09","30","UTC","14.0","57.2","11.0","51.8","82","14.4","8.9","-9999.0","-9999.0","20","NNE","10.0","6.2","1019","30.09","-999","-999","-9999","-9999","-9999.00","-9999.00","Light Rain","rain","0","1","0","0","0","0","METAR UKKK 120930Z 02004MPS 340V050 9999 -RA SCT015 OVC027 14/11 Q1019 R26/290058 NOSIG"
"1:00 PM EEST on August 12, 2016","2016","08","12","13","00","Europe/Kiev","10:00 AM GMT on August 12, 2016","2016","08","12","10","00","UTC","14.0","57.2","12.0","53.6","88","10.8","6.7","-9999.0","-9999.0","10","North","10.0","6.2","1019","30.09","-999","-999","-9999","-9999","-9999.00","-9999.00","Light Rain","rain","0","1","0","0","0","0","METAR UKKK 121000Z 01003MPS 330V030 9999 -RA SCT013 OVC043 14/12 Q1019 R26/290058 NOSIG"
"1:30 PM EEST on August 12, 2016","2016","08","12","13","30","Europe/Kiev","10:30 AM GMT on August 12, 2016","2016","08","12","10","30","UTC","14.0","57.2","12.0","53.6","88","10.8","6.7","-9999.0","-9999.0","360","North","10.0","6.2","1019","30.09","-999","-999","-9999","-9999","-9999.00","-9999.00","Light Rain","rain","0","1","0","0","0","0","METAR UKKK 121030Z 36003MPS 330V030 9999 -RA SCT013 OVC043 14/12 Q1019 R26/290157 NOSIG"
"2:00 PM EEST on August 12, 2016","2016","08","12","14","00","Europe/Kiev","11:00 AM GMT on August 12, 2016","2016","08","12","11","00","UTC","14.0","57.2","12.0","53.6","88","14.4","8.9","-9999.0","-9999.0","360","North","9.0","5.6","1019","30.09","-999","-999","-9999","-9999","-9999.00","-9999.00","Light Rain","rain","0","1","0","0","0","0","METAR UKKK 121100Z 36004MPS 320V020 9000 -RA SCT009 OVC048 14/12 Q1019 R26/290157 NOSIG"
"2:30 PM EEST on August 12, 2016","2016","08","12","14","30","Europe/Kiev","11:30 AM GMT on August 12, 2016","2016","08","12","11","30","UTC","14.0","57.2","13.0","55.4","94","10.8","6.7","-9999.0","-9999.0","10","North","10.0","6.2","1019","30.09","-999","-999","-9999","-9999","-9999.00","-9999.00","Light Rain","rain","0","1","0","0","0","0","METAR UKKK 121130Z 01003MPS 340V040 9999 -RA SCT009 OVC048 14/13 Q1019 R26/290157 NOSIG"
"3:00 PM EEST on August 12, 2016","2016","08","12","15","00","Europe/Kiev","12:00 PM GMT on August 12, 2016","2016","08","12","12","00","UTC","13","55","10","51","81","14.4","8.9","","","40","NE","10","6","1020","30.12","-999","-999","-9999","-9999","","","Light Rain","rain","0","1","0","0","0","0","AAXX 12121 33345 /1497 80404 10130 20105 39999 40200 52011 76162 8872/ 333 88716 555 10015 60021"
"3:00 PM EEST on August 12, 2016","2016","08","12","15","00","Europe/Kiev","12:00 PM GMT on August 12, 2016","2016","08","12","12","00","UTC","14.0","57.2","13.0","55.4","94","10.8","6.7","-9999.0","-9999.0","350","North","10.0","6.2","1020","30.12","-999","-999","-9999","-9999","-9999.00","-9999.00","Light Rain","rain","0","1","0","0","0","0","METAR UKKK 121200Z 35003MPS 320V030 9999 -RA BKN008 OVC023 14/13 Q1020 R26/290157 NOSIG"
"3:30 PM EEST on August 12, 2016","2016","08","12","15","30","Europe/Kiev","12:30 PM GMT on August 12, 2016","2016","08","12","12","30","UTC","13.0","55.4","12.0","53.6","94","7.2","4.5","-9999.0","-9999.0","10","North","9.0","5.6","1020","30.12","-999","-999","-9999","-9999","-9999.00","-9999.00","Light Rain","rain","0","1","0","0","0","0","METAR UKKK 121230Z 01002MPS 320V040 9000 -RA BKN008 OVC023 13/12 Q1020 R26/290157 NOSIG"
"4:00 PM EEST on August 12, 2016","2016","08","12","16","00","Europe/Kiev","1:00 PM GMT on August 12, 2016","2016","08","12","13","00","UTC","13.0","55.4","13.0","55.4","100","10.8","6.7","-9999.0","-9999.0","360","North","9.0","5.6","1020","30.12","-999","-999","-9999","-9999","-9999.00","-9999.00","Light Rain","rain","0","1","0","0","0","0","METAR UKKK 121300Z 36003MPS 320V040 9000 -RA BKN008 OVC023 13/13 Q1020 R26/290157 NOSIG"
"4:30 PM EEST on August 12, 2016","2016","08","12","16","30","Europe/Kiev","1:30 PM GMT on August 12, 2016","2016","08","12","13","30","UTC","14.0","57.2","13.0","55.4","94","14.4","8.9","-9999.0","-9999.0","350","North","10.0","6.2","1020","30.12","-999","-999","-9999","-9999","-9999.00","-9999.00","Light Rain","rain","0","1","0","0","0","0","METAR UKKK 121330Z 35004MPS 9999 -RA BKN008 OVC023 14/13 Q1020 R26/290157 NOSIG"
"5:00 PM EEST on August 12, 2016","2016","08","12","17","00","Europe/Kiev","2:00 PM GMT on August 12, 2016","2016","08","12","14","00","UTC","14.0","57.2","13.0","55.4","94","10.8","6.7","-9999.0","-9999.0","10","North","9.0","5.6","1020","30.12","-999","-999","-9999","-9999","-9999.00","-9999.00","Light Rain","rain","0","1","0","0","0","0","METAR UKKK 121400Z 01003MPS 9000 -RA BKN008 OVC023 14/13 Q1020 R26/290157 NOSIG"
"5:30 PM EEST on August 12, 2016","2016","08","12","17","30","Europe/Kiev","2:30 PM GMT on August 12, 2016","2016","08","12","14","30","UTC","14.0","57.2","13.0","55.4","94","10.8","6.7","-9999.0","-9999.0","360","North","9.0","5.6","1020","30.12","-999","-999","-9999","-9999","-9999.00","-9999.00","Light Rain Showers","rain","0","1","0","0","0","0","METAR UKKK 121430Z 36003MPS 320V040 9000 -SHRA BKN010 BKN030CB 14/13 Q1020 R26/290256 NOSIG"
"6:00 PM EEST on August 12, 2016","2016","08","12","18","00","Europe/Kiev","3:00 PM GMT on August 12, 2016","2016","08","12","15","00","UTC","14","57","12","54","85","3.6","2.2","","","20","NNE","10","6","1021","30.14","-999","-999","-9999","-9999","","","Light Rain","rain","0","1","0","0","0","0","AAXX 12151 33345 41497 80201 10139 20121 30006 40206 52007 76166 8872/ 333 88715 555 11016"
"6:00 PM EEST on August 12, 2016","2016","08","12","18","00","Europe/Kiev","3:00 PM GMT on August 12, 2016","2016","08","12","15","00","UTC","14.0","57.2","13.0","55.4","94","7.2","4.5","-9999.0","-9999.0","360","North","10.0","6.2","1020","30.12","-999","-999","-9999","-9999","-9999.00","-9999.00","Light Rain","rain","0","1","0","0","0","0","METAR UKKK 121500Z 36002MPS 320V030 9999 -RA BKN011 OVC030 14/13 Q1020 R26/290256 NOSIG"
"6:30 PM EEST on August 12, 2016","2016","08","12","18","30","Europe/Kiev","3:30 PM GMT on August 12, 2016","2016","08","12","15","30","UTC","14.0","57.2","13.0","55.4","94","7.2","4.5","-9999.0","-9999.0","350","North","10.0","6.2","1020","30.12","-999","-999","-9999","-9999","-9999.00","-9999.00","Overcast","cloudy","0","0","0","0","0","0","METAR UKKK 121530Z 35002MPS 320V070 9999 BKN011 OVC030 14/13 Q1020 R26/290256 NOSIG"
"7:00 PM EEST on August 12, 2016","2016","08","12","19","00","Europe/Kiev","4:00 PM GMT on August 12, 2016","2016","08","12","16","00","UTC","14.0","57.2","13.0","55.4","94","7.2","4.5","-9999.0","-9999.0","340","NNW","10.0","6.2","1020","30.12","-999","-999","-9999","-9999","-9999.00","-9999.00","Overcast","cloudy","0","0","0","0","0","0","METAR UKKK 121600Z 34002MPS 310V020 9999 BKN010 OVC033 14/13 Q1020 R26/290157 NOSIG"
"7:30 PM EEST on August 12, 2016","2016","08","12","19","30","Europe/Kiev","4:30 PM GMT on August 12, 2016","2016","08","12","16","30","UTC","14.0","57.2","13.0","55.4","94","10.8","6.7","-9999.0","-9999.0","360","North","10.0","6.2","1020","30.12","-999","-999","-9999","-9999","-9999.00","-9999.00","Light Rain","rain","0","1","0","0","0","0","METAR UKKK 121630Z 36003MPS 9999 -RA BKN011 OVC040 14/13 Q1020 R26/290157 NOSIG"
"8:00 PM EEST on August 12, 2016","2016","08","12","20","00","Europe/Kiev","5:00 PM GMT on August 12, 2016","2016","08","12","17","00","UTC","14.0","57.2","13.0","55.4","94","10.8","6.7","-9999.0","-9999.0","360","North","10.0","6.2","1020","30.12","-999","-999","-9999","-9999","-9999.00","-9999.00","Overcast","cloudy","0","0","0","0","0","0","METAR UKKK 121700Z 36003MPS 9999 SCT014 OVC046 14/13 Q1020 R26/290157 NOSIG"
"8:30 PM EEST on August 12, 2016","2016","08","12","20","30","Europe/Kiev","5:30 PM GMT on August 12, 2016","2016","08","12","17","30","UTC","14.0","57.2","13.0","55.4","94","7.2","4.5","-9999.0","-9999.0","330","NNW","10.0","6.2","1021","30.15","-999","-999","-9999","-9999","-9999.00","-9999.00","Overcast","cloudy","0","0","0","0","0","0","METAR UKKK 121730Z 33002MPS 300V020 9999 OVC048 14/13 Q1021 R26/290157 NOSIG"
"9:00 PM EEST on August 12, 2016","2016","08","12","21","00","Europe/Kiev","6:00 PM GMT on August 12, 2016","2016","08","12","18","00","UTC","14","57","12","54","88","3.6","2.2","","","50","NE","10","6","1021","30.16","-999","-999","-9999","-9999","","","Partly Cloudy","partlycloudy","0","0","0","0","0","0","AAXX 12181 33345 11597 60501 10141 20125 30011 40211 52005 60042 70262 84530 333 10145 555 11015"
"9:00 PM EEST on August 12, 2016","2016","08","12","21","00","Europe/Kiev","6:00 PM GMT on August 12, 2016","2016","08","12","18","00","UTC","14.0","57.2","13.0","55.4","94","7.2","4.5","-9999.0","-9999.0","340","NNW","10.0","6.2","1021","30.15","-999","-999","-9999","-9999","-9999.00","-9999.00","Mostly Cloudy","mostlycloudy","0","0","0","0","0","0","METAR UKKK 121800Z 34002MPS 9999 FEW013 BKN056 14/13 Q1021 R26/290157 NOSIG"
"9:30 PM EEST on August 12, 2016","2016","08","12","21","30","Europe/Kiev","6:30 PM GMT on August 12, 2016","2016","08","12","18","30","UTC","14.0","57.2","13.0","55.4","94","7.2","4.5","-9999.0","-9999.0","320","NW","10.0","6.2","1021","30.15","-999","-999","-9999","-9999","-9999.00","-9999.00","Mostly Cloudy","mostlycloudy","0","0","0","0","0","0","METAR UKKK 121830Z 32002MPS 9999 FEW013 BKN056 14/13 Q1021 R26/290058 NOSIG"
"10:00 PM EEST on August 12, 2016","2016","08","12","22","00","Europe/Kiev","7:00 PM GMT on August 12, 2016","2016","08","12","19","00","UTC","14.0","57.2","13.0","55.4","94","7.2","4.5","-9999.0","-9999.0","320","NW","10.0","6.2","1021","30.15","-999","-999","-9999","-9999","-9999.00","-9999.00","Mostly Cloudy","mostlycloudy","0","0","0","0","0","0","METAR UKKK 121900Z 32002MPS 9999 FEW010 BKN056 14/13 Q1021 R26/290058 NOSIG"
"10:30 PM EEST on August 12, 2016","2016","08","12","22","30","Europe/Kiev","7:30 PM GMT on August 12, 2016","2016","08","12","19","30","UTC","14.0","57.2","13.0","55.4","94","7.2","4.5","-9999.0","-9999.0","330","NNW","-9999.0","-9999.0","1021","30.15","-999","-999","-9999","-9999","-9999.00","-9999.00","Clear","clear","0","0","0","0","0","0","METAR UKKK 121930Z 33002MPS CAVOK 14/13 Q1021 R26/290058 NOSIG"
"11:00 PM EEST on August 12, 2016","2016","08","12","23","00","Europe/Kiev","8:00 PM GMT on August 12, 2016","2016","08","12","20","00","UTC","14.0","57.2","13.0","55.4","94","7.2","4.5","-9999.0","-9999.0","330","NNW","-9999.0","-9999.0","1021","30.15","-999","-999","-9999","-9999","-9999.00","-9999.00","Clear","clear","0","0","0","0","0","0","METAR UKKK 122000Z 33002MPS CAVOK 14/13 Q1021 R26/290058 NOSIG"
"11:30 PM EEST on August 12, 2016","2016","08","12","23","30","Europe/Kiev","8:30 PM GMT on August 12, 2016","2016","08","12","20","30","UTC","14.0","57.2","13.0","55.4","94","7.2","4.5","-9999.0","-9999.0","320","NW","-9999.0","-9999.0","1021","30.15","-999","-999","-9999","-9999","-9999.00","-9999.00","Clear","clear","0","0","0","0","0","0","METAR UKKK 122030Z 32002MPS CAVOK 14/13 Q1021 R26/290058 NOSIG"
"12:00 AM EEST on August 13, 2016","2016","08","13","00","00","Europe/Kiev","9:00 PM GMT on August 12, 2016","2016","08","12","21","00","UTC","14","58","13","56","89","3.6","2.2","","","350","North","4","2","1021","30.15","-999","-999","-9999","-9999","","","Mist","hazy","0","0","0","0","0","0","AAXX 12211 33345 41996 63501 10144 20131 30009 40209 58002 71022 86030 555 11015"
"12:00 AM EEST on August 13, 2016","2016","08","13","00","00","Europe/Kiev","9:00 PM GMT on August 12, 2016","2016","08","12","21","00","UTC","14.0","57.2","12.0","53.6","88","7.2","4.5","-9999.0","-9999.0","340","NNW","-9999.0","-9999.0","1021","30.15","-999","-999","-9999","-9999","-9999.00","-9999.00","Clear","clear","0","0","0","0","0","0","METAR UKKK 122100Z 34002MPS 310V010 CAVOK 14/12 Q1021 R26/290058 NOSIG"
"12:30 AM EEST on August 13, 2016","2016","08","13","00","30","Europe/Kiev","9:30 PM GMT on August 12, 2016","2016","08","12","21","30","UTC","14.0","57.2","12.0","53.6","88","7.2","4.5","-9999.0","-9999.0","340","NNW","-9999.0","-9999.0","1021","30.15","-999","-999","-9999","-9999","-9999.00","-9999.00","Clear","clear","0","0","0","0","0","0","METAR UKKK 122130Z 34002MPS 310V010 CAVOK 14/12 Q1021 R26/290058 NOSIG"
"1:00 AM EEST on August 13, 2016","2016","08","13","01","00","Europe/Kiev","10:00 PM GMT on August 12, 2016","2016","08","12","22","00","UTC","14.0","57.2","11.0","51.8","82","10.8","6.7","-9999.0","-9999.0","310","NW","-9999.0","-9999.0","1021","30.15","-999","-999","-9999","-9999","-9999.00","-9999.00","Clear","clear","0","0","0","0","0","0","METAR UKKK 122200Z 31003MPS CAVOK 14/11 Q1021 R26/290058 NOSIG"
"1:30 AM EEST on August 13, 2016","2016","08","13","01","30","Europe/Kiev","10:30 PM GMT on August 12, 2016","2016","08","12","22","30","UTC","13.0","55.4","10.0","50.0","82","10.8","6.7","-9999.0","-9999.0","330","NNW","-9999.0","-9999.0","1021","30.15","-999","-999","-9999","-9999","-9999.00","-9999.00","Clear","clear","0","0","0","0","0","0","METAR UKKK 122230Z 33003MPS CAVOK 13/10 Q1021 R26/290058 NOSIG"
"2:00 AM EEST on August 13, 2016","2016","08","13","02","00","Europe/Kiev","11:00 PM GMT on August 12, 2016","2016","08","12","23","00","UTC","13.0","55.4","10.0","50.0","82","10.8","6.7","-9999.0","-9999.0","330","NNW","-9999.0","-9999.0","1021","30.15","-999","-999","-9999","-9999","-9999.00","-9999.00","Clear","clear","0","0","0","0","0","0","METAR UKKK 122300Z 33003MPS CAVOK 13/10 Q1021 R26/290058 NOSIG"
"2:30 AM EEST on August 13, 2016","2016","08","13","02","30","Europe/Kiev","11:30 PM GMT on August 12, 2016","2016","08","12","23","30","UTC","13.0","55.4","10.0","50.0","82","7.2","4.5","-9999.0","-9999.0","330","NNW","-9999.0","-9999.0","1021","30.15","-999","-999","-9999","-9999","-9999.00","-9999.00","Clear","clear","0","0","0","0","0","0","METAR UKKK 122330Z 33002MPS CAVOK 13/10 Q1021 R26/290058 NOSIG"
"3:00 AM EEST on August 13, 2016","2016","08","13","03","00","Europe/Kiev","12:00 AM GMT on August 13, 2016","2016","08","13","00","00","UTC","13","56","10","50","73","3.6","2.2","","","350","North","10","6","1021","30.16","-999","-999","-9999","-9999","","","Partly Cloudy","partlycloudy","0","0","0","0","0","0","AAXX 13001 33345 32597 43501 10132 20099 30010 40211 53001 84500 555 11013"
"3:00 AM EEST on August 13, 2016","2016","08","13","03","00","Europe/Kiev","12:00 AM GMT on August 13, 2016","2016","08","13","00","00","UTC","13.0","55.4","9.0","48.2","77","10.8","6.7","-9999.0","-9999.0","320","NW","-9999.0","-9999.0","1021","30.15","-999","-999","-9999","-9999","-9999.00","-9999.00","Clear","clear","0","0","0","0","0","0","METAR UKKK 130000Z 32003MPS CAVOK 13/09 Q1021 R26/290058 NOSIG"
"3:30 AM EEST on August 13, 2016","2016","08","13","03","30","Europe/Kiev","12:30 AM GMT on August 13, 2016","2016","08","13","00","30","UTC","13.0","55.4","9.0","48.2","77","14.4","8.9","-9999.0","-9999.0","320","NW","-9999.0","-9999.0","1021","30.15","-999","-999","-9999","-9999","-9999.00","-9999.00","Clear","clear","0","0","0","0","0","0","METAR UKKK 130030Z 32004MPS CAVOK 13/09 Q1021 R26/290058 NOSIG"
"4:00 AM EEST on August 13, 2016","2016","08","13","04","00","Europe/Kiev","1:00 AM GMT on August 13, 2016","2016","08","13","01","00","UTC","13.0","55.4","8.0","46.4","72","10.8","6.7","-9999.0","-9999.0","340","NNW","-9999.0","-9999.0","1021","30.15","-999","-999","-9999","-9999","-9999.00","-9999.00","Clear","clear","0","0","0","0","0","0","METAR UKKK 130100Z 34003MPS CAVOK 13/08 Q1021 R26/290058 NOSIG"
"4:30 AM EEST on August 13, 2016","2016","08","13","04","30","Europe/Kiev","1:30 AM GMT on August 13, 2016","2016","08","13","01","30","UTC","12.0","53.6","8.0","46.4","77","10.8","6.7","-9999.0","-9999.0","340","NNW","-9999.0","-9999.0","1021","30.15","-999","-999","-9999","-9999","-9999.00","-9999.00","Clear","clear","0","0","0","0","0","0","METAR UKKK 130130Z 34003MPS CAVOK 12/08 Q1021 R26/290058 NOSIG"
"5:00 AM EEST on August 13, 2016","2016","08","13","05","00","Europe/Kiev","2:00 AM GMT on August 13, 2016","2016","08","13","02","00","UTC","12.0","53.6","8.0","46.4","77","10.8","6.7","-9999.0","-9999.0","320","NW","-9999.0","-9999.0","1021","30.15","-999","-999","-9999","-9999","-9999.00","-9999.00","Clear","clear","0","0","0","0","0","0","METAR UKKK 130200Z 32003MPS CAVOK 12/08 Q1021 R26/290058 NOSIG"
"5:30 AM EEST on August 13, 2016","2016","08","13","05","30","Europe/Kiev","2:30 AM GMT on August 13, 2016","2016","08","13","02","30","UTC","12.0","53.6","8.0","46.4","77","14.4","8.9","-9999.0","-9999.0","320","NW","-9999.0","-9999.0","1021","30.15","-999","-999","-9999","-9999","-9999.00","-9999.00","Clear","clear","0","0","0","0","0","0","METAR UKKK 130230Z 32004MPS CAVOK 12/08 Q1021 R26/190060 NOSIG"
"6:00 AM EEST on August 13, 2016","2016","08","13","06","00","Europe/Kiev","3:00 AM GMT on August 13, 2016","2016","08","13","03","00","UTC","13","55","9","47","68","10.8","6.7","","","350","North","20","12","1022","30.17","-999","-999","-9999","-9999","","","Mostly Cloudy","mostlycloudy","0","0","0","0","0","0","AAXX 13031 33345 42598 63503 10130 20086 30016 40217 52006 86500 555 11011"
"6:00 AM EEST on August 13, 2016","2016","08","13","06","00","Europe/Kiev","3:00 AM GMT on August 13, 2016","2016","08","13","03","00","UTC","12.0","53.6","8.0","46.4","77","14.4","8.9","-9999.0","-9999.0","330","NNW","-9999.0","-9999.0","1021","30.15","-999","-999","-9999","-9999","-9999.00","-9999.00","Clear","clear","0","0","0","0","0","0","METAR UKKK 130300Z 33004MPS CAVOK 12/08 Q1021 R26/190060 NOSIG"
"6:30 AM EEST on August 13, 2016","2016","08","13","06","30","Europe/Kiev","3:30 AM GMT on August 13, 2016","2016","08","13","03","30","UTC","13.0","55.4","8.0","46.4","72","14.4","8.9","-9999.0","-9999.0","340","NNW","-9999.0","-9999.0","1022","30.18","-999","-999","-9999","-9999","-9999.00","-9999.00","Clear","clear","0","0","0","0","0","0","METAR UKKK 130330Z 34004MPS CAVOK 13/08 Q1022 R26/190060 NOSIG"
"7:00 AM EEST on August 13, 2016","2016","08","13","07","00","Europe/Kiev","4:00 AM GMT on August 13, 2016","2016","08","13","04","00","UTC","13.0","55.4","8.0","46.4","72","7.2","4.5","-9999.0","-9999.0","340","NNW","-9999.0","-9999.0","1022","30.18","-999","-999","-9999","-9999","-9999.00","-9999.00","Clear","clear","0","0","0","0","0","0","METAR UKKK 130400Z 34002MPS CAVOK 13/08 Q1022 R26/CLRD70 NOSIG"
"7:30 AM EEST on August 13, 2016","2016","08","13","07","30","Europe/Kiev","4:30 AM GMT on August 13, 2016","2016","08","13","04","30","UTC","14.0","57.2","8.0","46.4","67","10.8","6.7","-9999.0","-9999.0","340","NNW","-9999.0","-9999.0","1022","30.18","-999","-999","-9999","-9999","-9999.00","-9999.00","Clear","clear","0","0","0","0","0","0","METAR UKKK 130430Z 34003MPS 320V020 CAVOK 14/08 Q1022 R26/CLRD70 NOSIG"
"8:00 AM EEST on August 13, 2016","2016","08","13","08","00","Europe/Kiev","5:00 AM GMT on August 13, 2016","2016","08","13","05","00","UTC","14.0","57.2","9.0","48.2","72","10.8","6.7","-9999.0","-9999.0","330","NNW","-9999.0","-9999.0","1022","30.18","-999","-999","-9999","-9999","-9999.00","-9999.00","Clear","clear","0","0","0","0","0","0","METAR UKKK 130500Z 33003MPS 300V360 CAVOK 14/09 Q1022 R26/CLRD70 NOSIG"
"8:30 AM EEST on August 13, 2016","2016","08","13","08","30","Europe/Kiev","5:30 AM GMT on August 13, 2016","2016","08","13","05","30","UTC","14.0","57.2","8.0","46.4","67","10.8","6.7","-9999.0","-9999.0","330","NNW","-9999.0","-9999.0","1022","30.18","-999","-999","-9999","-9999","-9999.00","-9999.00","Clear","clear","0","0","0","0","0","0","METAR UKKK 130530Z 33003MPS CAVOK 14/08 Q1022 R26/CLRD70 NOSIG"
"9:00 AM EEST on August 13, 2016","2016","08","13","09","00","Europe/Kiev","6:00 AM GMT on August 13, 2016","2016","08","13","06","00","UTC","15","59","9","48","57","10.8","6.7","","","10","North","20","12","1022","30.18","-999","-999","-9999","-9999","","","Mostly Cloudy","mostlycloudy","0","0","0","0","0","0","AAXX 13061 33345 32998 60103 10152 20087 30020 40220 52004 86900 333 20127 86968 555 11017"
"9:00 AM EEST on August 13, 2016","2016","08","13","09","00","Europe/Kiev","6:00 AM GMT on August 13, 2016","2016","08","13","06","00","UTC","14.0","57.2","9.0","48.2","72","10.8","6.7","-9999.0","-9999.0","360","North","-9999.0","-9999.0","1022","30.18","-999","-999","-9999","-9999","-9999.00","-9999.00","Clear","clear","0","0","0","0","0","0","METAR UKKK 130600Z 36003MPS 330V030 CAVOK 14/09 Q1022 R26/CLRD70 NOSIG"
"9:30 AM EEST on August 13, 2016","2016","08","13","09","30","Europe/Kiev","6:30 AM GMT on August 13, 2016","2016","08","13","06","30","UTC","15.0","59.0","10.0","50.0","72","14.4","8.9","-9999.0","-9999.0","350","North","-9999.0","-9999.0","1022","30.18","-999","-999","-9999","-9999","-9999.00","-9999.00","Clear","clear","0","0","0","0","0","0","METAR UKKK 130630Z 35004MPS 320V020 CAVOK 15/10 Q1022 R26/CLRD70 NOSIG"
"10:00 AM EEST on August 13, 2016","2016","08","13","10","00","Europe/Kiev","7:00 AM GMT on August 13, 2016","2016","08","13","07","00","UTC","16.0","60.8","10.0","50.0","68","18.0","11.2","-9999.0","-9999.0","350","North","-9999.0","-9999.0","1021","30.15","-999","-999","-9999","-9999","-9999.00","-9999.00","Clear","clear","0","0","0","0","0","0","METAR UKKK 130700Z 35005MPS CAVOK 16/10 Q1021 R26/CLRD70 NOSIG"
"10:30 AM EEST on August 13, 2016","2016","08","13","10","30","Europe/Kiev","7:30 AM GMT on August 13, 2016","2016","08","13","07","30","UTC","17.0","62.6","10.0","50.0","63","10.8","6.7","-9999.0","-9999.0","340","NNW","-9999.0","-9999.0","1022","30.18","-999","-999","-9999","-9999","-9999.00","-9999.00","Clear","clear","0","0","0","0","0","0","METAR UKKK 130730Z 34003MPS 310V020 CAVOK 17/10 Q1022 R26/CLRD70 NOSIG"
"11:00 AM EEST on August 13, 2016","2016","08","13","11","00","Europe/Kiev","8:00 AM GMT on August 13, 2016","2016","08","13","08","00","UTC","17.0","62.6","10.0","50.0","63","18.0","11.2","-9999.0","-9999.0","360","North","10.0","6.2","1021","30.15","-999","-999","-9999","-9999","-9999.00","-9999.00","Mostly Cloudy","mostlycloudy","0","0","0","0","0","0","METAR UKKK 130800Z 36005MPS 330V040 9999 FEW026 BKN100 17/10 Q1021 R26/CLRD70 NOSIG"
"11:30 AM EEST on August 13, 2016","2016","08","13","11","30","Europe/Kiev","8:30 AM GMT on August 13, 2016","2016","08","13","08","30","UTC","18.0","64.4","8.0","46.4","52","25.2","15.7","-9999.0","-9999.0","10","North","10.0","6.2","1021","30.15","-999","-999","-9999","-9999","-9999.00","-9999.00","Mostly Cloudy","mostlycloudy","0","0","0","0","0","0","METAR UKKK 130830Z 01007MPS 9999 FEW028 BKN100 18/08 Q1021 R26/CLRD70 NOSIG"
"12:00 PM EEST on August 13, 2016","2016","08","13","12","00","Europe/Kiev","9:00 AM GMT on August 13, 2016","2016","08","13","09","00","UTC","17","63","7","44","39","18.0","11.2","","","30","NNE","20","12","1022","30.17","-999","-999","-9999","-9999","","","Overcast","cloudy","0","0","0","0","0","0","AAXX 13091 33345 42498 80305 10174 20067 30017 40215 58003 83340 555 10022"
"12:00 PM EEST on August 13, 2016","2016","08","13","12","00","Europe/Kiev","9:00 AM GMT on August 13, 2016","2016","08","13","09","00","UTC","18.0","64.4","6.0","42.8","45","18.0","11.2","-9999.0","-9999.0","10","North","10.0","6.2","1021","30.15","-999","-999","-9999","-9999","-9999.00","-9999.00","Mostly Cloudy","mostlycloudy","0","0","0","0","0","0","METAR UKKK 130900Z 01005MPS 330V040 9999 FEW040 BKN100 18/06 Q1021 R26/CLRD70 NOSIG"
"12:30 PM EEST on August 13, 2016","2016","08","13","12","30","Europe/Kiev","9:30 AM GMT on August 13, 2016","2016","08","13","09","30","UTC","18.0","64.4","7.0","44.6","49","21.6","13.4","-9999.0","-9999.0","350","North","-9999.0","-9999.0","1021","30.15","-999","-999","-9999","-9999","-9999.00","-9999.00","Clear","clear","0","0","0","0","0","0","METAR UKKK 130930Z 35006MPS 320V030 CAVOK 18/07 Q1021 R26/CLRD70 NOSIG"
"1:00 PM EEST on August 13, 2016","2016","08","13","13","00","Europe/Kiev","10:00 AM GMT on August 13, 2016","2016","08","13","10","00","UTC","20.0","68.0","7.0","44.6","43","21.6","13.4","-9999.0","-9999.0","10","North","-9999.0","-9999.0","1021","30.15","-999","-999","-9999","-9999","-9999.00","-9999.00","Clear","clear","0","0","0","0","0","0","METAR UKKK 131000Z 01006MPS 330V030 CAVOK 20/07 Q1021 R26/CLRD70 NOSIG"
"1:30 PM EEST on August 13, 2016","2016","08","13","13","30","Europe/Kiev","10:30 AM GMT on August 13, 2016","2016","08","13","10","30","UTC","19.0","66.2","7.0","44.6","46","21.6","13.4","-9999.0","-9999.0","10","North","-9999.0","-9999.0","1021","30.15","-999","-999","-9999","-9999","-9999.00","-9999.00","Clear","clear","0","0","0","0","0","0","METAR UKKK 131030Z 01006MPS 340V050 CAVOK 19/07 Q1021 R26/CLRD70 NOSIG"
"2:00 PM EEST on August 13, 2016","2016","08","13","14","00","Europe/Kiev","11:00 AM GMT on August 13, 2016","2016","08","13","11","00","UTC","20.0","68.0","8.0","46.4","46","21.6","13.4","-9999.0","-9999.0","30","NNE","10.0","6.2","1021","30.15","-999","-999","-9999","-9999","-9999.00","-9999.00","Mostly Cloudy","mostlycloudy","0","0","0","0","0","0","METAR UKKK 131100Z 03006MPS 350V070 9999 FEW030CB BKN100 20/08 Q1021 R26/CLRD70 NOSIG"
"2:30 PM EEST on August 13, 2016","2016","08","13","14","30","Europe/Kiev","11:30 AM GMT on August 13, 2016","2016","08","13","11","30","UTC","18.0","64.4","7.0","44.6","49","18.0","11.2","-9999.0","-9999.0","20","NNE","10.0","6.2","1021","30.15","-999","-999","-9999","-9999","-9999.00","-9999.00","Mostly Cloudy","mostlycloudy","0","0","0","0","0","0","METAR UKKK 131130Z 02005MPS 330V050 9999 FEW031CB BKN100 18/07 Q1021 R26/CLRD70 NOSIG"
"3:00 PM EEST on August 13, 2016","2016","08","13","15","00","Europe/Kiev","12:00 PM GMT on August 13, 2016","2016","08","13","12","00","UTC","18","64","6","42","34","10.8","6.7","","","40","NE","20","12","1021","30.16","-999","-999","-9999","-9999","","","Overcast","cloudy","0","0","0","0","0","0","AAXX 13121 33345 32498 80403 10177 20058 30015 40213 57002 883// 333 88916 555 10022"
"3:00 PM EEST on August 13, 2016","2016","08","13","15","00","Europe/Kiev","12:00 PM GMT on August 13, 2016","2016","08","13","12","00","UTC","18.0","64.4","6.0","42.8","45","14.4","8.9","-9999.0","-9999.0","30","NNE","10.0","6.2","1021","30.15","-999","-999","-9999","-9999","-9999.00","-9999.00","Mostly Cloudy","mostlycloudy","0","0","0","0","0","0","METAR UKKK 131200Z 03004MPS 340V060 9999 FEW031CB BKN100 18/06 Q1021 R26/CLRD70 NOSIG"
"3:30 PM EEST on August 13, 2016","2016","08","13","15","30","Europe/Kiev","12:30 PM GMT on August 13, 2016","2016","08","13","12","30","UTC","18.0","64.4","7.0","44.6","49","14.4","8.9","-9999.0","-9999.0","20","NNE","10.0","6.2","1021","30.15","-999","-999","-9999","-9999","-9999.00","-9999.00","Light Rain Showers","rain","0","1","0","0","0","0","METAR UKKK 131230Z 02004MPS 350V050 9999 -SHRA SCT031CB BKN070 18/07 Q1021 R26/190060 NOSIG"
"4:00 PM EEST on August 13, 2016","2016","08","13","16","00","Europe/Kiev","1:00 PM GMT on August 13, 2016","2016","08","13","13","00","UTC","16.0","60.8","8.0","46.4","59","14.4","8.9","-9999.0","-9999.0","90","East","10.0","6.2","1021","30.15","-999","-999","-9999","-9999","-9999.00","-9999.00","Mostly Cloudy","mostlycloudy","0","0","0","0","0","0","METAR UKKK 131300Z 09004MPS 9999 SCT030CB BKN064 16/08 Q1021 R08/190060 NOSIG"
"4:30 PM EEST on August 13, 2016","2016","08","13","16","30","Europe/Kiev","1:30 PM GMT on August 13, 2016","2016","08","13","13","30","UTC","17.0","62.6","8.0","46.4","55","10.8","6.7","-9999.0","-9999.0","110","ESE","10.0","6.2","1021","30.15","-999","-999","-9999","-9999","-9999.00","-9999.00","Mostly Cloudy","mostlycloudy","0","0","0","0","0","0","METAR UKKK 131330Z 11003MPS 080V140 9999 SCT030CB BKN080 17/08 Q1021 R08/190060 NOSIG"
"5:00 PM EEST on August 13, 2016","2016","08","13","17","00","Europe/Kiev","2:00 PM GMT on August 13, 2016","2016","08","13","14","00","UTC","16.0","60.8","8.0","46.4","59","18.0","11.2","-9999.0","-9999.0","100","East","10.0","6.2","1021","30.15","-999","-999","-9999","-9999","-9999.00","-9999.00","Mostly Cloudy","mostlycloudy","0","0","0","0","0","0","METAR UKKK 131400Z 10005MPS 9999 SCT030CB BKN080 16/08 Q1021 R08/190060 NOSIG"
"5:30 PM EEST on August 13, 2016","2016","08","13","17","30","Europe/Kiev","2:30 PM GMT on August 13, 2016","2016","08","13","14","30","UTC","15.0","59.0","9.0","48.2","67","21.6","13.4","-9999.0","-9999.0","70","ENE","10.0","6.2","1021","30.15","-999","-999","-9999","-9999","-9999.00","-9999.00","Mostly Cloudy","mostlycloudy","0","0","0","0","0","0","METAR UKKK 131430Z 07006MPS 9999 SCT030CB BKN080 15/09 Q1021 R08/190060 NOSIG"
"6:00 PM EEST on August 13, 2016","2016","08","13","18","00","Europe/Kiev","3:00 PM GMT on August 13, 2016","2016","08","13","15","00","UTC","14","57","9","49","66","14.4","8.9","","","70","ENE","10","6","1022","30.19","-999","-999","-9999","-9999","","","Light Rain","rain","0","1","0","0","0","0","AAXX 13151 33345 41497 80704 10138 20093 30021 40222 53006 76162 8872/ 333 88713 555 10017"
"6:00 PM EEST on August 13, 2016","2016","08","13","18","00","Europe/Kiev","3:00 PM GMT on August 13, 2016","2016","08","13","15","00","UTC","13.0","55.4","10.0","50.0","82","21.6","13.4","-9999.0","-9999.0","70","ENE","10.0","6.2","1022","30.18","-999","-999","-9999","-9999","-9999.00","-9999.00","Light Rain Showers","rain","0","1","0","0","0","0","METAR UKKK 131500Z 07006MPS 9999 -SHRA SCT030CB BKN080 13/10 Q1022 R08/190060 NOSIG"
"6:30 PM EEST on August 13, 2016","2016","08","13","18","30","Europe/Kiev","3:30 PM GMT on August 13, 2016","2016","08","13","15","30","UTC","13.0","55.4","11.0","51.8","88","14.4","8.9","-9999.0","-9999.0","30","NNE","9.0","5.6","1022","30.18","-999","-999","-9999","-9999","-9999.00","-9999.00","Light Rain Showers","rain","0","1","0","0","0","0","METAR UKKK 131530Z 03004MPS 9000 -SHRA SCT030CB BKN060 13/11 Q1022 R08/290256 NOSIG"
"7:00 PM EEST on August 13, 2016","2016","08","13","19","00","Europe/Kiev","4:00 PM GMT on August 13, 2016","2016","08","13","16","00","UTC","13.0","55.4","11.0","51.8","88","10.8","6.7","-9999.0","-9999.0","250","WSW","10.0","6.2","1021","30.15","-999","-999","-9999","-9999","-9999.00","-9999.00","Light Rain Showers","rain","0","1","0","0","0","0","METAR UKKK 131600Z 25003MPS 190V270 9999 -SHRA SCT030CB BKN060 13/11 Q1021 R26/290256 NOSIG"
"7:30 PM EEST on August 13, 2016","2016","08","13","19","30","Europe/Kiev","4:30 PM GMT on August 13, 2016","2016","08","13","16","30","UTC","13.0","55.4","11.0","51.8","88","7.2","4.5","-9999.0","-9999.0","240","WSW","10.0","6.2","1021","30.15","-999","-999","-9999","-9999","-9999.00","-9999.00","Light Rain Showers","rain","0","1","0","0","0","0","METAR UKKK 131630Z 24002MPS 9999 -SHRA SCT030CB BKN060 13/11 Q1021 R26/290256 NOSIG"
"8:00 PM EEST on August 13, 2016","2016","08","13","20","00","Europe/Kiev","5:00 PM GMT on August 13, 2016","2016","08","13","17","00","UTC","13.0","55.4","11.0","51.8","88","3.6","2.2","-9999.0","-9999.0","0","Variable","10.0","6.2","1021","30.15","-999","-999","-9999","-9999","-9999.00","-9999.00","Light Rain Showers","rain","0","1","0","0","0","0","METAR UKKK 131700Z VRB01MPS 9999 -SHRA SCT030CB BKN060 13/11 Q1021 R26/290256 NOSIG"
"8:30 PM EEST on August 13, 2016","2016","08","13","20","30","Europe/Kiev","5:30 PM GMT on August 13, 2016","2016","08","13","17","30","UTC","13.0","55.4","12.0","53.6","94","3.6","2.2","-9999.0","-9999.0","270","West","10.0","6.2","1021","30.15","-999","-999","-9999","-9999","-9999.00","-9999.00","Light Rain Showers","rain","0","1","0","0","0","0","METAR UKKK 131730Z 27001MPS 9999 -SHRA SCT026CB BKN090 13/12 Q1021 R26/290256 NOSIG"
"9:00 PM EEST on August 13, 2016","2016","08","13","21","00","Europe/Kiev","6:00 PM GMT on August 13, 2016","2016","08","13","18","00","UTC","13","55","11","52","86","0.0","0.0","","","","","10","6","1021","30.16","-999","-999","-9999","-9999","","","Partly Cloudy","partlycloudy","0","0","0","0","0","0","AAXX 13181 33345 11497 80000 10130 20111 30012 40213 58009 60022 70262 886// 333 10186 88713 555 11014"
"9:00 PM EEST on August 13, 2016","2016","08","13","21","00","Europe/Kiev","6:00 PM GMT on August 13, 2016","2016","08","13","18","00","UTC","13.0","55.4","12.0","53.6","94","3.6","2.2","-9999.0","-9999.0","0","Variable","10.0","6.2","1021","30.15","-999","-999","-9999","-9999","-9999.00","-9999.00","Light Rain Showers","rain","0","1","0","0","0","0","METAR UKKK 131800Z VRB01MPS 9999 -SHRA SCT026CB BKN090 13/12 Q1021 R26/290256 NOSIG"
"9:30 PM EEST on August 13, 2016","2016","08","13","21","30","Europe/Kiev","6:30 PM GMT on August 13, 2016","2016","08","13","18","30","UTC","13.0","55.4","12.0","53.6","94","3.6","2.2","-9999.0","-9999.0","0","Variable","9.0","5.6","1021","30.15","-999","-999","-9999","-9999","-9999.00","-9999.00","Light Rain Showers","rain","0","1","0","0","0","0","METAR UKKK 131830Z VRB01MPS 9000 -SHRA SCT026CB BKN090 13/12 Q1021 R26/290256 NOSIG"
"10:00 PM EEST on August 13, 2016","2016","08","13","22","00","Europe/Kiev","7:00 PM GMT on August 13, 2016","2016","08","13","19","00","UTC","13.0","55.4","12.0","53.6","94","0.0","0.0","-9999.0","-9999.0","0","North","10.0","6.2","1021","30.15","-999","-999","-9999","-9999","-9999.00","-9999.00","Light Rain Showers","rain","0","1","0","0","0","0","METAR UKKK 131900Z 00000MPS 9999 -SHRA SCT030CB BKN060 13/12 Q1021 R08/290256 NOSIG"
"10:30 PM EEST on August 13, 2016","2016","08","13","22","30","Europe/Kiev","7:30 PM GMT on August 13, 2016","2016","08","13","19","30","UTC","13.0","55.4","11.0","51.8","88","10.8","6.7","-9999.0","-9999.0","260","West","10.0","6.2","1021","30.15","-999","-999","-9999","-9999","-9999.00","-9999.00","Light Rain Showers","rain","0","1","0","0","0","0","METAR UKKK 131930Z 26003MPS 9999 -SHRA SCT030CB BKN060 13/11 Q1021 R26/290256 NOSIG"
"11:00 PM EEST on August 13, 2016","2016","08","13","23","00","Europe/Kiev","8:00 PM GMT on August 13, 2016","2016","08","13","20","00","UTC","13.0","55.4","11.0","51.8","88","10.8","6.7","-9999.0","-9999.0","250","WSW","10.0","6.2","1020","30.12","-999","-999","-9999","-9999","-9999.00","-9999.00","Mostly Cloudy","mostlycloudy","0","0","0","0","0","0","METAR UKKK 132000Z 25003MPS 9999 SCT030CB BKN080 13/11 Q1020 R26/290256 NOSIG"
"11:30 PM EEST on August 13, 2016","2016","08","13","23","30","Europe/Kiev","8:30 PM GMT on August 13, 2016","2016","08","13","20","30","UTC","13.0","55.4","11.0","51.8","88","10.8","6.7","-9999.0","-9999.0","260","West","10.0","6.2","1020","30.12","-999","-999","-9999","-9999","-9999.00","-9999.00","Mostly Cloudy","mostlycloudy","0","0","0","0","0","0","METAR UKKK 132030Z 26003MPS 9999 SCT030CB BKN080 13/11 Q1020 R26/290256 NOSIG"
"12:00 AM EEST on August 14, 2016","2016","08","14","00","00","Europe/Kiev","9:00 PM GMT on August 13, 2016","2016","08","13","21","00","UTC","13","56","10","51","76","7.2","4.5","","","300","WNW","10","6","1020","30.14","-999","-999","-9999","-9999","","","Overcast","cloudy","0","0","0","0","0","0","AAXX 13211 33345 42497 83002 10132 20103 30003 40204 56009 8662/ 555 11013"
"12:00 AM EEST on August 14, 2016","2016","08","14","00","00","Europe/Kiev","9:00 PM GMT on August 13, 2016","2016","08","13","21","00","UTC","13.0","55.4","11.0","51.8","88","7.2","4.5","-9999.0","-9999.0","250","WSW","10.0","6.2","1020","30.12","-999","-999","-9999","-9999","-9999.00","-9999.00","Mostly Cloudy","mostlycloudy","0","0","0","0","0","0","METAR UKKK 132100Z 25002MPS 9999 SCT030CB BKN080 13/11 Q1020 R26/290256 NOSIG"
"12:30 AM EEST on August 14, 2016","2016","08","14","00","30","Europe/Kiev","9:30 PM GMT on August 13, 2016","2016","08","13","21","30","UTC","13.0","55.4","11.0","51.8","88","10.8","6.7","-9999.0","-9999.0","270","West","-9999.0","-9999.0","1020","30.12","-999","-999","-9999","-9999","-9999.00","-9999.00","Clear","clear","0","0","0","0","0","0","METAR UKKK 132130Z 27003MPS CAVOK 13/11 Q1020 R26/290158 NOSIG"
"1:00 AM EEST on August 14, 2016","2016","08","14","01","00","Europe/Kiev","10:00 PM GMT on August 13, 2016","2016","08","13","22","00","UTC","13.0","55.4","10.0","50.0","82","10.8","6.7","-9999.0","-9999.0","280","West","-9999.0","-9999.0","1020","30.12","-999","-999","-9999","-9999","-9999.00","-9999.00","Clear","clear","0","0","0","0","0","0","METAR UKKK 132200Z 28003MPS CAVOK 13/10 Q1020 R26/290158 NOSIG"
"1:30 AM EEST on August 14, 2016","2016","08","14","01","30","Europe/Kiev","10:30 PM GMT on August 13, 2016","2016","08","13","22","30","UTC","13.0","55.4","11.0","51.8","88","14.4","8.9","-9999.0","-9999.0","270","West","-9999.0","-9999.0","1020","30.12","-999","-999","-9999","-9999","-9999.00","-9999.00","Clear","clear","0","0","0","0","0","0","METAR UKKK 132230Z 27004MPS CAVOK 13/11 Q1020 R26/290158 NOSIG"
"2:00 AM EEST on August 14, 2016","2016","08","14","02","00","Europe/Kiev","11:00 PM GMT on August 13, 2016","2016","08","13","23","00","UTC","13.0","55.4","11.0","51.8","88","10.8","6.7","-9999.0","-9999.0","270","West","-9999.0","-9999.0","1019","30.09","-999","-999","-9999","-9999","-9999.00","-9999.00","Clear","clear","0","0","0","0","0","0","METAR UKKK 132300Z 27003MPS CAVOK 13/11 Q1019 R26/290158 NOSIG"
"2:30 AM EEST on August 14, 2016","2016","08","14","02","30","Europe/Kiev","11:30 PM GMT on August 13, 2016","2016","08","13","23","30","UTC","12.0","53.6","10.0","50.0","88","10.8","6.7","-9999.0","-9999.0","270","West","-9999.0","-9999.0","1019","30.09","-999","-999","-9999","-9999","-9999.00","-9999.00","Clear","clear","0","0","0","0","0","0","METAR UKKK 132330Z 27003MPS CAVOK 12/10 Q1019 R26/290158 NOSIG"
"3:00 AM EEST on August 14, 2016","2016","08","14","03","00","Europe/Kiev","12:00 AM GMT on August 14, 2016","2016","08","14","00","00","UTC","13","56","10","49","71","7.2","4.5","","","320","NW","20","12","1019","30.10","-999","-999","-9999","-9999","","","Mostly Cloudy","mostlycloudy","0","0","0","0","0","0","AAXX 14001 33345 32998 73202 10131 20096 39992 40192 58011 87030 555 11012"
"3:00 AM EEST on August 14, 2016","2016","08","14","03","00","Europe/Kiev","12:00 AM GMT on August 14, 2016","2016","08","14","00","00","UTC","12.0","53.6","10.0","50.0","88","10.8","6.7","-9999.0","-9999.0","270","West","-9999.0","-9999.0","1019","30.09","-999","-999","-9999","-9999","-9999.00","-9999.00","Clear","clear","0","0","0","0","0","0","METAR UKKK 140000Z 27003MPS CAVOK 12/10 Q1019 R26/190060 NOSIG"
"3:30 AM EEST on August 14, 2016","2016","08","14","03","30","Europe/Kiev","12:30 AM GMT on August 14, 2016","2016","08","14","00","30","UTC","12.0","53.6","10.0","50.0","88","10.8","6.7","-9999.0","-9999.0","270","West","-9999.0","-9999.0","1019","30.09","-999","-999","-9999","-9999","-9999.00","-9999.00","Clear","clear","0","0","0","0","0","0","METAR UKKK 140030Z 27003MPS CAVOK 12/10 Q1019 R26/190060 NOSIG"
"4:00 AM EEST on August 14, 2016","2016","08","14","04","00","Europe/Kiev","1:00 AM GMT on August 14, 2016","2016","08","14","01","00","UTC","12.0","53.6","10.0","50.0","88","14.4","8.9","-9999.0","-9999.0","270","West","-9999.0","-9999.0","1019","30.09","-999","-999","-9999","-9999","-9999.00","-9999.00","Clear","clear","0","0","0","0","0","0","METAR UKKK 140100Z 27004MPS CAVOK 12/10 Q1019 R26/190060 NOSIG"
"4:30 AM EEST on August 14, 2016","2016","08","14","04","30","Europe/Kiev","1:30 AM GMT on August 14, 2016","2016","08","14","01","30","UTC","12.0","53.6","10.0","50.0","88","10.8","6.7","-9999.0","-9999.0","260","West","-9999.0","-9999.0","1019","30.09","-999","-999","-9999","-9999","-9999.00","-9999.00","Clear","clear","0","0","0","0","0","0","METAR UKKK 140130Z 26003MPS CAVOK 12/10 Q1019 R26/190060 NOSIG"
"5:00 AM EEST on August 14, 2016","2016","08","14","05","00","Europe/Kiev","2:00 AM GMT on August 14, 2016","2016","08","14","02","00","UTC","12.0","53.6","10.0","50.0","88","10.8","6.7","-9999.0","-9999.0","260","West","-9999.0","-9999.0","1018","30.06","-999","-999","-9999","-9999","-9999.00","-9999.00","Clear","clear","0","0","0","0","0","0","METAR UKKK 140200Z 26003MPS CAVOK 12/10 Q1018 R26/190060 NOSIG"
"5:30 AM EEST on August 14, 2016","2016","08","14","05","30","Europe/Kiev","2:30 AM GMT on August 14, 2016","2016","08","14","02","30","UTC","12.0","53.6","10.0","50.0","88","14.4","8.9","-9999.0","-9999.0","280","West","-9999.0","-9999.0","1019","30.09","-999","-999","-9999","-9999","-9999.00","-9999.00","Clear","clear","0","0","0","0","0","0","METAR UKKK 140230Z 28004MPS CAVOK 12/10 Q1019 R26/190060 NOSIG"
"6:00 AM EEST on August 14, 2016","2016","08","14","06","00","Europe/Kiev","3:00 AM GMT on August 14, 2016","2016","08","14","03","00","UTC","13","55","9","48","70","7.2","4.5","","","330","NNW","20","12","1019","30.08","-999","-999","-9999","-9999","","","Overcast","cloudy","0","0","0","0","0","0","AAXX 14031 33345 42598 83302 10130 20088 39986 40186 57006 8254/ 555 11012"
"6:00 AM EEST on August 14, 2016","2016","08","14","06","00","Europe/Kiev","3:00 AM GMT on August 14, 2016","2016","08","14","03","00","UTC","12.0","53.6","10.0","50.0","88","10.8","6.7","-9999.0","-9999.0","260","West","-9999.0","-9999.0","1018","30.06","-999","-999","-9999","-9999","-9999.00","-9999.00","Clear","clear","0","0","0","0","0","0","METAR UKKK 140300Z 26003MPS CAVOK 12/10 Q1018 R26/190060 NOSIG"
"6:30 AM EEST on August 14, 2016","2016","08","14","06","30","Europe/Kiev","3:30 AM GMT on August 14, 2016","2016","08","14","03","30","UTC","12.0","53.6","10.0","50.0","88","7.2","4.5","-9999.0","-9999.0","250","WSW","10.0","6.2","1018","30.06","-999","-999","-9999","-9999","-9999.00","-9999.00","Mostly Cloudy","mostlycloudy","0","0","0","0","0","0","METAR UKKK 140330Z 25002MPS 9999 FEW030CB BKN100 12/10 Q1018 R26/190060 NOSIG"
"7:00 AM EEST on August 14, 2016","2016","08","14","07","00","Europe/Kiev","4:00 AM GMT on August 14, 2016","2016","08","14","04","00","UTC","12.0","53.6","11.0","51.8","94","3.6","2.2","-9999.0","-9999.0","0","Variable","10.0","6.2","1019","30.09","-999","-999","-9999","-9999","-9999.00","-9999.00","Mostly Cloudy","mostlycloudy","0","0","0","0","0","0","METAR UKKK 140400Z VRB01MPS 9999 FEW030CB BKN100 12/11 Q1019 R26/190060 NOSIG"
"7:30 AM EEST on August 14, 2016","2016","08","14","07","30","Europe/Kiev","4:30 AM GMT on August 14, 2016","2016","08","14","04","30","UTC","14.0","57.2","10.0","50.0","77","7.2","4.5","-9999.0","-9999.0","280","West","-9999.0","-9999.0","1018","30.06","-999","-999","-9999","-9999","-9999.00","-9999.00","Clear","clear","0","0","0","0","0","0","METAR UKKK 140430Z 28002MPS CAVOK 14/10 Q1018 R26/190060 NOSIG"
"8:00 AM EEST on August 14, 2016","2016","08","14","08","00","Europe/Kiev","5:00 AM GMT on August 14, 2016","2016","08","14","05","00","UTC","15.0","59.0","10.0","50.0","72","10.8","6.7","-9999.0","-9999.0","320","NW","-9999.0","-9999.0","1018","30.06","-999","-999","-9999","-9999","-9999.00","-9999.00","Clear","clear","0","0","0","0","0","0","METAR UKKK 140500Z 32003MPS 290V350 CAVOK 15/10 Q1018 R26/190060 NOSIG"
"8:30 AM EEST on August 14, 2016","2016","08","14","08","30","Europe/Kiev","5:30 AM GMT on August 14, 2016","2016","08","14","05","30","UTC","16.0","60.8","9.0","48.2","63","10.8","6.7","-9999.0","-9999.0","300","WNW","-9999.0","-9999.0","1018","30.06","-999","-999","-9999","-9999","-9999.00","-9999.00","Clear","clear","0","0","0","0","0","0","METAR UKKK 140530Z 30003MPS CAVOK 16/09 Q1018 R26/CLRD70 NOSIG"
"9:00 AM EEST on August 14, 2016","2016","08","14","09","00","Europe/Kiev","6:00 AM GMT on August 14, 2016","2016","08","14","06","00","UTC","17","62","8","46","45","7.2","4.5","","","10","North","20","12","1018","30.06","-999","-999","-9999","-9999","","","","","0","0","0","0","0","0","AAXX 14061 33345 32998 00102 10166 20079 39980 40178 57006 333 20125 555 11019"
"9:00 AM EEST on August 14, 2016","2016","08","14","09","00","Europe/Kiev","6:00 AM GMT on August 14, 2016","2016","08","14","06","00","UTC","18.0","64.4","9.0","48.2","56","14.4","8.9","-9999.0","-9999.0","310","NW","-9999.0","-9999.0","1018","30.06","-999","-999","-9999","-9999","-9999.00","-9999.00","Clear","clear","0","0","0","0","0","0","METAR UKKK 140600Z 31004MPS CAVOK 18/09 Q1018 R26/CLRD70 NOSIG"
"9:30 AM EEST on August 14, 2016","2016","08","14","09","30","Europe/Kiev","6:30 AM GMT on August 14, 2016","2016","08","14","06","30","UTC","19.0","66.2","8.0","46.4","49","14.4","8.9","-9999.0","-9999.0","330","NNW","-9999.0","-9999.0","1018","30.06","-999","-999","-9999","-9999","-9999.00","-9999.00","Clear","clear","0","0","0","0","0","0","METAR UKKK 140630Z 33004MPS CAVOK 19/08 Q1018 R26/CLRD70 NOSIG"
"10:00 AM EEST on August 14, 2016","2016","08","14","10","00","Europe/Kiev","7:00 AM GMT on August 14, 2016","2016","08","14","07","00","UTC","19.0","66.2","8.0","46.4","49","18.0","11.2","-9999.0","-9999.0","330","NNW","-9999.0","-9999.0","1018","30.06","-999","-999","-9999","-9999","-9999.00","-9999.00","Clear","clear","0","0","0","0","0","0","METAR UKKK 140700Z 33005MPS CAVOK 19/08 Q1018 R26/CLRD70 NOSIG"
"10:30 AM EEST on August 14, 2016","2016","08","14","10","30","Europe/Kiev","7:30 AM GMT on August 14, 2016","2016","08","14","07","30","UTC","20.0","68.0","9.0","48.2","49","10.8","6.7","-9999.0","-9999.0","350","North","-9999.0","-9999.0","1017","30.04","-999","-999","-9999","-9999","-9999.00","-9999.00","Clear","clear","0","0","0","0","0","0","METAR UKKK 140730Z 35003MPS 290V040 CAVOK 20/09 Q1017 R26/CLRD70 NOSIG"
"11:00 AM EEST on August 14, 2016","2016","08","14","11","00","Europe/Kiev","8:00 AM GMT on August 14, 2016","2016","08","14","08","00","UTC","21.0","69.8","7.0","44.6","40","14.4","8.9","-9999.0","-9999.0","320","NW","-9999.0","-9999.0","1017","30.04","-999","-999","-9999","-9999","-9999.00","-9999.00","Clear","clear","0","0","0","0","0","0","METAR UKKK 140800Z 32004MPS CAVOK 21/07 Q1017 R26/CLRD70 NOSIG"
"11:30 AM EEST on August 14, 2016","2016","08","14","11","30","Europe/Kiev","8:30 AM GMT on August 14, 2016","2016","08","14","08","30","UTC","21.0","69.8","7.0","44.6","40","14.4","8.9","-9999.0","-9999.0","310","NW","-9999.0","-9999.0","1017","30.04","-999","-999","-9999","-9999","-9999.00","-9999.00","Clear","clear","0","0","0","0","0","0","METAR UKKK 140830Z 31004MPS 290V350 CAVOK 21/07 Q1017 R26/CLRD70 NOSIG"
"12:00 PM EEST on August 14, 2016","2016","08","14","12","00","Europe/Kiev","9:00 AM GMT on August 14, 2016","2016","08","14","09","00","UTC","21","70","6","43","27","14.4","8.9","","","30","NNE","20","12","1017","30.03","-999","-999","-9999","-9999","","","Partly Cloudy","partlycloudy","0","0","0","0","0","0","AAXX 14091 33345 42598 50304 10212 20062 39974 40169 57006 84101 555 11034"
"12:00 PM EEST on August 14, 2016","2016","08","14","12","00","Europe/Kiev","9:00 AM GMT on August 14, 2016","2016","08","14","09","00","UTC","22.0","71.6","8.0","46.4","41","14.4","8.9","-9999.0","-9999.0","310","NW","-9999.0","-9999.0","1017","30.04","-999","-999","-9999","-9999","-9999.00","-9999.00","Clear","clear","0","0","0","0","0","0","METAR UKKK 140900Z 31004MPS 280V350 CAVOK 22/08 Q1017 R26/CLRD70 NOSIG"
"12:30 PM EEST on August 14, 2016","2016","08","14","12","30","Europe/Kiev","9:30 AM GMT on August 14, 2016","2016","08","14","09","30","UTC","22.0","71.6","8.0","46.4","41","10.8","6.7","-9999.0","-9999.0","280","West","-9999.0","-9999.0","1017","30.04","-999","-999","-9999","-9999","-9999.00","-9999.00","Clear","clear","0","0","0","0","0","0","METAR UKKK 140930Z 28003MPS 230V340 CAVOK 22/08 Q1017 R26/CLRD70 NOSIG"
"1:00 PM EEST on August 14, 2016","2016","08","14","13","00","Europe/Kiev","10:00 AM GMT on August 14, 2016","2016","08","14","10","00","UTC","22.0","71.6","8.0","46.4","41","18.0","11.2","-9999.0","-9999.0","280","West","-9999.0","-9999.0","1017","30.04","-999","-999","-9999","-9999","-9999.00","-9999.00","Clear","clear","0","0","0","0","0","0","METAR UKKK 141000Z 28005MPS CAVOK 22/08 Q1017 R26/CLRD70 NOSIG"
"1:30 PM EEST on August 14, 2016","2016","08","14","13","30","Europe/Kiev","10:30 AM GMT on August 14, 2016","2016","08","14","10","30","UTC","22.0","71.6","9.0","48.2","43","28.8","17.9","-9999.0","-9999.0","280","West","-9999.0","-9999.0","1017","30.04","-999","-999","-9999","-9999","-9999.00","-9999.00","Clear","clear","0","0","0","0","0","0","METAR UKKK 141030Z 28008MPS CAVOK 22/09 Q1017 R26/CLRD70 NOSIG"
"2:00 PM EEST on August 14, 2016","2016","08","14","14","00","Europe/Kiev","11:00 AM GMT on August 14, 2016","2016","08","14","11","00","UTC","21.0","69.8","9.0","48.2","46","28.8","17.9","-9999.0","-9999.0","290","WNW","-9999.0","-9999.0","1016","30.01","-999","-999","-9999","-9999","-9999.00","-9999.00","Clear","clear","0","0","0","0","0","0","METAR UKKK 141100Z 29008MPS CAVOK 21/09 Q1016 R26/CLRD70 NOSIG"
"2:30 PM EEST on August 14, 2016","2016","08","14","14","30","Europe/Kiev","11:30 AM GMT on August 14, 2016","2016","08","14","11","30","UTC","21.0","69.8","10.0","50.0","49","25.2","15.7","-9999.0","-9999.0","300","WNW","-9999.0","-9999.0","1016","30.01","-999","-999","-9999","-9999","-9999.00","-9999.00","Clear","clear","0","0","0","0","0","0","METAR UKKK 141130Z 30007MPS CAVOK 21/10 Q1016 R26/CLRD70 NOSIG"
"3:00 PM EEST on August 14, 2016","2016","08","14","15","00","Europe/Kiev","12:00 PM GMT on August 14, 2016","2016","08","14","12","00","UTC","21","70","9","49","36","14.4","8.9","","","320","NW","20","12","1016","30.00","-999","-999","-9999","-9999","","","Partly Cloudy","partlycloudy","0","0","0","0","0","0","AAXX 14121 33345 32598 73204 10211 20094 39964 40158 57010 83430 555 10030"
"3:00 PM EEST on August 14, 2016","2016","08","14","15","00","Europe/Kiev","12:00 PM GMT on August 14, 2016","2016","08","14","12","00","UTC","21.0","69.8","10.0","50.0","49","21.6","13.4","-9999.0","-9999.0","290","WNW","-9999.0","-9999.0","1016","30.01","-999","-999","-9999","-9999","-9999.00","-9999.00","Clear","clear","0","0","0","0","0","0","METAR UKKK 141200Z 29006MPS 250V320 CAVOK 21/10 Q1016 R26/CLRD70 NOSIG"
"3:30 PM EEST on August 14, 2016","2016","08","14","15","30","Europe/Kiev","12:30 PM GMT on August 14, 2016","2016","08","14","12","30","UTC","21.0","69.8","10.0","50.0","49","21.6","13.4","-9999.0","-9999.0","290","WNW","-9999.0","-9999.0","1016","30.01","-999","-999","-9999","-9999","-9999.00","-9999.00","Clear","clear","0","0","0","0","0","0","METAR UKKK 141230Z 29006MPS 260V320 CAVOK 21/10 Q1016 R26/CLRD70 NOSIG"
"4:00 PM EEST on August 14, 2016","2016","08","14","16","00","Europe/Kiev","1:00 PM GMT on August 14, 2016","2016","08","14","13","00","UTC","22.0","71.6","11.0","51.8","50","18.0","11.2","-9999.0","-9999.0","300","WNW","-9999.0","-9999.0","1016","30.01","-999","-999","-9999","-9999","-9999.00","-9999.00","Clear","clear","0","0","0","0","0","0","METAR UKKK 141300Z 30005MPS CAVOK 22/11 Q1016 R26/CLRD70 NOSIG"
"4:30 PM EEST on August 14, 2016","2016","08","14","16","30","Europe/Kiev","1:30 PM GMT on August 14, 2016","2016","08","14","13","30","UTC","22.0","71.6","11.0","51.8","50","18.0","11.2","-9999.0","-9999.0","300","WNW","-9999.0","-9999.0","1015","29.98","-999","-999","-9999","-9999","-9999.00","-9999.00","Clear","clear","0","0","0","0","0","0","METAR UKKK 141330Z 30005MPS 270V360 CAVOK 22/11 Q1015 R26/CLRD70 NOSIG"
"5:00 PM EEST on August 14, 2016","2016","08","14","17","00","Europe/Kiev","2:00 PM GMT on August 14, 2016","2016","08","14","14","00","UTC","23.0","73.4","11.0","51.8","47","18.0","11.2","-9999.0","-9999.0","320","NW","-9999.0","-9999.0","1015","29.98","-999","-999","-9999","-9999","-9999.00","-9999.00","Clear","clear","0","0","0","0","0","0","METAR UKKK 141400Z 32005MPS 280V340 CAVOK 23/11 Q1015 R26/CLRD70 NOSIG"
"5:30 PM EEST on August 14, 2016","2016","08","14","17","30","Europe/Kiev","2:30 PM GMT on August 14, 2016","2016","08","14","14","30","UTC","23.0","73.4","12.0","53.6","50","18.0","11.2","-9999.0","-9999.0","300","WNW","-9999.0","-9999.0","1015","29.98","-999","-999","-9999","-9999","-9999.00","-9999.00","Clear","clear","0","0","0","0","0","0","METAR UKKK 141430Z 30005MPS 270V330 CAVOK 23/12 Q1015 R26/CLRD70 NOSIG"
"6:00 PM EEST on August 14, 2016","2016","08","14","18","00","Europe/Kiev","3:00 PM GMT on August 14, 2016","2016","08","14","15","00","UTC","23","74","12","53","37","10.8","6.7","","","330","NNW","20","12","1014","29.95","-999","-999","-9999","-9999","","","Scattered Clouds","partlycloudy","0","0","0","0","0","0","AAXX 14151 33345 42598 53303 10233 20116 39949 40141 57015 82261 555 10028"
"6:00 PM EEST on August 14, 2016","2016","08","14","18","00","Europe/Kiev","3:00 PM GMT on August 14, 2016","2016","08","14","15","00","UTC","22.0","71.6","12.0","53.6","53","18.0","11.2","-9999.0","-9999.0","290","WNW","-9999.0","-9999.0","1014","29.95","-999","-999","-9999","-9999","-9999.00","-9999.00","Clear","clear","0","0","0","0","0","0","METAR UKKK 141500Z 29005MPS CAVOK 22/12 Q1014 R26/CLRD70 NOSIG"
"6:30 PM EEST on August 14, 2016","2016","08","14","18","30","Europe/Kiev","3:30 PM GMT on August 14, 2016","2016","08","14","15","30","UTC","23.0","73.4","12.0","53.6","50","14.4","8.9","-9999.0","-9999.0","290","WNW","9.0","5.6","1014","29.95","-999","-999","-9999","-9999","-9999.00","-9999.00","Unknown","unknown","0","0","0","0","0","0","METAR UKKK 141530Z 29004MPS 9000 NSC 23/12 Q1014 R26/CLRD70 NOSIG"
"7:00 PM EEST on August 14, 2016","2016","08","14","19","00","Europe/Kiev","4:00 PM GMT on August 14, 2016","2016","08","14","16","00","UTC","23.0","73.4","12.0","53.6","50","10.8","6.7","-9999.0","-9999.0","300","WNW","-9999.0","-9999.0","1014","29.95","-999","-999","-9999","-9999","-9999.00","-9999.00","Clear","clear","0","0","0","0","0","0","METAR UKKK 141600Z 30003MPS CAVOK 23/12 Q1014 R26/CLRD70 NOSIG"
"7:30 PM EEST on August 14, 2016","2016","08","14","19","30","Europe/Kiev","4:30 PM GMT on August 14, 2016","2016","08","14","16","30","UTC","22.0","71.6","12.0","53.6","53","10.8","6.7","-9999.0","-9999.0","300","WNW","-9999.0","-9999.0","1014","29.95","-999","-999","-9999","-9999","-9999.00","-9999.00","Clear","clear","0","0","0","0","0","0","METAR UKKK 141630Z 30003MPS CAVOK 22/12 Q1014 R26/CLRD70 NOSIG"
"8:00 PM EEST on August 14, 2016","2016","08","14","20","00","Europe/Kiev","5:00 PM GMT on August 14, 2016","2016","08","14","17","00","UTC","22.0","71.6","13.0","55.4","57","7.2","4.5","-9999.0","-9999.0","270","West","-9999.0","-9999.0","1014","29.95","-999","-999","-9999","-9999","-9999.00","-9999.00","Clear","clear","0","0","0","0","0","0","METAR UKKK 141700Z 27002MPS 250V310 CAVOK 22/13 Q1014 R26/CLRD70 NOSIG"
"8:30 PM EEST on August 14, 2016","2016","08","14","20","30","Europe/Kiev","5:30 PM GMT on August 14, 2016","2016","08","14","17","30","UTC","20.0","68.0","13.0","55.4","64","10.8","6.7","-9999.0","-9999.0","280","West","-9999.0","-9999.0","1014","29.95","-999","-999","-9999","-9999","-9999.00","-9999.00","Clear","clear","0","0","0","0","0","0","METAR UKKK 141730Z 28003MPS CAVOK 20/13 Q1014 R26/CLRD70 NOSIG"
"9:00 PM EEST on August 14, 2016","2016","08","14","21","00","Europe/Kiev","6:00 PM GMT on August 14, 2016","2016","08","14","18","00","UTC","21","69","12","54","50","3.6","2.2","","","310","NW","20","12","1014","29.96","-999","-999","-9999","-9999","","","Scattered Clouds","partlycloudy","0","0","0","0","0","0","AAXX 14181 33345 32598 43101 10208 20125 39949 40143 54000 82460 333 10235 555 10018"
"9:00 PM EEST on August 14, 2016","2016","08","14","21","00","Europe/Kiev","6:00 PM GMT on August 14, 2016","2016","08","14","18","00","UTC","20.0","68.0","13.0","55.4","64","10.8","6.7","-9999.0","-9999.0","270","West","-9999.0","-9999.0","1015","29.98","-999","-999","-9999","-9999","-9999.00","-9999.00","Clear","clear","0","0","0","0","0","0","METAR UKKK 141800Z 27003MPS CAVOK 20/13 Q1015 R26/CLRD70 NOSIG"
"9:30 PM EEST on August 14, 2016","2016","08","14","21","30","Europe/Kiev","6:30 PM GMT on August 14, 2016","2016","08","14","18","30","UTC","19.0","66.2","13.0","55.4","68","10.8","6.7","-9999.0","-9999.0","260","West","-9999.0","-9999.0","1015","29.98","-999","-999","-9999","-9999","-9999.00","-9999.00","Clear","clear","0","0","0","0","0","0","METAR UKKK 141830Z 26003MPS CAVOK 19/13 Q1015 R26/CLRD70 NOSIG"
"10:00 PM EEST on August 14, 2016","2016","08","14","22","00","Europe/Kiev","7:00 PM GMT on August 14, 2016","2016","08","14","19","00","UTC","19.0","66.2","13.0","55.4","68","14.4","8.9","-9999.0","-9999.0","260","West","-9999.0","-9999.0","1015","29.98","-999","-999","-9999","-9999","-9999.00","-9999.00","Clear","clear","0","0","0","0","0","0","METAR UKKK 141900Z 26004MPS CAVOK 19/13 Q1015 R26/CLRD70 NOSIG"
"10:30 PM EEST on August 14, 2016","2016","08","14","22","30","Europe/Kiev","7:30 PM GMT on August 14, 2016","2016","08","14","19","30","UTC","19.0","66.2","13.0","55.4","68","14.4","8.9","-9999.0","-9999.0","290","WNW","-9999.0","-9999.0","1015","29.98","-999","-999","-9999","-9999","-9999.00","-9999.00","Clear","clear","0","0","0","0","0","0","METAR UKKK 141930Z 29004MPS CAVOK 19/13 Q1015 R26/CLRD70 NOSIG"
"11:00 PM EEST on August 14, 2016","2016","08","14","23","00","Europe/Kiev","8:00 PM GMT on August 14, 2016","2016","08","14","20","00","UTC","19.0","66.2","13.0","55.4","68","18.0","11.2","-9999.0","-9999.0","280","West","-9999.0","-9999.0","1015","29.98","-999","-999","-9999","-9999","-9999.00","-9999.00","Clear","clear","0","0","0","0","0","0","METAR UKKK 142000Z 28005MPS CAVOK 19/13 Q1015 R26/CLRD70 NOSIG"
"11:30 PM EEST on August 14, 2016","2016","08","14","23","30","Europe/Kiev","8:30 PM GMT on August 14, 2016","2016","08","14","20","30","UTC","18.0","64.4","14.0","57.2","77","14.4","8.9","-9999.0","-9999.0","260","West","10.0","6.2","1014","29.95","-999","-999","-9999","-9999","-9999.00","-9999.00","Scattered Clouds","partlycloudy","0","0","0","0","0","0","METAR UKKK 142030Z 26004MPS 9999 SCT044 18/14 Q1014 R26/CLRD70 NOSIG"
"12:00 AM EEST on August 15, 2016","2016","08","15","00","00","Europe/Kiev","9:00 PM GMT on August 14, 2016","2016","08","14","21","00","UTC","19","66","14","56","63","10.8","6.7","","","300","WNW","20","12","1014","29.95","-999","-999","-9999","-9999","","","","","0","0","0","0","0","0","AAXX 14211 33345 42998 03003 10188 20136 39945 40140 58004 555 10017"
"12:00 AM EEST on August 15, 2016","2016","08","15","00","00","Europe/Kiev","9:00 PM GMT on August 14, 2016","2016","08","14","21","00","UTC","17.0","62.6","14.0","57.2","82","14.4","8.9","-9999.0","-9999.0","270","West","-9999.0","-9999.0","1014","29.95","-999","-999","-9999","-9999","-9999.00","-9999.00","Clear","clear","0","0","0","0","0","0","METAR UKKK 142100Z 27004MPS CAVOK 17/14 Q1014 R26/CLRD70 NOSIG"
"12:30 AM EEST on August 15, 2016","2016","08","15","00","30","Europe/Kiev","9:30 PM GMT on August 14, 2016","2016","08","14","21","30","UTC","17.0","62.6","14.0","57.2","82","14.4","8.9","-9999.0","-9999.0","270","West","-9999.0","-9999.0","1014","29.95","-999","-999","-9999","-9999","-9999.00","-9999.00","Clear","clear","0","0","0","0","0","0","METAR UKKK 142130Z 27004MPS CAVOK 17/14 Q1014 R26/CLRD70 NOSIG"
"1:00 AM EEST on August 15, 2016","2016","08","15","01","00","Europe/Kiev","10:00 PM GMT on August 14, 2016","2016","08","14","22","00","UTC","17.0","62.6","14.0","57.2","82","14.4","8.9","-9999.0","-9999.0","270","West","-9999.0","-9999.0","1014","29.95","-999","-999","-9999","-9999","-9999.00","-9999.00","Clear","clear","0","0","0","0","0","0","METAR UKKK 142200Z 27004MPS CAVOK 17/14 Q1014 R26/CLRD70 NOSIG"
"1:30 AM EEST on August 15, 2016","2016","08","15","01","30","Europe/Kiev","10:30 PM GMT on August 14, 2016","2016","08","14","22","30","UTC","17.0","62.6","14.0","57.2","82","14.4","8.9","-9999.0","-9999.0","270","West","-9999.0","-9999.0","1014","29.95","-999","-999","-9999","-9999","-9999.00","-9999.00","Clear","clear","0","0","0","0","0","0","METAR UKKK 142230Z 27004MPS CAVOK 17/14 Q1014 R26/CLRD70 NOSIG"
"2:00 AM EEST on August 15, 2016","2016","08","15","02","00","Europe/Kiev","11:00 PM GMT on August 14, 2016","2016","08","14","23","00","UTC","16.0","60.8","14.0","57.2","88","18.0","11.2","-9999.0","-9999.0","290","WNW","-9999.0","-9999.0","1014","29.95","-999","-999","-9999","-9999","-9999.00","-9999.00","Clear","clear","0","0","0","0","0","0","METAR UKKK 142300Z 29005MPS CAVOK 16/14 Q1014 R26/CLRD70 NOSIG"
"2:30 AM EEST on August 15, 2016","2016","08","15","02","30","Europe/Kiev","11:30 PM GMT on August 14, 2016","2016","08","14","23","30","UTC","16.0","60.8","14.0","57.2","88","18.0","11.2","-9999.0","-9999.0","290","WNW","-9999.0","-9999.0","1014","29.95","-999","-999","-9999","-9999","-9999.00","-9999.00","Clear","clear","0","0","0","0","0","0","METAR UKKK 142330Z 29005MPS CAVOK 16/14 Q1014 R26/CLRD70 NOSIG"
"3:00 AM EEST on August 15, 2016","2016","08","15","03","00","Europe/Kiev","12:00 AM GMT on August 15, 2016","2016","08","15","00","00","UTC","17","62","14","57","79","10.8","6.7","","","320","NW","10","6","1014","29.96","-999","-999","-9999","-9999","","","Scattered Clouds","partlycloudy","0","0","0","0","0","0","AAXX 15001 33345 32997 23203 10166 20140 39948 40145 53003 82030 555 10015"
"3:00 AM EEST on August 15, 2016","2016","08","15","03","00","Europe/Kiev","12:00 AM GMT on August 15, 2016","2016","08","15","00","00","UTC","16.0","60.8","14.0","57.2","88","18.0","11.2","-9999.0","-9999.0","290","WNW","-9999.0","-9999.0","1015","29.98","-999","-999","-9999","-9999","-9999.00","-9999.00","Clear","clear","0","0","0","0","0","0","METAR UKKK 150000Z 29005MPS CAVOK 16/14 Q1015 R26/CLRD70 NOSIG"
"3:30 AM EEST on August 15, 2016","2016","08","15","03","30","Europe/Kiev","12:30 AM GMT on August 15, 2016","2016","08","15","00","30","UTC","16.0","60.8","14.0","57.2","88","18.0","11.2","-9999.0","-9999.0","280","West","-9999.0","-9999.0","1015","29.98","-999","-999","-9999","-9999","-9999.00","-9999.00","Clear","clear","0","0","0","0","0","0","METAR UKKK 150030Z 28005MPS CAVOK 16/14 Q1015 R26/CLRD70 NOSIG"
"4:00 AM EEST on August 15, 2016","2016","08","15","04","00","Europe/Kiev","1:00 AM GMT on August 15, 2016","2016","08","15","01","00","UTC","15.0","59.0","14.0","57.2","94","18.0","11.2","-9999.0","-9999.0","290","WNW","10.0","6.2","1015","29.98","-999","-999","-9999","-9999","-9999.00","-9999.00","Scattered Clouds","partlycloudy","0","0","0","0","0","0","METAR UKKK 150100Z 29005MPS 9999 SCT010 15/14 Q1015 R26/CLRD70 NOSIG"
"4:30 AM EEST on August 15, 2016","2016","08","15","04","30","Europe/Kiev","1:30 AM GMT on August 15, 2016","2016","08","15","01","30","UTC","15.0","59.0","14.0","57.2","94","14.4","8.9","-9999.0","-9999.0","300","WNW","-9999.0","-9999.0","1015","29.98","-999","-999","-9999","-9999","-9999.00","-9999.00","Clear","clear","0","0","0","0","0","0","METAR UKKK 150130Z 30004MPS CAVOK 15/14 Q1015 R26/CLRD70 NOSIG"
"5:00 AM EEST on August 15, 2016","2016","08","15","05","00","Europe/Kiev","2:00 AM GMT on August 15, 2016","2016","08","15","02","00","UTC","15.0","59.0","14.0","57.2","94","21.6","13.4","-9999.0","-9999.0","290","WNW","-9999.0","-9999.0","1015","29.98","-999","-999","-9999","-9999","-9999.00","-9999.00","Clear","clear","0","0","0","0","0","0","METAR UKKK 150200Z 29006MPS CAVOK 15/14 Q1015 R26/CLRD70 NOSIG"
"5:30 AM EEST on August 15, 2016","2016","08","15","05","30","Europe/Kiev","2:30 AM GMT on August 15, 2016","2016","08","15","02","30","UTC","15.0","59.0","14.0","57.2","94","18.0","11.2","-9999.0","-9999.0","290","WNW","-9999.0","-9999.0","1015","29.98","-999","-999","-9999","-9999","-9999.00","-9999.00","Clear","clear","0","0","0","0","0","0","METAR UKKK 150230Z 29005MPS CAVOK 15/14 Q1015 R26/CLRD70 NOSIG"
"6:00 AM EEST on August 15, 2016","2016","08","15","06","00","Europe/Kiev","3:00 AM GMT on August 15, 2016","2016","08","15","03","00","UTC","15","60","13","56","83","10.8","6.7","","","340","NNW","4","2","1016","29.99","-999","-999","-9999","-9999","","","Mist","hazy","0","0","0","0","0","0","AAXX 15031 33345 41496 13403 10154 20134 39958 40156 52010 71000 81600 555 10013"
"6:00 AM EEST on August 15, 2016","2016","08","15","06","00","Europe/Kiev","3:00 AM GMT on August 15, 2016","2016","08","15","03","00","UTC","15.0","59.0","14.0","57.2","94","14.4","8.9","-9999.0","-9999.0","290","WNW","-9999.0","-9999.0","1015","29.98","-999","-999","-9999","-9999","-9999.00","-9999.00","Clear","clear","0","0","0","0","0","0","METAR UKKK 150300Z 29004MPS CAVOK 15/14 Q1015 R26/CLRD70 NOSIG"
"6:30 AM EEST on August 15, 2016","2016","08","15","06","30","Europe/Kiev","3:30 AM GMT on August 15, 2016","2016","08","15","03","30","UTC","15.0","59.0","14.0","57.2","94","18.0","11.2","-9999.0","-9999.0","300","WNW","10.0","6.2","1015","29.98","-999","-999","-9999","-9999","-9999.00","-9999.00","Scattered Clouds","partlycloudy","0","0","0","0","0","0","METAR UKKK 150330Z 30005MPS 9999 SCT008 15/14 Q1015 R26/CLRD70 NOSIG"
"7:00 AM EEST on August 15, 2016","2016","08","15","07","00","Europe/Kiev","4:00 AM GMT on August 15, 2016","2016","08","15","04","00","UTC","15.0","59.0","14.0","57.2","94","14.4","8.9","-9999.0","-9999.0","290","WNW","10.0","6.2","1016","30.01","-999","-999","-9999","-9999","-9999.00","-9999.00","Scattered Clouds","partlycloudy","0","0","0","0","0","0","METAR UKKK 150400Z 29004MPS 9999 SCT008 15/14 Q1016 R26/CLRD70 NOSIG"
"7:30 AM EEST on August 15, 2016","2016","08","15","07","30","Europe/Kiev","4:30 AM GMT on August 15, 2016","2016","08","15","04","30","UTC","16.0","60.8","14.0","57.2","88","18.0","11.2","-9999.0","-9999.0","290","WNW","10.0","6.2","1016","30.01","-999","-999","-9999","-9999","-9999.00","-9999.00","Scattered Clouds","partlycloudy","0","0","0","0","0","0","METAR UKKK 150430Z 29005MPS 9999 SCT010 16/14 Q1016 R26/CLRD70 NOSIG"
"8:00 AM EEST on August 15, 2016","2016","08","15","08","00","Europe/Kiev","5:00 AM GMT on August 15, 2016","2016","08","15","05","00","UTC","17.0","62.6","14.0","57.2","82","18.0","11.2","-9999.0","-9999.0","290","WNW","10.0","6.2","1016","30.01","-999","-999","-9999","-9999","-9999.00","-9999.00","Scattered Clouds","partlycloudy","0","0","0","0","0","0","METAR UKKK 150500Z 29005MPS 9999 FEW010 SCT100 17/14 Q1016 R26/CLRD70 NOSIG"
"8:30 AM EEST on August 15, 2016","2016","08","15","08","30","Europe/Kiev","5:30 AM GMT on August 15, 2016","2016","08","15","05","30","UTC","18.0","64.4","14.0","57.2","77","18.0","11.2","-9999.0","-9999.0","290","WNW","-9999.0","-9999.0","1016","30.01","-999","-999","-9999","-9999","-9999.00","-9999.00","Clear","clear","0","0","0","0","0","0","METAR UKKK 150530Z 29005MPS CAVOK 18/14 Q1016 R26/CLRD70 NOSIG"
"9:00 AM EEST on August 15, 2016","2016","08","15","09","00","Europe/Kiev","6:00 AM GMT on August 15, 2016","2016","08","15","06","00","UTC","18","65","13","56","64","10.8","6.7","","","340","NNW","20","12","1016","30.01","-999","-999","-9999","-9999","","","Scattered Clouds","partlycloudy","0","0","0","0","0","0","AAXX 15061 33345 32498 23403 10182 20131 39964 40160 52006 82600 333 20154 555 10024"
"9:00 AM EEST on August 15, 2016","2016","08","15","09","00","Europe/Kiev","6:00 AM GMT on August 15, 2016","2016","08","15","06","00","UTC","18.0","64.4","13.0","55.4","73","21.6","13.4","-9999.0","-9999.0","300","WNW","10.0","6.2","1016","30.01","-999","-999","-9999","-9999","-9999.00","-9999.00","Scattered Clouds","partlycloudy","0","0","0","0","0","0","METAR UKKK 150600Z 30006MPS 9999 SCT019 18/13 Q1016 R26/CLRD70 NOSIG"
"9:30 AM EEST on August 15, 2016","2016","08","15","09","30","Europe/Kiev","6:30 AM GMT on August 15, 2016","2016","08","15","06","30","UTC","19.0","66.2","14.0","57.2","73","21.6","13.4","-9999.0","-9999.0","290","WNW","10.0","6.2","1016","30.01","-999","-999","-9999","-9999","-9999.00","-9999.00","Scattered Clouds","partlycloudy","0","0","0","0","0","0","METAR UKKK 150630Z 29006MPS 9999 SCT021 19/14 Q1016 R26/CLRD70 NOSIG"
"10:00 AM EEST on August 15, 2016","2016","08","15","10","00","Europe/Kiev","7:00 AM GMT on August 15, 2016","2016","08","15","07","00","UTC","20.0","68.0","13.0","55.4","64","25.2","15.7","-9999.0","-9999.0","290","WNW","10.0","6.2","1016","30.01","-999","-999","-9999","-9999","-9999.00","-9999.00","Scattered Clouds","partlycloudy","0","0","0","0","0","0","METAR UKKK 150700Z 29007MPS 260V320 9999 SCT026 20/13 Q1016 R26/CLRD70 NOSIG"
"10:30 AM EEST on August 15, 2016","2016","08","15","10","30","Europe/Kiev","7:30 AM GMT on August 15, 2016","2016","08","15","07","30","UTC","20.0","68.0","12.0","53.6","60","25.2","15.7","-9999.0","-9999.0","290","WNW","10.0","6.2","1016","30.01","-999","-999","-9999","-9999","-9999.00","-9999.00","Scattered Clouds","partlycloudy","0","0","0","0","0","0","METAR UKKK 150730Z 29007MPS 9999 SCT040 20/12 Q1016 R26/CLRD70 NOSIG"
"11:00 AM EEST on August 15, 2016","2016","08","15","11","00","Europe/Kiev","8:00 AM GMT on August 15, 2016","2016","08","15","08","00","UTC","20.0","68.0","12.0","53.6","60","28.8","17.9","-9999.0","-9999.0","300","WNW","10.0","6.2","1016","30.01","-999","-999","-9999","-9999","-9999.00","-9999.00","Scattered Clouds","partlycloudy","0","0","0","0","0","0","METAR UKKK 150800Z 30008MPS 9999 SCT034 20/12 Q1016 R26/CLRD70 NOSIG"
"11:30 AM EEST on August 15, 2016","2016","08","15","11","30","Europe/Kiev","8:30 AM GMT on August 15, 2016","2016","08","15","08","30","UTC","20.0","68.0","11.0","51.8","56","28.8","17.9","-9999.0","-9999.0","310","NW","10.0","6.2","1017","30.04","-999","-999","-9999","-9999","-9999.00","-9999.00","Scattered Clouds","partlycloudy","0","0","0","0","0","0","METAR UKKK 150830Z 31008MPS 9999 SCT038 20/11 Q1017 R26/CLRD70 NOSIG"
"12:00 PM EEST on August 15, 2016","2016","08","15","12","00","Europe/Kiev","9:00 AM GMT on August 15, 2016","2016","08","15","09","00","UTC","21","70","10","50","38","14.4","8.9","","","350","North","20","12","1016","30.02","-999","-999","-9999","-9999","","","Mostly Cloudy","mostlycloudy","0","0","0","0","0","0","AAXX 15091 33345 42598 63504 10210 20099 39970 40165 52006 86500 555 10035"
"12:00 PM EEST on August 15, 2016","2016","08","15","12","00","Europe/Kiev","9:00 AM GMT on August 15, 2016","2016","08","15","09","00","UTC","21.0","69.8","11.0","51.8","53","25.2","15.7","-9999.0","-9999.0","310","NW","10.0","6.2","1017","30.04","-999","-999","-9999","-9999","-9999.00","-9999.00","Mostly Cloudy","mostlycloudy","0","0","0","0","0","0","METAR UKKK 150900Z 31007MPS 9999 BKN044 21/11 Q1017 R26/CLRD70 NOSIG"
"12:30 PM EEST on August 15, 2016","2016","08","15","12","30","Europe/Kiev","9:30 AM GMT on August 15, 2016","2016","08","15","09","30","UTC","21.0","69.8","10.0","50.0","49","25.2","15.7","-9999.0","-9999.0","290","WNW","10.0","6.2","1017","30.04","-999","-999","-9999","-9999","-9999.00","-9999.00","Mostly Cloudy","mostlycloudy","0","0","0","0","0","0","METAR UKKK 150930Z 29007MPS 9999 BKN044 21/10 Q1017 R26/CLRD70 NOSIG"
"1:00 PM EEST on August 15, 2016","2016","08","15","13","00","Europe/Kiev","10:00 AM GMT on August 15, 2016","2016","08","15","10","00","UTC","22.0","71.6","10.0","50.0","46","21.6","13.4","-9999.0","-9999.0","320","NW","10.0","6.2","1017","30.04","-999","-999","-9999","-9999","-9999.00","-9999.00","Mostly Cloudy","mostlycloudy","0","0","0","0","0","0","METAR UKKK 151000Z 32006MPS 280V360 9999 BKN048 22/10 Q1017 R26/CLRD70 NOSIG"
"1:30 PM EEST on August 15, 2016","2016","08","15","13","30","Europe/Kiev","10:30 AM GMT on August 15, 2016","2016","08","15","10","30","UTC","22.0","71.6","10.0","50.0","46","25.2","15.7","46.8","29.1","310","NW","10.0","6.2","1017","30.04","-999","-999","-9999","-9999","-9999.00","-9999.00","Mostly Cloudy","mostlycloudy","0","0","0","0","0","0","METAR UKKK 151030Z 31007G13MPS 270V350 9999 BKN048 22/10 Q1017 R26/CLRD70 NOSIG"
"2:00 PM EEST on August 15, 2016","2016","08","15","14","00","Europe/Kiev","11:00 AM GMT on August 15, 2016","2016","08","15","11","00","UTC","23.0","73.4","9.0","48.2","41","21.6","13.4","-9999.0","-9999.0","320","NW","-9999.0","-9999.0","1017","30.04","-999","-999","-9999","-9999","-9999.00","-9999.00","Clear","clear","0","0","0","0","0","0","METAR UKKK 151100Z 32006MPS 290V360 CAVOK 23/09 Q1017 R26/CLRD70 NOSIG"
"2:30 PM EEST on August 15, 2016","2016","08","15","14","30","Europe/Kiev","11:30 AM GMT on August 15, 2016","2016","08","15","11","30","UTC","22.0","71.6","9.0","48.2","43","28.8","17.9","-9999.0","-9999.0","300","WNW","-9999.0","-9999.0","1017","30.04","-999","-999","-9999","-9999","-9999.00","-9999.00","Clear","clear","0","0","0","0","0","0","METAR UKKK 151130Z 30008MPS CAVOK 22/09 Q1017 R26/CLRD70 NOSIG"
"3:00 PM EEST on August 15, 2016","2016","08","15","15","00","Europe/Kiev","12:00 PM GMT on August 15, 2016","2016","08","15","12","00","UTC","24","75","9","48","27","18.0","11.2","","","310","NW","20","12","1016","30.01","-999","-999","-9999","-9999","","","Partly Cloudy","partlycloudy","0","0","0","0","0","0","AAXX 15121 33345 32598 43105 10237 20089 39970 40163 54000 84800 555 10040"
"3:00 PM EEST on August 15, 2016","2016","08","15","15","00","Europe/Kiev","12:00 PM GMT on August 15, 2016","2016","08","15","12","00","UTC","22.0","71.6","9.0","48.2","43","25.2","15.7","-9999.0","-9999.0","290","WNW","-9999.0","-9999.0","1017","30.04","-999","-999","-9999","-9999","-9999.00","-9999.00","Clear","clear","0","0","0","0","0","0","METAR UKKK 151200Z 29007MPS CAVOK 22/09 Q1017 R26/CLRD70 NOSIG"
"3:30 PM EEST on August 15, 2016","2016","08","15","15","30","Europe/Kiev","12:30 PM GMT on August 15, 2016","2016","08","15","12","30","UTC","23.0","73.4","9.0","48.2","41","21.6","13.4","-9999.0","-9999.0","310","NW","-9999.0","-9999.0","1016","30.01","-999","-999","-9999","-9999","-9999.00","-9999.00","Clear","clear","0","0","0","0","0","0","METAR UKKK 151230Z 31006MPS 270V340 CAVOK 23/09 Q1016 R26/CLRD70 NOSIG"
"4:00 PM EEST on August 15, 2016","2016","08","15","16","00","Europe/Kiev","1:00 PM GMT on August 15, 2016","2016","08","15","13","00","UTC","23.0","73.4","9.0","48.2","41","25.2","15.7","-9999.0","-9999.0","300","WNW","-9999.0","-9999.0","1016","30.01","-999","-999","-9999","-9999","-9999.00","-9999.00","Clear","clear","0","0","0","0","0","0","METAR UKKK 151300Z 30007MPS CAVOK 23/09 Q1016 R26/CLRD70 NOSIG"
"4:30 PM EEST on August 15, 2016","2016","08","15","16","30","Europe/Kiev","1:30 PM GMT on August 15, 2016","2016","08","15","13","30","UTC","22.0","71.6","9.0","48.2","43","25.2","15.7","-9999.0","-9999.0","310","NW","-9999.0","-9999.0","1016","30.01","-999","-999","-9999","-9999","-9999.00","-9999.00","Clear","clear","0","0","0","0","0","0","METAR UKKK 151330Z 31007MPS CAVOK 22/09 Q1016 R26/CLRD70 NOSIG"
"5:00 PM EEST on August 15, 2016","2016","08","15","17","00","Europe/Kiev","2:00 PM GMT on August 15, 2016","2016","08","15","14","00","UTC","23.0","73.4","10.0","50.0","44","18.0","11.2","-9999.0","-9999.0","290","WNW","-9999.0","-9999.0","1016","30.01","-999","-999","-9999","-9999","-9999.00","-9999.00","Clear","clear","0","0","0","0","0","0","METAR UKKK 151400Z 29005MPS CAVOK 23/10 Q1016 R26/CLRD70 NOSIG"
"5:30 PM EEST on August 15, 2016","2016","08","15","17","30","Europe/Kiev","2:30 PM GMT on August 15, 2016","2016","08","15","14","30","UTC","23.0","73.4","9.0","48.2","41","21.6","13.4","-9999.0","-9999.0","280","West","-9999.0","-9999.0","1016","30.01","-999","-999","-9999","-9999","-9999.00","-9999.00","Clear","clear","0","0","0","0","0","0","METAR UKKK 151430Z 28006MPS 240V310 CAVOK 23/09 Q1016 R26/CLRD70 NOSIG"
"6:00 PM EEST on August 15, 2016","2016","08","15","18","00","Europe/Kiev","3:00 PM GMT on August 15, 2016","2016","08","15","15","00","UTC","23","73","10","49","32","10.8","6.7","","","290","WNW","20","12","1016","30.00","-999","-999","-9999","-9999","","","Scattered Clouds","partlycloudy","0","0","0","0","0","0","AAXX 15151 33345 42598 32903 10229 20095 39966 40159 58004 82530 555 10029"
"6:00 PM EEST on August 15, 2016","2016","08","15","18","00","Europe/Kiev","3:00 PM GMT on August 15, 2016","2016","08","15","15","00","UTC","22.0","71.6","10.0","50.0","46","25.2","15.7","-9999.0","-9999.0","280","West","-9999.0","-9999.0","1016","30.01","-999","-999","-9999","-9999","-9999.00","-9999.00","Clear","clear","0","0","0","0","0","0","METAR UKKK 151500Z 28007MPS CAVOK 22/10 Q1016 R26/CLRD70 NOSIG"
"6:30 PM EEST on August 15, 2016","2016","08","15","18","30","Europe/Kiev","3:30 PM GMT on August 15, 2016","2016","08","15","15","30","UTC","21.0","69.8","10.0","50.0","49","21.6","13.4","-9999.0","-9999.0","280","West","-9999.0","-9999.0","1016","30.01","-999","-999","-9999","-9999","-9999.00","-9999.00","Clear","clear","0","0","0","0","0","0","METAR UKKK 151530Z 28006MPS CAVOK 21/10 Q1016 R26/CLRD70 NOSIG"
"7:00 PM EEST on August 15, 2016","2016","08","15","19","00","Europe/Kiev","4:00 PM GMT on August 15, 2016","2016","08","15","16","00","UTC","21.0","69.8","9.0","48.2","46","21.6","13.4","-9999.0","-9999.0","300","WNW","-9999.0","-9999.0","1016","30.01","-999","-999","-9999","-9999","-9999.00","-9999.00","Clear","clear","0","0","0","0","0","0","METAR UKKK 151600Z 30006MPS CAVOK 21/09 Q1016 R26/CLRD70 NOSIG"
"7:30 PM EEST on August 15, 2016","2016","08","15","19","30","Europe/Kiev","4:30 PM GMT on August 15, 2016","2016","08","15","16","30","UTC","20.0","68.0","9.0","48.2","49","18.0","11.2","-9999.0","-9999.0","280","West","-9999.0","-9999.0","1017","30.04","-999","-999","-9999","-9999","-9999.00","-9999.00","Clear","clear","0","0","0","0","0","0","METAR UKKK 151630Z 28005MPS CAVOK 20/09 Q1017 R26/CLRD70 NOSIG"
"8:00 PM EEST on August 15, 2016","2016","08","15","20","00","Europe/Kiev","5:00 PM GMT on August 15, 2016","2016","08","15","17","00","UTC","19.0","66.2","10.0","50.0","56","14.4","8.9","-9999.0","-9999.0","260","West","-9999.0","-9999.0","1016","30.01","-999","-999","-9999","-9999","-9999.00","-9999.00","Clear","clear","0","0","0","0","0","0","METAR UKKK 151700Z 26004MPS CAVOK 19/10 Q1016 R26/CLRD70 NOSIG"
"8:30 PM EEST on August 15, 2016","2016","08","15","20","30","Europe/Kiev","5:30 PM GMT on August 15, 2016","2016","08","15","17","30","UTC","19.0","66.2","9.0","48.2","52","10.8","6.7","-9999.0","-9999.0","270","West","-9999.0","-9999.0","1017","30.04","-999","-999","-9999","-9999","-9999.00","-9999.00","Clear","clear","0","0","0","0","0","0","METAR UKKK 151730Z 27003MPS CAVOK 19/09 Q1017 R26/CLRD70 NOSIG"
"9:00 PM EEST on August 15, 2016","2016","08","15","21","00","Europe/Kiev","6:00 PM GMT on August 15, 2016","2016","08","15","18","00","UTC","19","67","9","48","40","3.6","2.2","","","300","WNW","20","12","1017","30.03","-999","-999","-9999","-9999","","","Mostly Cloudy","mostlycloudy","0","0","0","0","0","0","AAXX 15181 33345 32598 63001 10194 20090 39973 40169 53007 86500 333 10240 555 10019"
"9:00 PM EEST on August 15, 2016","2016","08","15","21","00","Europe/Kiev","6:00 PM GMT on August 15, 2016","2016","08","15","18","00","UTC","18.0","64.4","10.0","50.0","59","10.8","6.7","-9999.0","-9999.0","270","West","-9999.0","-9999.0","1017","30.04","-999","-999","-9999","-9999","-9999.00","-9999.00","Clear","clear","0","0","0","0","0","0","METAR UKKK 151800Z 27003MPS CAVOK 18/10 Q1017 R26/CLRD70 NOSIG"
"9:30 PM EEST on August 15, 2016","2016","08","15","21","30","Europe/Kiev","6:30 PM GMT on August 15, 2016","2016","08","15","18","30","UTC","18.0","64.4","10.0","50.0","59","7.2","4.5","-9999.0","-9999.0","260","West","-9999.0","-9999.0","1017","30.04","-999","-999","-9999","-9999","-9999.00","-9999.00","Clear","clear","0","0","0","0","0","0","METAR UKKK 151830Z 26002MPS CAVOK 18/10 Q1017 R26/CLRD70 NOSIG"
"10:00 PM EEST on August 15, 2016","2016","08","15","22","00","Europe/Kiev","7:00 PM GMT on August 15, 2016","2016","08","15","19","00","UTC","18.0","64.4","10.0","50.0","59","10.8","6.7","-9999.0","-9999.0","270","West","-9999.0","-9999.0","1017","30.04","-999","-999","-9999","-9999","-9999.00","-9999.00","Clear","clear","0","0","0","0","0","0","METAR UKKK 151900Z 27003MPS CAVOK 18/10 Q1017 R26/CLRD70 NOSIG"
"10:30 PM EEST on August 15, 2016","2016","08","15","22","30","Europe/Kiev","7:30 PM GMT on August 15, 2016","2016","08","15","19","30","UTC","17.0","62.6","10.0","50.0","63","10.8","6.7","-9999.0","-9999.0","260","West","-9999.0","-9999.0","1017","30.04","-999","-999","-9999","-9999","-9999.00","-9999.00","Clear","clear","0","0","0","0","0","0","METAR UKKK 151930Z 26003MPS CAVOK 17/10 Q1017 R26/CLRD70 NOSIG"
"11:00 PM EEST on August 15, 2016","2016","08","15","23","00","Europe/Kiev","8:00 PM GMT on August 15, 2016","2016","08","15","20","00","UTC","16.0","60.8","10.0","50.0","68","10.8","6.7","-9999.0","-9999.0","270","West","-9999.0","-9999.0","1017","30.04","-999","-999","-9999","-9999","-9999.00","-9999.00","Clear","clear","0","0","0","0","0","0","METAR UKKK 152000Z 27003MPS CAVOK 16/10 Q1017 R26/CLRD70 NOSIG"
"11:30 PM EEST on August 15, 2016","2016","08","15","23","30","Europe/Kiev","8:30 PM GMT on August 15, 2016","2016","08","15","20","30","UTC","16.0","60.8","10.0","50.0","68","7.2","4.5","-9999.0","-9999.0","260","West","-9999.0","-9999.0","1017","30.04","-999","-999","-9999","-9999","-9999.00","-9999.00","Clear","clear","0","0","0","0","0","0","METAR UKKK 152030Z 26002MPS CAVOK 16/10 Q1017 R26/CLRD70 NOSIG"
"12:00 AM EEST on August 16, 2016","2016","08","16","00","00","Europe/Kiev","9:00 PM GMT on August 15, 2016","2016","08","15","21","00","UTC","17","62","10","51","58","3.6","2.2","","","310","NW","20","12","1017","30.03","-999","-999","-9999","-9999","","","","","0","0","0","0","0","0","AAXX 15211 33345 42998 03101 10167 20105 39972 40169 58001 555 10014"
"12:00 AM EEST on August 16, 2016","2016","08","16","00","00","Europe/Kiev","9:00 PM GMT on August 15, 2016","2016","08","15","21","00","UTC","15.0","59.0","10.0","50.0","72","10.8","6.7","-9999.0","-9999.0","260","West","-9999.0","-9999.0","1017","30.04","-999","-999","-9999","-9999","-9999.00","-9999.00","Clear","clear","0","0","0","0","0","0","METAR UKKK 152100Z 26003MPS CAVOK 15/10 Q1017 R26/CLRD70 NOSIG"
"12:30 AM EEST on August 16, 2016","2016","08","16","00","30","Europe/Kiev","9:30 PM GMT on August 15, 2016","2016","08","15","21","30","UTC","15.0","59.0","10.0","50.0","72","7.2","4.5","-9999.0","-9999.0","270","West","-9999.0","-9999.0","1017","30.04","-999","-999","-9999","-9999","-9999.00","-9999.00","Clear","clear","0","0","0","0","0","0","METAR UKKK 152130Z 27002MPS CAVOK 15/10 Q1017 R26/CLRD70 NOSIG"
"1:00 AM EEST on August 16, 2016","2016","08","16","01","00","Europe/Kiev","10:00 PM GMT on August 15, 2016","2016","08","15","22","00","UTC","14.0","57.2","10.0","50.0","77","7.2","4.5","-9999.0","-9999.0","250","WSW","-9999.0","-9999.0","1017","30.04","-999","-999","-9999","-9999","-9999.00","-9999.00","Clear","clear","0","0","0","0","0","0","METAR UKKK 152200Z 25002MPS CAVOK 14/10 Q1017 R26/CLRD70 NOSIG"
"1:30 AM EEST on August 16, 2016","2016","08","16","01","30","Europe/Kiev","10:30 PM GMT on August 15, 2016","2016","08","15","22","30","UTC","13.0","55.4","10.0","50.0","82","7.2","4.5","-9999.0","-9999.0","260","West","-9999.0","-9999.0","1017","30.04","-999","-999","-9999","-9999","-9999.00","-9999.00","Clear","clear","0","0","0","0","0","0","METAR UKKK 152230Z 26002MPS CAVOK 13/10 Q1017 R26/CLRD70 NOSIG"
"2:00 AM EEST on August 16, 2016","2016","08","16","02","00","Europe/Kiev","11:00 PM GMT on August 15, 2016","2016","08","15","23","00","UTC","14.0","57.2","10.0","50.0","77","7.2","4.5","-9999.0","-9999.0","240","WSW","-9999.0","-9999.0","1017","30.04","-999","-999","-9999","-9999","-9999.00","-9999.00","Clear","clear","0","0","0","0","0","0","METAR UKKK 152300Z 24002MPS CAVOK 14/10 Q1017 R26/CLRD70 NOSIG"
"2:30 AM EEST on August 16, 2016","2016","08","16","02","30","Europe/Kiev","11:30 PM GMT on August 15, 2016","2016","08","15","23","30","UTC","13.0","55.4","10.0","50.0","82","7.2","4.5","-9999.0","-9999.0","250","WSW","-9999.0","-9999.0","1017","30.04","-999","-999","-9999","-9999","-9999.00","-9999.00","Clear","clear","0","0","0","0","0","0","METAR UKKK 152330Z 25002MPS CAVOK 13/10 Q1017 R26/CLRD70 NOSIG"
"3:00 AM EEST on August 16, 2016","2016","08","16","03","00","Europe/Kiev","12:00 AM GMT on August 16, 2016","2016","08","16","00","00","UTC","14","57","10","50","71","3.6","2.2","","","350","North","20","12","1017","30.03","-999","-999","-9999","-9999","","","Scattered Clouds","partlycloudy","0","0","0","0","0","0","AAXX 16001 33345 32598 23501 10141 20101 39968 40167 57004 82500 555 10013"
"3:00 AM EEST on August 16, 2016","2016","08","16","03","00","Europe/Kiev","12:00 AM GMT on August 16, 2016","2016","08","16","00","00","UTC","13.0","55.4","10.0","50.0","82","7.2","4.5","-9999.0","-9999.0","230","SW","-9999.0","-9999.0","1016","30.01","-999","-999","-9999","-9999","-9999.00","-9999.00","Clear","clear","0","0","0","0","0","0","METAR UKKK 160000Z 23002MPS CAVOK 13/10 Q1016 R26/CLRD70 NOSIG"
"3:30 AM EEST on August 16, 2016","2016","08","16","03","30","Europe/Kiev","12:30 AM GMT on August 16, 2016","2016","08","16","00","30","UTC","13.0","55.4","10.0","50.0","82","7.2","4.5","-9999.0","-9999.0","230","SW","-9999.0","-9999.0","1016","30.01","-999","-999","-9999","-9999","-9999.00","-9999.00","Clear","clear","0","0","0","0","0","0","METAR UKKK 160030Z 23002MPS CAVOK 13/10 Q1016 R26/CLRD70 NOSIG"
"4:00 AM EEST on August 16, 2016","2016","08","16","04","00","Europe/Kiev","1:00 AM GMT on August 16, 2016","2016","08","16","01","00","UTC","13.0","55.4","11.0","51.8","88","7.2","4.5","-9999.0","-9999.0","230","SW","-9999.0","-9999.0","1016","30.01","-999","-999","-9999","-9999","-9999.00","-9999.00","Clear","clear","0","0","0","0","0","0","METAR UKKK 160100Z 23002MPS CAVOK 13/11 Q1016 R26/CLRD70 NOSIG"
"4:30 AM EEST on August 16, 2016","2016","08","16","04","30","Europe/Kiev","1:30 AM GMT on August 16, 2016","2016","08","16","01","30","UTC","11.0","51.8","10.0","50.0","94","7.2","4.5","-9999.0","-9999.0","250","WSW","-9999.0","-9999.0","1016","30.01","-999","-999","-9999","-9999","-9999.00","-9999.00","Clear","clear","0","0","0","0","0","0","METAR UKKK 160130Z 25002MPS CAVOK 11/10 Q1016 R26/CLRD70 NOSIG"
"5:00 AM EEST on August 16, 2016","2016","08","16","05","00","Europe/Kiev","2:00 AM GMT on August 16, 2016","2016","08","16","02","00","UTC","11.0","51.8","10.0","50.0","94","7.2","4.5","-9999.0","-9999.0","230","SW","-9999.0","-9999.0","1016","30.01","-999","-999","-9999","-9999","-9999.00","-9999.00","Clear","clear","0","0","0","0","0","0","METAR UKKK 160200Z 23002MPS CAVOK 11/10 Q1016 R26/CLRD70 NOSIG"
"5:30 AM EEST on August 16, 2016","2016","08","16","05","30","Europe/Kiev","2:30 AM GMT on August 16, 2016","2016","08","16","02","30","UTC","10.0","50.0","10.0","50.0","100","7.2","4.5","-9999.0","-9999.0","250","WSW","-9999.0","-9999.0","1016","30.01","-999","-999","-9999","-9999","-9999.00","-9999.00","Clear","clear","0","0","0","0","0","0","METAR UKKK 160230Z 25002MPS CAVOK 10/10 Q1016 R26/CLRD70 NOSIG"
"6:00 AM EEST on August 16, 2016","2016","08","16","06","00","Europe/Kiev","3:00 AM GMT on August 16, 2016","2016","08","16","03","00","UTC","14","56","10","50","75","7.2","4.5","","","330","NNW","20","12","1016","30.02","-999","-999","-9999","-9999","","","","","0","0","0","0","0","0","AAXX 16031 33345 42998 03302 10136 20101 39965 40164 57003 555 10011"
"6:00 AM EEST on August 16, 2016","2016","08","16","06","00","Europe/Kiev","3:00 AM GMT on August 16, 2016","2016","08","16","03","00","UTC","10.0","50.0","10.0","50.0","100","3.6","2.2","-9999.0","-9999.0","250","WSW","-9999.0","-9999.0","1016","30.01","-999","-999","-9999","-9999","-9999.00","-9999.00","Clear","clear","0","0","0","0","0","0","METAR UKKK 160300Z 25001MPS CAVOK 10/10 Q1016 R26/CLRD70 NOSIG"
"6:30 AM EEST on August 16, 2016","2016","08","16","06","30","Europe/Kiev","3:30 AM GMT on August 16, 2016","2016","08","16","03","30","UTC","11.0","51.8","10.0","50.0","94","3.6","2.2","-9999.0","-9999.0","210","SSW","-9999.0","-9999.0","1016","30.01","-999","-999","-9999","-9999","-9999.00","-9999.00","Clear","clear","0","0","0","0","0","0","METAR UKKK 160330Z 21001MPS CAVOK 11/10 Q1016 R26/CLRD70 NOSIG"
"7:00 AM EEST on August 16, 2016","2016","08","16","07","00","Europe/Kiev","4:00 AM GMT on August 16, 2016","2016","08","16","04","00","UTC","13.0","55.4","11.0","51.8","88","7.2","4.5","-9999.0","-9999.0","240","WSW","-9999.0","-9999.0","1016","30.01","-999","-999","-9999","-9999","-9999.00","-9999.00","Clear","clear","0","0","0","0","0","0","METAR UKKK 160400Z 24002MPS CAVOK 13/11 Q1016 R26/CLRD70 NOSIG"
"7:30 AM EEST on August 16, 2016","2016","08","16","07","30","Europe/Kiev","4:30 AM GMT on August 16, 2016","2016","08","16","04","30","UTC","14.0","57.2","11.0","51.8","82","7.2","4.5","-9999.0","-9999.0","260","West","-9999.0","-9999.0","1016","30.01","-999","-999","-9999","-9999","-9999.00","-9999.00","Clear","clear","0","0","0","0","0","0","METAR UKKK 160430Z 26002MPS CAVOK 14/11 Q1016 R26/CLRD70 NOSIG"
"8:00 AM EEST on August 16, 2016","2016","08","16","08","00","Europe/Kiev","5:00 AM GMT on August 16, 2016","2016","08","16","05","00","UTC","15.0","59.0","12.0","53.6","82","7.2","4.5","-9999.0","-9999.0","240","WSW","-9999.0","-9999.0","1016","30.01","-999","-999","-9999","-9999","-9999.00","-9999.00","Clear","clear","0","0","0","0","0","0","METAR UKKK 160500Z 24002MPS CAVOK 15/12 Q1016 R26/CLRD70 NOSIG"
"8:30 AM EEST on August 16, 2016","2016","08","16","08","30","Europe/Kiev","5:30 AM GMT on August 16, 2016","2016","08","16","05","30","UTC","17.0","62.6","12.0","53.6","72","3.6","2.2","-9999.0","-9999.0","0","Variable","-9999.0","-9999.0","1016","30.01","-999","-999","-9999","-9999","-9999.00","-9999.00","Clear","clear","0","0","0","0","0","0","METAR UKKK 160530Z VRB01MPS CAVOK 17/12 Q1016 R26/CLRD70 NOSIG"
"9:00 AM EEST on August 16, 2016","2016","08","16","09","00","Europe/Kiev","6:00 AM GMT on August 16, 2016","2016","08","16","06","00","UTC","18","65","11","52","54","7.2","4.5","","","280","West","20","12","1016","30.00","-999","-999","-9999","-9999","","","Clear","clear","0","0","0","0","0","0","AAXX 16061 33345 32998 32802 10184 20113 39962 40158 57003 80001 333 20131 555 10026"
"9:00 AM EEST on August 16, 2016","2016","08","16","09","00","Europe/Kiev","6:00 AM GMT on August 16, 2016","2016","08","16","06","00","UTC","18.0","64.4","11.0","51.8","64","7.2","4.5","-9999.0","-9999.0","270","West","-9999.0","-9999.0","1016","30.01","-999","-999","-9999","-9999","-9999.00","-9999.00","Clear","clear","0","0","0","0","0","0","METAR UKKK 160600Z 27002MPS 220V320 CAVOK 18/11 Q1016 R26/CLRD70 NOSIG"
"9:30 AM EEST on August 16, 2016","2016","08","16","09","30","Europe/Kiev","6:30 AM GMT on August 16, 2016","2016","08","16","06","30","UTC","19.0","66.2","10.0","50.0","56","7.2","4.5","-9999.0","-9999.0","300","WNW","-9999.0","-9999.0","1016","30.01","-999","-999","-9999","-9999","-9999.00","-9999.00","Clear","clear","0","0","0","0","0","0","METAR UKKK 160630Z 30002MPS 270V360 CAVOK 19/10 Q1016 R26/CLRD70 NOSIG"
"10:00 AM EEST on August 16, 2016","2016","08","16","10","00","Europe/Kiev","7:00 AM GMT on August 16, 2016","2016","08","16","07","00","UTC","20.0","68.0","11.0","51.8","56","7.2","4.5","-9999.0","-9999.0","270","West","-9999.0","-9999.0","1016","30.01","-999","-999","-9999","-9999","-9999.00","-9999.00","Clear","clear","0","0","0","0","0","0","METAR UKKK 160700Z 27002MPS 220V310 CAVOK 20/11 Q1016 R26/CLRD70 NOSIG"
"10:30 AM EEST on August 16, 2016","2016","08","16","10","30","Europe/Kiev","7:30 AM GMT on August 16, 2016","2016","08","16","07","30","UTC","20.0","68.0","10.0","50.0","52","10.8","6.7","-9999.0","-9999.0","230","SW","10.0","6.2","1016","30.01","-999","-999","-9999","-9999","-9999.00","-9999.00","Partly Cloudy","partlycloudy","0","0","0","0","0","0","METAR UKKK 160730Z 23003MPS 180V280 9999 FEW030 20/10 Q1016 R26/CLRD70 NOSIG"
"11:00 AM EEST on August 16, 2016","2016","08","16","11","00","Europe/Kiev","8:00 AM GMT on August 16, 2016","2016","08","16","08","00","UTC","21.0","69.8","10.0","50.0","49","14.4","8.9","-9999.0","-9999.0","220","SW","10.0","6.2","1015","29.98","-999","-999","-9999","-9999","-9999.00","-9999.00","Scattered Clouds","partlycloudy","0","0","0","0","0","0","METAR UKKK 160800Z 22004MPS 170V270 9999 FEW030 SCT100 21/10 Q1015 R26/CLRD70 NOSIG"
"11:30 AM EEST on August 16, 2016","2016","08","16","11","30","Europe/Kiev","8:30 AM GMT on August 16, 2016","2016","08","16","08","30","UTC","21.0","69.8","9.0","48.2","46","14.4","8.9","-9999.0","-9999.0","240","WSW","10.0","6.2","1015","29.98","-999","-999","-9999","-9999","-9999.00","-9999.00","Scattered Clouds","partlycloudy","0","0","0","0","0","0","METAR UKKK 160830Z 24004MPS 190V290 9999 FEW030 SCT100 21/09 Q1015 R26/CLRD70 NOSIG"
"12:00 PM EEST on August 16, 2016","2016","08","16","12","00","Europe/Kiev","9:00 AM GMT on August 16, 2016","2016","08","16","09","00","UTC","21","71","8","47","31","25.2","15.7","","","240","WSW","20","12","1015","29.97","-999","-999","-9999","-9999","","","Mostly Cloudy","mostlycloudy","0","0","0","0","0","0","AAXX 16091 33345 42598 62407 10214 20083 39955 40149 57007 86801 555 10034"
"12:00 PM EEST on August 16, 2016","2016","08","16","12","00","Europe/Kiev","9:00 AM GMT on August 16, 2016","2016","08","16","09","00","UTC","22.0","71.6","9.0","48.2","43","14.4","8.9","-9999.0","-9999.0","230","SW","-9999.0","-9999.0","1015","29.98","-999","-999","-9999","-9999","-9999.00","-9999.00","Clear","clear","0","0","0","0","0","0","METAR UKKK 160900Z 23004MPS 180V270 CAVOK 22/09 Q1015 R26/CLRD70 NOSIG"
"12:30 PM EEST on August 16, 2016","2016","08","16","12","30","Europe/Kiev","9:30 AM GMT on August 16, 2016","2016","08","16","09","30","UTC","22.0","71.6","9.0","48.2","43","14.4","8.9","-9999.0","-9999.0","270","West","-9999.0","-9999.0","1015","29.98","-999","-999","-9999","-9999","-9999.00","-9999.00","Clear","clear","0","0","0","0","0","0","METAR UKKK 160930Z 27004MPS CAVOK 22/09 Q1015 R26/CLRD70 NOSIG"
"1:00 PM EEST on August 16, 2016","2016","08","16","13","00","Europe/Kiev","10:00 AM GMT on August 16, 2016","2016","08","16","10","00","UTC","23.0","73.4","9.0","48.2","41","14.4","8.9","-9999.0","-9999.0","230","SW","-9999.0","-9999.0","1015","29.98","-999","-999","-9999","-9999","-9999.00","-9999.00","Clear","clear","0","0","0","0","0","0","METAR UKKK 161000Z 23004MPS 160V280 CAVOK 23/09 Q1015 R26/CLRD70 NOSIG"
"1:30 PM EEST on August 16, 2016","2016","08","16","13","30","Europe/Kiev","10:30 AM GMT on August 16, 2016","2016","08","16","10","30","UTC","22.0","71.6","9.0","48.2","43","14.4","8.9","-9999.0","-9999.0","260","West","-9999.0","-9999.0","1014","29.95","-999","-999","-9999","-9999","-9999.00","-9999.00","Clear","clear","0","0","0","0","0","0","METAR UKKK 161030Z 26004MPS CAVOK 22/09 Q1014 R26/CLRD70 NOSIG"
"2:00 PM EEST on August 16, 2016","2016","08","16","14","00","Europe/Kiev","11:00 AM GMT on August 16, 2016","2016","08","16","11","00","UTC","21.0","69.8","9.0","48.2","46","10.8","6.7","-9999.0","-9999.0","230","SW","-9999.0","-9999.0","1014","29.95","-999","-999","-9999","-9999","-9999.00","-9999.00","Clear","clear","0","0","0","0","0","0","METAR UKKK 161100Z 23003MPS 180V280 CAVOK 21/09 Q1014 R26/CLRD70 NOSIG"
"2:30 PM EEST on August 16, 2016","2016","08","16","14","30","Europe/Kiev","11:30 AM GMT on August 16, 2016","2016","08","16","11","30","UTC","21.0","69.8","9.0","48.2","46","14.4","8.9","-9999.0","-9999.0","250","WSW","10.0","6.2","1014","29.95","-999","-999","-9999","-9999","-9999.00","-9999.00","Mostly Cloudy","mostlycloudy","0","0","0","0","0","0","METAR UKKK 161130Z 25004MPS 9999 FEW028CB BKN040 21/09 Q1014 R26/CLRD70 NOSIG"
"3:00 PM EEST on August 16, 2016","2016","08","16","15","00","Europe/Kiev","12:00 PM GMT on August 16, 2016","2016","08","16","12","00","UTC","23","73","8","46","26","14.4","8.9","","","270","West","20","12","1014","29.94","-999","-999","-9999","-9999","","","Mostly Cloudy","mostlycloudy","0","0","0","0","0","0","AAXX 16121 33345 32598 72704 10226 20075 39944 40137 57011 87900 555 10032"
"3:00 PM EEST on August 16, 2016","2016","08","16","15","00","Europe/Kiev","12:00 PM GMT on August 16, 2016","2016","08","16","12","00","UTC","23.0","73.4","10.0","50.0","44","14.4","8.9","-9999.0","-9999.0","250","WSW","10.0","6.2","1014","29.95","-999","-999","-9999","-9999","-9999.00","-9999.00","Mostly Cloudy","mostlycloudy","0","0","0","0","0","0","METAR UKKK 161200Z 25004MPS 210V270 9999 FEW040 BKN100 23/10 Q1014 R26/CLRD70 NOSIG"
"3:30 PM EEST on August 16, 2016","2016","08","16","15","30","Europe/Kiev","12:30 PM GMT on August 16, 2016","2016","08","16","12","30","UTC","22.0","71.6","9.0","48.2","43","10.8","6.7","-9999.0","-9999.0","240","WSW","10.0","6.2","1014","29.95","-999","-999","-9999","-9999","-9999.00","-9999.00","Mostly Cloudy","mostlycloudy","0","0","0","0","0","0","METAR UKKK 161230Z 24003MPS 190V280 9999 FEW040 BKN100 22/09 Q1014 R26/CLRD70 NOSIG"
"4:00 PM EEST on August 16, 2016","2016","08","16","16","00","Europe/Kiev","1:00 PM GMT on August 16, 2016","2016","08","16","13","00","UTC","22.0","71.6","8.0","46.4","41","7.2","4.5","-9999.0","-9999.0","230","SW","10.0","6.2","1013","29.92","-999","-999","-9999","-9999","-9999.00","-9999.00","Mostly Cloudy","mostlycloudy","0","0","0","0","0","0","METAR UKKK 161300Z 23002MPS 200V270 9999 FEW040 BKN100 22/08 Q1013 R26/CLRD70 NOSIG"
"4:30 PM EEST on August 16, 2016","2016","08","16","16","30","Europe/Kiev","1:30 PM GMT on August 16, 2016","2016","08","16","13","30","UTC","22.0","71.6","9.0","48.2","43","14.4","8.9","-9999.0","-9999.0","230","SW","10.0","6.2","1013","29.92","-999","-999","-9999","-9999","-9999.00","-9999.00","Mostly Cloudy","mostlycloudy","0","0","0","0","0","0","METAR UKKK 161330Z 23004MPS 180V260 9999 FEW040 BKN100 22/09 Q1013 R26/CLRD70 NOSIG"
"5:00 PM EEST on August 16, 2016","2016","08","16","17","00","Europe/Kiev","2:00 PM GMT on August 16, 2016","2016","08","16","14","00","UTC","22.0","71.6","9.0","48.2","43","10.8","6.7","-9999.0","-9999.0","270","West","10.0","6.2","1013","29.92","-999","-999","-9999","-9999","-9999.00","-9999.00","Mostly Cloudy","mostlycloudy","0","0","0","0","0","0","METAR UKKK 161400Z 27003MPS 230V320 9999 FEW040 BKN100 22/09 Q1013 R26/CLRD70 NOSIG"
"5:30 PM EEST on August 16, 2016","2016","08","16","17","30","Europe/Kiev","2:30 PM GMT on August 16, 2016","2016","08","16","14","30","UTC","23.0","73.4","9.0","48.2","41","18.0","11.2","36.0","22.4","310","NW","10.0","6.2","1014","29.95","-999","-999","-9999","-9999","-9999.00","-9999.00","Mostly Cloudy","mostlycloudy","0","0","0","0","0","0","METAR UKKK 161430Z 31005G10MPS 280V340 9999 FEW040 BKN100 23/09 Q1014 R26/CLRD70 NOSIG"
"6:00 PM EEST on August 16, 2016","2016","08","16","18","00","Europe/Kiev","3:00 PM GMT on August 16, 2016","2016","08","16","15","00","UTC","23","73","8","47","29","7.2","4.5","","","340","NNW","20","12","1013","29.92","-999","-999","-9999","-9999","","","Mostly Cloudy","mostlycloudy","0","0","0","0","0","0","AAXX 16151 33345 42598 73402 10227 20084 39938 40131 57006 87900 555 10029"
"6:00 PM EEST on August 16, 2016","2016","08","16","18","00","Europe/Kiev","3:00 PM GMT on August 16, 2016","2016","08","16","15","00","UTC","22.0","71.6","10.0","50.0","46","18.0","11.2","-9999.0","-9999.0","290","WNW","10.0","6.2","1013","29.92","-999","-999","-9999","-9999","-9999.00","-9999.00","Mostly Cloudy","mostlycloudy","0","0","0","0","0","0","METAR UKKK 161500Z 29005MPS 260V320 9999 FEW040 BKN100 22/10 Q1013 R26/CLRD70 NOSIG"
"6:30 PM EEST on August 16, 2016","2016","08","16","18","30","Europe/Kiev","3:30 PM GMT on August 16, 2016","2016","08","16","15","30","UTC","21.0","69.8","9.0","48.2","46","21.6","13.4","-9999.0","-9999.0","310","NW","10.0","6.2","1014","29.95","-999","-999","-9999","-9999","-9999.00","-9999.00","Mostly Cloudy","mostlycloudy","0","0","0","0","0","0","METAR UKKK 161530Z 31006MPS 9999 FEW040 BKN100 21/09 Q1014 R26/CLRD70 NOSIG"
"7:00 PM EEST on August 16, 2016","2016","08","16","19","00","Europe/Kiev","4:00 PM GMT on August 16, 2016","2016","08","16","16","00","UTC","20.0","68.0","8.0","46.4","46","10.8","6.7","-9999.0","-9999.0","290","WNW","9.0","5.6","1014","29.95","-999","-999","-9999","-9999","-9999.00","-9999.00","Mostly Cloudy","mostlycloudy","0","0","0","0","0","0","METAR UKKK 161600Z 29003MPS 9000 FEW040 BKN100 20/08 Q1014 R26/CLRD70 NOSIG"
"7:30 PM EEST on August 16, 2016","2016","08","16","19","30","Europe/Kiev","4:30 PM GMT on August 16, 2016","2016","08","16","16","30","UTC","20.0","68.0","9.0","48.2","49","10.8","6.7","-9999.0","-9999.0","290","WNW","10.0","6.2","1014","29.95","-999","-999","-9999","-9999","-9999.00","-9999.00","Mostly Cloudy","mostlycloudy","0","0","0","0","0","0","METAR UKKK 161630Z 29003MPS 9999 FEW046 BKN100 20/09 Q1014 R26/CLRD70 NOSIG"
"8:00 PM EEST on August 16, 2016","2016","08","16","20","00","Europe/Kiev","5:00 PM GMT on August 16, 2016","2016","08","16","17","00","UTC","20.0","68.0","9.0","48.2","49","10.8","6.7","-9999.0","-9999.0","290","WNW","10.0","6.2","1014","29.95","-999","-999","-9999","-9999","-9999.00","-9999.00","Mostly Cloudy","mostlycloudy","0","0","0","0","0","0","METAR UKKK 161700Z 29003MPS 9999 FEW046 BKN100 20/09 Q1014 R26/CLRD70 NOSIG"
"8:30 PM EEST on August 16, 2016","2016","08","16","20","30","Europe/Kiev","5:30 PM GMT on August 16, 2016","2016","08","16","17","30","UTC","18.0","64.4","9.0","48.2","56","7.2","4.5","-9999.0","-9999.0","270","West","-9999.0","-9999.0","1014","29.95","-999","-999","-9999","-9999","-9999.00","-9999.00","Clear","clear","0","0","0","0","0","0","METAR UKKK 161730Z 27002MPS CAVOK 18/09 Q1014 R26/CLRD70 NOSIG"
"9:00 PM EEST on August 16, 2016","2016","08","16","21","00","Europe/Kiev","6:00 PM GMT on August 16, 2016","2016","08","16","18","00","UTC","19","66","9","48","41","3.6","2.2","","","340","NNW","20","12","1014","29.94","-999","-999","-9999","-9999","","","Mostly Cloudy","mostlycloudy","0","0","0","0","0","0","AAXX 16181 33345 32598 63401 10190 20089 39944 40139 53006 86400 333 10241 555 10018"
"9:00 PM EEST on August 16, 2016","2016","08","16","21","00","Europe/Kiev","6:00 PM GMT on August 16, 2016","2016","08","16","18","00","UTC","17.0","62.6","10.0","50.0","63","7.2","4.5","-9999.0","-9999.0","270","West","-9999.0","-9999.0","1014","29.95","-999","-999","-9999","-9999","-9999.00","-9999.00","Clear","clear","0","0","0","0","0","0","METAR UKKK 161800Z 27002MPS CAVOK 17/10 Q1014 R26/CLRD70 NOSIG"
"9:30 PM EEST on August 16, 2016","2016","08","16","21","30","Europe/Kiev","6:30 PM GMT on August 16, 2016","2016","08","16","18","30","UTC","17.0","62.6","10.0","50.0","63","7.2","4.5","-9999.0","-9999.0","260","West","-9999.0","-9999.0","1014","29.95","-999","-999","-9999","-9999","-9999.00","-9999.00","Clear","clear","0","0","0","0","0","0","METAR UKKK 161830Z 26002MPS CAVOK 17/10 Q1014 R26/CLRD70 NOSIG"
"10:00 PM EEST on August 16, 2016","2016","08","16","22","00","Europe/Kiev","7:00 PM GMT on August 16, 2016","2016","08","16","19","00","UTC","15.0","59.0","10.0","50.0","72","7.2","4.5","-9999.0","-9999.0","240","WSW","-9999.0","-9999.0","1014","29.95","-999","-999","-9999","-9999","-9999.00","-9999.00","Clear","clear","0","0","0","0","0","0","METAR UKKK 161900Z 24002MPS CAVOK 15/10 Q1014 R26/CLRD70 NOSIG"
"10:30 PM EEST on August 16, 2016","2016","08","16","22","30","Europe/Kiev","7:30 PM GMT on August 16, 2016","2016","08","16","19","30","UTC","14.0","57.2","11.0","51.8","82","3.6","2.2","-9999.0","-9999.0","240","WSW","-9999.0","-9999.0","1014","29.95","-999","-999","-9999","-9999","-9999.00","-9999.00","Clear","clear","0","0","0","0","0","0","METAR UKKK 161930Z 24001MPS CAVOK 14/11 Q1014 R26/CLRD70 NOSIG"
"11:00 PM EEST on August 16, 2016","2016","08","16","23","00","Europe/Kiev","8:00 PM GMT on August 16, 2016","2016","08","16","20","00","UTC","16.0","60.8","10.0","50.0","68","7.2","4.5","-9999.0","-9999.0","180","South","-9999.0","-9999.0","1014","29.95","-999","-999","-9999","-9999","-9999.00","-9999.00","Clear","clear","0","0","0","0","0","0","METAR UKKK 162000Z 18002MPS CAVOK 16/10 Q1014 R08/CLRD70 NOSIG"
"11:30 PM EEST on August 16, 2016","2016","08","16","23","30","Europe/Kiev","8:30 PM GMT on August 16, 2016","2016","08","16","20","30","UTC","13.0","55.4","10.0","50.0","82","3.6","2.2","-9999.0","-9999.0","200","SSW","-9999.0","-9999.0","1014","29.95","-999","-999","-9999","-9999","-9999.00","-9999.00","Clear","clear","0","0","0","0","0","0","METAR UKKK 162030Z 20001MPS CAVOK 13/10 Q1014 R08/CLRD70 NOSIG"
"12:00 AM EEST on August 17, 2016","2016","08","17","00","00","Europe/Kiev","9:00 PM GMT on August 16, 2016","2016","08","16","21","00","UTC","16","60","9","49","57","7.2","4.5","","","260","West","20","12","1014","29.96","-999","-999","-9999","-9999","","","","","0","0","0","0","0","0","AAXX 16211 33345 42998 02602 10155 20093 39947 40145 52003 555 10013"
"12:00 AM EEST on August 17, 2016","2016","08","17","00","00","Europe/Kiev","9:00 PM GMT on August 16, 2016","2016","08","16","21","00","UTC","12.0","53.6","10.0","50.0","88","3.6","2.2","-9999.0","-9999.0","0","Variable","6.0","3.7","1014","29.95","-999","-999","-9999","-9999","-9999.00","-9999.00","Unknown","unknown","0","0","0","0","0","0","METAR UKKK 162100Z VRB01MPS 6000 NSC 12/10 Q1014 R08/CLRD70 NOSIG"
"12:30 AM EEST on August 17, 2016","2016","08","17","00","30","Europe/Kiev","9:30 PM GMT on August 16, 2016","2016","08","16","21","30","UTC","11.0","51.8","10.0","50.0","94","3.6","2.2","-9999.0","-9999.0","0","Variable","-9999.0","-9999.0","1014","29.95","-999","-999","-9999","-9999","-9999.00","-9999.00","Clear","clear","0","0","0","0","0","0","METAR UKKK 162130Z VRB01MPS CAVOK 11/10 Q1014 R08/CLRD70 NOSIG"
"1:00 AM EEST on August 17, 2016","2016","08","17","01","00","Europe/Kiev","10:00 PM GMT on August 16, 2016","2016","08","16","22","00","UTC","12.0","53.6","10.0","50.0","88","3.6","2.2","-9999.0","-9999.0","0","Variable","7.0","4.3","1014","29.95","-999","-999","-9999","-9999","-9999.00","-9999.00","Unknown","unknown","0","0","0","0","0","0","METAR UKKK 162200Z VRB01MPS 7000 NSC 12/10 Q1014 R08/CLRD70 NOSIG"
"1:30 AM EEST on August 17, 2016","2016","08","17","01","30","Europe/Kiev","10:30 PM GMT on August 16, 2016","2016","08","16","22","30","UTC","10.0","50.0","9.0","48.2","94","0.0","0.0","-9999.0","-9999.0","0","North","7.0","4.3","1014","29.95","-999","-999","-9999","-9999","-9999.00","-9999.00","Unknown","unknown","0","0","0","0","0","0","METAR UKKK 162230Z 00000MPS 7000 NSC 10/09 Q1014 R08/CLRD70 NOSIG"
"2:00 AM EEST on August 17, 2016","2016","08","17","02","00","Europe/Kiev","11:00 PM GMT on August 16, 2016","2016","08","16","23","00","UTC","11.0","51.8","10.0","50.0","94","3.6","2.2","-9999.0","-9999.0","280","West","-9999.0","-9999.0","1014","29.95","-999","-999","-9999","-9999","-9999.00","-9999.00","Clear","clear","0","0","0","0","0","0","METAR UKKK 162300Z 28001MPS CAVOK 11/10 Q1014 R08/CLRD70 NOSIG"
"2:30 AM EEST on August 17, 2016","2016","08","17","02","30","Europe/Kiev","11:30 PM GMT on August 16, 2016","2016","08","16","23","30","UTC","11.0","51.8","9.0","48.2","88","0.0","0.0","-9999.0","-9999.0","0","North","-9999.0","-9999.0","1014","29.95","-999","-999","-9999","-9999","-9999.00","-9999.00","Clear","clear","0","0","0","0","0","0","METAR UKKK 162330Z 00000MPS CAVOK 11/09 Q1014 R08/CLRD70 NOSIG"
"3:00 AM EEST on August 17, 2016","2016","08","17","03","00","Europe/Kiev","12:00 AM GMT on August 17, 2016","2016","08","17","00","00","UTC","15","59","9","48","58","0.0","0.0","","","","","20","12","1014","29.96","-999","-999","-9999","-9999","","","Clear","clear","0","0","0","0","0","0","AAXX 17001 33345 32998 60000 10150 20090 39945 40143 58002 80005 555 10012"
"3:00 AM EEST on August 17, 2016","2016","08","17","03","00","Europe/Kiev","12:00 AM GMT on August 17, 2016","2016","08","17","00","00","UTC","11.0","51.8","10.0","50.0","94","0.0","0.0","-9999.0","-9999.0","0","North","-9999.0","-9999.0","1014","29.95","-999","-999","-9999","-9999","-9999.00","-9999.00","Clear","clear","0","0","0","0","0","0","METAR UKKK 170000Z 00000MPS CAVOK 11/10 Q1014 R08/CLRD70 NOSIG"
"3:30 AM EEST on August 17, 2016","2016","08","17","03","30","Europe/Kiev","12:30 AM GMT on August 17, 2016","2016","08","17","00","30","UTC","10.0","50.0","9.0","48.2","94","0.0","0.0","-9999.0","-9999.0","0","North","-9999.0","-9999.0","1014","29.95","-999","-999","-9999","-9999","-9999.00","-9999.00","Clear","clear","0","0","0","0","0","0","METAR UKKK 170030Z 00000MPS CAVOK 10/09 Q1014 R08/CLRD70 NOSIG"
"4:00 AM EEST on August 17, 2016","2016","08","17","04","00","Europe/Kiev","1:00 AM GMT on August 17, 2016","2016","08","17","01","00","UTC","10.0","50.0","9.0","48.2","94","3.6","2.2","-9999.0","-9999.0","0","Variable","-9999.0","-9999.0","1014","29.95","-999","-999","-9999","-9999","-9999.00","-9999.00","Clear","clear","0","0","0","0","0","0","METAR UKKK 170100Z VRB01MPS CAVOK 10/09 Q1014 R08/CLRD70 NOSIG"
"4:30 AM EEST on August 17, 2016","2016","08","17","04","30","Europe/Kiev","1:30 AM GMT on August 17, 2016","2016","08","17","01","30","UTC","10.0","50.0","9.0","48.2","94","3.6","2.2","-9999.0","-9999.0","220","SW","-9999.0","-9999.0","1014","29.95","-999","-999","-9999","-9999","-9999.00","-9999.00","Clear","clear","0","0","0","0","0","0","METAR UKKK 170130Z 22001MPS CAVOK 10/09 Q1014 R08/CLRD70 NOSIG"
"5:00 AM EEST on August 17, 2016","2016","08","17","05","00","Europe/Kiev","2:00 AM GMT on August 17, 2016","2016","08","17","02","00","UTC","10.0","50.0","10.0","50.0","100","3.6","2.2","-9999.0","-9999.0","0","Variable","-9999.0","-9999.0","1014","29.95","-999","-999","-9999","-9999","-9999.00","-9999.00","Clear","clear","0","0","0","0","0","0","METAR UKKK 170200Z VRB01MPS CAVOK 10/10 Q1014 R08/CLRD70 NOSIG"
"5:30 AM EEST on August 17, 2016","2016","08","17","05","30","Europe/Kiev","2:30 AM GMT on August 17, 2016","2016","08","17","02","30","UTC","10.0","50.0","9.0","48.2","94","3.6","2.2","-9999.0","-9999.0","190","South","-9999.0","-9999.0","1014","29.95","-999","-999","-9999","-9999","-9999.00","-9999.00","Clear","clear","0","0","0","0","0","0","METAR UKKK 170230Z 19001MPS CAVOK 10/09 Q1014 R08/CLRD70 NOSIG"
"6:00 AM EEST on August 17, 2016","2016","08","17","06","00","Europe/Kiev","3:00 AM GMT on August 17, 2016","2016","08","17","03","00","UTC","14","58","10","50","67","3.6","2.2","","","330","NNW","20","12","1014","29.96","-999","-999","-9999","-9999","","","","","0","0","0","0","0","0","AAXX 17031 33345 42998 03301 10142 20100 39945 40144 54000 555 10011"
"6:00 AM EEST on August 17, 2016","2016","08","17","06","00","Europe/Kiev","3:00 AM GMT on August 17, 2016","2016","08","17","03","00","UTC","10.0","50.0","9.0","48.2","94","7.2","4.5","-9999.0","-9999.0","260","West","-9999.0","-9999.0","1014","29.95","-999","-999","-9999","-9999","-9999.00","-9999.00","Clear","clear","0","0","0","0","0","0","METAR UKKK 170300Z 26002MPS CAVOK 10/09 Q1014 R26/CLRD70 NOSIG"
"6:30 AM EEST on August 17, 2016","2016","08","17","06","30","Europe/Kiev","3:30 AM GMT on August 17, 2016","2016","08","17","03","30","UTC","10.0","50.0","9.0","48.2","94","7.2","4.5","-9999.0","-9999.0","270","West","7.0","4.3","1014","29.95","-999","-999","-9999","-9999","-9999.00","-9999.00","Unknown","unknown","0","0","0","0","0","0","METAR UKKK 170330Z 27002MPS 7000 NSC 10/09 Q1014 R26/CLRD70 NOSIG"
"7:00 AM EEST on August 17, 2016","2016","08","17","07","00","Europe/Kiev","4:00 AM GMT on August 17, 2016","2016","08","17","04","00","UTC","11.0","51.8","10.0","50.0","94","7.2","4.5","-9999.0","-9999.0","260","West","8.0","5.0","1014","29.95","-999","-999","-9999","-9999","-9999.00","-9999.00","Unknown","unknown","0","0","0","0","0","0","METAR UKKK 170400Z 26002MPS 8000 NSC 11/10 Q1014 R26/CLRD70 NOSIG"
"7:30 AM EEST on August 17, 2016","2016","08","17","07","30","Europe/Kiev","4:30 AM GMT on August 17, 2016","2016","08","17","04","30","UTC","14.0","57.2","11.0","51.8","82","7.2","4.5","-9999.0","-9999.0","250","WSW","-9999.0","-9999.0","1014","29.95","-999","-999","-9999","-9999","-9999.00","-9999.00","Clear","clear","0","0","0","0","0","0","METAR UKKK 170430Z 25002MPS CAVOK 14/11 Q1014 R26/CLRD70 NOSIG"
"8:00 AM EEST on August 17, 2016","2016","08","17","08","00","Europe/Kiev","5:00 AM GMT on August 17, 2016","2016","08","17","05","00","UTC","16.0","60.8","12.0","53.6","77","7.2","4.5","-9999.0","-9999.0","270","West","-9999.0","-9999.0","1014","29.95","-999","-999","-9999","-9999","-9999.00","-9999.00","Clear","clear","0","0","0","0","0","0","METAR UKKK 170500Z 27002MPS CAVOK 16/12 Q1014 R26/CLRD70 NOSIG"
"8:30 AM EEST on August 17, 2016","2016","08","17","08","30","Europe/Kiev","5:30 AM GMT on August 17, 2016","2016","08","17","05","30","UTC","17.0","62.6","12.0","53.6","72","3.6","2.2","-9999.0","-9999.0","0","Variable","-9999.0","-9999.0","1014","29.95","-999","-999","-9999","-9999","-9999.00","-9999.00","Clear","clear","0","0","0","0","0","0","METAR UKKK 170530Z VRB01MPS CAVOK 17/12 Q1014 R26/CLRD70 NOSIG"
"9:00 AM EEST on August 17, 2016","2016","08","17","09","00","Europe/Kiev","6:00 AM GMT on August 17, 2016","2016","08","17","06","00","UTC","18","65","11","52","54","0.0","0.0","","","","","20","12","1014","29.96","-999","-999","-9999","-9999","","","Clear","clear","0","0","0","0","0","0","AAXX 17061 33345 32998 30000 10185 20112 39947 40143 53002 80009 333 20130 555 10025"
"9:00 AM EEST on August 17, 2016","2016","08","17","09","00","Europe/Kiev","6:00 AM GMT on August 17, 2016","2016","08","17","06","00","UTC","19.0","66.2","12.0","53.6","64","0.0","0.0","-9999.0","-9999.0","0","North","-9999.0","-9999.0","1014","29.95","-999","-999","-9999","-9999","-9999.00","-9999.00","Clear","clear","0","0","0","0","0","0","METAR UKKK 170600Z 00000MPS CAVOK 19/12 Q1014 R26/CLRD70 NOSIG"
"9:30 AM EEST on August 17, 2016","2016","08","17","09","30","Europe/Kiev","6:30 AM GMT on August 17, 2016","2016","08","17","06","30","UTC","20.0","68.0","10.0","50.0","52","7.2","4.5","-9999.0","-9999.0","180","South","9.0","5.6","1014","29.95","-999","-999","-9999","-9999","-9999.00","-9999.00","Unknown","unknown","0","0","0","0","0","0","METAR UKKK 170630Z 18002MPS 9000 NSC 20/10 Q1014 R26/CLRD70 NOSIG"
"10:00 AM EEST on August 17, 2016","2016","08","17","10","00","Europe/Kiev","7:00 AM GMT on August 17, 2016","2016","08","17","07","00","UTC","21.0","69.8","10.0","50.0","49","7.2","4.5","-9999.0","-9999.0","160","SSE","-9999.0","-9999.0","1014","29.95","-999","-999","-9999","-9999","-9999.00","-9999.00","Clear","clear","0","0","0","0","0","0","METAR UKKK 170700Z 16002MPS CAVOK 21/10 Q1014 R26/CLRD70 NOSIG"
"10:30 AM EEST on August 17, 2016","2016","08","17","10","30","Europe/Kiev","7:30 AM GMT on August 17, 2016","2016","08","17","07","30","UTC","22.0","71.6","9.0","48.2","43","7.2","4.5","-9999.0","-9999.0","90","East","-9999.0","-9999.0","1014","29.95","-999","-999","-9999","-9999","-9999.00","-9999.00","Clear","clear","0","0","0","0","0","0","METAR UKKK 170730Z 09002MPS CAVOK 22/09 Q1014 R26/CLRD70 NOSIG"
"11:00 AM EEST on August 17, 2016","2016","08","17","11","00","Europe/Kiev","8:00 AM GMT on August 17, 2016","2016","08","17","08","00","UTC","22.0","71.6","9.0","48.2","43","3.6","2.2","-9999.0","-9999.0","0","Variable","10.0","6.2","1014","29.95","-999","-999","-9999","-9999","-9999.00","-9999.00","Partly Cloudy","partlycloudy","0","0","0","0","0","0","METAR UKKK 170800Z VRB01MPS 9999 FEW040 22/09 Q1014 R26/CLRD70 NOSIG"
"11:30 AM EEST on August 17, 2016","2016","08","17","11","30","Europe/Kiev","8:30 AM GMT on August 17, 2016","2016","08","17","08","30","UTC","23.0","73.4","10.0","50.0","44","7.2","4.5","-9999.0","-9999.0","230","SW","-9999.0","-9999.0","1014","29.95","-999","-999","-9999","-9999","-9999.00","-9999.00","Clear","clear","0","0","0","0","0","0","METAR UKKK 170830Z 23002MPS CAVOK 23/10 Q1014 R26/CLRD70 NOSIG"
"12:00 PM EEST on August 17, 2016","2016","08","17","12","00","Europe/Kiev","9:00 AM GMT on August 17, 2016","2016","08","17","09","00","UTC","23","73","9","47","29","7.2","4.5","","","160","SSE","20","12","1014","29.95","-999","-999","-9999","-9999","","","Scattered Clouds","partlycloudy","0","0","0","0","0","0","AAXX 17091 33345 42698 21602 10230 20086 39948 40141 51001 82200 555 10041"
"12:00 PM EEST on August 17, 2016","2016","08","17","12","00","Europe/Kiev","9:00 AM GMT on August 17, 2016","2016","08","17","09","00","UTC","23.0","73.4","9.0","48.2","41","7.2","4.5","-9999.0","-9999.0","200","SSW","-9999.0","-9999.0","1014","29.95","-999","-999","-9999","-9999","-9999.00","-9999.00","Clear","clear","0","0","0","0","0","0","METAR UKKK 170900Z 20002MPS CAVOK 23/09 Q1014 R26/CLRD70 NOSIG"
"12:30 PM EEST on August 17, 2016","2016","08","17","12","30","Europe/Kiev","9:30 AM GMT on August 17, 2016","2016","08","17","09","30","UTC","23.0","73.4","9.0","48.2","41","7.2","4.5","-9999.0","-9999.0","150","SSE","-9999.0","-9999.0","1014","29.95","-999","-999","-9999","-9999","-9999.00","-9999.00","Clear","clear","0","0","0","0","0","0","METAR UKKK 170930Z 15002MPS CAVOK 23/09 Q1014 R26/CLRD70 NOSIG"
"1:00 PM EEST on August 17, 2016","2016","08","17","13","00","Europe/Kiev","10:00 AM GMT on August 17, 2016","2016","08","17","10","00","UTC","23.0","73.4","9.0","48.2","41","7.2","4.5","-9999.0","-9999.0","70","ENE","-9999.0","-9999.0","1014","29.95","-999","-999","-9999","-9999","-9999.00","-9999.00","Clear","clear","0","0","0","0","0","0","METAR UKKK 171000Z 07002MPS CAVOK 23/09 Q1014 R26/CLRD70 NOSIG"
"1:30 PM EEST on August 17, 2016","2016","08","17","13","30","Europe/Kiev","10:30 AM GMT on August 17, 2016","2016","08","17","10","30","UTC","24.0","75.2","9.0","48.2","38","14.4","8.9","-9999.0","-9999.0","140","SE","-9999.0","-9999.0","1014","29.95","-999","-999","-9999","-9999","-9999.00","-9999.00","Clear","clear","0","0","0","0","0","0","METAR UKKK 171030Z 14004MPS 090V190 CAVOK 24/09 Q1014 R08/CLRD70 NOSIG"
"2:00 PM EEST on August 17, 2016","2016","08","17","14","00","Europe/Kiev","11:00 AM GMT on August 17, 2016","2016","08","17","11","00","UTC","23.0","73.4","9.0","48.2","41","10.8","6.7","-9999.0","-9999.0","170","South","-9999.0","-9999.0","1014","29.95","-999","-999","-9999","-9999","-9999.00","-9999.00","Clear","clear","0","0","0","0","0","0","METAR UKKK 171100Z 17003MPS 100V240 CAVOK 23/09 Q1014 R08/CLRD70 NOSIG"
"2:30 PM EEST on August 17, 2016","2016","08","17","14","30","Europe/Kiev","11:30 AM GMT on August 17, 2016","2016","08","17","11","30","UTC","24.0","75.2","8.0","46.4","36","10.8","6.7","-9999.0","-9999.0","150","SSE","-9999.0","-9999.0","1014","29.95","-999","-999","-9999","-9999","-9999.00","-9999.00","Clear","clear","0","0","0","0","0","0","METAR UKKK 171130Z 15003MPS 070V220 CAVOK 24/08 Q1014 R08/CLRD70 NOSIG"
"3:00 PM EEST on August 17, 2016","2016","08","17","15","00","Europe/Kiev","12:00 PM GMT on August 17, 2016","2016","08","17","12","00","UTC","25","76","8","47","25","7.2","4.5","","","170","South","20","12","1013","29.92","-999","-999","-9999","-9999","","","Scattered Clouds","partlycloudy","0","0","0","0","0","0","AAXX 17121 33345 32598 61702 10246 20085 39938 40130 58010 82235 555 10040"
"3:00 PM EEST on August 17, 2016","2016","08","17","15","00","Europe/Kiev","12:00 PM GMT on August 17, 2016","2016","08","17","12","00","UTC","24.0","75.2","9.0","48.2","38","10.8","6.7","-9999.0","-9999.0","120","ESE","-9999.0","-9999.0","1013","29.92","-999","-999","-9999","-9999","-9999.00","-9999.00","Clear","clear","0","0","0","0","0","0","METAR UKKK 171200Z 12003MPS 070V190 CAVOK 24/09 Q1013 R08/CLRD70 NOSIG"
"3:30 PM EEST on August 17, 2016","2016","08","17","15","30","Europe/Kiev","12:30 PM GMT on August 17, 2016","2016","08","17","12","30","UTC","24.0","75.2","9.0","48.2","38","10.8","6.7","-9999.0","-9999.0","130","SE","-9999.0","-9999.0","1013","29.92","-999","-999","-9999","-9999","-9999.00","-9999.00","Clear","clear","0","0","0","0","0","0","METAR UKKK 171230Z 13003MPS 070V200 CAVOK 24/09 Q1013 R08/CLRD70 NOSIG"
"4:00 PM EEST on August 17, 2016","2016","08","17","16","00","Europe/Kiev","1:00 PM GMT on August 17, 2016","2016","08","17","13","00","UTC","24.0","75.2","9.0","48.2","38","10.8","6.7","-9999.0","-9999.0","100","East","-9999.0","-9999.0","1013","29.92","-999","-999","-9999","-9999","-9999.00","-9999.00","Clear","clear","0","0","0","0","0","0","METAR UKKK 171300Z 10003MPS CAVOK 24/09 Q1013 R08/CLRD70 NOSIG"
"4:30 PM EEST on August 17, 2016","2016","08","17","16","30","Europe/Kiev","1:30 PM GMT on August 17, 2016","2016","08","17","13","30","UTC","23.0","73.4","8.0","46.4","38","14.4","8.9","-9999.0","-9999.0","110","ESE","-9999.0","-9999.0","1013","29.92","-999","-999","-9999","-9999","-9999.00","-9999.00","Clear","clear","0","0","0","0","0","0","METAR UKKK 171330Z 11004MPS CAVOK 23/08 Q1013 R08/CLRD70 NOSIG"
"5:00 PM EEST on August 17, 2016","2016","08","17","17","00","Europe/Kiev","2:00 PM GMT on August 17, 2016","2016","08","17","14","00","UTC","24.0","75.2","9.0","48.2","38","14.4","8.9","-9999.0","-9999.0","110","ESE","-9999.0","-9999.0","1012","29.89","-999","-999","-9999","-9999","-9999.00","-9999.00","Clear","clear","0","0","0","0","0","0","METAR UKKK 171400Z 11004MPS 070V130 CAVOK 24/09 Q1012 R08/CLRD70 NOSIG"
"5:30 PM EEST on August 17, 2016","2016","08","17","17","30","Europe/Kiev","2:30 PM GMT on August 17, 2016","2016","08","17","14","30","UTC","24.0","75.2","9.0","48.2","38","10.8","6.7","-9999.0","-9999.0","110","ESE","-9999.0","-9999.0","1012","29.89","-999","-999","-9999","-9999","-9999.00","-9999.00","Clear","clear","0","0","0","0","0","0","METAR UKKK 171430Z 11003MPS CAVOK 24/09 Q1012 R08/CLRD70 NOSIG"
"6:00 PM EEST on August 17, 2016","2016","08","17","18","00","Europe/Kiev","3:00 PM GMT on August 17, 2016","2016","08","17","15","00","UTC","24","76","8","47","24","7.2","4.5","","","190","South","20","12","1012","29.88","-999","-999","-9999","-9999","","","Mostly Cloudy","mostlycloudy","0","0","0","0","0","0","AAXX 17151 33345 42698 61902 10242 20081 39927 40119 57011 86500 555 10030"
"6:00 PM EEST on August 17, 2016","2016","08","17","18","00","Europe/Kiev","3:00 PM GMT on August 17, 2016","2016","08","17","15","00","UTC","24.0","75.2","8.0","46.4","36","10.8","6.7","-9999.0","-9999.0","120","ESE","-9999.0","-9999.0","1012","29.89","-999","-999","-9999","-9999","-9999.00","-9999.00","Clear","clear","0","0","0","0","0","0","METAR UKKK 171500Z 12003MPS 090V160 CAVOK 24/08 Q1012 R08/CLRD70 NOSIG"
"6:30 PM EEST on August 17, 2016","2016","08","17","18","30","Europe/Kiev","3:30 PM GMT on August 17, 2016","2016","08","17","15","30","UTC","23.0","73.4","9.0","48.2","41","10.8","6.7","-9999.0","-9999.0","120","ESE","-9999.0","-9999.0","1012","29.89","-999","-999","-9999","-9999","-9999.00","-9999.00","Clear","clear","0","0","0","0","0","0","METAR UKKK 171530Z 12003MPS 080V150 CAVOK 23/09 Q1012 R08/CLRD70 NOSIG"
"7:00 PM EEST on August 17, 2016","2016","08","17","19","00","Europe/Kiev","4:00 PM GMT on August 17, 2016","2016","08","17","16","00","UTC","23.0","73.4","11.0","51.8","47","10.8","6.7","-9999.0","-9999.0","130","SE","-9999.0","-9999.0","1012","29.89","-999","-999","-9999","-9999","-9999.00","-9999.00","Clear","clear","0","0","0","0","0","0","METAR UKKK 171600Z 13003MPS CAVOK 23/11 Q1012 R08/CLRD70 NOSIG"
"7:30 PM EEST on August 17, 2016","2016","08","17","19","30","Europe/Kiev","4:30 PM GMT on August 17, 2016","2016","08","17","16","30","UTC","22.0","71.6","11.0","51.8","50","10.8","6.7","-9999.0","-9999.0","120","ESE","-9999.0","-9999.0","1012","29.89","-999","-999","-9999","-9999","-9999.00","-9999.00","Clear","clear","0","0","0","0","0","0","METAR UKKK 171630Z 12003MPS CAVOK 22/11 Q1012 R08/CLRD70 NOSIG"
"8:00 PM EEST on August 17, 2016","2016","08","17","20","00","Europe/Kiev","5:00 PM GMT on August 17, 2016","2016","08","17","17","00","UTC","22.0","71.6","11.0","51.8","50","10.8","6.7","-9999.0","-9999.0","120","ESE","-9999.0","-9999.0","1012","29.89","-999","-999","-9999","-9999","-9999.00","-9999.00","Clear","clear","0","0","0","0","0","0","METAR UKKK 171700Z 12003MPS CAVOK 22/11 Q1012 R08/CLRD70 NOSIG"
"8:30 PM EEST on August 17, 2016","2016","08","17","20","30","Europe/Kiev","5:30 PM GMT on August 17, 2016","2016","08","17","17","30","UTC","21.0","69.8","11.0","51.8","53","10.8","6.7","-9999.0","-9999.0","120","ESE","-9999.0","-9999.0","1012","29.89","-999","-999","-9999","-9999","-9999.00","-9999.00","Clear","clear","0","0","0","0","0","0","METAR UKKK 171730Z 12003MPS CAVOK 21/11 Q1012 R08/CLRD70 NOSIG"
"9:00 PM EEST on August 17, 2016","2016","08","17","21","00","Europe/Kiev","6:00 PM GMT on August 17, 2016","2016","08","17","18","00","UTC","20","68","11","52","47","3.6","2.2","","","200","SSW","20","12","1012","29.88","-999","-999","-9999","-9999","","","Scattered Clouds","partlycloudy","0","0","0","0","0","0","AAXX 17181 33345 32698 22001 10198 20113 39924 40118 57003 81401 333 10250 555 10018"
"9:00 PM EEST on August 17, 2016","2016","08","17","21","00","Europe/Kiev","6:00 PM GMT on August 17, 2016","2016","08","17","18","00","UTC","21.0","69.8","11.0","51.8","53","14.4","8.9","-9999.0","-9999.0","120","ESE","-9999.0","-9999.0","1012","29.89","-999","-999","-9999","-9999","-9999.00","-9999.00","Clear","clear","0","0","0","0","0","0","METAR UKKK 171800Z 12004MPS CAVOK 21/11 Q1012 R08/CLRD70 NOSIG"
"9:30 PM EEST on August 17, 2016","2016","08","17","21","30","Europe/Kiev","6:30 PM GMT on August 17, 2016","2016","08","17","18","30","UTC","21.0","69.8","10.0","50.0","49","10.8","6.7","-9999.0","-9999.0","130","SE","-9999.0","-9999.0","1012","29.89","-999","-999","-9999","-9999","-9999.00","-9999.00","Clear","clear","0","0","0","0","0","0","METAR UKKK 171830Z 13003MPS CAVOK 21/10 Q1012 R08/CLRD70 NOSIG"
"10:00 PM EEST on August 17, 2016","2016","08","17","22","00","Europe/Kiev","7:00 PM GMT on August 17, 2016","2016","08","17","19","00","UTC","20.0","68.0","11.0","51.8","56","10.8","6.7","-9999.0","-9999.0","130","SE","-9999.0","-9999.0","1012","29.89","-999","-999","-9999","-9999","-9999.00","-9999.00","Clear","clear","0","0","0","0","0","0","METAR UKKK 171900Z 13003MPS 110V170 CAVOK 20/11 Q1012 R08/CLRD70 NOSIG"
"10:30 PM EEST on August 17, 2016","2016","08","17","22","30","Europe/Kiev","7:30 PM GMT on August 17, 2016","2016","08","17","19","30","UTC","20.0","68.0","11.0","51.8","56","14.4","8.9","-9999.0","-9999.0","130","SE","-9999.0","-9999.0","1012","29.89","-999","-999","-9999","-9999","-9999.00","-9999.00","Clear","clear","0","0","0","0","0","0","METAR UKKK 171930Z 13004MPS 100V160 CAVOK 20/11 Q1012 R08/CLRD70 NOSIG"
"11:00 PM EEST on August 17, 2016","2016","08","17","23","00","Europe/Kiev","8:00 PM GMT on August 17, 2016","2016","08","17","20","00","UTC","20.0","68.0","12.0","53.6","60","10.8","6.7","-9999.0","-9999.0","130","SE","-9999.0","-9999.0","1012","29.89","-999","-999","-9999","-9999","-9999.00","-9999.00","Clear","clear","0","0","0","0","0","0","METAR UKKK 172000Z 13003MPS 100V160 CAVOK 20/12 Q1012 R08/CLRD70 NOSIG"
"11:30 PM EEST on August 17, 2016","2016","08","17","23","30","Europe/Kiev","8:30 PM GMT on August 17, 2016","2016","08","17","20","30","UTC","20.0","68.0","13.0","55.4","64","10.8","6.7","-9999.0","-9999.0","130","SE","-9999.0","-9999.0","1012","29.89","-999","-999","-9999","-9999","-9999.00","-9999.00","Clear","clear","0","0","0","0","0","0","METAR UKKK 172030Z 13003MPS 110V170 CAVOK 20/13 Q1012 R08/CLRD70 NOSIG"
"12:00 AM EEST on August 18, 2016","2016","08","18","00","00","Europe/Kiev","9:00 PM GMT on August 17, 2016","2016","08","17","21","00","UTC","19","66","13","55","60","7.2","4.5","","","190","South","20","12","1012","29.88","-999","-999","-9999","-9999","","","Mostly Cloudy","mostlycloudy","0","0","0","0","0","0","AAXX 17211 33345 42998 71902 10190 20130 39921 40116 57003 87030 555 10019"
"12:00 AM EEST on August 18, 2016","2016","08","18","00","00","Europe/Kiev","9:00 PM GMT on August 17, 2016","2016","08","17","21","00","UTC","20.0","68.0","12.0","53.6","60","10.8","6.7","-9999.0","-9999.0","140","SE","-9999.0","-9999.0","1011","29.86","-999","-999","-9999","-9999","-9999.00","-9999.00","Clear","clear","0","0","0","0","0","0","METAR UKKK 172100Z 14003MPS 110V170 CAVOK 20/12 Q1011 R08/CLRD70 NOSIG"
"12:30 AM EEST on August 18, 2016","2016","08","18","00","30","Europe/Kiev","9:30 PM GMT on August 17, 2016","2016","08","17","21","30","UTC","19.0","66.2","12.0","53.6","64","14.4","8.9","-9999.0","-9999.0","130","SE","10.0","6.2","1011","29.86","-999","-999","-9999","-9999","-9999.00","-9999.00","Mostly Cloudy","mostlycloudy","0","0","0","0","0","0","METAR UKKK 172130Z 13004MPS 9999 SCT040 BKN100 19/12 Q1011 R08/CLRD70 NOSIG"
"1:00 AM EEST on August 18, 2016","2016","08","18","01","00","Europe/Kiev","10:00 PM GMT on August 17, 2016","2016","08","17","22","00","UTC","20.0","68.0","13.0","55.4","64","14.4","8.9","-9999.0","-9999.0","140","SE","10.0","6.2","1011","29.86","-999","-999","-9999","-9999","-9999.00","-9999.00","Mostly Cloudy","mostlycloudy","0","0","0","0","0","0","METAR UKKK 172200Z 14004MPS 100V160 9999 SCT030CB BKN083 20/13 Q1011 R08/CLRD70 NOSIG"
"1:07 AM EEST on August 18, 2016","2016","08","18","01","07","Europe/Kiev","10:07 PM GMT on August 17, 2016","2016","08","17","22","07","UTC","20.0","68.0","13.0","55.4","64","14.4","8.9","-9999.0","-9999.0","140","SE","10.0","6.2","1011","29.86","-999","-999","-9999","-9999","-9999.00","-9999.00","Mostly Cloudy","mostlycloudy","0","0","0","0","1","0","SPECI UKKK 172207Z 14004MPS 100V170 9999 VCTS SCT030CB BKN083 20/13 Q1011 R08/CLRD70 TEMPO 2100 -TSRA BKN020CB"
"1:30 AM EEST on August 18, 2016","2016","08","18","01","30","Europe/Kiev","10:30 PM GMT on August 17, 2016","2016","08","17","22","30","UTC","19.0","66.2","14.0","57.2","73","18.0","11.2","36.0","22.4","210","SSW","10.0","6.2","1012","29.89","-999","-999","-9999","-9999","-9999.00","-9999.00","Light Rain Showers","rain","0","1","0","0","1","0","METAR UKKK 172230Z 21005G10MPS 100V270 9999 VCTS -SHRA SCT030CB BKN050 19/14 Q1012 R08/CLRD70 TEMPO VRB09G16MPS 1000 -TSRA BR BKN004 BKN015CB"
"1:44 AM EEST on August 18, 2016","2016","08","18","01","44","Europe/Kiev","10:44 PM GMT on August 17, 2016","2016","08","17","22","44","UTC","18.0","64.4","14.0","57.2","77","18.0","11.2","-9999.0","-9999.0","260","West","9.0","5.6","1012","29.89","-999","-999","-9999","-9999","-9999.00","-9999.00","Light Thunderstorms and Rain","tstorms","0","1","0","0","1","0","SPECI UKKK 172244Z 26005MPS 230V290 9000 -TSRA SQ BKN029CB BKN050 18/14 Q1012 R08/290058 TEMPO VRB09G16MPS 1000 TSRA BKN004 BKN015CB"
"1:50 AM EEST on August 18, 2016","2016","08","18","01","50","Europe/Kiev","10:50 PM GMT on August 17, 2016","2016","08","17","22","50","UTC","17.0","62.6","15.0","59.0","88","18.0","11.2","-9999.0","-9999.0","270","West","1.8","1.1","1012","29.89","-999","-999","-9999","-9999","-9999.00","-9999.00","Thunderstorms and Rain","tstorms","0","1","0","0","1","0","SPECI UKKK 172250Z 27005MPS 230V320 1800 TSRA SQ BKN009 BKN023CB 17/15 Q1012 R08/290058 TEMPO VRB09G16MPS 1000 TSRA BKN004 BKN015CB"
"2:00 AM EEST on August 18, 2016","2016","08","18","02","00","Europe/Kiev","11:00 PM GMT on August 17, 2016","2016","08","17","23","00","UTC","16.0","60.8","15.0","59.0","94","18.0","11.2","-9999.0","-9999.0","280","West","6.0","3.7","1012","29.89","-999","-999","-9999","-9999","-9999.00","-9999.00","Light Thunderstorms and Rain","tstorms","0","1","0","0","1","0","METAR UKKK 172300Z 28005MPS 6000 -TSRA BKN005 BKN023CB 16/15 Q1012 RESHRA RESQ R08/290354 TEMPO VRB12G21MPS 0700 +TSRA SQ BKN003 BKN015CB"
"2:12 AM EEST on August 18, 2016","2016","08","18","02","12","Europe/Kiev","11:12 PM GMT on August 17, 2016","2016","08","17","23","12","UTC","16.0","60.8","15.0","59.0","94","18.0","11.2","-9999.0","-9999.0","290","WNW","1.5","0.9","1012","29.89","-999","-999","-9999","-9999","-9999.00","-9999.00","Thunderstorms and Rain","tstorms","0","1","0","0","1","0","SPECI UKKK 172312Z 29005MPS 260V330 1500 TSRA BKN005 BKN023CB 16/15 Q1012 R08/290354 TEMPO VRB12G21MPS 0700 +TSRA SQ BKN003 BKN015CB"
"2:27 AM EEST on August 18, 2016","2016","08","18","02","27","Europe/Kiev","11:27 PM GMT on August 17, 2016","2016","08","17","23","27","UTC","16.0","60.8","16.0","60.8","100","10.8","6.7","-9999.0","-9999.0","290","WNW","-9999.0","-9999.0","1012","29.89","-999","-999","-9999","-9999","-9999.00","-9999.00","Light Thunderstorms and Rain","tstorms","0","1","0","0","1","0","SPECI UKKK 172327Z 29003MPS 3100 -TSRA BKN010 BKN023CB 16/16 Q1012 RESHRA R08/290354 TEMPO VRB12G21MPS 0700 +TSRA SQ BKN003 BKN015CB"
"2:30 AM EEST on August 18, 2016","2016","08","18","02","30","Europe/Kiev","11:30 PM GMT on August 17, 2016","2016","08","17","23","30","UTC","16.0","60.8","16.0","60.8","100","10.8","6.7","-9999.0","-9999.0","280","West","2.4","1.5","1012","29.89","-999","-999","-9999","-9999","-9999.00","-9999.00","Light Thunderstorms and Rain","tstorms","0","1","0","0","1","0","METAR UKKK 172330Z 28003MPS 250V310 2400 -TSRA BKN010 BKN023CB 16/16 Q1012 R08/290354 TEMPO VRB12G21MPS 0700 +TSRA SQ BKN003 BKN015CB"
"3:00 AM EEST on August 18, 2016","2016","08","18","03","00","Europe/Kiev","12:00 AM GMT on August 18, 2016","2016","08","18","00","00","UTC","17","62","15","59","88","3.6","2.2","","","340","NNW","4","2","1012","29.87","-999","-999","-9999","-9999","","","Light Rain","rain","0","1","0","0","0","0","AAXX 18001 33345 /1496 83401 10167 20152 39919 40115 57002 76161 8872/ 333 88713 555 11017 69941"
"3:00 AM EEST on August 18, 2016","2016","08","18","03","00","Europe/Kiev","12:00 AM GMT on August 18, 2016","2016","08","18","00","00","UTC","16.0","60.8","16.0","60.8","100","7.2","4.5","-9999.0","-9999.0","270","West","9.0","5.6","1012","29.89","-999","-999","-9999","-9999","-9999.00","-9999.00","Light Thunderstorms and Rain","tstorms","0","1","0","0","1","0","METAR UKKK 180000Z 27002MPS 240V300 9000 -TSRA BKN010 BKN027CB 16/16 Q1012 R08/290354 TEMPO VRB12G21MPS 0700 +TSRA SQ BKN003 BKN015CB"
"3:30 AM EEST on August 18, 2016","2016","08","18","03","30","Europe/Kiev","12:30 AM GMT on August 18, 2016","2016","08","18","00","30","UTC","16.0","60.8","16.0","60.8","100","7.2","4.5","-9999.0","-9999.0","270","West","-9999.0","-9999.0","1012","29.89","-999","-999","-9999","-9999","-9999.00","-9999.00","Light Thunderstorms and Rain","tstorms","0","1","0","0","1","0","METAR UKKK 180030Z 27002MPS 4100 -TSRA BKN011 BKN030CB 16/16 Q1012 R08/290354 TEMPO VRB12G21MPS 0700 +TSRA SQ BKN003 BKN015CB"
"3:55 AM EEST on August 18, 2016","2016","08","18","03","55","Europe/Kiev","12:55 AM GMT on August 18, 2016","2016","08","18","00","55","UTC","16.0","60.8","16.0","60.8","100","3.6","2.2","-9999.0","-9999.0","0","Variable","1.3","0.8","1012","29.89","-999","-999","-9999","-9999","-9999.00","-9999.00","Rain Showers","rain","0","1","0","0","1","0","SPECI UKKK 180055Z VRB01MPS 1300 R08/1700VP2000D VCTS SHRA BKN011 BKN030CB 16/16 Q1012 RETS R08/290354 TEMPO VRB12G21MPS 0700 +TSRA SQ BKN003 BKN015CB"
"4:00 AM EEST on August 18, 2016","2016","08","18","04","00","Europe/Kiev","1:00 AM GMT on August 18, 2016","2016","08","18","01","00","UTC","16.0","60.8","16.0","60.8","100","3.6","2.2","-9999.0","-9999.0","0","Variable","2.1","1.3","1012","29.89","-999","-999","-9999","-9999","-9999.00","-9999.00","Light Rain Showers","rain","0","1","0","0","1","0","METAR UKKK 180100Z VRB01MPS 2100 VCTS -SHRA BKN011 BKN030CB 16/16 Q1012 RESHRA R08/290354 TEMPO VRB12G21MPS 0700 +TSRA SQ BKN003 BKN015CB"
"4:30 AM EEST on August 18, 2016","2016","08","18","04","30","Europe/Kiev","1:30 AM GMT on August 18, 2016","2016","08","18","01","30","UTC","16.0","60.8","16.0","60.8","100","7.2","4.5","-9999.0","-9999.0","130","SE","-9999.0","-9999.0","1012","29.89","-999","-999","-9999","-9999","-9999.00","-9999.00","Light Rain Showers","rain","0","1","0","0","0","0","METAR UKKK 180130Z 13002MPS 090V150 4400 -SHRA SCT030CB BKN060 16/16 Q1012 R08/290354 TEMPO VRB12G21MPS 0700 +TSRA SQ BKN003 BKN015CB"
"5:00 AM EEST on August 18, 2016","2016","08","18","05","00","Europe/Kiev","2:00 AM GMT on August 18, 2016","2016","08","18","02","00","UTC","16.0","60.8","16.0","60.8","100","7.2","4.5","-9999.0","-9999.0","110","ESE","6.0","3.7","1011","29.86","-999","-999","-9999","-9999","-9999.00","-9999.00","Light Rain Showers","rain","0","1","0","0","0","0","METAR UKKK 180200Z 11002MPS 080V180 6000 -SHRA SCT030 BKN030CB 16/16 Q1011 R08/290354 TEMPO 2100 -SHRA BKN015CB"
"5:30 AM EEST on August 18, 2016","2016","08","18","05","30","Europe/Kiev","2:30 AM GMT on August 18, 2016","2016","08","18","02","30","UTC","17.0","62.6","17.0","62.6","100","3.6","2.2","-9999.0","-9999.0","290","WNW","10.0","6.2","1011","29.86","-999","-999","-9999","-9999","-9999.00","-9999.00","Light Rain Showers","rain","0","1","0","0","0","0","METAR UKKK 180230Z 29001MPS 9999 -SHRA SCT030CB BKN042 17/17 Q1011 R08/290354 TEMPO 2100 -SHRA BKN015CB"
"6:00 AM EEST on August 18, 2016","2016","08","18","06","00","Europe/Kiev","3:00 AM GMT on August 18, 2016","2016","08","18","03","00","UTC","17","62","16","60","92","0.0","0.0","","","","","4","2","1012","29.88","-999","-999","-9999","-9999","","","Light Rain","rain","0","1","0","0","0","0","AAXX 18031 33345 41496 80000 10169 20157 39920 40116 53001 72162 885// 555 11018"
"6:00 AM EEST on August 18, 2016","2016","08","18","06","00","Europe/Kiev","3:00 AM GMT on August 18, 2016","2016","08","18","03","00","UTC","17.0","62.6","16.0","60.8","94","7.2","4.5","-9999.0","-9999.0","290","WNW","6.0","3.7","1012","29.89","-999","-999","-9999","-9999","-9999.00","-9999.00","Light Rain Showers","rain","0","1","0","0","0","0","METAR UKKK 180300Z 29002MPS 6000 -SHRA SCT030CB BKN076 17/16 Q1012 R08/290354 TEMPO 2100 -SHRA BKN015CB"
"6:30 AM EEST on August 18, 2016","2016","08","18","06","30","Europe/Kiev","3:30 AM GMT on August 18, 2016","2016","08","18","03","30","UTC","16.0","60.8","16.0","60.8","100","0.0","0.0","-9999.0","-9999.0","0","North","-9999.0","-9999.0","1012","29.89","-999","-999","-9999","-9999","-9999.00","-9999.00","Light Rain Showers","rain","0","1","0","0","0","0","METAR UKKK 180330Z 00000MPS 4300 -SHRA BR SCT026CB BKN076 16/16 Q1012 R08/290354 TEMPO 2100 -SHRA BKN015CB"
"7:00 AM EEST on August 18, 2016","2016","08","18","07","00","Europe/Kiev","4:00 AM GMT on August 18, 2016","2016","08","18","04","00","UTC","17.0","62.6","17.0","62.6","100","0.0","0.0","-9999.0","-9999.0","0","North","-9999.0","-9999.0","1012","29.89","-999","-999","-9999","-9999","-9999.00","-9999.00","Light Rain Showers","rain","0","1","0","0","0","0","METAR UKKK 180400Z 00000MPS 3600 -SHRA BR BKN009 BKN016CB 17/17 Q1012 R08/290354 TEMPO 2100 -SHRA BKN015CB"
"7:30 AM EEST on August 18, 2016","2016","08","18","07","30","Europe/Kiev","4:30 AM GMT on August 18, 2016","2016","08","18","04","30","UTC","17.0","62.6","17.0","62.6","100","3.6","2.2","-9999.0","-9999.0","300","WNW","5.0","3.1","1012","29.89","-999","-999","-9999","-9999","-9999.00","-9999.00","Light Rain Showers","rain","0","1","0","0","0","0","METAR UKKK 180430Z 30001MPS 5000 -SHRA BR BKN009 BKN025CB 17/17 Q1012 R08/290256 TEMPO 2100 -SHRA BKN015CB"
"8:00 AM EEST on August 18, 2016","2016","08","18","08","00","Europe/Kiev","5:00 AM GMT on August 18, 2016","2016","08","18","05","00","UTC","17.0","62.6","16.0","60.8","94","3.6","2.2","-9999.0","-9999.0","0","Variable","9.0","5.6","1012","29.89","-999","-999","-9999","-9999","-9999.00","-9999.00","Light Rain","rain","0","1","0","0","0","0","METAR UKKK 180500Z VRB01MPS 9000 -RA BKN006 OVC025 17/16 Q1012 R26/290256 TEMPO 2100 -SHRA BKN015CB"
"8:30 AM EEST on August 18, 2016","2016","08","18","08","30","Europe/Kiev","5:30 AM GMT on August 18, 2016","2016","08","18","05","30","UTC","17.0","62.6","16.0","60.8","94","7.2","4.5","-9999.0","-9999.0","360","North","10.0","6.2","1012","29.89","-999","-999","-9999","-9999","-9999.00","-9999.00","Light Rain","rain","0","1","0","0","0","0","METAR UKKK 180530Z 36002MPS 280V070 9999 -RA BKN006 OVC025 17/16 Q1012 R26/290256 TEMPO 2100 -SHRA BKN015CB"
"9:00 AM EEST on August 18, 2016","2016","08","18","09","00","Europe/Kiev","6:00 AM GMT on August 18, 2016","2016","08","18","06","00","UTC","17","63","16","62","94","0.0","0.0","","","","","4","2","1012","29.90","-999","-999","-9999","-9999","","","Mist","hazy","0","0","0","0","0","0","AAXX 18061 33345 11496 80000 10173 20165 39929 40125 52009 60102 71062 886// 333 20165 88710 555 11019"
"9:00 AM EEST on August 18, 2016","2016","08","18","09","00","Europe/Kiev","6:00 AM GMT on August 18, 2016","2016","08","18","06","00","UTC","17.0","62.6","16.0","60.8","94","7.2","4.5","-9999.0","-9999.0","340","NNW","10.0","6.2","1013","29.92","-999","-999","-9999","-9999","-9999.00","-9999.00","Overcast","cloudy","0","0","0","0","0","0","METAR UKKK 180600Z 34002MPS 9999 BKN007 OVC028 17/16 Q1013 R26/290256 TEMPO 2100 -SHRA BKN005 BKN015CB"
"9:30 AM EEST on August 18, 2016","2016","08","18","09","30","Europe/Kiev","6:30 AM GMT on August 18, 2016","2016","08","18","06","30","UTC","16.0","60.8","15.0","59.0","94","7.2","4.5","-9999.0","-9999.0","330","NNW","10.0","6.2","1013","29.92","-999","-999","-9999","-9999","-9999.00","-9999.00","Overcast","cloudy","0","0","0","0","0","0","METAR UKKK 180630Z 33002MPS 300V030 9999 BKN007 OVC028 16/15 Q1013 R26/290256 NOSIG"
"10:00 AM EEST on August 18, 2016","2016","08","18","10","00","Europe/Kiev","7:00 AM GMT on August 18, 2016","2016","08","18","07","00","UTC","17.0","62.6","16.0","60.8","94","7.2","4.5","-9999.0","-9999.0","360","North","10.0","6.2","1013","29.92","-999","-999","-9999","-9999","-9999.00","-9999.00","Light Rain Showers","rain","0","1","0","0","0","0","METAR UKKK 180700Z 36002MPS 320V050 9999 -SHRA BKN007 BKN030CB 17/16 Q1013 R26/290256 NOSIG"
"10:30 AM EEST on August 18, 2016","2016","08","18","10","30","Europe/Kiev","7:30 AM GMT on August 18, 2016","2016","08","18","07","30","UTC","17.0","62.6","16.0","60.8","94","7.2","4.5","-9999.0","-9999.0","360","North","10.0","6.2","1013","29.92","-999","-999","-9999","-9999","-9999.00","-9999.00","Mostly Cloudy","mostlycloudy","0","0","0","0","0","0","METAR UKKK 180730Z 36002MPS 320V030 9999 BKN006 BKN033 17/16 Q1013 R26/290256 TEMPO BKN005"
"11:00 AM EEST on August 18, 2016","2016","08","18","11","00","Europe/Kiev","8:00 AM GMT on August 18, 2016","2016","08","18","08","00","UTC","17.0","62.6","16.0","60.8","94","10.8","6.7","-9999.0","-9999.0","330","NNW","9.0","5.6","1013","29.92","-999","-999","-9999","-9999","-9999.00","-9999.00","Light Rain Showers","rain","0","1","0","0","0","0","METAR UKKK 180800Z 33003MPS 310V010 9000 -SHRA BKN005 BKN030CB 17/16 Q1013 R26/290256 TEMPO BKN004"
"11:09 AM EEST on August 18, 2016","2016","08","18","11","09","Europe/Kiev","8:09 AM GMT on August 18, 2016","2016","08","18","08","09","UTC","16.0","60.8","16.0","60.8","100","10.8","6.7","-9999.0","-9999.0","340","NNW","9.0","5.6","1013","29.92","-999","-999","-9999","-9999","-9999.00","-9999.00","Light Rain Showers","rain","0","1","0","0","0","0","SPECI UKKK 180809Z 34003MPS 310V010 9000 -SHRA BKN004 BKN030CB 16/16 Q1013 R26/290256 TEMPO 2100 -SHRA BKN003 BKN020CB"
"11:30 AM EEST on August 18, 2016","2016","08","18","11","30","Europe/Kiev","8:30 AM GMT on August 18, 2016","2016","08","18","08","30","UTC","16.0","60.8","16.0","60.8","100","10.8","6.7","-9999.0","-9999.0","320","NW","5.0","3.1","1013","29.92","-999","-999","-9999","-9999","-9999.00","-9999.00","Light Rain Showers","rain","0","1","0","0","0","0","METAR UKKK 180830Z 32003MPS 300V360 5000 -SHRA BR BKN003 BKN030CB 16/16 Q1013 R26/290256 TEMPO 1700 -SHRA BR BKN003 BKN020CB"
"12:00 PM EEST on August 18, 2016","2016","08","18","12","00","Europe/Kiev","9:00 AM GMT on August 18, 2016","2016","08","18","09","00","UTC","17","63","16","61","91","7.2","4.5","","","0","North","4","2","1014","29.94","-999","-999","-9999","-9999","","","Light Rain","rain","0","1","0","0","0","0","AAXX 18091 33345 41396 83602 10171 20161 39940 40136 52011 76162 8872/ 333 86707 555 11019"
"12:00 PM EEST on August 18, 2016","2016","08","18","12","00","Europe/Kiev","9:00 AM GMT on August 18, 2016","2016","08","18","09","00","UTC","16.0","60.8","15.0","59.0","94","14.4","8.9","-9999.0","-9999.0","310","NW","-9999.0","-9999.0","1014","29.95","-999","-999","-9999","-9999","-9999.00","-9999.00","Light Rain Showers","rain","0","1","0","0","0","0","METAR UKKK 180900Z 31004MPS 3200 -SHRA BR BKN003 BKN030CB 16/15 Q1014 R26/290256 TEMPO 1700 -SHRA BR BKN003 BKN020CB"
"12:30 PM EEST on August 18, 2016","2016","08","18","12","30","Europe/Kiev","9:30 AM GMT on August 18, 2016","2016","08","18","09","30","UTC","16.0","60.8","15.0","59.0","94","10.8","6.7","-9999.0","-9999.0","330","NNW","8.0","5.0","1014","29.95","-999","-999","-9999","-9999","-9999.00","-9999.00","Light Rain Showers","rain","0","1","0","0","0","0","METAR UKKK 180930Z 33003MPS 300V360 8000 -SHRA BKN004 BKN030CB 16/15 Q1014 R26/290256 TEMPO 1700 -SHRA BR BKN003 BKN020CB"
"1:00 PM EEST on August 18, 2016","2016","08","18","13","00","Europe/Kiev","10:00 AM GMT on August 18, 2016","2016","08","18","10","00","UTC","16.0","60.8","16.0","60.8","100","7.2","4.5","-9999.0","-9999.0","320","NW","7.0","4.3","1014","29.95","-999","-999","-9999","-9999","-9999.00","-9999.00","Light Rain Showers","rain","0","1","0","0","0","0","METAR UKKK 181000Z 32002MPS 7000 -SHRA BKN005 BKN030CB 16/16 Q1014 R26/290256 TEMPO 2100 -SHRA BKN003 BKN020CB"
"1:30 PM EEST on August 18, 2016","2016","08","18","13","30","Europe/Kiev","10:30 AM GMT on August 18, 2016","2016","08","18","10","30","UTC","16.0","60.8","16.0","60.8","100","7.2","4.5","-9999.0","-9999.0","360","North","9.0","5.6","1014","29.95","-999","-999","-9999","-9999","-9999.00","-9999.00","Mostly Cloudy","mostlycloudy","0","0","0","0","0","0","METAR UKKK 181030Z 36002MPS 320V030 9000 BKN005 BKN040 16/16 Q1014 R26/290256 TEMPO BKN004"
"2:00 PM EEST on August 18, 2016","2016","08","18","14","00","Europe/Kiev","11:00 AM GMT on August 18, 2016","2016","08","18","11","00","UTC","16.0","60.8","16.0","60.8","100","10.8","6.7","-9999.0","-9999.0","20","NNE","8.0","5.0","1014","29.95","-999","-999","-9999","-9999","-9999.00","-9999.00","Light Rain","rain","0","1","0","0","0","0","METAR UKKK 181100Z 02003MPS 340V050 8000 -RA BKN005 OVC040 16/16 Q1014 R26/290256 TEMPO BKN004"
"2:15 PM EEST on August 18, 2016","2016","08","18","14","15","Europe/Kiev","11:15 AM GMT on August 18, 2016","2016","08","18","11","15","UTC","17.0","62.6","16.0","60.8","94","7.2","4.5","-9999.0","-9999.0","20","NNE","8.0","5.0","1014","29.95","-999","-999","-9999","-9999","-9999.00","-9999.00","Light Rain","rain","0","1","0","0","0","0","SPECI UKKK 181115Z 02002MPS 360V060 8000 -RA BKN004 OVC040 17/16 Q1014 R26/290256 TEMPO BKN003"
"2:30 PM EEST on August 18, 2016","2016","08","18","14","30","Europe/Kiev","11:30 AM GMT on August 18, 2016","2016","08","18","11","30","UTC","17.0","62.6","16.0","60.8","94","7.2","4.5","-9999.0","-9999.0","350","North","8.0","5.0","1014","29.95","-999","-999","-9999","-9999","-9999.00","-9999.00","Light Rain","rain","0","1","0","0","0","0","METAR UKKK 181130Z 35002MPS 320V030 8000 -RA BKN004 OVC040 17/16 Q1014 R26/290256 TEMPO BKN003"
"3:00 PM EEST on August 18, 2016","2016","08","18","15","00","Europe/Kiev","12:00 PM GMT on August 18, 2016","2016","08","18","12","00","UTC","17","62","16","61","94","10.8","6.7","","","30","NNE","4","2","1014","29.95","-999","-999","-9999","-9999","","","Light Rain","rain","0","1","0","0","0","0","AAXX 18121 33345 /1296 80303 10169 20159 39945 40141 52005 72162 886// 333 88706 555 11020 69971"
"3:00 PM EEST on August 18, 2016","2016","08","18","15","00","Europe/Kiev","12:00 PM GMT on August 18, 2016","2016","08","18","12","00","UTC","17.0","62.6","16.0","60.8","94","10.8","6.7","-9999.0","-9999.0","350","North","7.0","4.3","1014","29.95","-999","-999","-9999","-9999","-9999.00","-9999.00","Light Rain","rain","0","1","0","0","0","0","METAR UKKK 181200Z 35003MPS 7000 -RA BKN004 OVC040 17/16 Q1014 R26/290256 TEMPO BKN003"
"3:30 PM EEST on August 18, 2016","2016","08","18","15","30","Europe/Kiev","12:30 PM GMT on August 18, 2016","2016","08","18","12","30","UTC","17.0","62.6","16.0","60.8","94","10.8","6.7","-9999.0","-9999.0","350","North","5.0","3.1","1014","29.95","-999","-999","-9999","-9999","-9999.00","-9999.00","Overcast","cloudy","0","0","0","0","0","0","METAR UKKK 181230Z 35003MPS 320V020 5000 BR BKN003 OVC040 17/16 Q1014 R26/290256 TEMPO BKN003"
"4:00 PM EEST on August 18, 2016","2016","08","18","16","00","Europe/Kiev","1:00 PM GMT on August 18, 2016","2016","08","18","13","00","UTC","16.0","60.8","16.0","60.8","100","10.8","6.7","-9999.0","-9999.0","330","NNW","5.0","3.1","1014","29.95","-999","-999","-9999","-9999","-9999.00","-9999.00","Overcast","cloudy","0","0","0","0","0","0","METAR UKKK 181300Z 33003MPS 300V040 5000 BR BKN003 OVC040 16/16 Q1014 R26/290158 TEMPO BKN002"
"4:30 PM EEST on August 18, 2016","2016","08","18","16","30","Europe/Kiev","1:30 PM GMT on August 18, 2016","2016","08","18","13","30","UTC","16.0","60.8","16.0","60.8","100","10.8","6.7","-9999.0","-9999.0","350","North","7.0","4.3","1014","29.95","-999","-999","-9999","-9999","-9999.00","-9999.00","Overcast","cloudy","0","0","0","0","0","0","METAR UKKK 181330Z 35003MPS 7000 BKN003 OVC040 16/16 Q1014 R26/290158 TEMPO BKN002"
"5:00 PM EEST on August 18, 2016","2016","08","18","17","00","Europe/Kiev","2:00 PM GMT on August 18, 2016","2016","08","18","14","00","UTC","17.0","62.6","16.0","60.8","94","10.8","6.7","-9999.0","-9999.0","350","North","8.0","5.0","1014","29.95","-999","-999","-9999","-9999","-9999.00","-9999.00","Mostly Cloudy","mostlycloudy","0","0","0","0","0","0","METAR UKKK 181400Z 35003MPS 330V030 8000 BKN005 BKN040 17/16 Q1014 R26/290158 TEMPO BKN002"
"5:30 PM EEST on August 18, 2016","2016","08","18","17","30","Europe/Kiev","2:30 PM GMT on August 18, 2016","2016","08","18","14","30","UTC","17.0","62.6","16.0","60.8","94","10.8","6.7","-9999.0","-9999.0","340","NNW","9.0","5.6","1014","29.95","-999","-999","-9999","-9999","-9999.00","-9999.00","Mostly Cloudy","mostlycloudy","0","0","0","0","0","0","METAR UKKK 181430Z 34003MPS 9000 BKN005 BKN040 17/16 Q1014 R26/290158 TEMPO BKN002"
"6:00 PM EEST on August 18, 2016","2016","08","18","18","00","Europe/Kiev","3:00 PM GMT on August 18, 2016","2016","08","18","15","00","UTC","18","64","16","61","86","3.6","2.2","","","20","NNE","4","2","1014","29.95","-999","-999","-9999","-9999","","","Mist","hazy","0","0","0","0","0","0","AAXX 18151 33345 41396 80201 10175 20160 39946 40142 51001 71062 886// 333 88709 555 11020"
"6:00 PM EEST on August 18, 2016","2016","08","18","18","00","Europe/Kiev","3:00 PM GMT on August 18, 2016","2016","08","18","15","00","UTC","17.0","62.6","16.0","60.8","94","10.8","6.7","-9999.0","-9999.0","360","North","10.0","6.2","1014","29.95","-999","-999","-9999","-9999","-9999.00","-9999.00","Mostly Cloudy","mostlycloudy","0","0","0","0","0","0","METAR UKKK 181500Z 36003MPS 310V040 9999 BKN005 BKN040 17/16 Q1014 R26/CLRD70 TEMPO BKN004"
"6:30 PM EEST on August 18, 2016","2016","08","18","18","30","Europe/Kiev","3:30 PM GMT on August 18, 2016","2016","08","18","15","30","UTC","18.0","64.4","16.0","60.8","88","7.2","4.5","-9999.0","-9999.0","360","North","9.0","5.6","1014","29.95","-999","-999","-9999","-9999","-9999.00","-9999.00","Mostly Cloudy","mostlycloudy","0","0","0","0","0","0","METAR UKKK 181530Z 36002MPS 320V040 9000 BKN006 BKN046 18/16 Q1014 R26/CLRD70 TEMPO BKN004"
"7:00 PM EEST on August 18, 2016","2016","08","18","19","00","Europe/Kiev","4:00 PM GMT on August 18, 2016","2016","08","18","16","00","UTC","18.0","64.4","16.0","60.8","88","7.2","4.5","-9999.0","-9999.0","20","NNE","10.0","6.2","1015","29.98","-999","-999","-9999","-9999","-9999.00","-9999.00","Mostly Cloudy","mostlycloudy","0","0","0","0","0","0","METAR UKKK 181600Z 02002MPS 350V070 9999 BKN008 BKN044 18/16 Q1015 R26/CLRD70 TEMPO BKN004"
"7:30 PM EEST on August 18, 2016","2016","08","18","19","30","Europe/Kiev","4:30 PM GMT on August 18, 2016","2016","08","18","16","30","UTC","18.0","64.4","16.0","60.8","88","7.2","4.5","-9999.0","-9999.0","40","NE","10.0","6.2","1015","29.98","-999","-999","-9999","-9999","-9999.00","-9999.00","Mostly Cloudy","mostlycloudy","0","0","0","0","0","0","METAR UKKK 181630Z 04002MPS 9999 BKN009 BKN042 18/16 Q1015 R08/CLRD70 TEMPO BKN004"
"8:00 PM EEST on August 18, 2016","2016","08","18","20","00","Europe/Kiev","5:00 PM GMT on August 18, 2016","2016","08","18","17","00","UTC","18.0","64.4","16.0","60.8","88","10.8","6.7","-9999.0","-9999.0","30","NNE","10.0","6.2","1015","29.98","-999","-999","-9999","-9999","-9999.00","-9999.00","Mostly Cloudy","mostlycloudy","0","0","0","0","0","0","METAR UKKK 181700Z 03003MPS 9999 BKN008 BKN042 18/16 Q1015 R08/CLRD70 TEMPO BKN004"
"8:20 PM EEST on August 18, 2016","2016","08","18","20","20","Europe/Kiev","5:20 PM GMT on August 18, 2016","2016","08","18","17","20","UTC","18.0","64.4","16.0","60.8","88","7.2","4.5","-9999.0","-9999.0","100","East","9.0","5.6","1015","29.98","-999","-999","-9999","-9999","-9999.00","-9999.00","Light Rain Showers","rain","0","1","0","0","1","0","SPECI UKKK 181720Z 10002MPS 060V160 9000 VCTS -SHRA SCT009 BKN030CB BKN042 18/16 Q1015 R08/CLRD70 TEMPO VRB08G13MPS 2100 -TSRA BKN020CB"
"8:30 PM EEST on August 18, 2016","2016","08","18","20","30","Europe/Kiev","5:30 PM GMT on August 18, 2016","2016","08","18","17","30","UTC","17.0","62.6","16.0","60.8","94","0.0","0.0","-9999.0","-9999.0","0","North","6.0","3.7","1015","29.98","-999","-999","-9999","-9999","-9999.00","-9999.00","Light Rain Showers","rain","0","1","0","0","1","0","METAR UKKK 181730Z 00000MPS 6000 VCTS -SHRA FEW007 SCT030CB BKN046 17/16 Q1015 R08/290058 TEMPO VRB08G13MPS 2100 -TSRA BKN020CB"
"8:40 PM EEST on August 18, 2016","2016","08","18","20","40","Europe/Kiev","5:40 PM GMT on August 18, 2016","2016","08","18","17","40","UTC","17.0","62.6","16.0","60.8","94","0.0","0.0","-9999.0","-9999.0","0","North","5.0","3.1","1015","29.98","-999","-999","-9999","-9999","-9999.00","-9999.00","Light Rain Showers","rain","0","1","0","0","0","0","SPECI UKKK 181740Z 00000MPS 5000 -SHRA FEW008 SCT030CB BKN046 17/16 Q1015 R08/290058 TEMPO VRB08G13MPS 2100 -TSRA BKN020CB"
"9:00 PM EEST on August 18, 2016","2016","08","18","21","00","Europe/Kiev","6:00 PM GMT on August 18, 2016","2016","08","18","18","00","UTC","17","63","16","62","93","7.2","4.5","","","30","NNE","4","2","1014","29.96","-999","-999","-9999","-9999","","","Light Rain Showers","rain","0","1","0","0","0","0","AAXX 18181 33345 11396 80302 10171 20164 39949 40145 53003 60052 78086 889// 333 10178 87708 555 11018"
"9:00 PM EEST on August 18, 2016","2016","08","18","21","00","Europe/Kiev","6:00 PM GMT on August 18, 2016","2016","08","18","18","00","UTC","17.0","62.6","17.0","62.6","100","7.2","4.5","-9999.0","-9999.0","340","NNW","5.0","3.1","1014","29.95","-999","-999","-9999","-9999","-9999.00","-9999.00","Light Rain Showers","rain","0","1","0","0","0","0","METAR UKKK 181800Z 34002MPS 5000 -SHRA FEW010 SCT030CB BKN100 17/17 Q1014 R08/290355 NOSIG"
"9:30 PM EEST on August 18, 2016","2016","08","18","21","30","Europe/Kiev","6:30 PM GMT on August 18, 2016","2016","08","18","18","30","UTC","17.0","62.6","17.0","62.6","100","7.2","4.5","-9999.0","-9999.0","40","NE","9.0","5.6","1014","29.95","-999","-999","-9999","-9999","-9999.00","-9999.00","Light Rain Showers","rain","0","1","0","0","0","0","METAR UKKK 181830Z 04002MPS 9000 -SHRA FEW006 SCT030CB BKN100 17/17 Q1014 R08/290355 NOSIG"
"10:00 PM EEST on August 18, 2016","2016","08","18","22","00","Europe/Kiev","7:00 PM GMT on August 18, 2016","2016","08","18","19","00","UTC","17.0","62.6","16.0","60.8","94","7.2","4.5","-9999.0","-9999.0","30","NNE","5.0","3.1","1014","29.95","-999","-999","-9999","-9999","-9999.00","-9999.00","Mostly Cloudy","mostlycloudy","0","0","0","0","0","0","METAR UKKK 181900Z 03002MPS 5000 BR SCT008 BKN100 17/16 Q1014 R08/290355 NOSIG"
"10:30 PM EEST on August 18, 2016","2016","08","18","22","30","Europe/Kiev","7:30 PM GMT on August 18, 2016","2016","08","18","19","30","UTC","17.0","62.6","16.0","60.8","94","7.2","4.5","-9999.0","-9999.0","40","NE","5.0","3.1","1014","29.95","-999","-999","-9999","-9999","-9999.00","-9999.00","Mostly Cloudy","mostlycloudy","0","0","0","0","0","0","METAR UKKK 181930Z 04002MPS 5000 BR SCT004 BKN100 17/16 Q1014 R08/290355 NOSIG"
"11:00 PM EEST on August 18, 2016","2016","08","18","23","00","Europe/Kiev","8:00 PM GMT on August 18, 2016","2016","08","18","20","00","UTC","16.0","60.8","16.0","60.8","100","0.0","0.0","-9999.0","-9999.0","0","North","1.2","0.7","1014","29.95","-999","-999","-9999","-9999","-9999.00","-9999.00","Mostly Cloudy","mostlycloudy","0","0","0","0","0","0","METAR UKKK 182000Z 00000MPS 1200 R08/1500VP2000D BR BKN004 16/16 Q1014 R08/290355 TEMPO 0400 FG VV002"
"11:30 PM EEST on August 18, 2016","2016","08","18","23","30","Europe/Kiev","8:30 PM GMT on August 18, 2016","2016","08","18","20","30","UTC","16.0","60.8","16.0","60.8","100","0.0","0.0","-9999.0","-9999.0","0","North","2.4","1.5","1014","29.95","-999","-999","-9999","-9999","-9999.00","-9999.00","Mostly Cloudy","mostlycloudy","0","0","0","0","0","0","METAR UKKK 182030Z 00000MPS 2400 BR BKN003 16/16 Q1014 R08/290355 TEMPO 0400 FG VV002"
"12:00 AM EEST on August 19, 2016","2016","08","19","00","00","Europe/Kiev","9:00 PM GMT on August 18, 2016","2016","08","18","21","00","UTC","16","62","16","61","94","0.0","0.0","","","","","1","1","1015","29.96","-999","-999","-9999","-9999","","","Mist","hazy","0","0","0","0","0","0","AAXX 18211 33345 41194 70000 10164 20159 39949 40146 54000 71082 86530 333 85703 555 11016"
"12:00 AM EEST on August 19, 2016","2016","08","19","00","00","Europe/Kiev","9:00 PM GMT on August 18, 2016","2016","08","18","21","00","UTC","17.0","62.6","17.0","62.6","100","3.6","2.2","-9999.0","-9999.0","0","Variable","5.0","3.1","1014","29.95","-999","-999","-9999","-9999","-9999.00","-9999.00","Mostly Cloudy","mostlycloudy","0","0","0","0","0","0","METAR UKKK 182100Z VRB01MPS 5000 BR BKN003 17/17 Q1014 R08/290355 TEMPO 0400 FG VV002"
"12:30 AM EEST on August 19, 2016","2016","08","19","00","30","Europe/Kiev","9:30 PM GMT on August 18, 2016","2016","08","18","21","30","UTC","16.0","60.8","16.0","60.8","100","3.6","2.2","-9999.0","-9999.0","0","Variable","-9999.0","-9999.0","1015","29.98","-999","-999","-9999","-9999","-9999.00","-9999.00","Mostly Cloudy","mostlycloudy","0","0","0","0","0","0","METAR UKKK 182130Z VRB01MPS 3900 BR BKN004 16/16 Q1015 R08/290355 TEMPO 0400 FG VV002"
"12:44 AM EEST on August 19, 2016","2016","08","19","00","44","Europe/Kiev","9:44 PM GMT on August 18, 2016","2016","08","18","21","44","UTC","16.0","60.8","16.0","60.8","100","3.6","2.2","-9999.0","-9999.0","60","ENE","1.2","0.7","1015","29.98","-999","-999","-9999","-9999","-9999.00","-9999.00","Mostly Cloudy","mostlycloudy","0","0","0","0","0","0","SPECI UKKK 182144Z 06001MPS 1200 R08/P2000D BR BKN003 16/16 Q1015 R08/290355 TEMPO 0400 FG VV002"
"12:50 AM EEST on August 19, 2016","2016","08","19","00","50","Europe/Kiev","9:50 PM GMT on August 18, 2016","2016","08","18","21","50","UTC","16.0","60.8","16.0","60.8","100","0.0","0.0","-9999.0","-9999.0","0","North","0.5","0.3","1015","29.98","-999","-999","-9999","-9999","-9999.00","-9999.00","Mostly Cloudy","mostlycloudy","0","0","0","0","0","0","SPECI UKKK 182150Z 00000MPS 0500 R08/P2000N PRFG BKN003 16/16 Q1015 R08/290058 TEMPO 0400 FG VV002"
"1:00 AM EEST on August 19, 2016","2016","08","19","01","00","Europe/Kiev","10:00 PM GMT on August 18, 2016","2016","08","18","22","00","UTC","16.0","60.8","16.0","60.8","100","0.0","0.0","-9999.0","-9999.0","0","North","0.3","0.2","1015","29.98","-999","-999","-9999","-9999","-9999.00","-9999.00","Fog","fog","1","0","0","0","0","0","METAR UKKK 182200Z 00000MPS 0350 R08/0900VP2000D FG VV002 16/16 Q1015 R08/290058 TEMPO 0400 FG VV002"
"1:08 AM EEST on August 19, 2016","2016","08","19","01","08","Europe/Kiev","10:08 PM GMT on August 18, 2016","2016","08","18","22","08","UTC","16.0","60.8","16.0","60.8","100","3.6","2.2","-9999.0","-9999.0","0","Variable","0.3","0.2","1015","29.98","-999","-999","-9999","-9999","-9999.00","-9999.00","Unknown","unknown","0","0","0","0","0","0","SPECI UKKK 182208Z VRB01MPS 0300 R08/0800VP2000U PRFG VV001 16/16 Q1015 R08/290058 TEMPO 0400 FG VV002"
"1:30 AM EEST on August 19, 2016","2016","08","19","01","30","Europe/Kiev","10:30 PM GMT on August 18, 2016","2016","08","18","22","30","UTC","17.0","62.6","17.0","62.6","100","7.2","4.5","-9999.0","-9999.0","320","NW","0.6","0.4","1015","29.98","-999","-999","-9999","-9999","-9999.00","-9999.00","Fog","fog","1","0","0","0","0","0","METAR UKKK 182230Z 32002MPS 280V350 0600 R08/1000VP2000D FG VV001 17/17 Q1015 R08/290058 TEMPO 0400 FG VV002"
"2:00 AM EEST on August 19, 2016","2016","08","19","02","00","Europe/Kiev","11:00 PM GMT on August 18, 2016","2016","08","18","23","00","UTC","17.0","62.6","17.0","62.6","100","7.2","4.5","-9999.0","-9999.0","300","WNW","0.2","0.1","1015","29.98","-999","-999","-9999","-9999","-9999.00","-9999.00","Unknown","unknown","0","0","0","0","0","0","METAR UKKK 182300Z 30002MPS 0200 R08/1400VP2000D PRFG VV001 17/17 Q1015 R08/290058 NOSIG"
"2:15 AM EEST on August 19, 2016","2016","08","19","02","15","Europe/Kiev","11:15 PM GMT on August 18, 2016","2016","08","18","23","15","UTC","16.0","60.8","16.0","60.8","100","7.2","4.5","-9999.0","-9999.0","300","WNW","0.3","0.2","1015","29.98","-999","-999","-9999","-9999","-9999.00","-9999.00","Fog","fog","1","0","0","0","0","0","SPECI UKKK 182315Z 30002MPS 0300 R26/0550V1200D FG VV001 16/16 Q1015 R26/290058 NOSIG"
"2:30 AM EEST on August 19, 2016","2016","08","19","02","30","Europe/Kiev","11:30 PM GMT on August 18, 2016","2016","08","18","23","30","UTC","16.0","60.8","16.0","60.8","100","7.2","4.5","-9999.0","-9999.0","310","NW","0.2","0.1","1015","29.98","-999","-999","-9999","-9999","-9999.00","-9999.00","Fog","fog","1","0","0","0","0","0","METAR UKKK 182330Z 31002MPS 0200 R26/0450V0900N FG VV001 16/16 Q1015 R26/290058 NOSIG"
"3:00 AM EEST on August 19, 2016","2016","08","19","03","00","Europe/Kiev","12:00 AM GMT on August 19, 2016","2016","08","19","00","00","UTC","16","61","16","61","99","3.6","2.2","","","350","North","0.2","0","1015","29.97","-999","-999","-9999","-9999","","","Heavy Fog","fog","1","0","0","0","0","0","AAXX 19001 33345 /1/92 93501 10162 20160 39950 40147 53001 74784 555 11016 69931"
"3:00 AM EEST on August 19, 2016","2016","08","19","03","00","Europe/Kiev","12:00 AM GMT on August 19, 2016","2016","08","19","00","00","UTC","16.0","60.8","16.0","60.8","100","7.2","4.5","-9999.0","-9999.0","310","NW","0.1","0.1","1015","29.98","-999","-999","-9999","-9999","-9999.00","-9999.00","Fog","fog","1","0","0","0","0","0","METAR UKKK 190000Z 31002MPS 0150 R26/0550N FG VV001 16/16 Q1015 R26/290058 NOSIG"
"3:30 AM EEST on August 19, 2016","2016","08","19","03","30","Europe/Kiev","12:30 AM GMT on August 19, 2016","2016","08","19","00","30","UTC","16.0","60.8","16.0","60.8","100","7.2","4.5","-9999.0","-9999.0","320","NW","0.1","0.1","1015","29.98","-999","-999","-9999","-9999","-9999.00","-9999.00","Fog","fog","1","0","0","0","0","0","METAR UKKK 190030Z 32002MPS 0150 R26/0550V0900U FG VV001 16/16 Q1015 R26/290058 NOSIG"
"4:00 AM EEST on August 19, 2016","2016","08","19","04","00","Europe/Kiev","1:00 AM GMT on August 19, 2016","2016","08","19","01","00","UTC","16.0","60.8","16.0","60.8","100","10.8","6.7","-9999.0","-9999.0","310","NW","0.4","0.2","1014","29.95","-999","-999","-9999","-9999","-9999.00","-9999.00","Fog","fog","1","0","0","0","0","0","METAR UKKK 190100Z 31003MPS 0400 R26/1100V1800D FG VV001 16/16 Q1014 R26/290058 NOSIG"
"4:30 AM EEST on August 19, 2016","2016","08","19","04","30","Europe/Kiev","1:30 AM GMT on August 19, 2016","2016","08","19","01","30","UTC","16.0","60.8","16.0","60.8","100","7.2","4.5","-9999.0","-9999.0","320","NW","0.2","0.1","1014","29.95","-999","-999","-9999","-9999","-9999.00","-9999.00","Fog","fog","1","0","0","0","0","0","METAR UKKK 190130Z 32002MPS 0200 R26/0650N FG VV001 16/16 Q1014 R26/290058 NOSIG"
"5:00 AM EEST on August 19, 2016","2016","08","19","05","00","Europe/Kiev","2:00 AM GMT on August 19, 2016","2016","08","19","02","00","UTC","16.0","60.8","16.0","60.8","100","10.8","6.7","-9999.0","-9999.0","340","NNW","0.3","0.2","1014","29.95","-999","-999","-9999","-9999","-9999.00","-9999.00","Fog","fog","1","0","0","0","0","0","METAR UKKK 190200Z 34003MPS 310V020 0350 R26/1100N FG VV001 16/16 Q1014 R26/290058 NOSIG"
"5:30 AM EEST on August 19, 2016","2016","08","19","05","30","Europe/Kiev","2:30 AM GMT on August 19, 2016","2016","08","19","02","30","UTC","16.0","60.8","16.0","60.8","100","7.2","4.5","-9999.0","-9999.0","330","NNW","0.3","0.2","1014","29.95","-999","-999","-9999","-9999","-9999.00","-9999.00","Fog","fog","1","0","0","0","0","0","METAR UKKK 190230Z 33002MPS 300V360 0300 R26/0900D FG VV001 16/16 Q1014 R26/290058 NOSIG"
"6:00 AM EEST on August 19, 2016","2016","08","19","06","00","Europe/Kiev","3:00 AM GMT on August 19, 2016","2016","08","19","03","00","UTC","16","61","16","61","100","3.6","2.2","","","340","NNW","0.2","0","1015","29.96","-999","-999","-9999","-9999","","","Heavy Fog","fog","1","0","0","0","0","0","AAXX 19031 33345 41/92 93401 10162 20162 39949 40146 58001 74542 555 11017"
"6:00 AM EEST on August 19, 2016","2016","08","19","06","00","Europe/Kiev","3:00 AM GMT on August 19, 2016","2016","08","19","03","00","UTC","16.0","60.8","16.0","60.8","100","3.6","2.2","-9999.0","-9999.0","0","Variable","0.4","0.2","1015","29.98","-999","-999","-9999","-9999","-9999.00","-9999.00","Fog","fog","1","0","0","0","0","0","METAR UKKK 190300Z VRB01MPS 0400 R26/0900U FG VV001 16/16 Q1015 R26/290058 NOSIG"
"6:30 AM EEST on August 19, 2016","2016","08","19","06","30","Europe/Kiev","3:30 AM GMT on August 19, 2016","2016","08","19","03","30","UTC","16.0","60.8","16.0","60.8","100","7.2","4.5","-9999.0","-9999.0","310","NW","0.4","0.2","1015","29.98","-999","-999","-9999","-9999","-9999.00","-9999.00","Fog","fog","1","0","0","0","0","0","METAR UKKK 190330Z 31002MPS 0400 R26/0800N FG VV001 16/16 Q1015 R26/290058 NOSIG"
"7:00 AM EEST on August 19, 2016","2016","08","19","07","00","Europe/Kiev","4:00 AM GMT on August 19, 2016","2016","08","19","04","00","UTC","16.0","60.8","16.0","60.8","100","7.2","4.5","-9999.0","-9999.0","320","NW","0.3","0.2","1015","29.98","-999","-999","-9999","-9999","-9999.00","-9999.00","Fog","fog","1","0","0","0","0","0","METAR UKKK 190400Z 32002MPS 0350 R26/0800N FG VV002 16/16 Q1015 R26/190060 NOSIG"
"7:30 AM EEST on August 19, 2016","2016","08","19","07","30","Europe/Kiev","4:30 AM GMT on August 19, 2016","2016","08","19","04","30","UTC","16.0","60.8","16.0","60.8","100","3.6","2.2","-9999.0","-9999.0","0","Variable","0.4","0.3","1015","29.98","-999","-999","-9999","-9999","-9999.00","-9999.00","Fog","fog","1","0","0","0","0","0","METAR UKKK 190430Z VRB01MPS 0450 R26/0650V1400U FG VV002 16/16 Q1015 R26/190060 NOSIG"
"7:44 AM EEST on August 19, 2016","2016","08","19","07","44","Europe/Kiev","4:44 AM GMT on August 19, 2016","2016","08","19","04","44","UTC","17.0","62.6","17.0","62.6","100","7.2","4.5","-9999.0","-9999.0","320","NW","0.4","0.2","1015","29.98","-999","-999","-9999","-9999","-9999.00","-9999.00","Fog","fog","1","0","0","0","0","0","SPECI UKKK 190444Z 32002MPS 0400 R26/0600N FG VV001 17/17 Q1015 R26/190060 NOSIG"
"8:00 AM EEST on August 19, 2016","2016","08","19","08","00","Europe/Kiev","5:00 AM GMT on August 19, 2016","2016","08","19","05","00","UTC","17.0","62.6","17.0","62.6","100","10.8","6.7","-9999.0","-9999.0","310","NW","0.3","0.2","1015","29.98","-999","-999","-9999","-9999","-9999.00","-9999.00","Fog","fog","1","0","0","0","0","0","METAR UKKK 190500Z 31003MPS 0350 R26/0500N FG VV001 17/17 Q1015 R26/190060 NOSIG"
"8:30 AM EEST on August 19, 2016","2016","08","19","08","30","Europe/Kiev","5:30 AM GMT on August 19, 2016","2016","08","19","05","30","UTC","17.0","62.6","17.0","62.6","100","7.2","4.5","-9999.0","-9999.0","360","North","1.8","1.1","1015","29.98","-999","-999","-9999","-9999","-9999.00","-9999.00","Overcast","cloudy","0","0","0","0","0","0","METAR UKKK 190530Z 36002MPS 300V050 1800 BR OVC002 17/17 Q1015 R26/190060 TEMPO 0300 FG VV001"
"8:33 AM EEST on August 19, 2016","2016","08","19","08","33","Europe/Kiev","5:33 AM GMT on August 19, 2016","2016","08","19","05","33","UTC","17.0","62.6","17.0","62.6","100","3.6","2.2","-9999.0","-9999.0","0","Variable","1.6","1.0","1015","29.98","-999","-999","-9999","-9999","-9999.00","-9999.00","Overcast","cloudy","0","0","0","0","0","0","SPECI UKKK 190533Z VRB01MPS 1600 BR OVC001 17/17 Q1015 R26/190060 TEMPO 0300 FG VV001"
"9:00 AM EEST on August 19, 2016","2016","08","19","09","00","Europe/Kiev","6:00 AM GMT on August 19, 2016","2016","08","19","06","00","UTC","17","63","17","62","97","3.6","2.2","","","0","North","1","1","1015","29.97","-999","-999","-9999","-9999","","","Light Fog","fog","1","0","0","0","0","0","AAXX 19061 33345 11194 83601 10172 20169 39951 40147 53002 69932 72842 886// 333 20161 88702 555 11019"
"9:00 AM EEST on August 19, 2016","2016","08","19","09","00","Europe/Kiev","6:00 AM GMT on August 19, 2016","2016","08","19","06","00","UTC","17.0","62.6","17.0","62.6","100","7.2","4.5","-9999.0","-9999.0","30","NNE","-9999.0","-9999.0","1015","29.98","-999","-999","-9999","-9999","-9999.00","-9999.00","Overcast","cloudy","0","0","0","0","0","0","METAR UKKK 190600Z 03002MPS 330V100 3100 BR OVC002 17/17 Q1015 R26/190060 TEMPO 0300 FG VV001"
"9:30 AM EEST on August 19, 2016","2016","08","19","09","30","Europe/Kiev","6:30 AM GMT on August 19, 2016","2016","08","19","06","30","UTC","17.0","62.6","17.0","62.6","100","7.2","4.5","-9999.0","-9999.0","360","North","-9999.0","-9999.0","1015","29.98","-999","-999","-9999","-9999","-9999.00","-9999.00","Overcast","cloudy","0","0","0","0","0","0","METAR UKKK 190630Z 36002MPS 310V030 3300 BR OVC002 17/17 Q1015 R26/190060 TEMPO BKN001"
"10:00 AM EEST on August 19, 2016","2016","08","19","10","00","Europe/Kiev","7:00 AM GMT on August 19, 2016","2016","08","19","07","00","UTC","18.0","64.4","18.0","64.4","100","7.2","4.5","-9999.0","-9999.0","30","NNE","-9999.0","-9999.0","1015","29.98","-999","-999","-9999","-9999","-9999.00","-9999.00","Overcast","cloudy","0","0","0","0","0","0","METAR UKKK 190700Z 03002MPS 340V070 4300 BR OVC004 18/18 Q1015 R26/190060 TEMPO BKN003"
"10:30 AM EEST on August 19, 2016","2016","08","19","10","30","Europe/Kiev","7:30 AM GMT on August 19, 2016","2016","08","19","07","30","UTC","18.0","64.4","18.0","64.4","100","7.2","4.5","-9999.0","-9999.0","40","NE","5.0","3.1","1015","29.98","-999","-999","-9999","-9999","-9999.00","-9999.00","Overcast","cloudy","0","0","0","0","0","0","METAR UKKK 190730Z 04002MPS 340V080 5000 BR OVC005 18/18 Q1015 R26/190060 TEMPO BKN003"
"11:00 AM EEST on August 19, 2016","2016","08","19","11","00","Europe/Kiev","8:00 AM GMT on August 19, 2016","2016","08","19","08","00","UTC","19.0","66.2","18.0","64.4","94","7.2","4.5","-9999.0","-9999.0","340","NNW","7.0","4.3","1015","29.98","-999","-999","-9999","-9999","-9999.00","-9999.00","Overcast","cloudy","0","0","0","0","0","0","METAR UKKK 190800Z 34002MPS 310V030 7000 OVC006 19/18 Q1015 R26/CLRD70 TEMPO BKN003"
"11:30 AM EEST on August 19, 2016","2016","08","19","11","30","Europe/Kiev","8:30 AM GMT on August 19, 2016","2016","08","19","08","30","UTC","20.0","68.0","18.0","64.4","88","10.8","6.7","-9999.0","-9999.0","340","NNW","9.0","5.6","1015","29.98","-999","-999","-9999","-9999","-9999.00","-9999.00","Overcast","cloudy","0","0","0","0","0","0","METAR UKKK 190830Z 34003MPS 300V040 9000 OVC008 20/18 Q1015 R26/CLRD70 NOSIG"
"12:00 PM EEST on August 19, 2016","2016","08","19","12","00","Europe/Kiev","9:00 AM GMT on August 19, 2016","2016","08","19","09","00","UTC","20","67","18","64","87","3.6","2.2","","","320","NW","4","2","1015","29.97","-999","-999","-9999","-9999","","","Mist","hazy","0","0","0","0","0","0","AAXX 19091 33345 41496 73201 10197 20178 39954 40148 52003 71022 87500 333 87615 555 11025"
"12:00 PM EEST on August 19, 2016","2016","08","19","12","00","Europe/Kiev","9:00 AM GMT on August 19, 2016","2016","08","19","09","00","UTC","20.0","68.0","17.0","62.6","83","10.8","6.7","-9999.0","-9999.0","310","NW","10.0","6.2","1015","29.98","-999","-999","-9999","-9999","-9999.00","-9999.00","Overcast","cloudy","0","0","0","0","0","0","METAR UKKK 190900Z 31003MPS 9999 OVC012 20/17 Q1015 R26/CLRD70 NOSIG"
"12:30 PM EEST on August 19, 2016","2016","08","19","12","30","Europe/Kiev","9:30 AM GMT on August 19, 2016","2016","08","19","09","30","UTC","20.0","68.0","18.0","64.4","88","10.8","6.7","-9999.0","-9999.0","300","WNW","9.0","5.6","1015","29.98","-999","-999","-9999","-9999","-9999.00","-9999.00","Overcast","cloudy","0","0","0","0","0","0","METAR UKKK 190930Z 30003MPS 270V330 9000 OVC010 20/18 Q1015 R26/CLRD70 NOSIG"
"1:00 PM EEST on August 19, 2016","2016","08","19","13","00","Europe/Kiev","10:00 AM GMT on August 19, 2016","2016","08","19","10","00","UTC","21.0","69.8","18.0","64.4","83","7.2","4.5","-9999.0","-9999.0","360","North","10.0","6.2","1015","29.98","-999","-999","-9999","-9999","-9999.00","-9999.00","Mostly Cloudy","mostlycloudy","0","0","0","0","0","0","METAR UKKK 191000Z 36002MPS 310V050 9999 SCT012 BKN200 21/18 Q1015 R26/CLRD70 NOSIG"
"1:30 PM EEST on August 19, 2016","2016","08","19","13","30","Europe/Kiev","10:30 AM GMT on August 19, 2016","2016","08","19","10","30","UTC","21.0","69.8","18.0","64.4","83","10.8","6.7","-9999.0","-9999.0","20","NNE","10.0","6.2","1015","29.98","-999","-999","-9999","-9999","-9999.00","-9999.00","Mostly Cloudy","mostlycloudy","0","0","0","0","0","0","METAR UKKK 191030Z 02003MPS 330V070 9999 SCT012 BKN200 21/18 Q1015 R26/CLRD70 NOSIG"
"2:00 PM EEST on August 19, 2016","2016","08","19","14","00","Europe/Kiev","11:00 AM GMT on August 19, 2016","2016","08","19","11","00","UTC","22.0","71.6","18.0","64.4","78","7.2","4.5","-9999.0","-9999.0","40","NE","10.0","6.2","1015","29.98","-999","-999","-9999","-9999","-9999.00","-9999.00","Mostly Cloudy","mostlycloudy","0","0","0","0","0","0","METAR UKKK 191100Z 04002MPS 9999 SCT016 BKN200 22/18 Q1015 R26/CLRD70 NOSIG"
"2:30 PM EEST on August 19, 2016","2016","08","19","14","30","Europe/Kiev","11:30 AM GMT on August 19, 2016","2016","08","19","11","30","UTC","22.0","71.6","18.0","64.4","78","7.2","4.5","-9999.0","-9999.0","40","NE","10.0","6.2","1015","29.98","-999","-999","-9999","-9999","-9999.00","-9999.00","Mostly Cloudy","mostlycloudy","0","0","0","0","0","0","METAR UKKK 191130Z 04002MPS 350V090 9999 SCT016 BKN200 22/18 Q1015 R08/CLRD70 NOSIG"
"3:00 PM EEST on August 19, 2016","2016","08","19","15","00","Europe/Kiev","12:00 PM GMT on August 19, 2016","2016","08","19","12","00","UTC","22","72","18","65","72","7.2","4.5","","","70","ENE","20","12","1015","29.98","-999","-999","-9999","-9999","","","Mostly Cloudy","mostlycloudy","0","0","0","0","0","0","AAXX 19121 33345 32498 60702 10224 20183 39957 40150 52003 86500 333 86618 555 11029"
"3:00 PM EEST on August 19, 2016","2016","08","19","15","00","Europe/Kiev","12:00 PM GMT on August 19, 2016","2016","08","19","12","00","UTC","23.0","73.4","18.0","64.4","73","7.2","4.5","-9999.0","-9999.0","40","NE","10.0","6.2","1015","29.98","-999","-999","-9999","-9999","-9999.00","-9999.00","Mostly Cloudy","mostlycloudy","0","0","0","0","0","0","METAR UKKK 191200Z 04002MPS 9999 SCT020 BKN100 23/18 Q1015 R08/CLRD70 NOSIG"
"3:30 PM EEST on August 19, 2016","2016","08","19","15","30","Europe/Kiev","12:30 PM GMT on August 19, 2016","2016","08","19","12","30","UTC","23.0","73.4","18.0","64.4","73","7.2","4.5","-9999.0","-9999.0","70","ENE","10.0","6.2","1015","29.98","-999","-999","-9999","-9999","-9999.00","-9999.00","Mostly Cloudy","mostlycloudy","0","0","0","0","0","0","METAR UKKK 191230Z 07002MPS 010V130 9999 SCT023 BKN100 23/18 Q1015 R08/CLRD70 NOSIG"
"4:00 PM EEST on August 19, 2016","2016","08","19","16","00","Europe/Kiev","1:00 PM GMT on August 19, 2016","2016","08","19","13","00","UTC","24.0","75.2","18.0","64.4","69","3.6","2.2","-9999.0","-9999.0","0","Variable","10.0","6.2","1015","29.98","-999","-999","-9999","-9999","-9999.00","-9999.00","Mostly Cloudy","mostlycloudy","0","0","0","0","0","0","METAR UKKK 191300Z VRB01MPS 9999 SCT027 BKN100 24/18 Q1015 R08/CLRD70 NOSIG"
"4:30 PM EEST on August 19, 2016","2016","08","19","16","30","Europe/Kiev","1:30 PM GMT on August 19, 2016","2016","08","19","13","30","UTC","24.0","75.2","18.0","64.4","69","7.2","4.5","-9999.0","-9999.0","60","ENE","10.0","6.2","1015","29.98","-999","-999","-9999","-9999","-9999.00","-9999.00","Mostly Cloudy","mostlycloudy","0","0","0","0","0","0","METAR UKKK 191330Z 06002MPS 9999 SCT028 BKN100 24/18 Q1015 R08/CLRD70 NOSIG"
"5:00 PM EEST on August 19, 2016","2016","08","19","17","00","Europe/Kiev","2:00 PM GMT on August 19, 2016","2016","08","19","14","00","UTC","25.0","77.0","17.0","62.6","61","7.2","4.5","-9999.0","-9999.0","30","NNE","10.0","6.2","1015","29.98","-999","-999","-9999","-9999","-9999.00","-9999.00","Mostly Cloudy","mostlycloudy","0","0","0","0","0","0","METAR UKKK 191400Z 03002MPS 9999 SCT030 BKN100 25/17 Q1015 R08/CLRD70 NOSIG"
"5:30 PM EEST on August 19, 2016","2016","08","19","17","30","Europe/Kiev","2:30 PM GMT on August 19, 2016","2016","08","19","14","30","UTC","24.0","75.2","18.0","64.4","69","10.8","6.7","-9999.0","-9999.0","30","NNE","10.0","6.2","1015","29.98","-999","-999","-9999","-9999","-9999.00","-9999.00","Mostly Cloudy","mostlycloudy","0","0","0","0","0","0","METAR UKKK 191430Z 03003MPS 9999 SCT030 BKN100 24/18 Q1015 R08/CLRD70 NOSIG"
"6:00 PM EEST on August 19, 2016","2016","08","19","18","00","Europe/Kiev","3:00 PM GMT on August 19, 2016","2016","08","19","15","00","UTC","24","75","17","63","58","7.2","4.5","","","30","NNE","20","12","1014","29.96","-999","-999","-9999","-9999","","","Clear","clear","0","0","0","0","0","0","AAXX 19151 33345 42998 20302 10237 20173 39951 40143 58006 80001 555 11027"
"6:00 PM EEST on August 19, 2016","2016","08","19","18","00","Europe/Kiev","3:00 PM GMT on August 19, 2016","2016","08","19","15","00","UTC","24.0","75.2","17.0","62.6","65","7.2","4.5","-9999.0","-9999.0","20","NNE","-9999.0","-9999.0","1015","29.98","-999","-999","-9999","-9999","-9999.00","-9999.00","Clear","clear","0","0","0","0","0","0","METAR UKKK 191500Z 02002MPS 330V060 CAVOK 24/17 Q1015 R08/CLRD70 NOSIG"
"6:30 PM EEST on August 19, 2016","2016","08","19","18","30","Europe/Kiev","3:30 PM GMT on August 19, 2016","2016","08","19","15","30","UTC","24.0","75.2","18.0","64.4","69","7.2","4.5","-9999.0","-9999.0","30","NNE","-9999.0","-9999.0","1015","29.98","-999","-999","-9999","-9999","-9999.00","-9999.00","Clear","clear","0","0","0","0","0","0","METAR UKKK 191530Z 03002MPS 330V070 CAVOK 24/18 Q1015 R08/CLRD70 NOSIG"
"7:00 PM EEST on August 19, 2016","2016","08","19","19","00","Europe/Kiev","4:00 PM GMT on August 19, 2016","2016","08","19","16","00","UTC","23.0","73.4","17.0","62.6","69","7.2","4.5","-9999.0","-9999.0","40","NE","9.0","5.6","1015","29.98","-999","-999","-9999","-9999","-9999.00","-9999.00","Unknown","unknown","0","0","0","0","0","0","METAR UKKK 191600Z 04002MPS 9000 NSC 23/17 Q1015 R08/CLRD70 NOSIG"
"7:30 PM EEST on August 19, 2016","2016","08","19","19","30","Europe/Kiev","4:30 PM GMT on August 19, 2016","2016","08","19","16","30","UTC","22.0","71.6","17.0","62.6","73","7.2","4.5","-9999.0","-9999.0","40","NE","-9999.0","-9999.0","1015","29.98","-999","-999","-9999","-9999","-9999.00","-9999.00","Clear","clear","0","0","0","0","0","0","METAR UKKK 191630Z 04002MPS CAVOK 22/17 Q1015 R08/CLRD70 NOSIG"
"8:00 PM EEST on August 19, 2016","2016","08","19","20","00","Europe/Kiev","5:00 PM GMT on August 19, 2016","2016","08","19","17","00","UTC","21.0","69.8","17.0","62.6","78","3.6","2.2","-9999.0","-9999.0","100","East","-9999.0","-9999.0","1015","29.98","-999","-999","-9999","-9999","-9999.00","-9999.00","Clear","clear","0","0","0","0","0","0","METAR UKKK 191700Z 10001MPS CAVOK 21/17 Q1015 R08/CLRD70 NOSIG"
"8:30 PM EEST on August 19, 2016","2016","08","19","20","30","Europe/Kiev","5:30 PM GMT on August 19, 2016","2016","08","19","17","30","UTC","21.0","69.8","17.0","62.6","78","3.6","2.2","-9999.0","-9999.0","80","East","-9999.0","-9999.0","1015","29.98","-999","-999","-9999","-9999","-9999.00","-9999.00","Clear","clear","0","0","0","0","0","0","METAR UKKK 191730Z 08001MPS CAVOK 21/17 Q1015 R08/CLRD70 NOSIG"
"9:00 PM EEST on August 19, 2016","2016","08","19","21","00","Europe/Kiev","6:00 PM GMT on August 19, 2016","2016","08","19","18","00","UTC","20","69","17","62","74","0.0","0.0","","","","","20","12","1015","29.99","-999","-999","-9999","-9999","","","Mostly Cloudy","mostlycloudy","0","0","0","0","0","0","AAXX 19181 33345 32498 70000 10205 20169 39960 40154 53009 87500 333 10238 87617 555 11020"
"9:00 PM EEST on August 19, 2016","2016","08","19","21","00","Europe/Kiev","6:00 PM GMT on August 19, 2016","2016","08","19","18","00","UTC","20.0","68.0","18.0","64.4","88","0.0","0.0","-9999.0","-9999.0","0","North","-9999.0","-9999.0","1016","30.01","-999","-999","-9999","-9999","-9999.00","-9999.00","Clear","clear","0","0","0","0","0","0","METAR UKKK 191800Z 00000MPS CAVOK 20/18 Q1016 R08/CLRD70 NOSIG"
"9:30 PM EEST on August 19, 2016","2016","08","19","21","30","Europe/Kiev","6:30 PM GMT on August 19, 2016","2016","08","19","18","30","UTC","20.0","68.0","18.0","64.4","88","0.0","0.0","-9999.0","-9999.0","0","North","-9999.0","-9999.0","1016","30.01","-999","-999","-9999","-9999","-9999.00","-9999.00","Clear","clear","0","0","0","0","0","0","METAR UKKK 191830Z 00000MPS CAVOK 20/18 Q1016 R08/CLRD70 NOSIG"
"10:00 PM EEST on August 19, 2016","2016","08","19","22","00","Europe/Kiev","7:00 PM GMT on August 19, 2016","2016","08","19","19","00","UTC","20.0","68.0","18.0","64.4","88","0.0","0.0","-9999.0","-9999.0","0","North","9.0","5.6","1016","30.01","-999","-999","-9999","-9999","-9999.00","-9999.00","Unknown","unknown","0","0","0","0","0","0","METAR UKKK 191900Z 00000MPS 9000 NSC 20/18 Q1016 R08/CLRD70 NOSIG"
"10:30 PM EEST on August 19, 2016","2016","08","19","22","30","Europe/Kiev","7:30 PM GMT on August 19, 2016","2016","08","19","19","30","UTC","19.0","66.2","18.0","64.4","94","0.0","0.0","-9999.0","-9999.0","0","North","6.0","3.7","1016","30.01","-999","-999","-9999","-9999","-9999.00","-9999.00","Unknown","unknown","0","0","0","0","0","0","METAR UKKK 191930Z 00000MPS 6000 NSC 19/18 Q1016 R26/CLRD70 NOSIG"
"11:00 PM EEST on August 19, 2016","2016","08","19","23","00","Europe/Kiev","8:00 PM GMT on August 19, 2016","2016","08","19","20","00","UTC","19.0","66.2","18.0","64.4","94","7.2","4.5","-9999.0","-9999.0","250","WSW","9.0","5.6","1016","30.01","-999","-999","-9999","-9999","-9999.00","-9999.00","Unknown","unknown","0","0","0","0","0","0","METAR UKKK 192000Z 25002MPS 9000 NSC 19/18 Q1016 R26/CLRD70 NOSIG"
"11:30 PM EEST on August 19, 2016","2016","08","19","23","30","Europe/Kiev","8:30 PM GMT on August 19, 2016","2016","08","19","20","30","UTC","18.0","64.4","18.0","64.4","100","7.2","4.5","-9999.0","-9999.0","270","West","7.0","4.3","1016","30.01","-999","-999","-9999","-9999","-9999.00","-9999.00","Unknown","unknown","0","0","0","0","0","0","METAR UKKK 192030Z 27002MPS 7000 NSC 18/18 Q1016 R26/CLRD70 NOSIG"
"12:00 AM EEST on August 20, 2016","2016","08","20","00","00","Europe/Kiev","9:00 PM GMT on August 19, 2016","2016","08","19","21","00","UTC","20","68","17","63","80","7.2","4.5","","","310","NW","20","12","1016","29.99","-999","-999","-9999","-9999","","","Clear","clear","0","0","0","0","0","0","AAXX 19211 33345 42998 23102 10202 20173 39962 40156 52002 80001 555 11018"
"12:00 AM EEST on August 20, 2016","2016","08","20","00","00","Europe/Kiev","9:00 PM GMT on August 19, 2016","2016","08","19","21","00","UTC","18.0","64.4","17.0","62.6","94","7.2","4.5","-9999.0","-9999.0","280","West","6.0","3.7","1016","30.01","-999","-999","-9999","-9999","-9999.00","-9999.00","Unknown","unknown","0","0","0","0","0","0","METAR UKKK 192100Z 28002MPS 6000 NSC 18/17 Q1016 R26/CLRD70 NOSIG"
"12:30 AM EEST on August 20, 2016","2016","08","20","00","30","Europe/Kiev","9:30 PM GMT on August 19, 2016","2016","08","19","21","30","UTC","17.0","62.6","17.0","62.6","100","3.6","2.2","-9999.0","-9999.0","270","West","1.5","0.9","1016","30.01","-999","-999","-9999","-9999","-9999.00","-9999.00","Mist","hazy","0","0","0","0","0","0","METAR UKKK 192130Z 27001MPS 1500 BR NSC 17/17 Q1016 R26/CLRD70 NOSIG"
"1:00 AM EEST on August 20, 2016","2016","08","20","01","00","Europe/Kiev","10:00 PM GMT on August 19, 2016","2016","08","19","22","00","UTC","17.0","62.6","17.0","62.6","100","3.6","2.2","-9999.0","-9999.0","260","West","1.7","1.1","1016","30.01","-999","-999","-9999","-9999","-9999.00","-9999.00","Mist","hazy","0","0","0","0","0","0","METAR UKKK 192200Z 26001MPS 1700 BR NSC 17/17 Q1016 R26/CLRD70 TEMPO 0300 FG"
"1:02 AM EEST on August 20, 2016","2016","08","20","01","02","Europe/Kiev","10:02 PM GMT on August 19, 2016","2016","08","19","22","02","UTC","17.0","62.6","17.0","62.6","100","3.6","2.2","-9999.0","-9999.0","260","West","1.1","0.7","1016","30.01","-999","-999","-9999","-9999","-9999.00","-9999.00","Mist","hazy","0","0","0","0","0","0","SPECI UKKK 192202Z 26001MPS 1100 R26/P2000U BR NSC 17/17 Q1016 R26/CLRD70 TEMPO 0300 FG"
"1:10 AM EEST on August 20, 2016","2016","08","20","01","10","Europe/Kiev","10:10 PM GMT on August 19, 2016","2016","08","19","22","10","UTC","17.0","62.6","17.0","62.6","100","3.6","2.2","-9999.0","-9999.0","250","WSW","1.6","1.0","1016","30.01","-999","-999","-9999","-9999","-9999.00","-9999.00","Mist","hazy","0","0","0","0","0","0","SPECI UKKK 192210Z 25001MPS 1600 BR NSC 17/17 Q1016 R26/CLRD70 TEMPO 0300 FG"
"1:14 AM EEST on August 20, 2016","2016","08","20","01","14","Europe/Kiev","10:14 PM GMT on August 19, 2016","2016","08","19","22","14","UTC","16.0","60.8","16.0","60.8","100","3.6","2.2","-9999.0","-9999.0","250","WSW","1.3","0.8","1016","30.01","-999","-999","-9999","-9999","-9999.00","-9999.00","Mist","hazy","0","0","0","0","0","0","SPECI UKKK 192214Z 25001MPS 1300 R26/P2000D BR NSC 16/16 Q1016 R26/CLRD70 TEMPO 0300 FG"
"1:16 AM EEST on August 20, 2016","2016","08","20","01","16","Europe/Kiev","10:16 PM GMT on August 19, 2016","2016","08","19","22","16","UTC","16.0","60.8","16.0","60.8","100","3.6","2.2","-9999.0","-9999.0","250","WSW","0.7","0.4","1016","30.01","-999","-999","-9999","-9999","-9999.00","-9999.00","Unknown","unknown","0","0","0","0","0","0","SPECI UKKK 192216Z 25001MPS 0700 R26/P2000D PRFG NSC 16/16 Q1016 R26/CLRD70 TEMPO 0300 FG"
"1:19 AM EEST on August 20, 2016","2016","08","20","01","19","Europe/Kiev","10:19 PM GMT on August 19, 2016","2016","08","19","22","19","UTC","16.0","60.8","16.0","60.8","100","3.6","2.2","-9999.0","-9999.0","250","WSW","0.2","0.2","1016","30.01","-999","-999","-9999","-9999","-9999.00","-9999.00","Unknown","unknown","0","0","0","0","0","0","SPECI UKKK 192219Z 25001MPS 0250 R26/P2000D PRFG NSC 16/16 Q1016 R26/CLRD70 TEMPO 0300 FG"
"1:30 AM EEST on August 20, 2016","2016","08","20","01","30","Europe/Kiev","10:30 PM GMT on August 19, 2016","2016","08","19","22","30","UTC","16.0","60.8","16.0","60.8","100","3.6","2.2","-9999.0","-9999.0","270","West","0.5","0.3","1016","30.01","-999","-999","-9999","-9999","-9999.00","-9999.00","Unknown","unknown","0","0","0","0","0","0","METAR UKKK 192230Z 27001MPS 0500 R26/1900VP2000D PRFG NSC 16/16 Q1016 R26/CLRD70 TEMPO 0300 FG"
"2:00 AM EEST on August 20, 2016","2016","08","20","02","00","Europe/Kiev","11:00 PM GMT on August 19, 2016","2016","08","19","23","00","UTC","16.0","60.8","16.0","60.8","100","7.2","4.5","-9999.0","-9999.0","260","West","0.2","0.2","1016","30.01","-999","-999","-9999","-9999","-9999.00","-9999.00","Fog","fog","1","0","0","0","0","0","METAR UKKK 192300Z 26002MPS 0250 R26/0400VP2000D FG SKC 16/16 Q1016 R26/CLRD70 TEMPO 0300 FG"
"2:30 AM EEST on August 20, 2016","2016","08","20","02","30","Europe/Kiev","11:30 PM GMT on August 19, 2016","2016","08","19","23","30","UTC","15.0","59.0","15.0","59.0","100","7.2","4.5","-9999.0","-9999.0","260","West","0.2","0.2","1016","30.01","-999","-999","-9999","-9999","-9999.00","-9999.00","Clear","clear","0","0","0","0","0","0","METAR UKKK 192330Z 26002MPS 0250 R26/P2000D PRFG SKC 15/15 Q1016 R26/CLRD70 TEMPO 0300 FG"
"3:00 AM EEST on August 20, 2016","2016","08","20","03","00","Europe/Kiev","12:00 AM GMT on August 20, 2016","2016","08","20","00","00","UTC","18","64","16","60","84","0.0","0.0","","","","","10","6","1016","30.02","-999","-999","-9999","-9999","","","","","0","0","0","0","0","0","AAXX 20001 33345 32997 00000 10177 20158 39969 40165 52007 555 11015"
"3:00 AM EEST on August 20, 2016","2016","08","20","03","00","Europe/Kiev","12:00 AM GMT on August 20, 2016","2016","08","20","00","00","UTC","15.0","59.0","15.0","59.0","100","3.6","2.2","-9999.0","-9999.0","250","WSW","0.1","0.1","1017","30.04","-999","-999","-9999","-9999","-9999.00","-9999.00","Clear","clear","0","0","0","0","0","0","METAR UKKK 200000Z 25001MPS 0150 R26/P2000D PRFG SKC 15/15 Q1017 R26/CLRD70 TEMPO 0300 FG"
"3:30 AM EEST on August 20, 2016","2016","08","20","03","30","Europe/Kiev","12:30 AM GMT on August 20, 2016","2016","08","20","00","30","UTC","14.0","57.2","14.0","57.2","100","3.6","2.2","-9999.0","-9999.0","250","WSW","0.1","0.1","1017","30.04","-999","-999","-9999","-9999","-9999.00","-9999.00","Clear","clear","0","0","0","0","0","0","METAR UKKK 200030Z 25001MPS 0100 R26/1000VP2000D PRFG SKC 14/14 Q1017 R26/CLRD70 TEMPO 0300 FG"
"4:00 AM EEST on August 20, 2016","2016","08","20","04","00","Europe/Kiev","1:00 AM GMT on August 20, 2016","2016","08","20","01","00","UTC","13.0","55.4","13.0","55.4","100","7.2","4.5","-9999.0","-9999.0","260","West","0.1","0.1","1017","30.04","-999","-999","-9999","-9999","-9999.00","-9999.00","Clear","clear","0","0","0","0","0","0","METAR UKKK 200100Z 26002MPS 0100 R26/0250V0550D PRFG SKC 13/13 Q1017 R26/CLRD70 TEMPO 0300 FG"
"4:30 AM EEST on August 20, 2016","2016","08","20","04","30","Europe/Kiev","1:30 AM GMT on August 20, 2016","2016","08","20","01","30","UTC","13.0","55.4","13.0","55.4","100","7.2","4.5","-9999.0","-9999.0","260","West","0.2","0.1","1017","30.04","-999","-999","-9999","-9999","-9999.00","-9999.00","Partly Cloudy","partlycloudy","0","0","0","0","0","0","METAR UKKK 200130Z 26002MPS 0200 R26/1300VP2000U PRFG FEW002 13/13 Q1017 R26/CLRD70 NOSIG"
"4:45 AM EEST on August 20, 2016","2016","08","20","04","45","Europe/Kiev","1:45 AM GMT on August 20, 2016","2016","08","20","01","45","UTC","14.0","57.2","14.0","57.2","100","7.2","4.5","-9999.0","-9999.0","270","West","2.0","1.2","1017","30.04","-999","-999","-9999","-9999","-9999.00","-9999.00","Clear","clear","0","0","0","0","0","0","SPECI UKKK 200145Z 27002MPS 2000 BR SKC 14/14 Q1017 R26/CLRD70 NOSIG"
"4:51 AM EEST on August 20, 2016","2016","08","20","04","51","Europe/Kiev","1:51 AM GMT on August 20, 2016","2016","08","20","01","51","UTC","13.0","55.4","13.0","55.4","100","7.2","4.5","-9999.0","-9999.0","270","West","1.0","0.6","1017","30.04","-999","-999","-9999","-9999","-9999.00","-9999.00","Clear","clear","0","0","0","0","0","0","SPECI UKKK 200151Z 27002MPS 1000 R26/P2000U BR SKC 13/13 Q1017 R26/CLRD70 NOSIG"
"5:00 AM EEST on August 20, 2016","2016","08","20","05","00","Europe/Kiev","2:00 AM GMT on August 20, 2016","2016","08","20","02","00","UTC","13.0","55.4","13.0","55.4","100","3.6","2.2","-9999.0","-9999.0","250","WSW","0.4","0.3","1017","30.04","-999","-999","-9999","-9999","-9999.00","-9999.00","Clear","clear","0","0","0","0","0","0","METAR UKKK 200200Z 25001MPS 0450 R26/P2000U PRFG SKC 13/13 Q1017 R26/CLRD70 NOSIG"
"5:20 AM EEST on August 20, 2016","2016","08","20","05","20","Europe/Kiev","2:20 AM GMT on August 20, 2016","2016","08","20","02","20","UTC","13.0","55.4","13.0","55.4","100","7.2","4.5","-9999.0","-9999.0","270","West","2.2","1.4","1017","30.04","-999","-999","-9999","-9999","-9999.00","-9999.00","Clear","clear","0","0","0","0","0","0","SPECI UKKK 200220Z 27002MPS 2200 BR SKC 13/13 Q1017 R26/CLRD70 TEMPO 0300 FG VV001"
"5:30 AM EEST on August 20, 2016","2016","08","20","05","30","Europe/Kiev","2:30 AM GMT on August 20, 2016","2016","08","20","02","30","UTC","13.0","55.4","13.0","55.4","100","7.2","4.5","-9999.0","-9999.0","270","West","1.9","1.2","1017","30.04","-999","-999","-9999","-9999","-9999.00","-9999.00","Mist","hazy","0","0","0","0","0","0","METAR UKKK 200230Z 27002MPS 1900 BR NSC 13/13 Q1017 R26/CLRD70 TEMPO 0300 FG VV001"
"5:40 AM EEST on August 20, 2016","2016","08","20","05","40","Europe/Kiev","2:40 AM GMT on August 20, 2016","2016","08","20","02","40","UTC","13.0","55.4","13.0","55.4","100","3.6","2.2","-9999.0","-9999.0","260","West","1.3","0.8","1018","30.06","-999","-999","-9999","-9999","-9999.00","-9999.00","Mist","hazy","0","0","0","0","0","0","SPECI UKKK 200240Z 26001MPS 1300 R26/P2000U BR NSC 13/13 Q1018 R26/CLRD70 TEMPO 0300 FG VV001"
"6:00 AM EEST on August 20, 2016","2016","08","20","06","00","Europe/Kiev","3:00 AM GMT on August 20, 2016","2016","08","20","03","00","UTC","16","61","14","58","87","3.6","2.2","","","340","NNW","10","6","1018","30.06","-999","-999","-9999","-9999","","","Clear","clear","0","0","0","0","0","0","AAXX 20031 33345 42997 23401 10162 20145 39980 40178 52011 80001 555 11014"
"6:00 AM EEST on August 20, 2016","2016","08","20","06","00","Europe/Kiev","3:00 AM GMT on August 20, 2016","2016","08","20","03","00","UTC","13.0","55.4","13.0","55.4","100","7.2","4.5","-9999.0","-9999.0","270","West","2.1","1.3","1018","30.06","-999","-999","-9999","-9999","-9999.00","-9999.00","Mist","hazy","0","0","0","0","0","0","METAR UKKK 200300Z 27002MPS 2100 BR NSC 13/13 Q1018 R26/CLRD70 TEMPO 0300 FG VV001"
"6:11 AM EEST on August 20, 2016","2016","08","20","06","11","Europe/Kiev","3:11 AM GMT on August 20, 2016","2016","08","20","03","11","UTC","13.0","55.4","13.0","55.4","100","7.2","4.5","-9999.0","-9999.0","270","West","1.2","0.7","1018","30.06","-999","-999","-9999","-9999","-9999.00","-9999.00","Mist","hazy","0","0","0","0","0","0","SPECI UKKK 200311Z 27002MPS 1200 R26/P2000D BR NSC 13/13 Q1018 R26/CLRD70 TEMPO 0300 FG VV001"
"6:16 AM EEST on August 20, 2016","2016","08","20","06","16","Europe/Kiev","3:16 AM GMT on August 20, 2016","2016","08","20","03","16","UTC","13.0","55.4","13.0","55.4","100","7.2","4.5","-9999.0","-9999.0","270","West","-9999.0","-9999.0","1018","30.06","-999","-999","-9999","-9999","-9999.00","-9999.00","Unknown","unknown","0","0","0","0","0","0","SPECI UKKK 200316Z 27002MPS 0550 R26/1400VP2000D PRFG NSC 13/13 Q1018 R26/CLRD70 TEMPO 0300 FG VV001"
"6:30 AM EEST on August 20, 2016","2016","08","20","06","30","Europe/Kiev","3:30 AM GMT on August 20, 2016","2016","08","20","03","30","UTC","14.0","57.2","14.0","57.2","100","7.2","4.5","-9999.0","-9999.0","260","West","2.7","1.7","1018","30.06","-999","-999","-9999","-9999","-9999.00","-9999.00","Mist","hazy","0","0","0","0","0","0","METAR UKKK 200330Z 26002MPS 2700 BR NSC 14/14 Q1018 R26/CLRD70 TEMPO 0300 FG VV001"
"7:00 AM EEST on August 20, 2016","2016","08","20","07","00","Europe/Kiev","4:00 AM GMT on August 20, 2016","2016","08","20","04","00","UTC","15.0","59.0","15.0","59.0","100","7.2","4.5","-9999.0","-9999.0","270","West","-9999.0","-9999.0","1018","30.06","-999","-999","-9999","-9999","-9999.00","-9999.00","Mist","hazy","0","0","0","0","0","0","METAR UKKK 200400Z 27002MPS 3900 BR NSC 15/15 Q1018 R26/CLRD70 NOSIG"
"7:30 AM EEST on August 20, 2016","2016","08","20","07","30","Europe/Kiev","4:30 AM GMT on August 20, 2016","2016","08","20","04","30","UTC","16.0","60.8","16.0","60.8","100","0.0","0.0","-9999.0","-9999.0","0","North","8.0","5.0","1018","30.06","-999","-999","-9999","-9999","-9999.00","-9999.00","Unknown","unknown","0","0","0","0","0","0","METAR UKKK 200430Z 00000MPS 8000 NSC 16/16 Q1018 R26/CLRD70 NOSIG"
"8:00 AM EEST on August 20, 2016","2016","08","20","08","00","Europe/Kiev","5:00 AM GMT on August 20, 2016","2016","08","20","05","00","UTC","18.0","64.4","17.0","62.6","94","0.0","0.0","-9999.0","-9999.0","0","North","9.0","5.6","1018","30.06","-999","-999","-9999","-9999","-9999.00","-9999.00","Unknown","unknown","0","0","0","0","0","0","METAR UKKK 200500Z 00000MPS 9000 NSC 18/17 Q1018 R26/CLRD70 NOSIG"
"8:30 AM EEST on August 20, 2016","2016","08","20","08","30","Europe/Kiev","5:30 AM GMT on August 20, 2016","2016","08","20","05","30","UTC","20.0","68.0","18.0","64.4","88","3.6","2.2","-9999.0","-9999.0","0","Variable","9.0","5.6","1019","30.09","-999","-999","-9999","-9999","-9999.00","-9999.00","Unknown","unknown","0","0","0","0","0","0","METAR UKKK 200530Z VRB01MPS 9000 NSC 20/18 Q1019 R26/CLRD70 NOSIG"
"9:00 AM EEST on August 20, 2016","2016","08","20","09","00","Europe/Kiev","6:00 AM GMT on August 20, 2016","2016","08","20","06","00","UTC","21","70","17","63","72","3.6","2.2","","","70","ENE","20","12","1018","30.08","-999","-999","-9999","-9999","","","Clear","clear","0","0","0","0","0","0","AAXX 20061 33345 32998 20701 10213 20171 39991 40185 52011 80001 333 20160 555 11024"
"9:00 AM EEST on August 20, 2016","2016","08","20","09","00","Europe/Kiev","6:00 AM GMT on August 20, 2016","2016","08","20","06","00","UTC","22.0","71.6","17.0","62.6","73","7.2","4.5","-9999.0","-9999.0","40","NE","-9999.0","-9999.0","1019","30.09","-999","-999","-9999","-9999","-9999.00","-9999.00","Clear","clear","0","0","0","0","0","0","METAR UKKK 200600Z 04002MPS 010V070 CAVOK 22/17 Q1019 R26/CLRD70 NOSIG"
"9:30 AM EEST on August 20, 2016","2016","08","20","09","30","Europe/Kiev","6:30 AM GMT on August 20, 2016","2016","08","20","06","30","UTC","22.0","71.6","16.0","60.8","69","10.8","6.7","-9999.0","-9999.0","360","North","-9999.0","-9999.0","1019","30.09","-999","-999","-9999","-9999","-9999.00","-9999.00","Clear","clear","0","0","0","0","0","0","METAR UKKK 200630Z 36003MPS 270V030 CAVOK 22/16 Q1019 R08/CLRD70 NOSIG"
"10:00 AM EEST on August 20, 2016","2016","08","20","10","00","Europe/Kiev","7:00 AM GMT on August 20, 2016","2016","08","20","07","00","UTC","23.0","73.4","16.0","60.8","65","7.2","4.5","-9999.0","-9999.0","60","ENE","-9999.0","-9999.0","1019","30.09","-999","-999","-9999","-9999","-9999.00","-9999.00","Clear","clear","0","0","0","0","0","0","METAR UKKK 200700Z 06002MPS CAVOK 23/16 Q1019 R08/CLRD70 NOSIG"
"10:30 AM EEST on August 20, 2016","2016","08","20","10","30","Europe/Kiev","7:30 AM GMT on August 20, 2016","2016","08","20","07","30","UTC","24.0","75.2","14.0","57.2","53","7.2","4.5","-9999.0","-9999.0","360","North","-9999.0","-9999.0","1019","30.09","-999","-999","-9999","-9999","-9999.00","-9999.00","Clear","clear","0","0","0","0","0","0","METAR UKKK 200730Z 36002MPS 290V060 CAVOK 24/14 Q1019 R08/CLRD70 NOSIG"
"11:00 AM EEST on August 20, 2016","2016","08","20","11","00","Europe/Kiev","8:00 AM GMT on August 20, 2016","2016","08","20","08","00","UTC","24.0","75.2","14.0","57.2","53","7.2","4.5","-9999.0","-9999.0","10","North","-9999.0","-9999.0","1019","30.09","-999","-999","-9999","-9999","-9999.00","-9999.00","Clear","clear","0","0","0","0","0","0","METAR UKKK 200800Z 01002MPS 320V060 CAVOK 24/14 Q1019 R08/CLRD70 NOSIG"
"11:30 AM EEST on August 20, 2016","2016","08","20","11","30","Europe/Kiev","8:30 AM GMT on August 20, 2016","2016","08","20","08","30","UTC","24.0","75.2","14.0","57.2","53","7.2","4.5","-9999.0","-9999.0","30","NNE","-9999.0","-9999.0","1019","30.09","-999","-999","-9999","-9999","-9999.00","-9999.00","Clear","clear","0","0","0","0","0","0","METAR UKKK 200830Z 03002MPS CAVOK 24/14 Q1019 R08/CLRD70 NOSIG"
"12:00 PM EEST on August 20, 2016","2016","08","20","12","00","Europe/Kiev","9:00 AM GMT on August 20, 2016","2016","08","20","09","00","UTC","24","75","12","54","37","7.2","4.5","","","40","NE","20","12","1019","30.10","-999","-999","-9999","-9999","","","Scattered Clouds","partlycloudy","0","0","0","0","0","0","AAXX 20091 33345 42698 10402 10241 20122 39998 40191 51007 81100 555 11030"
"12:00 PM EEST on August 20, 2016","2016","08","20","12","00","Europe/Kiev","9:00 AM GMT on August 20, 2016","2016","08","20","09","00","UTC","25.0","77.0","14.0","57.2","50","10.8","6.7","-9999.0","-9999.0","290","WNW","10.0","6.2","1019","30.09","-999","-999","-9999","-9999","-9999.00","-9999.00","Partly Cloudy","partlycloudy","0","0","0","0","0","0","METAR UKKK 200900Z 29003MPS 230V350 9999 FEW046 25/14 Q1019 R08/CLRD70 NOSIG"
"12:30 PM EEST on August 20, 2016","2016","08","20","12","30","Europe/Kiev","9:30 AM GMT on August 20, 2016","2016","08","20","09","30","UTC","25.0","77.0","14.0","57.2","50","7.2","4.5","-9999.0","-9999.0","330","NNW","10.0","6.2","1019","30.09","-999","-999","-9999","-9999","-9999.00","-9999.00","Partly Cloudy","partlycloudy","0","0","0","0","0","0","METAR UKKK 200930Z 33002MPS 9999 FEW047 25/14 Q1019 R08/CLRD70 NOSIG"
"1:00 PM EEST on August 20, 2016","2016","08","20","13","00","Europe/Kiev","10:00 AM GMT on August 20, 2016","2016","08","20","10","00","UTC","25.0","77.0","14.0","57.2","50","7.2","4.5","-9999.0","-9999.0","290","WNW","10.0","6.2","1019","30.09","-999","-999","-9999","-9999","-9999.00","-9999.00","Partly Cloudy","partlycloudy","0","0","0","0","0","0","METAR UKKK 201000Z 29002MPS 9999 FEW048 25/14 Q1019 R08/CLRD70 NOSIG"
"1:30 PM EEST on August 20, 2016","2016","08","20","13","30","Europe/Kiev","10:30 AM GMT on August 20, 2016","2016","08","20","10","30","UTC","26.0","78.8","11.0","51.8","39","10.8","6.7","-9999.0","-9999.0","290","WNW","-9999.0","-9999.0","1019","30.09","-999","-999","-9999","-9999","-9999.00","-9999.00","Clear","clear","0","0","0","0","0","0","METAR UKKK 201030Z 29003MPS 190V340 CAVOK 26/11 Q1019 R08/CLRD70 NOSIG"
"2:00 PM EEST on August 20, 2016","2016","08","20","14","00","Europe/Kiev","11:00 AM GMT on August 20, 2016","2016","08","20","11","00","UTC","26.0","78.8","12.0","53.6","42","10.8","6.7","-9999.0","-9999.0","20","NNE","-9999.0","-9999.0","1019","30.09","-999","-999","-9999","-9999","-9999.00","-9999.00","Clear","clear","0","0","0","0","0","0","METAR UKKK 201100Z 02003MPS CAVOK 26/12 Q1019 R08/CLRD70 NOSIG"
"2:30 PM EEST on August 20, 2016","2016","08","20","14","30","Europe/Kiev","11:30 AM GMT on August 20, 2016","2016","08","20","11","30","UTC","27.0","80.6","13.0","55.4","42","7.2","4.5","-9999.0","-9999.0","200","SSW","-9999.0","-9999.0","1019","30.09","-999","-999","27.0","80.5","-9999.00","-9999.00","Clear","clear","0","0","0","0","0","0","METAR UKKK 201130Z 20002MPS CAVOK 27/13 Q1019 R26/CLRD70 NOSIG"
"3:00 PM EEST on August 20, 2016","2016","08","20","15","00","Europe/Kiev","12:00 PM GMT on August 20, 2016","2016","08","20","12","00","UTC","26","79","13","55","34","7.2","4.5","","","70","ENE","20","12","1019","30.09","-999","-999","-9999","-9999","","","Scattered Clouds","partlycloudy","0","0","0","0","0","0","AAXX 20121 33345 32698 20702 10263 20130 39998 40189 54000 82100 555 11036"
"3:00 PM EEST on August 20, 2016","2016","08","20","15","00","Europe/Kiev","12:00 PM GMT on August 20, 2016","2016","08","20","12","00","UTC","26.0","78.8","12.0","53.6","42","7.2","4.5","-9999.0","-9999.0","320","NW","-9999.0","-9999.0","1019","30.09","-999","-999","-9999","-9999","-9999.00","-9999.00","Clear","clear","0","0","0","0","0","0","METAR UKKK 201200Z 32002MPS CAVOK 26/12 Q1019 R26/CLRD70 NOSIG"
"3:30 PM EEST on August 20, 2016","2016","08","20","15","30","Europe/Kiev","12:30 PM GMT on August 20, 2016","2016","08","20","12","30","UTC","26.0","78.8","12.0","53.6","42","10.8","6.7","-9999.0","-9999.0","60","ENE","-9999.0","-9999.0","1020","30.12","-999","-999","-9999","-9999","-9999.00","-9999.00","Clear","clear","0","0","0","0","0","0","METAR UKKK 201230Z 06003MPS 360V110 CAVOK 26/12 Q1020 R08/CLRD70 NOSIG"
"4:00 PM EEST on August 20, 2016","2016","08","20","16","00","Europe/Kiev","1:00 PM GMT on August 20, 2016","2016","08","20","13","00","UTC","25.0","77.0","13.0","55.4","47","7.2","4.5","-9999.0","-9999.0","60","ENE","-9999.0","-9999.0","1020","30.12","-999","-999","-9999","-9999","-9999.00","-9999.00","Clear","clear","0","0","0","0","0","0","METAR UKKK 201300Z 06002MPS 040V100 CAVOK 25/13 Q1020 R08/CLRD70 NOSIG"
"4:30 PM EEST on August 20, 2016","2016","08","20","16","30","Europe/Kiev","1:30 PM GMT on August 20, 2016","2016","08","20","13","30","UTC","26.0","78.8","13.0","55.4","44","10.8","6.7","-9999.0","-9999.0","80","East","-9999.0","-9999.0","1020","30.12","-999","-999","-9999","-9999","-9999.00","-9999.00","Clear","clear","0","0","0","0","0","0","METAR UKKK 201330Z 08003MPS 030V110 CAVOK 26/13 Q1020 R08/CLRD70 NOSIG"
"5:00 PM EEST on August 20, 2016","2016","08","20","17","00","Europe/Kiev","2:00 PM GMT on August 20, 2016","2016","08","20","14","00","UTC","26.0","78.8","13.0","55.4","44","10.8","6.7","-9999.0","-9999.0","90","East","-9999.0","-9999.0","1020","30.12","-999","-999","-9999","-9999","-9999.00","-9999.00","Clear","clear","0","0","0","0","0","0","METAR UKKK 201400Z 09003MPS 050V120 CAVOK 26/13 Q1020 R08/CLRD70 NOSIG"
"5:30 PM EEST on August 20, 2016","2016","08","20","17","30","Europe/Kiev","2:30 PM GMT on August 20, 2016","2016","08","20","14","30","UTC","26.0","78.8","13.0","55.4","44","7.2","4.5","-9999.0","-9999.0","100","East","-9999.0","-9999.0","1020","30.12","-999","-999","-9999","-9999","-9999.00","-9999.00","Clear","clear","0","0","0","0","0","0","METAR UKKK 201430Z 10002MPS 050V130 CAVOK 26/13 Q1020 R08/CLRD70 NOSIG"
"6:00 PM EEST on August 20, 2016","2016","08","20","18","00","Europe/Kiev","3:00 PM GMT on August 20, 2016","2016","08","20","15","00","UTC","26","79","11","53","29","7.2","4.5","","","70","ENE","20","12","1019","30.10","-999","-999","-9999","-9999","","","","","0","0","0","0","0","0","AAXX 20151 33345 42998 00702 10261 20114 30001 40193 53003 555 10030"
"6:00 PM EEST on August 20, 2016","2016","08","20","18","00","Europe/Kiev","3:00 PM GMT on August 20, 2016","2016","08","20","15","00","UTC","26.0","78.8","12.0","53.6","42","10.8","6.7","-9999.0","-9999.0","80","East","9.0","5.6","1020","30.12","-999","-999","-9999","-9999","-9999.00","-9999.00","Clear","clear","0","0","0","0","0","0","METAR UKKK 201500Z 08003MPS 050V130 9000 SKC 26/12 Q1020 R08/CLRD70 NOSIG"
"6:30 PM EEST on August 20, 2016","2016","08","20","18","30","Europe/Kiev","3:30 PM GMT on August 20, 2016","2016","08","20","15","30","UTC","25.0","77.0","13.0","55.4","47","10.8","6.7","-9999.0","-9999.0","80","East","9.0","5.6","1020","30.12","-999","-999","-9999","-9999","-9999.00","-9999.00","Clear","clear","0","0","0","0","0","0","METAR UKKK 201530Z 08003MPS 040V120 9000 SKC 25/13 Q1020 R08/CLRD70 NOSIG"
"7:00 PM EEST on August 20, 2016","2016","08","20","19","00","Europe/Kiev","4:00 PM GMT on August 20, 2016","2016","08","20","16","00","UTC","25.0","77.0","12.0","53.6","44","10.8","6.7","-9999.0","-9999.0","60","ENE","-9999.0","-9999.0","1020","30.12","-999","-999","-9999","-9999","-9999.00","-9999.00","Clear","clear","0","0","0","0","0","0","METAR UKKK 201600Z 06003MPS CAVOK 25/12 Q1020 R08/CLRD70 NOSIG"
"7:30 PM EEST on August 20, 2016","2016","08","20","19","30","Europe/Kiev","4:30 PM GMT on August 20, 2016","2016","08","20","16","30","UTC","24.0","75.2","13.0","55.4","50","7.2","4.5","-9999.0","-9999.0","70","ENE","-9999.0","-9999.0","1020","30.12","-999","-999","-9999","-9999","-9999.00","-9999.00","Clear","clear","0","0","0","0","0","0","METAR UKKK 201630Z 07002MPS CAVOK 24/13 Q1020 R08/CLRD70 NOSIG"
"8:00 PM EEST on August 20, 2016","2016","08","20","20","00","Europe/Kiev","5:00 PM GMT on August 20, 2016","2016","08","20","17","00","UTC","22.0","71.6","13.0","55.4","57","7.2","4.5","-9999.0","-9999.0","80","East","-9999.0","-9999.0","1020","30.12","-999","-999","-9999","-9999","-9999.00","-9999.00","Clear","clear","0","0","0","0","0","0","METAR UKKK 201700Z 08002MPS CAVOK 22/13 Q1020 R08/CLRD70 NOSIG"
"8:30 PM EEST on August 20, 2016","2016","08","20","20","30","Europe/Kiev","5:30 PM GMT on August 20, 2016","2016","08","20","17","30","UTC","21.0","69.8","12.0","53.6","56","7.2","4.5","-9999.0","-9999.0","80","East","-9999.0","-9999.0","1020","30.12","-999","-999","-9999","-9999","-9999.00","-9999.00","Clear","clear","0","0","0","0","0","0","METAR UKKK 201730Z 08002MPS CAVOK 21/12 Q1020 R08/CLRD70 NOSIG"
"9:00 PM EEST on August 20, 2016","2016","08","20","21","00","Europe/Kiev","6:00 PM GMT on August 20, 2016","2016","08","20","18","00","UTC","21","70","12","53","44","0.0","0.0","","","","","20","12","1020","30.14","-999","-999","-9999","-9999","","","","","0","0","0","0","0","0","AAXX 20181 33345 32998 00000 10212 20117 30010 40205 52009 333 10270 555 10019"
"9:00 PM EEST on August 20, 2016","2016","08","20","21","00","Europe/Kiev","6:00 PM GMT on August 20, 2016","2016","08","20","18","00","UTC","20.0","68.0","12.0","53.6","60","7.2","4.5","-9999.0","-9999.0","100","East","-9999.0","-9999.0","1021","30.15","-999","-999","-9999","-9999","-9999.00","-9999.00","Clear","clear","0","0","0","0","0","0","METAR UKKK 201800Z 10002MPS CAVOK 20/12 Q1021 R08/CLRD70 NOSIG"
"9:30 PM EEST on August 20, 2016","2016","08","20","21","30","Europe/Kiev","6:30 PM GMT on August 20, 2016","2016","08","20","18","30","UTC","19.0","66.2","12.0","53.6","64","3.6","2.2","-9999.0","-9999.0","90","East","9.0","5.6","1021","30.15","-999","-999","-9999","-9999","-9999.00","-9999.00","Clear","clear","0","0","0","0","0","0","METAR UKKK 201830Z 09001MPS 9000 SKC 19/12 Q1021 R08/CLRD70 NOSIG"
"10:00 PM EEST on August 20, 2016","2016","08","20","22","00","Europe/Kiev","7:00 PM GMT on August 20, 2016","2016","08","20","19","00","UTC","18.0","64.4","13.0","55.4","73","3.6","2.2","-9999.0","-9999.0","70","ENE","10.0","6.2","1021","30.15","-999","-999","-9999","-9999","-9999.00","-9999.00","Clear","clear","0","0","0","0","0","0","METAR UKKK 201900Z 07001MPS 9999 SKC 18/13 Q1021 R08/CLRD70 NOSIG"
"10:30 PM EEST on August 20, 2016","2016","08","20","22","30","Europe/Kiev","7:30 PM GMT on August 20, 2016","2016","08","20","19","30","UTC","16.0","60.8","14.0","57.2","88","0.0","0.0","-9999.0","-9999.0","0","North","-9999.0","-9999.0","1021","30.15","-999","-999","-9999","-9999","-9999.00","-9999.00","Clear","clear","0","0","0","0","0","0","METAR UKKK 201930Z 00000MPS CAVOK 16/14 Q1021 R08/CLRD70 NOSIG"
"11:00 PM EEST on August 20, 2016","2016","08","20","23","00","Europe/Kiev","8:00 PM GMT on August 20, 2016","2016","08","20","20","00","UTC","16.0","60.8","13.0","55.4","82","0.0","0.0","-9999.0","-9999.0","0","North","8.0","5.0","1021","30.15","-999","-999","-9999","-9999","-9999.00","-9999.00","Clear","clear","0","0","0","0","0","0","METAR UKKK 202000Z 00000MPS 8000 SKC 16/13 Q1021 R08/CLRD70 NOSIG"
"11:30 PM EEST on August 20, 2016","2016","08","20","23","30","Europe/Kiev","8:30 PM GMT on August 20, 2016","2016","08","20","20","30","UTC","16.0","60.8","13.0","55.4","82","0.0","0.0","-9999.0","-9999.0","0","North","8.0","5.0","1021","30.15","-999","-999","-9999","-9999","-9999.00","-9999.00","Shallow Fog","fog","1","0","0","0","0","0","METAR UKKK 202030Z 00000MPS 8000 MIFG SKC 16/13 Q1021 R08/CLRD70 NOSIG"
"12:00 AM EEST on August 21, 2016","2016","08","21","00","00","Europe/Kiev","9:00 PM GMT on August 20, 2016","2016","08","20","21","00","UTC","19","65","12","53","57","0.0","0.0","","","","","20","12","1022","30.17","-999","-999","-9999","-9999","","","","","0","0","0","0","0","0","AAXX 20211 33345 42998 00000 10186 20119 30018 40215 52008 555 10017"
"12:00 AM EEST on August 21, 2016","2016","08","21","00","00","Europe/Kiev","9:00 PM GMT on August 20, 2016","2016","08","20","21","00","UTC","15.0","59.0","13.0","55.4","88","0.0","0.0","-9999.0","-9999.0","0","North","10.0","6.2","1021","30.15","-999","-999","-9999","-9999","-9999.00","-9999.00","Shallow Fog","fog","1","0","0","0","0","0","METAR UKKK 202100Z 00000MPS 9999 MIFG SKC 15/13 Q1021 R08/CLRD70 NOSIG"
"12:30 AM EEST on August 21, 2016","2016","08","21","00","30","Europe/Kiev","9:30 PM GMT on August 20, 2016","2016","08","20","21","30","UTC","16.0","60.8","13.0","55.4","82","3.6","2.2","-9999.0","-9999.0","80","East","-9999.0","-9999.0","1022","30.18","-999","-999","-9999","-9999","-9999.00","-9999.00","Clear","clear","0","0","0","0","0","0","METAR UKKK 202130Z 08001MPS CAVOK 16/13 Q1022 R08/CLRD70 NOSIG"
"1:00 AM EEST on August 21, 2016","2016","08","21","01","00","Europe/Kiev","10:00 PM GMT on August 20, 2016","2016","08","20","22","00","UTC","15.0","59.0","13.0","55.4","88","3.6","2.2","-9999.0","-9999.0","90","East","-9999.0","-9999.0","1022","30.18","-999","-999","-9999","-9999","-9999.00","-9999.00","Clear","clear","0","0","0","0","0","0","METAR UKKK 202200Z 09001MPS CAVOK 15/13 Q1022 R08/CLRD70 NOSIG"
"1:30 AM EEST on August 21, 2016","2016","08","21","01","30","Europe/Kiev","10:30 PM GMT on August 20, 2016","2016","08","20","22","30","UTC","14.0","57.2","13.0","55.4","94","3.6","2.2","-9999.0","-9999.0","100","East","-9999.0","-9999.0","1022","30.18","-999","-999","-9999","-9999","-9999.00","-9999.00","Clear","clear","0","0","0","0","0","0","METAR UKKK 202230Z 10001MPS CAVOK 14/13 Q1022 R08/CLRD70 NOSIG"
"2:00 AM EEST on August 21, 2016","2016","08","21","02","00","Europe/Kiev","11:00 PM GMT on August 20, 2016","2016","08","20","23","00","UTC","14.0","57.2","13.0","55.4","94","3.6","2.2","-9999.0","-9999.0","90","East","-9999.0","-9999.0","1022","30.18","-999","-999","-9999","-9999","-9999.00","-9999.00","Clear","clear","0","0","0","0","0","0","METAR UKKK 202300Z 09001MPS CAVOK 14/13 Q1022 R08/CLRD70 NOSIG"
"2:30 AM EEST on August 21, 2016","2016","08","21","02","30","Europe/Kiev","11:30 PM GMT on August 20, 2016","2016","08","20","23","30","UTC","14.0","57.2","13.0","55.4","94","3.6","2.2","-9999.0","-9999.0","90","East","-9999.0","-9999.0","1022","30.18","-999","-999","-9999","-9999","-9999.00","-9999.00","Clear","clear","0","0","0","0","0","0","METAR UKKK 202330Z 09001MPS CAVOK 14/13 Q1022 R08/CLRD70 NOSIG"
"3:00 AM EEST on August 21, 2016","2016","08","21","03","00","Europe/Kiev","12:00 AM GMT on August 21, 2016","2016","08","21","00","00","UTC","17","63","12","54","66","0.0","0.0","","","","","20","12","1022","30.18","-999","-999","-9999","-9999","","","","","0","0","0","0","0","0","AAXX 21001 33345 32998 00000 10172 20125 30020 40218 52002 555 10015"
"3:00 AM EEST on August 21, 2016","2016","08","21","03","00","Europe/Kiev","12:00 AM GMT on August 21, 2016","2016","08","21","00","00","UTC","14.0","57.2","13.0","55.4","94","3.6","2.2","-9999.0","-9999.0","90","East","-9999.0","-9999.0","1022","30.18","-999","-999","-9999","-9999","-9999.00","-9999.00","Clear","clear","0","0","0","0","0","0","METAR UKKK 210000Z 09001MPS CAVOK 14/13 Q1022 R08/CLRD70 NOSIG"
"3:30 AM EEST on August 21, 2016","2016","08","21","03","30","Europe/Kiev","12:30 AM GMT on August 21, 2016","2016","08","21","00","30","UTC","14.0","57.2","13.0","55.4","94","0.0","0.0","-9999.0","-9999.0","0","North","-9999.0","-9999.0","1022","30.18","-999","-999","-9999","-9999","-9999.00","-9999.00","Clear","clear","0","0","0","0","0","0","METAR UKKK 210030Z 00000MPS CAVOK 14/13 Q1022 R08/CLRD70 NOSIG"
"4:00 AM EEST on August 21, 2016","2016","08","21","04","00","Europe/Kiev","1:00 AM GMT on August 21, 2016","2016","08","21","01","00","UTC","14.0","57.2","12.0","53.6","88","0.0","0.0","-9999.0","-9999.0","0","North","-9999.0","-9999.0","1022","30.18","-999","-999","-9999","-9999","-9999.00","-9999.00","Clear","clear","0","0","0","0","0","0","METAR UKKK 210100Z 00000MPS CAVOK 14/12 Q1022 R08/CLRD70 NOSIG"
"4:30 AM EEST on August 21, 2016","2016","08","21","04","30","Europe/Kiev","1:30 AM GMT on August 21, 2016","2016","08","21","01","30","UTC","13.0","55.4","12.0","53.6","94","0.0","0.0","-9999.0","-9999.0","0","North","-9999.0","-9999.0","1022","30.18","-999","-999","-9999","-9999","-9999.00","-9999.00","Clear","clear","0","0","0","0","0","0","METAR UKKK 210130Z 00000MPS CAVOK 13/12 Q1022 R08/CLRD70 NOSIG"
"5:00 AM EEST on August 21, 2016","2016","08","21","05","00","Europe/Kiev","2:00 AM GMT on August 21, 2016","2016","08","21","02","00","UTC","13.0","55.4","12.0","53.6","94","0.0","0.0","-9999.0","-9999.0","0","North","-9999.0","-9999.0","1022","30.18","-999","-999","-9999","-9999","-9999.00","-9999.00","Clear","clear","0","0","0","0","0","0","METAR UKKK 210200Z 00000MPS CAVOK 13/12 Q1022 R08/CLRD70 NOSIG"
"5:30 AM EEST on August 21, 2016","2016","08","21","05","30","Europe/Kiev","2:30 AM GMT on August 21, 2016","2016","08","21","02","30","UTC","13.0","55.4","13.0","55.4","100","0.0","0.0","-9999.0","-9999.0","0","North","-9999.0","-9999.0","1022","30.18","-999","-999","-9999","-9999","-9999.00","-9999.00","Clear","clear","0","0","0","0","0","0","METAR UKKK 210230Z 00000MPS CAVOK 13/13 Q1022 R08/CLRD70 NOSIG"
"6:00 AM EEST on August 21, 2016","2016","08","21","06","00","Europe/Kiev","3:00 AM GMT on August 21, 2016","2016","08","21","03","00","UTC","16","61","13","56","79","0.0","0.0","","","","","20","12","1022","30.19","-999","-999","-9999","-9999","","","","","0","0","0","0","0","0","AAXX 21031 33345 42998 00000 10159 20134 30024 40223 52004 555 10013"
"6:00 AM EEST on August 21, 2016","2016","08","21","06","00","Europe/Kiev","3:00 AM GMT on August 21, 2016","2016","08","21","03","00","UTC","12.0","53.6","12.0","53.6","100","0.0","0.0","-9999.0","-9999.0","0","North","-9999.0","-9999.0","1022","30.18","-999","-999","-9999","-9999","-9999.00","-9999.00","Clear","clear","0","0","0","0","0","0","METAR UKKK 210300Z 00000MPS CAVOK 12/12 Q1022 R08/CLRD70 NOSIG"
"6:30 AM EEST on August 21, 2016","2016","08","21","06","30","Europe/Kiev","3:30 AM GMT on August 21, 2016","2016","08","21","03","30","UTC","13.0","55.4","13.0","55.4","100","3.6","2.2","-9999.0","-9999.0","0","Variable","-9999.0","-9999.0","1022","30.18","-999","-999","-9999","-9999","-9999.00","-9999.00","Clear","clear","0","0","0","0","0","0","METAR UKKK 210330Z VRB01MPS CAVOK 13/13 Q1022 R08/CLRD70 NOSIG"
"7:00 AM EEST on August 21, 2016","2016","08","21","07","00","Europe/Kiev","4:00 AM GMT on August 21, 2016","2016","08","21","04","00","UTC","16.0","60.8","14.0","57.2","88","7.2","4.5","-9999.0","-9999.0","90","East","-9999.0","-9999.0","1022","30.18","-999","-999","-9999","-9999","-9999.00","-9999.00","Clear","clear","0","0","0","0","0","0","METAR UKKK 210400Z 09002MPS CAVOK 16/14 Q1022 R08/CLRD70 NOSIG"
"7:30 AM EEST on August 21, 2016","2016","08","21","07","30","Europe/Kiev","4:30 AM GMT on August 21, 2016","2016","08","21","04","30","UTC","18.0","64.4","15.0","59.0","83","7.2","4.5","-9999.0","-9999.0","90","East","-9999.0","-9999.0","1022","30.18","-999","-999","-9999","-9999","-9999.00","-9999.00","Clear","clear","0","0","0","0","0","0","METAR UKKK 210430Z 09002MPS CAVOK 18/15 Q1022 R08/CLRD70 NOSIG"
"8:00 AM EEST on August 21, 2016","2016","08","21","08","00","Europe/Kiev","5:00 AM GMT on August 21, 2016","2016","08","21","05","00","UTC","20.0","68.0","14.0","57.2","68","7.2","4.5","-9999.0","-9999.0","90","East","-9999.0","-9999.0","1023","30.21","-999","-999","-9999","-9999","-9999.00","-9999.00","Clear","clear","0","0","0","0","0","0","METAR UKKK 210500Z 09002MPS CAVOK 20/14 Q1023 R08/CLRD70 NOSIG"
"8:30 AM EEST on August 21, 2016","2016","08","21","08","30","Europe/Kiev","5:30 AM GMT on August 21, 2016","2016","08","21","05","30","UTC","21.0","69.8","14.0","57.2","64","10.8","6.7","-9999.0","-9999.0","90","East","-9999.0","-9999.0","1023","30.21","-999","-999","-9999","-9999","-9999.00","-9999.00","Clear","clear","0","0","0","0","0","0","METAR UKKK 210530Z 09003MPS CAVOK 21/14 Q1023 R08/CLRD70 NOSIG"
"9:00 AM EEST on August 21, 2016","2016","08","21","09","00","Europe/Kiev","6:00 AM GMT on August 21, 2016","2016","08","21","06","00","UTC","20","69","13","56","53","7.2","4.5","","","90","East","20","12","1023","30.20","-999","-999","-9999","-9999","","","","","0","0","0","0","0","0","AAXX 21061 33345 32998 00902 10205 20131 30030 40226 52006 333 20156 555 10022"
"9:00 AM EEST on August 21, 2016","2016","08","21","09","00","Europe/Kiev","6:00 AM GMT on August 21, 2016","2016","08","21","06","00","UTC","22.0","71.6","14.0","57.2","60","10.8","6.7","-9999.0","-9999.0","80","East","-9999.0","-9999.0","1023","30.21","-999","-999","-9999","-9999","-9999.00","-9999.00","Clear","clear","0","0","0","0","0","0","METAR UKKK 210600Z 08003MPS CAVOK 22/14 Q1023 R08/CLRD70 NOSIG"
"9:30 AM EEST on August 21, 2016","2016","08","21","09","30","Europe/Kiev","6:30 AM GMT on August 21, 2016","2016","08","21","06","30","UTC","23.0","73.4","13.0","55.4","53","10.8","6.7","-9999.0","-9999.0","80","East","-9999.0","-9999.0","1023","30.21","-999","-999","-9999","-9999","-9999.00","-9999.00","Clear","clear","0","0","0","0","0","0","METAR UKKK 210630Z 08003MPS 050V110 CAVOK 23/13 Q1023 R08/CLRD70 NOSIG"
"10:00 AM EEST on August 21, 2016","2016","08","21","10","00","Europe/Kiev","7:00 AM GMT on August 21, 2016","2016","08","21","07","00","UTC","24.0","75.2","14.0","57.2","53","10.8","6.7","-9999.0","-9999.0","90","East","-9999.0","-9999.0","1023","30.21","-999","-999","-9999","-9999","-9999.00","-9999.00","Clear","clear","0","0","0","0","0","0","METAR UKKK 210700Z 09003MPS 060V130 CAVOK 24/14 Q1023 R08/CLRD70 NOSIG"
"10:30 AM EEST on August 21, 2016","2016","08","21","10","30","Europe/Kiev","7:30 AM GMT on August 21, 2016","2016","08","21","07","30","UTC","24.0","75.2","12.0","53.6","47","14.4","8.9","-9999.0","-9999.0","90","East","-9999.0","-9999.0","1022","30.18","-999","-999","-9999","-9999","-9999.00","-9999.00","Clear","clear","0","0","0","0","0","0","METAR UKKK 210730Z 09004MPS CAVOK 24/12 Q1022 R08/CLRD70 NOSIG"
"11:00 AM EEST on August 21, 2016","2016","08","21","11","00","Europe/Kiev","8:00 AM GMT on August 21, 2016","2016","08","21","08","00","UTC","25.0","77.0","13.0","55.4","47","14.4","8.9","-9999.0","-9999.0","100","East","-9999.0","-9999.0","1022","30.18","-999","-999","-9999","-9999","-9999.00","-9999.00","Clear","clear","0","0","0","0","0","0","METAR UKKK 210800Z 10004MPS 060V130 CAVOK 25/13 Q1022 R08/CLRD70 NOSIG"
"11:30 AM EEST on August 21, 2016","2016","08","21","11","30","Europe/Kiev","8:30 AM GMT on August 21, 2016","2016","08","21","08","30","UTC","25.0","77.0","12.0","53.6","44","14.4","8.9","-9999.0","-9999.0","100","East","-9999.0","-9999.0","1022","30.18","-999","-999","-9999","-9999","-9999.00","-9999.00","Clear","clear","0","0","0","0","0","0","METAR UKKK 210830Z 10004MPS CAVOK 25/12 Q1022 R08/CLRD70 NOSIG"
"12:00 PM EEST on August 21, 2016","2016","08","21","12","00","Europe/Kiev","9:00 AM GMT on August 21, 2016","2016","08","21","09","00","UTC","25","77","12","53","33","10.8","6.7","","","60","ENE","20","12","1022","30.18","-999","-999","-9999","-9999","","","","","0","0","0","0","0","0","AAXX 21091 33345 42998 00603 10250 20119 30025 40218 58005 555 10034"
"12:00 PM EEST on August 21, 2016","2016","08","21","12","00","Europe/Kiev","9:00 AM GMT on August 21, 2016","2016","08","21","09","00","UTC","25.0","77.0","12.0","53.6","44","14.4","8.9","-9999.0","-9999.0","50","NE","-9999.0","-9999.0","1022","30.18","-999","-999","-9999","-9999","-9999.00","-9999.00","Clear","clear","0","0","0","0","0","0","METAR UKKK 210900Z 05004MPS 340V130 CAVOK 25/12 Q1022 R08/CLRD70 NOSIG"
"12:30 PM EEST on August 21, 2016","2016","08","21","12","30","Europe/Kiev","9:30 AM GMT on August 21, 2016","2016","08","21","09","30","UTC","26.0","78.8","13.0","55.4","44","14.4","8.9","-9999.0","-9999.0","70","ENE","-9999.0","-9999.0","1022","30.18","-999","-999","-9999","-9999","-9999.00","-9999.00","Clear","clear","0","0","0","0","0","0","METAR UKKK 210930Z 07004MPS 010V130 CAVOK 26/13 Q1022 R08/CLRD70 NOSIG"
"1:00 PM EEST on August 21, 2016","2016","08","21","13","00","Europe/Kiev","10:00 AM GMT on August 21, 2016","2016","08","21","10","00","UTC","26.0","78.8","13.0","55.4","44","10.8","6.7","-9999.0","-9999.0","80","East","-9999.0","-9999.0","1022","30.18","-999","-999","-9999","-9999","-9999.00","-9999.00","Clear","clear","0","0","0","0","0","0","METAR UKKK 211000Z 08003MPS 030V110 CAVOK 26/13 Q1022 R08/CLRD70 NOSIG"
"1:30 PM EEST on August 21, 2016","2016","08","21","13","30","Europe/Kiev","10:30 AM GMT on August 21, 2016","2016","08","21","10","30","UTC","26.0","78.8","13.0","55.4","44","10.8","6.7","-9999.0","-9999.0","40","NE","-9999.0","-9999.0","1021","30.15","-999","-999","-9999","-9999","-9999.00","-9999.00","Clear","clear","0","0","0","0","0","0","METAR UKKK 211030Z 04003MPS 310V080 CAVOK 26/13 Q1021 R08/CLRD70 NOSIG"
"2:00 PM EEST on August 21, 2016","2016","08","21","14","00","Europe/Kiev","11:00 AM GMT on August 21, 2016","2016","08","21","11","00","UTC","27.0","80.6","12.0","53.6","39","10.8","6.7","-9999.0","-9999.0","60","ENE","-9999.0","-9999.0","1021","30.15","-999","-999","26.8","80.3","-9999.00","-9999.00","Clear","clear","0","0","0","0","0","0","METAR UKKK 211100Z 06003MPS 010V130 CAVOK 27/12 Q1021 R08/CLRD70 NOSIG"
"2:30 PM EEST on August 21, 2016","2016","08","21","14","30","Europe/Kiev","11:30 AM GMT on August 21, 2016","2016","08","21","11","30","UTC","26.0","78.8","12.0","53.6","42","14.4","8.9","-9999.0","-9999.0","60","ENE","-9999.0","-9999.0","1021","30.15","-999","-999","-9999","-9999","-9999.00","-9999.00","Clear","clear","0","0","0","0","0","0","METAR UKKK 211130Z 06004MPS CAVOK 26/12 Q1021 R08/CLRD70 NOSIG"
"3:00 PM EEST on August 21, 2016","2016","08","21","15","00","Europe/Kiev","12:00 PM GMT on August 21, 2016","2016","08","21","12","00","UTC","27","80","11","52","27","7.2","4.5","","","130","SE","20","12","1020","30.14","-999","-999","-9999","-9999","","","","","0","0","0","0","0","0","AAXX 21121 33345 32998 01302 10268 20112 30013 40204 57012 555 10039"
"3:00 PM EEST on August 21, 2016","2016","08","21","15","00","Europe/Kiev","12:00 PM GMT on August 21, 2016","2016","08","21","12","00","UTC","27.0","80.6","12.0","53.6","39","14.4","8.9","-9999.0","-9999.0","110","ESE","-9999.0","-9999.0","1021","30.15","-999","-999","26.8","80.3","-9999.00","-9999.00","Clear","clear","0","0","0","0","0","0","METAR UKKK 211200Z 11004MPS 070V150 CAVOK 27/12 Q1021 R08/CLRD70 NOSIG"
"3:30 PM EEST on August 21, 2016","2016","08","21","15","30","Europe/Kiev","12:30 PM GMT on August 21, 2016","2016","08","21","12","30","UTC","27.0","80.6","13.0","55.4","42","14.4","8.9","-9999.0","-9999.0","90","East","-9999.0","-9999.0","1021","30.15","-999","-999","27.0","80.5","-9999.00","-9999.00","Clear","clear","0","0","0","0","0","0","METAR UKKK 211230Z 09004MPS CAVOK 27/13 Q1021 R08/CLRD70 NOSIG"
"4:00 PM EEST on August 21, 2016","2016","08","21","16","00","Europe/Kiev","1:00 PM GMT on August 21, 2016","2016","08","21","13","00","UTC","27.0","80.6","13.0","55.4","42","14.4","8.9","-9999.0","-9999.0","100","East","-9999.0","-9999.0","1020","30.12","-999","-999","27.0","80.5","-9999.00","-9999.00","Clear","clear","0","0","0","0","0","0","METAR UKKK 211300Z 10004MPS 060V150 CAVOK 27/13 Q1020 R08/CLRD70 NOSIG"
"4:30 PM EEST on August 21, 2016","2016","08","21","16","30","Europe/Kiev","1:30 PM GMT on August 21, 2016","2016","08","21","13","30","UTC","27.0","80.6","13.0","55.4","42","10.8","6.7","-9999.0","-9999.0","80","East","-9999.0","-9999.0","1020","30.12","-999","-999","27.0","80.5","-9999.00","-9999.00","Clear","clear","0","0","0","0","0","0","METAR UKKK 211330Z 08003MPS 030V130 CAVOK 27/13 Q1020 R08/CLRD70 NOSIG"
"5:00 PM EEST on August 21, 2016","2016","08","21","17","00","Europe/Kiev","2:00 PM GMT on August 21, 2016","2016","08","21","14","00","UTC","27.0","80.6","13.0","55.4","42","18.0","11.2","-9999.0","-9999.0","90","East","-9999.0","-9999.0","1020","30.12","-999","-999","27.0","80.5","-9999.00","-9999.00","Clear","clear","0","0","0","0","0","0","METAR UKKK 211400Z 09005MPS CAVOK 27/13 Q1020 R08/CLRD70 NOSIG"
"5:30 PM EEST on August 21, 2016","2016","08","21","17","30","Europe/Kiev","2:30 PM GMT on August 21, 2016","2016","08","21","14","30","UTC","26.0","78.8","13.0","55.4","44","14.4","8.9","-9999.0","-9999.0","100","East","-9999.0","-9999.0","1020","30.12","-999","-999","-9999","-9999","-9999.00","-9999.00","Clear","clear","0","0","0","0","0","0","METAR UKKK 211430Z 10004MPS CAVOK 26/13 Q1020 R08/CLRD70 NOSIG"
"6:00 PM EEST on August 21, 2016","2016","08","21","18","00","Europe/Kiev","3:00 PM GMT on August 21, 2016","2016","08","21","15","00","UTC","27","81","13","55","30","7.2","4.5","","","100","East","20","12","1020","30.11","-999","-999","-9999","-9999","","","Clear","clear","0","0","0","0","0","0","AAXX 21151 33345 42998 11002 10270 20128 30004 40195 57009 80001 555 10032"
"6:00 PM EEST on August 21, 2016","2016","08","21","18","00","Europe/Kiev","3:00 PM GMT on August 21, 2016","2016","08","21","15","00","UTC","26.0","78.8","13.0","55.4","44","18.0","11.2","-9999.0","-9999.0","90","East","-9999.0","-9999.0","1020","30.12","-999","-999","-9999","-9999","-9999.00","-9999.00","Clear","clear","0","0","0","0","0","0","METAR UKKK 211500Z 09005MPS 050V110 CAVOK 26/13 Q1020 R08/CLRD70 NOSIG"
"6:30 PM EEST on August 21, 2016","2016","08","21","18","30","Europe/Kiev","3:30 PM GMT on August 21, 2016","2016","08","21","15","30","UTC","26.0","78.8","13.0","55.4","44","10.8","6.7","-9999.0","-9999.0","90","East","-9999.0","-9999.0","1020","30.12","-999","-999","-9999","-9999","-9999.00","-9999.00","Clear","clear","0","0","0","0","0","0","METAR UKKK 211530Z 09003MPS 070V130 CAVOK 26/13 Q1020 R08/CLRD70 NOSIG"
"7:00 PM EEST on August 21, 2016","2016","08","21","19","00","Europe/Kiev","4:00 PM GMT on August 21, 2016","2016","08","21","16","00","UTC","25.0","77.0","13.0","55.4","47","14.4","8.9","-9999.0","-9999.0","90","East","-9999.0","-9999.0","1020","30.12","-999","-999","-9999","-9999","-9999.00","-9999.00","Clear","clear","0","0","0","0","0","0","METAR UKKK 211600Z 09004MPS CAVOK 25/13 Q1020 R08/CLRD70 NOSIG"
"7:30 PM EEST on August 21, 2016","2016","08","21","19","30","Europe/Kiev","4:30 PM GMT on August 21, 2016","2016","08","21","16","30","UTC","23.0","73.4","14.0","57.2","57","10.8","6.7","-9999.0","-9999.0","80","East","-9999.0","-9999.0","1020","30.12","-999","-999","-9999","-9999","-9999.00","-9999.00","Clear","clear","0","0","0","0","0","0","METAR UKKK 211630Z 08003MPS CAVOK 23/14 Q1020 R08/CLRD70 NOSIG"
"8:00 PM EEST on August 21, 2016","2016","08","21","20","00","Europe/Kiev","5:00 PM GMT on August 21, 2016","2016","08","21","17","00","UTC","22.0","71.6","14.0","57.2","60","7.2","4.5","-9999.0","-9999.0","70","ENE","-9999.0","-9999.0","1020","30.12","-999","-999","-9999","-9999","-9999.00","-9999.00","Clear","clear","0","0","0","0","0","0","METAR UKKK 211700Z 07002MPS CAVOK 22/14 Q1020 R08/CLRD70 NOSIG"
"8:30 PM EEST on August 21, 2016","2016","08","21","20","30","Europe/Kiev","5:30 PM GMT on August 21, 2016","2016","08","21","17","30","UTC","21.0","69.8","13.0","55.4","60","10.8","6.7","-9999.0","-9999.0","70","ENE","-9999.0","-9999.0","1020","30.12","-999","-999","-9999","-9999","-9999.00","-9999.00","Clear","clear","0","0","0","0","0","0","METAR UKKK 211730Z 07003MPS CAVOK 21/13 Q1020 R08/CLRD70 NOSIG"
"9:00 PM EEST on August 21, 2016","2016","08","21","21","00","Europe/Kiev","6:00 PM GMT on August 21, 2016","2016","08","21","18","00","UTC","22","72","14","57","50","3.6","2.2","","","70","ENE","20","12","1020","30.12","-999","-999","-9999","-9999","","","","","0","0","0","0","0","0","AAXX 21181 33345 32998 00701 10224 20140 30005 40199 53001 333 10279 555 10021"
"9:00 PM EEST on August 21, 2016","2016","08","21","21","00","Europe/Kiev","6:00 PM GMT on August 21, 2016","2016","08","21","18","00","UTC","21.0","69.8","13.0","55.4","60","7.2","4.5","-9999.0","-9999.0","60","ENE","8.0","5.0","1020","30.12","-999","-999","-9999","-9999","-9999.00","-9999.00","Clear","clear","0","0","0","0","0","0","METAR UKKK 211800Z 06002MPS 8000 SKC 21/13 Q1020 R08/CLRD70 NOSIG"
"9:30 PM EEST on August 21, 2016","2016","08","21","21","30","Europe/Kiev","6:30 PM GMT on August 21, 2016","2016","08","21","18","30","UTC","20.0","68.0","14.0","57.2","68","10.8","6.7","-9999.0","-9999.0","50","NE","8.0","5.0","1020","30.12","-999","-999","-9999","-9999","-9999.00","-9999.00","Clear","clear","0","0","0","0","0","0","METAR UKKK 211830Z 05003MPS 8000 SKC 20/14 Q1020 R08/CLRD70 NOSIG"
"10:00 PM EEST on August 21, 2016","2016","08","21","22","00","Europe/Kiev","7:00 PM GMT on August 21, 2016","2016","08","21","19","00","UTC","20.0","68.0","14.0","57.2","68","10.8","6.7","-9999.0","-9999.0","70","ENE","-9999.0","-9999.0","1020","30.12","-999","-999","-9999","-9999","-9999.00","-9999.00","Clear","clear","0","0","0","0","0","0","METAR UKKK 211900Z 07003MPS CAVOK 20/14 Q1020 R08/CLRD70 NOSIG"
"10:30 PM EEST on August 21, 2016","2016","08","21","22","30","Europe/Kiev","7:30 PM GMT on August 21, 2016","2016","08","21","19","30","UTC","20.0","68.0","14.0","57.2","68","7.2","4.5","-9999.0","-9999.0","90","East","8.0","5.0","1020","30.12","-999","-999","-9999","-9999","-9999.00","-9999.00","Clear","clear","0","0","0","0","0","0","METAR UKKK 211930Z 09002MPS 8000 SKC 20/14 Q1020 R08/CLRD70 NOSIG"
"11:00 PM EEST on August 21, 2016","2016","08","21","23","00","Europe/Kiev","8:00 PM GMT on August 21, 2016","2016","08","21","20","00","UTC","19.0","66.2","14.0","57.2","73","7.2","4.5","-9999.0","-9999.0","70","ENE","8.0","5.0","1020","30.12","-999","-999","-9999","-9999","-9999.00","-9999.00","Clear","clear","0","0","0","0","0","0","METAR UKKK 212000Z 07002MPS 8000 SKC 19/14 Q1020 R08/CLRD70 TEMPO 1000 BR"
"11:30 PM EEST on August 21, 2016","2016","08","21","23","30","Europe/Kiev","8:30 PM GMT on August 21, 2016","2016","08","21","20","30","UTC","18.0","64.4","14.0","57.2","77","7.2","4.5","-9999.0","-9999.0","70","ENE","-9999.0","-9999.0","1020","30.12","-999","-999","-9999","-9999","-9999.00","-9999.00","Clear","clear","0","0","0","0","0","0","METAR UKKK 212030Z 07002MPS CAVOK 18/14 Q1020 R08/CLRD70 TEMPO 2000 BR"
"12:00 AM EEST on August 22, 2016","2016","08","22","00","00","Europe/Kiev","9:00 PM GMT on August 21, 2016","2016","08","21","21","00","UTC","21","69","14","57","58","3.6","2.2","","","60","ENE","20","12","1020","30.12","-999","-999","-9999","-9999","","","","","0","0","0","0","0","0","AAXX 21211 33345 42998 00601 10208 20141 30004 40199 58001 555 10018"
"12:00 AM EEST on August 22, 2016","2016","08","22","00","00","Europe/Kiev","9:00 PM GMT on August 21, 2016","2016","08","21","21","00","UTC","19.0","66.2","14.0","57.2","73","10.8","6.7","-9999.0","-9999.0","80","East","-9999.0","-9999.0","1020","30.12","-999","-999","-9999","-9999","-9999.00","-9999.00","Clear","clear","0","0","0","0","0","0","METAR UKKK 212100Z 08003MPS CAVOK 19/14 Q1020 R08/CLRD70 TEMPO 2000 BR"
"12:30 AM EEST on August 22, 2016","2016","08","22","00","30","Europe/Kiev","9:30 PM GMT on August 21, 2016","2016","08","21","21","30","UTC","19.0","66.2","14.0","57.2","73","10.8","6.7","-9999.0","-9999.0","80","East","-9999.0","-9999.0","1020","30.12","-999","-999","-9999","-9999","-9999.00","-9999.00","Clear","clear","0","0","0","0","0","0","METAR UKKK 212130Z 08003MPS CAVOK 19/14 Q1020 R08/CLRD70 TEMPO 2000 BR"
"1:00 AM EEST on August 22, 2016","2016","08","22","01","00","Europe/Kiev","10:00 PM GMT on August 21, 2016","2016","08","21","22","00","UTC","18.0","64.4","14.0","57.2","77","7.2","4.5","-9999.0","-9999.0","80","East","-9999.0","-9999.0","1019","30.09","-999","-999","-9999","-9999","-9999.00","-9999.00","Clear","clear","0","0","0","0","0","0","METAR UKKK 212200Z 08002MPS CAVOK 18/14 Q1019 R08/CLRD70 TEMPO 2000 BR"
"1:30 AM EEST on August 22, 2016","2016","08","22","01","30","Europe/Kiev","10:30 PM GMT on August 21, 2016","2016","08","21","22","30","UTC","18.0","64.4","14.0","57.2","77","7.2","4.5","-9999.0","-9999.0","80","East","-9999.0","-9999.0","1019","30.09","-999","-999","-9999","-9999","-9999.00","-9999.00","Clear","clear","0","0","0","0","0","0","METAR UKKK 212230Z 08002MPS CAVOK 18/14 Q1019 R08/CLRD70 TEMPO 2000 BR"
"2:00 AM EEST on August 22, 2016","2016","08","22","02","00","Europe/Kiev","11:00 PM GMT on August 21, 2016","2016","08","21","23","00","UTC","18.0","64.4","14.0","57.2","77","7.2","4.5","-9999.0","-9999.0","80","East","-9999.0","-9999.0","1019","30.09","-999","-999","-9999","-9999","-9999.00","-9999.00","Clear","clear","0","0","0","0","0","0","METAR UKKK 212300Z 08002MPS CAVOK 18/14 Q1019 R08/CLRD70 TEMPO 2000 BR"
"2:30 AM EEST on August 22, 2016","2016","08","22","02","30","Europe/Kiev","11:30 PM GMT on August 21, 2016","2016","08","21","23","30","UTC","16.0","60.8","13.0","55.4","82","7.2","4.5","-9999.0","-9999.0","70","ENE","-9999.0","-9999.0","1020","30.12","-999","-999","-9999","-9999","-9999.00","-9999.00","Clear","clear","0","0","0","0","0","0","METAR UKKK 212330Z 07002MPS CAVOK 16/13 Q1020 R08/CLRD70 TEMPO 2000 BR"
"3:00 AM EEST on August 22, 2016","2016","08","22","03","00","Europe/Kiev","12:00 AM GMT on August 22, 2016","2016","08","22","00","00","UTC","18","65","14","57","67","0.0","0.0","","","","","20","12","1020","30.11","-999","-999","-9999","-9999","","","","","0","0","0","0","0","0","AAXX 22001 33345 32998 00000 10184 20137 39999 40196 57005 555 10016"
"3:00 AM EEST on August 22, 2016","2016","08","22","03","00","Europe/Kiev","12:00 AM GMT on August 22, 2016","2016","08","22","00","00","UTC","17.0","62.6","14.0","57.2","82","7.2","4.5","-9999.0","-9999.0","80","East","-9999.0","-9999.0","1019","30.09","-999","-999","-9999","-9999","-9999.00","-9999.00","Clear","clear","0","0","0","0","0","0","METAR UKKK 220000Z 08002MPS CAVOK 17/14 Q1019 R08/CLRD70 TEMPO 2000 BR"
"3:30 AM EEST on August 22, 2016","2016","08","22","03","30","Europe/Kiev","12:30 AM GMT on August 22, 2016","2016","08","22","00","30","UTC","17.0","62.6","13.0","55.4","77","7.2","4.5","-9999.0","-9999.0","70","ENE","-9999.0","-9999.0","1019","30.09","-999","-999","-9999","-9999","-9999.00","-9999.00","Clear","clear","0","0","0","0","0","0","METAR UKKK 220030Z 07002MPS CAVOK 17/13 Q1019 R08/CLRD70 TEMPO 2000 BR"
"4:00 AM EEST on August 22, 2016","2016","08","22","04","00","Europe/Kiev","1:00 AM GMT on August 22, 2016","2016","08","22","01","00","UTC","17.0","62.6","14.0","57.2","82","3.6","2.2","-9999.0","-9999.0","50","NE","-9999.0","-9999.0","1019","30.09","-999","-999","-9999","-9999","-9999.00","-9999.00","Clear","clear","0","0","0","0","0","0","METAR UKKK 220100Z 05001MPS CAVOK 17/14 Q1019 R08/CLRD70 TEMPO 2000 BR"
"4:30 AM EEST on August 22, 2016","2016","08","22","04","30","Europe/Kiev","1:30 AM GMT on August 22, 2016","2016","08","22","01","30","UTC","17.0","62.6","14.0","57.2","82","7.2","4.5","-9999.0","-9999.0","80","East","-9999.0","-9999.0","1019","30.09","-999","-999","-9999","-9999","-9999.00","-9999.00","Clear","clear","0","0","0","0","0","0","METAR UKKK 220130Z 08002MPS CAVOK 17/14 Q1019 R08/CLRD70 TEMPO 2000 BR"
"5:00 AM EEST on August 22, 2016","2016","08","22","05","00","Europe/Kiev","2:00 AM GMT on August 22, 2016","2016","08","22","02","00","UTC","16.0","60.8","14.0","57.2","88","3.6","2.2","-9999.0","-9999.0","0","Variable","-9999.0","-9999.0","1019","30.09","-999","-999","-9999","-9999","-9999.00","-9999.00","Clear","clear","0","0","0","0","0","0","METAR UKKK 220200Z VRB01MPS CAVOK 16/14 Q1019 R08/CLRD70 TEMPO 2000 BR"
"5:30 AM EEST on August 22, 2016","2016","08","22","05","30","Europe/Kiev","2:30 AM GMT on August 22, 2016","2016","08","22","02","30","UTC","16.0","60.8","14.0","57.2","88","3.6","2.2","-9999.0","-9999.0","0","Variable","-9999.0","-9999.0","1019","30.09","-999","-999","-9999","-9999","-9999.00","-9999.00","Clear","clear","0","0","0","0","0","0","METAR UKKK 220230Z VRB01MPS CAVOK 16/14 Q1019 R08/CLRD70 TEMPO 2000 BR"
"6:00 AM EEST on August 22, 2016","2016","08","22","06","00","Europe/Kiev","3:00 AM GMT on August 22, 2016","2016","08","22","03","00","UTC","18","64","14","57","71","3.6","2.2","","","40","NE","20","12","1019","30.09","-999","-999","-9999","-9999","","","","","0","0","0","0","0","0","AAXX 22031 33345 42998 00401 10176 20139 39991 40188 56008 555 10016"
"6:00 AM EEST on August 22, 2016","2016","08","22","06","00","Europe/Kiev","3:00 AM GMT on August 22, 2016","2016","08","22","03","00","UTC","16.0","60.8","13.0","55.4","82","3.6","2.2","-9999.0","-9999.0","0","Variable","-9999.0","-9999.0","1019","30.09","-999","-999","-9999","-9999","-9999.00","-9999.00","Clear","clear","0","0","0","0","0","0","METAR UKKK 220300Z VRB01MPS CAVOK 16/13 Q1019 R08/CLRD70 TEMPO 2000 BR"
"6:30 AM EEST on August 22, 2016","2016","08","22","06","30","Europe/Kiev","3:30 AM GMT on August 22, 2016","2016","08","22","03","30","UTC","17.0","62.6","14.0","57.2","82","0.0","0.0","-9999.0","-9999.0","0","North","-9999.0","-9999.0","1019","30.09","-999","-999","-9999","-9999","-9999.00","-9999.00","Clear","clear","0","0","0","0","0","0","METAR UKKK 220330Z 00000MPS CAVOK 17/14 Q1019 R08/CLRD70 TEMPO 2000 BR"
"7:00 AM EEST on August 22, 2016","2016","08","22","07","00","Europe/Kiev","4:00 AM GMT on August 22, 2016","2016","08","22","04","00","UTC","18.0","64.4","15.0","59.0","83","7.2","4.5","-9999.0","-9999.0","30","NNE","-9999.0","-9999.0","1019","30.09","-999","-999","-9999","-9999","-9999.00","-9999.00","Clear","clear","0","0","0","0","0","0","METAR UKKK 220400Z 03002MPS CAVOK 18/15 Q1019 R08/CLRD70 NOSIG"
"7:30 AM EEST on August 22, 2016","2016","08","22","07","30","Europe/Kiev","4:30 AM GMT on August 22, 2016","2016","08","22","04","30","UTC","20.0","68.0","16.0","60.8","78","0.0","0.0","-9999.0","-9999.0","0","North","-9999.0","-9999.0","1019","30.09","-999","-999","-9999","-9999","-9999.00","-9999.00","Clear","clear","0","0","0","0","0","0","METAR UKKK 220430Z 00000MPS CAVOK 20/16 Q1019 R08/CLRD70 NOSIG"
"8:00 AM EEST on August 22, 2016","2016","08","22","08","00","Europe/Kiev","5:00 AM GMT on August 22, 2016","2016","08","22","05","00","UTC","21.0","69.8","16.0","60.8","73","7.2","4.5","-9999.0","-9999.0","20","NNE","-9999.0","-9999.0","1019","30.09","-999","-999","-9999","-9999","-9999.00","-9999.00","Clear","clear","0","0","0","0","0","0","METAR UKKK 220500Z 02002MPS 360V060 CAVOK 21/16 Q1019 R08/CLRD70 NOSIG"
"8:30 AM EEST on August 22, 2016","2016","08","22","08","30","Europe/Kiev","5:30 AM GMT on August 22, 2016","2016","08","22","05","30","UTC","22.0","71.6","16.0","60.8","69","7.2","4.5","-9999.0","-9999.0","40","NE","-9999.0","-9999.0","1019","30.09","-999","-999","-9999","-9999","-9999.00","-9999.00","Clear","clear","0","0","0","0","0","0","METAR UKKK 220530Z 04002MPS 360V070 CAVOK 22/16 Q1019 R08/CLRD70 NOSIG"
"9:00 AM EEST on August 22, 2016","2016","08","22","09","00","Europe/Kiev","6:00 AM GMT on August 22, 2016","2016","08","22","06","00","UTC","22","71","16","60","61","7.2","4.5","","","60","ENE","20","12","1019","30.09","-999","-999","-9999","-9999","","","","","0","0","0","0","0","0","AAXX 22061 33345 32998 00602 10218 20158 39993 40187 53002 333 20172 555 10024"
"9:00 AM EEST on August 22, 2016","2016","08","22","09","00","Europe/Kiev","6:00 AM GMT on August 22, 2016","2016","08","22","06","00","UTC","23.0","73.4","16.0","60.8","65","7.2","4.5","-9999.0","-9999.0","40","NE","-9999.0","-9999.0","1019","30.09","-999","-999","-9999","-9999","-9999.00","-9999.00","Clear","clear","0","0","0","0","0","0","METAR UKKK 220600Z 04002MPS 010V080 CAVOK 23/16 Q1019 R08/CLRD70 NOSIG"
"9:30 AM EEST on August 22, 2016","2016","08","22","09","30","Europe/Kiev","6:30 AM GMT on August 22, 2016","2016","08","22","06","30","UTC","24.0","75.2","16.0","60.8","61","10.8","6.7","-9999.0","-9999.0","20","NNE","-9999.0","-9999.0","1019","30.09","-999","-999","-9999","-9999","-9999.00","-9999.00","Clear","clear","0","0","0","0","0","0","METAR UKKK 220630Z 02003MPS 330V040 CAVOK 24/16 Q1019 R08/CLRD70 NOSIG"
"10:00 AM EEST on August 22, 2016","2016","08","22","10","00","Europe/Kiev","7:00 AM GMT on August 22, 2016","2016","08","22","07","00","UTC","24.0","75.2","17.0","62.6","65","10.8","6.7","-9999.0","-9999.0","30","NNE","-9999.0","-9999.0","1019","30.09","-999","-999","-9999","-9999","-9999.00","-9999.00","Clear","clear","0","0","0","0","0","0","METAR UKKK 220700Z 03003MPS 010V070 CAVOK 24/17 Q1019 R08/CLRD70 NOSIG"
"10:30 AM EEST on August 22, 2016","2016","08","22","10","30","Europe/Kiev","7:30 AM GMT on August 22, 2016","2016","08","22","07","30","UTC","25.0","77.0","18.0","64.4","65","14.4","8.9","-9999.0","-9999.0","40","NE","-9999.0","-9999.0","1019","30.09","-999","-999","-9999","-9999","-9999.00","-9999.00","Clear","clear","0","0","0","0","0","0","METAR UKKK 220730Z 04004MPS 010V070 CAVOK 25/18 Q1019 R08/CLRD70 NOSIG"
"11:00 AM EEST on August 22, 2016","2016","08","22","11","00","Europe/Kiev","8:00 AM GMT on August 22, 2016","2016","08","22","08","00","UTC","25.0","77.0","17.0","62.6","61","14.4","8.9","-9999.0","-9999.0","30","NNE","-9999.0","-9999.0","1019","30.09","-999","-999","-9999","-9999","-9999.00","-9999.00","Clear","clear","0","0","0","0","0","0","METAR UKKK 220800Z 03004MPS 010V070 CAVOK 25/17 Q1019 R08/CLRD70 NOSIG"
"11:30 AM EEST on August 22, 2016","2016","08","22","11","30","Europe/Kiev","8:30 AM GMT on August 22, 2016","2016","08","22","08","30","UTC","26.0","78.8","18.0","64.4","61","14.4","8.9","-9999.0","-9999.0","30","NNE","-9999.0","-9999.0","1018","30.06","-999","-999","-9999","-9999","-9999.00","-9999.00","Clear","clear","0","0","0","0","0","0","METAR UKKK 220830Z 03004MPS 360V060 CAVOK 26/18 Q1018 R08/CLRD70 NOSIG"
"12:00 PM EEST on August 22, 2016","2016","08","22","12","00","Europe/Kiev","9:00 AM GMT on August 22, 2016","2016","08","22","09","00","UTC","26","80","18","65","51","10.8","6.7","","","50","NE","20","12","1018","30.05","-999","-999","-9999","-9999","","","Clear","clear","0","0","0","0","0","0","AAXX 22091 33345 42998 40503 10265 20184 39985 40176 58008 80004 555 10037"
"12:00 PM EEST on August 22, 2016","2016","08","22","12","00","Europe/Kiev","9:00 AM GMT on August 22, 2016","2016","08","22","09","00","UTC","26.0","78.8","18.0","64.4","61","14.4","8.9","-9999.0","-9999.0","30","NNE","-9999.0","-9999.0","1018","30.06","-999","-999","-9999","-9999","-9999.00","-9999.00","Clear","clear","0","0","0","0","0","0","METAR UKKK 220900Z 03004MPS 350V060 CAVOK 26/18 Q1018 R08/CLRD70 NOSIG"
"12:30 PM EEST on August 22, 2016","2016","08","22","12","30","Europe/Kiev","9:30 AM GMT on August 22, 2016","2016","08","22","09","30","UTC","27.0","80.6","19.0","66.2","61","14.4","8.9","-9999.0","-9999.0","30","NNE","-9999.0","-9999.0","1018","30.06","-999","-999","28.2","82.7","-9999.00","-9999.00","Clear","clear","0","0","0","0","0","0","METAR UKKK 220930Z 03004MPS 360V060 CAVOK 27/19 Q1018 R08/CLRD70 NOSIG"
"1:00 PM EEST on August 22, 2016","2016","08","22","13","00","Europe/Kiev","10:00 AM GMT on August 22, 2016","2016","08","22","10","00","UTC","27.0","80.6","19.0","66.2","61","14.4","8.9","-9999.0","-9999.0","30","NNE","-9999.0","-9999.0","1018","30.06","-999","-999","28.2","82.7","-9999.00","-9999.00","Clear","clear","0","0","0","0","0","0","METAR UKKK 221000Z 03004MPS 360V070 CAVOK 27/19 Q1018 R08/CLRD70 NOSIG"
"1:30 PM EEST on August 22, 2016","2016","08","22","13","30","Europe/Kiev","10:30 AM GMT on August 22, 2016","2016","08","22","10","30","UTC","28.0","82.4","19.0","66.2","58","14.4","8.9","-9999.0","-9999.0","30","NNE","-9999.0","-9999.0","1018","30.06","-999","-999","29.2","84.6","-9999.00","-9999.00","Clear","clear","0","0","0","0","0","0","METAR UKKK 221030Z 03004MPS 350V060 CAVOK 28/19 Q1018 R08/CLRD70 NOSIG"
"2:00 PM EEST on August 22, 2016","2016","08","22","14","00","Europe/Kiev","11:00 AM GMT on August 22, 2016","2016","08","22","11","00","UTC","29.0","84.2","19.0","66.2","55","18.0","11.2","-9999.0","-9999.0","20","NNE","-9999.0","-9999.0","1017","30.04","-999","-999","30.3","86.6","-9999.00","-9999.00","Clear","clear","0","0","0","0","0","0","METAR UKKK 221100Z 02005MPS 350V070 CAVOK 29/19 Q1017 R08/CLRD70 NOSIG"
"2:30 PM EEST on August 22, 2016","2016","08","22","14","30","Europe/Kiev","11:30 AM GMT on August 22, 2016","2016","08","22","11","30","UTC","29.0","84.2","18.0","64.4","51","18.0","11.2","-9999.0","-9999.0","20","NNE","-9999.0","-9999.0","1017","30.04","-999","-999","29.8","85.6","-9999.00","-9999.00","Clear","clear","0","0","0","0","0","0","METAR UKKK 221130Z 02005MPS 350V060 CAVOK 29/18 Q1017 R08/CLRD70 NOSIG"
"3:00 PM EEST on August 22, 2016","2016","08","22","15","00","Europe/Kiev","12:00 PM GMT on August 22, 2016","2016","08","22","12","00","UTC","29","85","18","64","39","14.4","8.9","","","40","NE","20","12","1017","30.02","-999","-999","-9999","-9999","","","Clear","clear","0","0","0","0","0","0","AAXX 22121 33345 32998 60404 10294 20176 39977 40166 57008 80005 555 10041"
"3:00 PM EEST on August 22, 2016","2016","08","22","15","00","Europe/Kiev","12:00 PM GMT on August 22, 2016","2016","08","22","12","00","UTC","29.0","84.2","18.0","64.4","51","18.0","11.2","-9999.0","-9999.0","20","NNE","-9999.0","-9999.0","1017","30.04","-999","-999","29.8","85.6","-9999.00","-9999.00","Clear","clear","0","0","0","0","0","0","METAR UKKK 221200Z 02005MPS 350V050 CAVOK 29/18 Q1017 R08/CLRD70 NOSIG"
"3:30 PM EEST on August 22, 2016","2016","08","22","15","30","Europe/Kiev","12:30 PM GMT on August 22, 2016","2016","08","22","12","30","UTC","29.0","84.2","18.0","64.4","51","18.0","11.2","-9999.0","-9999.0","30","NNE","-9999.0","-9999.0","1017","30.04","-999","-999","29.8","85.6","-9999.00","-9999.00","Clear","clear","0","0","0","0","0","0","METAR UKKK 221230Z 03005MPS 010V070 CAVOK 29/18 Q1017 R08/CLRD70 NOSIG"
"4:00 PM EEST on August 22, 2016","2016","08","22","16","00","Europe/Kiev","1:00 PM GMT on August 22, 2016","2016","08","22","13","00","UTC","29.0","84.2","18.0","64.4","51","21.6","13.4","-9999.0","-9999.0","20","NNE","-9999.0","-9999.0","1017","30.04","-999","-999","29.8","85.6","-9999.00","-9999.00","Clear","clear","0","0","0","0","0","0","METAR UKKK 221300Z 02006MPS CAVOK 29/18 Q1017 R08/CLRD70 NOSIG"
"4:30 PM EEST on August 22, 2016","2016","08","22","16","30","Europe/Kiev","1:30 PM GMT on August 22, 2016","2016","08","22","13","30","UTC","29.0","84.2","18.0","64.4","51","18.0","11.2","-9999.0","-9999.0","20","NNE","-9999.0","-9999.0","1017","30.04","-999","-999","29.8","85.6","-9999.00","-9999.00","Clear","clear","0","0","0","0","0","0","METAR UKKK 221330Z 02005MPS CAVOK 29/18 Q1017 R08/CLRD70 NOSIG"
"5:00 PM EEST on August 22, 2016","2016","08","22","17","00","Europe/Kiev","2:00 PM GMT on August 22, 2016","2016","08","22","14","00","UTC","29.0","84.2","18.0","64.4","51","18.0","11.2","-9999.0","-9999.0","30","NNE","-9999.0","-9999.0","1017","30.04","-999","-999","29.8","85.6","-9999.00","-9999.00","Clear","clear","0","0","0","0","0","0","METAR UKKK 221400Z 03005MPS 010V070 CAVOK 29/18 Q1017 R08/CLRD70 NOSIG"
"5:30 PM EEST on August 22, 2016","2016","08","22","17","30","Europe/Kiev","2:30 PM GMT on August 22, 2016","2016","08","22","14","30","UTC","29.0","84.2","17.0","62.6","48","18.0","11.2","-9999.0","-9999.0","30","NNE","-9999.0","-9999.0","1017","30.04","-999","-999","29.4","85.0","-9999.00","-9999.00","Clear","clear","0","0","0","0","0","0","METAR UKKK 221430Z 03005MPS 360V060 CAVOK 29/17 Q1017 R08/CLRD70 NOSIG"
"6:00 PM EEST on August 22, 2016","2016","08","22","18","00","Europe/Kiev","3:00 PM GMT on August 22, 2016","2016","08","22","15","00","UTC","29","85","18","64","40","7.2","4.5","","","60","ENE","20","12","1016","30.01","-999","-999","-9999","-9999","","","Clear","clear","0","0","0","0","0","0","AAXX 22151 33345 42998 60602 10292 20178 39973 40162 56004 80005 555 10031"
"6:00 PM EEST on August 22, 2016","2016","08","22","18","00","Europe/Kiev","3:00 PM GMT on August 22, 2016","2016","08","22","15","00","UTC","29.0","84.2","17.0","62.6","48","18.0","11.2","-9999.0","-9999.0","40","NE","-9999.0","-9999.0","1017","30.04","-999","-999","29.4","85.0","-9999.00","-9999.00","Clear","clear","0","0","0","0","0","0","METAR UKKK 221500Z 04005MPS CAVOK 29/17 Q1017 R08/CLRD70 NOSIG"
"6:30 PM EEST on August 22, 2016","2016","08","22","18","30","Europe/Kiev","3:30 PM GMT on August 22, 2016","2016","08","22","15","30","UTC","29.0","84.2","17.0","62.6","48","14.4","8.9","-9999.0","-9999.0","50","NE","-9999.0","-9999.0","1017","30.04","-999","-999","29.4","85.0","-9999.00","-9999.00","Clear","clear","0","0","0","0","0","0","METAR UKKK 221530Z 05004MPS 030V090 CAVOK 29/17 Q1017 R08/CLRD70 NOSIG"
"7:00 PM EEST on August 22, 2016","2016","08","22","19","00","Europe/Kiev","4:00 PM GMT on August 22, 2016","2016","08","22","16","00","UTC","28.0","82.4","18.0","64.4","54","10.8","6.7","-9999.0","-9999.0","60","ENE","9.0","5.6","1017","30.04","-999","-999","28.8","83.9","-9999.00","-9999.00","Unknown","unknown","0","0","0","0","0","0","METAR UKKK 221600Z 06003MPS 9000 NSC 28/18 Q1017 R08/CLRD70 NOSIG"
"7:30 PM EEST on August 22, 2016","2016","08","22","19","30","Europe/Kiev","4:30 PM GMT on August 22, 2016","2016","08","22","16","30","UTC","27.0","80.6","18.0","64.4","58","14.4","8.9","-9999.0","-9999.0","50","NE","-9999.0","-9999.0","1017","30.04","-999","-999","27.9","82.3","-9999.00","-9999.00","Clear","clear","0","0","0","0","0","0","METAR UKKK 221630Z 05004MPS CAVOK 27/18 Q1017 R08/CLRD70 NOSIG"
"8:00 PM EEST on August 22, 2016","2016","08","22","20","00","Europe/Kiev","5:00 PM GMT on August 22, 2016","2016","08","22","17","00","UTC","26.0","78.8","18.0","64.4","61","10.8","6.7","-9999.0","-9999.0","30","NNE","-9999.0","-9999.0","1017","30.04","-999","-999","-9999","-9999","-9999.00","-9999.00","Clear","clear","0","0","0","0","0","0","METAR UKKK 221700Z 03003MPS CAVOK 26/18 Q1017 R08/CLRD70 NOSIG"
"8:30 PM EEST on August 22, 2016","2016","08","22","20","30","Europe/Kiev","5:30 PM GMT on August 22, 2016","2016","08","22","17","30","UTC","26.0","78.8","19.0","66.2","65","10.8","6.7","-9999.0","-9999.0","20","NNE","-9999.0","-9999.0","1017","30.04","-999","-999","-9999","-9999","-9999.00","-9999.00","Clear","clear","0","0","0","0","0","0","METAR UKKK 221730Z 02003MPS CAVOK 26/19 Q1017 R08/CLRD70 NOSIG"
"9:00 PM EEST on August 22, 2016","2016","08","22","21","00","Europe/Kiev","6:00 PM GMT on August 22, 2016","2016","08","22","18","00","UTC","27","80","19","66","53","7.2","4.5","","","50","NE","20","12","1017","30.04","-999","-999","-9999","-9999","","","Scattered Clouds","partlycloudy","0","0","0","0","0","0","AAXX 22181 33345 32598 60502 10266 20187 39981 40171 53008 81530 333 10296 555 10025"
"9:00 PM EEST on August 22, 2016","2016","08","22","21","00","Europe/Kiev","6:00 PM GMT on August 22, 2016","2016","08","22","18","00","UTC","25.0","77.0","19.0","66.2","69","10.8","6.7","-9999.0","-9999.0","20","NNE","-9999.0","-9999.0","1018","30.06","-999","-999","-9999","-9999","-9999.00","-9999.00","Clear","clear","0","0","0","0","0","0","METAR UKKK 221800Z 02003MPS CAVOK 25/19 Q1018 R08/CLRD70 NOSIG"
"9:30 PM EEST on August 22, 2016","2016","08","22","21","30","Europe/Kiev","6:30 PM GMT on August 22, 2016","2016","08","22","18","30","UTC","25.0","77.0","19.0","66.2","69","10.8","6.7","-9999.0","-9999.0","60","ENE","-9999.0","-9999.0","1018","30.06","-999","-999","-9999","-9999","-9999.00","-9999.00","Clear","clear","0","0","0","0","0","0","METAR UKKK 221830Z 06003MPS CAVOK 25/19 Q1018 R08/CLRD70 NOSIG"
"10:00 PM EEST on August 22, 2016","2016","08","22","22","00","Europe/Kiev","7:00 PM GMT on August 22, 2016","2016","08","22","19","00","UTC","25.0","77.0","19.0","66.2","69","10.8","6.7","-9999.0","-9999.0","40","NE","-9999.0","-9999.0","1018","30.06","-999","-999","-9999","-9999","-9999.00","-9999.00","Clear","clear","0","0","0","0","0","0","METAR UKKK 221900Z 04003MPS CAVOK 25/19 Q1018 R08/CLRD70 NOSIG"
"10:30 PM EEST on August 22, 2016","2016","08","22","22","30","Europe/Kiev","7:30 PM GMT on August 22, 2016","2016","08","22","19","30","UTC","25.0","77.0","20.0","68.0","74","10.8","6.7","-9999.0","-9999.0","60","ENE","10.0","6.2","1018","30.06","-999","-999","-9999","-9999","-9999.00","-9999.00","Light Rain Showers","rain","0","1","0","0","0","0","METAR UKKK 221930Z 06003MPS 9999 -SHRA SCT030CB BKN100 25/20 Q1018 R08/190060 NOSIG"
"11:00 PM EEST on August 22, 2016","2016","08","22","23","00","Europe/Kiev","8:00 PM GMT on August 22, 2016","2016","08","22","20","00","UTC","24.0","75.2","21.0","69.8","83","10.8","6.7","-9999.0","-9999.0","50","NE","10.0","6.2","1018","30.06","-999","-999","-9999","-9999","-9999.00","-9999.00","Light Rain Showers","rain","0","1","0","0","0","0","METAR UKKK 222000Z 05003MPS 9999 -SHRA SCT030CB BKN100 24/21 Q1018 R08/190060 NOSIG"
"11:30 PM EEST on August 22, 2016","2016","08","22","23","30","Europe/Kiev","8:30 PM GMT on August 22, 2016","2016","08","22","20","30","UTC","24.0","75.2","20.0","68.0","78","14.4","8.9","-9999.0","-9999.0","20","NNE","10.0","6.2","1017","30.04","-999","-999","-9999","-9999","-9999.00","-9999.00","Light Rain Showers","rain","0","1","0","0","0","0","METAR UKKK 222030Z 02004MPS 9999 -SHRA SCT030CB BKN100 24/20 Q1017 R08/290058 NOSIG"
"12:00 AM EEST on August 23, 2016","2016","08","23","00","00","Europe/Kiev","9:00 PM GMT on August 22, 2016","2016","08","22","21","00","UTC","26","78","20","68","63","3.6","2.2","","","20","NNE","20","12","1016","30.02","-999","-999","-9999","-9999","","","Light Rain Showers","rain","0","1","0","0","0","0","AAXX 22211 33345 41698 70201 10256 20198 39974 40165 58007 72582 84960 555 11023"
"12:00 AM EEST on August 23, 2016","2016","08","23","00","00","Europe/Kiev","9:00 PM GMT on August 22, 2016","2016","08","22","21","00","UTC","24.0","75.2","20.0","68.0","78","14.4","8.9","-9999.0","-9999.0","30","NNE","-9999.0","-9999.0","1017","30.04","-999","-999","-9999","-9999","-9999.00","-9999.00","Clear","clear","0","0","0","0","0","0","METAR UKKK 222100Z 03004MPS CAVOK 24/20 Q1017 R08/290058 NOSIG"
"12:30 AM EEST on August 23, 2016","2016","08","23","00","30","Europe/Kiev","9:30 PM GMT on August 22, 2016","2016","08","22","21","30","UTC","24.0","75.2","20.0","68.0","78","10.8","6.7","-9999.0","-9999.0","110","ESE","-9999.0","-9999.0","1018","30.06","-999","-999","-9999","-9999","-9999.00","-9999.00","Clear","clear","0","0","0","0","0","0","METAR UKKK 222130Z 11003MPS CAVOK 24/20 Q1018 R08/CLRD70 NOSIG"
"1:00 AM EEST on August 23, 2016","2016","08","23","01","00","Europe/Kiev","10:00 PM GMT on August 22, 2016","2016","08","22","22","00","UTC","23.0","73.4","20.0","68.0","83","7.2","4.5","-9999.0","-9999.0","70","ENE","-9999.0","-9999.0","1018","30.06","-999","-999","-9999","-9999","-9999.00","-9999.00","Clear","clear","0","0","0","0","0","0","METAR UKKK 222200Z 07002MPS 050V130 CAVOK 23/20 Q1018 R08/CLRD70 NOSIG"
"1:30 AM EEST on August 23, 2016","2016","08","23","01","30","Europe/Kiev","10:30 PM GMT on August 22, 2016","2016","08","22","22","30","UTC","23.0","73.4","20.0","68.0","83","10.8","6.7","-9999.0","-9999.0","360","North","-9999.0","-9999.0","1017","30.04","-999","-999","-9999","-9999","-9999.00","-9999.00","Clear","clear","0","0","0","0","0","0","METAR UKKK 222230Z 36003MPS CAVOK 23/20 Q1017 R08/CLRD70 NOSIG"
"2:00 AM EEST on August 23, 2016","2016","08","23","02","00","Europe/Kiev","11:00 PM GMT on August 22, 2016","2016","08","22","23","00","UTC","23.0","73.4","20.0","68.0","83","14.4","8.9","-9999.0","-9999.0","20","NNE","-9999.0","-9999.0","1017","30.04","-999","-999","-9999","-9999","-9999.00","-9999.00","Clear","clear","0","0","0","0","0","0","METAR UKKK 222300Z 02004MPS CAVOK 23/20 Q1017 R08/CLRD70 NOSIG"
"2:30 AM EEST on August 23, 2016","2016","08","23","02","30","Europe/Kiev","11:30 PM GMT on August 22, 2016","2016","08","22","23","30","UTC","22.0","71.6","20.0","68.0","88","7.2","4.5","-9999.0","-9999.0","80","East","10.0","6.2","1017","30.04","-999","-999","-9999","-9999","-9999.00","-9999.00","Mostly Cloudy","mostlycloudy","0","0","0","0","0","0","METAR UKKK 222330Z 08002MPS 040V120 9999 FEW030CB BKN100 22/20 Q1017 R08/CLRD70 NOSIG"
"3:00 AM EEST on August 23, 2016","2016","08","23","03","00","Europe/Kiev","12:00 AM GMT on August 23, 2016","2016","08","23","00","00","UTC","23","74","21","69","81","7.2","4.5","","","70","ENE","10","6","1016","30.02","-999","-999","-9999","-9999","","","Light Rain Showers","rain","0","1","0","0","0","0","AAXX 23001 33345 /1597 70702 10231 20207 39973 40165 56001 72582 85963 555 11022 69961"
"3:00 AM EEST on August 23, 2016","2016","08","23","03","00","Europe/Kiev","12:00 AM GMT on August 23, 2016","2016","08","23","00","00","UTC","23.0","73.4","20.0","68.0","83","10.8","6.7","-9999.0","-9999.0","350","North","10.0","6.2","1017","30.04","-999","-999","-9999","-9999","-9999.00","-9999.00","Light Rain Showers","rain","0","1","0","0","0","0","METAR UKKK 230000Z 35003MPS 310V020 9999 -SHRA FEW030CB BKN100 23/20 Q1017 R08/CLRD70 NOSIG"
"3:30 AM EEST on August 23, 2016","2016","08","23","03","30","Europe/Kiev","12:30 AM GMT on August 23, 2016","2016","08","23","00","30","UTC","23.0","73.4","20.0","68.0","83","7.2","4.5","-9999.0","-9999.0","350","North","-9999.0","-9999.0","1017","30.04","-999","-999","-9999","-9999","-9999.00","-9999.00","Clear","clear","0","0","0","0","0","0","METAR UKKK 230030Z 35002MPS 260V050 CAVOK 23/20 Q1017 R08/CLRD70 NOSIG"
"4:00 AM EEST on August 23, 2016","2016","08","23","04","00","Europe/Kiev","1:00 AM GMT on August 23, 2016","2016","08","23","01","00","UTC","23.0","73.4","20.0","68.0","83","7.2","4.5","-9999.0","-9999.0","340","NNW","-9999.0","-9999.0","1017","30.04","-999","-999","-9999","-9999","-9999.00","-9999.00","Clear","clear","0","0","0","0","0","0","METAR UKKK 230100Z 34002MPS 260V010 CAVOK 23/20 Q1017 R08/CLRD70 NOSIG"
"4:30 AM EEST on August 23, 2016","2016","08","23","04","30","Europe/Kiev","1:30 AM GMT on August 23, 2016","2016","08","23","01","30","UTC","22.0","71.6","20.0","68.0","88","10.8","6.7","-9999.0","-9999.0","30","NNE","-9999.0","-9999.0","1017","30.04","-999","-999","-9999","-9999","-9999.00","-9999.00","Clear","clear","0","0","0","0","0","0","METAR UKKK 230130Z 03003MPS CAVOK 22/20 Q1017 R08/CLRD70 NOSIG"
"5:00 AM EEST on August 23, 2016","2016","08","23","05","00","Europe/Kiev","2:00 AM GMT on August 23, 2016","2016","08","23","02","00","UTC","22.0","71.6","20.0","68.0","88","10.8","6.7","-9999.0","-9999.0","20","NNE","-9999.0","-9999.0","1016","30.01","-999","-999","-9999","-9999","-9999.00","-9999.00","Clear","clear","0","0","0","0","0","0","METAR UKKK 230200Z 02003MPS CAVOK 22/20 Q1016 R08/CLRD70 NOSIG"
"5:30 AM EEST on August 23, 2016","2016","08","23","05","30","Europe/Kiev","2:30 AM GMT on August 23, 2016","2016","08","23","02","30","UTC","22.0","71.6","20.0","68.0","88","10.8","6.7","-9999.0","-9999.0","20","NNE","-9999.0","-9999.0","1017","30.04","-999","-999","-9999","-9999","-9999.00","-9999.00","Clear","clear","0","0","0","0","0","0","METAR UKKK 230230Z 02003MPS CAVOK 22/20 Q1017 R08/CLRD70 NOSIG"
"6:00 AM EEST on August 23, 2016","2016","08","23","06","00","Europe/Kiev","3:00 AM GMT on August 23, 2016","2016","08","23","03","00","UTC","22","72","20","67","81","3.6","2.2","","","10","North","10","6","1016","30.02","-999","-999","-9999","-9999","","","Mostly Cloudy","mostlycloudy","0","0","0","0","0","0","AAXX 23031 33345 42997 60101 10224 20196 39972 40165 58001 86030 555 11020"
"6:00 AM EEST on August 23, 2016","2016","08","23","06","00","Europe/Kiev","3:00 AM GMT on August 23, 2016","2016","08","23","03","00","UTC","22.0","71.6","20.0","68.0","88","10.8","6.7","-9999.0","-9999.0","30","NNE","-9999.0","-9999.0","1017","30.04","-999","-999","-9999","-9999","-9999.00","-9999.00","Clear","clear","0","0","0","0","0","0","METAR UKKK 230300Z 03003MPS CAVOK 22/20 Q1017 R08/CLRD70 NOSIG"
"6:30 AM EEST on August 23, 2016","2016","08","23","06","30","Europe/Kiev","3:30 AM GMT on August 23, 2016","2016","08","23","03","30","UTC","22.0","71.6","20.0","68.0","88","10.8","6.7","-9999.0","-9999.0","30","NNE","-9999.0","-9999.0","1017","30.04","-999","-999","-9999","-9999","-9999.00","-9999.00","Clear","clear","0","0","0","0","0","0","METAR UKKK 230330Z 03003MPS CAVOK 22/20 Q1017 R08/CLRD70 NOSIG"
"7:00 AM EEST on August 23, 2016","2016","08","23","07","00","Europe/Kiev","4:00 AM GMT on August 23, 2016","2016","08","23","04","00","UTC","22.0","71.6","20.0","68.0","88","10.8","6.7","-9999.0","-9999.0","20","NNE","-9999.0","-9999.0","1017","30.04","-999","-999","-9999","-9999","-9999.00","-9999.00","Clear","clear","0","0","0","0","0","0","METAR UKKK 230400Z 02003MPS CAVOK 22/20 Q1017 R08/CLRD70 NOSIG"
"7:30 AM EEST on August 23, 2016","2016","08","23","07","30","Europe/Kiev","4:30 AM GMT on August 23, 2016","2016","08","23","04","30","UTC","22.0","71.6","20.0","68.0","88","10.8","6.7","-9999.0","-9999.0","20","NNE","-9999.0","-9999.0","1017","30.04","-999","-999","-9999","-9999","-9999.00","-9999.00","Clear","clear","0","0","0","0","0","0","METAR UKKK 230430Z 02003MPS CAVOK 22/20 Q1017 R08/CLRD70 NOSIG"
"8:00 AM EEST on August 23, 2016","2016","08","23","08","00","Europe/Kiev","5:00 AM GMT on August 23, 2016","2016","08","23","05","00","UTC","23.0","73.4","20.0","68.0","83","10.8","6.7","-9999.0","-9999.0","10","North","-9999.0","-9999.0","1017","30.04","-999","-999","-9999","-9999","-9999.00","-9999.00","Clear","clear","0","0","0","0","0","0","METAR UKKK 230500Z 01003MPS CAVOK 23/20 Q1017 R08/CLRD70 NOSIG"
"8:30 AM EEST on August 23, 2016","2016","08","23","08","30","Europe/Kiev","5:30 AM GMT on August 23, 2016","2016","08","23","05","30","UTC","23.0","73.4","20.0","68.0","83","14.4","8.9","-9999.0","-9999.0","20","NNE","-9999.0","-9999.0","1017","30.04","-999","-999","-9999","-9999","-9999.00","-9999.00","Clear","clear","0","0","0","0","0","0","METAR UKKK 230530Z 02004MPS 350V050 CAVOK 23/20 Q1017 R08/CLRD70 NOSIG"
"9:00 AM EEST on August 23, 2016","2016","08","23","09","00","Europe/Kiev","6:00 AM GMT on August 23, 2016","2016","08","23","06","00","UTC","24","75","20","67","71","10.8","6.7","","","40","NE","20","12","1017","30.03","-999","-999","-9999","-9999","","","Scattered Clouds","partlycloudy","0","0","0","0","0","0","AAXX 23061 33345 12998 70403 10240 20197 39976 40168 53004 69962 82089 333 20222 555 11025"
"9:00 AM EEST on August 23, 2016","2016","08","23","09","00","Europe/Kiev","6:00 AM GMT on August 23, 2016","2016","08","23","06","00","UTC","24.0","75.2","20.0","68.0","78","14.4","8.9","-9999.0","-9999.0","20","NNE","-9999.0","-9999.0","1017","30.04","-999","-999","-9999","-9999","-9999.00","-9999.00","Clear","clear","0","0","0","0","0","0","METAR UKKK 230600Z 02004MPS 360V060 CAVOK 24/20 Q1017 R08/CLRD70 NOSIG"
"9:30 AM EEST on August 23, 2016","2016","08","23","09","30","Europe/Kiev","6:30 AM GMT on August 23, 2016","2016","08","23","06","30","UTC","25.0","77.0","20.0","68.0","74","18.0","11.2","-9999.0","-9999.0","30","NNE","-9999.0","-9999.0","1017","30.04","-999","-999","-9999","-9999","-9999.00","-9999.00","Clear","clear","0","0","0","0","0","0","METAR UKKK 230630Z 03005MPS 360V060 CAVOK 25/20 Q1017 R08/CLRD70 NOSIG"
"10:00 AM EEST on August 23, 2016","2016","08","23","10","00","Europe/Kiev","7:00 AM GMT on August 23, 2016","2016","08","23","07","00","UTC","26.0","78.8","20.0","68.0","69","21.6","13.4","-9999.0","-9999.0","30","NNE","-9999.0","-9999.0","1017","30.04","-999","-999","-9999","-9999","-9999.00","-9999.00","Clear","clear","0","0","0","0","0","0","METAR UKKK 230700Z 03006MPS CAVOK 26/20 Q1017 R08/CLRD70 NOSIG"
"10:30 AM EEST on August 23, 2016","2016","08","23","10","30","Europe/Kiev","7:30 AM GMT on August 23, 2016","2016","08","23","07","30","UTC","26.0","78.8","20.0","68.0","69","21.6","13.4","-9999.0","-9999.0","20","NNE","-9999.0","-9999.0","1017","30.04","-999","-999","-9999","-9999","-9999.00","-9999.00","Clear","clear","0","0","0","0","0","0","METAR UKKK 230730Z 02006MPS CAVOK 26/20 Q1017 R08/CLRD70 NOSIG"
"11:00 AM EEST on August 23, 2016","2016","08","23","11","00","Europe/Kiev","8:00 AM GMT on August 23, 2016","2016","08","23","08","00","UTC","27.0","80.6","20.0","68.0","65","21.6","13.4","-9999.0","-9999.0","30","NNE","-9999.0","-9999.0","1017","30.04","-999","-999","28.5","83.2","-9999.00","-9999.00","Clear","clear","0","0","0","0","0","0","METAR UKKK 230800Z 03006MPS CAVOK 27/20 Q1017 R08/CLRD70 NOSIG"
"11:30 AM EEST on August 23, 2016","2016","08","23","11","30","Europe/Kiev","8:30 AM GMT on August 23, 2016","2016","08","23","08","30","UTC","28.0","82.4","21.0","69.8","66","18.0","11.2","-9999.0","-9999.0","20","NNE","-9999.0","-9999.0","1017","30.04","-999","-999","30.2","86.3","-9999.00","-9999.00","Clear","clear","0","0","0","0","0","0","METAR UKKK 230830Z 02005MPS CAVOK 28/21 Q1017 R08/CLRD70 NOSIG"
"12:00 PM EEST on August 23, 2016","2016","08","23","12","00","Europe/Kiev","9:00 AM GMT on August 23, 2016","2016","08","23","09","00","UTC","28","82","20","69","56","14.4","8.9","","","40","NE","20","12","1016","30.00","-999","-999","-9999","-9999","","","Scattered Clouds","partlycloudy","0","0","0","0","0","0","AAXX 23091 33345 42698 20404 10277 20204 39970 40159 58006 82101 555 10036"
"12:00 PM EEST on August 23, 2016","2016","08","23","12","00","Europe/Kiev","9:00 AM GMT on August 23, 2016","2016","08","23","09","00","UTC","28.0","82.4","21.0","69.8","66","21.6","13.4","-9999.0","-9999.0","10","North","10.0","6.2","1017","30.04","-999","-999","30.2","86.3","-9999.00","-9999.00","Scattered Clouds","partlycloudy","0","0","0","0","0","0","METAR UKKK 230900Z 01006MPS 340V040 9999 FEW030 SCT100 28/21 Q1017 R08/CLRD70 NOSIG"
"12:30 PM EEST on August 23, 2016","2016","08","23","12","30","Europe/Kiev","9:30 AM GMT on August 23, 2016","2016","08","23","09","30","UTC","29.0","84.2","21.0","69.8","62","18.0","11.2","-9999.0","-9999.0","20","NNE","10.0","6.2","1017","30.04","-999","-999","31.3","88.4","-9999.00","-9999.00","Scattered Clouds","partlycloudy","0","0","0","0","0","0","METAR UKKK 230930Z 02005MPS 340V050 9999 FEW030 SCT100 29/21 Q1017 R08/CLRD70 NOSIG"
"1:00 PM EEST on August 23, 2016","2016","08","23","13","00","Europe/Kiev","10:00 AM GMT on August 23, 2016","2016","08","23","10","00","UTC","30.0","86.0","21.0","69.8","58","21.6","13.4","-9999.0","-9999.0","360","North","10.0","6.2","1017","30.04","-999","-999","32.4","90.4","-9999.00","-9999.00","Scattered Clouds","partlycloudy","0","0","0","0","0","0","METAR UKKK 231000Z 36006MPS 9999 FEW030 SCT100 30/21 Q1017 R08/CLRD70 NOSIG"
"1:30 PM EEST on August 23, 2016","2016","08","23","13","30","Europe/Kiev","10:30 AM GMT on August 23, 2016","2016","08","23","10","30","UTC","30.0","86.0","21.0","69.8","58","18.0","11.2","-9999.0","-9999.0","360","North","10.0","6.2","1016","30.01","-999","-999","32.4","90.4","-9999.00","-9999.00","Scattered Clouds","partlycloudy","0","0","0","0","0","0","METAR UKKK 231030Z 36005MPS 340V040 9999 FEW030 SCT100 30/21 Q1016 R08/CLRD70 NOSIG"
"2:00 PM EEST on August 23, 2016","2016","08","23","14","00","Europe/Kiev","11:00 AM GMT on August 23, 2016","2016","08","23","11","00","UTC","30.0","86.0","21.0","69.8","58","18.0","11.2","-9999.0","-9999.0","30","NNE","-9999.0","-9999.0","1016","30.01","-999","-999","32.4","90.4","-9999.00","-9999.00","Clear","clear","0","0","0","0","0","0","METAR UKKK 231100Z 03005MPS 360V060 CAVOK 30/21 Q1016 R08/CLRD70 NOSIG"
"2:30 PM EEST on August 23, 2016","2016","08","23","14","30","Europe/Kiev","11:30 AM GMT on August 23, 2016","2016","08","23","11","30","UTC","29.0","84.2","21.0","69.8","62","18.0","11.2","-9999.0","-9999.0","30","NNE","-9999.0","-9999.0","1016","30.01","-999","-999","31.3","88.4","-9999.00","-9999.00","Clear","clear","0","0","0","0","0","0","METAR UKKK 231130Z 03005MPS 010V070 CAVOK 29/21 Q1016 R08/CLRD70 NOSIG"
"3:00 PM EEST on August 23, 2016","2016","08","23","15","00","Europe/Kiev","12:00 PM GMT on August 23, 2016","2016","08","23","12","00","UTC","30","86","21","69","48","14.4","8.9","","","20","NNE","20","12","1015","29.98","-999","-999","-9999","-9999","","","Scattered Clouds","partlycloudy","0","0","0","0","0","0","AAXX 23121 33345 32698 60204 10298 20207 39963 40151 57007 82201 555 10040"
"3:00 PM EEST on August 23, 2016","2016","08","23","15","00","Europe/Kiev","12:00 PM GMT on August 23, 2016","2016","08","23","12","00","UTC","30.0","86.0","21.0","69.8","58","21.6","13.4","-9999.0","-9999.0","10","North","-9999.0","-9999.0","1016","30.01","-999","-999","32.4","90.4","-9999.00","-9999.00","Clear","clear","0","0","0","0","0","0","METAR UKKK 231200Z 01006MPS 340V050 CAVOK 30/21 Q1016 R08/CLRD70 NOSIG"
"3:30 PM EEST on August 23, 2016","2016","08","23","15","30","Europe/Kiev","12:30 PM GMT on August 23, 2016","2016","08","23","12","30","UTC","31.0","87.8","21.0","69.8","55","21.6","13.4","-9999.0","-9999.0","20","NNE","-9999.0","-9999.0","1016","30.01","-999","-999","33.7","92.6","-9999.00","-9999.00","Clear","clear","0","0","0","0","0","0","METAR UKKK 231230Z 02006MPS CAVOK 31/21 Q1016 R08/CLRD70 NOSIG"
"4:00 PM EEST on August 23, 2016","2016","08","23","16","00","Europe/Kiev","1:00 PM GMT on August 23, 2016","2016","08","23","13","00","UTC","30.0","86.0","21.0","69.8","58","18.0","11.2","-9999.0","-9999.0","30","NNE","-9999.0","-9999.0","1016","30.01","-999","-999","32.4","90.4","-9999.00","-9999.00","Clear","clear","0","0","0","0","0","0","METAR UKKK 231300Z 03005MPS CAVOK 30/21 Q1016 R08/CLRD70 NOSIG"
"4:30 PM EEST on August 23, 2016","2016","08","23","16","30","Europe/Kiev","1:30 PM GMT on August 23, 2016","2016","08","23","13","30","UTC","31.0","87.8","21.0","69.8","55","18.0","11.2","-9999.0","-9999.0","360","North","-9999.0","-9999.0","1016","30.01","-999","-999","33.7","92.6","-9999.00","-9999.00","Clear","clear","0","0","0","0","0","0","METAR UKKK 231330Z 36005MPS CAVOK 31/21 Q1016 R08/CLRD70 NOSIG"
"5:00 PM EEST on August 23, 2016","2016","08","23","17","00","Europe/Kiev","2:00 PM GMT on August 23, 2016","2016","08","23","14","00","UTC","29.0","84.2","20.0","68.0","58","18.0","11.2","-9999.0","-9999.0","10","North","-9999.0","-9999.0","1016","30.01","-999","-999","30.7","87.3","-9999.00","-9999.00","Clear","clear","0","0","0","0","0","0","METAR UKKK 231400Z 01005MPS CAVOK 29/20 Q1016 R08/CLRD70 NOSIG"
"5:30 PM EEST on August 23, 2016","2016","08","23","17","30","Europe/Kiev","2:30 PM GMT on August 23, 2016","2016","08","23","14","30","UTC","29.0","84.2","20.0","68.0","58","25.2","15.7","-9999.0","-9999.0","20","NNE","-9999.0","-9999.0","1016","30.01","-999","-999","30.7","87.3","-9999.00","-9999.00","Clear","clear","0","0","0","0","0","0","METAR UKKK 231430Z 02007MPS CAVOK 29/20 Q1016 R08/CLRD70 TEMPO 35011G18MPS 2100 -TSRAGR SQ BKN025CB"
"6:00 PM EEST on August 23, 2016","2016","08","23","18","00","Europe/Kiev","3:00 PM GMT on August 23, 2016","2016","08","23","15","00","UTC","30","85","20","69","49","10.8","6.7","","","50","NE","20","12","1015","29.99","-999","-999","-9999","-9999","","","Scattered Clouds","partlycloudy","0","0","0","0","0","0","AAXX 23151 33345 42598 60503 10297 20205 39965 40153 53002 82501 555 10035"
"6:00 PM EEST on August 23, 2016","2016","08","23","18","00","Europe/Kiev","3:00 PM GMT on August 23, 2016","2016","08","23","15","00","UTC","29.0","84.2","20.0","68.0","58","21.6","13.4","-9999.0","-9999.0","10","North","10.0","6.2","1016","30.01","-999","-999","30.7","87.3","-9999.00","-9999.00","Mostly Cloudy","mostlycloudy","0","0","0","0","0","0","METAR UKKK 231500Z 01006MPS 9999 FEW030CB BKN100 29/20 Q1016 R08/CLRD70 TEMPO 35011G18MPS 2100 -TSRAGR SQ BKN025CB"
"6:30 PM EEST on August 23, 2016","2016","08","23","18","30","Europe/Kiev","3:30 PM GMT on August 23, 2016","2016","08","23","15","30","UTC","28.0","82.4","20.0","68.0","62","14.4","8.9","-9999.0","-9999.0","20","NNE","10.0","6.2","1016","30.01","-999","-999","29.7","85.4","-9999.00","-9999.00","Mostly Cloudy","mostlycloudy","0","0","0","0","0","0","METAR UKKK 231530Z 02004MPS 9999 FEW030CB BKN100 28/20 Q1016 R08/CLRD70 TEMPO 35011G18MPS 2100 -TSRAGR SQ BKN025CB"
"7:00 PM EEST on August 23, 2016","2016","08","23","19","00","Europe/Kiev","4:00 PM GMT on August 23, 2016","2016","08","23","16","00","UTC","27.0","80.6","20.0","68.0","65","18.0","11.2","-9999.0","-9999.0","360","North","10.0","6.2","1016","30.01","-999","-999","28.5","83.2","-9999.00","-9999.00","Mostly Cloudy","mostlycloudy","0","0","0","0","0","0","METAR UKKK 231600Z 36005MPS 9999 FEW030CB BKN100 27/20 Q1016 R08/CLRD70 TEMPO 35011G18MPS 2100 -TSRAGR SQ BKN025CB"
"7:30 PM EEST on August 23, 2016","2016","08","23","19","30","Europe/Kiev","4:30 PM GMT on August 23, 2016","2016","08","23","16","30","UTC","27.0","80.6","19.0","66.2","61","14.4","8.9","-9999.0","-9999.0","20","NNE","9.0","5.6","1016","30.01","-999","-999","28.2","82.7","-9999.00","-9999.00","Mostly Cloudy","mostlycloudy","0","0","0","0","0","0","METAR UKKK 231630Z 02004MPS 9000 FEW030CB BKN100 27/19 Q1016 R08/CLRD70 TEMPO 35011G18MPS 2100 -TSRAGR SQ BKN025CB"
"8:00 PM EEST on August 23, 2016","2016","08","23","20","00","Europe/Kiev","5:00 PM GMT on August 23, 2016","2016","08","23","17","00","UTC","27.0","80.6","18.0","64.4","58","18.0","11.2","-9999.0","-9999.0","10","North","10.0","6.2","1017","30.04","-999","-999","27.9","82.3","-9999.00","-9999.00","Mostly Cloudy","mostlycloudy","0","0","0","0","0","0","METAR UKKK 231700Z 01005MPS 340V050 9999 FEW030CB BKN100 27/18 Q1017 R08/CLRD70 TEMPO 35011G18MPS 2100 -TSRAGR SQ BKN025CB"
"8:30 PM EEST on August 23, 2016","2016","08","23","20","30","Europe/Kiev","5:30 PM GMT on August 23, 2016","2016","08","23","17","30","UTC","27.0","80.6","17.0","62.6","54","18.0","11.2","-9999.0","-9999.0","10","North","10.0","6.2","1017","30.04","-999","-999","27.7","81.8","-9999.00","-9999.00","Mostly Cloudy","mostlycloudy","0","0","0","0","0","0","METAR UKKK 231730Z 01005MPS 9999 FEW030CB BKN100 27/17 Q1017 R08/CLRD70 TEMPO 35011G18MPS 2100 -TSRAGR SQ BKN025CB"
"9:00 PM EEST on August 23, 2016","2016","08","23","21","00","Europe/Kiev","6:00 PM GMT on August 23, 2016","2016","08","23","18","00","UTC","26","79","18","65","54","10.8","6.7","","","20","NNE","20","12","1016","30.01","-999","-999","-9999","-9999","","","Scattered Clouds","partlycloudy","0","0","0","0","0","0","AAXX 23181 33345 32698 30203 10262 20185 39971 40161 52006 81530 333 10307 555 10024"
"9:00 PM EEST on August 23, 2016","2016","08","23","21","00","Europe/Kiev","6:00 PM GMT on August 23, 2016","2016","08","23","18","00","UTC","26.0","78.8","17.0","62.6","57","18.0","11.2","-9999.0","-9999.0","360","North","10.0","6.2","1017","30.04","-999","-999","-9999","-9999","-9999.00","-9999.00","Mostly Cloudy","mostlycloudy","0","0","0","0","0","0","METAR UKKK 231800Z 36005MPS 9999 FEW030CB BKN100 26/17 Q1017 R08/CLRD70 TEMPO 35011G18MPS 2100 -TSRAGR SQ BKN025CB"
"9:30 PM EEST on August 23, 2016","2016","08","23","21","30","Europe/Kiev","6:30 PM GMT on August 23, 2016","2016","08","23","18","30","UTC","26.0","78.8","17.0","62.6","57","18.0","11.2","-9999.0","-9999.0","350","North","10.0","6.2","1017","30.04","-999","-999","-9999","-9999","-9999.00","-9999.00","Mostly Cloudy","mostlycloudy","0","0","0","0","0","0","METAR UKKK 231830Z 35005MPS 9999 FEW030CB BKN100 26/17 Q1017 R08/CLRD70 TEMPO 35011G18MPS 2100 -TSRAGR SQ BKN025CB"
"10:00 PM EEST on August 23, 2016","2016","08","23","22","00","Europe/Kiev","7:00 PM GMT on August 23, 2016","2016","08","23","19","00","UTC","24.0","75.2","16.0","60.8","61","14.4","8.9","-9999.0","-9999.0","340","NNW","10.0","6.2","1017","30.04","-999","-999","-9999","-9999","-9999.00","-9999.00","Mostly Cloudy","mostlycloudy","0","0","0","0","0","0","METAR UKKK 231900Z 34004MPS 9999 FEW030CB BKN100 24/16 Q1017 R08/CLRD70 TEMPO 35011G18MPS 2100 -TSRAGR SQ BKN025CB"
"10:30 PM EEST on August 23, 2016","2016","08","23","22","30","Europe/Kiev","7:30 PM GMT on August 23, 2016","2016","08","23","19","30","UTC","24.0","75.2","17.0","62.6","65","7.2","4.5","-9999.0","-9999.0","10","North","10.0","6.2","1017","30.04","-999","-999","-9999","-9999","-9999.00","-9999.00","Mostly Cloudy","mostlycloudy","0","0","0","0","0","0","METAR UKKK 231930Z 01002MPS 340V070 9999 FEW030CB BKN100 24/17 Q1017 R08/CLRD70 TEMPO 35011G18MPS 2100 -TSRAGR SQ BKN025CB"
"11:00 PM EEST on August 23, 2016","2016","08","23","23","00","Europe/Kiev","8:00 PM GMT on August 23, 2016","2016","08","23","20","00","UTC","24.0","75.2","17.0","62.6","65","10.8","6.7","-9999.0","-9999.0","20","NNE","10.0","6.2","1017","30.04","-999","-999","-9999","-9999","-9999.00","-9999.00","Mostly Cloudy","mostlycloudy","0","0","0","0","0","0","METAR UKKK 232000Z 02003MPS 9999 FEW030CB BKN100 24/17 Q1017 R08/CLRD70 TEMPO 35011G18MPS 2100 -TSRAGR SQ BKN025CB"
"11:30 PM EEST on August 23, 2016","2016","08","23","23","30","Europe/Kiev","8:30 PM GMT on August 23, 2016","2016","08","23","20","30","UTC","23.0","73.4","17.0","62.6","69","7.2","4.5","-9999.0","-9999.0","310","NW","10.0","6.2","1017","30.04","-999","-999","-9999","-9999","-9999.00","-9999.00","Mostly Cloudy","mostlycloudy","0","0","0","0","0","0","METAR UKKK 232030Z 31002MPS 270V360 9999 FEW030CB BKN100 23/17 Q1017 R26/CLRD70 TEMPO 35011G18MPS 2100 -TSRAGR SQ BKN025CB"
"12:00 AM EEST on August 24, 2016","2016","08","24","00","00","Europe/Kiev","9:00 PM GMT on August 23, 2016","2016","08","23","21","00","UTC","24","76","18","64","58","14.4","8.9","","","10","North","20","12","1017","30.03","-999","-999","-9999","-9999","","","Mostly Cloudy","mostlycloudy","0","0","0","0","0","0","AAXX 23211 33345 42498 60104 10242 20177 39977 40169 52006 86300 333 86919 555 10023"
"12:00 AM EEST on August 24, 2016","2016","08","24","00","00","Europe/Kiev","9:00 PM GMT on August 23, 2016","2016","08","23","21","00","UTC","23.0","73.4","18.0","64.4","73","10.8","6.7","-9999.0","-9999.0","340","NNW","10.0","6.2","1017","30.04","-999","-999","-9999","-9999","-9999.00","-9999.00","Light Rain Showers","rain","0","1","0","0","1","0","METAR UKKK 232100Z 34003MPS 9999 VCTS -SHRA SCT030CB BKN100 23/18 Q1017 R26/CLRD70 TEMPO 35011G18MPS 2100 -TSRAGR SQ BKN025CB"
"12:23 AM EEST on August 24, 2016","2016","08","24","00","23","Europe/Kiev","9:23 PM GMT on August 23, 2016","2016","08","23","21","23","UTC","23.0","73.4","19.0","66.2","78","10.8","6.7","-9999.0","-9999.0","310","NW","10.0","6.2","1017","30.04","-999","-999","-9999","-9999","-9999.00","-9999.00","Light Rain Showers","rain","0","1","0","0","0","0","SPECI UKKK 232123Z 31003MPS 9999 -SHRA SCT030CB BKN100 23/19 Q1017 R26/190060 TEMPO 35011G18MPS 2100 -TSRAGR SQ BKN025CB"
"12:30 AM EEST on August 24, 2016","2016","08","24","00","30","Europe/Kiev","9:30 PM GMT on August 23, 2016","2016","08","23","21","30","UTC","23.0","73.4","19.0","66.2","78","7.2","4.5","-9999.0","-9999.0","310","NW","10.0","6.2","1017","30.04","-999","-999","-9999","-9999","-9999.00","-9999.00","Light Rain Showers","rain","0","1","0","0","0","0","METAR UKKK 232130Z 31002MPS 9999 -SHRA SCT030CB BKN100 23/19 Q1017 R26/190060 TEMPO 35011G18MPS 2100 -TSRAGR SQ BKN025CB"
"1:00 AM EEST on August 24, 2016","2016","08","24","01","00","Europe/Kiev","10:00 PM GMT on August 23, 2016","2016","08","23","22","00","UTC","22.0","71.6","19.0","66.2","83","7.2","4.5","-9999.0","-9999.0","310","NW","10.0","6.2","1017","30.04","-999","-999","-9999","-9999","-9999.00","-9999.00","Light Rain Showers","rain","0","1","0","0","0","0","METAR UKKK 232200Z 31002MPS 270V030 9999 -SHRA SCT030CB BKN100 22/19 Q1017 R26/290158 TEMPO 35011G18MPS 2100 -TSRAGR SQ BKN025CB"
"1:05 AM EEST on August 24, 2016","2016","08","24","01","05","Europe/Kiev","10:05 PM GMT on August 23, 2016","2016","08","23","22","05","UTC","22.0","71.6","19.0","66.2","83","10.8","6.7","-9999.0","-9999.0","290","WNW","10.0","6.2","1017","30.04","-999","-999","-9999","-9999","-9999.00","-9999.00","Light Rain Showers","rain","0","1","0","0","1","0","SPECI UKKK 232205Z 29003MPS 9999 VCTS -SHRA SCT030CB BKN100 22/19 Q1017 R26/290158 TEMPO 35011G18MPS 2100 -TSRAGR SQ BKN025CB"
"1:30 AM EEST on August 24, 2016","2016","08","24","01","30","Europe/Kiev","10:30 PM GMT on August 23, 2016","2016","08","23","22","30","UTC","21.0","69.8","19.0","66.2","88","7.2","4.5","-9999.0","-9999.0","270","West","10.0","6.2","1018","30.06","-999","-999","-9999","-9999","-9999.00","-9999.00","Light Rain Showers","rain","0","1","0","0","1","0","METAR UKKK 232230Z 27002MPS 250V320 9999 VCTS -SHRA SCT033CB BKN100 21/19 Q1018 R26/290158 TEMPO 35011G18MPS 2100 -TSRAGR SQ BKN025CB"
"2:00 AM EEST on August 24, 2016","2016","08","24","02","00","Europe/Kiev","11:00 PM GMT on August 23, 2016","2016","08","23","23","00","UTC","21.0","69.8","19.0","66.2","88","3.6","2.2","-9999.0","-9999.0","0","Variable","10.0","6.2","1017","30.04","-999","-999","-9999","-9999","-9999.00","-9999.00","Light Rain Showers","rain","0","1","0","0","1","0","METAR UKKK 232300Z VRB01MPS 9999 VCTS -SHRA SCT033CB BKN100 21/19 Q1017 R26/290158 TEMPO 35011G18MPS 2100 -TSRAGR SQ BKN025CB"
"2:30 AM EEST on August 24, 2016","2016","08","24","02","30","Europe/Kiev","11:30 PM GMT on August 23, 2016","2016","08","23","23","30","UTC","21.0","69.8","19.0","66.2","88","10.8","6.7","-9999.0","-9999.0","320","NW","10.0","6.2","1018","30.06","-999","-999","-9999","-9999","-9999.00","-9999.00","Mostly Cloudy","mostlycloudy","0","0","0","0","0","0","METAR UKKK 232330Z 32003MPS 9999 SCT033CB BKN100 21/19 Q1018 R26/290158 TEMPO 35011G18MPS 2100 -TSRAGR SQ BKN025CB"
"3:00 AM EEST on August 24, 2016","2016","08","24","03","00","Europe/Kiev","12:00 AM GMT on August 24, 2016","2016","08","24","00","00","UTC","20","69","18","65","83","7.2","4.5","","","0","North","10","6","1017","30.05","-999","-999","-9999","-9999","","","Light Rain","rain","0","1","0","0","0","0","AAXX 24001 33345 /1497 83602 10205 20183 39980 40174 52003 79198 889// 333 88918 555 11021 60011"
"3:00 AM EEST on August 24, 2016","2016","08","24","03","00","Europe/Kiev","12:00 AM GMT on August 24, 2016","2016","08","24","00","00","UTC","21.0","69.8","19.0","66.2","88","14.4","8.9","-9999.0","-9999.0","300","WNW","10.0","6.2","1018","30.06","-999","-999","-9999","-9999","-9999.00","-9999.00","Light Rain Showers","rain","0","1","0","0","0","0","METAR UKKK 240000Z 30004MPS 9999 -SHRA SCT033CB BKN100 21/19 Q1018 R26/290158 NOSIG"
"3:30 AM EEST on August 24, 2016","2016","08","24","03","30","Europe/Kiev","12:30 AM GMT on August 24, 2016","2016","08","24","00","30","UTC","20.0","68.0","19.0","66.2","94","10.8","6.7","-9999.0","-9999.0","310","NW","9.0","5.6","1018","30.06","-999","-999","-9999","-9999","-9999.00","-9999.00","Light Rain Showers","rain","0","1","0","0","0","0","METAR UKKK 240030Z 31003MPS 9000 -SHRA SCT033CB BKN100 20/19 Q1018 R26/290158 NOSIG"
"4:00 AM EEST on August 24, 2016","2016","08","24","04","00","Europe/Kiev","1:00 AM GMT on August 24, 2016","2016","08","24","01","00","UTC","20.0","68.0","19.0","66.2","94","18.0","11.2","-9999.0","-9999.0","320","NW","9.0","5.6","1017","30.04","-999","-999","-9999","-9999","-9999.00","-9999.00","Light Rain Showers","rain","0","1","0","0","0","0","METAR UKKK 240100Z 32005MPS 9000 -SHRA SCT033CB BKN100 20/19 Q1017 R26/290158 NOSIG"
"4:30 AM EEST on August 24, 2016","2016","08","24","04","30","Europe/Kiev","1:30 AM GMT on August 24, 2016","2016","08","24","01","30","UTC","20.0","68.0","19.0","66.2","94","21.6","13.4","-9999.0","-9999.0","330","NNW","10.0","6.2","1017","30.04","-999","-999","-9999","-9999","-9999.00","-9999.00","Light Rain Showers","rain","0","1","0","0","0","0","METAR UKKK 240130Z 33006MPS 9999 -SHRA SCT030CB BKN100 20/19 Q1017 R26/290158 NOSIG"
"5:00 AM EEST on August 24, 2016","2016","08","24","05","00","Europe/Kiev","2:00 AM GMT on August 24, 2016","2016","08","24","02","00","UTC","19.0","66.2","18.0","64.4","94","21.6","13.4","-9999.0","-9999.0","330","NNW","10.0","6.2","1016","30.01","-999","-999","-9999","-9999","-9999.00","-9999.00","Overcast","cloudy","0","0","0","0","0","0","METAR UKKK 240200Z 33006MPS 9999 SCT008 OVC100 19/18 Q1016 R26/290158 NOSIG"
"5:30 AM EEST on August 24, 2016","2016","08","24","05","30","Europe/Kiev","2:30 AM GMT on August 24, 2016","2016","08","24","02","30","UTC","19.0","66.2","18.0","64.4","94","18.0","11.2","-9999.0","-9999.0","330","NNW","10.0","6.2","1017","30.04","-999","-999","-9999","-9999","-9999.00","-9999.00","Light Rain Showers","rain","0","1","0","0","0","0","METAR UKKK 240230Z 33005MPS 300V010 9999 -SHRA SCT014CB BKN025 19/18 Q1017 R26/290158 NOSIG"
"6:00 AM EEST on August 24, 2016","2016","08","24","06","00","Europe/Kiev","3:00 AM GMT on August 24, 2016","2016","08","24","03","00","UTC","19","67","18","65","89","18.0","11.2","","","10","North","10","6","1017","30.03","-999","-999","-9999","-9999","","","Light Rain Showers","rain","0","1","0","0","0","0","AAXX 24031 33345 41497 80105 10192 20181 39972 40167 58008 78082 889// 333 88918 555 11020"
"6:00 AM EEST on August 24, 2016","2016","08","24","06","00","Europe/Kiev","3:00 AM GMT on August 24, 2016","2016","08","24","03","00","UTC","19.0","66.2","18.0","64.4","94","25.2","15.7","-9999.0","-9999.0","350","North","10.0","6.2","1017","30.04","-999","-999","-9999","-9999","-9999.00","-9999.00","Light Rain","rain","0","1","0","0","0","0","METAR UKKK 240300Z 35007MPS 310V010 9999 -RA SCT006 BKN040 19/18 Q1017 R26/290158 NOSIG"
"6:30 AM EEST on August 24, 2016","2016","08","24","06","30","Europe/Kiev","3:30 AM GMT on August 24, 2016","2016","08","24","03","30","UTC","19.0","66.2","18.0","64.4","94","21.6","13.4","-9999.0","-9999.0","350","North","9.0","5.6","1017","30.04","-999","-999","-9999","-9999","-9999.00","-9999.00","Light Rain","rain","0","1","0","0","0","0","METAR UKKK 240330Z 35006MPS 9000 -RA SCT006 BKN026 19/18 Q1017 R26/290158 NOSIG"
"7:00 AM EEST on August 24, 2016","2016","08","24","07","00","Europe/Kiev","4:00 AM GMT on August 24, 2016","2016","08","24","04","00","UTC","19.0","66.2","18.0","64.4","94","18.0","11.2","-9999.0","-9999.0","10","North","10.0","6.2","1017","30.04","-999","-999","-9999","-9999","-9999.00","-9999.00","Light Rain","rain","0","1","0","0","0","0","METAR UKKK 240400Z 01005MPS 340V040 9999 -RA BKN006 BKN040 19/18 Q1017 R26/290158 TEMPO BKN005"
"7:30 AM EEST on August 24, 2016","2016","08","24","07","30","Europe/Kiev","4:30 AM GMT on August 24, 2016","2016","08","24","04","30","UTC","19.0","66.2","18.0","64.4","94","18.0","11.2","-9999.0","-9999.0","350","North","10.0","6.2","1017","30.04","-999","-999","-9999","-9999","-9999.00","-9999.00","Light Rain","rain","0","1","0","0","0","0","METAR UKKK 240430Z 35005MPS 320V030 9999 -RA BKN006 BKN040 19/18 Q1017 R26/290158 TEMPO BKN005"
"8:00 AM EEST on August 24, 2016","2016","08","24","08","00","Europe/Kiev","5:00 AM GMT on August 24, 2016","2016","08","24","05","00","UTC","18.0","64.4","18.0","64.4","100","18.0","11.2","-9999.0","-9999.0","340","NNW","9.0","5.6","1018","30.06","-999","-999","-9999","-9999","-9999.00","-9999.00","Light Rain","rain","0","1","0","0","0","0","METAR UKKK 240500Z 34005MPS 300V010 9000 -RA OVC006 18/18 Q1018 R26/290158 TEMPO BKN005"
"8:30 AM EEST on August 24, 2016","2016","08","24","08","30","Europe/Kiev","5:30 AM GMT on August 24, 2016","2016","08","24","05","30","UTC","18.0","64.4","17.0","62.6","94","14.4","8.9","-9999.0","-9999.0","340","NNW","10.0","6.2","1018","30.06","-999","-999","-9999","-9999","-9999.00","-9999.00","Overcast","cloudy","0","0","0","0","0","0","METAR UKKK 240530Z 34004MPS 9999 OVC006 18/17 Q1018 R26/290158 TEMPO BKN005"
"9:00 AM EEST on August 24, 2016","2016","08","24","09","00","Europe/Kiev","6:00 AM GMT on August 24, 2016","2016","08","24","06","00","UTC","18","65","17","63","89","10.8","6.7","","","10","North","10","6","1018","30.07","-999","-999","-9999","-9999","","","Light Rain Showers","rain","0","1","0","0","0","0","AAXX 24061 33345 11497 80103 10182 20170 39987 40183 53015 60032 72582 889// 333 20181 88919 555 11019"
"9:00 AM EEST on August 24, 2016","2016","08","24","09","00","Europe/Kiev","6:00 AM GMT on August 24, 2016","2016","08","24","06","00","UTC","18.0","64.4","17.0","62.6","94","21.6","13.4","-9999.0","-9999.0","340","NNW","10.0","6.2","1018","30.06","-999","-999","-9999","-9999","-9999.00","-9999.00","Overcast","cloudy","0","0","0","0","0","0","METAR UKKK 240600Z 34006MPS 9999 OVC004 18/17 Q1018 R26/290158 TEMPO BKN003"
"9:30 AM EEST on August 24, 2016","2016","08","24","09","30","Europe/Kiev","6:30 AM GMT on August 24, 2016","2016","08","24","06","30","UTC","17.0","62.6","17.0","62.6","100","18.0","11.2","-9999.0","-9999.0","350","North","10.0","6.2","1019","30.09","-999","-999","-9999","-9999","-9999.00","-9999.00","Overcast","cloudy","0","0","0","0","0","0","METAR UKKK 240630Z 35005MPS 320V020 9999 OVC004 17/17 Q1019 R26/290158 TEMPO BKN003"
"10:00 AM EEST on August 24, 2016","2016","08","24","10","00","Europe/Kiev","7:00 AM GMT on August 24, 2016","2016","08","24","07","00","UTC","17.0","62.6","17.0","62.6","100","10.8","6.7","-9999.0","-9999.0","360","North","10.0","6.2","1019","30.09","-999","-999","-9999","-9999","-9999.00","-9999.00","Overcast","cloudy","0","0","0","0","0","0","METAR UKKK 240700Z 36003MPS 300V030 9999 OVC003 17/17 Q1019 R26/290158 TEMPO BKN003"
"10:30 AM EEST on August 24, 2016","2016","08","24","10","30","Europe/Kiev","7:30 AM GMT on August 24, 2016","2016","08","24","07","30","UTC","17.0","62.6","17.0","62.6","100","18.0","11.2","-9999.0","-9999.0","340","NNW","9.0","5.6","1019","30.09","-999","-999","-9999","-9999","-9999.00","-9999.00","Overcast","cloudy","0","0","0","0","0","0","METAR UKKK 240730Z 34005MPS 9000 OVC003 17/17 Q1019 R26/290158 TEMPO OVC002"
"11:00 AM EEST on August 24, 2016","2016","08","24","11","00","Europe/Kiev","8:00 AM GMT on August 24, 2016","2016","08","24","08","00","UTC","17.0","62.6","17.0","62.6","100","18.0","11.2","-9999.0","-9999.0","340","NNW","7.0","4.3","1019","30.09","-999","-999","-9999","-9999","-9999.00","-9999.00","Light Drizzle","rain","0","0","0","0","0","0","METAR UKKK 240800Z 34005MPS 310V010 7000 -DZ OVC004 17/17 Q1019 R26/290058 TEMPO 1000 BR OVC002"
"11:30 AM EEST on August 24, 2016","2016","08","24","11","30","Europe/Kiev","8:30 AM GMT on August 24, 2016","2016","08","24","08","30","UTC","17.0","62.6","17.0","62.6","100","21.6","13.4","-9999.0","-9999.0","350","North","2.5","1.6","1019","30.09","-999","-999","-9999","-9999","-9999.00","-9999.00","Light Drizzle","rain","0","0","0","0","0","0","METAR UKKK 240830Z 35006MPS 2500 -DZ BR OVC004 17/17 Q1019 R26/290058 TEMPO 0400 -RA FG OVC002"
"12:00 PM EEST on August 24, 2016","2016","08","24","12","00","Europe/Kiev","9:00 AM GMT on August 24, 2016","2016","08","24","09","00","UTC","17","63","16","61","92","14.4","8.9","","","20","NNE","4","2","1019","30.09","-999","-999","-9999","-9999","","","Light Drizzle","rain","0","1","0","0","0","0","AAXX 24091 33345 41496 80204 10172 20162 39990 40187 52003 75152 887// 333 88711 555 11019"
"12:00 PM EEST on August 24, 2016","2016","08","24","12","00","Europe/Kiev","9:00 AM GMT on August 24, 2016","2016","08","24","09","00","UTC","17.0","62.6","17.0","62.6","100","18.0","11.2","-9999.0","-9999.0","350","North","2.7","1.7","1019","30.09","-999","-999","-9999","-9999","-9999.00","-9999.00","Light Drizzle","rain","0","0","0","0","0","0","METAR UKKK 240900Z 35005MPS 2700 -DZ BR OVC005 17/17 Q1019 R26/290058 TEMPO 1400 -RA BR OVC002"
"12:11 PM EEST on August 24, 2016","2016","08","24","12","11","Europe/Kiev","9:11 AM GMT on August 24, 2016","2016","08","24","09","11","UTC","17.0","62.6","17.0","62.6","100","18.0","11.2","-9999.0","-9999.0","340","NNW","3.5","2.2","1019","30.09","-999","-999","-9999","-9999","-9999.00","-9999.00","Overcast","cloudy","0","0","0","0","0","0","SPECI UKKK 240911Z 34005MPS 3500 BR OVC004 17/17 Q1019 R26/290058 TEMPO 1400 -RA BR OVC002"
"12:30 PM EEST on August 24, 2016","2016","08","24","12","30","Europe/Kiev","9:30 AM GMT on August 24, 2016","2016","08","24","09","30","UTC","18.0","64.4","17.0","62.6","94","18.0","11.2","-9999.0","-9999.0","350","North","7.0","4.3","1019","30.09","-999","-999","-9999","-9999","-9999.00","-9999.00","Overcast","cloudy","0","0","0","0","0","0","METAR UKKK 240930Z 35005MPS 7000 OVC005 18/17 Q1019 R26/290058 TEMPO OVC004"
"1:00 PM EEST on August 24, 2016","2016","08","24","13","00","Europe/Kiev","10:00 AM GMT on August 24, 2016","2016","08","24","10","00","UTC","18.0","64.4","17.0","62.6","94","18.0","11.2","-9999.0","-9999.0","350","North","10.0","6.2","1019","30.09","-999","-999","-9999","-9999","-9999.00","-9999.00","Overcast","cloudy","0","0","0","0","0","0","METAR UKKK 241000Z 35005MPS 9999 OVC008 18/17 Q1019 R26/290058 NOSIG"
"1:30 PM EEST on August 24, 2016","2016","08","24","13","30","Europe/Kiev","10:30 AM GMT on August 24, 2016","2016","08","24","10","30","UTC","19.0","66.2","17.0","62.6","88","14.4","8.9","-9999.0","-9999.0","350","North","10.0","6.2","1019","30.09","-999","-999","-9999","-9999","-9999.00","-9999.00","Overcast","cloudy","0","0","0","0","0","0","METAR UKKK 241030Z 35004MPS 320V020 9999 OVC009 19/17 Q1019 R26/190060 NOSIG"
"2:00 PM EEST on August 24, 2016","2016","08","24","14","00","Europe/Kiev","11:00 AM GMT on August 24, 2016","2016","08","24","11","00","UTC","19.0","66.2","16.0","60.8","83","18.0","11.2","-9999.0","-9999.0","340","NNW","10.0","6.2","1019","30.09","-999","-999","-9999","-9999","-9999.00","-9999.00","Overcast","cloudy","0","0","0","0","0","0","METAR UKKK 241100Z 34005MPS 9999 OVC011 19/16 Q1019 R26/190060 NOSIG"
"2:30 PM EEST on August 24, 2016","2016","08","24","14","30","Europe/Kiev","11:30 AM GMT on August 24, 2016","2016","08","24","11","30","UTC","19.0","66.2","16.0","60.8","83","21.6","13.4","-9999.0","-9999.0","340","NNW","10.0","6.2","1019","30.09","-999","-999","-9999","-9999","-9999.00","-9999.00","Overcast","cloudy","0","0","0","0","0","0","METAR UKKK 241130Z 34006MPS 9999 OVC013 19/16 Q1019 R26/190060 NOSIG"
"3:00 PM EEST on August 24, 2016","2016","08","24","15","00","Europe/Kiev","12:00 PM GMT on August 24, 2016","2016","08","24","12","00","UTC","18","65","16","61","83","18.0","11.2","","","20","NNE","10","6","1019","30.09","-999","-999","-9999","-9999","","","Partly Cloudy","partlycloudy","0","0","0","0","0","0","AAXX 24121 33345 /1497 80205 10184 20161 39991 40187 52001 70252 886// 333 88714 555 11020 69941"
"3:00 PM EEST on August 24, 2016","2016","08","24","15","00","Europe/Kiev","12:00 PM GMT on August 24, 2016","2016","08","24","12","00","UTC","19.0","66.2","16.0","60.8","83","21.6","13.4","-9999.0","-9999.0","340","NNW","10.0","6.2","1019","30.09","-999","-999","-9999","-9999","-9999.00","-9999.00","Overcast","cloudy","0","0","0","0","0","0","METAR UKKK 241200Z 34006MPS 320V020 9999 OVC013 19/16 Q1019 R26/190060 NOSIG"
"3:30 PM EEST on August 24, 2016","2016","08","24","15","30","Europe/Kiev","12:30 PM GMT on August 24, 2016","2016","08","24","12","30","UTC","19.0","66.2","16.0","60.8","83","21.6","13.4","-9999.0","-9999.0","350","North","10.0","6.2","1019","30.09","-999","-999","-9999","-9999","-9999.00","-9999.00","Overcast","cloudy","0","0","0","0","0","0","METAR UKKK 241230Z 35006MPS 320V020 9999 OVC014 19/16 Q1019 R26/CLRD70 NOSIG"
"4:00 PM EEST on August 24, 2016","2016","08","24","16","00","Europe/Kiev","1:00 PM GMT on August 24, 2016","2016","08","24","13","00","UTC","20.0","68.0","16.0","60.8","78","18.0","11.2","-9999.0","-9999.0","350","North","10.0","6.2","1019","30.09","-999","-999","-9999","-9999","-9999.00","-9999.00","Overcast","cloudy","0","0","0","0","0","0","METAR UKKK 241300Z 35005MPS 320V020 9999 OVC021 20/16 Q1019 R26/CLRD70 NOSIG"
"4:30 PM EEST on August 24, 2016","2016","08","24","16","30","Europe/Kiev","1:30 PM GMT on August 24, 2016","2016","08","24","13","30","UTC","21.0","69.8","16.0","60.8","73","21.6","13.4","-9999.0","-9999.0","20","NNE","10.0","6.2","1019","30.09","-999","-999","-9999","-9999","-9999.00","-9999.00","Mostly Cloudy","mostlycloudy","0","0","0","0","0","0","METAR UKKK 241330Z 02006MPS 350V050 9999 BKN022 21/16 Q1019 R26/CLRD70 NOSIG"
"5:00 PM EEST on August 24, 2016","2016","08","24","17","00","Europe/Kiev","2:00 PM GMT on August 24, 2016","2016","08","24","14","00","UTC","22.0","71.6","16.0","60.8","69","21.6","13.4","-9999.0","-9999.0","10","North","10.0","6.2","1019","30.09","-999","-999","-9999","-9999","-9999.00","-9999.00","Mostly Cloudy","mostlycloudy","0","0","0","0","0","0","METAR UKKK 241400Z 01006MPS 340V040 9999 BKN023 22/16 Q1019 R08/CLRD70 NOSIG"
"5:30 PM EEST on August 24, 2016","2016","08","24","17","30","Europe/Kiev","2:30 PM GMT on August 24, 2016","2016","08","24","14","30","UTC","21.0","69.8","16.0","60.8","73","21.6","13.4","-9999.0","-9999.0","10","North","10.0","6.2","1019","30.09","-999","-999","-9999","-9999","-9999.00","-9999.00","Mostly Cloudy","mostlycloudy","0","0","0","0","0","0","METAR UKKK 241430Z 01006MPS 9999 BKN023 21/16 Q1019 R08/CLRD70 NOSIG"
"6:00 PM EEST on August 24, 2016","2016","08","24","18","00","Europe/Kiev","3:00 PM GMT on August 24, 2016","2016","08","24","15","00","UTC","21","70","15","60","61","14.4","8.9","","","30","NNE","20","12","1019","30.08","-999","-999","-9999","-9999","","","Scattered Clouds","partlycloudy","0","0","0","0","0","0","AAXX 24151 33345 42598 10304 10210 20153 39991 40186 54000 81100 555 11022"
"6:00 PM EEST on August 24, 2016","2016","08","24","18","00","Europe/Kiev","3:00 PM GMT on August 24, 2016","2016","08","24","15","00","UTC","21.0","69.8","16.0","60.8","73","25.2","15.7","-9999.0","-9999.0","10","North","10.0","6.2","1019","30.09","-999","-999","-9999","-9999","-9999.00","-9999.00","Mostly Cloudy","mostlycloudy","0","0","0","0","0","0","METAR UKKK 241500Z 01007MPS 9999 BKN023 21/16 Q1019 R08/CLRD70 NOSIG"
"6:30 PM EEST on August 24, 2016","2016","08","24","18","30","Europe/Kiev","3:30 PM GMT on August 24, 2016","2016","08","24","15","30","UTC","21.0","69.8","15.0","59.0","68","21.6","13.4","-9999.0","-9999.0","20","NNE","10.0","6.2","1019","30.09","-999","-999","-9999","-9999","-9999.00","-9999.00","Mostly Cloudy","mostlycloudy","0","0","0","0","0","0","METAR UKKK 241530Z 02006MPS 9999 SCT030 BKN200 21/15 Q1019 R08/CLRD70 NOSIG"
"7:00 PM EEST on August 24, 2016","2016","08","24","19","00","Europe/Kiev","4:00 PM GMT on August 24, 2016","2016","08","24","16","00","UTC","21.0","69.8","15.0","59.0","68","14.4","8.9","-9999.0","-9999.0","30","NNE","-9999.0","-9999.0","1019","30.09","-999","-999","-9999","-9999","-9999.00","-9999.00","Clear","clear","0","0","0","0","0","0","METAR UKKK 241600Z 03004MPS 350V060 CAVOK 21/15 Q1019 R08/CLRD70 NOSIG"
"7:30 PM EEST on August 24, 2016","2016","08","24","19","30","Europe/Kiev","4:30 PM GMT on August 24, 2016","2016","08","24","16","30","UTC","20.0","68.0","15.0","59.0","73","18.0","11.2","-9999.0","-9999.0","20","NNE","-9999.0","-9999.0","1019","30.09","-999","-999","-9999","-9999","-9999.00","-9999.00","Clear","clear","0","0","0","0","0","0","METAR UKKK 241630Z 02005MPS CAVOK 20/15 Q1019 R08/CLRD70 NOSIG"
"8:00 PM EEST on August 24, 2016","2016","08","24","20","00","Europe/Kiev","5:00 PM GMT on August 24, 2016","2016","08","24","17","00","UTC","20.0","68.0","14.0","57.2","68","14.4","8.9","-9999.0","-9999.0","10","North","-9999.0","-9999.0","1019","30.09","-999","-999","-9999","-9999","-9999.00","-9999.00","Clear","clear","0","0","0","0","0","0","METAR UKKK 241700Z 01004MPS CAVOK 20/14 Q1019 R08/CLRD70 NOSIG"
"8:30 PM EEST on August 24, 2016","2016","08","24","20","30","Europe/Kiev","5:30 PM GMT on August 24, 2016","2016","08","24","17","30","UTC","19.0","66.2","14.0","57.2","73","14.4","8.9","-9999.0","-9999.0","20","NNE","-9999.0","-9999.0","1020","30.12","-999","-999","-9999","-9999","-9999.00","-9999.00","Clear","clear","0","0","0","0","0","0","METAR UKKK 241730Z 02004MPS CAVOK 19/14 Q1020 R08/CLRD70 NOSIG"
"9:00 PM EEST on August 24, 2016","2016","08","24","21","00","Europe/Kiev","6:00 PM GMT on August 24, 2016","2016","08","24","18","00","UTC","19","66","14","57","66","10.8","6.7","","","30","NNE","20","12","1020","30.12","-999","-999","-9999","-9999","","","","","0","0","0","0","0","0","AAXX 24181 33345 12998 00303 10190 20140 30001 40197 53010 69942 333 10213 555 11016"
"9:00 PM EEST on August 24, 2016","2016","08","24","21","00","Europe/Kiev","6:00 PM GMT on August 24, 2016","2016","08","24","18","00","UTC","19.0","66.2","13.0","55.4","68","14.4","8.9","-9999.0","-9999.0","20","NNE","-9999.0","-9999.0","1020","30.12","-999","-999","-9999","-9999","-9999.00","-9999.00","Clear","clear","0","0","0","0","0","0","METAR UKKK 241800Z 02004MPS CAVOK 19/13 Q1020 R08/CLRD70 NOSIG"
"9:30 PM EEST on August 24, 2016","2016","08","24","21","30","Europe/Kiev","6:30 PM GMT on August 24, 2016","2016","08","24","18","30","UTC","19.0","66.2","13.0","55.4","68","14.4","8.9","-9999.0","-9999.0","20","NNE","-9999.0","-9999.0","1020","30.12","-999","-999","-9999","-9999","-9999.00","-9999.00","Clear","clear","0","0","0","0","0","0","METAR UKKK 241830Z 02004MPS CAVOK 19/13 Q1020 R08/CLRD70 NOSIG"
"10:00 PM EEST on August 24, 2016","2016","08","24","22","00","Europe/Kiev","7:00 PM GMT on August 24, 2016","2016","08","24","19","00","UTC","18.0","64.4","13.0","55.4","73","14.4","8.9","-9999.0","-9999.0","360","North","-9999.0","-9999.0","1020","30.12","-999","-999","-9999","-9999","-9999.00","-9999.00","Clear","clear","0","0","0","0","0","0","METAR UKKK 241900Z 36004MPS CAVOK 18/13 Q1020 R08/CLRD70 NOSIG"
"10:30 PM EEST on August 24, 2016","2016","08","24","22","30","Europe/Kiev","7:30 PM GMT on August 24, 2016","2016","08","24","19","30","UTC","18.0","64.4","14.0","57.2","77","14.4","8.9","-9999.0","-9999.0","360","North","-9999.0","-9999.0","1020","30.12","-999","-999","-9999","-9999","-9999.00","-9999.00","Clear","clear","0","0","0","0","0","0","METAR UKKK 241930Z 36004MPS CAVOK 18/14 Q1020 R08/CLRD70 NOSIG"
"11:00 PM EEST on August 24, 2016","2016","08","24","23","00","Europe/Kiev","8:00 PM GMT on August 24, 2016","2016","08","24","20","00","UTC","18.0","64.4","14.0","57.2","77","18.0","11.2","-9999.0","-9999.0","360","North","-9999.0","-9999.0","1020","30.12","-999","-999","-9999","-9999","-9999.00","-9999.00","Clear","clear","0","0","0","0","0","0","METAR UKKK 242000Z 36005MPS CAVOK 18/14 Q1020 R08/CLRD70 NOSIG"
"11:30 PM EEST on August 24, 2016","2016","08","24","23","30","Europe/Kiev","8:30 PM GMT on August 24, 2016","2016","08","24","20","30","UTC","18.0","64.4","14.0","57.2","77","14.4","8.9","-9999.0","-9999.0","360","North","-9999.0","-9999.0","1020","30.12","-999","-999","-9999","-9999","-9999.00","-9999.00","Clear","clear","0","0","0","0","0","0","METAR UKKK 242030Z 36004MPS CAVOK 18/14 Q1020 R08/CLRD70 NOSIG"
"12:00 AM EEST on August 25, 2016","2016","08","25","00","00","Europe/Kiev","9:00 PM GMT on August 24, 2016","2016","08","24","21","00","UTC","18","65","14","56","66","14.4","8.9","","","30","NNE","20","12","1019","30.10","-999","-999","-9999","-9999","","","","","0","0","0","0","0","0","AAXX 24211 33345 42998 00304 10182 20135 39995 40192 58006 555 11015"
"12:00 AM EEST on August 25, 2016","2016","08","25","00","00","Europe/Kiev","9:00 PM GMT on August 24, 2016","2016","08","24","21","00","UTC","18.0","64.4","14.0","57.2","77","10.8","6.7","-9999.0","-9999.0","330","NNW","-9999.0","-9999.0","1019","30.09","-999","-999","-9999","-9999","-9999.00","-9999.00","Clear","clear","0","0","0","0","0","0","METAR UKKK 242100Z 33003MPS CAVOK 18/14 Q1019 R08/CLRD70 NOSIG"
"12:30 AM EEST on August 25, 2016","2016","08","25","00","30","Europe/Kiev","9:30 PM GMT on August 24, 2016","2016","08","24","21","30","UTC","17.0","62.6","14.0","57.2","82","14.4","8.9","-9999.0","-9999.0","340","NNW","-9999.0","-9999.0","1019","30.09","-999","-999","-9999","-9999","-9999.00","-9999.00","Clear","clear","0","0","0","0","0","0","METAR UKKK 242130Z 34004MPS CAVOK 17/14 Q1019 R08/CLRD70 NOSIG"
"1:00 AM EEST on August 25, 2016","2016","08","25","01","00","Europe/Kiev","10:00 PM GMT on August 24, 2016","2016","08","24","22","00","UTC","16.0","60.8","14.0","57.2","88","10.8","6.7","-9999.0","-9999.0","330","NNW","-9999.0","-9999.0","1019","30.09","-999","-999","-9999","-9999","-9999.00","-9999.00","Clear","clear","0","0","0","0","0","0","METAR UKKK 242200Z 33003MPS CAVOK 16/14 Q1019 R08/CLRD70 NOSIG"
"1:30 AM EEST on August 25, 2016","2016","08","25","01","30","Europe/Kiev","10:30 PM GMT on August 24, 2016","2016","08","24","22","30","UTC","16.0","60.8","13.0","55.4","82","10.8","6.7","-9999.0","-9999.0","330","NNW","-9999.0","-9999.0","1019","30.09","-999","-999","-9999","-9999","-9999.00","-9999.00","Clear","clear","0","0","0","0","0","0","METAR UKKK 242230Z 33003MPS CAVOK 16/13 Q1019 R08/CLRD70 NOSIG"
"2:00 AM EEST on August 25, 2016","2016","08","25","02","00","Europe/Kiev","11:00 PM GMT on August 24, 2016","2016","08","24","23","00","UTC","16.0","60.8","13.0","55.4","82","10.8","6.7","-9999.0","-9999.0","330","NNW","-9999.0","-9999.0","1019","30.09","-999","-999","-9999","-9999","-9999.00","-9999.00","Clear","clear","0","0","0","0","0","0","METAR UKKK 242300Z 33003MPS CAVOK 16/13 Q1019 R08/CLRD70 NOSIG"
"2:30 AM EEST on August 25, 2016","2016","08","25","02","30","Europe/Kiev","11:30 PM GMT on August 24, 2016","2016","08","24","23","30","UTC","16.0","60.8","13.0","55.4","82","10.8","6.7","-9999.0","-9999.0","340","NNW","-9999.0","-9999.0","1020","30.12","-999","-999","-9999","-9999","-9999.00","-9999.00","Clear","clear","0","0","0","0","0","0","METAR UKKK 242330Z 34003MPS 310V010 CAVOK 16/13 Q1020 R26/CLRD70 NOSIG"
"3:00 AM EEST on August 25, 2016","2016","08","25","03","00","Europe/Kiev","12:00 AM GMT on August 25, 2016","2016","08","25","00","00","UTC","17","63","14","56","72","10.8","6.7","","","30","NNE","20","12","1019","30.11","-999","-999","-9999","-9999","","","","","0","0","0","0","0","0","AAXX 25001 33345 32998 00303 10170 20135 39996 40194 53001 555 11014"
"3:00 AM EEST on August 25, 2016","2016","08","25","03","00","Europe/Kiev","12:00 AM GMT on August 25, 2016","2016","08","25","00","00","UTC","16.0","60.8","13.0","55.4","82","10.8","6.7","-9999.0","-9999.0","350","North","-9999.0","-9999.0","1019","30.09","-999","-999","-9999","-9999","-9999.00","-9999.00","Clear","clear","0","0","0","0","0","0","METAR UKKK 250000Z 35003MPS CAVOK 16/13 Q1019 R26/CLRD70 NOSIG"
"3:30 AM EEST on August 25, 2016","2016","08","25","03","30","Europe/Kiev","12:30 AM GMT on August 25, 2016","2016","08","25","00","30","UTC","15.0","59.0","13.0","55.4","88","10.8","6.7","-9999.0","-9999.0","350","North","-9999.0","-9999.0","1019","30.09","-999","-999","-9999","-9999","-9999.00","-9999.00","Clear","clear","0","0","0","0","0","0","METAR UKKK 250030Z 35003MPS CAVOK 15/13 Q1019 R26/CLRD70 NOSIG"
"4:00 AM EEST on August 25, 2016","2016","08","25","04","00","Europe/Kiev","1:00 AM GMT on August 25, 2016","2016","08","25","01","00","UTC","15.0","59.0","13.0","55.4","88","10.8","6.7","-9999.0","-9999.0","330","NNW","-9999.0","-9999.0","1020","30.12","-999","-999","-9999","-9999","-9999.00","-9999.00","Clear","clear","0","0","0","0","0","0","METAR UKKK 250100Z 33003MPS 300V030 CAVOK 15/13 Q1020 R26/CLRD70 NOSIG"
"4:30 AM EEST on August 25, 2016","2016","08","25","04","30","Europe/Kiev","1:30 AM GMT on August 25, 2016","2016","08","25","01","30","UTC","15.0","59.0","13.0","55.4","88","10.8","6.7","-9999.0","-9999.0","320","NW","-9999.0","-9999.0","1020","30.12","-999","-999","-9999","-9999","-9999.00","-9999.00","Clear","clear","0","0","0","0","0","0","METAR UKKK 250130Z 32003MPS CAVOK 15/13 Q1020 R26/CLRD70 NOSIG"
"5:00 AM EEST on August 25, 2016","2016","08","25","05","00","Europe/Kiev","2:00 AM GMT on August 25, 2016","2016","08","25","02","00","UTC","15.0","59.0","13.0","55.4","88","14.4","8.9","-9999.0","-9999.0","340","NNW","-9999.0","-9999.0","1020","30.12","-999","-999","-9999","-9999","-9999.00","-9999.00","Clear","clear","0","0","0","0","0","0","METAR UKKK 250200Z 34004MPS CAVOK 15/13 Q1020 R26/CLRD70 NOSIG"
"5:30 AM EEST on August 25, 2016","2016","08","25","05","30","Europe/Kiev","2:30 AM GMT on August 25, 2016","2016","08","25","02","30","UTC","14.0","57.2","13.0","55.4","94","10.8","6.7","-9999.0","-9999.0","330","NNW","-9999.0","-9999.0","1020","30.12","-999","-999","-9999","-9999","-9999.00","-9999.00","Clear","clear","0","0","0","0","0","0","METAR UKKK 250230Z 33003MPS CAVOK 14/13 Q1020 R26/CLRD70 NOSIG"
"6:00 AM EEST on August 25, 2016","2016","08","25","06","00","Europe/Kiev","3:00 AM GMT on August 25, 2016","2016","08","25","03","00","UTC","15","60","13","55","80","7.2","4.5","","","10","North","20","12","1020","30.12","-999","-999","-9999","-9999","","","","","0","0","0","0","0","0","AAXX 25031 33345 42998 00102 10153 20130 30001 40200 52005 555 11013"
"6:00 AM EEST on August 25, 2016","2016","08","25","06","00","Europe/Kiev","3:00 AM GMT on August 25, 2016","2016","08","25","03","00","UTC","14.0","57.2","12.0","53.6","88","14.4","8.9","-9999.0","-9999.0","340","NNW","10.0","6.2","1020","30.12","-999","-999","-9999","-9999","-9999.00","-9999.00","Unknown","unknown","0","0","0","0","0","0","METAR UKKK 250300Z 34004MPS 9999 FEW/// 14/12 Q1020 R26/CLRD70 NOSIG"
"6:30 AM EEST on August 25, 2016","2016","08","25","06","30","Europe/Kiev","3:30 AM GMT on August 25, 2016","2016","08","25","03","30","UTC","14.0","57.2","12.0","53.6","88","18.0","11.2","-9999.0","-9999.0","340","NNW","10.0","6.2","1020","30.12","-999","-999","-9999","-9999","-9999.00","-9999.00","Scattered Clouds","partlycloudy","0","0","0","0","0","0","METAR UKKK 250330Z 34005MPS 9999 SCT010 14/12 Q1020 R26/CLRD70 NOSIG"
"7:00 AM EEST on August 25, 2016","2016","08","25","07","00","Europe/Kiev","4:00 AM GMT on August 25, 2016","2016","08","25","04","00","UTC","14.0","57.2","13.0","55.4","94","14.4","8.9","-9999.0","-9999.0","350","North","10.0","6.2","1020","30.12","-999","-999","-9999","-9999","-9999.00","-9999.00","Partly Cloudy","partlycloudy","0","0","0","0","0","0","METAR UKKK 250400Z 35004MPS 320V020 9999 FEW009 14/13 Q1020 R26/CLRD70 NOSIG"
"7:30 AM EEST on August 25, 2016","2016","08","25","07","30","Europe/Kiev","4:30 AM GMT on August 25, 2016","2016","08","25","04","30","UTC","15.0","59.0","13.0","55.4","88","18.0","11.2","-9999.0","-9999.0","350","North","10.0","6.2","1020","30.12","-999","-999","-9999","-9999","-9999.00","-9999.00","Partly Cloudy","partlycloudy","0","0","0","0","0","0","METAR UKKK 250430Z 35005MPS 9999 FEW009 15/13 Q1020 R26/CLRD70 NOSIG"
"8:00 AM EEST on August 25, 2016","2016","08","25","08","00","Europe/Kiev","5:00 AM GMT on August 25, 2016","2016","08","25","05","00","UTC","15.0","59.0","13.0","55.4","88","18.0","11.2","-9999.0","-9999.0","350","North","10.0","6.2","1020","30.12","-999","-999","-9999","-9999","-9999.00","-9999.00","Partly Cloudy","partlycloudy","0","0","0","0","0","0","METAR UKKK 250500Z 35005MPS 320V020 9999 FEW010 15/13 Q1020 R26/CLRD70 NOSIG"
"8:30 AM EEST on August 25, 2016","2016","08","25","08","30","Europe/Kiev","5:30 AM GMT on August 25, 2016","2016","08","25","05","30","UTC","16.0","60.8","14.0","57.2","88","18.0","11.2","-9999.0","-9999.0","350","North","10.0","6.2","1020","30.12","-999","-999","-9999","-9999","-9999.00","-9999.00","Mostly Cloudy","mostlycloudy","0","0","0","0","0","0","METAR UKKK 250530Z 35005MPS 9999 BKN011 16/14 Q1020 R26/CLRD70 NOSIG"
"9:00 AM EEST on August 25, 2016","2016","08","25","09","00","Europe/Kiev","6:00 AM GMT on August 25, 2016","2016","08","25","06","00","UTC","17","63","14","57","74","14.4","8.9","","","20","NNE","20","12","1020","30.14","-999","-999","-9999","-9999","","","Scattered Clouds","partlycloudy","0","0","0","0","0","0","AAXX 25061 33345 32598 10204 10170 20138 30007 40205 52006 81100 333 20151 555 11019"
"9:00 AM EEST on August 25, 2016","2016","08","25","09","00","Europe/Kiev","6:00 AM GMT on August 25, 2016","2016","08","25","06","00","UTC","17.0","62.6","14.0","57.2","82","18.0","11.2","-9999.0","-9999.0","10","North","10.0","6.2","1021","30.15","-999","-999","-9999","-9999","-9999.00","-9999.00","Scattered Clouds","partlycloudy","0","0","0","0","0","0","METAR UKKK 250600Z 01005MPS 330V040 9999 SCT012 17/14 Q1021 R26/CLRD70 NOSIG"
"9:30 AM EEST on August 25, 2016","2016","08","25","09","30","Europe/Kiev","6:30 AM GMT on August 25, 2016","2016","08","25","06","30","UTC","18.0","64.4","14.0","57.2","77","21.6","13.4","-9999.0","-9999.0","10","North","10.0","6.2","1021","30.15","-999","-999","-9999","-9999","-9999.00","-9999.00","Partly Cloudy","partlycloudy","0","0","0","0","0","0","METAR UKKK 250630Z 01006MPS 340V050 9999 FEW015 18/14 Q1021 R26/CLRD70 NOSIG"
"10:00 AM EEST on August 25, 2016","2016","08","25","10","00","Europe/Kiev","7:00 AM GMT on August 25, 2016","2016","08","25","07","00","UTC","19.0","66.2","14.0","57.2","73","18.0","11.2","-9999.0","-9999.0","360","North","10.0","6.2","1021","30.15","-999","-999","-9999","-9999","-9999.00","-9999.00","Partly Cloudy","partlycloudy","0","0","0","0","0","0","METAR UKKK 250700Z 36005MPS 340V040 9999 FEW015 19/14 Q1021 R26/CLRD70 NOSIG"
"10:30 AM EEST on August 25, 2016","2016","08","25","10","30","Europe/Kiev","7:30 AM GMT on August 25, 2016","2016","08","25","07","30","UTC","20.0","68.0","13.0","55.4","64","18.0","11.2","-9999.0","-9999.0","10","North","10.0","6.2","1021","30.15","-999","-999","-9999","-9999","-9999.00","-9999.00","Partly Cloudy","partlycloudy","0","0","0","0","0","0","METAR UKKK 250730Z 01005MPS 340V050 9999 FEW028 20/13 Q1021 R26/CLRD70 NOSIG"
"11:00 AM EEST on August 25, 2016","2016","08","25","11","00","Europe/Kiev","8:00 AM GMT on August 25, 2016","2016","08","25","08","00","UTC","20.0","68.0","13.0","55.4","64","21.6","13.4","-9999.0","-9999.0","10","North","10.0","6.2","1021","30.15","-999","-999","-9999","-9999","-9999.00","-9999.00","Partly Cloudy","partlycloudy","0","0","0","0","0","0","METAR UKKK 250800Z 01006MPS 340V040 9999 FEW028 20/13 Q1021 R26/CLRD70 NOSIG"
"11:30 AM EEST on August 25, 2016","2016","08","25","11","30","Europe/Kiev","8:30 AM GMT on August 25, 2016","2016","08","25","08","30","UTC","21.0","69.8","13.0","55.4","60","25.2","15.7","-9999.0","-9999.0","10","North","10.0","6.2","1021","30.15","-999","-999","-9999","-9999","-9999.00","-9999.00","Partly Cloudy","partlycloudy","0","0","0","0","0","0","METAR UKKK 250830Z 01007MPS 340V050 9999 FEW028 21/13 Q1021 R26/CLRD70 NOSIG"
"12:00 PM EEST on August 25, 2016","2016","08","25","12","00","Europe/Kiev","9:00 AM GMT on August 25, 2016","2016","08","25","09","00","UTC","20","68","13","55","53","18.0","11.2","","","20","NNE","20","12","1021","30.14","-999","-999","-9999","-9999","","","Partly Cloudy","partlycloudy","0","0","0","0","0","0","AAXX 25091 33345 42698 30205 10202 20126 30010 40206 52003 83200 555 10030"
"12:00 PM EEST on August 25, 2016","2016","08","25","12","00","Europe/Kiev","9:00 AM GMT on August 25, 2016","2016","08","25","09","00","UTC","21.0","69.8","13.0","55.4","60","21.6","13.4","-9999.0","-9999.0","10","North","10.0","6.2","1021","30.15","-999","-999","-9999","-9999","-9999.00","-9999.00","Scattered Clouds","partlycloudy","0","0","0","0","0","0","METAR UKKK 250900Z 01006MPS 340V040 9999 SCT032 21/13 Q1021 R26/CLRD70 NOSIG"
"12:30 PM EEST on August 25, 2016","2016","08","25","12","30","Europe/Kiev","9:30 AM GMT on August 25, 2016","2016","08","25","09","30","UTC","21.0","69.8","13.0","55.4","60","25.2","15.7","-9999.0","-9999.0","350","North","10.0","6.2","1021","30.15","-999","-999","-9999","-9999","-9999.00","-9999.00","Scattered Clouds","partlycloudy","0","0","0","0","0","0","METAR UKKK 250930Z 35007MPS 330V030 9999 SCT032 21/13 Q1021 R26/CLRD70 NOSIG"
"1:00 PM EEST on August 25, 2016","2016","08","25","13","00","Europe/Kiev","10:00 AM GMT on August 25, 2016","2016","08","25","10","00","UTC","21.0","69.8","13.0","55.4","60","25.2","15.7","-9999.0","-9999.0","360","North","10.0","6.2","1021","30.15","-999","-999","-9999","-9999","-9999.00","-9999.00","Scattered Clouds","partlycloudy","0","0","0","0","0","0","METAR UKKK 251000Z 36007MPS 9999 SCT032 21/13 Q1021 R26/CLRD70 NOSIG"
"1:30 PM EEST on August 25, 2016","2016","08","25","13","30","Europe/Kiev","10:30 AM GMT on August 25, 2016","2016","08","25","10","30","UTC","22.0","71.6","13.0","55.4","57","25.2","15.7","-9999.0","-9999.0","350","North","10.0","6.2","1021","30.15","-999","-999","-9999","-9999","-9999.00","-9999.00","Scattered Clouds","partlycloudy","0","0","0","0","0","0","METAR UKKK 251030Z 35007MPS 310V040 9999 SCT037 22/13 Q1021 R26/CLRD70 NOSIG"
"2:00 PM EEST on August 25, 2016","2016","08","25","14","00","Europe/Kiev","11:00 AM GMT on August 25, 2016","2016","08","25","11","00","UTC","22.0","71.6","12.0","53.6","53","25.2","15.7","-9999.0","-9999.0","360","North","10.0","6.2","1021","30.15","-999","-999","-9999","-9999","-9999.00","-9999.00","Scattered Clouds","partlycloudy","0","0","0","0","0","0","METAR UKKK 251100Z 36007MPS 330V040 9999 SCT040 22/12 Q1021 R26/CLRD70 NOSIG"
"2:30 PM EEST on August 25, 2016","2016","08","25","14","30","Europe/Kiev","11:30 AM GMT on August 25, 2016","2016","08","25","11","30","UTC","23.0","73.4","12.0","53.6","50","28.8","17.9","46.8","29.1","360","North","10.0","6.2","1020","30.12","-999","-999","-9999","-9999","-9999.00","-9999.00","Scattered Clouds","partlycloudy","0","0","0","0","0","0","METAR UKKK 251130Z 36008G13MPS 310V040 9999 SCT040 23/12 Q1020 R26/CLRD70 NOSIG"
"3:00 PM EEST on August 25, 2016","2016","08","25","15","00","Europe/Kiev","12:00 PM GMT on August 25, 2016","2016","08","25","12","00","UTC","22","72","11","51","37","21.6","13.4","","","40","NE","20","12","1020","30.12","-999","-999","-9999","-9999","","","Partly Cloudy","partlycloudy","0","0","0","0","0","0","AAXX 25121 33345 32698 30406 10223 20107 30005 40199 58005 83200 555 10036"
"3:00 PM EEST on August 25, 2016","2016","08","25","15","00","Europe/Kiev","12:00 PM GMT on August 25, 2016","2016","08","25","12","00","UTC","24.0","75.2","12.0","53.6","47","28.8","17.9","-9999.0","-9999.0","350","North","10.0","6.2","1020","30.12","-999","-999","-9999","-9999","-9999.00","-9999.00","Partly Cloudy","partlycloudy","0","0","0","0","0","0","METAR UKKK 251200Z 35008MPS 330V030 9999 FEW049 24/12 Q1020 R26/CLRD70 NOSIG"
"3:30 PM EEST on August 25, 2016","2016","08","25","15","30","Europe/Kiev","12:30 PM GMT on August 25, 2016","2016","08","25","12","30","UTC","23.0","73.4","11.0","51.8","47","28.8","17.9","-9999.0","-9999.0","360","North","10.0","6.2","1020","30.12","-999","-999","-9999","-9999","-9999.00","-9999.00","Partly Cloudy","partlycloudy","0","0","0","0","0","0","METAR UKKK 251230Z 36008MPS 330V040 9999 FEW049 23/11 Q1020 R26/CLRD70 NOSIG"
"4:00 PM EEST on August 25, 2016","2016","08","25","16","00","Europe/Kiev","1:00 PM GMT on August 25, 2016","2016","08","25","13","00","UTC","24.0","75.2","11.0","51.8","44","25.2","15.7","-9999.0","-9999.0","360","North","-9999.0","-9999.0","1021","30.15","-999","-999","-9999","-9999","-9999.00","-9999.00","Clear","clear","0","0","0","0","0","0","METAR UKKK 251300Z 36007MPS 330V030 CAVOK 24/11 Q1021 R26/CLRD70 NOSIG"
"4:30 PM EEST on August 25, 2016","2016","08","25","16","30","Europe/Kiev","1:30 PM GMT on August 25, 2016","2016","08","25","13","30","UTC","23.0","73.4","11.0","51.8","47","21.6","13.4","-9999.0","-9999.0","10","North","-9999.0","-9999.0","1021","30.15","-999","-999","-9999","-9999","-9999.00","-9999.00","Clear","clear","0","0","0","0","0","0","METAR UKKK 251330Z 01006MPS 340V040 CAVOK 23/11 Q1021 R26/CLRD70 NOSIG"
"5:00 PM EEST on August 25, 2016","2016","08","25","17","00","Europe/Kiev","2:00 PM GMT on August 25, 2016","2016","08","25","14","00","UTC","24.0","75.2","11.0","51.8","44","25.2","15.7","-9999.0","-9999.0","10","North","-9999.0","-9999.0","1021","30.15","-999","-999","-9999","-9999","-9999.00","-9999.00","Clear","clear","0","0","0","0","0","0","METAR UKKK 251400Z 01007MPS 340V040 CAVOK 24/11 Q1021 R26/CLRD70 NOSIG"
"5:30 PM EEST on August 25, 2016","2016","08","25","17","30","Europe/Kiev","2:30 PM GMT on August 25, 2016","2016","08","25","14","30","UTC","23.0","73.4","11.0","51.8","47","21.6","13.4","39.6","24.6","10","North","9.0","5.6","1021","30.15","-999","-999","-9999","-9999","-9999.00","-9999.00","Unknown","unknown","0","0","0","0","0","0","METAR UKKK 251430Z 01006G11MPS 330V040 9000 NSC 23/11 Q1021 R26/CLRD70 NOSIG"
"6:00 PM EEST on August 25, 2016","2016","08","25","18","00","Europe/Kiev","3:00 PM GMT on August 25, 2016","2016","08","25","15","00","UTC","22","72","10","50","34","14.4","8.9","","","40","NE","20","12","1020","30.14","-999","-999","-9999","-9999","","","Partly Cloudy","partlycloudy","0","0","0","0","0","0","AAXX 25151 33345 42598 40404 10224 20099 30011 40205 53006 84400 555 10025"
"6:00 PM EEST on August 25, 2016","2016","08","25","18","00","Europe/Kiev","3:00 PM GMT on August 25, 2016","2016","08","25","15","00","UTC","24.0","75.2","11.0","51.8","44","21.6","13.4","-9999.0","-9999.0","20","NNE","-9999.0","-9999.0","1021","30.15","-999","-999","-9999","-9999","-9999.00","-9999.00","Clear","clear","0","0","0","0","0","0","METAR UKKK 251500Z 02006MPS 320V050 CAVOK 24/11 Q1021 R26/CLRD70 NOSIG"
"6:30 PM EEST on August 25, 2016","2016","08","25","18","30","Europe/Kiev","3:30 PM GMT on August 25, 2016","2016","08","25","15","30","UTC","23.0","73.4","11.0","51.8","47","25.2","15.7","-9999.0","-9999.0","10","North","9.0","5.6","1021","30.15","-999","-999","-9999","-9999","-9999.00","-9999.00","Unknown","unknown","0","0","0","0","0","0","METAR UKKK 251530Z 01007MPS 340V040 9000 NSC 23/11 Q1021 R08/CLRD70 NOSIG"
"7:00 PM EEST on August 25, 2016","2016","08","25","19","00","Europe/Kiev","4:00 PM GMT on August 25, 2016","2016","08","25","16","00","UTC","23.0","73.4","11.0","51.8","47","25.2","15.7","-9999.0","-9999.0","10","North","-9999.0","-9999.0","1021","30.15","-999","-999","-9999","-9999","-9999.00","-9999.00","Clear","clear","0","0","0","0","0","0","METAR UKKK 251600Z 01007MPS CAVOK 23/11 Q1021 R08/CLRD70 NOSIG"
"7:30 PM EEST on August 25, 2016","2016","08","25","19","30","Europe/Kiev","4:30 PM GMT on August 25, 2016","2016","08","25","16","30","UTC","22.0","71.6","11.0","51.8","50","18.0","11.2","-9999.0","-9999.0","10","North","-9999.0","-9999.0","1021","30.15","-999","-999","-9999","-9999","-9999.00","-9999.00","Clear","clear","0","0","0","0","0","0","METAR UKKK 251630Z 01005MPS CAVOK 22/11 Q1021 R08/CLRD70 NOSIG"
"8:00 PM EEST on August 25, 2016","2016","08","25","20","00","Europe/Kiev","5:00 PM GMT on August 25, 2016","2016","08","25","17","00","UTC","21.0","69.8","10.0","50.0","49","18.0","11.2","-9999.0","-9999.0","40","NE","-9999.0","-9999.0","1021","30.15","-999","-999","-9999","-9999","-9999.00","-9999.00","Clear","clear","0","0","0","0","0","0","METAR UKKK 251700Z 04005MPS CAVOK 21/10 Q1021 R08/CLRD70 NOSIG"
"8:30 PM EEST on August 25, 2016","2016","08","25","20","30","Europe/Kiev","5:30 PM GMT on August 25, 2016","2016","08","25","17","30","UTC","20.0","68.0","11.0","51.8","56","14.4","8.9","-9999.0","-9999.0","20","NNE","-9999.0","-9999.0","1022","30.18","-999","-999","-9999","-9999","-9999.00","-9999.00","Clear","clear","0","0","0","0","0","0","METAR UKKK 251730Z 02004MPS CAVOK 20/11 Q1022 R08/CLRD70 NOSIG"
"9:00 PM EEST on August 25, 2016","2016","08","25","21","00","Europe/Kiev","6:00 PM GMT on August 25, 2016","2016","08","25","18","00","UTC","20","69","10","51","42","10.8","6.7","","","40","NE","20","12","1022","30.18","-999","-999","-9999","-9999","","","","","0","0","0","0","0","0","AAXX 25181 33345 32998 00403 10204 20105 30022 40218 53011 333 10235 555 10018"
"9:00 PM EEST on August 25, 2016","2016","08","25","21","00","Europe/Kiev","6:00 PM GMT on August 25, 2016","2016","08","25","18","00","UTC","20.0","68.0","11.0","51.8","56","14.4","8.9","-9999.0","-9999.0","20","NNE","-9999.0","-9999.0","1022","30.18","-999","-999","-9999","-9999","-9999.00","-9999.00","Clear","clear","0","0","0","0","0","0","METAR UKKK 251800Z 02004MPS CAVOK 20/11 Q1022 R08/CLRD70 NOSIG"
"9:30 PM EEST on August 25, 2016","2016","08","25","21","30","Europe/Kiev","6:30 PM GMT on August 25, 2016","2016","08","25","18","30","UTC","20.0","68.0","11.0","51.8","56","14.4","8.9","-9999.0","-9999.0","30","NNE","-9999.0","-9999.0","1022","30.18","-999","-999","-9999","-9999","-9999.00","-9999.00","Clear","clear","0","0","0","0","0","0","METAR UKKK 251830Z 03004MPS CAVOK 20/11 Q1022 R08/CLRD70 NOSIG"
"10:00 PM EEST on August 25, 2016","2016","08","25","22","00","Europe/Kiev","7:00 PM GMT on August 25, 2016","2016","08","25","19","00","UTC","20.0","68.0","11.0","51.8","56","14.4","8.9","-9999.0","-9999.0","20","NNE","-9999.0","-9999.0","1022","30.18","-999","-999","-9999","-9999","-9999.00","-9999.00","Clear","clear","0","0","0","0","0","0","METAR UKKK 251900Z 02004MPS CAVOK 20/11 Q1022 R08/CLRD70 NOSIG"
"10:30 PM EEST on August 25, 2016","2016","08","25","22","30","Europe/Kiev","7:30 PM GMT on August 25, 2016","2016","08","25","19","30","UTC","18.0","64.4","11.0","51.8","64","14.4","8.9","-9999.0","-9999.0","10","North","-9999.0","-9999.0","1022","30.18","-999","-999","-9999","-9999","-9999.00","-9999.00","Clear","clear","0","0","0","0","0","0","METAR UKKK 251930Z 01004MPS CAVOK 18/11 Q1022 R08/CLRD70 NOSIG"
"11:00 PM EEST on August 25, 2016","2016","08","25","23","00","Europe/Kiev","8:00 PM GMT on August 25, 2016","2016","08","25","20","00","UTC","18.0","64.4","11.0","51.8","64","14.4","8.9","-9999.0","-9999.0","10","North","-9999.0","-9999.0","1022","30.18","-999","-999","-9999","-9999","-9999.00","-9999.00","Clear","clear","0","0","0","0","0","0","METAR UKKK 252000Z 01004MPS CAVOK 18/11 Q1022 R08/CLRD70 NOSIG"
"11:30 PM EEST on August 25, 2016","2016","08","25","23","30","Europe/Kiev","8:30 PM GMT on August 25, 2016","2016","08","25","20","30","UTC","18.0","64.4","11.0","51.8","64","14.4","8.9","-9999.0","-9999.0","10","North","-9999.0","-9999.0","1022","30.18","-999","-999","-9999","-9999","-9999.00","-9999.00","Clear","clear","0","0","0","0","0","0","METAR UKKK 252030Z 01004MPS CAVOK 18/11 Q1022 R08/CLRD70 NOSIG"
"12:00 AM EEST on August 26, 2016","2016","08","26","00","00","Europe/Kiev","9:00 PM GMT on August 25, 2016","2016","08","25","21","00","UTC","19","66","12","53","53","7.2","4.5","","","40","NE","20","12","1022","30.19","-999","-999","-9999","-9999","","","","","0","0","0","0","0","0","AAXX 25211 33345 42998 00402 10191 20115 30026 40223 52004 555 10016"
"12:00 AM EEST on August 26, 2016","2016","08","26","00","00","Europe/Kiev","9:00 PM GMT on August 25, 2016","2016","08","25","21","00","UTC","17.0","62.6","11.0","51.8","68","10.8","6.7","-9999.0","-9999.0","10","North","-9999.0","-9999.0","1022","30.18","-999","-999","-9999","-9999","-9999.00","-9999.00","Clear","clear","0","0","0","0","0","0","METAR UKKK 252100Z 01003MPS CAVOK 17/11 Q1022 R08/CLRD70 NOSIG"
"12:30 AM EEST on August 26, 2016","2016","08","26","00","30","Europe/Kiev","9:30 PM GMT on August 25, 2016","2016","08","25","21","30","UTC","17.0","62.6","11.0","51.8","68","14.4","8.9","-9999.0","-9999.0","20","NNE","-9999.0","-9999.0","1022","30.18","-999","-999","-9999","-9999","-9999.00","-9999.00","Clear","clear","0","0","0","0","0","0","METAR UKKK 252130Z 02004MPS CAVOK 17/11 Q1022 R08/CLRD70 NOSIG"
"1:00 AM EEST on August 26, 2016","2016","08","26","01","00","Europe/Kiev","10:00 PM GMT on August 25, 2016","2016","08","25","22","00","UTC","17.0","62.6","11.0","51.8","68","14.4","8.9","-9999.0","-9999.0","20","NNE","-9999.0","-9999.0","1022","30.18","-999","-999","-9999","-9999","-9999.00","-9999.00","Clear","clear","0","0","0","0","0","0","METAR UKKK 252200Z 02004MPS CAVOK 17/11 Q1022 R08/CLRD70 NOSIG"
"1:30 AM EEST on August 26, 2016","2016","08","26","01","30","Europe/Kiev","10:30 PM GMT on August 25, 2016","2016","08","25","22","30","UTC","17.0","62.6","11.0","51.8","68","14.4","8.9","-9999.0","-9999.0","20","NNE","-9999.0","-9999.0","1022","30.18","-999","-999","-9999","-9999","-9999.00","-9999.00","Clear","clear","0","0","0","0","0","0","METAR UKKK 252230Z 02004MPS CAVOK 17/11 Q1022 R08/CLRD70 NOSIG"
"2:00 AM EEST on August 26, 2016","2016","08","26","02","00","Europe/Kiev","11:00 PM GMT on August 25, 2016","2016","08","25","23","00","UTC","17.0","62.6","11.0","51.8","68","14.4","8.9","-9999.0","-9999.0","10","North","-9999.0","-9999.0","1023","30.21","-999","-999","-9999","-9999","-9999.00","-9999.00","Clear","clear","0","0","0","0","0","0","METAR UKKK 252300Z 01004MPS CAVOK 17/11 Q1023 R08/CLRD70 NOSIG"
"2:30 AM EEST on August 26, 2016","2016","08","26","02","30","Europe/Kiev","11:30 PM GMT on August 25, 2016","2016","08","25","23","30","UTC","16.0","60.8","11.0","51.8","72","14.4","8.9","-9999.0","-9999.0","10","North","-9999.0","-9999.0","1022","30.18","-999","-999","-9999","-9999","-9999.00","-9999.00","Clear","clear","0","0","0","0","0","0","METAR UKKK 252330Z 01004MPS CAVOK 16/11 Q1022 R08/CLRD70 NOSIG"
"3:00 AM EEST on August 26, 2016","2016","08","26","03","00","Europe/Kiev","12:00 AM GMT on August 26, 2016","2016","08","26","00","00","UTC","17","63","11","52","59","10.8","6.7","","","20","NNE","20","12","1023","30.20","-999","-999","-9999","-9999","","","","","0","0","0","0","0","0","AAXX 26001 33345 32998 00203 10171 20112 30028 40226 52002 555 10014"
"3:00 AM EEST on August 26, 2016","2016","08","26","03","00","Europe/Kiev","12:00 AM GMT on August 26, 2016","2016","08","26","00","00","UTC","16.0","60.8","12.0","53.6","77","14.4","8.9","-9999.0","-9999.0","10","North","-9999.0","-9999.0","1023","30.21","-999","-999","-9999","-9999","-9999.00","-9999.00","Clear","clear","0","0","0","0","0","0","METAR UKKK 260000Z 01004MPS CAVOK 16/12 Q1023 R08/CLRD70 NOSIG"
"3:30 AM EEST on August 26, 2016","2016","08","26","03","30","Europe/Kiev","12:30 AM GMT on August 26, 2016","2016","08","26","00","30","UTC","17.0","62.6","12.0","53.6","72","18.0","11.2","-9999.0","-9999.0","20","NNE","-9999.0","-9999.0","1023","30.21","-999","-999","-9999","-9999","-9999.00","-9999.00","Clear","clear","0","0","0","0","0","0","METAR UKKK 260030Z 02005MPS CAVOK 17/12 Q1023 R08/CLRD70 NOSIG"
"4:00 AM EEST on August 26, 2016","2016","08","26","04","00","Europe/Kiev","1:00 AM GMT on August 26, 2016","2016","08","26","01","00","UTC","16.0","60.8","12.0","53.6","77","18.0","11.2","-9999.0","-9999.0","20","NNE","-9999.0","-9999.0","1023","30.21","-999","-999","-9999","-9999","-9999.00","-9999.00","Clear","clear","0","0","0","0","0","0","METAR UKKK 260100Z 02005MPS CAVOK 16/12 Q1023 R08/CLRD70 NOSIG"
"4:30 AM EEST on August 26, 2016","2016","08","26","04","30","Europe/Kiev","1:30 AM GMT on August 26, 2016","2016","08","26","01","30","UTC","16.0","60.8","12.0","53.6","77","14.4","8.9","-9999.0","-9999.0","10","North","-9999.0","-9999.0","1023","30.21","-999","-999","-9999","-9999","-9999.00","-9999.00","Clear","clear","0","0","0","0","0","0","METAR UKKK 260130Z 01004MPS CAVOK 16/12 Q1023 R08/CLRD70 NOSIG"
"5:00 AM EEST on August 26, 2016","2016","08","26","05","00","Europe/Kiev","2:00 AM GMT on August 26, 2016","2016","08","26","02","00","UTC","16.0","60.8","12.0","53.6","77","14.4","8.9","-9999.0","-9999.0","10","North","-9999.0","-9999.0","1023","30.21","-999","-999","-9999","-9999","-9999.00","-9999.00","Clear","clear","0","0","0","0","0","0","METAR UKKK 260200Z 01004MPS CAVOK 16/12 Q1023 R08/CLRD70 NOSIG"
"5:30 AM EEST on August 26, 2016","2016","08","26","05","30","Europe/Kiev","2:30 AM GMT on August 26, 2016","2016","08","26","02","30","UTC","15.0","59.0","12.0","53.6","82","14.4","8.9","-9999.0","-9999.0","20","NNE","-9999.0","-9999.0","1024","30.24","-999","-999","-9999","-9999","-9999.00","-9999.00","Clear","clear","0","0","0","0","0","0","METAR UKKK 260230Z 02004MPS CAVOK 15/12 Q1024 R08/CLRD70 NOSIG"
"6:00 AM EEST on August 26, 2016","2016","08","26","06","00","Europe/Kiev","3:00 AM GMT on August 26, 2016","2016","08","26","03","00","UTC","16","60","12","53","70","7.2","4.5","","","10","North","20","12","1024","30.24","-999","-999","-9999","-9999","","","","","0","0","0","0","0","0","AAXX 26031 33345 42998 00102 10155 20116 30040 40240 52012 555 10013"
"6:00 AM EEST on August 26, 2016","2016","08","26","06","00","Europe/Kiev","3:00 AM GMT on August 26, 2016","2016","08","26","03","00","UTC","14.0","57.2","12.0","53.6","88","7.2","4.5","-9999.0","-9999.0","360","North","-9999.0","-9999.0","1024","30.24","-999","-999","-9999","-9999","-9999.00","-9999.00","Clear","clear","0","0","0","0","0","0","METAR UKKK 260300Z 36002MPS CAVOK 14/12 Q1024 R08/CLRD70 NOSIG"
"6:30 AM EEST on August 26, 2016","2016","08","26","06","30","Europe/Kiev","3:30 AM GMT on August 26, 2016","2016","08","26","03","30","UTC","15.0","59.0","12.0","53.6","82","10.8","6.7","-9999.0","-9999.0","10","North","-9999.0","-9999.0","1024","30.24","-999","-999","-9999","-9999","-9999.00","-9999.00","Clear","clear","0","0","0","0","0","0","METAR UKKK 260330Z 01003MPS CAVOK 15/12 Q1024 R08/CLRD70 NOSIG"
"7:00 AM EEST on August 26, 2016","2016","08","26","07","00","Europe/Kiev","4:00 AM GMT on August 26, 2016","2016","08","26","04","00","UTC","15.0","59.0","12.0","53.6","82","7.2","4.5","-9999.0","-9999.0","350","North","-9999.0","-9999.0","1024","30.24","-999","-999","-9999","-9999","-9999.00","-9999.00","Clear","clear","0","0","0","0","0","0","METAR UKKK 260400Z 35002MPS 280V030 CAVOK 15/12 Q1024 R08/CLRD70 NOSIG"
"7:30 AM EEST on August 26, 2016","2016","08","26","07","30","Europe/Kiev","4:30 AM GMT on August 26, 2016","2016","08","26","04","30","UTC","17.0","62.6","13.0","55.4","77","14.4","8.9","-9999.0","-9999.0","10","North","-9999.0","-9999.0","1024","30.24","-999","-999","-9999","-9999","-9999.00","-9999.00","Clear","clear","0","0","0","0","0","0","METAR UKKK 260430Z 01004MPS CAVOK 17/13 Q1024 R08/CLRD70 NOSIG"
"8:00 AM EEST on August 26, 2016","2016","08","26","08","00","Europe/Kiev","5:00 AM GMT on August 26, 2016","2016","08","26","05","00","UTC","17.0","62.6","13.0","55.4","77","14.4","8.9","-9999.0","-9999.0","10","North","-9999.0","-9999.0","1024","30.24","-999","-999","-9999","-9999","-9999.00","-9999.00","Clear","clear","0","0","0","0","0","0","METAR UKKK 260500Z 01004MPS CAVOK 17/13 Q1024 R08/CLRD70 NOSIG"
"8:30 AM EEST on August 26, 2016","2016","08","26","08","30","Europe/Kiev","5:30 AM GMT on August 26, 2016","2016","08","26","05","30","UTC","18.0","64.4","13.0","55.4","73","14.4","8.9","-9999.0","-9999.0","360","North","-9999.0","-9999.0","1024","30.24","-999","-999","-9999","-9999","-9999.00","-9999.00","Clear","clear","0","0","0","0","0","0","METAR UKKK 260530Z 36004MPS CAVOK 18/13 Q1024 R08/CLRD70 NOSIG"
"9:00 AM EEST on August 26, 2016","2016","08","26","09","00","Europe/Kiev","6:00 AM GMT on August 26, 2016","2016","08","26","06","00","UTC","18","64","12","54","61","10.8","6.7","","","30","NNE","20","12","1024","30.26","-999","-999","-9999","-9999","","","","","0","0","0","0","0","0","AAXX 26061 33345 32998 00303 10177 20121 30047 40245 52007 333 20153 555 10021"
"9:00 AM EEST on August 26, 2016","2016","08","26","09","00","Europe/Kiev","6:00 AM GMT on August 26, 2016","2016","08","26","06","00","UTC","19.0","66.2","13.0","55.4","68","14.4","8.9","-9999.0","-9999.0","10","North","-9999.0","-9999.0","1025","30.27","-999","-999","-9999","-9999","-9999.00","-9999.00","Clear","clear","0","0","0","0","0","0","METAR UKKK 260600Z 01004MPS 340V040 CAVOK 19/13 Q1025 R08/CLRD70 NOSIG"
"9:30 AM EEST on August 26, 2016","2016","08","26","09","30","Europe/Kiev","6:30 AM GMT on August 26, 2016","2016","08","26","06","30","UTC","19.0","66.2","12.0","53.6","64","14.4","8.9","-9999.0","-9999.0","360","North","-9999.0","-9999.0","1024","30.24","-999","-999","-9999","-9999","-9999.00","-9999.00","Clear","clear","0","0","0","0","0","0","METAR UKKK 260630Z 36004MPS CAVOK 19/12 Q1024 R08/CLRD70 NOSIG"
"10:00 AM EEST on August 26, 2016","2016","08","26","10","00","Europe/Kiev","7:00 AM GMT on August 26, 2016","2016","08","26","07","00","UTC","20.0","68.0","12.0","53.6","60","18.0","11.2","-9999.0","-9999.0","20","NNE","-9999.0","-9999.0","1024","30.24","-999","-999","-9999","-9999","-9999.00","-9999.00","Clear","clear","0","0","0","0","0","0","METAR UKKK 260700Z 02005MPS 350V050 CAVOK 20/12 Q1024 R08/CLRD70 NOSIG"
"10:30 AM EEST on August 26, 2016","2016","08","26","10","30","Europe/Kiev","7:30 AM GMT on August 26, 2016","2016","08","26","07","30","UTC","21.0","69.8","12.0","53.6","56","14.4","8.9","-9999.0","-9999.0","10","North","-9999.0","-9999.0","1025","30.27","-999","-999","-9999","-9999","-9999.00","-9999.00","Clear","clear","0","0","0","0","0","0","METAR UKKK 260730Z 01004MPS 310V080 CAVOK 21/12 Q1025 R08/CLRD70 NOSIG"
"11:00 AM EEST on August 26, 2016","2016","08","26","11","00","Europe/Kiev","8:00 AM GMT on August 26, 2016","2016","08","26","08","00","UTC","21.0","69.8","12.0","53.6","56","18.0","11.2","-9999.0","-9999.0","10","North","10.0","6.2","1025","30.27","-999","-999","-9999","-9999","-9999.00","-9999.00","Partly Cloudy","partlycloudy","0","0","0","0","0","0","METAR UKKK 260800Z 01005MPS 320V060 9999 FEW020 21/12 Q1025 R08/CLRD70 NOSIG"
"11:30 AM EEST on August 26, 2016","2016","08","26","11","30","Europe/Kiev","8:30 AM GMT on August 26, 2016","2016","08","26","08","30","UTC","21.0","69.8","12.0","53.6","56","21.6","13.4","-9999.0","-9999.0","20","NNE","10.0","6.2","1024","30.24","-999","-999","-9999","-9999","-9999.00","-9999.00","Partly Cloudy","partlycloudy","0","0","0","0","0","0","METAR UKKK 260830Z 02006MPS 340V050 9999 FEW020 21/12 Q1024 R08/CLRD70 NOSIG"
"12:00 PM EEST on August 26, 2016","2016","08","26","12","00","Europe/Kiev","9:00 AM GMT on August 26, 2016","2016","08","26","09","00","UTC","21","70","12","53","44","10.8","6.7","","","30","NNE","20","12","1024","30.25","-999","-999","-9999","-9999","","","Scattered Clouds","partlycloudy","0","0","0","0","0","0","AAXX 26091 33345 42598 10303 10210 20117 30045 40241 58002 81100 555 10035"
"12:00 PM EEST on August 26, 2016","2016","08","26","12","00","Europe/Kiev","9:00 AM GMT on August 26, 2016","2016","08","26","09","00","UTC","22.0","71.6","12.0","53.6","53","14.4","8.9","-9999.0","-9999.0","360","North","10.0","6.2","1024","30.24","-999","-999","-9999","-9999","-9999.00","-9999.00","Partly Cloudy","partlycloudy","0","0","0","0","0","0","METAR UKKK 260900Z 36004MPS 290V070 9999 FEW026 22/12 Q1024 R08/CLRD70 NOSIG"
"12:30 PM EEST on August 26, 2016","2016","08","26","12","30","Europe/Kiev","9:30 AM GMT on August 26, 2016","2016","08","26","09","30","UTC","22.0","71.6","12.0","53.6","53","14.4","8.9","-9999.0","-9999.0","360","North","10.0","6.2","1024","30.24","-999","-999","-9999","-9999","-9999.00","-9999.00","Partly Cloudy","partlycloudy","0","0","0","0","0","0","METAR UKKK 260930Z 36004MPS 310V040 9999 FEW026 22/12 Q1024 R08/CLRD70 NOSIG"
"1:00 PM EEST on August 26, 2016","2016","08","26","13","00","Europe/Kiev","10:00 AM GMT on August 26, 2016","2016","08","26","10","00","UTC","22.0","71.6","12.0","53.6","53","18.0","11.2","-9999.0","-9999.0","10","North","10.0","6.2","1024","30.24","-999","-999","-9999","-9999","-9999.00","-9999.00","Partly Cloudy","partlycloudy","0","0","0","0","0","0","METAR UKKK 261000Z 01005MPS 330V080 9999 FEW043 22/12 Q1024 R08/CLRD70 NOSIG"
"1:30 PM EEST on August 26, 2016","2016","08","26","13","30","Europe/Kiev","10:30 AM GMT on August 26, 2016","2016","08","26","10","30","UTC","23.0","73.4","12.0","53.6","50","18.0","11.2","-9999.0","-9999.0","350","North","10.0","6.2","1024","30.24","-999","-999","-9999","-9999","-9999.00","-9999.00","Partly Cloudy","partlycloudy","0","0","0","0","0","0","METAR UKKK 261030Z 35005MPS 310V030 9999 FEW043 23/12 Q1024 R08/CLRD70 NOSIG"
"2:00 PM EEST on August 26, 2016","2016","08","26","14","00","Europe/Kiev","11:00 AM GMT on August 26, 2016","2016","08","26","11","00","UTC","23.0","73.4","12.0","53.6","50","18.0","11.2","-9999.0","-9999.0","10","North","10.0","6.2","1024","30.24","-999","-999","-9999","-9999","-9999.00","-9999.00","Partly Cloudy","partlycloudy","0","0","0","0","0","0","METAR UKKK 261100Z 01005MPS 340V090 9999 FEW043 23/12 Q1024 R08/CLRD70 NOSIG"
"2:30 PM EEST on August 26, 2016","2016","08","26","14","30","Europe/Kiev","11:30 AM GMT on August 26, 2016","2016","08","26","11","30","UTC","23.0","73.4","11.0","51.8","47","14.4","8.9","-9999.0","-9999.0","360","North","-9999.0","-9999.0","1024","30.24","-999","-999","-9999","-9999","-9999.00","-9999.00","Clear","clear","0","0","0","0","0","0","METAR UKKK 261130Z 36004MPS 330V050 CAVOK 23/11 Q1024 R08/CLRD70 NOSIG"
"3:00 PM EEST on August 26, 2016","2016","08","26","15","00","Europe/Kiev","12:00 PM GMT on August 26, 2016","2016","08","26","12","00","UTC","23","73","10","51","34","14.4","8.9","","","40","NE","20","12","1024","30.23","-999","-999","-9999","-9999","","","","","0","0","0","0","0","0","AAXX 26121 33345 32998 00404 10230 20103 30040 40235 57005 555 10040"
"3:00 PM EEST on August 26, 2016","2016","08","26","15","00","Europe/Kiev","12:00 PM GMT on August 26, 2016","2016","08","26","12","00","UTC","23.0","73.4","11.0","51.8","47","18.0","11.2","-9999.0","-9999.0","20","NNE","-9999.0","-9999.0","1024","30.24","-999","-999","-9999","-9999","-9999.00","-9999.00","Clear","clear","0","0","0","0","0","0","METAR UKKK 261200Z 02005MPS 340V050 CAVOK 23/11 Q1024 R08/CLRD70 NOSIG"
"3:30 PM EEST on August 26, 2016","2016","08","26","15","30","Europe/Kiev","12:30 PM GMT on August 26, 2016","2016","08","26","12","30","UTC","24.0","75.2","11.0","51.8","44","18.0","11.2","-9999.0","-9999.0","360","North","-9999.0","-9999.0","1024","30.24","-999","-999","-9999","-9999","-9999.00","-9999.00","Clear","clear","0","0","0","0","0","0","METAR UKKK 261230Z 36005MPS 330V030 CAVOK 24/11 Q1024 R08/CLRD70 NOSIG"
"4:00 PM EEST on August 26, 2016","2016","08","26","16","00","Europe/Kiev","1:00 PM GMT on August 26, 2016","2016","08","26","13","00","UTC","24.0","75.2","11.0","51.8","44","18.0","11.2","-9999.0","-9999.0","10","North","-9999.0","-9999.0","1024","30.24","-999","-999","-9999","-9999","-9999.00","-9999.00","Clear","clear","0","0","0","0","0","0","METAR UKKK 261300Z 01005MPS 320V060 CAVOK 24/11 Q1024 R08/CLRD70 NOSIG"
"4:30 PM EEST on August 26, 2016","2016","08","26","16","30","Europe/Kiev","1:30 PM GMT on August 26, 2016","2016","08","26","13","30","UTC","24.0","75.2","11.0","51.8","44","18.0","11.2","-9999.0","-9999.0","360","North","-9999.0","-9999.0","1024","30.24","-999","-999","-9999","-9999","-9999.00","-9999.00","Clear","clear","0","0","0","0","0","0","METAR UKKK 261330Z 36005MPS 330V040 CAVOK 24/11 Q1024 R08/CLRD70 NOSIG"
"5:00 PM EEST on August 26, 2016","2016","08","26","17","00","Europe/Kiev","2:00 PM GMT on August 26, 2016","2016","08","26","14","00","UTC","24.0","75.2","11.0","51.8","44","18.0","11.2","-9999.0","-9999.0","360","North","-9999.0","-9999.0","1024","30.24","-999","-999","-9999","-9999","-9999.00","-9999.00","Clear","clear","0","0","0","0","0","0","METAR UKKK 261400Z 36005MPS 320V050 CAVOK 24/11 Q1024 R08/CLRD70 NOSIG"
"5:30 PM EEST on August 26, 2016","2016","08","26","17","30","Europe/Kiev","2:30 PM GMT on August 26, 2016","2016","08","26","14","30","UTC","24.0","75.2","11.0","51.8","44","18.0","11.2","-9999.0","-9999.0","10","North","9.0","5.6","1023","30.21","-999","-999","-9999","-9999","-9999.00","-9999.00","Clear","clear","0","0","0","0","0","0","METAR UKKK 261430Z 01005MPS 340V040 9000 SKC 24/11 Q1023 R08/CLRD70 NOSIG"
"6:00 PM EEST on August 26, 2016","2016","08","26","18","00","Europe/Kiev","3:00 PM GMT on August 26, 2016","2016","08","26","15","00","UTC","24","75","10","49","29","14.4","8.9","","","40","NE","20","12","1023","30.21","-999","-999","-9999","-9999","","","","","0","0","0","0","0","0","AAXX 26151 33345 42998 00404 10238 20095 30035 40229 57005 555 10030"
"6:00 PM EEST on August 26, 2016","2016","08","26","18","00","Europe/Kiev","3:00 PM GMT on August 26, 2016","2016","08","26","15","00","UTC","24.0","75.2","10.0","50.0","41","18.0","11.2","-9999.0","-9999.0","350","North","-9999.0","-9999.0","1023","30.21","-999","-999","-9999","-9999","-9999.00","-9999.00","Clear","clear","0","0","0","0","0","0","METAR UKKK 261500Z 35005MPS CAVOK 24/10 Q1023 R08/CLRD70 NOSIG"
"6:30 PM EEST on August 26, 2016","2016","08","26","18","30","Europe/Kiev","3:30 PM GMT on August 26, 2016","2016","08","26","15","30","UTC","24.0","75.2","10.0","50.0","41","18.0","11.2","-9999.0","-9999.0","360","North","9.0","5.6","1023","30.21","-999","-999","-9999","-9999","-9999.00","-9999.00","Clear","clear","0","0","0","0","0","0","METAR UKKK 261530Z 36005MPS 9000 SKC 24/10 Q1023 R08/CLRD70 NOSIG"
"7:00 PM EEST on August 26, 2016","2016","08","26","19","00","Europe/Kiev","4:00 PM GMT on August 26, 2016","2016","08","26","16","00","UTC","23.0","73.4","10.0","50.0","44","14.4","8.9","-9999.0","-9999.0","10","North","-9999.0","-9999.0","1023","30.21","-999","-999","-9999","-9999","-9999.00","-9999.00","Clear","clear","0","0","0","0","0","0","METAR UKKK 261600Z 01004MPS CAVOK 23/10 Q1023 R08/CLRD70 NOSIG"
"7:30 PM EEST on August 26, 2016","2016","08","26","19","30","Europe/Kiev","4:30 PM GMT on August 26, 2016","2016","08","26","16","30","UTC","22.0","71.6","10.0","50.0","46","14.4","8.9","-9999.0","-9999.0","20","NNE","-9999.0","-9999.0","1023","30.21","-999","-999","-9999","-9999","-9999.00","-9999.00","Clear","clear","0","0","0","0","0","0","METAR UKKK 261630Z 02004MPS CAVOK 22/10 Q1023 R08/CLRD70 NOSIG"
"8:00 PM EEST on August 26, 2016","2016","08","26","20","00","Europe/Kiev","5:00 PM GMT on August 26, 2016","2016","08","26","17","00","UTC","20.0","68.0","11.0","51.8","56","10.8","6.7","-9999.0","-9999.0","20","NNE","-9999.0","-9999.0","1023","30.21","-999","-999","-9999","-9999","-9999.00","-9999.00","Clear","clear","0","0","0","0","0","0","METAR UKKK 261700Z 02003MPS CAVOK 20/11 Q1023 R08/CLRD70 NOSIG"
"8:30 PM EEST on August 26, 2016","2016","08","26","20","30","Europe/Kiev","5:30 PM GMT on August 26, 2016","2016","08","26","17","30","UTC","20.0","68.0","11.0","51.8","56","10.8","6.7","-9999.0","-9999.0","20","NNE","-9999.0","-9999.0","1024","30.24","-999","-999","-9999","-9999","-9999.00","-9999.00","Clear","clear","0","0","0","0","0","0","METAR UKKK 261730Z 02003MPS CAVOK 20/11 Q1024 R08/CLRD70 NOSIG"
"9:00 PM EEST on August 26, 2016","2016","08","26","21","00","Europe/Kiev","6:00 PM GMT on August 26, 2016","2016","08","26","18","00","UTC","20","67","11","52","47","3.6","2.2","","","60","ENE","20","12","1024","30.23","-999","-999","-9999","-9999","","","","","0","0","0","0","0","0","AAXX 26181 33345 32998 00601 10197 20109 30038 40235 53003 333 10240 555 10018"
"9:00 PM EEST on August 26, 2016","2016","08","26","21","00","Europe/Kiev","6:00 PM GMT on August 26, 2016","2016","08","26","18","00","UTC","19.0","66.2","10.0","50.0","56","7.2","4.5","-9999.0","-9999.0","70","ENE","-9999.0","-9999.0","1024","30.24","-999","-999","-9999","-9999","-9999.00","-9999.00","Clear","clear","0","0","0","0","0","0","METAR UKKK 261800Z 07002MPS CAVOK 19/10 Q1024 R08/CLRD70 NOSIG"
"9:30 PM EEST on August 26, 2016","2016","08","26","21","30","Europe/Kiev","6:30 PM GMT on August 26, 2016","2016","08","26","18","30","UTC","16.0","60.8","12.0","53.6","77","0.0","0.0","-9999.0","-9999.0","0","North","9.0","5.6","1024","30.24","-999","-999","-9999","-9999","-9999.00","-9999.00","Clear","clear","0","0","0","0","0","0","METAR UKKK 261830Z 00000MPS 9000 SKC 16/12 Q1024 R08/CLRD70 NOSIG"
"10:00 PM EEST on August 26, 2016","2016","08","26","22","00","Europe/Kiev","7:00 PM GMT on August 26, 2016","2016","08","26","19","00","UTC","16.0","60.8","11.0","51.8","72","0.0","0.0","-9999.0","-9999.0","0","North","9.0","5.6","1024","30.24","-999","-999","-9999","-9999","-9999.00","-9999.00","Clear","clear","0","0","0","0","0","0","METAR UKKK 261900Z 00000MPS 9000 SKC 16/11 Q1024 R08/CLRD70 NOSIG"
"10:30 PM EEST on August 26, 2016","2016","08","26","22","30","Europe/Kiev","7:30 PM GMT on August 26, 2016","2016","08","26","19","30","UTC","14.0","57.2","12.0","53.6","88","0.0","0.0","-9999.0","-9999.0","0","North","9.0","5.6","1024","30.24","-999","-999","-9999","-9999","-9999.00","-9999.00","Clear","clear","0","0","0","0","0","0","METAR UKKK 261930Z 00000MPS 9000 SKC 14/12 Q1024 R08/CLRD70 NOSIG"
"11:00 PM EEST on August 26, 2016","2016","08","26","23","00","Europe/Kiev","8:00 PM GMT on August 26, 2016","2016","08","26","20","00","UTC","14.0","57.2","12.0","53.6","88","0.0","0.0","-9999.0","-9999.0","0","North","9.0","5.6","1024","30.24","-999","-999","-9999","-9999","-9999.00","-9999.00","Clear","clear","0","0","0","0","0","0","METAR UKKK 262000Z 00000MPS 9000 SKC 14/12 Q1024 R08/CLRD70 NOSIG"
"11:30 PM EEST on August 26, 2016","2016","08","26","23","30","Europe/Kiev","8:30 PM GMT on August 26, 2016","2016","08","26","20","30","UTC","14.0","57.2","12.0","53.6","88","3.6","2.2","-9999.0","-9999.0","230","SW","9.0","5.6","1024","30.24","-999","-999","-9999","-9999","-9999.00","-9999.00","Clear","clear","0","0","0","0","0","0","METAR UKKK 262030Z 23001MPS 9000 SKC 14/12 Q1024 R08/CLRD70 NOSIG"
"12:00 AM EEST on August 27, 2016","2016","08","27","00","00","Europe/Kiev","9:00 PM GMT on August 26, 2016","2016","08","26","21","00","UTC","17","63","10","50","52","3.6","2.2","","","20","NNE","20","12","1024","30.25","-999","-999","-9999","-9999","","","","","0","0","0","0","0","0","AAXX 26211 33345 42998 00201 10174 20098 30044 40242 52006 555 10015"
"12:00 AM EEST on August 27, 2016","2016","08","27","00","00","Europe/Kiev","9:00 PM GMT on August 26, 2016","2016","08","26","21","00","UTC","14.0","57.2","12.0","53.6","88","0.0","0.0","-9999.0","-9999.0","0","North","-9999.0","-9999.0","1024","30.24","-999","-999","-9999","-9999","-9999.00","-9999.00","Clear","clear","0","0","0","0","0","0","METAR UKKK 262100Z 00000MPS CAVOK 14/12 Q1024 R08/CLRD70 NOSIG"
"12:30 AM EEST on August 27, 2016","2016","08","27","00","30","Europe/Kiev","9:30 PM GMT on August 26, 2016","2016","08","26","21","30","UTC","14.0","57.2","12.0","53.6","88","3.6","2.2","-9999.0","-9999.0","260","West","-9999.0","-9999.0","1024","30.24","-999","-999","-9999","-9999","-9999.00","-9999.00","Clear","clear","0","0","0","0","0","0","METAR UKKK 262130Z 26001MPS CAVOK 14/12 Q1024 R08/CLRD70 NOSIG"
"1:00 AM EEST on August 27, 2016","2016","08","27","01","00","Europe/Kiev","10:00 PM GMT on August 26, 2016","2016","08","26","22","00","UTC","13.0","55.4","12.0","53.6","94","0.0","0.0","-9999.0","-9999.0","0","North","-9999.0","-9999.0","1024","30.24","-999","-999","-9999","-9999","-9999.00","-9999.00","Clear","clear","0","0","0","0","0","0","METAR UKKK 262200Z 00000MPS CAVOK 13/12 Q1024 R08/CLRD70 NOSIG"
"1:30 AM EEST on August 27, 2016","2016","08","27","01","30","Europe/Kiev","10:30 PM GMT on August 26, 2016","2016","08","26","22","30","UTC","13.0","55.4","12.0","53.6","94","0.0","0.0","-9999.0","-9999.0","0","North","-9999.0","-9999.0","1024","30.24","-999","-999","-9999","-9999","-9999.00","-9999.00","Clear","clear","0","0","0","0","0","0","METAR UKKK 262230Z 00000MPS CAVOK 13/12 Q1024 R08/CLRD70 NOSIG"
"2:00 AM EEST on August 27, 2016","2016","08","27","02","00","Europe/Kiev","11:00 PM GMT on August 26, 2016","2016","08","26","23","00","UTC","12.0","53.6","12.0","53.6","100","0.0","0.0","-9999.0","-9999.0","0","North","8.0","5.0","1024","30.24","-999","-999","-9999","-9999","-9999.00","-9999.00","Clear","clear","0","0","0","0","0","0","METAR UKKK 262300Z 00000MPS 8000 SKC 12/12 Q1024 R08/CLRD70 NOSIG"
"2:30 AM EEST on August 27, 2016","2016","08","27","02","30","Europe/Kiev","11:30 PM GMT on August 26, 2016","2016","08","26","23","30","UTC","13.0","55.4","12.0","53.6","94","0.0","0.0","-9999.0","-9999.0","0","North","-9999.0","-9999.0","1025","30.27","-999","-999","-9999","-9999","-9999.00","-9999.00","Clear","clear","0","0","0","0","0","0","METAR UKKK 262330Z 00000MPS CAVOK 13/12 Q1025 R08/CLRD70 NOSIG"
"3:00 AM EEST on August 27, 2016","2016","08","27","03","00","Europe/Kiev","12:00 AM GMT on August 27, 2016","2016","08","27","00","00","UTC","16","61","11","52","65","3.6","2.2","","","0","North","20","12","1025","30.26","-999","-999","-9999","-9999","","","","","0","0","0","0","0","0","AAXX 27001 33345 32998 03601 10161 20113 30048 40247 52004 555 10014"
"3:00 AM EEST on August 27, 2016","2016","08","27","03","00","Europe/Kiev","12:00 AM GMT on August 27, 2016","2016","08","27","00","00","UTC","12.0","53.6","11.0","51.8","94","0.0","0.0","-9999.0","-9999.0","0","North","-9999.0","-9999.0","1025","30.27","-999","-999","-9999","-9999","-9999.00","-9999.00","Clear","clear","0","0","0","0","0","0","METAR UKKK 270000Z 00000MPS CAVOK 12/11 Q1025 R08/CLRD70 NOSIG"
"3:30 AM EEST on August 27, 2016","2016","08","27","03","30","Europe/Kiev","12:30 AM GMT on August 27, 2016","2016","08","27","00","30","UTC","13.0","55.4","12.0","53.6","94","0.0","0.0","-9999.0","-9999.0","0","North","-9999.0","-9999.0","1025","30.27","-999","-999","-9999","-9999","-9999.00","-9999.00","Clear","clear","0","0","0","0","0","0","METAR UKKK 270030Z 00000MPS CAVOK 13/12 Q1025 R08/CLRD70 NOSIG"
"4:00 AM EEST on August 27, 2016","2016","08","27","04","00","Europe/Kiev","1:00 AM GMT on August 27, 2016","2016","08","27","01","00","UTC","12.0","53.6","11.0","51.8","94","3.6","2.2","-9999.0","-9999.0","250","WSW","-9999.0","-9999.0","1025","30.27","-999","-999","-9999","-9999","-9999.00","-9999.00","Clear","clear","0","0","0","0","0","0","METAR UKKK 270100Z 25001MPS CAVOK 12/11 Q1025 R08/CLRD70 NOSIG"
"4:30 AM EEST on August 27, 2016","2016","08","27","04","30","Europe/Kiev","1:30 AM GMT on August 27, 2016","2016","08","27","01","30","UTC","12.0","53.6","12.0","53.6","100","0.0","0.0","-9999.0","-9999.0","0","North","8.0","5.0","1025","30.27","-999","-999","-9999","-9999","-9999.00","-9999.00","Shallow Fog","fog","1","0","0","0","0","0","METAR UKKK 270130Z 00000MPS 8000 MIFG SKC 12/12 Q1025 R08/CLRD70 NOSIG"
"5:00 AM EEST on August 27, 2016","2016","08","27","05","00","Europe/Kiev","2:00 AM GMT on August 27, 2016","2016","08","27","02","00","UTC","12.0","53.6","12.0","53.6","100","0.0","0.0","-9999.0","-9999.0","0","North","7.0","4.3","1025","30.27","-999","-999","-9999","-9999","-9999.00","-9999.00","Shallow Fog","fog","1","0","0","0","0","0","METAR UKKK 270200Z 00000MPS 7000 MIFG SKC 12/12 Q1025 R08/CLRD70 NOSIG"
"5:30 AM EEST on August 27, 2016","2016","08","27","05","30","Europe/Kiev","2:30 AM GMT on August 27, 2016","2016","08","27","02","30","UTC","12.0","53.6","11.0","51.8","94","0.0","0.0","-9999.0","-9999.0","0","North","5.0","3.1","1025","30.27","-999","-999","-9999","-9999","-9999.00","-9999.00","Shallow Fog","fog","1","0","0","0","0","0","METAR UKKK 270230Z 00000MPS 5000 MIFG SKC 12/11 Q1025 R08/CLRD70 NOSIG"
"6:00 AM EEST on August 27, 2016","2016","08","27","06","00","Europe/Kiev","3:00 AM GMT on August 27, 2016","2016","08","27","03","00","UTC","15","60","11","52","67","3.6","2.2","","","340","NNW","20","12","1025","30.28","-999","-999","-9999","-9999","","","","","0","0","0","0","0","0","AAXX 27031 33345 42998 03401 10154 20111 30052 40252 51004 555 10013"
"6:00 AM EEST on August 27, 2016","2016","08","27","06","00","Europe/Kiev","3:00 AM GMT on August 27, 2016","2016","08","27","03","00","UTC","11.0","51.8","11.0","51.8","100","3.6","2.2","-9999.0","-9999.0","280","West","7.0","4.3","1025","30.27","-999","-999","-9999","-9999","-9999.00","-9999.00","Shallow Fog","fog","1","0","0","0","0","0","METAR UKKK 270300Z 28001MPS 7000 MIFG SKC 11/11 Q1025 R26/CLRD70 NOSIG"
"6:30 AM EEST on August 27, 2016","2016","08","27","06","30","Europe/Kiev","3:30 AM GMT on August 27, 2016","2016","08","27","03","30","UTC","12.0","53.6","12.0","53.6","100","7.2","4.5","-9999.0","-9999.0","260","West","9.0","5.6","1025","30.27","-999","-999","-9999","-9999","-9999.00","-9999.00","Shallow Fog","fog","1","0","0","0","0","0","METAR UKKK 270330Z 26002MPS 9000 MIFG SKC 12/12 Q1025 R26/CLRD70 NOSIG"
"7:00 AM EEST on August 27, 2016","2016","08","27","07","00","Europe/Kiev","4:00 AM GMT on August 27, 2016","2016","08","27","04","00","UTC","13.0","55.4","12.0","53.6","94","7.2","4.5","-9999.0","-9999.0","270","West","9.0","5.6","1025","30.27","-999","-999","-9999","-9999","-9999.00","-9999.00","Clear","clear","0","0","0","0","0","0","METAR UKKK 270400Z 27002MPS 9000 SKC 13/12 Q1025 R26/CLRD70 NOSIG"
"7:30 AM EEST on August 27, 2016","2016","08","27","07","30","Europe/Kiev","4:30 AM GMT on August 27, 2016","2016","08","27","04","30","UTC","15.0","59.0","13.0","55.4","88","3.6","2.2","-9999.0","-9999.0","260","West","9.0","5.6","1025","30.27","-999","-999","-9999","-9999","-9999.00","-9999.00","Clear","clear","0","0","0","0","0","0","METAR UKKK 270430Z 26001MPS 9000 SKC 15/13 Q1025 R26/CLRD70 NOSIG"
"8:00 AM EEST on August 27, 2016","2016","08","27","08","00","Europe/Kiev","5:00 AM GMT on August 27, 2016","2016","08","27","05","00","UTC","17.0","62.6","14.0","57.2","82","3.6","2.2","-9999.0","-9999.0","260","West","9.0","5.6","1026","30.30","-999","-999","-9999","-9999","-9999.00","-9999.00","Clear","clear","0","0","0","0","0","0","METAR UKKK 270500Z 26001MPS 9000 SKC 17/14 Q1026 R08/CLRD70 NOSIG"
"8:30 AM EEST on August 27, 2016","2016","08","27","08","30","Europe/Kiev","5:30 AM GMT on August 27, 2016","2016","08","27","05","30","UTC","19.0","66.2","14.0","57.2","73","0.0","0.0","-9999.0","-9999.0","0","North","-9999.0","-9999.0","1025","30.27","-999","-999","-9999","-9999","-9999.00","-9999.00","Clear","clear","0","0","0","0","0","0","METAR UKKK 270530Z 00000MPS CAVOK 19/14 Q1025 R26/CLRD70 NOSIG"
"9:00 AM EEST on August 27, 2016","2016","08","27","09","00","Europe/Kiev","6:00 AM GMT on August 27, 2016","2016","08","27","06","00","UTC","21","70","12","54","47","3.6","2.2","","","80","East","20","12","1025","30.28","-999","-999","-9999","-9999","","","","","0","0","0","0","0","0","AAXX 27061 33345 32998 00801 10209 20124 30057 40253 53005 333 20153 555 10023"
"9:00 AM EEST on August 27, 2016","2016","08","27","09","00","Europe/Kiev","6:00 AM GMT on August 27, 2016","2016","08","27","06","00","UTC","21.0","69.8","13.0","55.4","60","3.6","2.2","-9999.0","-9999.0","0","Variable","-9999.0","-9999.0","1025","30.27","-999","-999","-9999","-9999","-9999.00","-9999.00","Clear","clear","0","0","0","0","0","0","METAR UKKK 270600Z VRB01MPS CAVOK 21/13 Q1025 R26/CLRD70 NOSIG"
"9:30 AM EEST on August 27, 2016","2016","08","27","09","30","Europe/Kiev","6:30 AM GMT on August 27, 2016","2016","08","27","06","30","UTC","22.0","71.6","12.0","53.6","53","7.2","4.5","-9999.0","-9999.0","50","NE","-9999.0","-9999.0","1025","30.27","-999","-999","-9999","-9999","-9999.00","-9999.00","Clear","clear","0","0","0","0","0","0","METAR UKKK 270630Z 05002MPS 360V100 CAVOK 22/12 Q1025 R26/CLRD70 NOSIG"
"10:00 AM EEST on August 27, 2016","2016","08","27","10","00","Europe/Kiev","7:00 AM GMT on August 27, 2016","2016","08","27","07","00","UTC","23.0","73.4","13.0","55.4","53","7.2","4.5","-9999.0","-9999.0","10","North","-9999.0","-9999.0","1026","30.30","-999","-999","-9999","-9999","-9999.00","-9999.00","Clear","clear","0","0","0","0","0","0","METAR UKKK 270700Z 01002MPS 300V090 CAVOK 23/13 Q1026 R26/CLRD70 NOSIG"
"10:30 AM EEST on August 27, 2016","2016","08","27","10","30","Europe/Kiev","7:30 AM GMT on August 27, 2016","2016","08","27","07","30","UTC","23.0","73.4","13.0","55.4","53","7.2","4.5","-9999.0","-9999.0","10","North","-9999.0","-9999.0","1026","30.30","-999","-999","-9999","-9999","-9999.00","-9999.00","Clear","clear","0","0","0","0","0","0","METAR UKKK 270730Z 01002MPS 340V050 CAVOK 23/13 Q1026 R26/CLRD70 NOSIG"
"11:00 AM EEST on August 27, 2016","2016","08","27","11","00","Europe/Kiev","8:00 AM GMT on August 27, 2016","2016","08","27","08","00","UTC","24.0","75.2","13.0","55.4","50","7.2","4.5","-9999.0","-9999.0","70","ENE","-9999.0","-9999.0","1026","30.30","-999","-999","-9999","-9999","-9999.00","-9999.00","Clear","clear","0","0","0","0","0","0","METAR UKKK 270800Z 07002MPS 030V150 CAVOK 24/13 Q1026 R08/CLRD70 NOSIG"
"11:30 AM EEST on August 27, 2016","2016","08","27","11","30","Europe/Kiev","8:30 AM GMT on August 27, 2016","2016","08","27","08","30","UTC","24.0","75.2","12.0","53.6","47","7.2","4.5","-9999.0","-9999.0","60","ENE","-9999.0","-9999.0","1025","30.27","-999","-999","-9999","-9999","-9999.00","-9999.00","Clear","clear","0","0","0","0","0","0","METAR UKKK 270830Z 06002MPS 010V120 CAVOK 24/12 Q1025 R08/CLRD70 NOSIG"
"12:00 PM EEST on August 27, 2016","2016","08","27","12","00","Europe/Kiev","9:00 AM GMT on August 27, 2016","2016","08","27","09","00","UTC","25","77","13","56","37","7.2","4.5","","","110","ESE","20","12","1025","30.27","-999","-999","-9999","-9999","","","","","0","0","0","0","0","0","AAXX 27091 33345 42998 01102 10251 20131 30056 40249 58001 555 10038"
"12:00 PM EEST on August 27, 2016","2016","08","27","12","00","Europe/Kiev","9:00 AM GMT on August 27, 2016","2016","08","27","09","00","UTC","25.0","77.0","13.0","55.4","47","10.8","6.7","-9999.0","-9999.0","60","ENE","-9999.0","-9999.0","1025","30.27","-999","-999","-9999","-9999","-9999.00","-9999.00","Clear","clear","0","0","0","0","0","0","METAR UKKK 270900Z 06003MPS 360V150 CAVOK 25/13 Q1025 R08/CLRD70 NOSIG"
"12:30 PM EEST on August 27, 2016","2016","08","27","12","30","Europe/Kiev","9:30 AM GMT on August 27, 2016","2016","08","27","09","30","UTC","25.0","77.0","13.0","55.4","47","7.2","4.5","-9999.0","-9999.0","360","North","-9999.0","-9999.0","1025","30.27","-999","-999","-9999","-9999","-9999.00","-9999.00","Clear","clear","0","0","0","0","0","0","METAR UKKK 270930Z 36002MPS 300V090 CAVOK 25/13 Q1025 R08/CLRD70 NOSIG"
"1:00 PM EEST on August 27, 2016","2016","08","27","13","00","Europe/Kiev","10:00 AM GMT on August 27, 2016","2016","08","27","10","00","UTC","26.0","78.8","13.0","55.4","44","10.8","6.7","-9999.0","-9999.0","10","North","-9999.0","-9999.0","1025","30.27","-999","-999","-9999","-9999","-9999.00","-9999.00","Clear","clear","0","0","0","0","0","0","METAR UKKK 271000Z 01003MPS 330V070 CAVOK 26/13 Q1025 R08/CLRD70 NOSIG"
"1:30 PM EEST on August 27, 2016","2016","08","27","13","30","Europe/Kiev","10:30 AM GMT on August 27, 2016","2016","08","27","10","30","UTC","26.0","78.8","13.0","55.4","44","10.8","6.7","-9999.0","-9999.0","360","North","-9999.0","-9999.0","1025","30.27","-999","-999","-9999","-9999","-9999.00","-9999.00","Clear","clear","0","0","0","0","0","0","METAR UKKK 271030Z 36003MPS 310V090 CAVOK 26/13 Q1025 R08/CLRD70 NOSIG"
"2:00 PM EEST on August 27, 2016","2016","08","27","14","00","Europe/Kiev","11:00 AM GMT on August 27, 2016","2016","08","27","11","00","UTC","27.0","80.6","13.0","55.4","42","7.2","4.5","-9999.0","-9999.0","20","NNE","-9999.0","-9999.0","1025","30.27","-999","-999","27.0","80.5","-9999.00","-9999.00","Clear","clear","0","0","0","0","0","0","METAR UKKK 271100Z 02002MPS CAVOK 27/13 Q1025 R08/CLRD70 NOSIG"
"2:30 PM EEST on August 27, 2016","2016","08","27","14","30","Europe/Kiev","11:30 AM GMT on August 27, 2016","2016","08","27","11","30","UTC","27.0","80.6","12.0","53.6","39","10.8","6.7","-9999.0","-9999.0","30","NNE","-9999.0","-9999.0","1024","30.24","-999","-999","26.8","80.3","-9999.00","-9999.00","Clear","clear","0","0","0","0","0","0","METAR UKKK 271130Z 03003MPS 340V100 CAVOK 27/12 Q1024 R08/CLRD70 NOSIG"
"3:00 PM EEST on August 27, 2016","2016","08","27","15","00","Europe/Kiev","12:00 PM GMT on August 27, 2016","2016","08","27","12","00","UTC","27","81","12","54","29","7.2","4.5","","","80","East","20","12","1023","30.22","-999","-999","-9999","-9999","","","","","0","0","0","0","0","0","AAXX 27121 33345 32998 00802 10270 20124 30041 40233 57015 555 10044"
"3:00 PM EEST on August 27, 2016","2016","08","27","15","00","Europe/Kiev","12:00 PM GMT on August 27, 2016","2016","08","27","12","00","UTC","27.0","80.6","13.0","55.4","42","10.8","6.7","-9999.0","-9999.0","40","NE","-9999.0","-9999.0","1024","30.24","-999","-999","27.0","80.5","-9999.00","-9999.00","Clear","clear","0","0","0","0","0","0","METAR UKKK 271200Z 04003MPS 360V090 CAVOK 27/13 Q1024 R08/CLRD70 NOSIG"
"3:30 PM EEST on August 27, 2016","2016","08","27","15","30","Europe/Kiev","12:30 PM GMT on August 27, 2016","2016","08","27","12","30","UTC","28.0","82.4","12.0","53.6","37","10.8","6.7","-9999.0","-9999.0","20","NNE","-9999.0","-9999.0","1024","30.24","-999","-999","27.5","81.4","-9999.00","-9999.00","Clear","clear","0","0","0","0","0","0","METAR UKKK 271230Z 02003MPS 340V060 CAVOK 28/12 Q1024 R08/CLRD70 NOSIG"
"4:00 PM EEST on August 27, 2016","2016","08","27","16","00","Europe/Kiev","1:00 PM GMT on August 27, 2016","2016","08","27","13","00","UTC","28.0","82.4","12.0","53.6","37","10.8","6.7","-9999.0","-9999.0","360","North","-9999.0","-9999.0","1023","30.21","-999","-999","27.5","81.4","-9999.00","-9999.00","Clear","clear","0","0","0","0","0","0","METAR UKKK 271300Z 36003MPS 300V050 CAVOK 28/12 Q1023 R08/CLRD70 NOSIG"
"4:30 PM EEST on August 27, 2016","2016","08","27","16","30","Europe/Kiev","1:30 PM GMT on August 27, 2016","2016","08","27","13","30","UTC","28.0","82.4","11.0","51.8","35","10.8","6.7","-9999.0","-9999.0","350","North","-9999.0","-9999.0","1023","30.21","-999","-999","-9999","-9999","-9999.00","-9999.00","Clear","clear","0","0","0","0","0","0","METAR UKKK 271330Z 35003MPS 320V020 CAVOK 28/11 Q1023 R08/CLRD70 NOSIG"
"5:00 PM EEST on August 27, 2016","2016","08","27","17","00","Europe/Kiev","2:00 PM GMT on August 27, 2016","2016","08","27","14","00","UTC","28.0","82.4","12.0","53.6","37","10.8","6.7","-9999.0","-9999.0","10","North","-9999.0","-9999.0","1023","30.21","-999","-999","27.5","81.4","-9999.00","-9999.00","Clear","clear","0","0","0","0","0","0","METAR UKKK 271400Z 01003MPS 330V040 CAVOK 28/12 Q1023 R08/CLRD70 NOSIG"
"5:30 PM EEST on August 27, 2016","2016","08","27","17","30","Europe/Kiev","2:30 PM GMT on August 27, 2016","2016","08","27","14","30","UTC","28.0","82.4","13.0","55.4","39","10.8","6.7","-9999.0","-9999.0","30","NNE","-9999.0","-9999.0","1023","30.21","-999","-999","27.6","81.7","-9999.00","-9999.00","Clear","clear","0","0","0","0","0","0","METAR UKKK 271430Z 03003MPS 360V070 CAVOK 28/13 Q1023 R08/CLRD70 NOSIG"
"6:00 PM EEST on August 27, 2016","2016","08","27","18","00","Europe/Kiev","3:00 PM GMT on August 27, 2016","2016","08","27","15","00","UTC","28","82","13","56","31","7.2","4.5","","","40","NE","20","12","1022","30.18","-999","-999","-9999","-9999","","","","","0","0","0","0","0","0","AAXX 27151 33345 42998 00402 10277 20134 30029 40220 57012 555 10035"
"6:00 PM EEST on August 27, 2016","2016","08","27","18","00","Europe/Kiev","3:00 PM GMT on August 27, 2016","2016","08","27","15","00","UTC","27.0","80.6","13.0","55.4","42","10.8","6.7","-9999.0","-9999.0","30","NNE","-9999.0","-9999.0","1023","30.21","-999","-999","27.0","80.5","-9999.00","-9999.00","Clear","clear","0","0","0","0","0","0","METAR UKKK 271500Z 03003MPS 350V080 CAVOK 27/13 Q1023 R08/CLRD70 NOSIG"
"6:30 PM EEST on August 27, 2016","2016","08","27","18","30","Europe/Kiev","3:30 PM GMT on August 27, 2016","2016","08","27","15","30","UTC","27.0","80.6","14.0","57.2","45","7.2","4.5","-9999.0","-9999.0","50","NE","-9999.0","-9999.0","1022","30.18","-999","-999","27.1","80.8","-9999.00","-9999.00","Clear","clear","0","0","0","0","0","0","METAR UKKK 271530Z 05002MPS CAVOK 27/14 Q1022 R08/CLRD70 NOSIG"
"7:00 PM EEST on August 27, 2016","2016","08","27","19","00","Europe/Kiev","4:00 PM GMT on August 27, 2016","2016","08","27","16","00","UTC","26.0","78.8","14.0","57.2","47","7.2","4.5","-9999.0","-9999.0","60","ENE","-9999.0","-9999.0","1022","30.18","-999","-999","-9999","-9999","-9999.00","-9999.00","Clear","clear","0","0","0","0","0","0","METAR UKKK 271600Z 06002MPS CAVOK 26/14 Q1022 R08/CLRD70 NOSIG"
"7:30 PM EEST on August 27, 2016","2016","08","27","19","30","Europe/Kiev","4:30 PM GMT on August 27, 2016","2016","08","27","16","30","UTC","25.0","77.0","14.0","57.2","50","0.0","0.0","-9999.0","-9999.0","0","North","-9999.0","-9999.0","1022","30.18","-999","-999","-9999","-9999","-9999.00","-9999.00","Clear","clear","0","0","0","0","0","0","METAR UKKK 271630Z 00000MPS CAVOK 25/14 Q1022 R08/CLRD70 NOSIG"
"8:00 PM EEST on August 27, 2016","2016","08","27","20","00","Europe/Kiev","5:00 PM GMT on August 27, 2016","2016","08","27","17","00","UTC","22.0","71.6","14.0","57.2","60","0.0","0.0","-9999.0","-9999.0","0","North","-9999.0","-9999.0","1022","30.18","-999","-999","-9999","-9999","-9999.00","-9999.00","Clear","clear","0","0","0","0","0","0","METAR UKKK 271700Z 00000MPS CAVOK 22/14 Q1022 R08/CLRD70 NOSIG"
"8:30 PM EEST on August 27, 2016","2016","08","27","20","30","Europe/Kiev","5:30 PM GMT on August 27, 2016","2016","08","27","17","30","UTC","20.0","68.0","15.0","59.0","73","3.6","2.2","-9999.0","-9999.0","100","East","9.0","5.6","1023","30.21","-999","-999","-9999","-9999","-9999.00","-9999.00","Clear","clear","0","0","0","0","0","0","METAR UKKK 271730Z 10001MPS 9000 SKC 20/15 Q1023 R08/CLRD70 NOSIG"
"9:00 PM EEST on August 27, 2016","2016","08","27","21","00","Europe/Kiev","6:00 PM GMT on August 27, 2016","2016","08","27","18","00","UTC","22","72","14","58","51","0.0","0.0","","","","","20","12","1022","30.19","-999","-999","-9999","-9999","","","","","0","0","0","0","0","0","AAXX 27181 33345 32998 00000 10221 20143 30029 40224 54000 333 10280 555 10020"
"9:00 PM EEST on August 27, 2016","2016","08","27","21","00","Europe/Kiev","6:00 PM GMT on August 27, 2016","2016","08","27","18","00","UTC","19.0","66.2","15.0","59.0","78","3.6","2.2","-9999.0","-9999.0","140","SE","9.0","5.6","1023","30.21","-999","-999","-9999","-9999","-9999.00","-9999.00","Clear","clear","0","0","0","0","0","0","METAR UKKK 271800Z 14001MPS 9000 SKC 19/15 Q1023 R08/CLRD70 NOSIG"
"9:30 PM EEST on August 27, 2016","2016","08","27","21","30","Europe/Kiev","6:30 PM GMT on August 27, 2016","2016","08","27","18","30","UTC","19.0","66.2","15.0","59.0","78","3.6","2.2","-9999.0","-9999.0","150","SSE","9.0","5.6","1022","30.18","-999","-999","-9999","-9999","-9999.00","-9999.00","Clear","clear","0","0","0","0","0","0","METAR UKKK 271830Z 15001MPS 9000 SKC 19/15 Q1022 R08/CLRD70 NOSIG"
"10:00 PM EEST on August 27, 2016","2016","08","27","22","00","Europe/Kiev","7:00 PM GMT on August 27, 2016","2016","08","27","19","00","UTC","19.0","66.2","15.0","59.0","78","3.6","2.2","-9999.0","-9999.0","0","Variable","9.0","5.6","1022","30.18","-999","-999","-9999","-9999","-9999.00","-9999.00","Clear","clear","0","0","0","0","0","0","METAR UKKK 271900Z VRB01MPS 9000 SKC 19/15 Q1022 R08/CLRD70 NOSIG"
"10:30 PM EEST on August 27, 2016","2016","08","27","22","30","Europe/Kiev","7:30 PM GMT on August 27, 2016","2016","08","27","19","30","UTC","18.0","64.4","15.0","59.0","83","0.0","0.0","-9999.0","-9999.0","0","North","-9999.0","-9999.0","1022","30.18","-999","-999","-9999","-9999","-9999.00","-9999.00","Clear","clear","0","0","0","0","0","0","METAR UKKK 271930Z 00000MPS CAVOK 18/15 Q1022 R08/CLRD70 NOSIG"
"11:00 PM EEST on August 27, 2016","2016","08","27","23","00","Europe/Kiev","8:00 PM GMT on August 27, 2016","2016","08","27","20","00","UTC","17.0","62.6","14.0","57.2","82","0.0","0.0","-9999.0","-9999.0","0","North","-9999.0","-9999.0","1022","30.18","-999","-999","-9999","-9999","-9999.00","-9999.00","Clear","clear","0","0","0","0","0","0","METAR UKKK 272000Z 00000MPS CAVOK 17/14 Q1022 R08/CLRD70 NOSIG"
"11:30 PM EEST on August 27, 2016","2016","08","27","23","30","Europe/Kiev","8:30 PM GMT on August 27, 2016","2016","08","27","20","30","UTC","16.0","60.8","14.0","57.2","88","0.0","0.0","-9999.0","-9999.0","0","North","-9999.0","-9999.0","1022","30.18","-999","-999","-9999","-9999","-9999.00","-9999.00","Clear","clear","0","0","0","0","0","0","METAR UKKK 272030Z 00000MPS CAVOK 16/14 Q1022 R08/CLRD70 NOSIG"
"12:00 AM EEST on August 28, 2016","2016","08","28","00","00","Europe/Kiev","9:00 PM GMT on August 27, 2016","2016","08","27","21","00","UTC","20","68","15","58","63","3.6","2.2","","","250","WSW","20","12","1022","30.19","-999","-999","-9999","-9999","","","","","0","0","0","0","0","0","AAXX 27211 33345 42998 02501 10199 20146 30025 40221 58004 555 10017"
"12:00 AM EEST on August 28, 2016","2016","08","28","00","00","Europe/Kiev","9:00 PM GMT on August 27, 2016","2016","08","27","21","00","UTC","16.0","60.8","15.0","59.0","94","0.0","0.0","-9999.0","-9999.0","0","North","-9999.0","-9999.0","1022","30.18","-999","-999","-9999","-9999","-9999.00","-9999.00","Clear","clear","0","0","0","0","0","0","METAR UKKK 272100Z 00000MPS CAVOK 16/15 Q1022 R08/CLRD70 NOSIG"
"12:30 AM EEST on August 28, 2016","2016","08","28","00","30","Europe/Kiev","9:30 PM GMT on August 27, 2016","2016","08","27","21","30","UTC","16.0","60.8","15.0","59.0","94","0.0","0.0","-9999.0","-9999.0","0","North","-9999.0","-9999.0","1022","30.18","-999","-999","-9999","-9999","-9999.00","-9999.00","Clear","clear","0","0","0","0","0","0","METAR UKKK 272130Z 00000MPS CAVOK 16/15 Q1022 R08/CLRD70 NOSIG"
"1:00 AM EEST on August 28, 2016","2016","08","28","01","00","Europe/Kiev","10:00 PM GMT on August 27, 2016","2016","08","27","22","00","UTC","16.0","60.8","14.0","57.2","88","0.0","0.0","-9999.0","-9999.0","0","North","-9999.0","-9999.0","1022","30.18","-999","-999","-9999","-9999","-9999.00","-9999.00","Clear","clear","0","0","0","0","0","0","METAR UKKK 272200Z 00000MPS CAVOK 16/14 Q1022 R08/CLRD70 NOSIG"
"1:30 AM EEST on August 28, 2016","2016","08","28","01","30","Europe/Kiev","10:30 PM GMT on August 27, 2016","2016","08","27","22","30","UTC","15.0","59.0","14.0","57.2","94","0.0","0.0","-9999.0","-9999.0","0","North","-9999.0","-9999.0","1022","30.18","-999","-999","-9999","-9999","-9999.00","-9999.00","Clear","clear","0","0","0","0","0","0","METAR UKKK 272230Z 00000MPS CAVOK 15/14 Q1022 R08/CLRD70 NOSIG"
"2:00 AM EEST on August 28, 2016","2016","08","28","02","00","Europe/Kiev","11:00 PM GMT on August 27, 2016","2016","08","27","23","00","UTC","15.0","59.0","14.0","57.2","94","0.0","0.0","-9999.0","-9999.0","0","North","-9999.0","-9999.0","1022","30.18","-999","-999","-9999","-9999","-9999.00","-9999.00","Clear","clear","0","0","0","0","0","0","METAR UKKK 272300Z 00000MPS CAVOK 15/14 Q1022 R08/CLRD70 NOSIG"
"2:30 AM EEST on August 28, 2016","2016","08","28","02","30","Europe/Kiev","11:30 PM GMT on August 27, 2016","2016","08","27","23","30","UTC","15.0","59.0","14.0","57.2","94","3.6","2.2","-9999.0","-9999.0","260","West","-9999.0","-9999.0","1022","30.18","-999","-999","-9999","-9999","-9999.00","-9999.00","Clear","clear","0","0","0","0","0","0","METAR UKKK 272330Z 26001MPS CAVOK 15/14 Q1022 R08/CLRD70 NOSIG"
"3:00 AM EEST on August 28, 2016","2016","08","28","03","00","Europe/Kiev","12:00 AM GMT on August 28, 2016","2016","08","28","00","00","UTC","19","66","14","58","67","0.0","0.0","","","","","20","12","1022","30.18","-999","-999","-9999","-9999","","","","","0","0","0","0","0","0","AAXX 28001 33345 32998 00000 10188 20143 30022 40219 57003 555 10016"
"3:00 AM EEST on August 28, 2016","2016","08","28","03","00","Europe/Kiev","12:00 AM GMT on August 28, 2016","2016","08","28","00","00","UTC","14.0","57.2","14.0","57.2","100","0.0","0.0","-9999.0","-9999.0","0","North","-9999.0","-9999.0","1022","30.18","-999","-999","-9999","-9999","-9999.00","-9999.00","Clear","clear","0","0","0","0","0","0","METAR UKKK 280000Z 00000MPS CAVOK 14/14 Q1022 R08/CLRD70 NOSIG"
"3:30 AM EEST on August 28, 2016","2016","08","28","03","30","Europe/Kiev","12:30 AM GMT on August 28, 2016","2016","08","28","00","30","UTC","14.0","57.2","13.0","55.4","94","0.0","0.0","-9999.0","-9999.0","0","North","9.0","5.6","1022","30.18","-999","-999","-9999","-9999","-9999.00","-9999.00","Clear","clear","0","0","0","0","0","0","METAR UKKK 280030Z 00000MPS 9000 SKC 14/13 Q1022 R08/CLRD70 NOSIG"
"4:00 AM EEST on August 28, 2016","2016","08","28","04","00","Europe/Kiev","1:00 AM GMT on August 28, 2016","2016","08","28","01","00","UTC","13.0","55.4","13.0","55.4","100","0.0","0.0","-9999.0","-9999.0","0","North","9.0","5.6","1022","30.18","-999","-999","-9999","-9999","-9999.00","-9999.00","Clear","clear","0","0","0","0","0","0","METAR UKKK 280100Z 00000MPS 9000 SKC 13/13 Q1022 R08/CLRD70 NOSIG"
"4:30 AM EEST on August 28, 2016","2016","08","28","04","30","Europe/Kiev","1:30 AM GMT on August 28, 2016","2016","08","28","01","30","UTC","14.0","57.2","13.0","55.4","94","0.0","0.0","-9999.0","-9999.0","0","North","9.0","5.6","1022","30.18","-999","-999","-9999","-9999","-9999.00","-9999.00","Clear","clear","0","0","0","0","0","0","METAR UKKK 280130Z 00000MPS 9000 SKC 14/13 Q1022 R08/CLRD70 NOSIG"
"5:00 AM EEST on August 28, 2016","2016","08","28","05","00","Europe/Kiev","2:00 AM GMT on August 28, 2016","2016","08","28","02","00","UTC","14.0","57.2","13.0","55.4","94","3.6","2.2","-9999.0","-9999.0","200","SSW","9.0","5.6","1022","30.18","-999","-999","-9999","-9999","-9999.00","-9999.00","Clear","clear","0","0","0","0","0","0","METAR UKKK 280200Z 20001MPS 9000 SKC 14/13 Q1022 R08/CLRD70 NOSIG"
"5:30 AM EEST on August 28, 2016","2016","08","28","05","30","Europe/Kiev","2:30 AM GMT on August 28, 2016","2016","08","28","02","30","UTC","13.0","55.4","13.0","55.4","100","0.0","0.0","-9999.0","-9999.0","0","North","9.0","5.6","1022","30.18","-999","-999","-9999","-9999","-9999.00","-9999.00","Clear","clear","0","0","0","0","0","0","METAR UKKK 280230Z 00000MPS 9000 SKC 13/13 Q1022 R08/CLRD70 NOSIG"
"6:00 AM EEST on August 28, 2016","2016","08","28","06","00","Europe/Kiev","3:00 AM GMT on August 28, 2016","2016","08","28","03","00","UTC","18","64","14","57","72","0.0","0.0","","","","","20","12","1022","30.18","-999","-999","-9999","-9999","","","","","0","0","0","0","0","0","AAXX 28031 33345 42998 00000 10177 20140 30021 40218 57001 555 10015"
"6:00 AM EEST on August 28, 2016","2016","08","28","06","00","Europe/Kiev","3:00 AM GMT on August 28, 2016","2016","08","28","03","00","UTC","13.0","55.4","13.0","55.4","100","0.0","0.0","-9999.0","-9999.0","0","North","9.0","5.6","1022","30.18","-999","-999","-9999","-9999","-9999.00","-9999.00","Clear","clear","0","0","0","0","0","0","METAR UKKK 280300Z 00000MPS 9000 SKC 13/13 Q1022 R08/CLRD70 NOSIG"
"6:30 AM EEST on August 28, 2016","2016","08","28","06","30","Europe/Kiev","3:30 AM GMT on August 28, 2016","2016","08","28","03","30","UTC","13.0","55.4","13.0","55.4","100","7.2","4.5","-9999.0","-9999.0","240","WSW","-9999.0","-9999.0","1022","30.18","-999","-999","-9999","-9999","-9999.00","-9999.00","Clear","clear","0","0","0","0","0","0","METAR UKKK 280330Z 24002MPS CAVOK 13/13 Q1022 R26/CLRD70 NOSIG"
"7:00 AM EEST on August 28, 2016","2016","08","28","07","00","Europe/Kiev","4:00 AM GMT on August 28, 2016","2016","08","28","04","00","UTC","15.0","59.0","14.0","57.2","94","7.2","4.5","-9999.0","-9999.0","240","WSW","-9999.0","-9999.0","1022","30.18","-999","-999","-9999","-9999","-9999.00","-9999.00","Clear","clear","0","0","0","0","0","0","METAR UKKK 280400Z 24002MPS CAVOK 15/14 Q1022 R26/CLRD70 NOSIG"
"7:30 AM EEST on August 28, 2016","2016","08","28","07","30","Europe/Kiev","4:30 AM GMT on August 28, 2016","2016","08","28","04","30","UTC","17.0","62.6","15.0","59.0","88","7.2","4.5","-9999.0","-9999.0","240","WSW","-9999.0","-9999.0","1022","30.18","-999","-999","-9999","-9999","-9999.00","-9999.00","Clear","clear","0","0","0","0","0","0","METAR UKKK 280430Z 24002MPS CAVOK 17/15 Q1022 R26/CLRD70 NOSIG"
"8:00 AM EEST on August 28, 2016","2016","08","28","08","00","Europe/Kiev","5:00 AM GMT on August 28, 2016","2016","08","28","05","00","UTC","19.0","66.2","16.0","60.8","83","7.2","4.5","-9999.0","-9999.0","260","West","-9999.0","-9999.0","1022","30.18","-999","-999","-9999","-9999","-9999.00","-9999.00","Clear","clear","0","0","0","0","0","0","METAR UKKK 280500Z 26002MPS CAVOK 19/16 Q1022 R26/CLRD70 NOSIG"
"8:30 AM EEST on August 28, 2016","2016","08","28","08","30","Europe/Kiev","5:30 AM GMT on August 28, 2016","2016","08","28","05","30","UTC","21.0","69.8","16.0","60.8","73","7.2","4.5","-9999.0","-9999.0","250","WSW","-9999.0","-9999.0","1022","30.18","-999","-999","-9999","-9999","-9999.00","-9999.00","Clear","clear","0","0","0","0","0","0","METAR UKKK 280530Z 25002MPS 210V280 CAVOK 21/16 Q1022 R26/CLRD70 NOSIG"
"9:00 AM EEST on August 28, 2016","2016","08","28","09","00","Europe/Kiev","6:00 AM GMT on August 28, 2016","2016","08","28","06","00","UTC","24","74","15","59","51","7.2","4.5","","","290","WNW","20","12","1022","30.18","-999","-999","-9999","-9999","","","","","0","0","0","0","0","0","AAXX 28061 33345 32998 02902 10235 20152 30025 40219 53004 333 20176 555 10026"
"9:00 AM EEST on August 28, 2016","2016","08","28","09","00","Europe/Kiev","6:00 AM GMT on August 28, 2016","2016","08","28","06","00","UTC","23.0","73.4","16.0","60.8","65","7.2","4.5","-9999.0","-9999.0","260","West","-9999.0","-9999.0","1022","30.18","-999","-999","-9999","-9999","-9999.00","-9999.00","Clear","clear","0","0","0","0","0","0","METAR UKKK 280600Z 26002MPS CAVOK 23/16 Q1022 R26/CLRD70 NOSIG"
"9:30 AM EEST on August 28, 2016","2016","08","28","09","30","Europe/Kiev","6:30 AM GMT on August 28, 2016","2016","08","28","06","30","UTC","24.0","75.2","15.0","59.0","57","10.8","6.7","-9999.0","-9999.0","250","WSW","-9999.0","-9999.0","1022","30.18","-999","-999","-9999","-9999","-9999.00","-9999.00","Clear","clear","0","0","0","0","0","0","METAR UKKK 280630Z 25003MPS 220V280 CAVOK 24/15 Q1022 R26/CLRD70 NOSIG"
"10:00 AM EEST on August 28, 2016","2016","08","28","10","00","Europe/Kiev","7:00 AM GMT on August 28, 2016","2016","08","28","07","00","UTC","25.0","77.0","15.0","59.0","54","7.2","4.5","-9999.0","-9999.0","270","West","-9999.0","-9999.0","1022","30.18","-999","-999","-9999","-9999","-9999.00","-9999.00","Clear","clear","0","0","0","0","0","0","METAR UKKK 280700Z 27002MPS 210V310 CAVOK 25/15 Q1022 R26/CLRD70 NOSIG"
"10:30 AM EEST on August 28, 2016","2016","08","28","10","30","Europe/Kiev","7:30 AM GMT on August 28, 2016","2016","08","28","07","30","UTC","26.0","78.8","15.0","59.0","51","7.2","4.5","-9999.0","-9999.0","280","West","-9999.0","-9999.0","1022","30.18","-999","-999","-9999","-9999","-9999.00","-9999.00","Clear","clear","0","0","0","0","0","0","METAR UKKK 280730Z 28002MPS 240V310 CAVOK 26/15 Q1022 R26/CLRD70 NOSIG"
"11:00 AM EEST on August 28, 2016","2016","08","28","11","00","Europe/Kiev","8:00 AM GMT on August 28, 2016","2016","08","28","08","00","UTC","27.0","80.6","15.0","59.0","48","7.2","4.5","-9999.0","-9999.0","290","WNW","-9999.0","-9999.0","1022","30.18","-999","-999","27.3","81.1","-9999.00","-9999.00","Clear","clear","0","0","0","0","0","0","METAR UKKK 280800Z 29002MPS 250V330 CAVOK 27/15 Q1022 R26/CLRD70 NOSIG"
"11:30 AM EEST on August 28, 2016","2016","08","28","11","30","Europe/Kiev","8:30 AM GMT on August 28, 2016","2016","08","28","08","30","UTC","27.0","80.6","14.0","57.2","45","7.2","4.5","-9999.0","-9999.0","320","NW","-9999.0","-9999.0","1022","30.18","-999","-999","27.1","80.8","-9999.00","-9999.00","Clear","clear","0","0","0","0","0","0","METAR UKKK 280830Z 32002MPS 260V040 CAVOK 27/14 Q1022 R26/CLRD70 NOSIG"
"12:00 PM EEST on August 28, 2016","2016","08","28","12","00","Europe/Kiev","9:00 AM GMT on August 28, 2016","2016","08","28","09","00","UTC","28","82","14","57","32","7.2","4.5","","","280","West","20","12","1021","30.16","-999","-999","-9999","-9999","","","","","0","0","0","0","0","0","AAXX 28091 33345 42998 02802 10280 20140 30021 40212 58004 555 10043"
"12:00 PM EEST on August 28, 2016","2016","08","28","12","00","Europe/Kiev","9:00 AM GMT on August 28, 2016","2016","08","28","09","00","UTC","28.0","82.4","15.0","59.0","45","7.2","4.5","-9999.0","-9999.0","320","NW","-9999.0","-9999.0","1022","30.18","-999","-999","28.0","82.5","-9999.00","-9999.00","Clear","clear","0","0","0","0","0","0","METAR UKKK 280900Z 32002MPS 260V010 CAVOK 28/15 Q1022 R26/CLRD70 NOSIG"
"12:30 PM EEST on August 28, 2016","2016","08","28","12","30","Europe/Kiev","9:30 AM GMT on August 28, 2016","2016","08","28","09","30","UTC","29.0","84.2","15.0","59.0","42","7.2","4.5","-9999.0","-9999.0","300","WNW","-9999.0","-9999.0","1022","30.18","-999","-999","28.8","83.8","-9999.00","-9999.00","Clear","clear","0","0","0","0","0","0","METAR UKKK 280930Z 30002MPS CAVOK 29/15 Q1022 R26/CLRD70 NOSIG"
"1:00 PM EEST on August 28, 2016","2016","08","28","13","00","Europe/Kiev","10:00 AM GMT on August 28, 2016","2016","08","28","10","00","UTC","29.0","84.2","14.0","57.2","40","7.2","4.5","-9999.0","-9999.0","250","WSW","-9999.0","-9999.0","1022","30.18","-999","-999","28.6","83.5","-9999.00","-9999.00","Clear","clear","0","0","0","0","0","0","METAR UKKK 281000Z 25002MPS CAVOK 29/14 Q1022 R26/CLRD70 NOSIG"
"1:30 PM EEST on August 28, 2016","2016","08","28","13","30","Europe/Kiev","10:30 AM GMT on August 28, 2016","2016","08","28","10","30","UTC","30.0","86.0","16.0","60.8","43","7.2","4.5","-9999.0","-9999.0","50","NE","-9999.0","-9999.0","1021","30.15","-999","-999","30.1","86.1","-9999.00","-9999.00","Clear","clear","0","0","0","0","0","0","METAR UKKK 281030Z 05002MPS 340V110 CAVOK 30/16 Q1021 R26/CLRD70 NOSIG"
"2:00 PM EEST on August 28, 2016","2016","08","28","14","00","Europe/Kiev","11:00 AM GMT on August 28, 2016","2016","08","28","11","00","UTC","30.0","86.0","15.0","59.0","40","7.2","4.5","-9999.0","-9999.0","120","ESE","-9999.0","-9999.0","1021","30.15","-999","-999","29.7","85.4","-9999.00","-9999.00","Clear","clear","0","0","0","0","0","0","METAR UKKK 281100Z 12002MPS 040V170 CAVOK 30/15 Q1021 R26/CLRD70 NOSIG"
"2:30 PM EEST on August 28, 2016","2016","08","28","14","30","Europe/Kiev","11:30 AM GMT on August 28, 2016","2016","08","28","11","30","UTC","30.0","86.0","15.0","59.0","40","7.2","4.5","-9999.0","-9999.0","260","West","-9999.0","-9999.0","1021","30.15","-999","-999","29.7","85.4","-9999.00","-9999.00","Clear","clear","0","0","0","0","0","0","METAR UKKK 281130Z 26002MPS 170V330 CAVOK 30/15 Q1021 R26/CLRD70 NOSIG"
"3:00 PM EEST on August 28, 2016","2016","08","28","15","00","Europe/Kiev","12:00 PM GMT on August 28, 2016","2016","08","28","12","00","UTC","31","88","12","53","21","7.2","4.5","","","130","SE","20","12","1020","30.12","-999","-999","-9999","-9999","","","","","0","0","0","0","0","0","AAXX 28121 33345 32998 01302 10312 20118 30011 40200 57010 555 10047"
"3:00 PM EEST on August 28, 2016","2016","08","28","15","00","Europe/Kiev","12:00 PM GMT on August 28, 2016","2016","08","28","12","00","UTC","30.0","86.0","14.0","57.2","37","7.2","4.5","-9999.0","-9999.0","330","NNW","-9999.0","-9999.0","1021","30.15","-999","-999","29.4","84.9","-9999.00","-9999.00","Clear","clear","0","0","0","0","0","0","METAR UKKK 281200Z 33002MPS 230V030 CAVOK 30/14 Q1021 R26/CLRD70 NOSIG"
"3:30 PM EEST on August 28, 2016","2016","08","28","15","30","Europe/Kiev","12:30 PM GMT on August 28, 2016","2016","08","28","12","30","UTC","31.0","87.8","15.0","59.0","38","7.2","4.5","-9999.0","-9999.0","90","East","-9999.0","-9999.0","1020","30.12","-999","-999","30.6","87.1","-9999.00","-9999.00","Clear","clear","0","0","0","0","0","0","METAR UKKK 281230Z 09002MPS CAVOK 31/15 Q1020 WS RWY26 R26/CLRD70 NOSIG"
"4:00 PM EEST on August 28, 2016","2016","08","28","16","00","Europe/Kiev","1:00 PM GMT on August 28, 2016","2016","08","28","13","00","UTC","31.0","87.8","14.0","57.2","35","7.2","4.5","-9999.0","-9999.0","120","ESE","-9999.0","-9999.0","1020","30.12","-999","-999","30.3","86.5","-9999.00","-9999.00","Clear","clear","0","0","0","0","0","0","METAR UKKK 281300Z 12002MPS CAVOK 31/14 Q1020 R26/CLRD70 NOSIG"
"4:30 PM EEST on August 28, 2016","2016","08","28","16","30","Europe/Kiev","1:30 PM GMT on August 28, 2016","2016","08","28","13","30","UTC","31.0","87.8","14.0","57.2","35","10.8","6.7","-9999.0","-9999.0","170","South","-9999.0","-9999.0","1020","30.12","-999","-999","30.3","86.5","-9999.00","-9999.00","Clear","clear","0","0","0","0","0","0","METAR UKKK 281330Z 17003MPS CAVOK 31/14 Q1020 R26/CLRD70 NOSIG"
"5:00 PM EEST on August 28, 2016","2016","08","28","17","00","Europe/Kiev","2:00 PM GMT on August 28, 2016","2016","08","28","14","00","UTC","31.0","87.8","13.0","55.4","33","7.2","4.5","-9999.0","-9999.0","130","SE","-9999.0","-9999.0","1020","30.12","-999","-999","30.0","86.1","-9999.00","-9999.00","Clear","clear","0","0","0","0","0","0","METAR UKKK 281400Z 13002MPS CAVOK 31/13 Q1020 R26/CLRD70 NOSIG"
"5:30 PM EEST on August 28, 2016","2016","08","28","17","30","Europe/Kiev","2:30 PM GMT on August 28, 2016","2016","08","28","14","30","UTC","30.0","86.0","13.0","55.4","35","7.2","4.5","-9999.0","-9999.0","120","ESE","-9999.0","-9999.0","1019","30.09","-999","-999","29.2","84.5","-9999.00","-9999.00","Clear","clear","0","0","0","0","0","0","METAR UKKK 281430Z 12002MPS 090V160 CAVOK 30/13 Q1019 R08/CLRD70 NOSIG"
"6:00 PM EEST on August 28, 2016","2016","08","28","18","00","Europe/Kiev","3:00 PM GMT on August 28, 2016","2016","08","28","15","00","UTC","31","87","12","54","23","3.6","2.2","","","190","South","20","12","1019","30.08","-999","-999","-9999","-9999","","","","","0","0","0","0","0","0","AAXX 28151 33345 42998 01901 10308 20124 39997 40186 57014 555 10036"
"6:00 PM EEST on August 28, 2016","2016","08","28","18","00","Europe/Kiev","3:00 PM GMT on August 28, 2016","2016","08","28","15","00","UTC","30.0","86.0","13.0","55.4","35","7.2","4.5","-9999.0","-9999.0","140","SE","-9999.0","-9999.0","1019","30.09","-999","-999","29.2","84.5","-9999.00","-9999.00","Clear","clear","0","0","0","0","0","0","METAR UKKK 281500Z 14002MPS CAVOK 30/13 Q1019 R08/CLRD70 NOSIG"
"6:30 PM EEST on August 28, 2016","2016","08","28","18","30","Europe/Kiev","3:30 PM GMT on August 28, 2016","2016","08","28","15","30","UTC","30.0","86.0","14.0","57.2","37","3.6","2.2","-9999.0","-9999.0","0","Variable","-9999.0","-9999.0","1019","30.09","-999","-999","29.4","84.9","-9999.00","-9999.00","Clear","clear","0","0","0","0","0","0","METAR UKKK 281530Z VRB01MPS CAVOK 30/14 Q1019 R08/CLRD70 NOSIG"
"7:00 PM EEST on August 28, 2016","2016","08","28","19","00","Europe/Kiev","4:00 PM GMT on August 28, 2016","2016","08","28","16","00","UTC","29.0","84.2","13.0","55.4","37","7.2","4.5","-9999.0","-9999.0","140","SE","-9999.0","-9999.0","1019","30.09","-999","-999","28.4","83.0","-9999.00","-9999.00","Clear","clear","0","0","0","0","0","0","METAR UKKK 281600Z 14002MPS CAVOK 29/13 Q1019 R08/CLRD70 NOSIG"
"7:30 PM EEST on August 28, 2016","2016","08","28","19","30","Europe/Kiev","4:30 PM GMT on August 28, 2016","2016","08","28","16","30","UTC","27.0","80.6","14.0","57.2","45","7.2","4.5","-9999.0","-9999.0","120","ESE","-9999.0","-9999.0","1019","30.09","-999","-999","27.1","80.8","-9999.00","-9999.00","Clear","clear","0","0","0","0","0","0","METAR UKKK 281630Z 12002MPS CAVOK 27/14 Q1019 R08/CLRD70 NOSIG"
"8:00 PM EEST on August 28, 2016","2016","08","28","20","00","Europe/Kiev","5:00 PM GMT on August 28, 2016","2016","08","28","17","00","UTC","25.0","77.0","13.0","55.4","47","7.2","4.5","-9999.0","-9999.0","140","SE","-9999.0","-9999.0","1019","30.09","-999","-999","-9999","-9999","-9999.00","-9999.00","Clear","clear","0","0","0","0","0","0","METAR UKKK 281700Z 14002MPS CAVOK 25/13 Q1019 R08/CLRD70 NOSIG"
"8:30 PM EEST on August 28, 2016","2016","08","28","20","30","Europe/Kiev","5:30 PM GMT on August 28, 2016","2016","08","28","17","30","UTC","22.0","71.6","14.0","57.2","60","0.0","0.0","-9999.0","-9999.0","0","North","-9999.0","-9999.0","1019","30.09","-999","-999","-9999","-9999","-9999.00","-9999.00","Clear","clear","0","0","0","0","0","0","METAR UKKK 281730Z 00000MPS CAVOK 22/14 Q1019 R08/CLRD70 NOSIG"
"9:00 PM EEST on August 28, 2016","2016","08","28","21","00","Europe/Kiev","6:00 PM GMT on August 28, 2016","2016","08","28","18","00","UTC","24","75","12","54","38","7.2","4.5","","","200","SSW","20","12","1019","30.10","-999","-999","-9999","-9999","","","","","0","0","0","0","0","0","AAXX 28181 33345 32998 02002 10240 20125 39998 40191 53001 333 10323 555 10022"
"9:00 PM EEST on August 28, 2016","2016","08","28","21","00","Europe/Kiev","6:00 PM GMT on August 28, 2016","2016","08","28","18","00","UTC","21.0","69.8","14.0","57.2","64","0.0","0.0","-9999.0","-9999.0","0","North","-9999.0","-9999.0","1019","30.09","-999","-999","-9999","-9999","-9999.00","-9999.00","Clear","clear","0","0","0","0","0","0","METAR UKKK 281800Z 00000MPS CAVOK 21/14 Q1019 R08/CLRD70 NOSIG"
"9:30 PM EEST on August 28, 2016","2016","08","28","21","30","Europe/Kiev","6:30 PM GMT on August 28, 2016","2016","08","28","18","30","UTC","20.0","68.0","14.0","57.2","68","0.0","0.0","-9999.0","-9999.0","0","North","-9999.0","-9999.0","1019","30.09","-999","-999","-9999","-9999","-9999.00","-9999.00","Clear","clear","0","0","0","0","0","0","METAR UKKK 281830Z 00000MPS CAVOK 20/14 Q1019 R08/CLRD70 NOSIG"
"10:00 PM EEST on August 28, 2016","2016","08","28","22","00","Europe/Kiev","7:00 PM GMT on August 28, 2016","2016","08","28","19","00","UTC","20.0","68.0","13.0","55.4","64","0.0","0.0","-9999.0","-9999.0","0","North","-9999.0","-9999.0","1019","30.09","-999","-999","-9999","-9999","-9999.00","-9999.00","Clear","clear","0","0","0","0","0","0","METAR UKKK 281900Z 00000MPS CAVOK 20/13 Q1019 R08/CLRD70 NOSIG"
"10:30 PM EEST on August 28, 2016","2016","08","28","22","30","Europe/Kiev","7:30 PM GMT on August 28, 2016","2016","08","28","19","30","UTC","20.0","68.0","13.0","55.4","64","3.6","2.2","-9999.0","-9999.0","0","Variable","-9999.0","-9999.0","1019","30.09","-999","-999","-9999","-9999","-9999.00","-9999.00","Clear","clear","0","0","0","0","0","0","METAR UKKK 281930Z VRB01MPS CAVOK 20/13 Q1019 R08/CLRD70 NOSIG"
"11:00 PM EEST on August 28, 2016","2016","08","28","23","00","Europe/Kiev","8:00 PM GMT on August 28, 2016","2016","08","28","20","00","UTC","19.0","66.2","14.0","57.2","73","0.0","0.0","-9999.0","-9999.0","0","North","-9999.0","-9999.0","1019","30.09","-999","-999","-9999","-9999","-9999.00","-9999.00","Clear","clear","0","0","0","0","0","0","METAR UKKK 282000Z 00000MPS CAVOK 19/14 Q1019 R08/CLRD70 NOSIG"
"11:30 PM EEST on August 28, 2016","2016","08","28","23","30","Europe/Kiev","8:30 PM GMT on August 28, 2016","2016","08","28","20","30","UTC","18.0","64.4","14.0","57.2","77","0.0","0.0","-9999.0","-9999.0","0","North","-9999.0","-9999.0","1019","30.09","-999","-999","-9999","-9999","-9999.00","-9999.00","Clear","clear","0","0","0","0","0","0","METAR UKKK 282030Z 00000MPS CAVOK 18/14 Q1019 R08/CLRD70 NOSIG"
"12:00 AM EEST on August 29, 2016","2016","08","29","00","00","Europe/Kiev","9:00 PM GMT on August 28, 2016","2016","08","28","21","00","UTC","22","72","13","56","47","3.6","2.2","","","210","SSW","20","12","1019","30.09","-999","-999","-9999","-9999","","","","","0","0","0","0","0","0","AAXX 28211 33345 42998 02101 10223 20133 39996 40190 58002 555 10019"
"12:00 AM EEST on August 29, 2016","2016","08","29","00","00","Europe/Kiev","9:00 PM GMT on August 28, 2016","2016","08","28","21","00","UTC","19.0","66.2","14.0","57.2","73","0.0","0.0","-9999.0","-9999.0","0","North","-9999.0","-9999.0","1019","30.09","-999","-999","-9999","-9999","-9999.00","-9999.00","Clear","clear","0","0","0","0","0","0","METAR UKKK 282100Z 00000MPS CAVOK 19/14 Q1019 R08/CLRD70 NOSIG"
"12:30 AM EEST on August 29, 2016","2016","08","29","00","30","Europe/Kiev","9:30 PM GMT on August 28, 2016","2016","08","28","21","30","UTC","17.0","62.6","14.0","57.2","82","0.0","0.0","-9999.0","-9999.0","0","North","-9999.0","-9999.0","1019","30.09","-999","-999","-9999","-9999","-9999.00","-9999.00","Clear","clear","0","0","0","0","0","0","METAR UKKK 282130Z 00000MPS CAVOK 17/14 Q1019 R08/CLRD70 NOSIG"
"1:00 AM EEST on August 29, 2016","2016","08","29","01","00","Europe/Kiev","10:00 PM GMT on August 28, 2016","2016","08","28","22","00","UTC","17.0","62.6","13.0","55.4","77","0.0","0.0","-9999.0","-9999.0","0","North","-9999.0","-9999.0","1019","30.09","-999","-999","-9999","-9999","-9999.00","-9999.00","Clear","clear","0","0","0","0","0","0","METAR UKKK 282200Z 00000MPS CAVOK 17/13 Q1019 R08/CLRD70 NOSIG"
"1:30 AM EEST on August 29, 2016","2016","08","29","01","30","Europe/Kiev","10:30 PM GMT on August 28, 2016","2016","08","28","22","30","UTC","17.0","62.6","13.0","55.4","77","0.0","0.0","-9999.0","-9999.0","0","North","-9999.0","-9999.0","1019","30.09","-999","-999","-9999","-9999","-9999.00","-9999.00","Clear","clear","0","0","0","0","0","0","METAR UKKK 282230Z 00000MPS CAVOK 17/13 Q1019 R08/CLRD70 NOSIG"
"2:00 AM EEST on August 29, 2016","2016","08","29","02","00","Europe/Kiev","11:00 PM GMT on August 28, 2016","2016","08","28","23","00","UTC","16.0","60.8","13.0","55.4","82","0.0","0.0","-9999.0","-9999.0","0","North","-9999.0","-9999.0","1019","30.09","-999","-999","-9999","-9999","-9999.00","-9999.00","Clear","clear","0","0","0","0","0","0","METAR UKKK 282300Z 00000MPS CAVOK 16/13 Q1019 R08/CLRD70 NOSIG"
"2:30 AM EEST on August 29, 2016","2016","08","29","02","30","Europe/Kiev","11:30 PM GMT on August 28, 2016","2016","08","28","23","30","UTC","16.0","60.8","13.0","55.4","82","0.0","0.0","-9999.0","-9999.0","0","North","-9999.0","-9999.0","1019","30.09","-999","-999","-9999","-9999","-9999.00","-9999.00","Clear","clear","0","0","0","0","0","0","METAR UKKK 282330Z 00000MPS CAVOK 16/13 Q1019 R08/CLRD70 NOSIG"
"3:00 AM EEST on August 29, 2016","2016","08","29","03","00","Europe/Kiev","12:00 AM GMT on August 29, 2016","2016","08","29","00","00","UTC","19","67","13","55","56","0.0","0.0","","","","","20","12","1019","30.09","-999","-999","-9999","-9999","","","","","0","0","0","0","0","0","AAXX 29001 33345 32998 00000 10192 20128 39993 40189 57003 555 10016"
"3:00 AM EEST on August 29, 2016","2016","08","29","03","00","Europe/Kiev","12:00 AM GMT on August 29, 2016","2016","08","29","00","00","UTC","15.0","59.0","13.0","55.4","88","0.0","0.0","-9999.0","-9999.0","0","North","-9999.0","-9999.0","1019","30.09","-999","-999","-9999","-9999","-9999.00","-9999.00","Clear","clear","0","0","0","0","0","0","METAR UKKK 290000Z 00000MPS CAVOK 15/13 Q1019 R08/CLRD70 NOSIG"
"3:30 AM EEST on August 29, 2016","2016","08","29","03","30","Europe/Kiev","12:30 AM GMT on August 29, 2016","2016","08","29","00","30","UTC","16.0","60.8","13.0","55.4","82","0.0","0.0","-9999.0","-9999.0","0","North","-9999.0","-9999.0","1019","30.09","-999","-999","-9999","-9999","-9999.00","-9999.00","Clear","clear","0","0","0","0","0","0","METAR UKKK 290030Z 00000MPS CAVOK 16/13 Q1019 R08/CLRD70 NOSIG"
"4:00 AM EEST on August 29, 2016","2016","08","29","04","00","Europe/Kiev","1:00 AM GMT on August 29, 2016","2016","08","29","01","00","UTC","15.0","59.0","13.0","55.4","88","0.0","0.0","-9999.0","-9999.0","0","North","-9999.0","-9999.0","1019","30.09","-999","-999","-9999","-9999","-9999.00","-9999.00","Clear","clear","0","0","0","0","0","0","METAR UKKK 290100Z 00000MPS CAVOK 15/13 Q1019 R08/CLRD70 NOSIG"
"4:30 AM EEST on August 29, 2016","2016","08","29","04","30","Europe/Kiev","1:30 AM GMT on August 29, 2016","2016","08","29","01","30","UTC","15.0","59.0","13.0","55.4","88","0.0","0.0","-9999.0","-9999.0","0","North","-9999.0","-9999.0","1019","30.09","-999","-999","-9999","-9999","-9999.00","-9999.00","Clear","clear","0","0","0","0","0","0","METAR UKKK 290130Z 00000MPS CAVOK 15/13 Q1019 R08/CLRD70 NOSIG"
"5:00 AM EEST on August 29, 2016","2016","08","29","05","00","Europe/Kiev","2:00 AM GMT on August 29, 2016","2016","08","29","02","00","UTC","15.0","59.0","13.0","55.4","88","0.0","0.0","-9999.0","-9999.0","0","North","-9999.0","-9999.0","1019","30.09","-999","-999","-9999","-9999","-9999.00","-9999.00","Clear","clear","0","0","0","0","0","0","METAR UKKK 290200Z 00000MPS CAVOK 15/13 Q1019 R08/CLRD70 NOSIG"
"5:30 AM EEST on August 29, 2016","2016","08","29","05","30","Europe/Kiev","2:30 AM GMT on August 29, 2016","2016","08","29","02","30","UTC","14.0","57.2","12.0","53.6","88","0.0","0.0","-9999.0","-9999.0","0","North","-9999.0","-9999.0","1018","30.06","-999","-999","-9999","-9999","-9999.00","-9999.00","Clear","clear","0","0","0","0","0","0","METAR UKKK 290230Z 00000MPS CAVOK 14/12 Q1018 R08/CLRD70 NOSIG"
"6:00 AM EEST on August 29, 2016","2016","08","29","06","00","Europe/Kiev","3:00 AM GMT on August 29, 2016","2016","08","29","03","00","UTC","18","65","13","55","61","0.0","0.0","","","","","20","12","1019","30.08","-999","-999","-9999","-9999","","","","","0","0","0","0","0","0","AAXX 29031 33345 42998 00000 10182 20127 39989 40186 57004 555 10015"
"6:00 AM EEST on August 29, 2016","2016","08","29","06","00","Europe/Kiev","3:00 AM GMT on August 29, 2016","2016","08","29","03","00","UTC","15.0","59.0","13.0","55.4","88","0.0","0.0","-9999.0","-9999.0","0","North","-9999.0","-9999.0","1019","30.09","-999","-999","-9999","-9999","-9999.00","-9999.00","Clear","clear","0","0","0","0","0","0","METAR UKKK 290300Z 00000MPS CAVOK 15/13 Q1019 R08/CLRD70 NOSIG"
"6:30 AM EEST on August 29, 2016","2016","08","29","06","30","Europe/Kiev","3:30 AM GMT on August 29, 2016","2016","08","29","03","30","UTC","14.0","57.2","13.0","55.4","94","0.0","0.0","-9999.0","-9999.0","0","North","-9999.0","-9999.0","1019","30.09","-999","-999","-9999","-9999","-9999.00","-9999.00","Clear","clear","0","0","0","0","0","0","METAR UKKK 290330Z 00000MPS CAVOK 14/13 Q1019 R08/CLRD70 NOSIG"
"7:00 AM EEST on August 29, 2016","2016","08","29","07","00","Europe/Kiev","4:00 AM GMT on August 29, 2016","2016","08","29","04","00","UTC","17.0","62.6","14.0","57.2","82","0.0","0.0","-9999.0","-9999.0","0","North","-9999.0","-9999.0","1019","30.09","-999","-999","-9999","-9999","-9999.00","-9999.00","Clear","clear","0","0","0","0","0","0","METAR UKKK 290400Z 00000MPS CAVOK 17/14 Q1019 R08/CLRD70 NOSIG"
"7:30 AM EEST on August 29, 2016","2016","08","29","07","30","Europe/Kiev","4:30 AM GMT on August 29, 2016","2016","08","29","04","30","UTC","18.0","64.4","16.0","60.8","88","3.6","2.2","-9999.0","-9999.0","210","SSW","9.0","5.6","1018","30.06","-999","-999","-9999","-9999","-9999.00","-9999.00","Clear","clear","0","0","0","0","0","0","METAR UKKK 290430Z 21001MPS 9000 SKC 18/16 Q1018 R08/CLRD70 NOSIG"
"8:00 AM EEST on August 29, 2016","2016","08","29","08","00","Europe/Kiev","5:00 AM GMT on August 29, 2016","2016","08","29","05","00","UTC","21.0","69.8","16.0","60.8","73","0.0","0.0","-9999.0","-9999.0","0","North","-9999.0","-9999.0","1018","30.06","-999","-999","-9999","-9999","-9999.00","-9999.00","Clear","clear","0","0","0","0","0","0","METAR UKKK 290500Z 00000MPS CAVOK 21/16 Q1018 R08/CLRD70 NOSIG"
"8:30 AM EEST on August 29, 2016","2016","08","29","08","30","Europe/Kiev","5:30 AM GMT on August 29, 2016","2016","08","29","05","30","UTC","23.0","73.4","15.0","59.0","61","7.2","4.5","-9999.0","-9999.0","190","South","-9999.0","-9999.0","1018","30.06","-999","-999","-9999","-9999","-9999.00","-9999.00","Clear","clear","0","0","0","0","0","0","METAR UKKK 290530Z 19002MPS 130V240 CAVOK 23/15 Q1018 R08/CLRD70 NOSIG"
"9:00 AM EEST on August 29, 2016","2016","08","29","09","00","Europe/Kiev","6:00 AM GMT on August 29, 2016","2016","08","29","06","00","UTC","24","74","14","58","47","7.2","4.5","","","200","SSW","20","12","1018","30.07","-999","-999","-9999","-9999","","","","","0","0","0","0","0","0","AAXX 29061 33345 32998 02002 10236 20143 39988 40181 56001 333 20177 555 10027"
"9:00 AM EEST on August 29, 2016","2016","08","29","09","00","Europe/Kiev","6:00 AM GMT on August 29, 2016","2016","08","29","06","00","UTC","24.0","75.2","15.0","59.0","57","7.2","4.5","-9999.0","-9999.0","190","South","-9999.0","-9999.0","1018","30.06","-999","-999","-9999","-9999","-9999.00","-9999.00","Clear","clear","0","0","0","0","0","0","METAR UKKK 290600Z 19002MPS 140V250 CAVOK 24/15 Q1018 R08/CLRD70 NOSIG"
"9:30 AM EEST on August 29, 2016","2016","08","29","09","30","Europe/Kiev","6:30 AM GMT on August 29, 2016","2016","08","29","06","30","UTC","25.0","77.0","15.0","59.0","54","7.2","4.5","-9999.0","-9999.0","180","South","-9999.0","-9999.0","1018","30.06","-999","-999","-9999","-9999","-9999.00","-9999.00","Clear","clear","0","0","0","0","0","0","METAR UKKK 290630Z 18002MPS 140V240 CAVOK 25/15 Q1018 R08/CLRD70 NOSIG"
"10:00 AM EEST on August 29, 2016","2016","08","29","10","00","Europe/Kiev","7:00 AM GMT on August 29, 2016","2016","08","29","07","00","UTC","26.0","78.8","15.0","59.0","51","10.8","6.7","-9999.0","-9999.0","190","South","-9999.0","-9999.0","1018","30.06","-999","-999","-9999","-9999","-9999.00","-9999.00","Clear","clear","0","0","0","0","0","0","METAR UKKK 290700Z 19003MPS 130V230 CAVOK 26/15 Q1018 R08/CLRD70 NOSIG"
"10:30 AM EEST on August 29, 2016","2016","08","29","10","30","Europe/Kiev","7:30 AM GMT on August 29, 2016","2016","08","29","07","30","UTC","27.0","80.6","15.0","59.0","48","10.8","6.7","-9999.0","-9999.0","190","South","9.0","5.6","1018","30.06","-999","-999","27.3","81.1","-9999.00","-9999.00","Clear","clear","0","0","0","0","0","0","METAR UKKK 290730Z 19003MPS 140V230 9000 SKC 27/15 Q1018 R08/CLRD70 NOSIG"
"11:00 AM EEST on August 29, 2016","2016","08","29","11","00","Europe/Kiev","8:00 AM GMT on August 29, 2016","2016","08","29","08","00","UTC","28.0","82.4","15.0","59.0","45","10.8","6.7","-9999.0","-9999.0","200","SSW","-9999.0","-9999.0","1018","30.06","-999","-999","28.0","82.5","-9999.00","-9999.00","Clear","clear","0","0","0","0","0","0","METAR UKKK 290800Z 20003MPS 140V270 CAVOK 28/15 Q1018 R08/CLRD70 NOSIG"
"11:30 AM EEST on August 29, 2016","2016","08","29","11","30","Europe/Kiev","8:30 AM GMT on August 29, 2016","2016","08","29","08","30","UTC","29.0","84.2","15.0","59.0","42","10.8","6.7","-9999.0","-9999.0","180","South","-9999.0","-9999.0","1018","30.06","-999","-999","28.8","83.8","-9999.00","-9999.00","Clear","clear","0","0","0","0","0","0","METAR UKKK 290830Z 18003MPS 090V260 CAVOK 29/15 Q1018 R08/CLRD70 NOSIG"
"12:00 PM EEST on August 29, 2016","2016","08","29","12","00","Europe/Kiev","9:00 AM GMT on August 29, 2016","2016","08","29","09","00","UTC","30","85","15","59","31","10.8","6.7","","","180","South","20","12","1017","30.03","-999","-999","-9999","-9999","","","","","0","0","0","0","0","0","AAXX 29091 33345 42998 01803 10295 20150 39979 40168 58009 555 10043"
"12:00 PM EEST on August 29, 2016","2016","08","29","12","00","Europe/Kiev","9:00 AM GMT on August 29, 2016","2016","08","29","09","00","UTC","29.0","84.2","15.0","59.0","42","10.8","6.7","-9999.0","-9999.0","180","South","-9999.0","-9999.0","1017","30.04","-999","-999","28.8","83.8","-9999.00","-9999.00","Clear","clear","0","0","0","0","0","0","METAR UKKK 290900Z 18003MPS 110V250 CAVOK 29/15 Q1017 R08/CLRD70 NOSIG"
"12:30 PM EEST on August 29, 2016","2016","08","29","12","30","Europe/Kiev","9:30 AM GMT on August 29, 2016","2016","08","29","09","30","UTC","30.0","86.0","14.0","57.2","37","18.0","11.2","-9999.0","-9999.0","140","SE","-9999.0","-9999.0","1017","30.04","-999","-999","29.4","84.9","-9999.00","-9999.00","Clear","clear","0","0","0","0","0","0","METAR UKKK 290930Z 14005MPS 100V170 CAVOK 30/14 Q1017 R08/CLRD70 NOSIG"
"1:00 PM EEST on August 29, 2016","2016","08","29","13","00","Europe/Kiev","10:00 AM GMT on August 29, 2016","2016","08","29","10","00","UTC","30.0","86.0","14.0","57.2","37","14.4","8.9","-9999.0","-9999.0","180","South","-9999.0","-9999.0","1017","30.04","-999","-999","29.4","84.9","-9999.00","-9999.00","Clear","clear","0","0","0","0","0","0","METAR UKKK 291000Z 18004MPS 130V230 CAVOK 30/14 Q1017 R08/CLRD70 NOSIG"
"1:30 PM EEST on August 29, 2016","2016","08","29","13","30","Europe/Kiev","10:30 AM GMT on August 29, 2016","2016","08","29","10","30","UTC","31.0","87.8","13.0","55.4","33","10.8","6.7","-9999.0","-9999.0","150","SSE","-9999.0","-9999.0","1017","30.04","-999","-999","30.0","86.1","-9999.00","-9999.00","Clear","clear","0","0","0","0","0","0","METAR UKKK 291030Z 15003MPS CAVOK 31/13 Q1017 R08/CLRD70 NOSIG"
"2:00 PM EEST on August 29, 2016","2016","08","29","14","00","Europe/Kiev","11:00 AM GMT on August 29, 2016","2016","08","29","11","00","UTC","31.0","87.8","14.0","57.2","35","7.2","4.5","-9999.0","-9999.0","170","South","-9999.0","-9999.0","1017","30.04","-999","-999","30.3","86.5","-9999.00","-9999.00","Clear","clear","0","0","0","0","0","0","METAR UKKK 291100Z 17002MPS 100V250 CAVOK 31/14 Q1017 R08/CLRD70 NOSIG"
"2:30 PM EEST on August 29, 2016","2016","08","29","14","30","Europe/Kiev","11:30 AM GMT on August 29, 2016","2016","08","29","11","30","UTC","31.0","87.8","13.0","55.4","33","10.8","6.7","-9999.0","-9999.0","190","South","-9999.0","-9999.0","1016","30.01","-999","-999","30.0","86.1","-9999.00","-9999.00","Clear","clear","0","0","0","0","0","0","METAR UKKK 291130Z 19003MPS 120V270 CAVOK 31/13 Q1016 R08/CLRD70 NOSIG"
"3:00 PM EEST on August 29, 2016","2016","08","29","15","00","Europe/Kiev","12:00 PM GMT on August 29, 2016","2016","08","29","12","00","UTC","32","89","14","57","23","7.2","4.5","","","170","South","20","12","1015","29.99","-999","-999","-9999","-9999","","","","","0","0","0","0","0","0","AAXX 29121 33345 32998 01702 10318 20137 39966 40153 57013 555 10047"
"3:00 PM EEST on August 29, 2016","2016","08","29","15","00","Europe/Kiev","12:00 PM GMT on August 29, 2016","2016","08","29","12","00","UTC","31.0","87.8","13.0","55.4","33","10.8","6.7","-9999.0","-9999.0","130","SE","-9999.0","-9999.0","1016","30.01","-999","-999","30.0","86.1","-9999.00","-9999.00","Clear","clear","0","0","0","0","0","0","METAR UKKK 291200Z 13003MPS 090V170 CAVOK 31/13 Q1016 R08/CLRD70 NOSIG"
"3:30 PM EEST on August 29, 2016","2016","08","29","15","30","Europe/Kiev","12:30 PM GMT on August 29, 2016","2016","08","29","12","30","UTC","31.0","87.8","13.0","55.4","33","10.8","6.7","-9999.0","-9999.0","190","South","-9999.0","-9999.0","1016","30.01","-999","-999","30.0","86.1","-9999.00","-9999.00","Clear","clear","0","0","0","0","0","0","METAR UKKK 291230Z 19003MPS 130V250 CAVOK 31/13 Q1016 R08/CLRD70 NOSIG"
"4:00 PM EEST on August 29, 2016","2016","08","29","16","00","Europe/Kiev","1:00 PM GMT on August 29, 2016","2016","08","29","13","00","UTC","31.0","87.8","12.0","53.6","31","14.4","8.9","-9999.0","-9999.0","180","South","-9999.0","-9999.0","1016","30.01","-999","-999","29.8","85.7","-9999.00","-9999.00","Clear","clear","0","0","0","0","0","0","METAR UKKK 291300Z 18004MPS 120V240 CAVOK 31/12 Q1016 R08/CLRD70 NOSIG"
"4:30 PM EEST on August 29, 2016","2016","08","29","16","30","Europe/Kiev","1:30 PM GMT on August 29, 2016","2016","08","29","13","30","UTC","31.0","87.8","12.0","53.6","31","10.8","6.7","-9999.0","-9999.0","160","SSE","-9999.0","-9999.0","1015","29.98","-999","-999","29.8","85.7","-9999.00","-9999.00","Clear","clear","0","0","0","0","0","0","METAR UKKK 291330Z 16003MPS 120V260 CAVOK 31/12 Q1015 R08/CLRD70 NOSIG"
"5:00 PM EEST on August 29, 2016","2016","08","29","17","00","Europe/Kiev","2:00 PM GMT on August 29, 2016","2016","08","29","14","00","UTC","31.0","87.8","12.0","53.6","31","10.8","6.7","-9999.0","-9999.0","150","SSE","-9999.0","-9999.0","1015","29.98","-999","-999","29.8","85.7","-9999.00","-9999.00","Clear","clear","0","0","0","0","0","0","METAR UKKK 291400Z 15003MPS 110V210 CAVOK 31/12 Q1015 R08/CLRD70 NOSIG"
"5:30 PM EEST on August 29, 2016","2016","08","29","17","30","Europe/Kiev","2:30 PM GMT on August 29, 2016","2016","08","29","14","30","UTC","31.0","87.8","12.0","53.6","31","10.8","6.7","-9999.0","-9999.0","150","SSE","-9999.0","-9999.0","1015","29.98","-999","-999","29.8","85.7","-9999.00","-9999.00","Clear","clear","0","0","0","0","0","0","METAR UKKK 291430Z 15003MPS 110V220 CAVOK 31/12 Q1015 R08/CLRD70 NOSIG"
"6:00 PM EEST on August 29, 2016","2016","08","29","18","00","Europe/Kiev","3:00 PM GMT on August 29, 2016","2016","08","29","15","00","UTC","31","87","13","55","24","10.8","6.7","","","180","South","20","12","1014","29.95","-999","-999","-9999","-9999","","","","","0","0","0","0","0","0","AAXX 29151 33345 42998 01803 10308 20129 39952 40140 57014 555 10036"
"6:00 PM EEST on August 29, 2016","2016","08","29","18","00","Europe/Kiev","3:00 PM GMT on August 29, 2016","2016","08","29","15","00","UTC","31.0","87.8","13.0","55.4","33","10.8","6.7","-9999.0","-9999.0","150","SSE","-9999.0","-9999.0","1015","29.98","-999","-999","30.0","86.1","-9999.00","-9999.00","Clear","clear","0","0","0","0","0","0","METAR UKKK 291500Z 15003MPS 110V200 CAVOK 31/13 Q1015 R08/CLRD70 NOSIG"
"6:30 PM EEST on August 29, 2016","2016","08","29","18","30","Europe/Kiev","3:30 PM GMT on August 29, 2016","2016","08","29","15","30","UTC","30.0","86.0","12.0","53.6","33","10.8","6.7","-9999.0","-9999.0","140","SE","-9999.0","-9999.0","1015","29.98","-999","-999","29.0","84.2","-9999.00","-9999.00","Clear","clear","0","0","0","0","0","0","METAR UKKK 291530Z 14003MPS 120V180 CAVOK 30/12 Q1015 R08/CLRD70 NOSIG"
"7:00 PM EEST on August 29, 2016","2016","08","29","19","00","Europe/Kiev","4:00 PM GMT on August 29, 2016","2016","08","29","16","00","UTC","29.0","84.2","14.0","57.2","40","10.8","6.7","-9999.0","-9999.0","120","ESE","-9999.0","-9999.0","1015","29.98","-999","-999","28.6","83.5","-9999.00","-9999.00","Clear","clear","0","0","0","0","0","0","METAR UKKK 291600Z 12003MPS CAVOK 29/14 Q1015 R08/CLRD70 NOSIG"
"7:30 PM EEST on August 29, 2016","2016","08","29","19","30","Europe/Kiev","4:30 PM GMT on August 29, 2016","2016","08","29","16","30","UTC","27.0","80.6","14.0","57.2","45","7.2","4.5","-9999.0","-9999.0","130","SE","-9999.0","-9999.0","1015","29.98","-999","-999","27.1","80.8","-9999.00","-9999.00","Clear","clear","0","0","0","0","0","0","METAR UKKK 291630Z 13002MPS CAVOK 27/14 Q1015 R08/CLRD70 NOSIG"
"8:00 PM EEST on August 29, 2016","2016","08","29","20","00","Europe/Kiev","5:00 PM GMT on August 29, 2016","2016","08","29","17","00","UTC","27.0","80.6","15.0","59.0","48","10.8","6.7","-9999.0","-9999.0","130","SE","-9999.0","-9999.0","1015","29.98","-999","-999","27.3","81.1","-9999.00","-9999.00","Clear","clear","0","0","0","0","0","0","METAR UKKK 291700Z 13003MPS CAVOK 27/15 Q1015 R08/CLRD70 NOSIG"
"8:30 PM EEST on August 29, 2016","2016","08","29","20","30","Europe/Kiev","5:30 PM GMT on August 29, 2016","2016","08","29","17","30","UTC","26.0","78.8","15.0","59.0","51","10.8","6.7","-9999.0","-9999.0","130","SE","-9999.0","-9999.0","1015","29.98","-999","-999","-9999","-9999","-9999.00","-9999.00","Clear","clear","0","0","0","0","0","0","METAR UKKK 291730Z 13003MPS 100V160 CAVOK 26/15 Q1015 R08/CLRD70 NOSIG"
"9:00 PM EEST on August 29, 2016","2016","08","29","21","00","Europe/Kiev","6:00 PM GMT on August 29, 2016","2016","08","29","18","00","UTC","25","78","15","59","43","10.8","6.7","","","200","SSW","20","12","1014","29.96","-999","-999","-9999","-9999","","","","","0","0","0","0","0","0","AAXX 29181 33345 32998 02003 10254 20152 39952 40143 54000 333 10324 555 10023"
"9:00 PM EEST on August 29, 2016","2016","08","29","21","00","Europe/Kiev","6:00 PM GMT on August 29, 2016","2016","08","29","18","00","UTC","26.0","78.8","15.0","59.0","51","10.8","6.7","-9999.0","-9999.0","140","SE","-9999.0","-9999.0","1015","29.98","-999","-999","-9999","-9999","-9999.00","-9999.00","Clear","clear","0","0","0","0","0","0","METAR UKKK 291800Z 14003MPS 110V170 CAVOK 26/15 Q1015 R08/CLRD70 NOSIG"
"9:30 PM EEST on August 29, 2016","2016","08","29","21","30","Europe/Kiev","6:30 PM GMT on August 29, 2016","2016","08","29","18","30","UTC","25.0","77.0","16.0","60.8","57","10.8","6.7","-9999.0","-9999.0","140","SE","-9999.0","-9999.0","1015","29.98","-999","-999","-9999","-9999","-9999.00","-9999.00","Clear","clear","0","0","0","0","0","0","METAR UKKK 291830Z 14003MPS 110V170 CAVOK 25/16 Q1015 R08/CLRD70 NOSIG"
"10:00 PM EEST on August 29, 2016","2016","08","29","22","00","Europe/Kiev","7:00 PM GMT on August 29, 2016","2016","08","29","19","00","UTC","25.0","77.0","15.0","59.0","54","10.8","6.7","-9999.0","-9999.0","150","SSE","-9999.0","-9999.0","1015","29.98","-999","-999","-9999","-9999","-9999.00","-9999.00","Clear","clear","0","0","0","0","0","0","METAR UKKK 291900Z 15003MPS 120V190 CAVOK 25/15 Q1015 R08/CLRD70 NOSIG"
"10:30 PM EEST on August 29, 2016","2016","08","29","22","30","Europe/Kiev","7:30 PM GMT on August 29, 2016","2016","08","29","19","30","UTC","25.0","77.0","15.0","59.0","54","10.8","6.7","-9999.0","-9999.0","150","SSE","-9999.0","-9999.0","1015","29.98","-999","-999","-9999","-9999","-9999.00","-9999.00","Clear","clear","0","0","0","0","0","0","METAR UKKK 291930Z 15003MPS 120V180 CAVOK 25/15 Q1015 R08/CLRD70 NOSIG"
"11:00 PM EEST on August 29, 2016","2016","08","29","23","00","Europe/Kiev","8:00 PM GMT on August 29, 2016","2016","08","29","20","00","UTC","25.0","77.0","15.0","59.0","54","10.8","6.7","-9999.0","-9999.0","160","SSE","-9999.0","-9999.0","1015","29.98","-999","-999","-9999","-9999","-9999.00","-9999.00","Clear","clear","0","0","0","0","0","0","METAR UKKK 292000Z 16003MPS 120V200 CAVOK 25/15 Q1015 R08/CLRD70 NOSIG"
"11:30 PM EEST on August 29, 2016","2016","08","29","23","30","Europe/Kiev","8:30 PM GMT on August 29, 2016","2016","08","29","20","30","UTC","25.0","77.0","15.0","59.0","54","7.2","4.5","-9999.0","-9999.0","160","SSE","-9999.0","-9999.0","1015","29.98","-999","-999","-9999","-9999","-9999.00","-9999.00","Clear","clear","0","0","0","0","0","0","METAR UKKK 292030Z 16002MPS 120V230 CAVOK 25/15 Q1015 R08/CLRD70 NOSIG"
"12:00 AM EEST on August 30, 2016","2016","08","30","00","00","Europe/Kiev","9:00 PM GMT on August 29, 2016","2016","08","29","21","00","UTC","24","75","14","58","45","10.8","6.7","","","200","SSW","20","12","1014","29.96","-999","-999","-9999","-9999","","","","","0","0","0","0","0","0","AAXX 29211 33345 42998 02003 10241 20143 39952 40144 54000 555 10021"
"12:00 AM EEST on August 30, 2016","2016","08","30","00","00","Europe/Kiev","9:00 PM GMT on August 29, 2016","2016","08","29","21","00","UTC","24.0","75.2","14.0","57.2","53","7.2","4.5","-9999.0","-9999.0","190","South","-9999.0","-9999.0","1015","29.98","-999","-999","-9999","-9999","-9999.00","-9999.00","Clear","clear","0","0","0","0","0","0","METAR UKKK 292100Z 19002MPS 140V250 CAVOK 24/14 Q1015 R08/CLRD70 NOSIG"
"12:30 AM EEST on August 30, 2016","2016","08","30","00","30","Europe/Kiev","9:30 PM GMT on August 29, 2016","2016","08","29","21","30","UTC","22.0","71.6","14.0","57.2","60","3.6","2.2","-9999.0","-9999.0","0","Variable","-9999.0","-9999.0","1015","29.98","-999","-999","-9999","-9999","-9999.00","-9999.00","Clear","clear","0","0","0","0","0","0","METAR UKKK 292130Z VRB01MPS CAVOK 22/14 Q1015 R08/CLRD70 NOSIG"
"1:00 AM EEST on August 30, 2016","2016","08","30","01","00","Europe/Kiev","10:00 PM GMT on August 29, 2016","2016","08","29","22","00","UTC","21.0","69.8","15.0","59.0","68","3.6","2.2","-9999.0","-9999.0","220","SW","-9999.0","-9999.0","1015","29.98","-999","-999","-9999","-9999","-9999.00","-9999.00","Clear","clear","0","0","0","0","0","0","METAR UKKK 292200Z 22001MPS CAVOK 21/15 Q1015 R08/CLRD70 NOSIG"
"1:30 AM EEST on August 30, 2016","2016","08","30","01","30","Europe/Kiev","10:30 PM GMT on August 29, 2016","2016","08","29","22","30","UTC","20.0","68.0","15.0","59.0","73","3.6","2.2","-9999.0","-9999.0","0","Variable","-9999.0","-9999.0","1015","29.98","-999","-999","-9999","-9999","-9999.00","-9999.00","Clear","clear","0","0","0","0","0","0","METAR UKKK 292230Z VRB01MPS CAVOK 20/15 Q1015 R08/CLRD70 NOSIG"
"2:00 AM EEST on August 30, 2016","2016","08","30","02","00","Europe/Kiev","11:00 PM GMT on August 29, 2016","2016","08","29","23","00","UTC","19.0","66.2","15.0","59.0","78","3.6","2.2","-9999.0","-9999.0","0","Variable","-9999.0","-9999.0","1015","29.98","-999","-999","-9999","-9999","-9999.00","-9999.00","Clear","clear","0","0","0","0","0","0","METAR UKKK 292300Z VRB01MPS CAVOK 19/15 Q1015 R08/CLRD70 NOSIG"
"2:30 AM EEST on August 30, 2016","2016","08","30","02","30","Europe/Kiev","11:30 PM GMT on August 29, 2016","2016","08","29","23","30","UTC","20.0","68.0","15.0","59.0","73","3.6","2.2","-9999.0","-9999.0","0","Variable","-9999.0","-9999.0","1015","29.98","-999","-999","-9999","-9999","-9999.00","-9999.00","Clear","clear","0","0","0","0","0","0","METAR UKKK 292330Z VRB01MPS CAVOK 20/15 Q1015 R08/CLRD70 NOSIG"
"3:00 AM EEST on August 30, 2016","2016","08","30","03","00","Europe/Kiev","12:00 AM GMT on August 30, 2016","2016","08","30","00","00","UTC","23","73","14","58","49","10.8","6.7","","","190","South","20","12","1014","29.96","-999","-999","-9999","-9999","","","Scattered Clouds","partlycloudy","0","0","0","0","0","0","AAXX 30001 33345 32998 21903 10230 20142 39950 40143 58002 82030 555 10019"
"3:00 AM EEST on August 30, 2016","2016","08","30","03","00","Europe/Kiev","12:00 AM GMT on August 30, 2016","2016","08","30","00","00","UTC","19.0","66.2","15.0","59.0","78","3.6","2.2","-9999.0","-9999.0","0","Variable","-9999.0","-9999.0","1014","29.95","-999","-999","-9999","-9999","-9999.00","-9999.00","Clear","clear","0","0","0","0","0","0","METAR UKKK 300000Z VRB01MPS CAVOK 19/15 Q1014 R08/CLRD70 NOSIG"
"3:30 AM EEST on August 30, 2016","2016","08","30","03","30","Europe/Kiev","12:30 AM GMT on August 30, 2016","2016","08","30","00","30","UTC","21.0","69.8","15.0","59.0","68","3.6","2.2","-9999.0","-9999.0","0","Variable","-9999.0","-9999.0","1014","29.95","-999","-999","-9999","-9999","-9999.00","-9999.00","Clear","clear","0","0","0","0","0","0","METAR UKKK 300030Z VRB01MPS CAVOK 21/15 Q1014 R08/CLRD70 NOSIG"
"4:00 AM EEST on August 30, 2016","2016","08","30","04","00","Europe/Kiev","1:00 AM GMT on August 30, 2016","2016","08","30","01","00","UTC","20.0","68.0","15.0","59.0","73","0.0","0.0","-9999.0","-9999.0","0","North","-9999.0","-9999.0","1014","29.95","-999","-999","-9999","-9999","-9999.00","-9999.00","Clear","clear","0","0","0","0","0","0","METAR UKKK 300100Z 00000MPS CAVOK 20/15 Q1014 R08/CLRD70 NOSIG"
"4:30 AM EEST on August 30, 2016","2016","08","30","04","30","Europe/Kiev","1:30 AM GMT on August 30, 2016","2016","08","30","01","30","UTC","19.0","66.2","14.0","57.2","73","0.0","0.0","-9999.0","-9999.0","0","North","-9999.0","-9999.0","1014","29.95","-999","-999","-9999","-9999","-9999.00","-9999.00","Clear","clear","0","0","0","0","0","0","METAR UKKK 300130Z 00000MPS CAVOK 19/14 Q1014 R08/CLRD70 NOSIG"
"5:00 AM EEST on August 30, 2016","2016","08","30","05","00","Europe/Kiev","2:00 AM GMT on August 30, 2016","2016","08","30","02","00","UTC","20.0","68.0","15.0","59.0","73","3.6","2.2","-9999.0","-9999.0","0","Variable","-9999.0","-9999.0","1013","29.92","-999","-999","-9999","-9999","-9999.00","-9999.00","Clear","clear","0","0","0","0","0","0","METAR UKKK 300200Z VRB01MPS CAVOK 20/15 Q1013 R08/CLRD70 NOSIG"
"5:30 AM EEST on August 30, 2016","2016","08","30","05","30","Europe/Kiev","2:30 AM GMT on August 30, 2016","2016","08","30","02","30","UTC","19.0","66.2","14.0","57.2","73","3.6","2.2","-9999.0","-9999.0","0","Variable","-9999.0","-9999.0","1013","29.92","-999","-999","-9999","-9999","-9999.00","-9999.00","Clear","clear","0","0","0","0","0","0","METAR UKKK 300230Z VRB01MPS CAVOK 19/14 Q1013 R08/CLRD70 NOSIG"
"6:00 AM EEST on August 30, 2016","2016","08","30","06","00","Europe/Kiev","3:00 AM GMT on August 30, 2016","2016","08","30","03","00","UTC","20","67","15","58","67","0.0","0.0","","","","","20","12","1013","29.93","-999","-999","-9999","-9999","","","Scattered Clouds","partlycloudy","0","0","0","0","0","0","AAXX 30031 33345 42998 20000 10196 20147 39939 40134 57011 82080 555 10018"
"6:00 AM EEST on August 30, 2016","2016","08","30","06","00","Europe/Kiev","3:00 AM GMT on August 30, 2016","2016","08","30","03","00","UTC","18.0","64.4","15.0","59.0","83","0.0","0.0","-9999.0","-9999.0","0","North","-9999.0","-9999.0","1013","29.92","-999","-999","-9999","-9999","-9999.00","-9999.00","Clear","clear","0","0","0","0","0","0","METAR UKKK 300300Z 00000MPS CAVOK 18/15 Q1013 R08/CLRD70 NOSIG"
"6:30 AM EEST on August 30, 2016","2016","08","30","06","30","Europe/Kiev","3:30 AM GMT on August 30, 2016","2016","08","30","03","30","UTC","18.0","64.4","15.0","59.0","83","0.0","0.0","-9999.0","-9999.0","0","North","-9999.0","-9999.0","1013","29.92","-999","-999","-9999","-9999","-9999.00","-9999.00","Clear","clear","0","0","0","0","0","0","METAR UKKK 300330Z 00000MPS CAVOK 18/15 Q1013 R08/CLRD70 NOSIG"
"7:00 AM EEST on August 30, 2016","2016","08","30","07","00","Europe/Kiev","4:00 AM GMT on August 30, 2016","2016","08","30","04","00","UTC","19.0","66.2","15.0","59.0","78","0.0","0.0","-9999.0","-9999.0","0","North","-9999.0","-9999.0","1013","29.92","-999","-999","-9999","-9999","-9999.00","-9999.00","Clear","clear","0","0","0","0","0","0","METAR UKKK 300400Z 00000MPS CAVOK 19/15 Q1013 R08/CLRD70 NOSIG"
"7:30 AM EEST on August 30, 2016","2016","08","30","07","30","Europe/Kiev","4:30 AM GMT on August 30, 2016","2016","08","30","04","30","UTC","21.0","69.8","16.0","60.8","73","7.2","4.5","-9999.0","-9999.0","250","WSW","9.0","5.6","1013","29.92","-999","-999","-9999","-9999","-9999.00","-9999.00","Unknown","unknown","0","0","0","0","0","0","METAR UKKK 300430Z 25002MPS 9000 NSC 21/16 Q1013 R26/CLRD70 NOSIG"
"8:00 AM EEST on August 30, 2016","2016","08","30","08","00","Europe/Kiev","5:00 AM GMT on August 30, 2016","2016","08","30","05","00","UTC","22.0","71.6","16.0","60.8","69","3.6","2.2","-9999.0","-9999.0","0","Variable","-9999.0","-9999.0","1013","29.92","-999","-999","-9999","-9999","-9999.00","-9999.00","Clear","clear","0","0","0","0","0","0","METAR UKKK 300500Z VRB01MPS CAVOK 22/16 Q1013 R26/CLRD70 NOSIG"
"8:30 AM EEST on August 30, 2016","2016","08","30","08","30","Europe/Kiev","5:30 AM GMT on August 30, 2016","2016","08","30","05","30","UTC","24.0","75.2","16.0","60.8","61","7.2","4.5","-9999.0","-9999.0","240","WSW","-9999.0","-9999.0","1013","29.92","-999","-999","-9999","-9999","-9999.00","-9999.00","Clear","clear","0","0","0","0","0","0","METAR UKKK 300530Z 24002MPS 200V280 CAVOK 24/16 Q1013 R26/CLRD70 NOSIG"
"9:00 AM EEST on August 30, 2016","2016","08","30","09","00","Europe/Kiev","6:00 AM GMT on August 30, 2016","2016","08","30","06","00","UTC","25","76","16","61","49","3.6","2.2","","","260","West","20","12","1013","29.91","-999","-999","-9999","-9999","","","","","0","0","0","0","0","0","AAXX 30061 33345 32998 02601 10247 20159 39937 40128 57002 333 20190 555 10028"
"9:00 AM EEST on August 30, 2016","2016","08","30","09","00","Europe/Kiev","6:00 AM GMT on August 30, 2016","2016","08","30","06","00","UTC","25.0","77.0","16.0","60.8","57","7.2","4.5","-9999.0","-9999.0","250","WSW","-9999.0","-9999.0","1013","29.92","-999","-999","-9999","-9999","-9999.00","-9999.00","Clear","clear","0","0","0","0","0","0","METAR UKKK 300600Z 25002MPS CAVOK 25/16 Q1013 R26/CLRD70 NOSIG"
"9:30 AM EEST on August 30, 2016","2016","08","30","09","30","Europe/Kiev","6:30 AM GMT on August 30, 2016","2016","08","30","06","30","UTC","26.0","78.8","15.0","59.0","51","10.8","6.7","-9999.0","-9999.0","260","West","-9999.0","-9999.0","1013","29.92","-999","-999","-9999","-9999","-9999.00","-9999.00","Clear","clear","0","0","0","0","0","0","METAR UKKK 300630Z 26003MPS 210V290 CAVOK 26/15 Q1013 R26/CLRD70 NOSIG"
"10:00 AM EEST on August 30, 2016","2016","08","30","10","00","Europe/Kiev","7:00 AM GMT on August 30, 2016","2016","08","30","07","00","UTC","27.0","80.6","16.0","60.8","51","14.4","8.9","-9999.0","-9999.0","270","West","-9999.0","-9999.0","1014","29.95","-999","-999","27.5","81.5","-9999.00","-9999.00","Clear","clear","0","0","0","0","0","0","METAR UKKK 300700Z 27004MPS 240V300 CAVOK 27/16 Q1014 R26/CLRD70 NOSIG"
"10:30 AM EEST on August 30, 2016","2016","08","30","10","30","Europe/Kiev","7:30 AM GMT on August 30, 2016","2016","08","30","07","30","UTC","27.0","80.6","16.0","60.8","51","14.4","8.9","-9999.0","-9999.0","290","WNW","-9999.0","-9999.0","1014","29.95","-999","-999","27.5","81.5","-9999.00","-9999.00","Clear","clear","0","0","0","0","0","0","METAR UKKK 300730Z 29004MPS CAVOK 27/16 Q1014 R26/CLRD70 NOSIG"
"11:00 AM EEST on August 30, 2016","2016","08","30","11","00","Europe/Kiev","8:00 AM GMT on August 30, 2016","2016","08","30","08","00","UTC","27.0","80.6","16.0","60.8","51","18.0","11.2","-9999.0","-9999.0","310","NW","-9999.0","-9999.0","1014","29.95","-999","-999","27.5","81.5","-9999.00","-9999.00","Clear","clear","0","0","0","0","0","0","METAR UKKK 300800Z 31005MPS CAVOK 27/16 Q1014 R26/CLRD70 NOSIG"
"11:30 AM EEST on August 30, 2016","2016","08","30","11","30","Europe/Kiev","8:30 AM GMT on August 30, 2016","2016","08","30","08","30","UTC","27.0","80.6","15.0","59.0","48","14.4","8.9","-9999.0","-9999.0","320","NW","-9999.0","-9999.0","1014","29.95","-999","-999","27.3","81.1","-9999.00","-9999.00","Clear","clear","0","0","0","0","0","0","METAR UKKK 300830Z 32004MPS 280V350 CAVOK 27/15 Q1014 R26/CLRD70 NOSIG"
"12:00 PM EEST on August 30, 2016","2016","08","30","12","00","Europe/Kiev","9:00 AM GMT on August 30, 2016","2016","08","30","09","00","UTC","27","80","14","57","35","10.8","6.7","","","330","NNW","20","12","1014","29.93","-999","-999","-9999","-9999","","","Partly Cloudy","partlycloudy","0","0","0","0","0","0","AAXX 30091 33345 42598 63303 10269 20140 39945 40135 53008 83972 555 10035"
"12:00 PM EEST on August 30, 2016","2016","08","30","12","00","Europe/Kiev","9:00 AM GMT on August 30, 2016","2016","08","30","09","00","UTC","26.0","78.8","16.0","60.8","54","14.4","8.9","-9999.0","-9999.0","300","WNW","10.0","6.2","1014","29.95","-999","-999","-9999","-9999","-9999.00","-9999.00","Mostly Cloudy","mostlycloudy","0","0","0","0","0","0","METAR UKKK 300900Z 30004MPS 9999 FEW033CB BKN100 26/16 Q1014 R26/CLRD70 TEMPO VRB10G15MPS -TSRA BKN025CB"
"12:06 PM EEST on August 30, 2016","2016","08","30","12","06","Europe/Kiev","9:06 AM GMT on August 30, 2016","2016","08","30","09","06","UTC","25.0","77.0","16.0","60.8","57","14.4","8.9","-9999.0","-9999.0","300","WNW","10.0","6.2","1014","29.95","-999","-999","-9999","-9999","-9999.00","-9999.00","Mostly Cloudy","mostlycloudy","0","0","0","0","1","0","SPECI UKKK 300906Z 30004MPS 9999 VCTS SCT033CB BKN100 25/16 Q1014 R26/CLRD70 TEMPO VRB10G15MPS -TSRA BKN025CB"
"12:18 PM EEST on August 30, 2016","2016","08","30","12","18","Europe/Kiev","9:18 AM GMT on August 30, 2016","2016","08","30","09","18","UTC","25.0","77.0","16.0","60.8","57","14.4","8.9","-9999.0","-9999.0","300","WNW","10.0","6.2","1014","29.95","-999","-999","-9999","-9999","-9999.00","-9999.00","Thunderstorm","tstorms","0","0","0","0","1","0","SPECI UKKK 300918Z 30004MPS 9999 TS SCT033CB BKN100 25/16 Q1014 R26/CLRD70 TEMPO VRB10G15MPS -TSRA BKN025CB"
"12:30 PM EEST on August 30, 2016","2016","08","30","12","30","Europe/Kiev","9:30 AM GMT on August 30, 2016","2016","08","30","09","30","UTC","25.0","77.0","16.0","60.8","57","10.8","6.7","-9999.0","-9999.0","270","West","10.0","6.2","1015","29.98","-999","-999","-9999","-9999","-9999.00","-9999.00","Thunderstorm","tstorms","0","0","0","0","1","0","METAR UKKK 300930Z 27003MPS 9999 TS SCT033CB BKN100 25/16 Q1015 R26/CLRD70 TEMPO VRB10G15MPS -TSRA BKN025CB"
"1:00 PM EEST on August 30, 2016","2016","08","30","13","00","Europe/Kiev","10:00 AM GMT on August 30, 2016","2016","08","30","10","00","UTC","24.0","75.2","16.0","60.8","61","14.4","8.9","-9999.0","-9999.0","270","West","10.0","6.2","1015","29.98","-999","-999","-9999","-9999","-9999.00","-9999.00","Thunderstorm","tstorms","0","0","0","0","1","0","METAR UKKK 301000Z 27004MPS 9999 TS SCT033CB BKN100 24/16 Q1015 R26/CLRD70 TEMPO VRB10G15MPS -TSRA BKN025CB"
"1:30 PM EEST on August 30, 2016","2016","08","30","13","30","Europe/Kiev","10:30 AM GMT on August 30, 2016","2016","08","30","10","30","UTC","23.0","73.4","16.0","60.8","65","14.4","8.9","-9999.0","-9999.0","250","WSW","8.0","5.0","1015","29.98","-999","-999","-9999","-9999","-9999.00","-9999.00","Light Thunderstorms and Rain","tstorms","0","1","0","0","1","0","METAR UKKK 301030Z 25004MPS 8000 -TSRA SCT030CB BKN100 23/16 Q1015 R26/CLRD70 TEMPO VRB10G15MPS -TSRA BKN025CB"
"1:42 PM EEST on August 30, 2016","2016","08","30","13","42","Europe/Kiev","10:42 AM GMT on August 30, 2016","2016","08","30","10","42","UTC","21.0","69.8","18.0","64.4","83","10.8","6.7","-9999.0","-9999.0","230","SW","5.0","3.1","1015","29.98","-999","-999","-9999","-9999","-9999.00","-9999.00","Light Rain Showers","rain","0","1","0","0","1","0","SPECI UKKK 301042Z 23003MPS 5000 VCTS -SHRA SCT030CB BKN090 21/18 Q1015 RETS R26/290158 TEMPO VRB10G15MPS -TSRA BKN025CB"
"2:00 PM EEST on August 30, 2016","2016","08","30","14","00","Europe/Kiev","11:00 AM GMT on August 30, 2016","2016","08","30","11","00","UTC","21.0","69.8","18.0","64.4","83","10.8","6.7","-9999.0","-9999.0","270","West","5.0","3.1","1015","29.98","-999","-999","-9999","-9999","-9999.00","-9999.00","Light Rain Showers","rain","0","1","0","0","1","0","METAR UKKK 301100Z 27003MPS 240V300 5000 VCTS -SHRA SCT030CB BKN076 21/18 Q1015 R26/290158 TEMPO VRB10G15MPS -TSRA BKN025CB"
"2:19 PM EEST on August 30, 2016","2016","08","30","14","19","Europe/Kiev","11:19 AM GMT on August 30, 2016","2016","08","30","11","19","UTC","21.0","69.8","19.0","66.2","88","3.6","2.2","-9999.0","-9999.0","0","Variable","5.0","3.1","1015","29.98","-999","-999","-9999","-9999","-9999.00","-9999.00","Light Rain Showers","rain","0","1","0","0","0","0","SPECI UKKK 301119Z VRB01MPS 5000 -SHRA SCT030CB BKN076 21/19 Q1015 R26/290158 TEMPO VRB10G15MPS -TSRA BKN025CB"
"2:30 PM EEST on August 30, 2016","2016","08","30","14","30","Europe/Kiev","11:30 AM GMT on August 30, 2016","2016","08","30","11","30","UTC","21.0","69.8","20.0","68.0","94","0.0","0.0","-9999.0","-9999.0","0","North","7.0","4.3","1015","29.98","-999","-999","-9999","-9999","-9999.00","-9999.00","Light Rain Showers","rain","0","1","0","0","0","0","METAR UKKK 301130Z 00000MPS 7000 -SHRA SCT026CB BKN046 21/20 Q1015 R26/290158 TEMPO VRB10G15MPS -TSRA BKN025CB"
"3:00 PM EEST on August 30, 2016","2016","08","30","15","00","Europe/Kiev","12:00 PM GMT on August 30, 2016","2016","08","30","12","00","UTC","22","72","20","67","80","3.6","2.2","","","330","NNW","20","12","1014","29.95","-999","-999","-9999","-9999","","","Light Thunderstorm","tstorms","0","0","0","0","1","0","AAXX 30121 33345 /1498 73301 10223 20195 39948 40140 51003 72998 85973 555 11025 60021"
"3:00 PM EEST on August 30, 2016","2016","08","30","15","00","Europe/Kiev","12:00 PM GMT on August 30, 2016","2016","08","30","12","00","UTC","23.0","73.4","20.0","68.0","83","10.8","6.7","-9999.0","-9999.0","280","West","9.0","5.6","1015","29.98","-999","-999","-9999","-9999","-9999.00","-9999.00","Mostly Cloudy","mostlycloudy","0","0","0","0","0","0","METAR UKKK 301200Z 28003MPS 9000 SCT046 BKN086 23/20 Q1015 R26/290158 NOSIG"
"3:30 PM EEST on August 30, 2016","2016","08","30","15","30","Europe/Kiev","12:30 PM GMT on August 30, 2016","2016","08","30","12","30","UTC","24.0","75.2","19.0","66.2","73","7.2","4.5","-9999.0","-9999.0","250","WSW","-9999.0","-9999.0","1014","29.95","-999","-999","-9999","-9999","-9999.00","-9999.00","Clear","clear","0","0","0","0","0","0","METAR UKKK 301230Z 25002MPS CAVOK 24/19 Q1014 R26/290158 NOSIG"
"4:00 PM EEST on August 30, 2016","2016","08","30","16","00","Europe/Kiev","1:00 PM GMT on August 30, 2016","2016","08","30","13","00","UTC","27.0","80.6","18.0","64.4","58","10.8","6.7","-9999.0","-9999.0","300","WNW","-9999.0","-9999.0","1014","29.95","-999","-999","27.9","82.3","-9999.00","-9999.00","Clear","clear","0","0","0","0","0","0","METAR UKKK 301300Z 30003MPS 270V340 CAVOK 27/18 Q1014 R26/190060 NOSIG"
"4:11 PM EEST on August 30, 2016","2016","08","30","16","11","Europe/Kiev","1:11 PM GMT on August 30, 2016","2016","08","30","13","11","UTC","26.0","78.8","16.0","60.8","54","25.2","15.7","46.8","29.1","310","NW","-9999.0","-9999.0","1014","29.95","-999","-999","-9999","-9999","-9999.00","-9999.00","Clear","clear","0","0","0","0","0","0","SPECI UKKK 301311Z 31007G13MPS 280V340 CAVOK 26/16 Q1014 R26/190060 NOSIG"
"4:30 PM EEST on August 30, 2016","2016","08","30","16","30","Europe/Kiev","1:30 PM GMT on August 30, 2016","2016","08","30","13","30","UTC","26.0","78.8","15.0","59.0","51","28.8","17.9","-9999.0","-9999.0","330","NNW","-9999.0","-9999.0","1014","29.95","-999","-999","-9999","-9999","-9999.00","-9999.00","Clear","clear","0","0","0","0","0","0","METAR UKKK 301330Z 33008MPS CAVOK 26/15 Q1014 R26/190060 NOSIG"
"5:00 PM EEST on August 30, 2016","2016","08","30","17","00","Europe/Kiev","2:00 PM GMT on August 30, 2016","2016","08","30","14","00","UTC","24.0","75.2","15.0","59.0","57","28.8","17.9","-9999.0","-9999.0","320","NW","-9999.0","-9999.0","1014","29.95","-999","-999","-9999","-9999","-9999.00","-9999.00","Clear","clear","0","0","0","0","0","0","METAR UKKK 301400Z 32008MPS CAVOK 24/15 Q1014 R26/CLRD70 NOSIG"
"5:30 PM EEST on August 30, 2016","2016","08","30","17","30","Europe/Kiev","2:30 PM GMT on August 30, 2016","2016","08","30","14","30","UTC","24.0","75.2","15.0","59.0","57","21.6","13.4","-9999.0","-9999.0","330","NNW","-9999.0","-9999.0","1014","29.95","-999","-999","-9999","-9999","-9999.00","-9999.00","Clear","clear","0","0","0","0","0","0","METAR UKKK 301430Z 33006MPS CAVOK 24/15 Q1014 R26/CLRD70 NOSIG"
"5:48 PM EEST on August 30, 2016","2016","08","30","17","48","Europe/Kiev","2:48 PM GMT on August 30, 2016","2016","08","30","14","48","UTC","24.0","75.2","14.0","57.2","53","25.2","15.7","43.2","26.8","330","NNW","-9999.0","-9999.0","1014","29.95","-999","-999","-9999","-9999","-9999.00","-9999.00","Clear","clear","0","0","0","0","0","0","SPECI UKKK 301448Z 33007G12MPS 310V010 CAVOK 24/14 Q1014 R26/CLRD70 NOSIG"
"6:00 PM EEST on August 30, 2016","2016","08","30","18","00","Europe/Kiev","3:00 PM GMT on August 30, 2016","2016","08","30","15","00","UTC","24","74","14","57","45","14.4","8.9","","","10","North","20","12","1014","29.94","-999","-999","-9999","-9999","","","Partly Cloudy","partlycloudy","0","0","0","0","0","0","AAXX 30151 33345 42598 60104 10236 20139 39946 40138 58002 83942 555 11023"
"6:00 PM EEST on August 30, 2016","2016","08","30","18","00","Europe/Kiev","3:00 PM GMT on August 30, 2016","2016","08","30","15","00","UTC","24.0","75.2","14.0","57.2","53","25.2","15.7","-9999.0","-9999.0","340","NNW","-9999.0","-9999.0","1014","29.95","-999","-999","-9999","-9999","-9999.00","-9999.00","Clear","clear","0","0","0","0","0","0","METAR UKKK 301500Z 34007MPS 310V010 CAVOK 24/14 Q1014 R26/CLRD70 NOSIG"
"6:30 PM EEST on August 30, 2016","2016","08","30","18","30","Europe/Kiev","3:30 PM GMT on August 30, 2016","2016","08","30","15","30","UTC","23.0","73.4","14.0","57.2","57","21.6","13.4","-9999.0","-9999.0","330","NNW","-9999.0","-9999.0","1015","29.98","-999","-999","-9999","-9999","-9999.00","-9999.00","Clear","clear","0","0","0","0","0","0","METAR UKKK 301530Z 33006MPS 300V360 CAVOK 23/14 Q1015 R26/CLRD70 NOSIG"
"7:00 PM EEST on August 30, 2016","2016","08","30","19","00","Europe/Kiev","4:00 PM GMT on August 30, 2016","2016","08","30","16","00","UTC","23.0","73.4","15.0","59.0","61","14.4","8.9","-9999.0","-9999.0","340","NNW","-9999.0","-9999.0","1015","29.98","-999","-999","-9999","-9999","-9999.00","-9999.00","Clear","clear","0","0","0","0","0","0","METAR UKKK 301600Z 34004MPS 300V020 CAVOK 23/15 Q1015 R26/CLRD70 NOSIG"
"7:30 PM EEST on August 30, 2016","2016","08","30","19","30","Europe/Kiev","4:30 PM GMT on August 30, 2016","2016","08","30","16","30","UTC","22.0","71.6","15.0","59.0","64","21.6","13.4","-9999.0","-9999.0","330","NNW","10.0","6.2","1015","29.98","-999","-999","-9999","-9999","-9999.00","-9999.00","Mostly Cloudy","mostlycloudy","0","0","0","0","0","0","METAR UKKK 301630Z 33006MPS 300V360 9999 SCT034 BKN100 22/15 Q1015 R26/CLRD70 NOSIG"
"8:00 PM EEST on August 30, 2016","2016","08","30","20","00","Europe/Kiev","5:00 PM GMT on August 30, 2016","2016","08","30","17","00","UTC","21.0","69.8","14.0","57.2","64","25.2","15.7","-9999.0","-9999.0","330","NNW","10.0","6.2","1016","30.01","-999","-999","-9999","-9999","-9999.00","-9999.00","Mostly Cloudy","mostlycloudy","0","0","0","0","0","0","METAR UKKK 301700Z 33007MPS 9999 SCT032 BKN100 21/14 Q1016 R26/CLRD70 NOSIG"
"8:30 PM EEST on August 30, 2016","2016","08","30","20","30","Europe/Kiev","5:30 PM GMT on August 30, 2016","2016","08","30","17","30","UTC","21.0","69.8","15.0","59.0","68","14.4","8.9","-9999.0","-9999.0","350","North","-9999.0","-9999.0","1016","30.01","-999","-999","-9999","-9999","-9999.00","-9999.00","Clear","clear","0","0","0","0","0","0","METAR UKKK 301730Z 35004MPS 320V030 CAVOK 21/15 Q1016 R26/CLRD70 NOSIG"
"9:00 PM EEST on August 30, 2016","2016","08","30","21","00","Europe/Kiev","6:00 PM GMT on August 30, 2016","2016","08","30","18","00","UTC","21","70","15","59","59","10.8","6.7","","","10","North","20","12","1016","30.01","-999","-999","-9999","-9999","","","Mostly Cloudy","mostlycloudy","0","0","0","0","0","0","AAXX 30181 33345 12998 60103 10209 20148 39969 40163 53023 60022 86030 333 10283 555 10019"
"9:00 PM EEST on August 30, 2016","2016","08","30","21","00","Europe/Kiev","6:00 PM GMT on August 30, 2016","2016","08","30","18","00","UTC","21.0","69.8","15.0","59.0","68","14.4","8.9","-9999.0","-9999.0","330","NNW","-9999.0","-9999.0","1017","30.04","-999","-999","-9999","-9999","-9999.00","-9999.00","Clear","clear","0","0","0","0","0","0","METAR UKKK 301800Z 33004MPS 310V010 CAVOK 21/15 Q1017 R26/CLRD70 NOSIG"
"9:30 PM EEST on August 30, 2016","2016","08","30","21","30","Europe/Kiev","6:30 PM GMT on August 30, 2016","2016","08","30","18","30","UTC","20.0","68.0","14.0","57.2","68","14.4","8.9","-9999.0","-9999.0","320","NW","-9999.0","-9999.0","1017","30.04","-999","-999","-9999","-9999","-9999.00","-9999.00","Clear","clear","0","0","0","0","0","0","METAR UKKK 301830Z 32004MPS CAVOK 20/14 Q1017 R26/CLRD70 NOSIG"
"10:00 PM EEST on August 30, 2016","2016","08","30","22","00","Europe/Kiev","7:00 PM GMT on August 30, 2016","2016","08","30","19","00","UTC","20.0","68.0","14.0","57.2","68","14.4","8.9","-9999.0","-9999.0","330","NNW","10.0","6.2","1017","30.04","-999","-999","-9999","-9999","-9999.00","-9999.00","Mostly Cloudy","mostlycloudy","0","0","0","0","0","0","METAR UKKK 301900Z 33004MPS 9999 SCT040 BKN100 20/14 Q1017 R26/CLRD70 NOSIG"
"10:30 PM EEST on August 30, 2016","2016","08","30","22","30","Europe/Kiev","7:30 PM GMT on August 30, 2016","2016","08","30","19","30","UTC","20.0","68.0","13.0","55.4","64","18.0","11.2","-9999.0","-9999.0","330","NNW","-9999.0","-9999.0","1017","30.04","-999","-999","-9999","-9999","-9999.00","-9999.00","Clear","clear","0","0","0","0","0","0","METAR UKKK 301930Z 33005MPS CAVOK 20/13 Q1017 R26/CLRD70 NOSIG"
"11:00 PM EEST on August 30, 2016","2016","08","30","23","00","Europe/Kiev","8:00 PM GMT on August 30, 2016","2016","08","30","20","00","UTC","19.0","66.2","12.0","53.6","64","14.4","8.9","-9999.0","-9999.0","330","NNW","-9999.0","-9999.0","1018","30.06","-999","-999","-9999","-9999","-9999.00","-9999.00","Clear","clear","0","0","0","0","0","0","METAR UKKK 302000Z 33004MPS 300V010 CAVOK 19/12 Q1018 R26/CLRD70 NOSIG"
"11:30 PM EEST on August 30, 2016","2016","08","30","23","30","Europe/Kiev","8:30 PM GMT on August 30, 2016","2016","08","30","20","30","UTC","19.0","66.2","11.0","51.8","60","18.0","11.2","-9999.0","-9999.0","340","NNW","-9999.0","-9999.0","1018","30.06","-999","-999","-9999","-9999","-9999.00","-9999.00","Clear","clear","0","0","0","0","0","0","METAR UKKK 302030Z 34005MPS CAVOK 19/11 Q1018 R26/CLRD70 NOSIG"
"12:00 AM EEST on August 31, 2016","2016","08","31","00","00","Europe/Kiev","9:00 PM GMT on August 30, 2016","2016","08","30","21","00","UTC","19","66","10","51","48","14.4","8.9","","","20","NNE","20","12","1018","30.06","-999","-999","-9999","-9999","","","Clear","clear","0","0","0","0","0","0","AAXX 30211 33345 42998 20204 10190 20105 39982 40178 52013 80004 555 10016"
"12:00 AM EEST on August 31, 2016","2016","08","31","00","00","Europe/Kiev","9:00 PM GMT on August 30, 2016","2016","08","30","21","00","UTC","18.0","64.4","11.0","51.8","64","18.0","11.2","-9999.0","-9999.0","340","NNW","-9999.0","-9999.0","1018","30.06","-999","-999","-9999","-9999","-9999.00","-9999.00","Clear","clear","0","0","0","0","0","0","METAR UKKK 302100Z 34005MPS 320V020 CAVOK 18/11 Q1018 R26/CLRD70 NOSIG"
"12:30 AM EEST on August 31, 2016","2016","08","31","00","30","Europe/Kiev","9:30 PM GMT on August 30, 2016","2016","08","30","21","30","UTC","17.0","62.6","10.0","50.0","63","14.4","8.9","-9999.0","-9999.0","330","NNW","-9999.0","-9999.0","1018","30.06","-999","-999","-9999","-9999","-9999.00","-9999.00","Clear","clear","0","0","0","0","0","0","METAR UKKK 302130Z 33004MPS CAVOK 17/10 Q1018 R26/CLRD70 NOSIG"
"1:00 AM EEST on August 31, 2016","2016","08","31","01","00","Europe/Kiev","10:00 PM GMT on August 30, 2016","2016","08","30","22","00","UTC","17.0","62.6","10.0","50.0","63","14.4","8.9","-9999.0","-9999.0","330","NNW","-9999.0","-9999.0","1018","30.06","-999","-999","-9999","-9999","-9999.00","-9999.00","Clear","clear","0","0","0","0","0","0","METAR UKKK 302200Z 33004MPS 300V010 CAVOK 17/10 Q1018 R26/CLRD70 NOSIG"
"1:30 AM EEST on August 31, 2016","2016","08","31","01","30","Europe/Kiev","10:30 PM GMT on August 30, 2016","2016","08","30","22","30","UTC","17.0","62.6","9.0","48.2","59","18.0","11.2","-9999.0","-9999.0","330","NNW","-9999.0","-9999.0","1018","30.06","-999","-999","-9999","-9999","-9999.00","-9999.00","Clear","clear","0","0","0","0","0","0","METAR UKKK 302230Z 33005MPS CAVOK 17/09 Q1018 R26/CLRD70 NOSIG"
"2:00 AM EEST on August 31, 2016","2016","08","31","02","00","Europe/Kiev","11:00 PM GMT on August 30, 2016","2016","08","30","23","00","UTC","16.0","60.8","9.0","48.2","63","14.4","8.9","-9999.0","-9999.0","330","NNW","-9999.0","-9999.0","1018","30.06","-999","-999","-9999","-9999","-9999.00","-9999.00","Clear","clear","0","0","0","0","0","0","METAR UKKK 302300Z 33004MPS 300V360 CAVOK 16/09 Q1018 R26/CLRD70 NOSIG"
"2:30 AM EEST on August 31, 2016","2016","08","31","02","30","Europe/Kiev","11:30 PM GMT on August 30, 2016","2016","08","30","23","30","UTC","15.0","59.0","9.0","48.2","67","10.8","6.7","-9999.0","-9999.0","340","NNW","-9999.0","-9999.0","1018","30.06","-999","-999","-9999","-9999","-9999.00","-9999.00","Clear","clear","0","0","0","0","0","0","METAR UKKK 302330Z 34003MPS CAVOK 15/09 Q1018 R26/CLRD70 NOSIG"
"3:00 AM EEST on August 31, 2016","2016","08","31","03","00","Europe/Kiev","12:00 AM GMT on August 31, 2016","2016","08","31","00","00","UTC","16","61","9","48","52","14.4","8.9","","","10","North","20","12","1018","30.07","-999","-999","-9999","-9999","","","","","0","0","0","0","0","0","AAXX 31001 33345 32998 00104 10162 20088 39983 40181 51001 555 10013"
"3:00 AM EEST on August 31, 2016","2016","08","31","03","00","Europe/Kiev","12:00 AM GMT on August 31, 2016","2016","08","31","00","00","UTC","15.0","59.0","9.0","48.2","67","14.4","8.9","-9999.0","-9999.0","330","NNW","-9999.0","-9999.0","1018","30.06","-999","-999","-9999","-9999","-9999.00","-9999.00","Clear","clear","0","0","0","0","0","0","METAR UKKK 310000Z 33004MPS CAVOK 15/09 Q1018 R26/CLRD70 NOSIG"
"3:30 AM EEST on August 31, 2016","2016","08","31","03","30","Europe/Kiev","12:30 AM GMT on August 31, 2016","2016","08","31","00","30","UTC","14.0","57.2","9.0","48.2","72","10.8","6.7","-9999.0","-9999.0","320","NW","-9999.0","-9999.0","1018","30.06","-999","-999","-9999","-9999","-9999.00","-9999.00","Clear","clear","0","0","0","0","0","0","METAR UKKK 310030Z 32003MPS CAVOK 14/09 Q1018 R26/CLRD70 NOSIG"
"4:00 AM EEST on August 31, 2016","2016","08","31","04","00","Europe/Kiev","1:00 AM GMT on August 31, 2016","2016","08","31","01","00","UTC","14.0","57.2","9.0","48.2","72","10.8","6.7","-9999.0","-9999.0","330","NNW","-9999.0","-9999.0","1018","30.06","-999","-999","-9999","-9999","-9999.00","-9999.00","Clear","clear","0","0","0","0","0","0","METAR UKKK 310100Z 33003MPS CAVOK 14/09 Q1018 R26/CLRD70 NOSIG"
"4:30 AM EEST on August 31, 2016","2016","08","31","04","30","Europe/Kiev","1:30 AM GMT on August 31, 2016","2016","08","31","01","30","UTC","14.0","57.2","9.0","48.2","72","14.4","8.9","-9999.0","-9999.0","330","NNW","-9999.0","-9999.0","1018","30.06","-999","-999","-9999","-9999","-9999.00","-9999.00","Clear","clear","0","0","0","0","0","0","METAR UKKK 310130Z 33004MPS CAVOK 14/09 Q1018 R26/CLRD70 NOSIG"
"5:00 AM EEST on August 31, 2016","2016","08","31","05","00","Europe/Kiev","2:00 AM GMT on August 31, 2016","2016","08","31","02","00","UTC","14.0","57.2","9.0","48.2","72","14.4","8.9","-9999.0","-9999.0","330","NNW","-9999.0","-9999.0","1018","30.06","-999","-999","-9999","-9999","-9999.00","-9999.00","Clear","clear","0","0","0","0","0","0","METAR UKKK 310200Z 33004MPS 300V360 CAVOK 14/09 Q1018 R26/CLRD70 NOSIG"
"5:30 AM EEST on August 31, 2016","2016","08","31","05","30","Europe/Kiev","2:30 AM GMT on August 31, 2016","2016","08","31","02","30","UTC","13.0","55.4","9.0","48.2","77","10.8","6.7","-9999.0","-9999.0","340","NNW","-9999.0","-9999.0","1019","30.09","-999","-999","-9999","-9999","-9999.00","-9999.00","Clear","clear","0","0","0","0","0","0","METAR UKKK 310230Z 34003MPS CAVOK 13/09 Q1019 R26/CLRD70 NOSIG"
"6:00 AM EEST on August 31, 2016","2016","08","31","06","00","Europe/Kiev","3:00 AM GMT on August 31, 2016","2016","08","31","03","00","UTC","14","57","10","50","69","10.8","6.7","","","0","North","20","12","1019","30.10","-999","-999","-9999","-9999","","","","","0","0","0","0","0","0","AAXX 31031 33345 42998 03603 10137 20098 39991 40191 52008 555 10012"
"6:00 AM EEST on August 31, 2016","2016","08","31","06","00","Europe/Kiev","3:00 AM GMT on August 31, 2016","2016","08","31","03","00","UTC","13.0","55.4","9.0","48.2","77","14.4","8.9","-9999.0","-9999.0","340","NNW","-9999.0","-9999.0","1019","30.09","-999","-999","-9999","-9999","-9999.00","-9999.00","Clear","clear","0","0","0","0","0","0","METAR UKKK 310300Z 34004MPS CAVOK 13/09 Q1019 R26/CLRD70 NOSIG"
"6:30 AM EEST on August 31, 2016","2016","08","31","06","30","Europe/Kiev","3:30 AM GMT on August 31, 2016","2016","08","31","03","30","UTC","13.0","55.4","9.0","48.2","77","14.4","8.9","-9999.0","-9999.0","330","NNW","-9999.0","-9999.0","1019","30.09","-999","-999","-9999","-9999","-9999.00","-9999.00","Clear","clear","0","0","0","0","0","0","METAR UKKK 310330Z 33004MPS 300V360 CAVOK 13/09 Q1019 R26/CLRD70 NOSIG"
"7:00 AM EEST on August 31, 2016","2016","08","31","07","00","Europe/Kiev","4:00 AM GMT on August 31, 2016","2016","08","31","04","00","UTC","13.0","55.4","10.0","50.0","82","14.4","8.9","-9999.0","-9999.0","340","NNW","-9999.0","-9999.0","1019","30.09","-999","-999","-9999","-9999","-9999.00","-9999.00","Clear","clear","0","0","0","0","0","0","METAR UKKK 310400Z 34004MPS CAVOK 13/10 Q1019 R26/CLRD70 NOSIG"
"7:30 AM EEST on August 31, 2016","2016","08","31","07","30","Europe/Kiev","4:30 AM GMT on August 31, 2016","2016","08","31","04","30","UTC","14.0","57.2","10.0","50.0","77","18.0","11.2","-9999.0","-9999.0","330","NNW","-9999.0","-9999.0","1019","30.09","-999","-999","-9999","-9999","-9999.00","-9999.00","Clear","clear","0","0","0","0","0","0","METAR UKKK 310430Z 33005MPS CAVOK 14/10 Q1019 R26/CLRD70 NOSIG"
"8:00 AM EEST on August 31, 2016","2016","08","31","08","00","Europe/Kiev","5:00 AM GMT on August 31, 2016","2016","08","31","05","00","UTC","14.0","57.2","10.0","50.0","77","18.0","11.2","-9999.0","-9999.0","340","NNW","-9999.0","-9999.0","1019","30.09","-999","-999","-9999","-9999","-9999.00","-9999.00","Clear","clear","0","0","0","0","0","0","METAR UKKK 310500Z 34005MPS 310V010 CAVOK 14/10 Q1019 R26/CLRD70 NOSIG"
"8:30 AM EEST on August 31, 2016","2016","08","31","08","30","Europe/Kiev","5:30 AM GMT on August 31, 2016","2016","08","31","05","30","UTC","15.0","59.0","11.0","51.8","77","14.4","8.9","-9999.0","-9999.0","340","NNW","-9999.0","-9999.0","1020","30.12","-999","-999","-9999","-9999","-9999.00","-9999.00","Clear","clear","0","0","0","0","0","0","METAR UKKK 310530Z 34004MPS 310V030 CAVOK 15/11 Q1020 R26/CLRD70 NOSIG"
"9:00 AM EEST on August 31, 2016","2016","08","31","09","00","Europe/Kiev","6:00 AM GMT on August 31, 2016","2016","08","31","06","00","UTC","16","60","11","52","67","18.0","11.2","","","20","NNE","20","12","1020","30.13","-999","-999","-9999","-9999","","","Mostly Cloudy","mostlycloudy","0","0","0","0","0","0","AAXX 31061 33345 32598 60205 10157 20110 30002 40201 52011 86800 333 20132 555 10019"
"9:00 AM EEST on August 31, 2016","2016","08","31","09","00","Europe/Kiev","6:00 AM GMT on August 31, 2016","2016","08","31","06","00","UTC","16.0","60.8","11.0","51.8","72","14.4","8.9","-9999.0","-9999.0","340","NNW","10.0","6.2","1020","30.12","-999","-999","-9999","-9999","-9999.00","-9999.00","Scattered Clouds","partlycloudy","0","0","0","0","0","0","METAR UKKK 310600Z 34004MPS 310V020 9999 SCT017 16/11 Q1020 R26/CLRD70 NOSIG"
"9:30 AM EEST on August 31, 2016","2016","08","31","09","30","Europe/Kiev","6:30 AM GMT on August 31, 2016","2016","08","31","06","30","UTC","16.0","60.8","11.0","51.8","72","14.4","8.9","-9999.0","-9999.0","10","North","10.0","6.2","1020","30.12","-999","-999","-9999","-9999","-9999.00","-9999.00","Mostly Cloudy","mostlycloudy","0","0","0","0","0","0","METAR UKKK 310630Z 01004MPS 330V050 9999 BKN017 16/11 Q1020 R26/CLRD70 NOSIG"
"10:00 AM EEST on August 31, 2016","2016","08","31","10","00","Europe/Kiev","7:00 AM GMT on August 31, 2016","2016","08","31","07","00","UTC","16.0","60.8","12.0","53.6","77","10.8","6.7","-9999.0","-9999.0","10","North","10.0","6.2","1020","30.12","-999","-999","-9999","-9999","-9999.00","-9999.00","Mostly Cloudy","mostlycloudy","0","0","0","0","0","0","METAR UKKK 310700Z 01003MPS 330V050 9999 SCT019 BKN026 16/12 Q1020 R26/CLRD70 NOSIG"
"10:30 AM EEST on August 31, 2016","2016","08","31","10","30","Europe/Kiev","7:30 AM GMT on August 31, 2016","2016","08","31","07","30","UTC","16.0","60.8","12.0","53.6","77","14.4","8.9","-9999.0","-9999.0","10","North","10.0","6.2","1020","30.12","-999","-999","-9999","-9999","-9999.00","-9999.00","Mostly Cloudy","mostlycloudy","0","0","0","0","0","0","METAR UKKK 310730Z 01004MPS 330V040 9999 SCT019 BKN026 16/12 Q1020 R26/CLRD70 NOSIG"
"11:00 AM EEST on August 31, 2016","2016","08","31","11","00","Europe/Kiev","8:00 AM GMT on August 31, 2016","2016","08","31","08","00","UTC","17.0","62.6","11.0","51.8","68","18.0","11.2","-9999.0","-9999.0","330","NNW","10.0","6.2","1020","30.12","-999","-999","-9999","-9999","-9999.00","-9999.00","Mostly Cloudy","mostlycloudy","0","0","0","0","0","0","METAR UKKK 310800Z 33005MPS 300V010 9999 BKN025 17/11 Q1020 R26/CLRD70 NOSIG"
"11:30 AM EEST on August 31, 2016","2016","08","31","11","30","Europe/Kiev","8:30 AM GMT on August 31, 2016","2016","08","31","08","30","UTC","18.0","64.4","11.0","51.8","64","18.0","11.2","-9999.0","-9999.0","320","NW","10.0","6.2","1020","30.12","-999","-999","-9999","-9999","-9999.00","-9999.00","Mostly Cloudy","mostlycloudy","0","0","0","0","0","0","METAR UKKK 310830Z 32005MPS 9999 BKN028 18/11 Q1020 R26/CLRD70 NOSIG"
"12:00 PM EEST on August 31, 2016","2016","08","31","12","00","Europe/Kiev","9:00 AM GMT on August 31, 2016","2016","08","31","09","00","UTC","18","65","11","52","54","14.4","8.9","","","30","NNE","20","12","1020","30.13","-999","-999","-9999","-9999","","","Mostly Cloudy","mostlycloudy","0","0","0","0","0","0","AAXX 31091 33345 42598 60304 10184 20113 30004 40201 51002 86200 333 86830 555 10034"
"12:00 PM EEST on August 31, 2016","2016","08","31","12","00","Europe/Kiev","9:00 AM GMT on August 31, 2016","2016","08","31","09","00","UTC","19.0","66.2","11.0","51.8","60","18.0","11.2","-9999.0","-9999.0","340","NNW","10.0","6.2","1020","30.12","-999","-999","-9999","-9999","-9999.00","-9999.00","Mostly Cloudy","mostlycloudy","0","0","0","0","0","0","METAR UKKK 310900Z 34005MPS 310V030 9999 BKN030 19/11 Q1020 R26/CLRD70 NOSIG"
"12:30 PM EEST on August 31, 2016","2016","08","31","12","30","Europe/Kiev","9:30 AM GMT on August 31, 2016","2016","08","31","09","30","UTC","19.0","66.2","11.0","51.8","60","14.4","8.9","-9999.0","-9999.0","340","NNW","10.0","6.2","1020","30.12","-999","-999","-9999","-9999","-9999.00","-9999.00","Mostly Cloudy","mostlycloudy","0","0","0","0","0","0","METAR UKKK 310930Z 34004MPS 280V020 9999 BKN032 19/11 Q1020 R26/CLRD70 NOSIG"
"1:00 PM EEST on August 31, 2016","2016","08","31","13","00","Europe/Kiev","10:00 AM GMT on August 31, 2016","2016","08","31","10","00","UTC","20.0","68.0","10.0","50.0","52","18.0","11.2","-9999.0","-9999.0","350","North","10.0","6.2","1020","30.12","-999","-999","-9999","-9999","-9999.00","-9999.00","Mostly Cloudy","mostlycloudy","0","0","0","0","0","0","METAR UKKK 311000Z 35005MPS 310V020 9999 BKN035 20/10 Q1020 R26/CLRD70 NOSIG"
"1:30 PM EEST on August 31, 2016","2016","08","31","13","30","Europe/Kiev","10:30 AM GMT on August 31, 2016","2016","08","31","10","30","UTC","20.0","68.0","10.0","50.0","52","21.6","13.4","-9999.0","-9999.0","340","NNW","10.0","6.2","1020","30.12","-999","-999","-9999","-9999","-9999.00","-9999.00","Mostly Cloudy","mostlycloudy","0","0","0","0","0","0","METAR UKKK 311030Z 34006MPS 310V030 9999 BKN040 20/10 Q1020 R26/CLRD70 NOSIG"
"2:00 PM EEST on August 31, 2016","2016","08","31","14","00","Europe/Kiev","11:00 AM GMT on August 31, 2016","2016","08","31","11","00","UTC","21.0","69.8","9.0","48.2","46","21.6","13.4","-9999.0","-9999.0","350","North","10.0","6.2","1020","30.12","-999","-999","-9999","-9999","-9999.00","-9999.00","Mostly Cloudy","mostlycloudy","0","0","0","0","0","0","METAR UKKK 311100Z 35006MPS 320V030 9999 BKN040 21/09 Q1020 R26/CLRD70 NOSIG"
"2:30 PM EEST on August 31, 2016","2016","08","31","14","30","Europe/Kiev","11:30 AM GMT on August 31, 2016","2016","08","31","11","30","UTC","21.0","69.8","9.0","48.2","46","21.6","13.4","-9999.0","-9999.0","350","North","10.0","6.2","1020","30.12","-999","-999","-9999","-9999","-9999.00","-9999.00","Mostly Cloudy","mostlycloudy","0","0","0","0","0","0","METAR UKKK 311130Z 35006MPS 320V020 9999 BKN040 21/09 Q1020 R26/CLRD70 NOSIG"
"3:00 PM EEST on August 31, 2016","2016","08","31","15","00","Europe/Kiev","12:00 PM GMT on August 31, 2016","2016","08","31","12","00","UTC","20","68","9","49","39","21.6","13.4","","","20","NNE","20","12","1020","30.12","-999","-999","-9999","-9999","","","Mostly Cloudy","mostlycloudy","0","0","0","0","0","0","AAXX 31121 33345 32698 50206 10200 20093 30004 40200 54000 85200 555 10034"
"3:00 PM EEST on August 31, 2016","2016","08","31","15","00","Europe/Kiev","12:00 PM GMT on August 31, 2016","2016","08","31","12","00","UTC","21.0","69.8","9.0","48.2","46","21.6","13.4","-9999.0","-9999.0","340","NNW","10.0","6.2","1020","30.12","-999","-999","-9999","-9999","-9999.00","-9999.00","Mostly Cloudy","mostlycloudy","0","0","0","0","0","0","METAR UKKK 311200Z 34006MPS 310V010 9999 BKN049 21/09 Q1020 R26/CLRD70 NOSIG"
"3:30 PM EEST on August 31, 2016","2016","08","31","15","30","Europe/Kiev","12:30 PM GMT on August 31, 2016","2016","08","31","12","30","UTC","21.0","69.8","10.0","50.0","49","21.6","13.4","-9999.0","-9999.0","340","NNW","10.0","6.2","1020","30.12","-999","-999","-9999","-9999","-9999.00","-9999.00","Scattered Clouds","partlycloudy","0","0","0","0","0","0","METAR UKKK 311230Z 34006MPS 300V030 9999 SCT047 21/10 Q1020 R26/CLRD70 NOSIG"
"4:00 PM EEST on August 31, 2016","2016","08","31","16","00","Europe/Kiev","1:00 PM GMT on August 31, 2016","2016","08","31","13","00","UTC","21.0","69.8","9.0","48.2","46","21.6","13.4","-9999.0","-9999.0","330","NNW","10.0","6.2","1020","30.12","-999","-999","-9999","-9999","-9999.00","-9999.00","Scattered Clouds","partlycloudy","0","0","0","0","0","0","METAR UKKK 311300Z 33006MPS 9999 SCT047 21/09 Q1020 R26/CLRD70 NOSIG"
"4:30 PM EEST on August 31, 2016","2016","08","31","16","30","Europe/Kiev","1:30 PM GMT on August 31, 2016","2016","08","31","13","30","UTC","21.0","69.8","9.0","48.2","46","18.0","11.2","-9999.0","-9999.0","350","North","-9999.0","-9999.0","1020","30.12","-999","-999","-9999","-9999","-9999.00","-9999.00","Clear","clear","0","0","0","0","0","0","METAR UKKK 311330Z 35005MPS 280V030 CAVOK 21/09 Q1020 R26/CLRD70 NOSIG"
"5:00 PM EEST on August 31, 2016","2016","08","31","17","00","Europe/Kiev","2:00 PM GMT on August 31, 2016","2016","08","31","14","00","UTC","21.0","69.8","10.0","50.0","49","18.0","11.2","-9999.0","-9999.0","30","NNE","-9999.0","-9999.0","1020","30.12","-999","-999","-9999","-9999","-9999.00","-9999.00","Clear","clear","0","0","0","0","0","0","METAR UKKK 311400Z 03005MPS 360V090 CAVOK 21/10 Q1020 R26/CLRD70 NOSIG"
"5:30 PM EEST on August 31, 2016","2016","08","31","17","30","Europe/Kiev","2:30 PM GMT on August 31, 2016","2016","08","31","14","30","UTC","21.0","69.8","10.0","50.0","49","18.0","11.2","-9999.0","-9999.0","30","NNE","-9999.0","-9999.0","1020","30.12","-999","-999","-9999","-9999","-9999.00","-9999.00","Clear","clear","0","0","0","0","0","0","METAR UKKK 311430Z 03005MPS CAVOK 21/10 Q1020 R08/CLRD70 NOSIG"
"6:00 PM EEST on August 31, 2016","2016","08","31","18","00","Europe/Kiev","3:00 PM GMT on August 31, 2016","2016","08","31","15","00","UTC","21","69","9","48","35","10.8","6.7","","","50","NE","20","12","1020","30.13","-999","-999","-9999","-9999","","","Scattered Clouds","partlycloudy","0","0","0","0","0","0","AAXX 31151 33345 42698 10503 10208 20087 30007 40202 53003 81400 555 10027"
"6:00 PM EEST on August 31, 2016","2016","08","31","18","00","Europe/Kiev","3:00 PM GMT on August 31, 2016","2016","08","31","15","00","UTC","21.0","69.8","9.0","48.2","46","21.6","13.4","-9999.0","-9999.0","30","NNE","-9999.0","-9999.0","1020","30.12","-999","-999","-9999","-9999","-9999.00","-9999.00","Clear","clear","0","0","0","0","0","0","METAR UKKK 311500Z 03006MPS CAVOK 21/09 Q1020 R08/CLRD70 NOSIG"
"6:30 PM EEST on August 31, 2016","2016","08","31","18","30","Europe/Kiev","3:30 PM GMT on August 31, 2016","2016","08","31","15","30","UTC","20.0","68.0","9.0","48.2","49","21.6","13.4","-9999.0","-9999.0","20","NNE","-9999.0","-9999.0","1021","30.15","-999","-999","-9999","-9999","-9999.00","-9999.00","Clear","clear","0","0","0","0","0","0","METAR UKKK 311530Z 02006MPS CAVOK 20/09 Q1021 R08/CLRD70 NOSIG"
"7:00 PM EEST on August 31, 2016","2016","08","31","19","00","Europe/Kiev","4:00 PM GMT on August 31, 2016","2016","08","31","16","00","UTC","20.0","68.0","9.0","48.2","49","14.4","8.9","-9999.0","-9999.0","20","NNE","-9999.0","-9999.0","1021","30.15","-999","-999","-9999","-9999","-9999.00","-9999.00","Clear","clear","0","0","0","0","0","0","METAR UKKK 311600Z 02004MPS 350V050 CAVOK 20/09 Q1021 R08/CLRD70 NOSIG"
"7:30 PM EEST on August 31, 2016","2016","08","31","19","30","Europe/Kiev","4:30 PM GMT on August 31, 2016","2016","08","31","16","30","UTC","19.0","66.2","9.0","48.2","52","14.4","8.9","-9999.0","-9999.0","10","North","-9999.0","-9999.0","1021","30.15","-999","-999","-9999","-9999","-9999.00","-9999.00","Clear","clear","0","0","0","0","0","0","METAR UKKK 311630Z 01004MPS CAVOK 19/09 Q1021 R08/CLRD70 NOSIG"
"8:00 PM EEST on August 31, 2016","2016","08","31","20","00","Europe/Kiev","5:00 PM GMT on August 31, 2016","2016","08","31","17","00","UTC","18.0","64.4","9.0","48.2","56","7.2","4.5","-9999.0","-9999.0","10","North","-9999.0","-9999.0","1021","30.15","-999","-999","-9999","-9999","-9999.00","-9999.00","Clear","clear","0","0","0","0","0","0","METAR UKKK 311700Z 01002MPS CAVOK 18/09 Q1021 R08/CLRD70 NOSIG"
"8:30 PM EEST on August 31, 2016","2016","08","31","20","30","Europe/Kiev","5:30 PM GMT on August 31, 2016","2016","08","31","17","30","UTC","18.0","64.4","9.0","48.2","56","7.2","4.5","-9999.0","-9999.0","20","NNE","-9999.0","-9999.0","1021","30.15","-999","-999","-9999","-9999","-9999.00","-9999.00","Clear","clear","0","0","0","0","0","0","METAR UKKK 311730Z 02002MPS CAVOK 18/09 Q1021 R08/CLRD70 NOSIG"
"9:00 PM EEST on August 31, 2016","2016","08","31","21","00","Europe/Kiev","6:00 PM GMT on August 31, 2016","2016","08","31","18","00","UTC","18","64","9","48","45","3.6","2.2","","","20","NNE","20","12","1022","30.17","-999","-999","-9999","-9999","","","","","0","0","0","0","0","0","AAXX 31181 33345 32998 00201 10176 20087 30017 40215 52010 333 10209 555 10015"
"9:00 PM EEST on August 31, 2016","2016","08","31","21","00","Europe/Kiev","6:00 PM GMT on August 31, 2016","2016","08","31","18","00","UTC","16.0","60.8","9.0","48.2","63","3.6","2.2","-9999.0","-9999.0","0","Variable","-9999.0","-9999.0","1021","30.15","-999","-999","-9999","-9999","-9999.00","-9999.00","Clear","clear","0","0","0","0","0","0","METAR UKKK 311800Z VRB01MPS CAVOK 16/09 Q1021 R08/CLRD70 NOSIG"
"9:30 PM EEST on August 31, 2016","2016","08","31","21","30","Europe/Kiev","6:30 PM GMT on August 31, 2016","2016","08","31","18","30","UTC","14.0","57.2","9.0","48.2","72","0.0","0.0","-9999.0","-9999.0","0","North","-9999.0","-9999.0","1022","30.18","-999","-999","-9999","-9999","-9999.00","-9999.00","Clear","clear","0","0","0","0","0","0","METAR UKKK 311830Z 00000MPS CAVOK 14/09 Q1022 R08/CLRD70 NOSIG"
"10:00 PM EEST on August 31, 2016","2016","08","31","22","00","Europe/Kiev","7:00 PM GMT on August 31, 2016","2016","08","31","19","00","UTC","14.0","57.2","10.0","50.0","77","3.6","2.2","-9999.0","-9999.0","0","Variable","-9999.0","-9999.0","1022","30.18","-999","-999","-9999","-9999","-9999.00","-9999.00","Clear","clear","0","0","0","0","0","0","METAR UKKK 311900Z VRB01MPS CAVOK 14/10 Q1022 R08/CLRD70 NOSIG"
"10:30 PM EEST on August 31, 2016","2016","08","31","22","30","Europe/Kiev","7:30 PM GMT on August 31, 2016","2016","08","31","19","30","UTC","14.0","57.2","10.0","50.0","77","0.0","0.0","-9999.0","-9999.0","0","North","-9999.0","-9999.0","1022","30.18","-999","-999","-9999","-9999","-9999.00","-9999.00","Clear","clear","0","0","0","0","0","0","METAR UKKK 311930Z 00000MPS CAVOK 14/10 Q1022 R08/CLRD70 NOSIG"
"11:00 PM EEST on August 31, 2016","2016","08","31","23","00","Europe/Kiev","8:00 PM GMT on August 31, 2016","2016","08","31","20","00","UTC","13.0","55.4","10.0","50.0","82","3.6","2.2","-9999.0","-9999.0","0","Variable","-9999.0","-9999.0","1022","30.18","-999","-999","-9999","-9999","-9999.00","-9999.00","Clear","clear","0","0","0","0","0","0","METAR UKKK 312000Z VRB01MPS CAVOK 13/10 Q1022 R08/CLRD70 NOSIG"
"11:30 PM EEST on August 31, 2016","2016","08","31","23","30","Europe/Kiev","8:30 PM GMT on August 31, 2016","2016","08","31","20","30","UTC","12.0","53.6","10.0","50.0","88","3.6","2.2","-9999.0","-9999.0","250","WSW","-9999.0","-9999.0","1022","30.18","-999","-999","-9999","-9999","-9999.00","-9999.00","Clear","clear","0","0","0","0","0","0","METAR UKKK 312030Z 25001MPS CAVOK 12/10 Q1022 R08/CLRD70 NOSIG"
