"date.pretty","date.year","date.mon","date.mday","date.hour","date.min","date.tzname","utcdate.pretty","utcdate.year","utcdate.mon","utcdate.mday","utcdate.hour","utcdate.min","utcdate.tzname","tempm","tempi","dewptm","dewpti","hum","wspdm","wspdi","wgustm","wgusti","wdird","wdire","vism","visi","pressurem","pressurei","windchillm","windchilli","heatindexm","heatindexi","precipm","precipi","conds","icon","fog","rain","snow","hail","thunder","tornado","metar"
"12:00 AM EET on November 01, 2016","2016","11","01","00","00","Europe/Kiev","10:00 PM GMT on October 31, 2016","2016","10","31","22","00","UTC","-1.0","30.2","-2.0","28.4","93","10.8","6.7","-9999.0","-9999.0","340","NNW","10.0","6.2","1017","30.04","-4.7","23.5","-9999","-9999","-9999.00","-9999.00","Mostly Cloudy","mostlycloudy","0","0","0","0","0","0","METAR UKKK 312200Z 34003MPS 9999 FEW010 BKN053 M01/M02 Q1017 R26/290058 NOSIG"
"12:30 AM EET on November 01, 2016","2016","11","01","00","30","Europe/Kiev","10:30 PM GMT on October 31, 2016","2016","10","31","22","30","UTC","-1.0","30.2","-2.0","28.4","93","10.8","6.7","-9999.0","-9999.0","340","NNW","10.0","6.2","1017","30.04","-4.7","23.5","-9999","-9999","-9999.00","-9999.00","Light Snow","snow","0","0","1","0","0","0","METAR UKKK 312230Z 34003MPS 9999 -SN FEW010 OVC048 M01/M02 Q1017 R26/290058 NOSIG"
"1:00 AM EET on November 01, 2016","2016","11","01","01","00","Europe/Kiev","11:00 PM GMT on October 31, 2016","2016","10","31","23","00","UTC","-1.0","30.2","-2.0","28.4","93","10.8","6.7","-9999.0","-9999.0","350","North","9.0","5.6","1017","30.04","-4.7","23.5","-9999","-9999","-9999.00","-9999.00","Light Snow","snow","0","0","1","0","0","0","METAR UKKK 312300Z 35003MPS 310V020 9000 -SN FEW009 OVC033 M01/M02 Q1017 R26/290058 NOSIG"
"1:30 AM EET on November 01, 2016","2016","11","01","01","30","Europe/Kiev","11:30 PM GMT on October 31, 2016","2016","10","31","23","30","UTC","-1.0","30.2","-2.0","28.4","93","7.2","4.5","-9999.0","-9999.0","340","NNW","6.0","3.7","1017","30.04","-3.6","25.5","-9999","-9999","-9999.00","-9999.00","Light Snow","snow","0","0","1","0","0","0","METAR UKKK 312330Z 34002MPS 6000 -SN FEW009 OVC034 M01/M02 Q1017 R26/290058 NOSIG"
"2:00 AM EET on November 01, 2016","2016","11","01","02","00","Europe/Kiev","12:00 AM GMT on November 01, 2016","2016","11","01","00","00","UTC","-1","31","-2","28","84","7.2","4.5","","","0","North","4","2","1019","30.09","-999","-999","-9999","-9999","","","Mist","hazy","0","0","0","0","0","0","AAXX 01001 33345 31496 73602 11007 21022 39977 40188 52004 71011 87500 333 87615 555 11100"
"2:00 AM EET on November 01, 2016","2016","11","01","02","00","Europe/Kiev","12:00 AM GMT on November 01, 2016","2016","11","01","00","00","UTC","-1.0","30.2","-2.0","28.4","93","10.8","6.7","-9999.0","-9999.0","340","NNW","10.0","6.2","1017","30.04","-4.7","23.5","-9999","-9999","-9999.00","-9999.00","Overcast","cloudy","0","0","0","0","0","0","METAR UKKK 010000Z 34003MPS 9999 SCT008 OVC033 M01/M02 Q1017 R26/290058 NOSIG"
"2:30 AM EET on November 01, 2016","2016","11","01","02","30","Europe/Kiev","12:30 AM GMT on November 01, 2016","2016","11","01","00","30","UTC","-1.0","30.2","-2.0","28.4","93","14.4","8.9","-9999.0","-9999.0","340","NNW","10.0","6.2","1017","30.04","-5.5","22.1","-9999","-9999","-9999.00","-9999.00","Light Snow","snow","0","0","1","0","0","0","METAR UKKK 010030Z 34004MPS 9999 -SN FEW008 OVC033 M01/M02 Q1017 R26/290058 NOSIG"
"3:00 AM EET on November 01, 2016","2016","11","01","03","00","Europe/Kiev","1:00 AM GMT on November 01, 2016","2016","11","01","01","00","UTC","-1.0","30.2","-2.0","28.4","93","14.4","8.9","-9999.0","-9999.0","340","NNW","10.0","6.2","1018","30.06","-5.5","22.1","-9999","-9999","-9999.00","-9999.00","Mostly Cloudy","mostlycloudy","0","0","0","0","0","0","METAR UKKK 010100Z 34004MPS 9999 FEW007 BKN052 M01/M02 Q1018 R26/290058 NOSIG"
"3:30 AM EET on November 01, 2016","2016","11","01","03","30","Europe/Kiev","1:30 AM GMT on November 01, 2016","2016","11","01","01","30","UTC","-1.0","30.2","-2.0","28.4","93","14.4","8.9","-9999.0","-9999.0","340","NNW","10.0","6.2","1018","30.06","-5.5","22.1","-9999","-9999","-9999.00","-9999.00","Mostly Cloudy","mostlycloudy","0","0","0","0","0","0","METAR UKKK 010130Z 34004MPS 9999 FEW007 BKN052 M01/M02 Q1018 R26/290058 NOSIG"
"4:00 AM EET on November 01, 2016","2016","11","01","04","00","Europe/Kiev","2:00 AM GMT on November 01, 2016","2016","11","01","02","00","UTC","-1.0","30.2","-2.0","28.4","93","14.4","8.9","-9999.0","-9999.0","340","NNW","10.0","6.2","1018","30.06","-5.5","22.1","-9999","-9999","-9999.00","-9999.00","Mostly Cloudy","mostlycloudy","0","0","0","0","0","0","METAR UKKK 010200Z 34004MPS 9999 FEW017 BKN024 M01/M02 Q1018 R26/290058 NOSIG"
"4:30 AM EET on November 01, 2016","2016","11","01","04","30","Europe/Kiev","2:30 AM GMT on November 01, 2016","2016","11","01","02","30","UTC","-1.0","30.2","-2.0","28.4","93","14.4","8.9","-9999.0","-9999.0","330","NNW","10.0","6.2","1019","30.09","-5.5","22.1","-9999","-9999","-9999.00","-9999.00","Mostly Cloudy","mostlycloudy","0","0","0","0","0","0","METAR UKKK 010230Z 33004MPS 9999 FEW007 BKN046 M01/M02 Q1019 R26/290058 NOSIG"
"5:00 AM EET on November 01, 2016","2016","11","01","05","00","Europe/Kiev","3:00 AM GMT on November 01, 2016","2016","11","01","03","00","UTC","-1","31","-2","28","83","7.2","4.5","","","350","North","4","2","1020","30.12","-999","-999","-9999","-9999","","","Mist","hazy","0","0","0","0","0","0","AAXX 01031 33345 41496 83502 11008 21023 39989 40200 52012 71022 886// 333 88710 555 11100"
"5:00 AM EET on November 01, 2016","2016","11","01","05","00","Europe/Kiev","3:00 AM GMT on November 01, 2016","2016","11","01","03","00","UTC","-1.0","30.2","-2.0","28.4","93","10.8","6.7","-9999.0","-9999.0","330","NNW","10.0","6.2","1019","30.09","-4.7","23.5","-9999","-9999","-9999.00","-9999.00","Mostly Cloudy","mostlycloudy","0","0","0","0","0","0","METAR UKKK 010300Z 33003MPS 9999 SCT006 BKN046 M01/M02 Q1019 R26/290058 NOSIG"
"5:30 AM EET on November 01, 2016","2016","11","01","05","30","Europe/Kiev","3:30 AM GMT on November 01, 2016","2016","11","01","03","30","UTC","-1.0","30.2","-2.0","28.4","93","14.4","8.9","-9999.0","-9999.0","320","NW","10.0","6.2","1019","30.09","-5.5","22.1","-9999","-9999","-9999.00","-9999.00","Light Snow","snow","0","0","1","0","0","0","METAR UKKK 010330Z 32004MPS 9999 -SN SCT007 OVC020 M01/M02 Q1019 R26/290058 NOSIG"
"6:00 AM EET on November 01, 2016","2016","11","01","06","00","Europe/Kiev","4:00 AM GMT on November 01, 2016","2016","11","01","04","00","UTC","-1.0","30.2","-2.0","28.4","93","10.8","6.7","-9999.0","-9999.0","330","NNW","9.0","5.6","1019","30.09","-4.7","23.5","-9999","-9999","-9999.00","-9999.00","Light Snow","snow","0","0","1","0","0","0","METAR UKKK 010400Z 33003MPS 9000 -SN SCT008 BKN022 M01/M02 Q1019 R26/290058 NOSIG"
"6:30 AM EET on November 01, 2016","2016","11","01","06","30","Europe/Kiev","4:30 AM GMT on November 01, 2016","2016","11","01","04","30","UTC","-1.0","30.2","-2.0","28.4","93","10.8","6.7","-9999.0","-9999.0","340","NNW","10.0","6.2","1019","30.09","-4.7","23.5","-9999","-9999","-9999.00","-9999.00","Light Snow","snow","0","0","1","0","0","0","METAR UKKK 010430Z 34003MPS 320V020 9999 -SN SCT009 BKN025 M01/M02 Q1019 R26/290058 NOSIG"
"7:00 AM EET on November 01, 2016","2016","11","01","07","00","Europe/Kiev","5:00 AM GMT on November 01, 2016","2016","11","01","05","00","UTC","-1.0","30.2","-2.0","28.4","93","14.4","8.9","-9999.0","-9999.0","360","North","10.0","6.2","1020","30.12","-5.5","22.1","-9999","-9999","-9999.00","-9999.00","Light Snow","snow","0","0","1","0","0","0","METAR UKKK 010500Z 36004MPS 9999 -SN SCT009 OVC026 M01/M02 Q1020 R26/290058 NOSIG"
"7:30 AM EET on November 01, 2016","2016","11","01","07","30","Europe/Kiev","5:30 AM GMT on November 01, 2016","2016","11","01","05","30","UTC","-1.0","30.2","-2.0","28.4","93","10.8","6.7","-9999.0","-9999.0","350","North","10.0","6.2","1020","30.12","-4.7","23.5","-9999","-9999","-9999.00","-9999.00","Overcast","cloudy","0","0","0","0","0","0","METAR UKKK 010530Z 35003MPS 9999 BKN010 OVC026 M01/M02 Q1020 R26/290058 NOSIG"
"8:00 AM EET on November 01, 2016","2016","11","01","08","00","Europe/Kiev","6:00 AM GMT on November 01, 2016","2016","11","01","06","00","UTC","-0","31","-3","27","78","10.8","6.7","","","40","NE","10","6","1022","30.17","-999","-999","-9999","-9999","","","Partly Cloudy","partlycloudy","0","0","0","0","0","0","AAXX 01061 33345 11497 60403 11005 21029 30004 40215 52015 69932 70272 86500 333 21010 43001 86616 555 1/100 52101"
"8:00 AM EET on November 01, 2016","2016","11","01","08","00","Europe/Kiev","6:00 AM GMT on November 01, 2016","2016","11","01","06","00","UTC","-1.0","30.2","-3.0","26.6","86","10.8","6.7","-9999.0","-9999.0","330","NNW","10.0","6.2","1020","30.12","-4.7","23.5","-9999","-9999","-9999.00","-9999.00","Mostly Cloudy","mostlycloudy","0","0","0","0","0","0","METAR UKKK 010600Z 33003MPS 300V010 9999 BKN013 M01/M03 Q1020 R26/290058 NOSIG"
"8:30 AM EET on November 01, 2016","2016","11","01","08","30","Europe/Kiev","6:30 AM GMT on November 01, 2016","2016","11","01","06","30","UTC","-1.0","30.2","-3.0","26.6","86","10.8","6.7","-9999.0","-9999.0","340","NNW","10.0","6.2","1020","30.12","-4.7","23.5","-9999","-9999","-9999.00","-9999.00","Mostly Cloudy","mostlycloudy","0","0","0","0","0","0","METAR UKKK 010630Z 34003MPS 320V030 9999 BKN011 M01/M03 Q1020 R26/290058 NOSIG"
"9:00 AM EET on November 01, 2016","2016","11","01","09","00","Europe/Kiev","7:00 AM GMT on November 01, 2016","2016","11","01","07","00","UTC","0.0","32.0","-3.0","26.6","80","10.8","6.7","-9999.0","-9999.0","330","NNW","10.0","6.2","1021","30.15","-3.5","25.7","-9999","-9999","-9999.00","-9999.00","Mostly Cloudy","mostlycloudy","0","0","0","0","0","0","METAR UKKK 010700Z 33003MPS 9999 BKN012 M00/M03 Q1021 R26/290058 NOSIG"
"9:30 AM EET on November 01, 2016","2016","11","01","09","30","Europe/Kiev","7:30 AM GMT on November 01, 2016","2016","11","01","07","30","UTC","0.0","32.0","-3.0","26.6","80","10.8","6.7","-9999.0","-9999.0","340","NNW","10.0","6.2","1021","30.15","-3.5","25.7","-9999","-9999","-9999.00","-9999.00","Mostly Cloudy","mostlycloudy","0","0","0","0","0","0","METAR UKKK 010730Z 34003MPS 310V040 9999 BKN016 M00/M03 Q1021 R26/290058 NOSIG"
"10:00 AM EET on November 01, 2016","2016","11","01","10","00","Europe/Kiev","8:00 AM GMT on November 01, 2016","2016","11","01","08","00","UTC","0.0","32.0","-3.0","26.6","80","14.4","8.9","-9999.0","-9999.0","330","NNW","10.0","6.2","1021","30.15","-4.3","24.3","-9999","-9999","-9999.00","-9999.00","Mostly Cloudy","mostlycloudy","0","0","0","0","0","0","METAR UKKK 010800Z 33004MPS 290V360 9999 BKN014 M00/M03 Q1021 R26/290058 NOSIG"
"10:30 AM EET on November 01, 2016","2016","11","01","10","30","Europe/Kiev","8:30 AM GMT on November 01, 2016","2016","11","01","08","30","UTC","0.0","32.0","-3.0","26.6","80","10.8","6.7","-9999.0","-9999.0","330","NNW","10.0","6.2","1021","30.15","-3.5","25.7","-9999","-9999","-9999.00","-9999.00","Mostly Cloudy","mostlycloudy","0","0","0","0","0","0","METAR UKKK 010830Z 33003MPS 9999 SCT018 BKN024 00/M03 Q1021 R26/290058 NOSIG"
"11:00 AM EET on November 01, 2016","2016","11","01","11","00","Europe/Kiev","9:00 AM GMT on November 01, 2016","2016","11","01","09","00","UTC","1","33","-3","26","67","10.8","6.7","","","0","North","20","12","1023","30.20","-999","-999","-9999","-9999","","","Mostly Cloudy","mostlycloudy","0","0","0","0","0","0","AAXX 01091 33345 42598 73603 10007 21032 30015 40226 52011 87500 333 87620 555 11004"
"11:00 AM EET on November 01, 2016","2016","11","01","11","00","Europe/Kiev","9:00 AM GMT on November 01, 2016","2016","11","01","09","00","UTC","1.0","33.8","-4.0","24.8","70","10.8","6.7","-9999.0","-9999.0","340","NNW","10.0","6.2","1021","30.15","-2.3","27.9","-9999","-9999","-9999.00","-9999.00","Mostly Cloudy","mostlycloudy","0","0","0","0","0","0","METAR UKKK 010900Z 34003MPS 9999 BKN020 01/M04 Q1021 R26/290058 NOSIG"
"11:30 AM EET on November 01, 2016","2016","11","01","11","30","Europe/Kiev","9:30 AM GMT on November 01, 2016","2016","11","01","09","30","UTC","1.0","33.8","-4.0","24.8","70","14.4","8.9","-9999.0","-9999.0","320","NW","10.0","6.2","1021","30.15","-3.0","26.5","-9999","-9999","-9999.00","-9999.00","Mostly Cloudy","mostlycloudy","0","0","0","0","0","0","METAR UKKK 010930Z 32004MPS 300V360 9999 SCT018 BKN033 01/M04 Q1021 R26/290058 NOSIG"
"12:00 PM EET on November 01, 2016","2016","11","01","12","00","Europe/Kiev","10:00 AM GMT on November 01, 2016","2016","11","01","10","00","UTC","1.0","33.8","-4.0","24.8","70","14.4","8.9","-9999.0","-9999.0","330","NNW","10.0","6.2","1021","30.15","-3.0","26.5","-9999","-9999","-9999.00","-9999.00","Mostly Cloudy","mostlycloudy","0","0","0","0","0","0","METAR UKKK 011000Z 33004MPS 280V010 9999 BKN021 01/M04 Q1021 R26/290058 NOSIG"
"12:30 PM EET on November 01, 2016","2016","11","01","12","30","Europe/Kiev","10:30 AM GMT on November 01, 2016","2016","11","01","10","30","UTC","1.0","33.8","-5.0","23.0","65","10.8","6.7","-9999.0","-9999.0","310","NW","10.0","6.2","1021","30.15","-2.3","27.9","-9999","-9999","-9999.00","-9999.00","Mostly Cloudy","mostlycloudy","0","0","0","0","0","0","METAR UKKK 011030Z 31003MPS 280V350 9999 BKN029 01/M05 Q1021 R26/290058 NOSIG"
"1:00 PM EET on November 01, 2016","2016","11","01","13","00","Europe/Kiev","11:00 AM GMT on November 01, 2016","2016","11","01","11","00","UTC","1.0","33.8","-4.0","24.8","70","10.8","6.7","-9999.0","-9999.0","300","WNW","10.0","6.2","1021","30.15","-2.3","27.9","-9999","-9999","-9999.00","-9999.00","Mostly Cloudy","mostlycloudy","0","0","0","0","0","0","METAR UKKK 011100Z 30003MPS 270V330 9999 BKN028 01/M04 Q1021 R26/CLRD70 NOSIG"
"1:30 PM EET on November 01, 2016","2016","11","01","13","30","Europe/Kiev","11:30 AM GMT on November 01, 2016","2016","11","01","11","30","UTC","1.0","33.8","-4.0","24.8","70","10.8","6.7","-9999.0","-9999.0","310","NW","10.0","6.2","1021","30.15","-2.3","27.9","-9999","-9999","-9999.00","-9999.00","Mostly Cloudy","mostlycloudy","0","0","0","0","0","0","METAR UKKK 011130Z 31003MPS 280V350 9999 BKN035 01/M04 Q1021 R26/CLRD70 NOSIG"
"2:00 PM EET on November 01, 2016","2016","11","01","14","00","Europe/Kiev","12:00 PM GMT on November 01, 2016","2016","11","01","12","00","UTC","1","34","-4","25","58","3.6","2.2","","","310","NW","20","12","1022","30.19","-999","-999","-9999","-9999","","","Mostly Cloudy","mostlycloudy","0","0","0","0","0","0","AAXX 01121 33345 32698 73101 10011 21041 30013 40223 58002 87500 333 87636 555 11004"
"2:00 PM EET on November 01, 2016","2016","11","01","14","00","Europe/Kiev","12:00 PM GMT on November 01, 2016","2016","11","01","12","00","UTC","1.0","33.8","-4.0","24.8","70","10.8","6.7","-9999.0","-9999.0","280","West","10.0","6.2","1021","30.15","-2.3","27.9","-9999","-9999","-9999.00","-9999.00","Mostly Cloudy","mostlycloudy","0","0","0","0","0","0","METAR UKKK 011200Z 28003MPS 9999 BKN025 01/M04 Q1021 R26/CLRD70 NOSIG"
"2:30 PM EET on November 01, 2016","2016","11","01","14","30","Europe/Kiev","12:30 PM GMT on November 01, 2016","2016","11","01","12","30","UTC","1.0","33.8","-4.0","24.8","70","10.8","6.7","-9999.0","-9999.0","290","WNW","10.0","6.2","1021","30.15","-2.3","27.9","-9999","-9999","-9999.00","-9999.00","Mostly Cloudy","mostlycloudy","0","0","0","0","0","0","METAR UKKK 011230Z 29003MPS 9999 BKN036 01/M04 Q1021 R26/CLRD70 NOSIG"
"3:00 PM EET on November 01, 2016","2016","11","01","15","00","Europe/Kiev","1:00 PM GMT on November 01, 2016","2016","11","01","13","00","UTC","1.0","33.8","-4.0","24.8","70","14.4","8.9","-9999.0","-9999.0","280","West","10.0","6.2","1021","30.15","-3.0","26.5","-9999","-9999","-9999.00","-9999.00","Mostly Cloudy","mostlycloudy","0","0","0","0","0","0","METAR UKKK 011300Z 28004MPS 9999 BKN028 01/M04 Q1021 R26/CLRD70 NOSIG"
"3:30 PM EET on November 01, 2016","2016","11","01","15","30","Europe/Kiev","1:30 PM GMT on November 01, 2016","2016","11","01","13","30","UTC","1.0","33.8","-4.0","24.8","70","14.4","8.9","-9999.0","-9999.0","260","West","10.0","6.2","1021","30.15","-3.0","26.5","-9999","-9999","-9999.00","-9999.00","Mostly Cloudy","mostlycloudy","0","0","0","0","0","0","METAR UKKK 011330Z 26004MPS 230V290 9999 BKN026 01/M04 Q1021 R26/CLRD70 NOSIG"
"4:00 PM EET on November 01, 2016","2016","11","01","16","00","Europe/Kiev","2:00 PM GMT on November 01, 2016","2016","11","01","14","00","UTC","0.0","32.0","-4.0","24.8","75","18.0","11.2","-9999.0","-9999.0","270","West","10.0","6.2","1021","30.15","-4.9","23.2","-9999","-9999","-9999.00","-9999.00","Mostly Cloudy","mostlycloudy","0","0","0","0","0","0","METAR UKKK 011400Z 27005MPS 9999 BKN026 00/M04 Q1021 R26/CLRD70 NOSIG"
"4:30 PM EET on November 01, 2016","2016","11","01","16","30","Europe/Kiev","2:30 PM GMT on November 01, 2016","2016","11","01","14","30","UTC","-1.0","30.2","-4.0","24.8","80","18.0","11.2","-9999.0","-9999.0","270","West","10.0","6.2","1021","30.15","-6.2","20.9","-9999","-9999","-9999.00","-9999.00","Mostly Cloudy","mostlycloudy","0","0","0","0","0","0","METAR UKKK 011430Z 27005MPS 9999 BKN023 M01/M04 Q1021 R26/CLRD70 NOSIG"
"5:00 PM EET on November 01, 2016","2016","11","01","17","00","Europe/Kiev","3:00 PM GMT on November 01, 2016","2016","11","01","15","00","UTC","0","32","-4","26","69","14.4","8.9","","","290","WNW","20","12","1022","30.19","-999","-999","-9999","-9999","","","Mostly Cloudy","mostlycloudy","0","0","0","0","0","0","AAXX 01151 33345 42598 72904 10002 21035 30013 40224 54000 87500 333 87630 555 11000"
"5:00 PM EET on November 01, 2016","2016","11","01","17","00","Europe/Kiev","3:00 PM GMT on November 01, 2016","2016","11","01","15","00","UTC","-1.0","30.2","-4.0","24.8","80","10.8","6.7","-9999.0","-9999.0","270","West","10.0","6.2","1021","30.15","-4.7","23.5","-9999","-9999","-9999.00","-9999.00","Mostly Cloudy","mostlycloudy","0","0","0","0","0","0","METAR UKKK 011500Z 27003MPS 9999 BKN028 M01/M04 Q1021 R26/CLRD70 NOSIG"
"5:30 PM EET on November 01, 2016","2016","11","01","17","30","Europe/Kiev","3:30 PM GMT on November 01, 2016","2016","11","01","15","30","UTC","-2.0","28.4","-5.0","23.0","80","10.8","6.7","-9999.0","-9999.0","270","West","-9999.0","-9999.0","1021","30.15","-5.9","21.4","-9999","-9999","-9999.00","-9999.00","Clear","clear","0","0","0","0","0","0","METAR UKKK 011530Z 27003MPS CAVOK M02/M05 Q1021 R26/CLRD70 NOSIG"
"6:00 PM EET on November 01, 2016","2016","11","01","18","00","Europe/Kiev","4:00 PM GMT on November 01, 2016","2016","11","01","16","00","UTC","-2.0","28.4","-5.0","23.0","80","10.8","6.7","-9999.0","-9999.0","270","West","-9999.0","-9999.0","1021","30.15","-5.9","21.4","-9999","-9999","-9999.00","-9999.00","Clear","clear","0","0","0","0","0","0","METAR UKKK 011600Z 27003MPS CAVOK M02/M05 Q1021 R26/CLRD70 NOSIG"
"6:30 PM EET on November 01, 2016","2016","11","01","18","30","Europe/Kiev","4:30 PM GMT on November 01, 2016","2016","11","01","16","30","UTC","-2.0","28.4","-4.0","24.8","86","10.8","6.7","-9999.0","-9999.0","260","West","-9999.0","-9999.0","1021","30.15","-5.9","21.4","-9999","-9999","-9999.00","-9999.00","Clear","clear","0","0","0","0","0","0","METAR UKKK 011630Z 26003MPS CAVOK M02/M04 Q1021 R26/CLRD70 NOSIG"
"7:00 PM EET on November 01, 2016","2016","11","01","19","00","Europe/Kiev","5:00 PM GMT on November 01, 2016","2016","11","01","17","00","UTC","-2.0","28.4","-4.0","24.8","86","7.2","4.5","-9999.0","-9999.0","260","West","9.0","5.6","1021","30.15","-4.8","23.4","-9999","-9999","-9999.00","-9999.00","Scattered Clouds","partlycloudy","0","0","0","0","0","0","METAR UKKK 011700Z 26002MPS 9000 FEW036 SCT200 M02/M04 Q1021 R26/CLRD70 NOSIG"
"7:30 PM EET on November 01, 2016","2016","11","01","19","30","Europe/Kiev","5:30 PM GMT on November 01, 2016","2016","11","01","17","30","UTC","-2.0","28.4","-4.0","24.8","86","7.2","4.5","-9999.0","-9999.0","250","WSW","9.0","5.6","1020","30.12","-4.8","23.4","-9999","-9999","-9999.00","-9999.00","Mostly Cloudy","mostlycloudy","0","0","0","0","0","0","METAR UKKK 011730Z 25002MPS 9000 BKN033 M02/M04 Q1020 R26/CLRD70 NOSIG"
"8:00 PM EET on November 01, 2016","2016","11","01","20","00","Europe/Kiev","6:00 PM GMT on November 01, 2016","2016","11","01","18","00","UTC","-2","29","-4","26","81","3.6","2.2","","","310","NW","20","12","1022","30.18","-999","-999","-9999","-9999","","","Mostly Cloudy","mostlycloudy","0","0","0","0","0","0","AAXX 01181 33345 32598 73101 11016 21036 30006 40218 58007 87500 333 10014 87631 555 14100"
"8:00 PM EET on November 01, 2016","2016","11","01","20","00","Europe/Kiev","6:00 PM GMT on November 01, 2016","2016","11","01","18","00","UTC","-2.0","28.4","-4.0","24.8","86","3.6","2.2","-9999.0","-9999.0","220","SW","9.0","5.6","1020","30.12","-999","-999","-9999","-9999","-9999.00","-9999.00","Mostly Cloudy","mostlycloudy","0","0","0","0","0","0","METAR UKKK 011800Z 22001MPS 9000 BKN030 M02/M04 Q1020 R26/CLRD70 NOSIG"
"8:30 PM EET on November 01, 2016","2016","11","01","20","30","Europe/Kiev","6:30 PM GMT on November 01, 2016","2016","11","01","18","30","UTC","-2.0","28.4","-4.0","24.8","86","0.0","0.0","-9999.0","-9999.0","0","North","9.0","5.6","1020","30.12","-999","-999","-9999","-9999","-9999.00","-9999.00","Mostly Cloudy","mostlycloudy","0","0","0","0","0","0","METAR UKKK 011830Z 00000MPS 9000 BKN030 M02/M04 Q1020 R26/CLRD70 NOSIG"
"9:00 PM EET on November 01, 2016","2016","11","01","21","00","Europe/Kiev","7:00 PM GMT on November 01, 2016","2016","11","01","19","00","UTC","-2.0","28.4","-4.0","24.8","86","3.6","2.2","-9999.0","-9999.0","0","Variable","10.0","6.2","1020","30.12","-999","-999","-9999","-9999","-9999.00","-9999.00","Mostly Cloudy","mostlycloudy","0","0","0","0","0","0","METAR UKKK 011900Z VRB01MPS 9999 BKN030 M02/M04 Q1020 R26/CLRD70 NOSIG"
"9:30 PM EET on November 01, 2016","2016","11","01","21","30","Europe/Kiev","7:30 PM GMT on November 01, 2016","2016","11","01","19","30","UTC","-2.0","28.4","-4.0","24.8","86","3.6","2.2","-9999.0","-9999.0","0","Variable","10.0","6.2","1020","30.12","-999","-999","-9999","-9999","-9999.00","-9999.00","Mostly Cloudy","mostlycloudy","0","0","0","0","0","0","METAR UKKK 011930Z VRB01MPS 9999 SCT030 BKN150 M02/M04 Q1020 R26/CLRD70 NOSIG"
"10:00 PM EET on November 01, 2016","2016","11","01","22","00","Europe/Kiev","8:00 PM GMT on November 01, 2016","2016","11","01","20","00","UTC","-2.0","28.4","-4.0","24.8","86","3.6","2.2","-9999.0","-9999.0","210","SSW","9.0","5.6","1020","30.12","-999","-999","-9999","-9999","-9999.00","-9999.00","Unknown","unknown","0","0","0","0","0","0","METAR UKKK 012000Z 21001MPS 9000 NSC M02/M04 Q1020 R26/CLRD70 NOSIG"
"10:30 PM EET on November 01, 2016","2016","11","01","22","30","Europe/Kiev","8:30 PM GMT on November 01, 2016","2016","11","01","20","30","UTC","-3.0","26.6","-4.0","24.8","93","3.6","2.2","-9999.0","-9999.0","170","South","7.0","4.3","1020","30.12","-999","-999","-9999","-9999","-9999.00","-9999.00","Unknown","unknown","0","0","0","0","0","0","METAR UKKK 012030Z 17001MPS 7000 NSC M03/M04 Q1020 R26/CLRD70 NOSIG"
"11:00 PM EET on November 01, 2016","2016","11","01","23","00","Europe/Kiev","9:00 PM GMT on November 01, 2016","2016","11","01","21","00","UTC","-3","27","-4","24","84","7.2","4.5","","","250","WSW","4","2","1021","30.16","-999","-999","-9999","-9999","","","Mist","hazy","0","0","0","0","0","0","AAXX 01211 33345 41996 02502 11028 21044 39998 40211 57008 71011 555 14101"
"11:00 PM EET on November 01, 2016","2016","11","01","23","00","Europe/Kiev","9:00 PM GMT on November 01, 2016","2016","11","01","21","00","UTC","-3.0","26.6","-4.0","24.8","93","0.0","0.0","-9999.0","-9999.0","0","North","9.0","5.6","1019","30.09","-999","-999","-9999","-9999","-9999.00","-9999.00","Unknown","unknown","0","0","0","0","0","0","METAR UKKK 012100Z 00000MPS 9000 NSC M03/M04 Q1019 R08/CLRD70 TEMPO 2000 BR"
"11:30 PM EET on November 01, 2016","2016","11","01","23","30","Europe/Kiev","9:30 PM GMT on November 01, 2016","2016","11","01","21","30","UTC","-3.0","26.6","-4.0","24.8","93","0.0","0.0","-9999.0","-9999.0","0","North","8.0","5.0","1019","30.09","-999","-999","-9999","-9999","-9999.00","-9999.00","Mostly Cloudy","mostlycloudy","0","0","0","0","0","0","METAR UKKK 012130Z 00000MPS 8000 SCT030 BKN100 M03/M04 Q1019 R08/CLRD70 TEMPO 2000 BR"
"12:00 AM EET on November 02, 2016","2016","11","02","00","00","Europe/Kiev","10:00 PM GMT on November 01, 2016","2016","11","01","22","00","UTC","-3.0","26.6","-4.0","24.8","93","0.0","0.0","-9999.0","-9999.0","0","North","8.0","5.0","1019","30.09","-999","-999","-9999","-9999","-9999.00","-9999.00","Mostly Cloudy","mostlycloudy","0","0","0","0","0","0","METAR UKKK 012200Z 00000MPS 8000 SCT030 BKN100 M03/M04 Q1019 R08/CLRD70 TEMPO 2000 BR"
"12:30 AM EET on November 02, 2016","2016","11","02","00","30","Europe/Kiev","10:30 PM GMT on November 01, 2016","2016","11","01","22","30","UTC","-2.0","28.4","-3.0","26.6","93","0.0","0.0","-9999.0","-9999.0","0","North","7.0","4.3","1019","30.09","-999","-999","-9999","-9999","-9999.00","-9999.00","Mostly Cloudy","mostlycloudy","0","0","0","0","0","0","METAR UKKK 012230Z 00000MPS 7000 SCT030 BKN100 M02/M03 Q1019 R08/CLRD70 TEMPO 2000 BR"
"1:00 AM EET on November 02, 2016","2016","11","02","01","00","Europe/Kiev","11:00 PM GMT on November 01, 2016","2016","11","01","23","00","UTC","-2.0","28.4","-3.0","26.6","93","3.6","2.2","-9999.0","-9999.0","0","Variable","10.0","6.2","1018","30.06","-999","-999","-9999","-9999","-9999.00","-9999.00","Mostly Cloudy","mostlycloudy","0","0","0","0","0","0","METAR UKKK 012300Z VRB01MPS 9999 BKN026 M02/M03 Q1018 R08/CLRD70 NOSIG"
"1:30 AM EET on November 02, 2016","2016","11","02","01","30","Europe/Kiev","11:30 PM GMT on November 01, 2016","2016","11","01","23","30","UTC","-1.0","30.2","-3.0","26.6","86","7.2","4.5","-9999.0","-9999.0","160","SSE","10.0","6.2","1018","30.06","-3.6","25.5","-9999","-9999","-9999.00","-9999.00","Mostly Cloudy","mostlycloudy","0","0","0","0","0","0","METAR UKKK 012330Z 16002MPS 100V230 9999 BKN030 M01/M03 Q1018 R08/CLRD70 NOSIG"
"2:00 AM EET on November 02, 2016","2016","11","02","02","00","Europe/Kiev","12:00 AM GMT on November 02, 2016","2016","11","02","00","00","UTC","-2","28","-4","26","86","7.2","4.5","","","190","South","4","2","1020","30.11","-999","-999","-9999","-9999","","","Mist","hazy","0","0","0","0","0","0","AAXX 02001 33345 31696 71902 11021 21036 39983 40195 58015 71011 87500 333 87636 555 14101"
"2:00 AM EET on November 02, 2016","2016","11","02","02","00","Europe/Kiev","12:00 AM GMT on November 02, 2016","2016","11","02","00","00","UTC","-1.0","30.2","-3.0","26.6","86","7.2","4.5","-9999.0","-9999.0","160","SSE","10.0","6.2","1018","30.06","-3.6","25.5","-9999","-9999","-9999.00","-9999.00","Mostly Cloudy","mostlycloudy","0","0","0","0","0","0","METAR UKKK 020000Z 16002MPS 110V200 9999 BKN030 M01/M03 Q1018 R08/CLRD70 NOSIG"
"2:30 AM EET on November 02, 2016","2016","11","02","02","30","Europe/Kiev","12:30 AM GMT on November 02, 2016","2016","11","02","00","30","UTC","-1.0","30.2","-3.0","26.6","86","7.2","4.5","-9999.0","-9999.0","180","South","10.0","6.2","1017","30.04","-3.6","25.5","-9999","-9999","-9999.00","-9999.00","Mostly Cloudy","mostlycloudy","0","0","0","0","0","0","METAR UKKK 020030Z 18002MPS 130V260 9999 BKN030 M01/M03 Q1017 R08/CLRD70 NOSIG"
"3:00 AM EET on November 02, 2016","2016","11","02","03","00","Europe/Kiev","1:00 AM GMT on November 02, 2016","2016","11","02","01","00","UTC","-1.0","30.2","-3.0","26.6","86","7.2","4.5","-9999.0","-9999.0","170","South","9.0","5.6","1017","30.04","-3.6","25.5","-9999","-9999","-9999.00","-9999.00","Light Snow","snow","0","0","1","0","0","0","METAR UKKK 020100Z 17002MPS 120V250 9000 -SN OVC026 M01/M03 Q1017 R08/CLRD70 NOSIG"
"3:30 AM EET on November 02, 2016","2016","11","02","03","30","Europe/Kiev","1:30 AM GMT on November 02, 2016","2016","11","02","01","30","UTC","-1.0","30.2","-3.0","26.6","86","7.2","4.5","-9999.0","-9999.0","170","South","10.0","6.2","1016","30.01","-3.6","25.5","-9999","-9999","-9999.00","-9999.00","Light Snow","snow","0","0","1","0","0","0","METAR UKKK 020130Z 17002MPS 130V220 9999 -SN OVC023 M01/M03 Q1016 R08/CLRD70 NOSIG"
"4:00 AM EET on November 02, 2016","2016","11","02","04","00","Europe/Kiev","2:00 AM GMT on November 02, 2016","2016","11","02","02","00","UTC","-1.0","30.2","-3.0","26.6","86","7.2","4.5","-9999.0","-9999.0","150","SSE","10.0","6.2","1016","30.01","-3.6","25.5","-9999","-9999","-9999.00","-9999.00","Overcast","cloudy","0","0","0","0","0","0","METAR UKKK 020200Z 15002MPS 110V190 9999 OVC022 M01/M03 Q1016 R08/CLRD70 NOSIG"
"4:30 AM EET on November 02, 2016","2016","11","02","04","30","Europe/Kiev","2:30 AM GMT on November 02, 2016","2016","11","02","02","30","UTC","-1.0","30.2","-3.0","26.6","86","7.2","4.5","-9999.0","-9999.0","170","South","10.0","6.2","1015","29.98","-3.6","25.5","-9999","-9999","-9999.00","-9999.00","Overcast","cloudy","0","0","0","0","0","0","METAR UKKK 020230Z 17002MPS 120V210 9999 BKN024 OVC090 M01/M03 Q1015 R08/CLRD70 NOSIG"
"5:00 AM EET on November 02, 2016","2016","11","02","05","00","Europe/Kiev","3:00 AM GMT on November 02, 2016","2016","11","02","03","00","UTC","-1","29","-3","27","89","7.2","4.5","","","190","South","4","2","1017","30.03","-999","-999","-9999","-9999","","","Mist","hazy","0","0","0","0","0","0","AAXX 02031 33345 41796 81902 11014 21028 39956 40167 57027 71022 885// 333 88655 555 14101"
"5:00 AM EET on November 02, 2016","2016","11","02","05","00","Europe/Kiev","3:00 AM GMT on November 02, 2016","2016","11","02","03","00","UTC","-1.0","30.2","-3.0","26.6","86","10.8","6.7","-9999.0","-9999.0","170","South","10.0","6.2","1015","29.98","-4.7","23.5","-9999","-9999","-9999.00","-9999.00","Overcast","cloudy","0","0","0","0","0","0","METAR UKKK 020300Z 17003MPS 130V220 9999 SCT028 OVC070 M01/M03 Q1015 R08/CLRD70 NOSIG"
"5:30 AM EET on November 02, 2016","2016","11","02","05","30","Europe/Kiev","3:30 AM GMT on November 02, 2016","2016","11","02","03","30","UTC","0.0","32.0","-3.0","26.6","80","7.2","4.5","-9999.0","-9999.0","180","South","10.0","6.2","1015","29.98","-2.5","27.6","-9999","-9999","-9999.00","-9999.00","Overcast","cloudy","0","0","0","0","0","0","METAR UKKK 020330Z 18002MPS 140V230 9999 SCT031 OVC070 M00/M03 Q1015 R08/CLRD70 NOSIG"
"6:00 AM EET on November 02, 2016","2016","11","02","06","00","Europe/Kiev","4:00 AM GMT on November 02, 2016","2016","11","02","04","00","UTC","0.0","32.0","-3.0","26.6","80","10.8","6.7","-9999.0","-9999.0","180","South","10.0","6.2","1014","29.95","-3.5","25.7","-9999","-9999","-9999.00","-9999.00","Mostly Cloudy","mostlycloudy","0","0","0","0","0","0","METAR UKKK 020400Z 18003MPS 140V220 9999 FEW036 BKN070 M00/M03 Q1014 R08/CLRD70 NOSIG"
"6:30 AM EET on November 02, 2016","2016","11","02","06","30","Europe/Kiev","4:30 AM GMT on November 02, 2016","2016","11","02","04","30","UTC","0.0","32.0","-3.0","26.6","80","10.8","6.7","-9999.0","-9999.0","180","South","9.0","5.6","1014","29.95","-3.5","25.7","-9999","-9999","-9999.00","-9999.00","Light Snow","snow","0","0","1","0","0","0","METAR UKKK 020430Z 18003MPS 120V230 9000 -SN OVC043 M00/M03 Q1014 R08/CLRD70 TEMPO 2000 -SN BR"
"7:00 AM EET on November 02, 2016","2016","11","02","07","00","Europe/Kiev","5:00 AM GMT on November 02, 2016","2016","11","02","05","00","UTC","0.0","32.0","-2.0","28.4","87","10.8","6.7","-9999.0","-9999.0","180","South","4.5","2.8","1014","29.95","-3.5","25.7","-9999","-9999","-9999.00","-9999.00","Light Snow","snow","0","0","1","0","0","0","METAR UKKK 020500Z 18003MPS 150V220 4500 -SN OVC032 M00/M02 Q1014 R08/CLRD70 TEMPO 2000 -SN BR"
"7:30 AM EET on November 02, 2016","2016","11","02","07","30","Europe/Kiev","5:30 AM GMT on November 02, 2016","2016","11","02","05","30","UTC","0.0","32.0","-2.0","28.4","87","14.4","8.9","-9999.0","-9999.0","170","South","2.9","1.8","1013","29.92","-4.3","24.3","-9999","-9999","-9999.00","-9999.00","Light Snow","snow","0","0","1","0","0","0","METAR UKKK 020530Z 17004MPS 120V220 2900 -SN SCT008 OVC028 M00/M02 Q1013 R08/590150 TEMPO 2000 BR BKN005"
"8:00 AM EET on November 02, 2016","2016","11","02","08","00","Europe/Kiev","6:00 AM GMT on November 02, 2016","2016","11","02","06","00","UTC","-1","31","-2","29","91","14.4","8.9","","","190","South","4","2","1015","29.96","-999","-999","-9999","-9999","","","Light Snow","snow","0","0","1","0","0","0","AAXX 02061 33345 11496 81904 11006 21015 39936 40146 57020 69932 77172 8872/ 333 21029 47997 88711 555 1/100"
"8:00 AM EET on November 02, 2016","2016","11","02","08","00","Europe/Kiev","6:00 AM GMT on November 02, 2016","2016","11","02","06","00","UTC","0.0","32.0","-1.0","30.2","93","14.4","8.9","-9999.0","-9999.0","160","SSE","-9999.0","-9999.0","1013","29.92","-4.3","24.3","-9999","-9999","-9999.00","-9999.00","Light Snow","snow","0","0","1","0","0","0","METAR UKKK 020600Z 16004MPS 110V210 3600 -SN BKN006 OVC026 M00/M01 Q1013 R08/590150 TEMPO 2000 SN BKN005"
"8:30 AM EET on November 02, 2016","2016","11","02","08","30","Europe/Kiev","6:30 AM GMT on November 02, 2016","2016","11","02","06","30","UTC","0.0","32.0","-1.0","30.2","93","14.4","8.9","-9999.0","-9999.0","160","SSE","2.6","1.6","1013","29.92","-4.3","24.3","-9999","-9999","-9999.00","-9999.00","Light Snow","snow","0","0","1","0","0","0","METAR UKKK 020630Z 16004MPS 120V200 2600 -SN BKN005 OVC026 M00/M01 Q1013 R08/590150 TEMPO 2000 SN BKN005"
"9:00 AM EET on November 02, 2016","2016","11","02","09","00","Europe/Kiev","7:00 AM GMT on November 02, 2016","2016","11","02","07","00","UTC","0.0","32.0","-1.0","30.2","93","14.4","8.9","-9999.0","-9999.0","160","SSE","2.5","1.6","1012","29.89","-4.3","24.3","-9999","-9999","-9999.00","-9999.00","Light Snow","snow","0","0","1","0","0","0","METAR UKKK 020700Z 16004MPS 130V200 2500 -SN BKN006 OVC018 M00/M01 Q1012 R08/590150 TEMPO 2000 SN BKN004"
"9:30 AM EET on November 02, 2016","2016","11","02","09","30","Europe/Kiev","7:30 AM GMT on November 02, 2016","2016","11","02","07","30","UTC","0.0","32.0","-1.0","30.2","93","18.0","11.2","36.0","22.4","160","SSE","2.5","1.6","1012","29.89","-4.9","23.2","-9999","-9999","-9999.00","-9999.00","Light Snow","snow","0","0","1","0","0","0","METAR UKKK 020730Z 16005G10MPS 110V210 2500 -SN OVC006 00/M01 Q1012 R08/590150 TEMPO 2000 SN BKN004"
"10:00 AM EET on November 02, 2016","2016","11","02","10","00","Europe/Kiev","8:00 AM GMT on November 02, 2016","2016","11","02","08","00","UTC","0.0","32.0","-1.0","30.2","93","14.4","8.9","-9999.0","-9999.0","170","South","2.8","1.7","1012","29.89","-4.3","24.3","-9999","-9999","-9999.00","-9999.00","Light Snow","snow","0","0","1","0","0","0","METAR UKKK 020800Z 17004MPS 140V220 2800 -SN OVC006 00/M01 Q1012 R08/590150 TEMPO 2000 SN BKN005"
"10:30 AM EET on November 02, 2016","2016","11","02","10","30","Europe/Kiev","8:30 AM GMT on November 02, 2016","2016","11","02","08","30","UTC","0.0","32.0","0.0","32.0","100","18.0","11.2","-9999.0","-9999.0","170","South","2.7","1.7","1011","29.86","-4.9","23.2","-9999","-9999","-9999.00","-9999.00","Light Snow","snow","0","0","1","0","0","0","METAR UKKK 020830Z 17005MPS 130V220 2700 -SN OVC006 00/M00 Q1011 R08/590150 TEMPO 2000 SN BKN005"
"11:00 AM EET on November 02, 2016","2016","11","02","11","00","Europe/Kiev","9:00 AM GMT on November 02, 2016","2016","11","02","09","00","UTC","0","32","-0","31","96","18.0","11.2","","","200","SSW","1","1","1012","29.90","-999","-999","-9999","-9999","","","Light Snow","snow","0","0","1","0","0","0","AAXX 02091 33345 41294 82005 10002 21004 39916 40125 57020 77177 8872/ 333 88705 555 1/100"
"11:00 AM EET on November 02, 2016","2016","11","02","11","00","Europe/Kiev","9:00 AM GMT on November 02, 2016","2016","11","02","09","00","UTC","0.0","32.0","0.0","32.0","100","18.0","11.2","-9999.0","-9999.0","160","SSE","2.6","1.6","1011","29.86","-4.9","23.2","-9999","-9999","-9999.00","-9999.00","Light Snow","snow","0","0","1","0","0","0","METAR UKKK 020900Z 16005MPS 130V200 2600 -SN OVC005 00/M00 Q1011 R08/590150 TEMPO 2000 SN BKN005"
"11:30 AM EET on November 02, 2016","2016","11","02","11","30","Europe/Kiev","9:30 AM GMT on November 02, 2016","2016","11","02","09","30","UTC","0.0","32.0","0.0","32.0","100","18.0","11.2","-9999.0","-9999.0","170","South","2.6","1.6","1010","29.83","-4.9","23.2","-9999","-9999","-9999.00","-9999.00","Light Snow","snow","0","0","1","0","0","0","METAR UKKK 020930Z 17005MPS 130V210 2600 -SN BR OVC005 00/M00 Q1010 R08/590150 TEMPO 2000 SHSN BKN004 BKN012CB"
"12:00 PM EET on November 02, 2016","2016","11","02","12","00","Europe/Kiev","10:00 AM GMT on November 02, 2016","2016","11","02","10","00","UTC","1.0","33.8","0.0","32.0","93","18.0","11.2","-9999.0","-9999.0","170","South","2.6","1.6","1010","29.83","-3.7","25.4","-9999","-9999","-9999.00","-9999.00","Light Snow","snow","0","0","1","0","0","0","METAR UKKK 021000Z 17005MPS 120V210 2600 -SN BR OVC006 01/M00 Q1010 R08/590150 TEMPO 2000 SHSN BKN004 BKN012CB"
"12:30 PM EET on November 02, 2016","2016","11","02","12","30","Europe/Kiev","10:30 AM GMT on November 02, 2016","2016","11","02","10","30","UTC","1.0","33.8","0.0","32.0","93","18.0","11.2","-9999.0","-9999.0","180","South","-9999.0","-9999.0","1009","29.80","-3.7","25.4","-9999","-9999","-9999.00","-9999.00","Light Snow","snow","0","0","1","0","0","0","METAR UKKK 021030Z 18005MPS 130V230 3600 -SN BR OVC005 01/00 Q1009 R08/590150 TEMPO 2000 SHSN BKN004 BKN012CB"
"1:00 PM EET on November 02, 2016","2016","11","02","13","00","Europe/Kiev","11:00 AM GMT on November 02, 2016","2016","11","02","11","00","UTC","1.0","33.8","0.0","32.0","93","18.0","11.2","-9999.0","-9999.0","170","South","8.0","5.0","1009","29.80","-3.7","25.4","-9999","-9999","-9999.00","-9999.00","Light Rain","rain","0","1","0","0","0","0","METAR UKKK 021100Z 17005MPS 130V220 8000 -RA OVC005 01/00 Q1009 R08/590150 TEMPO 2000 SHSN BKN004 BKN012CB"
"1:30 PM EET on November 02, 2016","2016","11","02","13","30","Europe/Kiev","11:30 AM GMT on November 02, 2016","2016","11","02","11","30","UTC","1.0","33.8","1.0","33.8","100","18.0","11.2","-9999.0","-9999.0","180","South","6.0","3.7","1009","29.80","-3.7","25.4","-9999","-9999","-9999.00","-9999.00","Light Rain Showers","rain","0","1","0","0","0","0","METAR UKKK 021130Z 18005MPS 150V220 6000 -SHRA BKN005 BKN021CB 01/01 Q1009 R08/290350 TEMPO 2000 SHSN BKN004 BKN012CB"
"2:00 PM EET on November 02, 2016","2016","11","02","14","00","Europe/Kiev","12:00 PM GMT on November 02, 2016","2016","11","02","12","00","UTC","1","33","-0","32","93","18.0","11.2","","","200","SSW","4","2","1010","29.82","-999","-999","-9999","-9999","","","Light Rain","rain","0","1","0","0","0","0","AAXX 02121 33345 /1296 82005 10007 21001 39889 40097 57027 76176 8872/ 333 88706 555 1/100 60041"
"2:00 PM EET on November 02, 2016","2016","11","02","14","00","Europe/Kiev","12:00 PM GMT on November 02, 2016","2016","11","02","12","00","UTC","1.0","33.8","1.0","33.8","100","14.4","8.9","-9999.0","-9999.0","180","South","6.0","3.7","1008","29.77","-3.0","26.5","-9999","-9999","-9999.00","-9999.00","Light Rain Showers","rain","0","1","0","0","0","0","METAR UKKK 021200Z 18004MPS 140V230 6000 -SHRA BKN005 BKN021CB 01/01 Q1008 R08/290350 TEMPO 2000 SHRASN BKN004 BKN012CB"
"2:30 PM EET on November 02, 2016","2016","11","02","14","30","Europe/Kiev","12:30 PM GMT on November 02, 2016","2016","11","02","12","30","UTC","1.0","33.8","1.0","33.8","100","14.4","8.9","-9999.0","-9999.0","190","South","9.0","5.6","1008","29.77","-3.0","26.5","-9999","-9999","-9999.00","-9999.00","Light Rain Showers","snow","0","1","1","0","0","0","METAR UKKK 021230Z 19004MPS 150V240 9000 -SHRASN BKN006 BKN023CB 01/01 Q1008 R08/290350 TEMPO 2000 SHRASN BKN005 BKN012CB"
"3:00 PM EET on November 02, 2016","2016","11","02","15","00","Europe/Kiev","1:00 PM GMT on November 02, 2016","2016","11","02","13","00","UTC","1.0","33.8","1.0","33.8","100","21.6","13.4","39.6","24.6","200","SSW","9.0","5.6","1008","29.77","-4.2","24.5","-9999","-9999","-9999.00","-9999.00","Light Rain Showers","snow","0","1","1","0","0","0","METAR UKKK 021300Z 20006G11MPS 170V240 9000 -SHRASN BKN006 BKN023CB 01/01 Q1008 R26/290350 TEMPO 2000 SHRASN BKN005 BKN012CB"
"3:30 PM EET on November 02, 2016","2016","11","02","15","30","Europe/Kiev","1:30 PM GMT on November 02, 2016","2016","11","02","13","30","UTC","2.0","35.6","1.0","33.8","93","18.0","11.2","-9999.0","-9999.0","200","SSW","9.0","5.6","1007","29.74","-2.4","27.7","-9999","-9999","-9999.00","-9999.00","Light Rain Showers","rain","0","1","0","0","0","0","METAR UKKK 021330Z 20005MPS 160V230 9000 -SHRA BKN006 BKN023CB 02/01 Q1007 R26/290350 TEMPO 2000 SHRASN BKN005 BKN012CB"
"4:00 PM EET on November 02, 2016","2016","11","02","16","00","Europe/Kiev","2:00 PM GMT on November 02, 2016","2016","11","02","14","00","UTC","2.0","35.6","1.0","33.8","93","21.6","13.4","39.6","24.6","190","South","8.0","5.0","1007","29.74","-2.9","26.8","-9999","-9999","-9999.00","-9999.00","Light Rain Showers","rain","0","1","0","0","0","0","METAR UKKK 021400Z 19006G11MPS 170V230 8000 -SHRA BKN005 BKN023CB 02/01 Q1007 R26/290350 TEMPO 2000 SHRASN BKN005 BKN012CB"
"4:30 PM EET on November 02, 2016","2016","11","02","16","30","Europe/Kiev","2:30 PM GMT on November 02, 2016","2016","11","02","14","30","UTC","2.0","35.6","1.0","33.8","93","18.0","11.2","-9999.0","-9999.0","200","SSW","6.0","3.7","1007","29.74","-2.4","27.7","-9999","-9999","-9999.00","-9999.00","Light Rain","rain","0","1","0","0","0","0","METAR UKKK 021430Z 20005MPS 170V230 6000 -RA OVC005 02/01 Q1007 R26/290350 TEMPO 2000 SHRASN BKN005 BKN012CB"
"5:00 PM EET on November 02, 2016","2016","11","02","17","00","Europe/Kiev","3:00 PM GMT on November 02, 2016","2016","11","02","15","00","UTC","2","35","1","35","97","18.0","11.2","","","210","SSW","4","2","1008","29.78","-999","-999","-9999","-9999","","","Light Rain","rain","0","1","0","0","0","0","AAXX 02151 33345 41296 82105 10019 20014 39875 40082 57014 76176 8872/ 333 88706 555 1/000"
"5:00 PM EET on November 02, 2016","2016","11","02","17","00","Europe/Kiev","3:00 PM GMT on November 02, 2016","2016","11","02","15","00","UTC","2.0","35.6","1.0","33.8","93","21.6","13.4","-9999.0","-9999.0","210","SSW","6.0","3.7","1007","29.74","-2.9","26.8","-9999","-9999","-9999.00","-9999.00","Light Rain","rain","0","1","0","0","0","0","METAR UKKK 021500Z 21006MPS 170V240 6000 -RA OVC005 02/01 Q1007 R26/290350 TEMPO BKN004"
"5:30 PM EET on November 02, 2016","2016","11","02","17","30","Europe/Kiev","3:30 PM GMT on November 02, 2016","2016","11","02","15","30","UTC","2.0","35.6","2.0","35.6","100","18.0","11.2","-9999.0","-9999.0","210","SSW","6.0","3.7","1007","29.74","-2.4","27.7","-9999","-9999","-9999.00","-9999.00","Light Rain","rain","0","1","0","0","0","0","METAR UKKK 021530Z 21005MPS 180V240 6000 -RA OVC006 02/02 Q1007 R26/290350 TEMPO BKN004"
"6:00 PM EET on November 02, 2016","2016","11","02","18","00","Europe/Kiev","4:00 PM GMT on November 02, 2016","2016","11","02","16","00","UTC","2.0","35.6","2.0","35.6","100","21.6","13.4","-9999.0","-9999.0","200","SSW","8.0","5.0","1007","29.74","-2.9","26.8","-9999","-9999","-9999.00","-9999.00","Light Rain","rain","0","1","0","0","0","0","METAR UKKK 021600Z 20006MPS 180V240 8000 -RA OVC006 02/02 Q1007 R26/290350 TEMPO BKN004"
"6:30 PM EET on November 02, 2016","2016","11","02","18","30","Europe/Kiev","4:30 PM GMT on November 02, 2016","2016","11","02","16","30","UTC","3.0","37.4","2.0","35.6","93","21.6","13.4","-9999.0","-9999.0","210","SSW","7.0","4.3","1006","29.71","-1.6","29.1","-9999","-9999","-9999.00","-9999.00","Light Rain Showers","rain","0","1","0","0","0","0","METAR UKKK 021630Z 21006MPS 170V240 7000 -SHRA BKN006 BKN023CB 03/02 Q1006 R26/290350 TEMPO BKN005"
"7:00 PM EET on November 02, 2016","2016","11","02","19","00","Europe/Kiev","5:00 PM GMT on November 02, 2016","2016","11","02","17","00","UTC","3.0","37.4","2.0","35.6","93","18.0","11.2","-9999.0","-9999.0","210","SSW","8.0","5.0","1006","29.71","-1.2","29.9","-9999","-9999","-9999.00","-9999.00","Light Rain Showers","rain","0","1","0","0","0","0","METAR UKKK 021700Z 21005MPS 8000 -SHRA BKN006 BKN026CB 03/02 Q1006 R26/290350 TEMPO BKN005"
"7:30 PM EET on November 02, 2016","2016","11","02","19","30","Europe/Kiev","5:30 PM GMT on November 02, 2016","2016","11","02","17","30","UTC","3.0","37.4","3.0","37.4","100","18.0","11.2","-9999.0","-9999.0","220","SW","7.0","4.3","1006","29.71","-1.2","29.9","-9999","-9999","-9999.00","-9999.00","Light Rain Showers","rain","0","1","0","0","0","0","METAR UKKK 021730Z 22005MPS 180V260 7000 -SHRA BKN006 BKN026CB 03/03 Q1006 R26/290350 TEMPO BKN005"
"8:00 PM EET on November 02, 2016","2016","11","02","20","00","Europe/Kiev","6:00 PM GMT on November 02, 2016","2016","11","02","18","00","UTC","3","37","2","35","92","10.8","6.7","","","240","WSW","4","2","1008","29.76","-999","-999","-9999","-9999","","","Light Rain","rain","0","1","0","0","0","0","AAXX 02181 33345 11396 82403 10029 20019 39870 40076 56005 60112 72176 885// 333 10031 88707 555 1/000"
"8:00 PM EET on November 02, 2016","2016","11","02","20","00","Europe/Kiev","6:00 PM GMT on November 02, 2016","2016","11","02","18","00","UTC","3.0","37.4","3.0","37.4","100","18.0","11.2","-9999.0","-9999.0","230","SW","7.0","4.3","1006","29.71","-1.2","29.9","-9999","-9999","-9999.00","-9999.00","Light Rain","rain","0","1","0","0","0","0","METAR UKKK 021800Z 23005MPS 7000 -RA OVC006 03/03 Q1006 R26/290350 TEMPO BKN005"
"8:30 PM EET on November 02, 2016","2016","11","02","20","30","Europe/Kiev","6:30 PM GMT on November 02, 2016","2016","11","02","18","30","UTC","3.0","37.4","3.0","37.4","100","14.4","8.9","-9999.0","-9999.0","250","WSW","5.0","3.1","1006","29.71","-0.6","30.9","-9999","-9999","-9999.00","-9999.00","Light Rain","rain","0","1","0","0","0","0","METAR UKKK 021830Z 25004MPS 200V280 5000 -RA BR OVC005 03/03 Q1006 R26/290350 TEMPO BKN005"
"8:46 PM EET on November 02, 2016","2016","11","02","20","46","Europe/Kiev","6:46 PM GMT on November 02, 2016","2016","11","02","18","46","UTC","4.0","39.2","3.0","37.4","93","14.4","8.9","-9999.0","-9999.0","250","WSW","-9999.0","-9999.0","1006","29.71","0.6","33.1","-9999","-9999","-9999.00","-9999.00","Light Rain","rain","0","1","0","0","0","0","SPECI UKKK 021846Z 25004MPS 210V280 4400 -RA BR OVC004 04/03 Q1006 R26/290350 TEMPO BKN004"
"9:00 PM EET on November 02, 2016","2016","11","02","21","00","Europe/Kiev","7:00 PM GMT on November 02, 2016","2016","11","02","19","00","UTC","4.0","39.2","3.0","37.4","93","14.4","8.9","-9999.0","-9999.0","230","SW","-9999.0","-9999.0","1006","29.71","0.6","33.1","-9999","-9999","-9999.00","-9999.00","Light Rain","rain","0","1","0","0","0","0","METAR UKKK 021900Z 23004MPS 4400 -RA BR OVC005 04/03 Q1006 R26/290350 TEMPO BKN003"
"9:30 PM EET on November 02, 2016","2016","11","02","21","30","Europe/Kiev","7:30 PM GMT on November 02, 2016","2016","11","02","19","30","UTC","4.0","39.2","3.0","37.4","93","14.4","8.9","-9999.0","-9999.0","230","SW","-9999.0","-9999.0","1006","29.71","0.6","33.1","-9999","-9999","-9999.00","-9999.00","Light Rain","rain","0","1","0","0","0","0","METAR UKKK 021930Z 23004MPS 4400 -RA BR OVC006 04/03 Q1006 R26/290350 TEMPO BKN003"
"9:50 PM EET on November 02, 2016","2016","11","02","21","50","Europe/Kiev","7:50 PM GMT on November 02, 2016","2016","11","02","19","50","UTC","4.0","39.2","3.0","37.4","93","10.8","6.7","-9999.0","-9999.0","240","WSW","-9999.0","-9999.0","1006","29.71","1.3","34.4","-9999","-9999","-9999.00","-9999.00","Light Rain","rain","0","1","0","0","0","0","SPECI UKKK 021950Z 24003MPS 3900 -RA BR OVC004 04/03 Q1006 R26/290350 TEMPO BKN003"
"10:00 PM EET on November 02, 2016","2016","11","02","22","00","Europe/Kiev","8:00 PM GMT on November 02, 2016","2016","11","02","20","00","UTC","4.0","39.2","4.0","39.2","100","14.4","8.9","-9999.0","-9999.0","240","WSW","-9999.0","-9999.0","1006","29.71","0.6","33.1","-9999","-9999","-9999.00","-9999.00","Light Rain","rain","0","1","0","0","0","0","METAR UKKK 022000Z 24004MPS 3700 -RA BR OVC004 04/04 Q1006 R26/290350 TEMPO BKN003"
"10:30 PM EET on November 02, 2016","2016","11","02","22","30","Europe/Kiev","8:30 PM GMT on November 02, 2016","2016","11","02","20","30","UTC","4.0","39.2","4.0","39.2","100","10.8","6.7","-9999.0","-9999.0","240","WSW","3.0","1.9","1006","29.71","1.3","34.4","-9999","-9999","-9999.00","-9999.00","Light Rain","rain","0","1","0","0","0","0","METAR UKKK 022030Z 24003MPS 3000 -RA BR OVC004 04/04 Q1006 R26/290350 TEMPO 1400 -RA BR OVC002"
"11:00 PM EET on November 02, 2016","2016","11","02","23","00","Europe/Kiev","9:00 PM GMT on November 02, 2016","2016","11","02","21","00","UTC","4","39","3","38","94","7.2","4.5","","","260","West","4","2","1007","29.75","-999","-999","-9999","-9999","","","Light Rain","rain","0","1","0","0","0","0","AAXX 02211 33345 41396 82602 10040 20033 39867 40072 57003 76162 8872/ 333 88709 555 1/001"
"11:00 PM EET on November 02, 2016","2016","11","02","23","00","Europe/Kiev","9:00 PM GMT on November 02, 2016","2016","11","02","21","00","UTC","4.0","39.2","4.0","39.2","100","10.8","6.7","-9999.0","-9999.0","240","WSW","-9999.0","-9999.0","1006","29.71","1.3","34.4","-9999","-9999","-9999.00","-9999.00","Light Rain","rain","0","1","0","0","0","0","METAR UKKK 022100Z 24003MPS 3100 -RA BR OVC004 04/04 Q1006 R26/290350 TEMPO 2000 -RA BR OVC003"
"11:30 PM EET on November 02, 2016","2016","11","02","23","30","Europe/Kiev","9:30 PM GMT on November 02, 2016","2016","11","02","21","30","UTC","5.0","41.0","4.0","39.2","93","14.4","8.9","-9999.0","-9999.0","250","WSW","-9999.0","-9999.0","1006","29.71","1.9","35.4","-9999","-9999","-9999.00","-9999.00","Light Rain","rain","0","1","0","0","0","0","METAR UKKK 022130Z 25004MPS 4700 -RA BR SCT005 BKN040 05/04 Q1006 R26/290350 TEMPO 2000 -RA BR OVC003"
"12:00 AM EET on November 03, 2016","2016","11","03","00","00","Europe/Kiev","10:00 PM GMT on November 02, 2016","2016","11","02","22","00","UTC","5.0","41.0","4.0","39.2","93","10.8","6.7","-9999.0","-9999.0","250","WSW","6.0","3.7","1006","29.71","2.5","36.5","-9999","-9999","-9999.00","-9999.00","Mostly Cloudy","mostlycloudy","0","0","0","0","0","0","METAR UKKK 022200Z 25003MPS 6000 SCT005 BKN050 05/04 Q1006 R26/290350 TEMPO OVC006"
"12:30 AM EET on November 03, 2016","2016","11","03","00","30","Europe/Kiev","10:30 PM GMT on November 02, 2016","2016","11","02","22","30","UTC","4.0","39.2","4.0","39.2","100","10.8","6.7","-9999.0","-9999.0","250","WSW","7.0","4.3","1006","29.71","1.3","34.4","-9999","-9999","-9999.00","-9999.00","Mostly Cloudy","mostlycloudy","0","0","0","0","0","0","METAR UKKK 022230Z 25003MPS 7000 SCT007 BKN050 04/04 Q1006 R26/290350 NOSIG"
"1:00 AM EET on November 03, 2016","2016","11","03","01","00","Europe/Kiev","11:00 PM GMT on November 02, 2016","2016","11","02","23","00","UTC","4.0","39.2","4.0","39.2","100","10.8","6.7","-9999.0","-9999.0","230","SW","6.0","3.7","1006","29.71","1.3","34.4","-9999","-9999","-9999.00","-9999.00","Mostly Cloudy","mostlycloudy","0","0","0","0","0","0","METAR UKKK 022300Z 23003MPS 6000 SCT007 BKN050 04/04 Q1006 R26/290350 NOSIG"
"1:30 AM EET on November 03, 2016","2016","11","03","01","30","Europe/Kiev","11:30 PM GMT on November 02, 2016","2016","11","02","23","30","UTC","3.0","37.4","3.0","37.4","100","10.8","6.7","-9999.0","-9999.0","240","WSW","-9999.0","-9999.0","1006","29.71","0.1","32.2","-9999","-9999","-9999.00","-9999.00","Scattered Clouds","partlycloudy","0","0","0","0","0","0","METAR UKKK 022330Z 24003MPS 4600 BR FEW006 SCT050 03/03 Q1006 R26/290350 NOSIG"
"2:00 AM EET on November 03, 2016","2016","11","03","02","00","Europe/Kiev","12:00 AM GMT on November 03, 2016","2016","11","03","00","00","UTC","4","39","3","38","93","7.2","4.5","","","260","West","4","2","1008","29.75","-999","-999","-9999","-9999","","","Mist","hazy","0","0","0","0","0","0","AAXX 03001 33345 /1796 72602 10039 20032 39870 40075 53003 71062 87500 333 87655 555 1/002 69991"
"2:00 AM EET on November 03, 2016","2016","11","03","02","00","Europe/Kiev","12:00 AM GMT on November 03, 2016","2016","11","03","00","00","UTC","4.0","39.2","4.0","39.2","100","10.8","6.7","-9999.0","-9999.0","240","WSW","5.0","3.1","1006","29.71","1.3","34.4","-9999","-9999","-9999.00","-9999.00","Mostly Cloudy","mostlycloudy","0","0","0","0","0","0","METAR UKKK 030000Z 24003MPS 5000 BR SCT007 BKN053 04/04 Q1006 R26/290350 NOSIG"
"2:30 AM EET on November 03, 2016","2016","11","03","02","30","Europe/Kiev","12:30 AM GMT on November 03, 2016","2016","11","03","00","30","UTC","4.0","39.2","4.0","39.2","100","14.4","8.9","-9999.0","-9999.0","240","WSW","7.0","4.3","1006","29.71","0.6","33.1","-9999","-9999","-9999.00","-9999.00","Mostly Cloudy","mostlycloudy","0","0","0","0","0","0","METAR UKKK 030030Z 24004MPS 7000 SCT007 BKN053 04/04 Q1006 R26/290350 NOSIG"
"3:00 AM EET on November 03, 2016","2016","11","03","03","00","Europe/Kiev","1:00 AM GMT on November 03, 2016","2016","11","03","01","00","UTC","3.0","37.4","3.0","37.4","100","10.8","6.7","-9999.0","-9999.0","240","WSW","9.0","5.6","1006","29.71","0.1","32.2","-9999","-9999","-9999.00","-9999.00","Mostly Cloudy","mostlycloudy","0","0","0","0","0","0","METAR UKKK 030100Z 24003MPS 9000 SCT006 BKN053 03/03 Q1006 R26/290350 NOSIG"
"3:30 AM EET on November 03, 2016","2016","11","03","03","30","Europe/Kiev","1:30 AM GMT on November 03, 2016","2016","11","03","01","30","UTC","3.0","37.4","2.0","35.6","93","10.8","6.7","-9999.0","-9999.0","230","SW","6.0","3.7","1006","29.71","0.1","32.2","-9999","-9999","-9999.00","-9999.00","Mostly Cloudy","mostlycloudy","0","0","0","0","0","0","METAR UKKK 030130Z 23003MPS 6000 FEW008 BKN054 03/02 Q1006 R26/290350 NOSIG"
"4:00 AM EET on November 03, 2016","2016","11","03","04","00","Europe/Kiev","2:00 AM GMT on November 03, 2016","2016","11","03","02","00","UTC","2.0","35.6","2.0","35.6","100","10.8","6.7","-9999.0","-9999.0","240","WSW","7.0","4.3","1006","29.71","-1.1","30.0","-9999","-9999","-9999.00","-9999.00","Mostly Cloudy","mostlycloudy","0","0","0","0","0","0","METAR UKKK 030200Z 24003MPS 7000 FEW008 BKN054 02/02 Q1006 R26/290350 NOSIG"
"4:30 AM EET on November 03, 2016","2016","11","03","04","30","Europe/Kiev","2:30 AM GMT on November 03, 2016","2016","11","03","02","30","UTC","2.0","35.6","2.0","35.6","100","10.8","6.7","-9999.0","-9999.0","240","WSW","8.0","5.0","1006","29.71","-1.1","30.0","-9999","-9999","-9999.00","-9999.00","Unknown","unknown","0","0","0","0","0","0","METAR UKKK 030230Z 24003MPS 8000 NSC 02/02 Q1006 R26/290350 NOSIG"
"5:00 AM EET on November 03, 2016","2016","11","03","05","00","Europe/Kiev","3:00 AM GMT on November 03, 2016","2016","11","03","03","00","UTC","3","37","2","36","92","14.4","8.9","","","260","West","4","2","1008","29.76","-999","-999","-9999","-9999","","","Mist","hazy","0","0","0","0","0","0","AAXX 03031 33345 41796 72604 10028 20020 39870 40076 54000 71022 86570 555 1/100"
"5:00 AM EET on November 03, 2016","2016","11","03","05","00","Europe/Kiev","3:00 AM GMT on November 03, 2016","2016","11","03","03","00","UTC","3.0","37.4","2.0","35.6","93","14.4","8.9","-9999.0","-9999.0","230","SW","9.0","5.6","1006","29.71","-0.6","30.9","-9999","-9999","-9999.00","-9999.00","Unknown","unknown","0","0","0","0","0","0","METAR UKKK 030300Z 23004MPS 9000 NSC 03/02 Q1006 R26/290350 NOSIG"
"5:30 AM EET on November 03, 2016","2016","11","03","05","30","Europe/Kiev","3:30 AM GMT on November 03, 2016","2016","11","03","03","30","UTC","2.0","35.6","2.0","35.6","100","18.0","11.2","-9999.0","-9999.0","240","WSW","10.0","6.2","1007","29.74","-2.4","27.7","-9999","-9999","-9999.00","-9999.00","Mostly Cloudy","mostlycloudy","0","0","0","0","0","0","METAR UKKK 030330Z 24005MPS 9999 BKN036 02/02 Q1007 R26/290350 NOSIG"
"6:00 AM EET on November 03, 2016","2016","11","03","06","00","Europe/Kiev","4:00 AM GMT on November 03, 2016","2016","11","03","04","00","UTC","2.0","35.6","2.0","35.6","100","18.0","11.2","-9999.0","-9999.0","240","WSW","-9999.0","-9999.0","1006","29.71","-2.4","27.7","-9999","-9999","-9999.00","-9999.00","Clear","clear","0","0","0","0","0","0","METAR UKKK 030400Z 24005MPS CAVOK 02/02 Q1006 R26/290350 NOSIG"
"6:30 AM EET on November 03, 2016","2016","11","03","06","30","Europe/Kiev","4:30 AM GMT on November 03, 2016","2016","11","03","04","30","UTC","2.0","35.6","2.0","35.6","100","18.0","11.2","-9999.0","-9999.0","250","WSW","-9999.0","-9999.0","1006","29.71","-2.4","27.7","-9999","-9999","-9999.00","-9999.00","Clear","clear","0","0","0","0","0","0","METAR UKKK 030430Z 25005MPS CAVOK 02/02 Q1006 R26/290350 NOSIG"
"7:00 AM EET on November 03, 2016","2016","11","03","07","00","Europe/Kiev","5:00 AM GMT on November 03, 2016","2016","11","03","05","00","UTC","2.0","35.6","1.0","33.8","93","18.0","11.2","-9999.0","-9999.0","250","WSW","-9999.0","-9999.0","1006","29.71","-2.4","27.7","-9999","-9999","-9999.00","-9999.00","Clear","clear","0","0","0","0","0","0","METAR UKKK 030500Z 25005MPS CAVOK 02/01 Q1006 R26/290257 NOSIG"
"7:30 AM EET on November 03, 2016","2016","11","03","07","30","Europe/Kiev","5:30 AM GMT on November 03, 2016","2016","11","03","05","30","UTC","3.0","37.4","2.0","35.6","93","18.0","11.2","-9999.0","-9999.0","250","WSW","-9999.0","-9999.0","1007","29.74","-1.2","29.9","-9999","-9999","-9999.00","-9999.00","Clear","clear","0","0","0","0","0","0","METAR UKKK 030530Z 25005MPS CAVOK 03/02 Q1007 R26/290257 NOSIG"
"8:00 AM EET on November 03, 2016","2016","11","03","08","00","Europe/Kiev","6:00 AM GMT on November 03, 2016","2016","11","03","06","00","UTC","3","37","1","34","85","18.0","11.2","","","280","West","20","12","1008","29.76","-999","-999","-9999","-9999","","","Partly Cloudy","partlycloudy","0","0","0","0","0","0","AAXX 03061 33345 12698 62805 10030 20012 39872 40078 53002 69992 84582 333 20025 41998 555 11100"
"8:00 AM EET on November 03, 2016","2016","11","03","08","00","Europe/Kiev","6:00 AM GMT on November 03, 2016","2016","11","03","06","00","UTC","3.0","37.4","2.0","35.6","93","21.6","13.4","-9999.0","-9999.0","260","West","10.0","6.2","1007","29.74","-1.6","29.1","-9999","-9999","-9999.00","-9999.00","Scattered Clouds","partlycloudy","0","0","0","0","0","0","METAR UKKK 030600Z 26006MPS 9999 SCT032 03/02 Q1007 R26/290257 NOSIG"
"8:30 AM EET on November 03, 2016","2016","11","03","08","30","Europe/Kiev","6:30 AM GMT on November 03, 2016","2016","11","03","06","30","UTC","4.0","39.2","2.0","35.6","87","21.6","13.4","-9999.0","-9999.0","250","WSW","10.0","6.2","1007","29.74","-0.4","31.3","-9999","-9999","-9999.00","-9999.00","Scattered Clouds","partlycloudy","0","0","0","0","0","0","METAR UKKK 030630Z 25006MPS 9999 SCT033 04/02 Q1007 R26/290257 NOSIG"
"9:00 AM EET on November 03, 2016","2016","11","03","09","00","Europe/Kiev","7:00 AM GMT on November 03, 2016","2016","11","03","07","00","UTC","4.0","39.2","2.0","35.6","87","21.6","13.4","-9999.0","-9999.0","250","WSW","10.0","6.2","1007","29.74","-0.4","31.3","-9999","-9999","-9999.00","-9999.00","Scattered Clouds","partlycloudy","0","0","0","0","0","0","METAR UKKK 030700Z 25006MPS 9999 SCT034 04/02 Q1007 R26/290058 NOSIG"
"9:30 AM EET on November 03, 2016","2016","11","03","09","30","Europe/Kiev","7:30 AM GMT on November 03, 2016","2016","11","03","07","30","UTC","5.0","41.0","2.0","35.6","81","21.6","13.4","-9999.0","-9999.0","250","WSW","10.0","6.2","1007","29.74","0.9","33.6","-9999","-9999","-9999.00","-9999.00","Partly Cloudy","partlycloudy","0","0","0","0","0","0","METAR UKKK 030730Z 25006MPS 9999 FEW040 05/02 Q1007 R26/290058 NOSIG"
"10:00 AM EET on November 03, 2016","2016","11","03","10","00","Europe/Kiev","8:00 AM GMT on November 03, 2016","2016","11","03","08","00","UTC","6.0","42.8","2.0","35.6","76","28.8","17.9","-9999.0","-9999.0","250","WSW","-9999.0","-9999.0","1006","29.71","1.5","34.7","-9999","-9999","-9999.00","-9999.00","Clear","clear","0","0","0","0","0","0","METAR UKKK 030800Z 25008MPS 220V280 CAVOK 06/02 Q1006 R26/290058 NOSIG"
"10:03 AM EET on November 03, 2016","2016","11","03","10","03","Europe/Kiev","8:03 AM GMT on November 03, 2016","2016","11","03","08","03","UTC","6.0","42.8","2.0","35.6","76","28.8","17.9","46.8","29.1","260","West","-9999.0","-9999.0","1006","29.71","1.5","34.7","-9999","-9999","-9999.00","-9999.00","Clear","clear","0","0","0","0","0","0","SPECI UKKK 030803Z 26008G13MPS 220V280 CAVOK 06/02 Q1006 R26/290058 NOSIG"
"10:30 AM EET on November 03, 2016","2016","11","03","10","30","Europe/Kiev","8:30 AM GMT on November 03, 2016","2016","11","03","08","30","UTC","6.0","42.8","2.0","35.6","76","32.4","20.1","-9999.0","-9999.0","260","West","10.0","6.2","1007","29.74","1.2","34.1","-9999","-9999","-9999.00","-9999.00","Scattered Clouds","partlycloudy","0","0","0","0","0","0","METAR UKKK 030830Z 26009MPS 9999 SCT038 06/02 Q1007 R26/290058 TEMPO 29011G16MPS"
"11:00 AM EET on November 03, 2016","2016","11","03","11","00","Europe/Kiev","9:00 AM GMT on November 03, 2016","2016","11","03","09","00","UTC","6","44","2","35","61","14.4","8.9","","","280","West","20","12","1008","29.76","-999","-999","-9999","-9999","","","Scattered Clouds","partlycloudy","0","0","0","0","0","0","AAXX 03091 33345 42498 62804 10064 20017 39873 40076 51001 82630 555 11007"
"11:00 AM EET on November 03, 2016","2016","11","03","11","00","Europe/Kiev","9:00 AM GMT on November 03, 2016","2016","11","03","09","00","UTC","7.0","44.6","2.0","35.6","71","28.8","17.9","-9999.0","-9999.0","250","WSW","10.0","6.2","1007","29.74","2.8","37.0","-9999","-9999","-9999.00","-9999.00","Scattered Clouds","partlycloudy","0","0","0","0","0","0","METAR UKKK 030900Z 25008MPS 9999 FEW022 SCT100 07/02 Q1007 R26/190060 TEMPO 29011G16MPS"
"11:10 AM EET on November 03, 2016","2016","11","03","11","10","Europe/Kiev","9:10 AM GMT on November 03, 2016","2016","11","03","09","10","UTC","7.0","44.6","2.0","35.6","71","28.8","17.9","46.8","29.1","260","West","10.0","6.2","1007","29.74","2.8","37.0","-9999","-9999","-9999.00","-9999.00","Scattered Clouds","partlycloudy","0","0","0","0","0","0","SPECI UKKK 030910Z 26008G13MPS 9999 FEW022 SCT100 07/02 Q1007 R26/190060 TEMPO 29011G16MPS"
"11:30 AM EET on November 03, 2016","2016","11","03","11","30","Europe/Kiev","9:30 AM GMT on November 03, 2016","2016","11","03","09","30","UTC","7.0","44.6","2.0","35.6","71","32.4","20.1","-9999.0","-9999.0","260","West","10.0","6.2","1007","29.74","2.5","36.5","-9999","-9999","-9999.00","-9999.00","Scattered Clouds","partlycloudy","0","0","0","0","0","0","METAR UKKK 030930Z 26009MPS 9999 FEW024 SCT100 07/02 Q1007 R26/190060 TEMPO 29011G16MPS"
"12:00 PM EET on November 03, 2016","2016","11","03","12","00","Europe/Kiev","10:00 AM GMT on November 03, 2016","2016","11","03","10","00","UTC","7.0","44.6","2.0","35.6","71","32.4","20.1","50.4","31.3","260","West","10.0","6.2","1007","29.74","2.5","36.5","-9999","-9999","-9999.00","-9999.00","Mostly Cloudy","mostlycloudy","0","0","0","0","0","0","METAR UKKK 031000Z 26009G14MPS 9999 BKN025 07/02 Q1007 R26/190060 TEMPO 29011G16MPS"
"12:30 PM EET on November 03, 2016","2016","11","03","12","30","Europe/Kiev","10:30 AM GMT on November 03, 2016","2016","11","03","10","30","UTC","5.0","41.0","2.0","35.6","81","28.8","17.9","-9999.0","-9999.0","250","WSW","10.0","6.2","1007","29.74","0.2","32.3","-9999","-9999","-9999.00","-9999.00","Mostly Cloudy","mostlycloudy","0","0","0","0","0","0","METAR UKKK 031030Z 25008MPS 9999 FEW020CB BKN033 05/02 Q1007 R26/190060 TEMPO 29011G16MPS"
"1:00 PM EET on November 03, 2016","2016","11","03","13","00","Europe/Kiev","11:00 AM GMT on November 03, 2016","2016","11","03","11","00","UTC","7.0","44.6","1.0","33.8","66","36.0","22.4","-9999.0","-9999.0","260","West","10.0","6.2","1007","29.74","2.2","36.0","-9999","-9999","-9999.00","-9999.00","Mostly Cloudy","mostlycloudy","0","0","0","0","0","0","METAR UKKK 031100Z 26010MPS 9999 SCT030 BKN100 07/01 Q1007 R26/190060 TEMPO 29011G16MPS"
"1:30 PM EET on November 03, 2016","2016","11","03","13","30","Europe/Kiev","11:30 AM GMT on November 03, 2016","2016","11","03","11","30","UTC","7.0","44.6","1.0","33.8","66","32.4","20.1","-9999.0","-9999.0","260","West","10.0","6.2","1007","29.74","2.5","36.5","-9999","-9999","-9999.00","-9999.00","Light Rain Showers","rain","0","1","0","0","0","0","METAR UKKK 031130Z 26009MPS 9999 -SHRA SCT020CB BKN047 07/01 Q1007 R26/190060 TEMPO 27011G16MPS"
"2:00 PM EET on November 03, 2016","2016","11","03","14","00","Europe/Kiev","12:00 PM GMT on November 03, 2016","2016","11","03","12","00","UTC","8","46","1","34","52","25.2","15.7","","","280","West","20","12","1008","29.77","-999","-999","-9999","-9999","","","Mostly Cloudy","mostlycloudy","0","0","0","0","0","0","AAXX 03121 33345 32698 62807 10075 20011 39878 40081 53005 86400 333 85833 555 11008"
"2:00 PM EET on November 03, 2016","2016","11","03","14","00","Europe/Kiev","12:00 PM GMT on November 03, 2016","2016","11","03","12","00","UTC","6.0","42.8","0.0","32.0","66","28.8","17.9","-9999.0","-9999.0","260","West","10.0","6.2","1007","29.74","1.5","34.7","-9999","-9999","-9999.00","-9999.00","Mostly Cloudy","mostlycloudy","0","0","0","0","0","0","METAR UKKK 031200Z 26008MPS 9999 SCT020CB BKN030 06/00 Q1007 R26/190060 TEMPO 27011G16MPS"
"2:30 PM EET on November 03, 2016","2016","11","03","14","30","Europe/Kiev","12:30 PM GMT on November 03, 2016","2016","11","03","12","30","UTC","6.0","42.8","0.0","32.0","66","32.4","20.1","-9999.0","-9999.0","270","West","-9999.0","-9999.0","1007","29.74","1.2","34.1","-9999","-9999","-9999.00","-9999.00","Clear","clear","0","0","0","0","0","0","METAR UKKK 031230Z 27009MPS CAVOK 06/M00 Q1007 R26/CLRD70 TEMPO 27011G16MPS"
"3:00 PM EET on November 03, 2016","2016","11","03","15","00","Europe/Kiev","1:00 PM GMT on November 03, 2016","2016","11","03","13","00","UTC","6.0","42.8","0.0","32.0","66","28.8","17.9","-9999.0","-9999.0","260","West","10.0","6.2","1008","29.77","1.5","34.7","-9999","-9999","-9999.00","-9999.00","Scattered Clouds","partlycloudy","0","0","0","0","0","0","METAR UKKK 031300Z 26008MPS 9999 SCT040 06/00 Q1008 R26/CLRD70 TEMPO 27011G16MPS"
"3:17 PM EET on November 03, 2016","2016","11","03","15","17","Europe/Kiev","1:17 PM GMT on November 03, 2016","2016","11","03","13","17","UTC","6.0","42.8","0.0","32.0","66","32.4","20.1","54.0","33.6","260","West","10.0","6.2","1008","29.77","1.2","34.1","-9999","-9999","-9999.00","-9999.00","Scattered Clouds","partlycloudy","0","0","0","0","0","0","SPECI UKKK 031317Z 26009G15MPS 9999 SCT043 06/M00 Q1008 R26/CLRD70 TEMPO 27011G16MPS"
"3:30 PM EET on November 03, 2016","2016","11","03","15","30","Europe/Kiev","1:30 PM GMT on November 03, 2016","2016","11","03","13","30","UTC","5.0","41.0","0.0","32.0","70","36.0","22.4","-9999.0","-9999.0","270","West","10.0","6.2","1008","29.77","-0.4","31.3","-9999","-9999","-9999.00","-9999.00","Mostly Cloudy","mostlycloudy","0","0","0","0","0","0","METAR UKKK 031330Z 27010MPS 9999 BKN035 05/M00 Q1008 R26/CLRD70 TEMPO 27011G16MPS"
"4:00 PM EET on November 03, 2016","2016","11","03","16","00","Europe/Kiev","2:00 PM GMT on November 03, 2016","2016","11","03","14","00","UTC","5.0","41.0","0.0","32.0","70","32.4","20.1","-9999.0","-9999.0","270","West","10.0","6.2","1008","29.77","-0.1","31.8","-9999","-9999","-9999.00","-9999.00","Mostly Cloudy","mostlycloudy","0","0","0","0","0","0","METAR UKKK 031400Z 27009MPS 9999 BKN028 05/M00 Q1008 R26/CLRD70 TEMPO 27011G16MPS"
"4:30 PM EET on November 03, 2016","2016","11","03","16","30","Europe/Kiev","2:30 PM GMT on November 03, 2016","2016","11","03","14","30","UTC","5.0","41.0","0.0","32.0","70","32.4","20.1","-9999.0","-9999.0","260","West","10.0","6.2","1009","29.80","-0.1","31.8","-9999","-9999","-9999.00","-9999.00","Mostly Cloudy","mostlycloudy","0","0","0","0","0","0","METAR UKKK 031430Z 26009MPS 9999 BKN020 05/00 Q1009 R26/CLRD70 TEMPO 27011G16MPS"
"5:00 PM EET on November 03, 2016","2016","11","03","17","00","Europe/Kiev","3:00 PM GMT on November 03, 2016","2016","11","03","15","00","UTC","5","41","0","32","61","18.0","11.2","","","290","WNW","20","12","1010","29.83","-999","-999","-9999","-9999","","","Mostly Cloudy","mostlycloudy","0","0","0","0","0","0","AAXX 03151 33345 42598 72905 10048 20001 39897 40102 52019 87500 333 87623 555 11003"
"5:00 PM EET on November 03, 2016","2016","11","03","17","00","Europe/Kiev","3:00 PM GMT on November 03, 2016","2016","11","03","15","00","UTC","4.0","39.2","1.0","33.8","81","32.4","20.1","-9999.0","-9999.0","270","West","10.0","6.2","1009","29.80","-1.4","29.4","-9999","-9999","-9999.00","-9999.00","Mostly Cloudy","mostlycloudy","0","0","0","0","0","0","METAR UKKK 031500Z 27009MPS 9999 BKN035 04/01 Q1009 R26/CLRD70 NOSIG"
"5:30 PM EET on November 03, 2016","2016","11","03","17","30","Europe/Kiev","3:30 PM GMT on November 03, 2016","2016","11","03","15","30","UTC","4.0","39.2","1.0","33.8","81","25.2","15.7","-9999.0","-9999.0","270","West","10.0","6.2","1010","29.83","-0.8","30.6","-9999","-9999","-9999.00","-9999.00","Mostly Cloudy","mostlycloudy","0","0","0","0","0","0","METAR UKKK 031530Z 27007MPS 9999 BKN026 04/01 Q1010 R26/CLRD70 NOSIG"
"6:00 PM EET on November 03, 2016","2016","11","03","18","00","Europe/Kiev","4:00 PM GMT on November 03, 2016","2016","11","03","16","00","UTC","4.0","39.2","1.0","33.8","81","28.8","17.9","-9999.0","-9999.0","270","West","10.0","6.2","1010","29.83","-1.1","30.0","-9999","-9999","-9999.00","-9999.00","Mostly Cloudy","mostlycloudy","0","0","0","0","0","0","METAR UKKK 031600Z 27008MPS 9999 BKN019 04/01 Q1010 R26/CLRD70 NOSIG"
"6:30 PM EET on November 03, 2016","2016","11","03","18","30","Europe/Kiev","4:30 PM GMT on November 03, 2016","2016","11","03","16","30","UTC","4.0","39.2","1.0","33.8","81","25.2","15.7","-9999.0","-9999.0","270","West","10.0","6.2","1010","29.83","-0.8","30.6","-9999","-9999","-9999.00","-9999.00","Mostly Cloudy","mostlycloudy","0","0","0","0","0","0","METAR UKKK 031630Z 27007MPS 9999 BKN025 04/01 Q1010 R26/CLRD70 NOSIG"
"7:00 PM EET on November 03, 2016","2016","11","03","19","00","Europe/Kiev","5:00 PM GMT on November 03, 2016","2016","11","03","17","00","UTC","4.0","39.2","1.0","33.8","81","28.8","17.9","-9999.0","-9999.0","260","West","10.0","6.2","1010","29.83","-1.1","30.0","-9999","-9999","-9999.00","-9999.00","Scattered Clouds","partlycloudy","0","0","0","0","0","0","METAR UKKK 031700Z 26008MPS 9999 SCT026 04/01 Q1010 R26/CLRD70 NOSIG"
"7:30 PM EET on November 03, 2016","2016","11","03","19","30","Europe/Kiev","5:30 PM GMT on November 03, 2016","2016","11","03","17","30","UTC","4.0","39.2","1.0","33.8","81","28.8","17.9","-9999.0","-9999.0","270","West","10.0","6.2","1010","29.83","-1.1","30.0","-9999","-9999","-9999.00","-9999.00","Scattered Clouds","partlycloudy","0","0","0","0","0","0","METAR UKKK 031730Z 27008MPS 9999 SCT022 04/01 Q1010 R26/CLRD70 NOSIG"
"8:00 PM EET on November 03, 2016","2016","11","03","20","00","Europe/Kiev","6:00 PM GMT on November 03, 2016","2016","11","03","18","00","UTC","4","40","1","33","69","18.0","11.2","","","290","WNW","20","12","1012","29.88","-999","-999","-9999","-9999","","","Mostly Cloudy","mostlycloudy","0","0","0","0","0","0","AAXX 03181 33345 32598 62905 10043 20007 39911 40117 52014 86500 333 10078 86626 555 11002"
"8:00 PM EET on November 03, 2016","2016","11","03","20","00","Europe/Kiev","6:00 PM GMT on November 03, 2016","2016","11","03","18","00","UTC","4.0","39.2","1.0","33.8","81","25.2","15.7","-9999.0","-9999.0","260","West","10.0","6.2","1011","29.86","-0.8","30.6","-9999","-9999","-9999.00","-9999.00","Scattered Clouds","partlycloudy","0","0","0","0","0","0","METAR UKKK 031800Z 26007MPS 9999 SCT022 04/01 Q1011 R26/CLRD70 NOSIG"
"8:30 PM EET on November 03, 2016","2016","11","03","20","30","Europe/Kiev","6:30 PM GMT on November 03, 2016","2016","11","03","18","30","UTC","4.0","39.2","1.0","33.8","81","25.2","15.7","-9999.0","-9999.0","270","West","10.0","6.2","1011","29.86","-0.8","30.6","-9999","-9999","-9999.00","-9999.00","Scattered Clouds","partlycloudy","0","0","0","0","0","0","METAR UKKK 031830Z 27007MPS 9999 SCT040 04/01 Q1011 R26/CLRD70 NOSIG"
"9:00 PM EET on November 03, 2016","2016","11","03","21","00","Europe/Kiev","7:00 PM GMT on November 03, 2016","2016","11","03","19","00","UTC","4.0","39.2","0.0","32.0","75","28.8","17.9","-9999.0","-9999.0","270","West","10.0","6.2","1011","29.86","-1.1","30.0","-9999","-9999","-9999.00","-9999.00","Scattered Clouds","partlycloudy","0","0","0","0","0","0","METAR UKKK 031900Z 27008MPS 9999 SCT035 04/00 Q1011 R26/CLRD70 NOSIG"
"9:30 PM EET on November 03, 2016","2016","11","03","21","30","Europe/Kiev","7:30 PM GMT on November 03, 2016","2016","11","03","19","30","UTC","4.0","39.2","0.0","32.0","75","25.2","15.7","-9999.0","-9999.0","270","West","10.0","6.2","1012","29.89","-0.8","30.6","-9999","-9999","-9999.00","-9999.00","Scattered Clouds","partlycloudy","0","0","0","0","0","0","METAR UKKK 031930Z 27007MPS 9999 SCT027 04/00 Q1012 R26/CLRD70 NOSIG"
"10:00 PM EET on November 03, 2016","2016","11","03","22","00","Europe/Kiev","8:00 PM GMT on November 03, 2016","2016","11","03","20","00","UTC","4.0","39.2","1.0","33.8","81","25.2","15.7","-9999.0","-9999.0","270","West","10.0","6.2","1012","29.89","-0.8","30.6","-9999","-9999","-9999.00","-9999.00","Mostly Cloudy","mostlycloudy","0","0","0","0","0","0","METAR UKKK 032000Z 27007MPS 9999 BKN022 04/01 Q1012 R26/CLRD70 NOSIG"
"10:30 PM EET on November 03, 2016","2016","11","03","22","30","Europe/Kiev","8:30 PM GMT on November 03, 2016","2016","11","03","20","30","UTC","4.0","39.2","0.0","32.0","75","25.2","15.7","-9999.0","-9999.0","280","West","10.0","6.2","1012","29.89","-0.8","30.6","-9999","-9999","-9999.00","-9999.00","Mostly Cloudy","mostlycloudy","0","0","0","0","0","0","METAR UKKK 032030Z 28007MPS 9999 BKN020 04/00 Q1012 R26/CLRD70 NOSIG"
"11:00 PM EET on November 03, 2016","2016","11","03","23","00","Europe/Kiev","9:00 PM GMT on November 03, 2016","2016","11","03","21","00","UTC","4","39","0","33","70","10.8","6.7","","","300","WNW","20","12","1013","29.93","-999","-999","-9999","-9999","","","Mostly Cloudy","mostlycloudy","0","0","0","0","0","0","AAXX 03211 33345 42598 63003 10038 20004 39927 40133 52016 86500 333 86621 555 11002"
"11:00 PM EET on November 03, 2016","2016","11","03","23","00","Europe/Kiev","9:00 PM GMT on November 03, 2016","2016","11","03","21","00","UTC","4.0","39.2","1.0","33.8","81","21.6","13.4","-9999.0","-9999.0","270","West","10.0","6.2","1012","29.89","-0.4","31.3","-9999","-9999","-9999.00","-9999.00","Mostly Cloudy","mostlycloudy","0","0","0","0","0","0","METAR UKKK 032100Z 27006MPS 9999 BKN017 04/01 Q1012 R26/CLRD70 NOSIG"
"11:30 PM EET on November 03, 2016","2016","11","03","23","30","Europe/Kiev","9:30 PM GMT on November 03, 2016","2016","11","03","21","30","UTC","4.0","39.2","1.0","33.8","81","21.6","13.4","-9999.0","-9999.0","260","West","10.0","6.2","1013","29.92","-0.4","31.3","-9999","-9999","-9999.00","-9999.00","Mostly Cloudy","mostlycloudy","0","0","0","0","0","0","METAR UKKK 032130Z 26006MPS 9999 BKN017 04/01 Q1013 R26/CLRD70 NOSIG"
"12:00 AM EET on November 04, 2016","2016","11","04","00","00","Europe/Kiev","10:00 PM GMT on November 03, 2016","2016","11","03","22","00","UTC","4.0","39.2","1.0","33.8","81","18.0","11.2","-9999.0","-9999.0","270","West","10.0","6.2","1013","29.92","0.1","32.2","-9999","-9999","-9999.00","-9999.00","Mostly Cloudy","mostlycloudy","0","0","0","0","0","0","METAR UKKK 032200Z 27005MPS 9999 BKN018 04/01 Q1013 R26/CLRD70 NOSIG"
"12:30 AM EET on November 04, 2016","2016","11","04","00","30","Europe/Kiev","10:30 PM GMT on November 03, 2016","2016","11","03","22","30","UTC","4.0","39.2","1.0","33.8","81","21.6","13.4","-9999.0","-9999.0","270","West","10.0","6.2","1013","29.92","-0.4","31.3","-9999","-9999","-9999.00","-9999.00","Mostly Cloudy","mostlycloudy","0","0","0","0","0","0","METAR UKKK 032230Z 27006MPS 9999 BKN018 04/01 Q1013 R26/CLRD70 NOSIG"
"1:00 AM EET on November 04, 2016","2016","11","04","01","00","Europe/Kiev","11:00 PM GMT on November 03, 2016","2016","11","03","23","00","UTC","4.0","39.2","1.0","33.8","81","21.6","13.4","-9999.0","-9999.0","270","West","10.0","6.2","1013","29.92","-0.4","31.3","-9999","-9999","-9999.00","-9999.00","Mostly Cloudy","mostlycloudy","0","0","0","0","0","0","METAR UKKK 032300Z 27006MPS 9999 BKN018 04/01 Q1013 R26/CLRD70 NOSIG"
"1:30 AM EET on November 04, 2016","2016","11","04","01","30","Europe/Kiev","11:30 PM GMT on November 03, 2016","2016","11","03","23","30","UTC","4.0","39.2","1.0","33.8","81","25.2","15.7","-9999.0","-9999.0","270","West","10.0","6.2","1013","29.92","-0.8","30.6","-9999","-9999","-9999.00","-9999.00","Mostly Cloudy","mostlycloudy","0","0","0","0","0","0","METAR UKKK 032330Z 27007MPS 9999 BKN019 04/01 Q1013 R26/CLRD70 NOSIG"
"2:00 AM EET on November 04, 2016","2016","11","04","02","00","Europe/Kiev","12:00 AM GMT on November 04, 2016","2016","11","04","00","00","UTC","4","38","0","33","74","10.8","6.7","","","290","WNW","10","6","1015","29.96","-999","-999","-9999","-9999","","","Mostly Cloudy","mostlycloudy","0","0","0","0","0","0","AAXX 04001 33345 32597 62903 10036 20004 39939 40146 52012 86500 333 86621 555 11002"
"2:00 AM EET on November 04, 2016","2016","11","04","02","00","Europe/Kiev","12:00 AM GMT on November 04, 2016","2016","11","04","00","00","UTC","3.0","37.4","1.0","33.8","87","21.6","13.4","-9999.0","-9999.0","270","West","10.0","6.2","1013","29.92","-1.6","29.1","-9999","-9999","-9999.00","-9999.00","Mostly Cloudy","mostlycloudy","0","0","0","0","0","0","METAR UKKK 040000Z 27006MPS 9999 BKN024 03/01 Q1013 R26/CLRD70 NOSIG"
"2:30 AM EET on November 04, 2016","2016","11","04","02","30","Europe/Kiev","12:30 AM GMT on November 04, 2016","2016","11","04","00","30","UTC","3.0","37.4","1.0","33.8","87","25.2","15.7","-9999.0","-9999.0","270","West","10.0","6.2","1014","29.95","-2.1","28.3","-9999","-9999","-9999.00","-9999.00","Mostly Cloudy","mostlycloudy","0","0","0","0","0","0","METAR UKKK 040030Z 27007MPS 9999 BKN018 BKN053 03/01 Q1014 R26/CLRD70 NOSIG"
"3:00 AM EET on November 04, 2016","2016","11","04","03","00","Europe/Kiev","1:00 AM GMT on November 04, 2016","2016","11","04","01","00","UTC","3.0","37.4","1.0","33.8","87","25.2","15.7","-9999.0","-9999.0","270","West","10.0","6.2","1014","29.95","-2.1","28.3","-9999","-9999","-9999.00","-9999.00","Mostly Cloudy","mostlycloudy","0","0","0","0","0","0","METAR UKKK 040100Z 27007MPS 9999 BKN018 BKN053 03/01 Q1014 R26/CLRD70 NOSIG"
"3:30 AM EET on November 04, 2016","2016","11","04","03","30","Europe/Kiev","1:30 AM GMT on November 04, 2016","2016","11","04","01","30","UTC","3.0","37.4","1.0","33.8","87","25.2","15.7","-9999.0","-9999.0","270","West","10.0","6.2","1014","29.95","-2.1","28.3","-9999","-9999","-9999.00","-9999.00","Mostly Cloudy","mostlycloudy","0","0","0","0","0","0","METAR UKKK 040130Z 27007MPS 9999 BKN025 03/01 Q1014 R26/CLRD70 NOSIG"
"4:00 AM EET on November 04, 2016","2016","11","04","04","00","Europe/Kiev","2:00 AM GMT on November 04, 2016","2016","11","04","02","00","UTC","3.0","37.4","1.0","33.8","87","25.2","15.7","-9999.0","-9999.0","270","West","10.0","6.2","1014","29.95","-2.1","28.3","-9999","-9999","-9999.00","-9999.00","Mostly Cloudy","mostlycloudy","0","0","0","0","0","0","METAR UKKK 040200Z 27007MPS 9999 BKN018 03/01 Q1014 R26/CLRD70 NOSIG"
"4:30 AM EET on November 04, 2016","2016","11","04","04","30","Europe/Kiev","2:30 AM GMT on November 04, 2016","2016","11","04","02","30","UTC","3.0","37.4","1.0","33.8","87","21.6","13.4","-9999.0","-9999.0","270","West","10.0","6.2","1015","29.98","-1.6","29.1","-9999","-9999","-9999.00","-9999.00","Mostly Cloudy","mostlycloudy","0","0","0","0","0","0","METAR UKKK 040230Z 27006MPS 9999 BKN018 03/01 Q1015 R26/CLRD70 NOSIG"
"5:00 AM EET on November 04, 2016","2016","11","04","05","00","Europe/Kiev","3:00 AM GMT on November 04, 2016","2016","11","04","03","00","UTC","3","38","0","32","73","14.4","8.9","","","320","NW","10","6","1016","30.00","-999","-999","-9999","-9999","","","Mostly Cloudy","mostlycloudy","0","0","0","0","0","0","AAXX 04031 33345 42497 63204 10034 20002 39952 40159 52013 86500 333 85716 555 11002"
"5:00 AM EET on November 04, 2016","2016","11","04","05","00","Europe/Kiev","3:00 AM GMT on November 04, 2016","2016","11","04","03","00","UTC","3.0","37.4","0.0","32.0","81","21.6","13.4","-9999.0","-9999.0","290","WNW","10.0","6.2","1015","29.98","-1.6","29.1","-9999","-9999","-9999.00","-9999.00","Mostly Cloudy","mostlycloudy","0","0","0","0","0","0","METAR UKKK 040300Z 29006MPS 9999 BKN018 03/M00 Q1015 R26/CLRD70 NOSIG"
"5:30 AM EET on November 04, 2016","2016","11","04","05","30","Europe/Kiev","3:30 AM GMT on November 04, 2016","2016","11","04","03","30","UTC","3.0","37.4","0.0","32.0","81","25.2","15.7","-9999.0","-9999.0","280","West","10.0","6.2","1015","29.98","-2.1","28.3","-9999","-9999","-9999.00","-9999.00","Mostly Cloudy","mostlycloudy","0","0","0","0","0","0","METAR UKKK 040330Z 28007MPS 9999 BKN020 03/M00 Q1015 R26/CLRD70 NOSIG"
"6:00 AM EET on November 04, 2016","2016","11","04","06","00","Europe/Kiev","4:00 AM GMT on November 04, 2016","2016","11","04","04","00","UTC","3.0","37.4","0.0","32.0","81","21.6","13.4","-9999.0","-9999.0","280","West","10.0","6.2","1015","29.98","-1.6","29.1","-9999","-9999","-9999.00","-9999.00","Mostly Cloudy","mostlycloudy","0","0","0","0","0","0","METAR UKKK 040400Z 28006MPS 9999 BKN021 03/00 Q1015 R26/CLRD70 NOSIG"
"6:30 AM EET on November 04, 2016","2016","11","04","06","30","Europe/Kiev","4:30 AM GMT on November 04, 2016","2016","11","04","04","30","UTC","3.0","37.4","-2.0","28.4","70","28.8","17.9","-9999.0","-9999.0","290","WNW","10.0","6.2","1016","30.01","-2.4","27.6","-9999","-9999","-9999.00","-9999.00","Mostly Cloudy","mostlycloudy","0","0","0","0","0","0","METAR UKKK 040430Z 29008MPS 9999 BKN030 03/M02 Q1016 R26/CLRD70 NOSIG"
"7:00 AM EET on November 04, 2016","2016","11","04","07","00","Europe/Kiev","5:00 AM GMT on November 04, 2016","2016","11","04","05","00","UTC","2.0","35.6","-2.0","28.4","75","21.6","13.4","-9999.0","-9999.0","300","WNW","10.0","6.2","1016","30.01","-2.9","26.8","-9999","-9999","-9999.00","-9999.00","Mostly Cloudy","mostlycloudy","0","0","0","0","0","0","METAR UKKK 040500Z 30006MPS 9999 BKN025 02/M02 Q1016 R26/CLRD70 NOSIG"
"7:30 AM EET on November 04, 2016","2016","11","04","07","30","Europe/Kiev","5:30 AM GMT on November 04, 2016","2016","11","04","05","30","UTC","2.0","35.6","-3.0","26.6","70","25.2","15.7","-9999.0","-9999.0","290","WNW","10.0","6.2","1017","30.04","-3.3","26.0","-9999","-9999","-9999.00","-9999.00","Scattered Clouds","partlycloudy","0","0","0","0","0","0","METAR UKKK 040530Z 29007MPS 9999 SCT040 02/M03 Q1017 R26/CLRD70 NOSIG"
"8:00 AM EET on November 04, 2016","2016","11","04","08","00","Europe/Kiev","6:00 AM GMT on November 04, 2016","2016","11","04","06","00","UTC","2","36","-3","27","58","14.4","8.9","","","330","NNW","20","12","1018","30.07","-999","-999","-9999","-9999","","","Scattered Clouds","partlycloudy","0","0","0","0","0","0","AAXX 04061 33345 32498 23304 10020 21030 39973 40182 52021 81640 333 20020 555 11100"
"8:00 AM EET on November 04, 2016","2016","11","04","08","00","Europe/Kiev","6:00 AM GMT on November 04, 2016","2016","11","04","06","00","UTC","2.0","35.6","-3.0","26.6","70","25.2","15.7","-9999.0","-9999.0","290","WNW","-9999.0","-9999.0","1017","30.04","-3.3","26.0","-9999","-9999","-9999.00","-9999.00","Clear","clear","0","0","0","0","0","0","METAR UKKK 040600Z 29007MPS CAVOK 02/M03 Q1017 R26/CLRD70 NOSIG"
"8:30 AM EET on November 04, 2016","2016","11","04","08","30","Europe/Kiev","6:30 AM GMT on November 04, 2016","2016","11","04","06","30","UTC","2.0","35.6","-3.0","26.6","70","25.2","15.7","-9999.0","-9999.0","290","WNW","-9999.0","-9999.0","1017","30.04","-3.3","26.0","-9999","-9999","-9999.00","-9999.00","Clear","clear","0","0","0","0","0","0","METAR UKKK 040630Z 29007MPS CAVOK 02/M03 Q1017 R26/CLRD70 NOSIG"
"9:00 AM EET on November 04, 2016","2016","11","04","09","00","Europe/Kiev","7:00 AM GMT on November 04, 2016","2016","11","04","07","00","UTC","3.0","37.4","-3.0","26.6","65","28.8","17.9","-9999.0","-9999.0","300","WNW","10.0","6.2","1018","30.06","-2.4","27.6","-9999","-9999","-9999.00","-9999.00","Scattered Clouds","partlycloudy","0","0","0","0","0","0","METAR UKKK 040700Z 30008MPS 9999 SCT029 03/M03 Q1018 R26/CLRD70 NOSIG"
"9:30 AM EET on November 04, 2016","2016","11","04","09","30","Europe/Kiev","7:30 AM GMT on November 04, 2016","2016","11","04","07","30","UTC","3.0","37.4","-3.0","26.6","65","28.8","17.9","-9999.0","-9999.0","290","WNW","10.0","6.2","1018","30.06","-2.4","27.6","-9999","-9999","-9999.00","-9999.00","Scattered Clouds","partlycloudy","0","0","0","0","0","0","METAR UKKK 040730Z 29008MPS 9999 SCT027 03/M03 Q1018 R26/CLRD70 NOSIG"
"10:00 AM EET on November 04, 2016","2016","11","04","10","00","Europe/Kiev","8:00 AM GMT on November 04, 2016","2016","11","04","08","00","UTC","3.0","37.4","-3.0","26.6","65","28.8","17.9","-9999.0","-9999.0","290","WNW","10.0","6.2","1018","30.06","-2.4","27.6","-9999","-9999","-9999.00","-9999.00","Mostly Cloudy","mostlycloudy","0","0","0","0","0","0","METAR UKKK 040800Z 29008MPS 9999 BKN028 03/M03 Q1018 R26/CLRD70 TEMPO 29009G14MPS"
"10:30 AM EET on November 04, 2016","2016","11","04","10","30","Europe/Kiev","8:30 AM GMT on November 04, 2016","2016","11","04","08","30","UTC","4.0","39.2","-3.0","26.6","61","25.2","15.7","-9999.0","-9999.0","300","WNW","10.0","6.2","1019","30.09","-0.8","30.6","-9999","-9999","-9999.00","-9999.00","Mostly Cloudy","mostlycloudy","0","0","0","0","0","0","METAR UKKK 040830Z 30007MPS 9999 BKN031 04/M03 Q1019 R26/CLRD70 TEMPO 29009G14MPS"
"11:00 AM EET on November 04, 2016","2016","11","04","11","00","Europe/Kiev","9:00 AM GMT on November 04, 2016","2016","11","04","09","00","UTC","4","39","-4","26","46","14.4","8.9","","","330","NNW","20","12","1020","30.12","-999","-999","-9999","-9999","","","Mostly Cloudy","mostlycloudy","0","0","0","0","0","0","AAXX 04091 33345 42698 63304 10040 21036 39990 40198 52017 86500 333 86634 555 11007"
"11:00 AM EET on November 04, 2016","2016","11","04","11","00","Europe/Kiev","9:00 AM GMT on November 04, 2016","2016","11","04","09","00","UTC","4.0","39.2","-4.0","24.8","56","21.6","13.4","39.6","24.6","310","NW","10.0","6.2","1019","30.09","-0.4","31.3","-9999","-9999","-9999.00","-9999.00","Mostly Cloudy","mostlycloudy","0","0","0","0","0","0","METAR UKKK 040900Z 31006G11MPS 9999 BKN035 04/M04 Q1019 R26/CLRD70 TEMPO 30009G14MPS"
"11:30 AM EET on November 04, 2016","2016","11","04","11","30","Europe/Kiev","9:30 AM GMT on November 04, 2016","2016","11","04","09","30","UTC","5.0","41.0","-4.0","24.8","53","25.2","15.7","-9999.0","-9999.0","310","NW","10.0","6.2","1019","30.09","0.5","32.9","-9999","-9999","-9999.00","-9999.00","Mostly Cloudy","mostlycloudy","0","0","0","0","0","0","METAR UKKK 040930Z 31007MPS 9999 BKN040 05/M04 Q1019 R26/CLRD70 TEMPO 30009G14MPS"
"12:00 PM EET on November 04, 2016","2016","11","04","12","00","Europe/Kiev","10:00 AM GMT on November 04, 2016","2016","11","04","10","00","UTC","4.0","39.2","-5.0","23.0","52","25.2","15.7","-9999.0","-9999.0","310","NW","10.0","6.2","1019","30.09","-0.8","30.6","-9999","-9999","-9999.00","-9999.00","Mostly Cloudy","mostlycloudy","0","0","0","0","0","0","METAR UKKK 041000Z 31007MPS 9999 BKN040 04/M05 Q1019 R26/CLRD70 TEMPO 30009G14MPS"
"12:30 PM EET on November 04, 2016","2016","11","04","12","30","Europe/Kiev","10:30 AM GMT on November 04, 2016","2016","11","04","10","30","UTC","4.0","39.2","-6.0","21.2","49","21.6","13.4","-9999.0","-9999.0","330","NNW","10.0","6.2","1019","30.09","-0.4","31.3","-9999","-9999","-9999.00","-9999.00","Mostly Cloudy","mostlycloudy","0","0","0","0","0","0","METAR UKKK 041030Z 33006MPS 300V360 9999 BKN046 04/M06 Q1019 R26/CLRD70 TEMPO 30009G14MPS"
"1:00 PM EET on November 04, 2016","2016","11","04","13","00","Europe/Kiev","11:00 AM GMT on November 04, 2016","2016","11","04","11","00","UTC","4.0","39.2","-6.0","21.2","49","18.0","11.2","-9999.0","-9999.0","300","WNW","10.0","6.2","1019","30.09","0.1","32.2","-9999","-9999","-9999.00","-9999.00","Mostly Cloudy","mostlycloudy","0","0","0","0","0","0","METAR UKKK 041100Z 30005MPS 270V330 9999 BKN049 04/M06 Q1019 R26/CLRD70 TEMPO 30009G14MPS"
"1:30 PM EET on November 04, 2016","2016","11","04","13","30","Europe/Kiev","11:30 AM GMT on November 04, 2016","2016","11","04","11","30","UTC","5.0","41.0","-4.0","24.8","53","14.4","8.9","-9999.0","-9999.0","290","WNW","10.0","6.2","1019","30.09","1.9","35.4","-9999","-9999","-9999.00","-9999.00","Mostly Cloudy","mostlycloudy","0","0","0","0","0","0","METAR UKKK 041130Z 29004MPS 250V310 9999 BKN041 05/M04 Q1019 R26/CLRD70 TEMPO 30009G14MPS"
"2:00 PM EET on November 04, 2016","2016","11","04","14","00","Europe/Kiev","12:00 PM GMT on November 04, 2016","2016","11","04","12","00","UTC","5","42","-4","25","38","14.4","8.9","","","290","WNW","20","12","1020","30.12","-999","-999","-9999","-9999","","","Scattered Clouds","partlycloudy","0","0","0","0","0","0","AAXX 04121 33345 32698 42904 10053 21040 39993 40200 52003 82501 555 11008"
"2:00 PM EET on November 04, 2016","2016","11","04","14","00","Europe/Kiev","12:00 PM GMT on November 04, 2016","2016","11","04","12","00","UTC","4.0","39.2","-4.0","24.8","56","25.2","15.7","-9999.0","-9999.0","270","West","10.0","6.2","1019","30.09","-0.8","30.6","-9999","-9999","-9999.00","-9999.00","Mostly Cloudy","mostlycloudy","0","0","0","0","0","0","METAR UKKK 041200Z 27007MPS 9999 FEW043 SCT073 BKN200 04/M04 Q1019 R26/CLRD70 TEMPO 30009G14MPS"
"2:30 PM EET on November 04, 2016","2016","11","04","14","30","Europe/Kiev","12:30 PM GMT on November 04, 2016","2016","11","04","12","30","UTC","4.0","39.2","-4.0","24.8","56","21.6","13.4","-9999.0","-9999.0","270","West","10.0","6.2","1019","30.09","-0.4","31.3","-9999","-9999","-9999.00","-9999.00","Mostly Cloudy","mostlycloudy","0","0","0","0","0","0","METAR UKKK 041230Z 27006MPS 9999 FEW046 BKN070 04/M04 Q1019 R26/CLRD70 TEMPO 30009G14MPS"
"3:00 PM EET on November 04, 2016","2016","11","04","15","00","Europe/Kiev","1:00 PM GMT on November 04, 2016","2016","11","04","13","00","UTC","4.0","39.2","-4.0","24.8","56","18.0","11.2","-9999.0","-9999.0","260","West","10.0","6.2","1019","30.09","0.1","32.2","-9999","-9999","-9999.00","-9999.00","Mostly Cloudy","mostlycloudy","0","0","0","0","0","0","METAR UKKK 041300Z 26005MPS 9999 BKN037 04/M04 Q1019 R26/CLRD70 TEMPO 30009G14MPS"
"3:30 PM EET on November 04, 2016","2016","11","04","15","30","Europe/Kiev","1:30 PM GMT on November 04, 2016","2016","11","04","13","30","UTC","3.0","37.4","-2.0","28.4","70","21.6","13.4","-9999.0","-9999.0","270","West","10.0","6.2","1019","30.09","-1.6","29.1","-9999","-9999","-9999.00","-9999.00","Mostly Cloudy","mostlycloudy","0","0","0","0","0","0","METAR UKKK 041330Z 27006MPS 9999 BKN026 03/M02 Q1019 R26/CLRD70 TEMPO 30009G14MPS"
"4:00 PM EET on November 04, 2016","2016","11","04","16","00","Europe/Kiev","2:00 PM GMT on November 04, 2016","2016","11","04","14","00","UTC","3.0","37.4","-1.0","30.2","75","21.6","13.4","-9999.0","-9999.0","270","West","10.0","6.2","1020","30.12","-1.6","29.1","-9999","-9999","-9999.00","-9999.00","Mostly Cloudy","mostlycloudy","0","0","0","0","0","0","METAR UKKK 041400Z 27006MPS 9999 FEW029CB BKN046 03/M01 Q1020 R26/CLRD70 NOSIG"
"4:30 PM EET on November 04, 2016","2016","11","04","16","30","Europe/Kiev","2:30 PM GMT on November 04, 2016","2016","11","04","14","30","UTC","2.0","35.6","-1.0","30.2","81","18.0","11.2","-9999.0","-9999.0","280","West","10.0","6.2","1020","30.12","-2.4","27.7","-9999","-9999","-9999.00","-9999.00","Mostly Cloudy","mostlycloudy","0","0","0","0","0","0","METAR UKKK 041430Z 28005MPS 9999 SCT030CB BKN060 02/M01 Q1020 R26/CLRD70 NOSIG"
"5:00 PM EET on November 04, 2016","2016","11","04","17","00","Europe/Kiev","3:00 PM GMT on November 04, 2016","2016","11","04","15","00","UTC","2","36","-1","31","73","10.8","6.7","","","280","West","20","12","1021","30.16","-999","-999","-9999","-9999","","","Mostly Cloudy","mostlycloudy","0","0","0","0","0","0","AAXX 04151 33345 42998 62803 10025 21008 30002 40211 52009 86030 555 11002"
"5:00 PM EET on November 04, 2016","2016","11","04","17","00","Europe/Kiev","3:00 PM GMT on November 04, 2016","2016","11","04","15","00","UTC","2.0","35.6","0.0","32.0","87","14.4","8.9","-9999.0","-9999.0","270","West","-9999.0","-9999.0","1020","30.12","-1.8","28.7","-9999","-9999","-9999.00","-9999.00","Clear","clear","0","0","0","0","0","0","METAR UKKK 041500Z 27004MPS CAVOK 02/M00 Q1020 R26/CLRD70 NOSIG"
"5:30 PM EET on November 04, 2016","2016","11","04","17","30","Europe/Kiev","3:30 PM GMT on November 04, 2016","2016","11","04","15","30","UTC","2.0","35.6","0.0","32.0","87","10.8","6.7","-9999.0","-9999.0","250","WSW","10.0","6.2","1020","30.12","-1.1","30.0","-9999","-9999","-9999.00","-9999.00","Mostly Cloudy","mostlycloudy","0","0","0","0","0","0","METAR UKKK 041530Z 25003MPS 9999 SCT041 BKN070 02/M00 Q1020 R26/CLRD70 NOSIG"
"6:00 PM EET on November 04, 2016","2016","11","04","18","00","Europe/Kiev","4:00 PM GMT on November 04, 2016","2016","11","04","16","00","UTC","2.0","35.6","0.0","32.0","87","10.8","6.7","-9999.0","-9999.0","250","WSW","10.0","6.2","1020","30.12","-1.1","30.0","-9999","-9999","-9999.00","-9999.00","Mostly Cloudy","mostlycloudy","0","0","0","0","0","0","METAR UKKK 041600Z 25003MPS 9999 SCT042 BKN070 02/M00 Q1020 R26/CLRD70 NOSIG"
"6:30 PM EET on November 04, 2016","2016","11","04","18","30","Europe/Kiev","4:30 PM GMT on November 04, 2016","2016","11","04","16","30","UTC","2.0","35.6","0.0","32.0","87","10.8","6.7","-9999.0","-9999.0","250","WSW","-9999.0","-9999.0","1020","30.12","-1.1","30.0","-9999","-9999","-9999.00","-9999.00","Clear","clear","0","0","0","0","0","0","METAR UKKK 041630Z 25003MPS CAVOK 02/M00 Q1020 R26/CLRD70 NOSIG"
"7:00 PM EET on November 04, 2016","2016","11","04","19","00","Europe/Kiev","5:00 PM GMT on November 04, 2016","2016","11","04","17","00","UTC","2.0","35.6","0.0","32.0","87","10.8","6.7","-9999.0","-9999.0","240","WSW","10.0","6.2","1020","30.12","-1.1","30.0","-9999","-9999","-9999.00","-9999.00","Light Snow","snow","0","1","1","0","0","0","METAR UKKK 041700Z 24003MPS 9999 -SNRA BKN043 02/M00 Q1020 R26/CLRD70 NOSIG"
"7:30 PM EET on November 04, 2016","2016","11","04","19","30","Europe/Kiev","5:30 PM GMT on November 04, 2016","2016","11","04","17","30","UTC","2.0","35.6","0.0","32.0","87","10.8","6.7","-9999.0","-9999.0","250","WSW","10.0","6.2","1020","30.12","-1.1","30.0","-9999","-9999","-9999.00","-9999.00","Light Snow","snow","0","1","1","0","0","0","METAR UKKK 041730Z 25003MPS 9999 -SNRA OVC035 02/M00 Q1020 R26/190060 NOSIG"
"8:00 PM EET on November 04, 2016","2016","11","04","20","00","Europe/Kiev","6:00 PM GMT on November 04, 2016","2016","11","04","18","00","UTC","2","36","-1","31","75","10.8","6.7","","","290","WNW","20","12","1022","30.17","-999","-999","-9999","-9999","","","Mostly Cloudy","mostlycloudy","0","0","0","0","0","0","AAXX 04181 33345 32998 62903 10024 21006 30008 40217 52006 86030 333 10053 555 11002"
"8:00 PM EET on November 04, 2016","2016","11","04","20","00","Europe/Kiev","6:00 PM GMT on November 04, 2016","2016","11","04","18","00","UTC","2.0","35.6","0.0","32.0","87","10.8","6.7","-9999.0","-9999.0","260","West","10.0","6.2","1021","30.15","-1.1","30.0","-9999","-9999","-9999.00","-9999.00","Overcast","cloudy","0","0","0","0","0","0","METAR UKKK 041800Z 26003MPS 9999 OVC039 02/M00 Q1021 R26/190060 NOSIG"
"8:30 PM EET on November 04, 2016","2016","11","04","20","30","Europe/Kiev","6:30 PM GMT on November 04, 2016","2016","11","04","18","30","UTC","2.0","35.6","0.0","32.0","87","10.8","6.7","-9999.0","-9999.0","260","West","-9999.0","-9999.0","1021","30.15","-1.1","30.0","-9999","-9999","-9999.00","-9999.00","Clear","clear","0","0","0","0","0","0","METAR UKKK 041830Z 26003MPS CAVOK 02/M00 Q1021 R26/190060 NOSIG"
"9:00 PM EET on November 04, 2016","2016","11","04","21","00","Europe/Kiev","7:00 PM GMT on November 04, 2016","2016","11","04","19","00","UTC","2.0","35.6","0.0","32.0","87","14.4","8.9","-9999.0","-9999.0","260","West","-9999.0","-9999.0","1021","30.15","-1.8","28.7","-9999","-9999","-9999.00","-9999.00","Clear","clear","0","0","0","0","0","0","METAR UKKK 041900Z 26004MPS CAVOK 02/M00 Q1021 R26/190060 NOSIG"
"9:30 PM EET on November 04, 2016","2016","11","04","21","30","Europe/Kiev","7:30 PM GMT on November 04, 2016","2016","11","04","19","30","UTC","2.0","35.6","-1.0","30.2","81","14.4","8.9","-9999.0","-9999.0","260","West","-9999.0","-9999.0","1021","30.15","-1.8","28.7","-9999","-9999","-9999.00","-9999.00","Clear","clear","0","0","0","0","0","0","METAR UKKK 041930Z 26004MPS CAVOK 02/M01 Q1021 R26/CLRD70 NOSIG"
"10:00 PM EET on November 04, 2016","2016","11","04","22","00","Europe/Kiev","8:00 PM GMT on November 04, 2016","2016","11","04","20","00","UTC","2.0","35.6","-1.0","30.2","81","10.8","6.7","-9999.0","-9999.0","260","West","-9999.0","-9999.0","1021","30.15","-1.1","30.0","-9999","-9999","-9999.00","-9999.00","Clear","clear","0","0","0","0","0","0","METAR UKKK 042000Z 26003MPS CAVOK 02/M01 Q1021 R26/CLRD70 NOSIG"
"10:30 PM EET on November 04, 2016","2016","11","04","22","30","Europe/Kiev","8:30 PM GMT on November 04, 2016","2016","11","04","20","30","UTC","2.0","35.6","-1.0","30.2","81","10.8","6.7","-9999.0","-9999.0","260","West","-9999.0","-9999.0","1021","30.15","-1.1","30.0","-9999","-9999","-9999.00","-9999.00","Clear","clear","0","0","0","0","0","0","METAR UKKK 042030Z 26003MPS CAVOK 02/M01 Q1021 R26/CLRD70 NOSIG"
"11:00 PM EET on November 04, 2016","2016","11","04","23","00","Europe/Kiev","9:00 PM GMT on November 04, 2016","2016","11","04","21","00","UTC","2","36","-1","29","69","10.8","6.7","","","290","WNW","20","12","1022","30.18","-999","-999","-9999","-9999","","","Mostly Cloudy","mostlycloudy","0","0","0","0","0","0","AAXX 04211 33345 42998 72903 10020 21014 30011 40220 52003 87030 555 11000"
"11:00 PM EET on November 04, 2016","2016","11","04","23","00","Europe/Kiev","9:00 PM GMT on November 04, 2016","2016","11","04","21","00","UTC","1.0","33.8","-1.0","30.2","87","10.8","6.7","-9999.0","-9999.0","260","West","-9999.0","-9999.0","1021","30.15","-2.3","27.9","-9999","-9999","-9999.00","-9999.00","Clear","clear","0","0","0","0","0","0","METAR UKKK 042100Z 26003MPS CAVOK 01/M01 Q1021 R26/CLRD70 NOSIG"
"11:30 PM EET on November 04, 2016","2016","11","04","23","30","Europe/Kiev","9:30 PM GMT on November 04, 2016","2016","11","04","21","30","UTC","1.0","33.8","-1.0","30.2","87","10.8","6.7","-9999.0","-9999.0","250","WSW","-9999.0","-9999.0","1021","30.15","-2.3","27.9","-9999","-9999","-9999.00","-9999.00","Clear","clear","0","0","0","0","0","0","METAR UKKK 042130Z 25003MPS CAVOK 01/M01 Q1021 R26/CLRD70 NOSIG"
"12:00 AM EET on November 05, 2016","2016","11","05","00","00","Europe/Kiev","10:00 PM GMT on November 04, 2016","2016","11","04","22","00","UTC","1.0","33.8","-2.0","28.4","81","10.8","6.7","-9999.0","-9999.0","260","West","-9999.0","-9999.0","1021","30.15","-2.3","27.9","-9999","-9999","-9999.00","-9999.00","Clear","clear","0","0","0","0","0","0","METAR UKKK 042200Z 26003MPS CAVOK 01/M02 Q1021 R26/CLRD70 NOSIG"
"12:30 AM EET on November 05, 2016","2016","11","05","00","30","Europe/Kiev","10:30 PM GMT on November 04, 2016","2016","11","04","22","30","UTC","0.0","32.0","-2.0","28.4","87","14.4","8.9","-9999.0","-9999.0","260","West","-9999.0","-9999.0","1021","30.15","-4.3","24.3","-9999","-9999","-9999.00","-9999.00","Clear","clear","0","0","0","0","0","0","METAR UKKK 042230Z 26004MPS CAVOK 00/M02 Q1021 R26/CLRD70 NOSIG"
"1:00 AM EET on November 05, 2016","2016","11","05","01","00","Europe/Kiev","11:00 PM GMT on November 04, 2016","2016","11","04","23","00","UTC","0.0","32.0","-2.0","28.4","87","7.2","4.5","-9999.0","-9999.0","250","WSW","-9999.0","-9999.0","1021","30.15","-2.5","27.6","-9999","-9999","-9999.00","-9999.00","Clear","clear","0","0","0","0","0","0","METAR UKKK 042300Z 25002MPS CAVOK M00/M02 Q1021 R26/CLRD70 NOSIG"
"1:30 AM EET on November 05, 2016","2016","11","05","01","30","Europe/Kiev","11:30 PM GMT on November 04, 2016","2016","11","04","23","30","UTC","-1.0","30.2","-3.0","26.6","86","7.2","4.5","-9999.0","-9999.0","250","WSW","-9999.0","-9999.0","1021","30.15","-3.6","25.5","-9999","-9999","-9999.00","-9999.00","Clear","clear","0","0","0","0","0","0","METAR UKKK 042330Z 25002MPS CAVOK M01/M03 Q1021 R26/CLRD70 NOSIG"
"2:00 AM EET on November 05, 2016","2016","11","05","02","00","Europe/Kiev","12:00 AM GMT on November 05, 2016","2016","11","05","00","00","UTC","1","33","-2","28","76","7.2","4.5","","","300","WNW","20","12","1023","30.20","-999","-999","-9999","-9999","","","","","0","0","0","0","0","0","AAXX 05001 33345 32998 03002 10008 21021 30016 40227 52005 555 11100"
"2:00 AM EET on November 05, 2016","2016","11","05","02","00","Europe/Kiev","12:00 AM GMT on November 05, 2016","2016","11","05","00","00","UTC","-1.0","30.2","-2.0","28.4","93","7.2","4.5","-9999.0","-9999.0","240","WSW","-9999.0","-9999.0","1021","30.15","-3.6","25.5","-9999","-9999","-9999.00","-9999.00","Clear","clear","0","0","0","0","0","0","METAR UKKK 050000Z 24002MPS CAVOK M01/M02 Q1021 R26/CLRD70 NOSIG"
"2:30 AM EET on November 05, 2016","2016","11","05","02","30","Europe/Kiev","12:30 AM GMT on November 05, 2016","2016","11","05","00","30","UTC","-2.0","28.4","-3.0","26.6","93","7.2","4.5","-9999.0","-9999.0","240","WSW","-9999.0","-9999.0","1021","30.15","-4.8","23.4","-9999","-9999","-9999.00","-9999.00","Clear","clear","0","0","0","0","0","0","METAR UKKK 050030Z 24002MPS CAVOK M02/M03 Q1021 R26/CLRD70 NOSIG"
"3:00 AM EET on November 05, 2016","2016","11","05","03","00","Europe/Kiev","1:00 AM GMT on November 05, 2016","2016","11","05","01","00","UTC","-1.0","30.2","-3.0","26.6","86","7.2","4.5","-9999.0","-9999.0","230","SW","-9999.0","-9999.0","1021","30.15","-3.6","25.5","-9999","-9999","-9999.00","-9999.00","Clear","clear","0","0","0","0","0","0","METAR UKKK 050100Z 23002MPS CAVOK M01/M03 Q1021 R26/CLRD70 NOSIG"
"3:30 AM EET on November 05, 2016","2016","11","05","03","30","Europe/Kiev","1:30 AM GMT on November 05, 2016","2016","11","05","01","30","UTC","-3.0","26.6","-4.0","24.8","93","7.2","4.5","-9999.0","-9999.0","240","WSW","9.0","5.6","1021","30.15","-5.9","21.3","-9999","-9999","-9999.00","-9999.00","Clear","clear","0","0","0","0","0","0","METAR UKKK 050130Z 24002MPS 9000 SKC M03/M04 Q1021 R26/CLRD70 NOSIG"
"4:00 AM EET on November 05, 2016","2016","11","05","04","00","Europe/Kiev","2:00 AM GMT on November 05, 2016","2016","11","05","02","00","UTC","-2.0","28.4","-3.0","26.6","93","7.2","4.5","-9999.0","-9999.0","240","WSW","8.0","5.0","1022","30.18","-4.8","23.4","-9999","-9999","-9999.00","-9999.00","Clear","clear","0","0","0","0","0","0","METAR UKKK 050200Z 24002MPS 8000 SKC M02/M03 Q1022 R26/CLRD70 NOSIG"
"4:30 AM EET on November 05, 2016","2016","11","05","04","30","Europe/Kiev","2:30 AM GMT on November 05, 2016","2016","11","05","02","30","UTC","-3.0","26.6","-4.0","24.8","93","7.2","4.5","-9999.0","-9999.0","240","WSW","7.0","4.3","1022","30.18","-5.9","21.3","-9999","-9999","-9999.00","-9999.00","Clear","clear","0","0","0","0","0","0","METAR UKKK 050230Z 24002MPS 7000 SKC M03/M04 Q1022 R26/CLRD70 NOSIG"
"5:00 AM EET on November 05, 2016","2016","11","05","05","00","Europe/Kiev","3:00 AM GMT on November 05, 2016","2016","11","05","03","00","UTC","-0","31","-3","26","74","10.8","6.7","","","290","WNW","20","12","1023","30.21","-999","-999","-9999","-9999","","","","","0","0","0","0","0","0","AAXX 05031 33345 42998 02903 11004 21034 30018 40230 52002 555 14101"
"5:00 AM EET on November 05, 2016","2016","11","05","05","00","Europe/Kiev","3:00 AM GMT on November 05, 2016","2016","11","05","03","00","UTC","-3.0","26.6","-3.0","26.6","100","7.2","4.5","-9999.0","-9999.0","240","WSW","6.0","3.7","1022","30.18","-5.9","21.3","-9999","-9999","-9999.00","-9999.00","Clear","clear","0","0","0","0","0","0","METAR UKKK 050300Z 24002MPS 6000 SKC M03/M03 Q1022 R26/CLRD70 NOSIG"
"5:30 AM EET on November 05, 2016","2016","11","05","05","30","Europe/Kiev","3:30 AM GMT on November 05, 2016","2016","11","05","03","30","UTC","-4.0","24.8","-4.0","24.8","100","7.2","4.5","-9999.0","-9999.0","240","WSW","5.0","3.1","1021","30.15","-7.1","19.2","-9999","-9999","-9999.00","-9999.00","Clear","clear","0","0","0","0","0","0","METAR UKKK 050330Z 24002MPS 5000 BR SKC M04/M04 Q1021 R26/CLRD70 NOSIG"
"6:00 AM EET on November 05, 2016","2016","11","05","06","00","Europe/Kiev","4:00 AM GMT on November 05, 2016","2016","11","05","04","00","UTC","-4.0","24.8","-4.0","24.8","100","7.2","4.5","-9999.0","-9999.0","240","WSW","6.0","3.7","1021","30.15","-7.1","19.2","-9999","-9999","-9999.00","-9999.00","Clear","clear","0","0","0","0","0","0","METAR UKKK 050400Z 24002MPS 6000 SKC M04/M04 Q1021 R26/CLRD70 NOSIG"
"6:30 AM EET on November 05, 2016","2016","11","05","06","30","Europe/Kiev","4:30 AM GMT on November 05, 2016","2016","11","05","04","30","UTC","-5.0","23.0","-5.0","23.0","100","3.6","2.2","-9999.0","-9999.0","230","SW","5.0","3.1","1022","30.18","-999","-999","-9999","-9999","-9999.00","-9999.00","Clear","clear","0","0","0","0","0","0","METAR UKKK 050430Z 23001MPS 5000 BR SKC M05/M05 Q1022 R26/CLRD70 NOSIG"
"7:00 AM EET on November 05, 2016","2016","11","05","07","00","Europe/Kiev","5:00 AM GMT on November 05, 2016","2016","11","05","05","00","UTC","-4.0","24.8","-5.0","23.0","93","7.2","4.5","-9999.0","-9999.0","230","SW","-9999.0","-9999.0","1022","30.18","-7.1","19.2","-9999","-9999","-9999.00","-9999.00","Mist","hazy","0","0","0","0","0","0","METAR UKKK 050500Z 23002MPS 4800 BR NSC M04/M05 Q1022 R26/CLRD70 TEMPO 1000 BR BKN003"
"7:30 AM EET on November 05, 2016","2016","11","05","07","30","Europe/Kiev","5:30 AM GMT on November 05, 2016","2016","11","05","05","30","UTC","-2.0","28.4","-3.0","26.6","93","7.2","4.5","-9999.0","-9999.0","240","WSW","7.0","4.3","1022","30.18","-4.8","23.4","-9999","-9999","-9999.00","-9999.00","Unknown","unknown","0","0","0","0","0","0","METAR UKKK 050530Z 24002MPS 7000 NSC M02/M03 Q1022 R26/190060 NOSIG"
"8:00 AM EET on November 05, 2016","2016","11","05","08","00","Europe/Kiev","6:00 AM GMT on November 05, 2016","2016","11","05","06","00","UTC","-1","31","-3","27","77","0.0","0.0","","","","","20","12","1024","30.23","-999","-999","-9999","-9999","","","Mostly Cloudy","mostlycloudy","0","0","0","0","0","0","AAXX 05061 33345 32998 70000 11008 21030 30023 40235 52005 87030 333 21010 555 14100"
"8:00 AM EET on November 05, 2016","2016","11","05","08","00","Europe/Kiev","6:00 AM GMT on November 05, 2016","2016","11","05","06","00","UTC","-2.0","28.4","-3.0","26.6","93","7.2","4.5","-9999.0","-9999.0","250","WSW","7.0","4.3","1022","30.18","-4.8","23.4","-9999","-9999","-9999.00","-9999.00","Unknown","unknown","0","0","0","0","0","0","METAR UKKK 050600Z 25002MPS 7000 NSC M02/M03 Q1022 R26/190060 NOSIG"
"8:30 AM EET on November 05, 2016","2016","11","05","08","30","Europe/Kiev","6:30 AM GMT on November 05, 2016","2016","11","05","06","30","UTC","-1.0","30.2","-1.0","30.2","100","7.2","4.5","-9999.0","-9999.0","240","WSW","-9999.0","-9999.0","1022","30.18","-3.6","25.5","-9999","-9999","-9999.00","-9999.00","Clear","clear","0","0","0","0","0","0","METAR UKKK 050630Z 24002MPS CAVOK M01/M01 Q1022 R26/190060 NOSIG"
"9:00 AM EET on November 05, 2016","2016","11","05","09","00","Europe/Kiev","7:00 AM GMT on November 05, 2016","2016","11","05","07","00","UTC","0.0","32.0","-1.0","30.2","93","7.2","4.5","-9999.0","-9999.0","230","SW","-9999.0","-9999.0","1022","30.18","-2.5","27.6","-9999","-9999","-9999.00","-9999.00","Clear","clear","0","0","0","0","0","0","METAR UKKK 050700Z 23002MPS CAVOK 00/M01 Q1022 R26/190060 NOSIG"
"9:30 AM EET on November 05, 2016","2016","11","05","09","30","Europe/Kiev","7:30 AM GMT on November 05, 2016","2016","11","05","07","30","UTC","2.0","35.6","-1.0","30.2","81","7.2","4.5","-9999.0","-9999.0","230","SW","-9999.0","-9999.0","1022","30.18","-0.1","31.8","-9999","-9999","-9999.00","-9999.00","Clear","clear","0","0","0","0","0","0","METAR UKKK 050730Z 23002MPS CAVOK 02/M01 Q1022 R26/190060 NOSIG"
"10:00 AM EET on November 05, 2016","2016","11","05","10","00","Europe/Kiev","8:00 AM GMT on November 05, 2016","2016","11","05","08","00","UTC","3.0","37.4","-1.0","30.2","75","10.8","6.7","-9999.0","-9999.0","220","SW","-9999.0","-9999.0","1022","30.18","0.1","32.2","-9999","-9999","-9999.00","-9999.00","Clear","clear","0","0","0","0","0","0","METAR UKKK 050800Z 22003MPS 190V250 CAVOK 03/M01 Q1022 R26/190060 NOSIG"
"10:30 AM EET on November 05, 2016","2016","11","05","10","30","Europe/Kiev","8:30 AM GMT on November 05, 2016","2016","11","05","08","30","UTC","4.0","39.2","-2.0","28.4","65","10.8","6.7","-9999.0","-9999.0","210","SSW","-9999.0","-9999.0","1022","30.18","1.3","34.4","-9999","-9999","-9999.00","-9999.00","Clear","clear","0","0","0","0","0","0","METAR UKKK 050830Z 21003MPS 170V250 CAVOK 04/M02 Q1022 R26/190060 NOSIG"
"11:00 AM EET on November 05, 2016","2016","11","05","11","00","Europe/Kiev","9:00 AM GMT on November 05, 2016","2016","11","05","09","00","UTC","5","41","-2","28","49","10.8","6.7","","","190","South","20","12","1023","30.21","-999","-999","-9999","-9999","","","Scattered Clouds","partlycloudy","0","0","0","0","0","0","AAXX 05091 33345 42998 11903 10049 21020 30021 40228 58002 81030 555 11005"
"11:00 AM EET on November 05, 2016","2016","11","05","11","00","Europe/Kiev","9:00 AM GMT on November 05, 2016","2016","11","05","09","00","UTC","5.0","41.0","-2.0","28.4","61","14.4","8.9","-9999.0","-9999.0","210","SSW","-9999.0","-9999.0","1022","30.18","1.9","35.4","-9999","-9999","-9999.00","-9999.00","Clear","clear","0","0","0","0","0","0","METAR UKKK 050900Z 21004MPS CAVOK 05/M02 Q1022 R26/190060 NOSIG"
"11:30 AM EET on November 05, 2016","2016","11","05","11","30","Europe/Kiev","9:30 AM GMT on November 05, 2016","2016","11","05","09","30","UTC","6.0","42.8","-2.0","28.4","57","10.8","6.7","-9999.0","-9999.0","200","SSW","-9999.0","-9999.0","1021","30.15","3.7","38.7","-9999","-9999","-9999.00","-9999.00","Clear","clear","0","0","0","0","0","0","METAR UKKK 050930Z 20003MPS 170V230 CAVOK 06/M02 Q1021 R26/190060 NOSIG"
"12:00 PM EET on November 05, 2016","2016","11","05","12","00","Europe/Kiev","10:00 AM GMT on November 05, 2016","2016","11","05","10","00","UTC","6.0","42.8","-3.0","26.6","53","14.4","8.9","-9999.0","-9999.0","220","SW","-9999.0","-9999.0","1021","30.15","3.1","37.6","-9999","-9999","-9999.00","-9999.00","Clear","clear","0","0","0","0","0","0","METAR UKKK 051000Z 22004MPS CAVOK 06/M03 Q1021 R26/CLRD70 NOSIG"
"12:30 PM EET on November 05, 2016","2016","11","05","12","30","Europe/Kiev","10:30 AM GMT on November 05, 2016","2016","11","05","10","30","UTC","6.0","42.8","-3.0","26.6","53","10.8","6.7","-9999.0","-9999.0","210","SSW","-9999.0","-9999.0","1021","30.15","3.7","38.7","-9999","-9999","-9999.00","-9999.00","Clear","clear","0","0","0","0","0","0","METAR UKKK 051030Z 21003MPS 170V250 CAVOK 06/M03 Q1021 R26/CLRD70 NOSIG"
"1:00 PM EET on November 05, 2016","2016","11","05","13","00","Europe/Kiev","11:00 AM GMT on November 05, 2016","2016","11","05","11","00","UTC","7.0","44.6","-3.0","26.6","49","14.4","8.9","-9999.0","-9999.0","190","South","8.0","5.0","1021","30.15","4.3","39.8","-9999","-9999","-9999.00","-9999.00","Unknown","unknown","0","0","0","0","0","0","METAR UKKK 051100Z 19004MPS 140V250 8000 NSC 07/M03 Q1021 R26/CLRD70 NOSIG"
"1:30 PM EET on November 05, 2016","2016","11","05","13","30","Europe/Kiev","11:30 AM GMT on November 05, 2016","2016","11","05","11","30","UTC","6.0","42.8","-3.0","26.6","53","14.4","8.9","-9999.0","-9999.0","210","SSW","7.0","4.3","1021","30.15","3.1","37.6","-9999","-9999","-9999.00","-9999.00","Unknown","unknown","0","0","0","0","0","0","METAR UKKK 051130Z 21004MPS 180V250 7000 NSC 06/M03 Q1021 R26/CLRD70 NOSIG"
"2:00 PM EET on November 05, 2016","2016","11","05","14","00","Europe/Kiev","12:00 PM GMT on November 05, 2016","2016","11","05","12","00","UTC","6","43","-4","25","37","14.4","8.9","","","220","SW","20","12","1021","30.16","-999","-999","-9999","-9999","","","Clear","clear","0","0","0","0","0","0","AAXX 05121 33345 32998 62204 10060 21037 30006 40212 57015 80005 555 11008"
"2:00 PM EET on November 05, 2016","2016","11","05","14","00","Europe/Kiev","12:00 PM GMT on November 05, 2016","2016","11","05","12","00","UTC","6.0","42.8","-3.0","26.6","53","14.4","8.9","-9999.0","-9999.0","200","SSW","-9999.0","-9999.0","1020","30.12","3.1","37.6","-9999","-9999","-9999.00","-9999.00","Clear","clear","0","0","0","0","0","0","METAR UKKK 051200Z 20004MPS 140V230 CAVOK 06/M03 Q1020 R26/CLRD70 NOSIG"
"2:30 PM EET on November 05, 2016","2016","11","05","14","30","Europe/Kiev","12:30 PM GMT on November 05, 2016","2016","11","05","12","30","UTC","5.0","41.0","-2.0","28.4","61","7.2","4.5","-9999.0","-9999.0","170","South","10.0","6.2","1020","30.12","3.4","38.1","-9999","-9999","-9999.00","-9999.00","Scattered Clouds","partlycloudy","0","0","0","0","0","0","METAR UKKK 051230Z 17002MPS 130V210 9999 FEW039 SCT120 05/M02 Q1020 R08/CLRD70 NOSIG"
"3:00 PM EET on November 05, 2016","2016","11","05","15","00","Europe/Kiev","1:00 PM GMT on November 05, 2016","2016","11","05","13","00","UTC","6.0","42.8","-3.0","26.6","53","10.8","6.7","-9999.0","-9999.0","190","South","8.0","5.0","1020","30.12","3.7","38.7","-9999","-9999","-9999.00","-9999.00","Unknown","unknown","0","0","0","0","0","0","METAR UKKK 051300Z 19003MPS 130V240 8000 NSC 06/M03 Q1020 R08/CLRD70 NOSIG"
"3:30 PM EET on November 05, 2016","2016","11","05","15","30","Europe/Kiev","1:30 PM GMT on November 05, 2016","2016","11","05","13","30","UTC","5.0","41.0","-2.0","28.4","61","10.8","6.7","-9999.0","-9999.0","180","South","-9999.0","-9999.0","1020","30.12","2.5","36.5","-9999","-9999","-9999.00","-9999.00","Clear","clear","0","0","0","0","0","0","METAR UKKK 051330Z 18003MPS 140V220 CAVOK 05/M02 Q1020 R08/CLRD70 NOSIG"
"4:00 PM EET on November 05, 2016","2016","11","05","16","00","Europe/Kiev","2:00 PM GMT on November 05, 2016","2016","11","05","14","00","UTC","5.0","41.0","-2.0","28.4","61","7.2","4.5","-9999.0","-9999.0","160","SSE","-9999.0","-9999.0","1019","30.09","3.4","38.1","-9999","-9999","-9999.00","-9999.00","Clear","clear","0","0","0","0","0","0","METAR UKKK 051400Z 16002MPS 090V200 CAVOK 05/M02 Q1019 R08/CLRD70 NOSIG"
"4:30 PM EET on November 05, 2016","2016","11","05","16","30","Europe/Kiev","2:30 PM GMT on November 05, 2016","2016","11","05","14","30","UTC","5.0","41.0","-2.0","28.4","61","7.2","4.5","-9999.0","-9999.0","140","SE","-9999.0","-9999.0","1019","30.09","3.4","38.1","-9999","-9999","-9999.00","-9999.00","Clear","clear","0","0","0","0","0","0","METAR UKKK 051430Z 14002MPS 110V180 CAVOK 05/M02 Q1019 R08/CLRD70 NOSIG"
"5:00 PM EET on November 05, 2016","2016","11","05","17","00","Europe/Kiev","3:00 PM GMT on November 05, 2016","2016","11","05","15","00","UTC","5","40","-2","28","51","10.8","6.7","","","190","South","20","12","1020","30.13","-999","-999","-9999","-9999","","","Overcast","cloudy","0","0","0","0","0","0","AAXX 05151 33345 42998 81903 10046 21021 39994 40201 57012 8807/ 555 11003"
"5:00 PM EET on November 05, 2016","2016","11","05","17","00","Europe/Kiev","3:00 PM GMT on November 05, 2016","2016","11","05","15","00","UTC","5.0","41.0","-2.0","28.4","61","10.8","6.7","-9999.0","-9999.0","140","SE","10.0","6.2","1019","30.09","2.5","36.5","-9999","-9999","-9999.00","-9999.00","Mostly Cloudy","mostlycloudy","0","0","0","0","0","0","METAR UKKK 051500Z 14003MPS 110V180 9999 FEW037 BKN083 05/M02 Q1019 R08/CLRD70 NOSIG"
"5:30 PM EET on November 05, 2016","2016","11","05","17","30","Europe/Kiev","3:30 PM GMT on November 05, 2016","2016","11","05","15","30","UTC","5.0","41.0","-2.0","28.4","61","10.8","6.7","-9999.0","-9999.0","140","SE","-9999.0","-9999.0","1019","30.09","2.5","36.5","-9999","-9999","-9999.00","-9999.00","Clear","clear","0","0","0","0","0","0","METAR UKKK 051530Z 14003MPS 110V190 CAVOK 05/M02 Q1019 R08/CLRD70 NOSIG"
"6:00 PM EET on November 05, 2016","2016","11","05","18","00","Europe/Kiev","4:00 PM GMT on November 05, 2016","2016","11","05","16","00","UTC","5.0","41.0","-2.0","28.4","61","10.8","6.7","-9999.0","-9999.0","140","SE","-9999.0","-9999.0","1019","30.09","2.5","36.5","-9999","-9999","-9999.00","-9999.00","Clear","clear","0","0","0","0","0","0","METAR UKKK 051600Z 14003MPS 110V180 CAVOK 05/M02 Q1019 R08/CLRD70 NOSIG"
"6:30 PM EET on November 05, 2016","2016","11","05","18","30","Europe/Kiev","4:30 PM GMT on November 05, 2016","2016","11","05","16","30","UTC","4.0","39.2","-2.0","28.4","65","10.8","6.7","-9999.0","-9999.0","140","SE","-9999.0","-9999.0","1019","30.09","1.3","34.4","-9999","-9999","-9999.00","-9999.00","Clear","clear","0","0","0","0","0","0","METAR UKKK 051630Z 14003MPS 110V210 CAVOK 04/M02 Q1019 R08/CLRD70 NOSIG"
"7:00 PM EET on November 05, 2016","2016","11","05","19","00","Europe/Kiev","5:00 PM GMT on November 05, 2016","2016","11","05","17","00","UTC","4.0","39.2","-2.0","28.4","65","10.8","6.7","-9999.0","-9999.0","140","SE","10.0","6.2","1018","30.06","1.3","34.4","-9999","-9999","-9999.00","-9999.00","Mostly Cloudy","mostlycloudy","0","0","0","0","0","0","METAR UKKK 051700Z 14003MPS 110V190 9999 SCT031 BKN100 04/M02 Q1018 R08/CLRD70 NOSIG"
"7:30 PM EET on November 05, 2016","2016","11","05","19","30","Europe/Kiev","5:30 PM GMT on November 05, 2016","2016","11","05","17","30","UTC","4.0","39.2","-2.0","28.4","65","10.8","6.7","-9999.0","-9999.0","140","SE","10.0","6.2","1018","30.06","1.3","34.4","-9999","-9999","-9999.00","-9999.00","Mostly Cloudy","mostlycloudy","0","0","0","0","0","0","METAR UKKK 051730Z 14003MPS 110V170 9999 SCT032 BKN100 04/M02 Q1018 R08/CLRD70 NOSIG"
"8:00 PM EET on November 05, 2016","2016","11","05","20","00","Europe/Kiev","6:00 PM GMT on November 05, 2016","2016","11","05","18","00","UTC","4","40","-2","29","54","10.8","6.7","","","190","South","20","12","1019","30.09","-999","-999","-9999","-9999","","","Overcast","cloudy","0","0","0","0","0","0","AAXX 05181 33345 32598 81903 10042 21016 39982 40189 57012 885// 333 10069 88630 555 11002"
"8:00 PM EET on November 05, 2016","2016","11","05","20","00","Europe/Kiev","6:00 PM GMT on November 05, 2016","2016","11","05","18","00","UTC","4.0","39.2","-2.0","28.4","65","10.8","6.7","-9999.0","-9999.0","150","SSE","10.0","6.2","1018","30.06","1.3","34.4","-9999","-9999","-9999.00","-9999.00","Mostly Cloudy","mostlycloudy","0","0","0","0","0","0","METAR UKKK 051800Z 15003MPS 120V190 9999 SCT032 BKN100 04/M02 Q1018 R08/CLRD70 NOSIG"
"8:30 PM EET on November 05, 2016","2016","11","05","20","30","Europe/Kiev","6:30 PM GMT on November 05, 2016","2016","11","05","18","30","UTC","4.0","39.2","-2.0","28.4","65","14.4","8.9","-9999.0","-9999.0","140","SE","10.0","6.2","1017","30.04","0.6","33.1","-9999","-9999","-9999.00","-9999.00","Mostly Cloudy","mostlycloudy","0","0","0","0","0","0","METAR UKKK 051830Z 14004MPS 090V180 9999 SCT031 BKN100 04/M02 Q1017 R08/CLRD70 NOSIG"
"9:00 PM EET on November 05, 2016","2016","11","05","21","00","Europe/Kiev","7:00 PM GMT on November 05, 2016","2016","11","05","19","00","UTC","4.0","39.2","-2.0","28.4","65","14.4","8.9","-9999.0","-9999.0","140","SE","10.0","6.2","1017","30.04","0.6","33.1","-9999","-9999","-9999.00","-9999.00","Mostly Cloudy","mostlycloudy","0","0","0","0","0","0","METAR UKKK 051900Z 14004MPS 9999 SCT040 BKN110 04/M02 Q1017 R08/CLRD70 NOSIG"
"9:30 PM EET on November 05, 2016","2016","11","05","21","30","Europe/Kiev","7:30 PM GMT on November 05, 2016","2016","11","05","19","30","UTC","4.0","39.2","-1.0","30.2","70","14.4","8.9","-9999.0","-9999.0","140","SE","10.0","6.2","1016","30.01","0.6","33.1","-9999","-9999","-9999.00","-9999.00","Mostly Cloudy","mostlycloudy","0","0","0","0","0","0","METAR UKKK 051930Z 14004MPS 9999 SCT040 BKN110 04/M01 Q1016 R08/CLRD70 NOSIG"
"10:00 PM EET on November 05, 2016","2016","11","05","22","00","Europe/Kiev","8:00 PM GMT on November 05, 2016","2016","11","05","20","00","UTC","5.0","41.0","-1.0","30.2","65","10.8","6.7","-9999.0","-9999.0","150","SSE","10.0","6.2","1016","30.01","2.5","36.5","-9999","-9999","-9999.00","-9999.00","Mostly Cloudy","mostlycloudy","0","0","0","0","0","0","METAR UKKK 052000Z 15003MPS 090V200 9999 BKN028 BKN090 05/M01 Q1016 R08/CLRD70 NOSIG"
"10:30 PM EET on November 05, 2016","2016","11","05","22","30","Europe/Kiev","8:30 PM GMT on November 05, 2016","2016","11","05","20","30","UTC","4.0","39.2","-1.0","30.2","70","14.4","8.9","-9999.0","-9999.0","150","SSE","10.0","6.2","1016","30.01","0.6","33.1","-9999","-9999","-9999.00","-9999.00","Mostly Cloudy","mostlycloudy","0","0","0","0","0","0","METAR UKKK 052030Z 15004MPS 090V180 9999 SCT028 BKN090 04/M01 Q1016 R08/CLRD70 NOSIG"
"11:00 PM EET on November 05, 2016","2016","11","05","23","00","Europe/Kiev","9:00 PM GMT on November 05, 2016","2016","11","05","21","00","UTC","4","40","-1","30","58","10.8","6.7","","","190","South","20","12","1017","30.02","-999","-999","-9999","-9999","","","Mostly Cloudy","mostlycloudy","0","0","0","0","0","0","AAXX 05211 33345 42598 71903 10044 21010 39959 40166 57023 875// 333 87628 555 11002"
"11:00 PM EET on November 05, 2016","2016","11","05","23","00","Europe/Kiev","9:00 PM GMT on November 05, 2016","2016","11","05","21","00","UTC","5.0","41.0","0.0","32.0","70","14.4","8.9","-9999.0","-9999.0","150","SSE","10.0","6.2","1015","29.98","1.9","35.4","-9999","-9999","-9999.00","-9999.00","Mostly Cloudy","mostlycloudy","0","0","0","0","0","0","METAR UKKK 052100Z 15004MPS 100V200 9999 SCT040 BKN090 05/M00 Q1015 R08/CLRD70 NOSIG"
"11:30 PM EET on November 05, 2016","2016","11","05","23","30","Europe/Kiev","9:30 PM GMT on November 05, 2016","2016","11","05","21","30","UTC","5.0","41.0","0.0","32.0","70","14.4","8.9","-9999.0","-9999.0","160","SSE","-9999.0","-9999.0","1015","29.98","1.9","35.4","-9999","-9999","-9999.00","-9999.00","Clear","clear","0","0","0","0","0","0","METAR UKKK 052130Z 16004MPS 120V190 CAVOK 05/00 Q1015 R08/CLRD70 NOSIG"
"12:00 AM EET on November 06, 2016","2016","11","06","00","00","Europe/Kiev","10:00 PM GMT on November 05, 2016","2016","11","05","22","00","UTC","5.0","41.0","1.0","33.8","76","18.0","11.2","-9999.0","-9999.0","170","South","-9999.0","-9999.0","1015","29.98","1.3","34.4","-9999","-9999","-9999.00","-9999.00","Clear","clear","0","0","0","0","0","0","METAR UKKK 052200Z 17005MPS 120V250 CAVOK 05/01 Q1015 R08/CLRD70 NOSIG"
"12:30 AM EET on November 06, 2016","2016","11","06","00","30","Europe/Kiev","10:30 PM GMT on November 05, 2016","2016","11","05","22","30","UTC","5.0","41.0","1.0","33.8","76","14.4","8.9","-9999.0","-9999.0","170","South","10.0","6.2","1015","29.98","1.9","35.4","-9999","-9999","-9999.00","-9999.00","Mostly Cloudy","mostlycloudy","0","0","0","0","0","0","METAR UKKK 052230Z 17004MPS 130V220 9999 SCT019 BKN100 05/01 Q1015 WS RWY08 R08/CLRD70 NOSIG"
"1:00 AM EET on November 06, 2016","2016","11","06","01","00","Europe/Kiev","11:00 PM GMT on November 05, 2016","2016","11","05","23","00","UTC","5.0","41.0","2.0","35.6","81","14.4","8.9","-9999.0","-9999.0","170","South","10.0","6.2","1014","29.95","1.9","35.4","-9999","-9999","-9999.00","-9999.00","Mostly Cloudy","mostlycloudy","0","0","0","0","0","0","METAR UKKK 052300Z 17004MPS 130V200 9999 SCT017 BKN100 05/02 Q1014 R08/CLRD70 NOSIG"
"1:30 AM EET on November 06, 2016","2016","11","06","01","30","Europe/Kiev","11:30 PM GMT on November 05, 2016","2016","11","05","23","30","UTC","5.0","41.0","2.0","35.6","81","18.0","11.2","-9999.0","-9999.0","160","SSE","10.0","6.2","1014","29.95","1.3","34.4","-9999","-9999","-9999.00","-9999.00","Mostly Cloudy","mostlycloudy","0","0","0","0","0","0","METAR UKKK 052330Z 16005MPS 120V200 9999 BKN016 05/02 Q1014 WS RWY08 R08/CLRD70 NOSIG"
"2:00 AM EET on November 06, 2016","2016","11","06","02","00","Europe/Kiev","12:00 AM GMT on November 06, 2016","2016","11","06","00","00","UTC","5","41","2","35","71","18.0","11.2","","","200","SSW","20","12","1015","29.96","-999","-999","-9999","-9999","","","Overcast","cloudy","0","0","0","0","0","0","AAXX 06001 33345 32498 82005 10050 20015 39940 40146 57019 885// 333 88618 555 11003"
"2:00 AM EET on November 06, 2016","2016","11","06","02","00","Europe/Kiev","12:00 AM GMT on November 06, 2016","2016","11","06","00","00","UTC","5.0","41.0","2.0","35.6","81","14.4","8.9","-9999.0","-9999.0","160","SSE","10.0","6.2","1013","29.92","1.9","35.4","-9999","-9999","-9999.00","-9999.00","Mostly Cloudy","mostlycloudy","0","0","0","0","0","0","METAR UKKK 060000Z 16004MPS 110V210 9999 BKN017 05/02 Q1013 R08/CLRD70 NOSIG"
"2:30 AM EET on November 06, 2016","2016","11","06","02","30","Europe/Kiev","12:30 AM GMT on November 06, 2016","2016","11","06","00","30","UTC","5.0","41.0","2.0","35.6","81","14.4","8.9","-9999.0","-9999.0","170","South","10.0","6.2","1013","29.92","1.9","35.4","-9999","-9999","-9999.00","-9999.00","Mostly Cloudy","mostlycloudy","0","0","0","0","0","0","METAR UKKK 060030Z 17004MPS 100V210 9999 BKN015 05/02 Q1013 R08/CLRD70 NOSIG"
"3:00 AM EET on November 06, 2016","2016","11","06","03","00","Europe/Kiev","1:00 AM GMT on November 06, 2016","2016","11","06","01","00","UTC","5.0","41.0","1.0","33.8","76","18.0","11.2","-9999.0","-9999.0","160","SSE","10.0","6.2","1012","29.89","1.3","34.4","-9999","-9999","-9999.00","-9999.00","Mostly Cloudy","mostlycloudy","0","0","0","0","0","0","METAR UKKK 060100Z 16005MPS 120V210 9999 BKN015 05/01 Q1012 R08/CLRD70 NOSIG"
"3:30 AM EET on November 06, 2016","2016","11","06","03","30","Europe/Kiev","1:30 AM GMT on November 06, 2016","2016","11","06","01","30","UTC","5.0","41.0","1.0","33.8","76","18.0","11.2","-9999.0","-9999.0","160","SSE","10.0","6.2","1012","29.89","1.3","34.4","-9999","-9999","-9999.00","-9999.00","Mostly Cloudy","mostlycloudy","0","0","0","0","0","0","METAR UKKK 060130Z 16005MPS 110V210 9999 BKN015 05/01 Q1012 R08/CLRD70 NOSIG"
"4:00 AM EET on November 06, 2016","2016","11","06","04","00","Europe/Kiev","2:00 AM GMT on November 06, 2016","2016","11","06","02","00","UTC","5.0","41.0","1.0","33.8","76","14.4","8.9","-9999.0","-9999.0","160","SSE","10.0","6.2","1011","29.86","1.9","35.4","-9999","-9999","-9999.00","-9999.00","Mostly Cloudy","mostlycloudy","0","0","0","0","0","0","METAR UKKK 060200Z 16004MPS 110V260 9999 BKN017 05/01 Q1011 R08/CLRD70 NOSIG"
"4:30 AM EET on November 06, 2016","2016","11","06","04","30","Europe/Kiev","2:30 AM GMT on November 06, 2016","2016","11","06","02","30","UTC","5.0","41.0","1.0","33.8","76","18.0","11.2","-9999.0","-9999.0","160","SSE","10.0","6.2","1011","29.86","1.3","34.4","-9999","-9999","-9999.00","-9999.00","Mostly Cloudy","mostlycloudy","0","0","0","0","0","0","METAR UKKK 060230Z 16005MPS 120V220 9999 BKN016 BKN150 05/01 Q1011 R08/CLRD70 NOSIG"
"5:00 AM EET on November 06, 2016","2016","11","06","05","00","Europe/Kiev","3:00 AM GMT on November 06, 2016","2016","11","06","03","00","UTC","5","40","2","35","76","18.0","11.2","","","200","SSW","20","12","1012","29.88","-999","-999","-9999","-9999","","","Overcast","cloudy","0","0","0","0","0","0","AAXX 06031 33345 42498 82005 10047 20017 39913 40118 57027 885// 555 11003"
"5:00 AM EET on November 06, 2016","2016","11","06","05","00","Europe/Kiev","3:00 AM GMT on November 06, 2016","2016","11","06","03","00","UTC","5.0","41.0","2.0","35.6","81","18.0","11.2","-9999.0","-9999.0","160","SSE","10.0","6.2","1011","29.86","1.3","34.4","-9999","-9999","-9999.00","-9999.00","Mostly Cloudy","mostlycloudy","0","0","0","0","0","0","METAR UKKK 060300Z 16005MPS 120V180 9999 BKN017 05/02 Q1011 R08/CLRD70 NOSIG"
"5:30 AM EET on November 06, 2016","2016","11","06","05","30","Europe/Kiev","3:30 AM GMT on November 06, 2016","2016","11","06","03","30","UTC","5.0","41.0","2.0","35.6","81","14.4","8.9","-9999.0","-9999.0","160","SSE","10.0","6.2","1010","29.83","1.9","35.4","-9999","-9999","-9999.00","-9999.00","Mostly Cloudy","mostlycloudy","0","0","0","0","0","0","METAR UKKK 060330Z 16004MPS 120V220 9999 BKN016 05/02 Q1010 R08/CLRD70 NOSIG"
"6:00 AM EET on November 06, 2016","2016","11","06","06","00","Europe/Kiev","4:00 AM GMT on November 06, 2016","2016","11","06","04","00","UTC","5.0","41.0","2.0","35.6","81","21.6","13.4","-9999.0","-9999.0","170","South","10.0","6.2","1010","29.83","0.9","33.6","-9999","-9999","-9999.00","-9999.00","Mostly Cloudy","mostlycloudy","0","0","0","0","0","0","METAR UKKK 060400Z 17006MPS 120V210 9999 BKN015 05/02 Q1010 R08/CLRD70 NOSIG"
"6:30 AM EET on November 06, 2016","2016","11","06","06","30","Europe/Kiev","4:30 AM GMT on November 06, 2016","2016","11","06","04","30","UTC","5.0","41.0","2.0","35.6","81","21.6","13.4","-9999.0","-9999.0","170","South","10.0","6.2","1009","29.80","0.9","33.6","-9999","-9999","-9999.00","-9999.00","Mostly Cloudy","mostlycloudy","0","0","0","0","0","0","METAR UKKK 060430Z 17006MPS 130V220 9999 BKN014 05/02 Q1009 R08/CLRD70 NOSIG"
"7:00 AM EET on November 06, 2016","2016","11","06","07","00","Europe/Kiev","5:00 AM GMT on November 06, 2016","2016","11","06","05","00","UTC","5.0","41.0","2.0","35.6","81","18.0","11.2","-9999.0","-9999.0","160","SSE","10.0","6.2","1009","29.80","1.3","34.4","-9999","-9999","-9999.00","-9999.00","Mostly Cloudy","mostlycloudy","0","0","0","0","0","0","METAR UKKK 060500Z 16005MPS 130V210 9999 BKN012 05/02 Q1009 R08/CLRD70 NOSIG"
"7:30 AM EET on November 06, 2016","2016","11","06","07","30","Europe/Kiev","5:30 AM GMT on November 06, 2016","2016","11","06","05","30","UTC","5.0","41.0","3.0","37.4","87","18.0","11.2","-9999.0","-9999.0","160","SSE","10.0","6.2","1009","29.80","1.3","34.4","-9999","-9999","-9999.00","-9999.00","Mostly Cloudy","mostlycloudy","0","0","0","0","0","0","METAR UKKK 060530Z 16005MPS 120V220 9999 BKN011 05/03 Q1009 R08/CLRD70 NOSIG"
"8:00 AM EET on November 06, 2016","2016","11","06","08","00","Europe/Kiev","6:00 AM GMT on November 06, 2016","2016","11","06","06","00","UTC","5","42","3","37","77","21.6","13.4","","","190","South","10","6","1010","29.82","-999","-999","-9999","-9999","","","Overcast","cloudy","0","0","0","0","0","0","AAXX 06061 33345 32497 81906 10053 20029 39893 40097 57020 885// 333 20042 88711 555 11004"
"8:00 AM EET on November 06, 2016","2016","11","06","08","00","Europe/Kiev","6:00 AM GMT on November 06, 2016","2016","11","06","06","00","UTC","5.0","41.0","3.0","37.4","87","14.4","8.9","-9999.0","-9999.0","160","SSE","10.0","6.2","1009","29.80","1.9","35.4","-9999","-9999","-9999.00","-9999.00","Overcast","cloudy","0","0","0","0","0","0","METAR UKKK 060600Z 16004MPS 120V210 9999 OVC010 05/03 Q1009 R08/CLRD70 NOSIG"
"8:30 AM EET on November 06, 2016","2016","11","06","08","30","Europe/Kiev","6:30 AM GMT on November 06, 2016","2016","11","06","06","30","UTC","6.0","42.8","4.0","39.2","87","18.0","11.2","-9999.0","-9999.0","160","SSE","10.0","6.2","1008","29.77","2.6","36.7","-9999","-9999","-9999.00","-9999.00","Overcast","cloudy","0","0","0","0","0","0","METAR UKKK 060630Z 16005MPS 100V210 9999 OVC009 06/04 Q1008 R08/CLRD70 NOSIG"
"9:00 AM EET on November 06, 2016","2016","11","06","09","00","Europe/Kiev","7:00 AM GMT on November 06, 2016","2016","11","06","07","00","UTC","6.0","42.8","4.0","39.2","87","18.0","11.2","-9999.0","-9999.0","170","South","10.0","6.2","1008","29.77","2.6","36.7","-9999","-9999","-9999.00","-9999.00","Overcast","cloudy","0","0","0","0","0","0","METAR UKKK 060700Z 17005MPS 120V220 9999 OVC010 06/04 Q1008 R08/CLRD70 NOSIG"
"9:30 AM EET on November 06, 2016","2016","11","06","09","30","Europe/Kiev","7:30 AM GMT on November 06, 2016","2016","11","06","07","30","UTC","7.0","44.6","5.0","41.0","87","14.4","8.9","-9999.0","-9999.0","170","South","10.0","6.2","1007","29.74","4.3","39.8","-9999","-9999","-9999.00","-9999.00","Overcast","cloudy","0","0","0","0","0","0","METAR UKKK 060730Z 17004MPS 120V220 9999 OVC009 07/05 Q1007 R08/CLRD70 NOSIG"
"10:00 AM EET on November 06, 2016","2016","11","06","10","00","Europe/Kiev","8:00 AM GMT on November 06, 2016","2016","11","06","08","00","UTC","7.0","44.6","5.0","41.0","87","18.0","11.2","-9999.0","-9999.0","170","South","9.0","5.6","1007","29.74","3.8","38.9","-9999","-9999","-9999.00","-9999.00","Overcast","cloudy","0","0","0","0","0","0","METAR UKKK 060800Z 17005MPS 130V250 9000 OVC008 07/05 Q1007 R08/CLRD70 NOSIG"
"10:30 AM EET on November 06, 2016","2016","11","06","10","30","Europe/Kiev","8:30 AM GMT on November 06, 2016","2016","11","06","08","30","UTC","7.0","44.6","6.0","42.8","93","14.4","8.9","-9999.0","-9999.0","170","South","8.0","5.0","1007","29.74","4.3","39.8","-9999","-9999","-9999.00","-9999.00","Overcast","cloudy","0","0","0","0","0","0","METAR UKKK 060830Z 17004MPS 120V220 8000 OVC008 07/06 Q1007 R08/CLRD70 NOSIG"
"11:00 AM EET on November 06, 2016","2016","11","06","11","00","Europe/Kiev","9:00 AM GMT on November 06, 2016","2016","11","06","09","00","UTC","8","46","6","42","80","18.0","11.2","","","200","SSW","4","2","1007","29.75","-999","-999","-9999","-9999","","","Mist","hazy","0","0","0","0","0","0","AAXX 06091 33345 41396 82005 10075 20055 39872 40074 57021 71022 886// 333 88709 555 11006"
"11:00 AM EET on November 06, 2016","2016","11","06","11","00","Europe/Kiev","9:00 AM GMT on November 06, 2016","2016","11","06","09","00","UTC","8.0","46.4","6.0","42.8","87","14.4","8.9","-9999.0","-9999.0","170","South","8.0","5.0","1006","29.71","5.6","42.0","-9999","-9999","-9999.00","-9999.00","Overcast","cloudy","0","0","0","0","0","0","METAR UKKK 060900Z 17004MPS 130V210 8000 OVC008 08/06 Q1006 R08/CLRD70 NOSIG"
"11:30 AM EET on November 06, 2016","2016","11","06","11","30","Europe/Kiev","9:30 AM GMT on November 06, 2016","2016","11","06","09","30","UTC","8.0","46.4","6.0","42.8","87","18.0","11.2","-9999.0","-9999.0","170","South","7.0","4.3","1006","29.71","5.1","41.2","-9999","-9999","-9999.00","-9999.00","Overcast","cloudy","0","0","0","0","0","0","METAR UKKK 060930Z 17005MPS 090V220 7000 OVC007 08/06 Q1006 R08/CLRD70 NOSIG"
"12:00 PM EET on November 06, 2016","2016","11","06","12","00","Europe/Kiev","10:00 AM GMT on November 06, 2016","2016","11","06","10","00","UTC","8.0","46.4","7.0","44.6","93","10.8","6.7","-9999.0","-9999.0","160","SSE","8.0","5.0","1005","29.68","6.1","43.0","-9999","-9999","-9999.00","-9999.00","Overcast","cloudy","0","0","0","0","0","0","METAR UKKK 061000Z 16003MPS 120V210 8000 OVC008 08/07 Q1005 R08/CLRD70 NOSIG"
"12:30 PM EET on November 06, 2016","2016","11","06","12","30","Europe/Kiev","10:30 AM GMT on November 06, 2016","2016","11","06","10","30","UTC","9.0","48.2","7.0","44.6","87","14.4","8.9","-9999.0","-9999.0","170","South","9.0","5.6","1005","29.68","-999","-999","-9999","-9999","-9999.00","-9999.00","Light Rain","rain","0","1","0","0","0","0","METAR UKKK 061030Z 17004MPS 120V210 9000 -RA OVC010 09/07 Q1005 R08/190060 NOSIG"
"1:00 PM EET on November 06, 2016","2016","11","06","13","00","Europe/Kiev","11:00 AM GMT on November 06, 2016","2016","11","06","11","00","UTC","9.0","48.2","7.0","44.6","87","10.8","6.7","-9999.0","-9999.0","160","SSE","9.0","5.6","1004","29.65","-999","-999","-9999","-9999","-9999.00","-9999.00","Light Rain","rain","0","1","0","0","0","0","METAR UKKK 061100Z 16003MPS 120V220 9000 -RA BKN012 OVC020 09/07 Q1004 R08/190060 NOSIG"
"1:30 PM EET on November 06, 2016","2016","11","06","13","30","Europe/Kiev","11:30 AM GMT on November 06, 2016","2016","11","06","11","30","UTC","10.0","50.0","8.0","46.4","87","10.8","6.7","-9999.0","-9999.0","160","SSE","9.0","5.6","1004","29.65","-999","-999","-9999","-9999","-9999.00","-9999.00","Light Rain","rain","0","1","0","0","0","0","METAR UKKK 061130Z 16003MPS 130V220 9000 -RA BKN012 OVC020 10/08 Q1004 R08/290058 NOSIG"
"2:00 PM EET on November 06, 2016","2016","11","06","14","00","Europe/Kiev","12:00 PM GMT on November 06, 2016","2016","11","06","12","00","UTC","10","49","8","46","86","14.4","8.9","","","190","South","4","2","1004","29.66","-999","-999","-9999","-9999","","","Light Rain","rain","0","1","0","0","0","0","AAXX 06121 33345 /1496 81904 10095 20078 39842 40042 57030 72122 885// 555 11008 69901"
"2:00 PM EET on November 06, 2016","2016","11","06","14","00","Europe/Kiev","12:00 PM GMT on November 06, 2016","2016","11","06","12","00","UTC","10.0","50.0","8.0","46.4","87","14.4","8.9","-9999.0","-9999.0","180","South","10.0","6.2","1003","29.62","-999","-999","-9999","-9999","-9999.00","-9999.00","Overcast","cloudy","0","0","0","0","0","0","METAR UKKK 061200Z 18004MPS 130V220 9999 BKN014 OVC030 10/08 Q1003 R08/290058 NOSIG"
"2:30 PM EET on November 06, 2016","2016","11","06","14","30","Europe/Kiev","12:30 PM GMT on November 06, 2016","2016","11","06","12","30","UTC","10.0","50.0","8.0","46.4","87","14.4","8.9","-9999.0","-9999.0","180","South","9.0","5.6","1003","29.62","-999","-999","-9999","-9999","-9999.00","-9999.00","Light Rain","rain","0","1","0","0","0","0","METAR UKKK 061230Z 18004MPS 120V230 9000 -RA BKN016 OVC033 10/08 Q1003 R08/290058 NOSIG"
"3:00 PM EET on November 06, 2016","2016","11","06","15","00","Europe/Kiev","1:00 PM GMT on November 06, 2016","2016","11","06","13","00","UTC","10.0","50.0","8.0","46.4","87","10.8","6.7","-9999.0","-9999.0","180","South","10.0","6.2","1003","29.62","-999","-999","-9999","-9999","-9999.00","-9999.00","Light Rain","rain","0","1","0","0","0","0","METAR UKKK 061300Z 18003MPS 140V240 9999 -RA BKN014 OVC033 10/08 Q1003 R08/290058 NOSIG"
"3:30 PM EET on November 06, 2016","2016","11","06","15","30","Europe/Kiev","1:30 PM GMT on November 06, 2016","2016","11","06","13","30","UTC","11.0","51.8","8.0","46.4","82","10.8","6.7","-9999.0","-9999.0","180","South","10.0","6.2","1003","29.62","-999","-999","-9999","-9999","-9999.00","-9999.00","Light Rain","rain","0","1","0","0","0","0","METAR UKKK 061330Z 18003MPS 140V220 9999 -RA BKN015 OVC033 11/08 Q1003 R08/290058 NOSIG"
"4:00 PM EET on November 06, 2016","2016","11","06","16","00","Europe/Kiev","2:00 PM GMT on November 06, 2016","2016","11","06","14","00","UTC","11.0","51.8","8.0","46.4","82","14.4","8.9","-9999.0","-9999.0","180","South","10.0","6.2","1002","29.59","-999","-999","-9999","-9999","-9999.00","-9999.00","Overcast","cloudy","0","0","0","0","0","0","METAR UKKK 061400Z 18004MPS 150V220 9999 SCT015 OVC046 11/08 Q1002 R08/290058 NOSIG"
"4:30 PM EET on November 06, 2016","2016","11","06","16","30","Europe/Kiev","2:30 PM GMT on November 06, 2016","2016","11","06","14","30","UTC","11.0","51.8","8.0","46.4","82","10.8","6.7","-9999.0","-9999.0","180","South","10.0","6.2","1002","29.59","-999","-999","-9999","-9999","-9999.00","-9999.00","Overcast","cloudy","0","0","0","0","0","0","METAR UKKK 061430Z 18003MPS 130V280 9999 SCT016 OVC050 11/08 Q1002 R08/290257 NOSIG"
"5:00 PM EET on November 06, 2016","2016","11","06","17","00","Europe/Kiev","3:00 PM GMT on November 06, 2016","2016","11","06","15","00","UTC","11","52","8","47","79","14.4","8.9","","","210","SSW","10","6","1003","29.61","-999","-999","-9999","-9999","","","Partly Cloudy","partlycloudy","0","0","0","0","0","0","AAXX 06151 33345 41697 82104 10111 20085 39827 40026 56015 70262 8657/ 333 86646 555 11008"
"5:00 PM EET on November 06, 2016","2016","11","06","17","00","Europe/Kiev","3:00 PM GMT on November 06, 2016","2016","11","06","15","00","UTC","11.0","51.8","9.0","48.2","88","10.8","6.7","-9999.0","-9999.0","190","South","9.0","5.6","1002","29.59","-999","-999","-9999","-9999","-9999.00","-9999.00","Light Rain","rain","0","1","0","0","0","0","METAR UKKK 061500Z 19003MPS 160V240 9000 -RA OVC036 11/09 Q1002 R08/290257 NOSIG"
"5:30 PM EET on November 06, 2016","2016","11","06","17","30","Europe/Kiev","3:30 PM GMT on November 06, 2016","2016","11","06","15","30","UTC","11.0","51.8","9.0","48.2","88","14.4","8.9","-9999.0","-9999.0","190","South","10.0","6.2","1002","29.59","-999","-999","-9999","-9999","-9999.00","-9999.00","Overcast","cloudy","0","0","0","0","0","0","METAR UKKK 061530Z 19004MPS 130V230 9999 OVC043 11/09 Q1002 R08/290257 NOSIG"
"6:00 PM EET on November 06, 2016","2016","11","06","18","00","Europe/Kiev","4:00 PM GMT on November 06, 2016","2016","11","06","16","00","UTC","12.0","53.6","9.0","48.2","82","14.4","8.9","-9999.0","-9999.0","190","South","-9999.0","-9999.0","1002","29.59","-999","-999","-9999","-9999","-9999.00","-9999.00","Clear","clear","0","0","0","0","0","0","METAR UKKK 061600Z 19004MPS 140V230 CAVOK 12/09 Q1002 R08/290257 NOSIG"
"6:30 PM EET on November 06, 2016","2016","11","06","18","30","Europe/Kiev","4:30 PM GMT on November 06, 2016","2016","11","06","16","30","UTC","12.0","53.6","8.0","46.4","77","18.0","11.2","-9999.0","-9999.0","200","SSW","-9999.0","-9999.0","1002","29.59","-999","-999","-9999","-9999","-9999.00","-9999.00","Clear","clear","0","0","0","0","0","0","METAR UKKK 061630Z 20005MPS 180V240 CAVOK 12/08 Q1002 R26/290257 NOSIG"
"7:00 PM EET on November 06, 2016","2016","11","06","19","00","Europe/Kiev","5:00 PM GMT on November 06, 2016","2016","11","06","17","00","UTC","11.0","51.8","9.0","48.2","88","18.0","11.2","-9999.0","-9999.0","200","SSW","10.0","6.2","1001","29.56","-999","-999","-9999","-9999","-9999.00","-9999.00","Light Rain","rain","0","1","0","0","0","0","METAR UKKK 061700Z 20005MPS 9999 -RA OVC049 11/09 Q1001 R26/290257 NOSIG"
"7:30 PM EET on November 06, 2016","2016","11","06","19","30","Europe/Kiev","5:30 PM GMT on November 06, 2016","2016","11","06","17","30","UTC","11.0","51.8","9.0","48.2","88","14.4","8.9","-9999.0","-9999.0","200","SSW","-9999.0","-9999.0","1001","29.56","-999","-999","-9999","-9999","-9999.00","-9999.00","Clear","clear","0","0","0","0","0","0","METAR UKKK 061730Z 20004MPS CAVOK 11/09 Q1001 R26/290257 NOSIG"
"8:00 PM EET on November 06, 2016","2016","11","06","20","00","Europe/Kiev","6:00 PM GMT on November 06, 2016","2016","11","06","18","00","UTC","11","53","9","48","77","14.4","8.9","","","210","SSW","10","6","1002","29.58","-999","-999","-9999","-9999","","","Light Rain","rain","0","1","0","0","0","0","AAXX 06181 33345 11797 82104 10114 20088 39817 40015 57010 69932 72162 8657/ 333 10119 555 11008"
"8:00 PM EET on November 06, 2016","2016","11","06","20","00","Europe/Kiev","6:00 PM GMT on November 06, 2016","2016","11","06","18","00","UTC","11.0","51.8","9.0","48.2","88","14.4","8.9","-9999.0","-9999.0","190","South","-9999.0","-9999.0","1001","29.56","-999","-999","-9999","-9999","-9999.00","-9999.00","Clear","clear","0","0","0","0","0","0","METAR UKKK 061800Z 19004MPS 170V240 CAVOK 11/09 Q1001 R26/290257 NOSIG"
"8:30 PM EET on November 06, 2016","2016","11","06","20","30","Europe/Kiev","6:30 PM GMT on November 06, 2016","2016","11","06","18","30","UTC","12.0","53.6","9.0","48.2","82","18.0","11.2","-9999.0","-9999.0","210","SSW","10.0","6.2","1001","29.56","-999","-999","-9999","-9999","-9999.00","-9999.00","Light Rain","rain","0","1","0","0","0","0","METAR UKKK 061830Z 21005MPS 9999 -RA OVC048 12/09 Q1001 R26/290257 NOSIG"
"9:00 PM EET on November 06, 2016","2016","11","06","21","00","Europe/Kiev","7:00 PM GMT on November 06, 2016","2016","11","06","19","00","UTC","11.0","51.8","9.0","48.2","88","14.4","8.9","-9999.0","-9999.0","210","SSW","9.0","5.6","1001","29.56","-999","-999","-9999","-9999","-9999.00","-9999.00","Light Rain","rain","0","1","0","0","0","0","METAR UKKK 061900Z 21004MPS 9000 -RA OVC048 11/09 Q1001 R26/290257 NOSIG"
"9:30 PM EET on November 06, 2016","2016","11","06","21","30","Europe/Kiev","7:30 PM GMT on November 06, 2016","2016","11","06","19","30","UTC","11.0","51.8","9.0","48.2","88","14.4","8.9","-9999.0","-9999.0","210","SSW","9.0","5.6","1001","29.56","-999","-999","-9999","-9999","-9999.00","-9999.00","Light Rain","rain","0","1","0","0","0","0","METAR UKKK 061930Z 21004MPS 180V240 9000 -RA OVC045 11/09 Q1001 R26/290355 NOSIG"
"10:00 PM EET on November 06, 2016","2016","11","06","22","00","Europe/Kiev","8:00 PM GMT on November 06, 2016","2016","11","06","20","00","UTC","11.0","51.8","9.0","48.2","88","10.8","6.7","-9999.0","-9999.0","210","SSW","-9999.0","-9999.0","1001","29.56","-999","-999","-9999","-9999","-9999.00","-9999.00","Clear","clear","0","0","0","0","0","0","METAR UKKK 062000Z 21003MPS 170V240 CAVOK 11/09 Q1001 R26/290355 NOSIG"
"10:30 PM EET on November 06, 2016","2016","11","06","22","30","Europe/Kiev","8:30 PM GMT on November 06, 2016","2016","11","06","20","30","UTC","11.0","51.8","9.0","48.2","88","10.8","6.7","-9999.0","-9999.0","210","SSW","10.0","6.2","1001","29.56","-999","-999","-9999","-9999","-9999.00","-9999.00","Light Rain Showers","rain","0","1","0","0","0","0","METAR UKKK 062030Z 21003MPS 9999 -SHRA SCT030CB BKN052 11/09 Q1001 R26/290355 NOSIG"
"11:00 PM EET on November 06, 2016","2016","11","06","23","00","Europe/Kiev","9:00 PM GMT on November 06, 2016","2016","11","06","21","00","UTC","11","52","9","48","81","10.8","6.7","","","220","SW","10","6","1001","29.57","-999","-999","-9999","-9999","","","Light Rain","rain","0","1","0","0","0","0","AAXX 06211 33345 41497 82203 10112 20088 39816 40014 56001 76162 8472/ 555 11008"
"11:00 PM EET on November 06, 2016","2016","11","06","23","00","Europe/Kiev","9:00 PM GMT on November 06, 2016","2016","11","06","21","00","UTC","11.0","51.8","9.0","48.2","88","10.8","6.7","-9999.0","-9999.0","210","SSW","10.0","6.2","1001","29.56","-999","-999","-9999","-9999","-9999.00","-9999.00","Light Rain Showers","rain","0","1","0","0","0","0","METAR UKKK 062100Z 21003MPS 170V240 9999 -SHRA SCT030CB BKN051 11/09 Q1001 R26/290355 NOSIG"
"11:30 PM EET on November 06, 2016","2016","11","06","23","30","Europe/Kiev","9:30 PM GMT on November 06, 2016","2016","11","06","21","30","UTC","11.0","51.8","9.0","48.2","88","14.4","8.9","-9999.0","-9999.0","220","SW","10.0","6.2","1001","29.56","-999","-999","-9999","-9999","-9999.00","-9999.00","Light Rain Showers","rain","0","1","0","0","0","0","METAR UKKK 062130Z 22004MPS 190V260 9999 -SHRA SCT030CB BKN056 11/09 Q1001 R26/290355 NOSIG"
"12:00 AM EET on November 07, 2016","2016","11","07","00","00","Europe/Kiev","10:00 PM GMT on November 06, 2016","2016","11","06","22","00","UTC","11.0","51.8","9.0","48.2","88","10.8","6.7","-9999.0","-9999.0","210","SSW","9.0","5.6","1001","29.56","-999","-999","-9999","-9999","-9999.00","-9999.00","Light Rain Showers","rain","0","1","0","0","0","0","METAR UKKK 062200Z 21003MPS 180V250 9000 -SHRA SCT029CB BKN055 11/09 Q1001 R26/290355 NOSIG"
"12:30 AM EET on November 07, 2016","2016","11","07","00","30","Europe/Kiev","10:30 PM GMT on November 06, 2016","2016","11","06","22","30","UTC","11.0","51.8","9.0","48.2","88","10.8","6.7","-9999.0","-9999.0","210","SSW","9.0","5.6","1001","29.56","-999","-999","-9999","-9999","-9999.00","-9999.00","Light Rain Showers","rain","0","1","0","0","0","0","METAR UKKK 062230Z 21003MPS 180V240 9000 -SHRA SCT029CB BKN058 11/09 Q1001 R26/290355 NOSIG"
"1:00 AM EET on November 07, 2016","2016","11","07","01","00","Europe/Kiev","11:00 PM GMT on November 06, 2016","2016","11","06","23","00","UTC","10.0","50.0","9.0","48.2","94","10.8","6.7","-9999.0","-9999.0","210","SSW","8.0","5.0","1000","29.53","-999","-999","-9999","-9999","-9999.00","-9999.00","Light Rain Showers","rain","0","1","0","0","0","0","METAR UKKK 062300Z 21003MPS 180V240 8000 -SHRA SCT030CB BKN063 10/09 Q1000 R26/290355 NOSIG"
"1:30 AM EET on November 07, 2016","2016","11","07","01","30","Europe/Kiev","11:30 PM GMT on November 06, 2016","2016","11","06","23","30","UTC","10.0","50.0","9.0","48.2","94","10.8","6.7","-9999.0","-9999.0","200","SSW","9.0","5.6","1000","29.53","-999","-999","-9999","-9999","-9999.00","-9999.00","Unknown","unknown","0","0","0","0","0","0","METAR UKKK 062330Z 20003MPS 160V230 9000 NSC 10/09 Q1000 R26/290355 NOSIG"
"2:00 AM EET on November 07, 2016","2016","11","07","02","00","Europe/Kiev","12:00 AM GMT on November 07, 2016","2016","11","07","00","00","UTC","10","51","9","49","88","7.2","4.5","","","210","SSW","4","2","1001","29.56","-999","-999","-9999","-9999","","","Light Rain","rain","0","1","0","0","0","0","AAXX 07001 33345 /1996 72102 10104 20092 39811 40010 57005 72162 87070 555 11008 69941"
"2:00 AM EET on November 07, 2016","2016","11","07","02","00","Europe/Kiev","12:00 AM GMT on November 07, 2016","2016","11","07","00","00","UTC","10.0","50.0","9.0","48.2","94","10.8","6.7","-9999.0","-9999.0","200","SSW","9.0","5.6","1000","29.53","-999","-999","-9999","-9999","-9999.00","-9999.00","Unknown","unknown","0","0","0","0","0","0","METAR UKKK 070000Z 20003MPS 170V240 9000 NSC 10/09 Q1000 R26/290355 NOSIG"
"2:30 AM EET on November 07, 2016","2016","11","07","02","30","Europe/Kiev","12:30 AM GMT on November 07, 2016","2016","11","07","00","30","UTC","10.0","50.0","9.0","48.2","94","10.8","6.7","-9999.0","-9999.0","200","SSW","9.0","5.6","1000","29.53","-999","-999","-9999","-9999","-9999.00","-9999.00","Unknown","unknown","0","0","0","0","0","0","METAR UKKK 070030Z 20003MPS 160V230 9000 NSC 10/09 Q1000 R26/290355 NOSIG"
"3:00 AM EET on November 07, 2016","2016","11","07","03","00","Europe/Kiev","1:00 AM GMT on November 07, 2016","2016","11","07","01","00","UTC","10.0","50.0","9.0","48.2","94","7.2","4.5","-9999.0","-9999.0","190","South","9.0","5.6","1000","29.53","-999","-999","-9999","-9999","-9999.00","-9999.00","Unknown","unknown","0","0","0","0","0","0","METAR UKKK 070100Z 19002MPS 160V230 9000 NSC 10/09 Q1000 R26/290355 NOSIG"
"3:30 AM EET on November 07, 2016","2016","11","07","03","30","Europe/Kiev","1:30 AM GMT on November 07, 2016","2016","11","07","01","30","UTC","10.0","50.0","9.0","48.2","94","7.2","4.5","-9999.0","-9999.0","190","South","9.0","5.6","1000","29.53","-999","-999","-9999","-9999","-9999.00","-9999.00","Unknown","unknown","0","0","0","0","0","0","METAR UKKK 070130Z 19002MPS 150V220 9000 NSC 10/09 Q1000 R26/290355 NOSIG"
"4:00 AM EET on November 07, 2016","2016","11","07","04","00","Europe/Kiev","2:00 AM GMT on November 07, 2016","2016","11","07","02","00","UTC","10.0","50.0","9.0","48.2","94","10.8","6.7","-9999.0","-9999.0","190","South","9.0","5.6","1000","29.53","-999","-999","-9999","-9999","-9999.00","-9999.00","Unknown","unknown","0","0","0","0","0","0","METAR UKKK 070200Z 19003MPS 150V230 9000 NSC 10/09 Q1000 R26/290355 NOSIG"
"4:30 AM EET on November 07, 2016","2016","11","07","04","30","Europe/Kiev","2:30 AM GMT on November 07, 2016","2016","11","07","02","30","UTC","10.0","50.0","9.0","48.2","94","7.2","4.5","-9999.0","-9999.0","180","South","9.0","5.6","1000","29.53","-999","-999","-9999","-9999","-9999.00","-9999.00","Unknown","unknown","0","0","0","0","0","0","METAR UKKK 070230Z 18002MPS 150V230 9000 NSC 10/09 Q1000 R26/290355 NOSIG"
"5:00 AM EET on November 07, 2016","2016","11","07","05","00","Europe/Kiev","3:00 AM GMT on November 07, 2016","2016","11","07","03","00","UTC","10","50","8","47","86","10.8","6.7","","","190","South","4","2","1000","29.54","-999","-999","-9999","-9999","","","Mist","hazy","0","0","0","0","0","0","AAXX 07031 33345 41996 31903 10098 20084 39803 40002 57008 71011 83040 555 11007"
"5:00 AM EET on November 07, 2016","2016","11","07","05","00","Europe/Kiev","3:00 AM GMT on November 07, 2016","2016","11","07","03","00","UTC","10.0","50.0","8.0","46.4","87","10.8","6.7","-9999.0","-9999.0","180","South","9.0","5.6","1000","29.53","-999","-999","-9999","-9999","-9999.00","-9999.00","Unknown","unknown","0","0","0","0","0","0","METAR UKKK 070300Z 18003MPS 130V210 9000 NSC 10/08 Q1000 R26/290355 NOSIG"
"5:30 AM EET on November 07, 2016","2016","11","07","05","30","Europe/Kiev","3:30 AM GMT on November 07, 2016","2016","11","07","03","30","UTC","9.0","48.2","8.0","46.4","93","10.8","6.7","-9999.0","-9999.0","160","SSE","8.0","5.0","999","29.50","-999","-999","-9999","-9999","-9999.00","-9999.00","Unknown","unknown","0","0","0","0","0","0","METAR UKKK 070330Z 16003MPS 130V190 8000 NSC 09/08 Q0999 R26/290355 NOSIG"
"6:00 AM EET on November 07, 2016","2016","11","07","06","00","Europe/Kiev","4:00 AM GMT on November 07, 2016","2016","11","07","04","00","UTC","9.0","48.2","8.0","46.4","93","10.8","6.7","-9999.0","-9999.0","170","South","7.0","4.3","999","29.50","-999","-999","-9999","-9999","-9999.00","-9999.00","Unknown","unknown","0","0","0","0","0","0","METAR UKKK 070400Z 17003MPS 130V220 7000 NSC 09/08 Q0999 R26/290355 NOSIG"
"6:30 AM EET on November 07, 2016","2016","11","07","06","30","Europe/Kiev","4:30 AM GMT on November 07, 2016","2016","11","07","04","30","UTC","9.0","48.2","8.0","46.4","93","7.2","4.5","-9999.0","-9999.0","170","South","7.0","4.3","999","29.50","-999","-999","-9999","-9999","-9999.00","-9999.00","Unknown","unknown","0","0","0","0","0","0","METAR UKKK 070430Z 17002MPS 130V200 7000 NSC 09/08 Q0999 R26/290355 NOSIG"
"7:00 AM EET on November 07, 2016","2016","11","07","07","00","Europe/Kiev","5:00 AM GMT on November 07, 2016","2016","11","07","05","00","UTC","9.0","48.2","8.0","46.4","93","10.8","6.7","-9999.0","-9999.0","160","SSE","5.0","3.1","999","29.50","-999","-999","-9999","-9999","-9999.00","-9999.00","Mist","hazy","0","0","0","0","0","0","METAR UKKK 070500Z 16003MPS 130V200 5000 BR NSC 09/08 Q0999 R26/290355 NOSIG"
"7:30 AM EET on November 07, 2016","2016","11","07","07","30","Europe/Kiev","5:30 AM GMT on November 07, 2016","2016","11","07","05","30","UTC","9.0","48.2","8.0","46.4","93","10.8","6.7","-9999.0","-9999.0","160","SSE","5.0","3.1","999","29.50","-999","-999","-9999","-9999","-9999.00","-9999.00","Mostly Cloudy","mostlycloudy","0","0","0","0","0","0","METAR UKKK 070530Z 16003MPS 130V190 5000 BR FEW008 BKN120 09/08 Q0999 R26/290355 NOSIG"
"8:00 AM EET on November 07, 2016","2016","11","07","08","00","Europe/Kiev","6:00 AM GMT on November 07, 2016","2016","11","07","06","00","UTC","8","47","8","46","94","7.2","4.5","","","180","South","4","2","999","29.52","-999","-999","-9999","-9999","","","Mist","hazy","0","0","0","0","0","0","AAXX 07061 33345 11596 71802 10083 20077 39794 49994 57009 69942 71011 84572 333 20079 555 11006"
"8:00 AM EET on November 07, 2016","2016","11","07","08","00","Europe/Kiev","6:00 AM GMT on November 07, 2016","2016","11","07","06","00","UTC","9.0","48.2","8.0","46.4","93","10.8","6.7","-9999.0","-9999.0","160","SSE","6.0","3.7","998","29.47","-999","-999","-9999","-9999","-9999.00","-9999.00","Mostly Cloudy","mostlycloudy","0","0","0","0","0","0","METAR UKKK 070600Z 16003MPS 130V190 6000 FEW007 BKN120 09/08 Q0998 R26/290355 NOSIG"
"8:30 AM EET on November 07, 2016","2016","11","07","08","30","Europe/Kiev","6:30 AM GMT on November 07, 2016","2016","11","07","06","30","UTC","10.0","50.0","8.0","46.4","87","10.8","6.7","-9999.0","-9999.0","160","SSE","7.0","4.3","998","29.47","-999","-999","-9999","-9999","-9999.00","-9999.00","Unknown","unknown","0","0","0","0","0","0","METAR UKKK 070630Z 16003MPS 130V190 7000 NSC 10/08 Q0998 R26/290355 NOSIG"
"9:00 AM EET on November 07, 2016","2016","11","07","09","00","Europe/Kiev","7:00 AM GMT on November 07, 2016","2016","11","07","07","00","UTC","10.0","50.0","9.0","48.2","94","10.8","6.7","-9999.0","-9999.0","160","SSE","8.0","5.0","998","29.47","-999","-999","-9999","-9999","-9999.00","-9999.00","Unknown","unknown","0","0","0","0","0","0","METAR UKKK 070700Z 16003MPS 130V190 8000 NSC 10/09 Q0998 R26/290355 NOSIG"
"9:30 AM EET on November 07, 2016","2016","11","07","09","30","Europe/Kiev","7:30 AM GMT on November 07, 2016","2016","11","07","07","30","UTC","11.0","51.8","9.0","48.2","88","14.4","8.9","-9999.0","-9999.0","160","SSE","9.0","5.6","997","29.44","-999","-999","-9999","-9999","-9999.00","-9999.00","Unknown","unknown","0","0","0","0","0","0","METAR UKKK 070730Z 16004MPS 100V200 9000 NSC 11/09 Q0997 R08/290058 NOSIG"
"10:00 AM EET on November 07, 2016","2016","11","07","10","00","Europe/Kiev","8:00 AM GMT on November 07, 2016","2016","11","07","08","00","UTC","11.0","51.8","9.0","48.2","88","14.4","8.9","-9999.0","-9999.0","170","South","-9999.0","-9999.0","997","29.44","-999","-999","-9999","-9999","-9999.00","-9999.00","Clear","clear","0","0","0","0","0","0","METAR UKKK 070800Z 17004MPS 130V220 CAVOK 11/09 Q0997 R08/290058 NOSIG"
"10:30 AM EET on November 07, 2016","2016","11","07","10","30","Europe/Kiev","8:30 AM GMT on November 07, 2016","2016","11","07","08","30","UTC","11.0","51.8","9.0","48.2","88","14.4","8.9","-9999.0","-9999.0","180","South","-9999.0","-9999.0","998","29.47","-999","-999","-9999","-9999","-9999.00","-9999.00","Clear","clear","0","0","0","0","0","0","METAR UKKK 070830Z 18004MPS 100V230 CAVOK 11/09 Q0998 R08/290058 NOSIG"
"11:00 AM EET on November 07, 2016","2016","11","07","11","00","Europe/Kiev","9:00 AM GMT on November 07, 2016","2016","11","07","09","00","UTC","11","52","9","49","85","14.4","8.9","","","210","SSW","4","2","998","29.48","-999","-999","-9999","-9999","","","Light Rain","rain","0","1","0","0","0","0","AAXX 07091 33345 41996 82104 10111 20093 39783 49981 57011 76164 8802/ 555 11010"
"11:00 AM EET on November 07, 2016","2016","11","07","11","00","Europe/Kiev","9:00 AM GMT on November 07, 2016","2016","11","07","09","00","UTC","11.0","51.8","9.0","48.2","88","10.8","6.7","-9999.0","-9999.0","170","South","9.0","5.6","997","29.44","-999","-999","-9999","-9999","-9999.00","-9999.00","Light Rain Showers","rain","0","1","0","0","0","0","METAR UKKK 070900Z 17003MPS 110V250 9000 -SHRA SCT023CB OVC090 11/09 Q0997 R08/290058 NOSIG"
"11:30 AM EET on November 07, 2016","2016","11","07","11","30","Europe/Kiev","9:30 AM GMT on November 07, 2016","2016","11","07","09","30","UTC","11.0","51.8","9.0","48.2","88","10.8","6.7","-9999.0","-9999.0","180","South","9.0","5.6","997","29.44","-999","-999","-9999","-9999","-9999.00","-9999.00","Light Rain Showers","rain","0","1","0","0","0","0","METAR UKKK 070930Z 18003MPS 140V240 9000 -SHRA SCT023CB OVC076 11/09 Q0997 R08/290058 NOSIG"
"12:00 PM EET on November 07, 2016","2016","11","07","12","00","Europe/Kiev","10:00 AM GMT on November 07, 2016","2016","11","07","10","00","UTC","11.0","51.8","10.0","50.0","94","14.4","8.9","-9999.0","-9999.0","220","SW","9.0","5.6","998","29.47","-999","-999","-9999","-9999","-9999.00","-9999.00","Overcast","cloudy","0","0","0","0","0","0","METAR UKKK 071000Z 22004MPS 180V260 9000 FEW030CB OVC076 11/10 Q0998 R26/290058 NOSIG"
"12:30 PM EET on November 07, 2016","2016","11","07","12","30","Europe/Kiev","10:30 AM GMT on November 07, 2016","2016","11","07","10","30","UTC","13.0","55.4","9.0","48.2","77","14.4","8.9","-9999.0","-9999.0","210","SSW","-9999.0","-9999.0","997","29.44","-999","-999","-9999","-9999","-9999.00","-9999.00","Clear","clear","0","0","0","0","0","0","METAR UKKK 071030Z 21004MPS 180V260 CAVOK 13/09 Q0997 R26/290058 NOSIG"
"1:00 PM EET on November 07, 2016","2016","11","07","13","00","Europe/Kiev","11:00 AM GMT on November 07, 2016","2016","11","07","11","00","UTC","13.0","55.4","9.0","48.2","77","10.8","6.7","-9999.0","-9999.0","210","SSW","10.0","6.2","997","29.44","-999","-999","-9999","-9999","-9999.00","-9999.00","Light Rain Showers","rain","0","1","0","0","0","0","METAR UKKK 071100Z 21003MPS 180V240 9999 -SHRA SCT030CB BKN092 13/09 Q0997 R26/290058 NOSIG"
"1:30 PM EET on November 07, 2016","2016","11","07","13","30","Europe/Kiev","11:30 AM GMT on November 07, 2016","2016","11","07","11","30","UTC","13.0","55.4","10.0","50.0","82","10.8","6.7","-9999.0","-9999.0","200","SSW","10.0","6.2","997","29.44","-999","-999","-9999","-9999","-9999.00","-9999.00","Light Rain Showers","rain","0","1","0","0","0","0","METAR UKKK 071130Z 20003MPS 170V240 9999 -SHRA SCT030CB BKN092 13/10 Q0997 R26/290058 NOSIG"
"2:00 PM EET on November 07, 2016","2016","11","07","14","00","Europe/Kiev","12:00 PM GMT on November 07, 2016","2016","11","07","12","00","UTC","13","55","10","50","77","10.8","6.7","","","200","SSW","10","6","998","29.46","-999","-999","-9999","-9999","","","Light Rain","rain","0","1","0","0","0","0","AAXX 07121 33345 /1597 82003 10128 20099 39779 49975 57004 72164 8357/ 555 11012 69941"
"2:00 PM EET on November 07, 2016","2016","11","07","14","00","Europe/Kiev","12:00 PM GMT on November 07, 2016","2016","11","07","12","00","UTC","13.0","55.4","10.0","50.0","82","10.8","6.7","-9999.0","-9999.0","190","South","-9999.0","-9999.0","997","29.44","-999","-999","-9999","-9999","-9999.00","-9999.00","Clear","clear","0","0","0","0","0","0","METAR UKKK 071200Z 19003MPS 150V230 CAVOK 13/10 Q0997 R26/290058 NOSIG"
"2:30 PM EET on November 07, 2016","2016","11","07","14","30","Europe/Kiev","12:30 PM GMT on November 07, 2016","2016","11","07","12","30","UTC","13.0","55.4","10.0","50.0","82","7.2","4.5","-9999.0","-9999.0","230","SW","10.0","6.2","998","29.47","-999","-999","-9999","-9999","-9999.00","-9999.00","Light Rain","rain","0","1","0","0","0","0","METAR UKKK 071230Z 23002MPS 190V260 9999 -RA OVC043 13/10 Q0998 R26/290058 NOSIG"
"3:00 PM EET on November 07, 2016","2016","11","07","15","00","Europe/Kiev","1:00 PM GMT on November 07, 2016","2016","11","07","13","00","UTC","13.0","55.4","10.0","50.0","82","7.2","4.5","-9999.0","-9999.0","200","SSW","-9999.0","-9999.0","998","29.47","-999","-999","-9999","-9999","-9999.00","-9999.00","Clear","clear","0","0","0","0","0","0","METAR UKKK 071300Z 20002MPS 170V230 CAVOK 13/10 Q0998 R26/290058 NOSIG"
"3:30 PM EET on November 07, 2016","2016","11","07","15","30","Europe/Kiev","1:30 PM GMT on November 07, 2016","2016","11","07","13","30","UTC","14.0","57.2","10.0","50.0","77","14.4","8.9","-9999.0","-9999.0","230","SW","-9999.0","-9999.0","998","29.47","-999","-999","-9999","-9999","-9999.00","-9999.00","Clear","clear","0","0","0","0","0","0","METAR UKKK 071330Z 23004MPS CAVOK 14/10 Q0998 R26/290058 NOSIG"
"4:00 PM EET on November 07, 2016","2016","11","07","16","00","Europe/Kiev","2:00 PM GMT on November 07, 2016","2016","11","07","14","00","UTC","14.0","57.2","10.0","50.0","77","14.4","8.9","-9999.0","-9999.0","230","SW","10.0","6.2","999","29.50","-999","-999","-9999","-9999","-9999.00","-9999.00","Mostly Cloudy","mostlycloudy","0","0","0","0","0","0","METAR UKKK 071400Z 23004MPS 9999 SCT025 BKN076 14/10 Q0999 R26/290058 NOSIG"
"4:30 PM EET on November 07, 2016","2016","11","07","16","30","Europe/Kiev","2:30 PM GMT on November 07, 2016","2016","11","07","14","30","UTC","14.0","57.2","10.0","50.0","77","14.4","8.9","-9999.0","-9999.0","250","WSW","10.0","6.2","999","29.50","-999","-999","-9999","-9999","-9999.00","-9999.00","Mostly Cloudy","mostlycloudy","0","0","0","0","0","0","METAR UKKK 071430Z 25004MPS 9999 FEW019 BKN036 14/10 Q0999 R26/290058 NOSIG"
"5:00 PM EET on November 07, 2016","2016","11","07","17","00","Europe/Kiev","3:00 PM GMT on November 07, 2016","2016","11","07","15","00","UTC","13","56","10","49","72","10.8","6.7","","","280","West","10","6","999","29.51","-999","-999","-9999","-9999","","","Partly Cloudy","partlycloudy","0","0","0","0","0","0","AAXX 07151 33345 42697 72803 10134 20097 39797 49993 53018 83570 555 11010"
"5:00 PM EET on November 07, 2016","2016","11","07","17","00","Europe/Kiev","3:00 PM GMT on November 07, 2016","2016","11","07","15","00","UTC","13.0","55.4","10.0","50.0","82","14.4","8.9","-9999.0","-9999.0","250","WSW","10.0","6.2","999","29.50","-999","-999","-9999","-9999","-9999.00","-9999.00","Mostly Cloudy","mostlycloudy","0","0","0","0","0","0","METAR UKKK 071500Z 25004MPS 9999 BKN026 13/10 Q0999 R26/290058 NOSIG"
"5:30 PM EET on November 07, 2016","2016","11","07","17","30","Europe/Kiev","3:30 PM GMT on November 07, 2016","2016","11","07","15","30","UTC","13.0","55.4","10.0","50.0","82","18.0","11.2","-9999.0","-9999.0","260","West","10.0","6.2","1000","29.53","-999","-999","-9999","-9999","-9999.00","-9999.00","Mostly Cloudy","mostlycloudy","0","0","0","0","0","0","METAR UKKK 071530Z 26005MPS 9999 SCT021 BKN200 13/10 Q1000 R26/290058 NOSIG"
"5:47 PM EET on November 07, 2016","2016","11","07","17","47","Europe/Kiev","3:47 PM GMT on November 07, 2016","2016","11","07","15","47","UTC","12.0","53.6","9.0","48.2","82","28.8","17.9","50.4","31.3","270","West","10.0","6.2","1000","29.53","-999","-999","-9999","-9999","-9999.00","-9999.00","Mostly Cloudy","mostlycloudy","0","0","0","0","0","0","SPECI UKKK 071547Z 27008G14MPS 9999 SCT017 BKN200 12/09 Q1000 R26/290058 NOSIG"
"6:00 PM EET on November 07, 2016","2016","11","07","18","00","Europe/Kiev","4:00 PM GMT on November 07, 2016","2016","11","07","16","00","UTC","11.0","51.8","8.0","46.4","82","36.0","22.4","-9999.0","-9999.0","280","West","10.0","6.2","1001","29.56","-999","-999","-9999","-9999","-9999.00","-9999.00","Mostly Cloudy","mostlycloudy","0","0","0","0","0","0","METAR UKKK 071600Z 28010MPS 9999 BKN015 11/08 Q1001 R26/290058 NOSIG"
"6:05 PM EET on November 07, 2016","2016","11","07","18","05","Europe/Kiev","4:05 PM GMT on November 07, 2016","2016","11","07","16","05","UTC","10.0","50.0","8.0","46.4","87","39.6","24.6","61.2","38.0","280","West","10.0","6.2","1001","29.56","-999","-999","-9999","-9999","-9999.00","-9999.00","Mostly Cloudy","mostlycloudy","0","0","0","0","0","0","SPECI UKKK 071605Z 28011G17MPS 9999 BKN014 10/08 Q1001 R26/290058 TEMPO 27010G17MPS"
"6:30 PM EET on November 07, 2016","2016","11","07","18","30","Europe/Kiev","4:30 PM GMT on November 07, 2016","2016","11","07","16","30","UTC","9.0","48.2","7.0","44.6","87","32.4","20.1","-9999.0","-9999.0","280","West","10.0","6.2","1002","29.59","-999","-999","-9999","-9999","-9999.00","-9999.00","Mostly Cloudy","mostlycloudy","0","0","0","0","0","0","METAR UKKK 071630Z 28009MPS 9999 BKN014 09/07 Q1002 R26/290058 TEMPO 27010G17MPS"
"7:00 PM EET on November 07, 2016","2016","11","07","19","00","Europe/Kiev","5:00 PM GMT on November 07, 2016","2016","11","07","17","00","UTC","8.0","46.4","6.0","42.8","87","32.4","20.1","-9999.0","-9999.0","270","West","10.0","6.2","1002","29.59","3.8","38.9","-9999","-9999","-9999.00","-9999.00","Mostly Cloudy","mostlycloudy","0","0","0","0","0","0","METAR UKKK 071700Z 27009MPS 9999 BKN014 08/06 Q1002 R26/290058 TEMPO 27010G17MPS"
"7:30 PM EET on November 07, 2016","2016","11","07","19","30","Europe/Kiev","5:30 PM GMT on November 07, 2016","2016","11","07","17","30","UTC","8.0","46.4","5.0","41.0","81","28.8","17.9","-9999.0","-9999.0","280","West","10.0","6.2","1003","29.62","4.1","39.3","-9999","-9999","-9999.00","-9999.00","Mostly Cloudy","mostlycloudy","0","0","0","0","0","0","METAR UKKK 071730Z 28008MPS 9999 BKN013 08/05 Q1003 R26/190060 TEMPO 27010G17MPS"
"8:00 PM EET on November 07, 2016","2016","11","07","20","00","Europe/Kiev","6:00 PM GMT on November 07, 2016","2016","11","07","18","00","UTC","8","46","4","39","69","18.0","11.2","","","310","NW","10","6","1004","29.66","-999","-999","-9999","-9999","","","Overcast","cloudy","0","0","0","0","0","0","AAXX 07181 33345 12597 83105 10079 20040 39843 40044 52046 69942 8655/ 333 10139 86621 555 11007"
"8:00 PM EET on November 07, 2016","2016","11","07","20","00","Europe/Kiev","6:00 PM GMT on November 07, 2016","2016","11","07","18","00","UTC","8.0","46.4","4.0","39.2","76","32.4","20.1","-9999.0","-9999.0","280","West","10.0","6.2","1004","29.65","3.8","38.9","-9999","-9999","-9999.00","-9999.00","Mostly Cloudy","mostlycloudy","0","0","0","0","0","0","METAR UKKK 071800Z 28009MPS 9999 BKN021 08/04 Q1004 R26/190060 TEMPO 27010G17MPS"
"8:30 PM EET on November 07, 2016","2016","11","07","20","30","Europe/Kiev","6:30 PM GMT on November 07, 2016","2016","11","07","18","30","UTC","7.0","44.6","4.0","39.2","81","28.8","17.9","-9999.0","-9999.0","280","West","10.0","6.2","1004","29.65","2.8","37.0","-9999","-9999","-9999.00","-9999.00","Mostly Cloudy","mostlycloudy","0","0","0","0","0","0","METAR UKKK 071830Z 28008MPS 9999 BKN018 07/04 Q1004 R26/190060 TEMPO 27010G17MPS"
"9:00 PM EET on November 07, 2016","2016","11","07","21","00","Europe/Kiev","7:00 PM GMT on November 07, 2016","2016","11","07","19","00","UTC","7.0","44.6","4.0","39.2","81","25.2","15.7","-9999.0","-9999.0","290","WNW","10.0","6.2","1005","29.68","3.1","37.6","-9999","-9999","-9999.00","-9999.00","Mostly Cloudy","mostlycloudy","0","0","0","0","0","0","METAR UKKK 071900Z 29007MPS 9999 BKN015 07/04 Q1005 R26/190060 NOSIG"
"9:30 PM EET on November 07, 2016","2016","11","07","21","30","Europe/Kiev","7:30 PM GMT on November 07, 2016","2016","11","07","19","30","UTC","7.0","44.6","4.0","39.2","81","28.8","17.9","-9999.0","-9999.0","280","West","10.0","6.2","1006","29.71","2.8","37.0","-9999","-9999","-9999.00","-9999.00","Mostly Cloudy","mostlycloudy","0","0","0","0","0","0","METAR UKKK 071930Z 28008MPS 9999 BKN013 07/04 Q1006 R26/190060 NOSIG"
"10:00 PM EET on November 07, 2016","2016","11","07","22","00","Europe/Kiev","8:00 PM GMT on November 07, 2016","2016","11","07","20","00","UTC","6.0","42.8","3.0","37.4","81","25.2","15.7","-9999.0","-9999.0","290","WNW","10.0","6.2","1006","29.71","1.8","35.2","-9999","-9999","-9999.00","-9999.00","Mostly Cloudy","mostlycloudy","0","0","0","0","0","0","METAR UKKK 072000Z 29007MPS 9999 BKN015 06/03 Q1006 R26/190060 NOSIG"
"10:30 PM EET on November 07, 2016","2016","11","07","22","30","Europe/Kiev","8:30 PM GMT on November 07, 2016","2016","11","07","20","30","UTC","6.0","42.8","3.0","37.4","81","21.6","13.4","-9999.0","-9999.0","300","WNW","10.0","6.2","1007","29.74","2.2","35.9","-9999","-9999","-9999.00","-9999.00","Mostly Cloudy","mostlycloudy","0","0","0","0","0","0","METAR UKKK 072030Z 30006MPS 9999 BKN016 06/03 Q1007 R26/190060 NOSIG"
"11:00 PM EET on November 07, 2016","2016","11","07","23","00","Europe/Kiev","9:00 PM GMT on November 07, 2016","2016","11","07","21","00","UTC","6","44","3","37","68","10.8","6.7","","","320","NW","10","6","1008","29.77","-999","-999","-9999","-9999","","","Overcast","cloudy","0","0","0","0","0","0","AAXX 07211 33345 42497 83203 10064 20028 39877 40080 52034 885// 333 85716 555 11006"
"11:00 PM EET on November 07, 2016","2016","11","07","23","00","Europe/Kiev","9:00 PM GMT on November 07, 2016","2016","11","07","21","00","UTC","6.0","42.8","3.0","37.4","81","18.0","11.2","-9999.0","-9999.0","290","WNW","10.0","6.2","1007","29.74","2.6","36.7","-9999","-9999","-9999.00","-9999.00","Mostly Cloudy","mostlycloudy","0","0","0","0","0","0","METAR UKKK 072100Z 29005MPS 9999 BKN018 06/03 Q1007 R26/190060 NOSIG"
"11:30 PM EET on November 07, 2016","2016","11","07","23","30","Europe/Kiev","9:30 PM GMT on November 07, 2016","2016","11","07","21","30","UTC","6.0","42.8","3.0","37.4","81","28.8","17.9","-9999.0","-9999.0","300","WNW","10.0","6.2","1008","29.77","1.5","34.7","-9999","-9999","-9999.00","-9999.00","Mostly Cloudy","mostlycloudy","0","0","0","0","0","0","METAR UKKK 072130Z 30008MPS 9999 BKN017 06/03 Q1008 R26/190060 NOSIG"
"12:00 AM EET on November 08, 2016","2016","11","08","00","00","Europe/Kiev","10:00 PM GMT on November 07, 2016","2016","11","07","22","00","UTC","6.0","42.8","2.0","35.6","76","25.2","15.7","-9999.0","-9999.0","300","WNW","10.0","6.2","1008","29.77","1.8","35.2","-9999","-9999","-9999.00","-9999.00","Mostly Cloudy","mostlycloudy","0","0","0","0","0","0","METAR UKKK 072200Z 30007MPS 9999 BKN018 06/02 Q1008 R26/190060 NOSIG"
"12:30 AM EET on November 08, 2016","2016","11","08","00","30","Europe/Kiev","10:30 PM GMT on November 07, 2016","2016","11","07","22","30","UTC","6.0","42.8","2.0","35.6","76","25.2","15.7","-9999.0","-9999.0","300","WNW","10.0","6.2","1008","29.77","1.8","35.2","-9999","-9999","-9999.00","-9999.00","Mostly Cloudy","mostlycloudy","0","0","0","0","0","0","METAR UKKK 072230Z 30007MPS 9999 BKN018 06/02 Q1008 R26/190060 NOSIG"
"1:00 AM EET on November 08, 2016","2016","11","08","01","00","Europe/Kiev","11:00 PM GMT on November 07, 2016","2016","11","07","23","00","UTC","6.0","42.8","2.0","35.6","76","18.0","11.2","-9999.0","-9999.0","290","WNW","10.0","6.2","1009","29.80","2.6","36.7","-9999","-9999","-9999.00","-9999.00","Mostly Cloudy","mostlycloudy","0","0","0","0","0","0","METAR UKKK 072300Z 29005MPS 9999 BKN020 06/02 Q1009 R26/190060 NOSIG"
"1:30 AM EET on November 08, 2016","2016","11","08","01","30","Europe/Kiev","11:30 PM GMT on November 07, 2016","2016","11","07","23","30","UTC","6.0","42.8","2.0","35.6","76","14.4","8.9","-9999.0","-9999.0","270","West","10.0","6.2","1009","29.80","3.1","37.6","-9999","-9999","-9999.00","-9999.00","Mostly Cloudy","mostlycloudy","0","0","0","0","0","0","METAR UKKK 072330Z 27004MPS 9999 BKN020 06/02 Q1009 R26/190060 NOSIG"
"2:00 AM EET on November 08, 2016","2016","11","08","02","00","Europe/Kiev","12:00 AM GMT on November 08, 2016","2016","11","08","00","00","UTC","6","42","2","35","70","10.8","6.7","","","300","WNW","20","12","1010","29.84","-999","-999","-9999","-9999","","","Overcast","cloudy","0","0","0","0","0","0","AAXX 08001 33345 32598 83003 10058 20019 39900 40104 52023 885// 333 88621 555 11005"
"2:00 AM EET on November 08, 2016","2016","11","08","02","00","Europe/Kiev","12:00 AM GMT on November 08, 2016","2016","11","08","00","00","UTC","5.0","41.0","2.0","35.6","81","18.0","11.2","-9999.0","-9999.0","270","West","10.0","6.2","1009","29.80","1.3","34.4","-9999","-9999","-9999.00","-9999.00","Mostly Cloudy","mostlycloudy","0","0","0","0","0","0","METAR UKKK 080000Z 27005MPS 240V300 9999 BKN020 05/02 Q1009 R26/190060 NOSIG"
"2:30 AM EET on November 08, 2016","2016","11","08","02","30","Europe/Kiev","12:30 AM GMT on November 08, 2016","2016","11","08","00","30","UTC","5.0","41.0","1.0","33.8","76","14.4","8.9","-9999.0","-9999.0","260","West","10.0","6.2","1010","29.83","1.9","35.4","-9999","-9999","-9999.00","-9999.00","Mostly Cloudy","mostlycloudy","0","0","0","0","0","0","METAR UKKK 080030Z 26004MPS 9999 BKN020 05/01 Q1010 R26/190060 NOSIG"
"3:00 AM EET on November 08, 2016","2016","11","08","03","00","Europe/Kiev","1:00 AM GMT on November 08, 2016","2016","11","08","01","00","UTC","5.0","41.0","2.0","35.6","81","10.8","6.7","-9999.0","-9999.0","230","SW","10.0","6.2","1010","29.83","2.5","36.5","-9999","-9999","-9999.00","-9999.00","Mostly Cloudy","mostlycloudy","0","0","0","0","0","0","METAR UKKK 080100Z 23003MPS 9999 BKN028 05/02 Q1010 R26/190060 NOSIG"
"3:30 AM EET on November 08, 2016","2016","11","08","03","30","Europe/Kiev","1:30 AM GMT on November 08, 2016","2016","11","08","01","30","UTC","4.0","39.2","2.0","35.6","87","7.2","4.5","-9999.0","-9999.0","250","WSW","10.0","6.2","1010","29.83","2.2","36.0","-9999","-9999","-9999.00","-9999.00","Mostly Cloudy","mostlycloudy","0","0","0","0","0","0","METAR UKKK 080130Z 25002MPS 9999 BKN027 04/02 Q1010 R26/190060 NOSIG"
"4:00 AM EET on November 08, 2016","2016","11","08","04","00","Europe/Kiev","2:00 AM GMT on November 08, 2016","2016","11","08","02","00","UTC","5.0","41.0","2.0","35.6","81","7.2","4.5","-9999.0","-9999.0","250","WSW","10.0","6.2","1010","29.83","3.4","38.1","-9999","-9999","-9999.00","-9999.00","Mostly Cloudy","mostlycloudy","0","0","0","0","0","0","METAR UKKK 080200Z 25002MPS 9999 BKN025 05/02 Q1010 R26/190060 NOSIG"
"4:30 AM EET on November 08, 2016","2016","11","08","04","30","Europe/Kiev","2:30 AM GMT on November 08, 2016","2016","11","08","02","30","UTC","4.0","39.2","1.0","33.8","81","7.2","4.5","-9999.0","-9999.0","240","WSW","-9999.0","-9999.0","1010","29.83","2.2","36.0","-9999","-9999","-9999.00","-9999.00","Clear","clear","0","0","0","0","0","0","METAR UKKK 080230Z 24002MPS 210V270 CAVOK 04/01 Q1010 R26/190060 NOSIG"
"5:00 AM EET on November 08, 2016","2016","11","08","05","00","Europe/Kiev","3:00 AM GMT on November 08, 2016","2016","11","08","03","00","UTC","5","40","2","35","75","7.2","4.5","","","270","West","10","6","1011","29.87","-999","-999","-9999","-9999","","","Overcast","cloudy","0","0","0","0","0","0","AAXX 08031 33345 42997 82702 10046 20016 39908 40113 51008 83036 555 11003"
"5:00 AM EET on November 08, 2016","2016","11","08","05","00","Europe/Kiev","3:00 AM GMT on November 08, 2016","2016","11","08","03","00","UTC","4.0","39.2","2.0","35.6","87","7.2","4.5","-9999.0","-9999.0","240","WSW","-9999.0","-9999.0","1010","29.83","2.2","36.0","-9999","-9999","-9999.00","-9999.00","Clear","clear","0","0","0","0","0","0","METAR UKKK 080300Z 24002MPS CAVOK 04/02 Q1010 R26/190060 NOSIG"
"5:30 AM EET on November 08, 2016","2016","11","08","05","30","Europe/Kiev","3:30 AM GMT on November 08, 2016","2016","11","08","03","30","UTC","4.0","39.2","2.0","35.6","87","7.2","4.5","-9999.0","-9999.0","250","WSW","-9999.0","-9999.0","1010","29.83","2.2","36.0","-9999","-9999","-9999.00","-9999.00","Clear","clear","0","0","0","0","0","0","METAR UKKK 080330Z 25002MPS CAVOK 04/02 Q1010 R26/CLRD70 NOSIG"
"6:00 AM EET on November 08, 2016","2016","11","08","06","00","Europe/Kiev","4:00 AM GMT on November 08, 2016","2016","11","08","04","00","UTC","4.0","39.2","2.0","35.6","87","7.2","4.5","-9999.0","-9999.0","240","WSW","-9999.0","-9999.0","1010","29.83","2.2","36.0","-9999","-9999","-9999.00","-9999.00","Clear","clear","0","0","0","0","0","0","METAR UKKK 080400Z 24002MPS CAVOK 04/02 Q1010 R26/CLRD70 NOSIG"
"6:30 AM EET on November 08, 2016","2016","11","08","06","30","Europe/Kiev","4:30 AM GMT on November 08, 2016","2016","11","08","04","30","UTC","3.0","37.4","2.0","35.6","93","7.2","4.5","-9999.0","-9999.0","260","West","-9999.0","-9999.0","1011","29.86","1.0","33.9","-9999","-9999","-9999.00","-9999.00","Clear","clear","0","0","0","0","0","0","METAR UKKK 080430Z 26002MPS CAVOK 03/02 Q1011 R26/CLRD70 NOSIG"
"7:00 AM EET on November 08, 2016","2016","11","08","07","00","Europe/Kiev","5:00 AM GMT on November 08, 2016","2016","11","08","05","00","UTC","3.0","37.4","2.0","35.6","93","7.2","4.5","-9999.0","-9999.0","260","West","-9999.0","-9999.0","1011","29.86","1.0","33.9","-9999","-9999","-9999.00","-9999.00","Clear","clear","0","0","0","0","0","0","METAR UKKK 080500Z 26002MPS CAVOK 03/02 Q1011 R26/CLRD70 NOSIG"
"7:30 AM EET on November 08, 2016","2016","11","08","07","30","Europe/Kiev","5:30 AM GMT on November 08, 2016","2016","11","08","05","30","UTC","3.0","37.4","2.0","35.6","93","7.2","4.5","-9999.0","-9999.0","250","WSW","-9999.0","-9999.0","1011","29.86","1.0","33.9","-9999","-9999","-9999.00","-9999.00","Clear","clear","0","0","0","0","0","0","METAR UKKK 080530Z 25002MPS 210V280 CAVOK 03/02 Q1011 R26/CLRD70 NOSIG"
"8:00 AM EET on November 08, 2016","2016","11","08","08","00","Europe/Kiev","6:00 AM GMT on November 08, 2016","2016","11","08","06","00","UTC","4","38","2","35","86","7.2","4.5","","","230","SW","10","6","1013","29.91","-999","-999","-9999","-9999","","","Mostly Cloudy","mostlycloudy","0","0","0","0","0","0","AAXX 08061 33345 32997 72302 10036 20018 39920 40126 53012 86075 333 20036 555 11003"
"8:00 AM EET on November 08, 2016","2016","11","08","08","00","Europe/Kiev","6:00 AM GMT on November 08, 2016","2016","11","08","06","00","UTC","3.0","37.4","2.0","35.6","93","7.2","4.5","-9999.0","-9999.0","220","SW","-9999.0","-9999.0","1011","29.86","1.0","33.9","-9999","-9999","-9999.00","-9999.00","Clear","clear","0","0","0","0","0","0","METAR UKKK 080600Z 22002MPS 180V250 CAVOK 03/02 Q1011 R26/CLRD70 NOSIG"
"8:30 AM EET on November 08, 2016","2016","11","08","08","30","Europe/Kiev","6:30 AM GMT on November 08, 2016","2016","11","08","06","30","UTC","4.0","39.2","2.0","35.6","87","7.2","4.5","-9999.0","-9999.0","230","SW","9.0","5.6","1012","29.89","2.2","36.0","-9999","-9999","-9999.00","-9999.00","Unknown","unknown","0","0","0","0","0","0","METAR UKKK 080630Z 23002MPS 9000 NSC 04/02 Q1012 R26/CLRD70 NOSIG"
"9:00 AM EET on November 08, 2016","2016","11","08","09","00","Europe/Kiev","7:00 AM GMT on November 08, 2016","2016","11","08","07","00","UTC","4.0","39.2","3.0","37.4","93","10.8","6.7","-9999.0","-9999.0","210","SSW","-9999.0","-9999.0","1012","29.89","1.3","34.4","-9999","-9999","-9999.00","-9999.00","Clear","clear","0","0","0","0","0","0","METAR UKKK 080700Z 21003MPS 170V230 CAVOK 04/03 Q1012 R26/CLRD70 NOSIG"
"9:30 AM EET on November 08, 2016","2016","11","08","09","30","Europe/Kiev","7:30 AM GMT on November 08, 2016","2016","11","08","07","30","UTC","4.0","39.2","3.0","37.4","93","10.8","6.7","-9999.0","-9999.0","230","SW","-9999.0","-9999.0","1012","29.89","1.3","34.4","-9999","-9999","-9999.00","-9999.00","Clear","clear","0","0","0","0","0","0","METAR UKKK 080730Z 23003MPS CAVOK 04/03 Q1012 R26/CLRD70 NOSIG"
"10:00 AM EET on November 08, 2016","2016","11","08","10","00","Europe/Kiev","8:00 AM GMT on November 08, 2016","2016","11","08","08","00","UTC","5.0","41.0","3.0","37.4","87","10.8","6.7","-9999.0","-9999.0","230","SW","10.0","6.2","1013","29.92","2.5","36.5","-9999","-9999","-9999.00","-9999.00","Mostly Cloudy","mostlycloudy","0","0","0","0","0","0","METAR UKKK 080800Z 23003MPS 9999 SCT016 BKN100 05/03 Q1013 R26/CLRD70 NOSIG"
"10:30 AM EET on November 08, 2016","2016","11","08","10","30","Europe/Kiev","8:30 AM GMT on November 08, 2016","2016","11","08","08","30","UTC","5.0","41.0","3.0","37.4","87","10.8","6.7","-9999.0","-9999.0","220","SW","10.0","6.2","1013","29.92","2.5","36.5","-9999","-9999","-9999.00","-9999.00","Mostly Cloudy","mostlycloudy","0","0","0","0","0","0","METAR UKKK 080830Z 22003MPS 9999 SCT011 BKN100 05/03 Q1013 R26/CLRD70 NOSIG"
"11:00 AM EET on November 08, 2016","2016","11","08","11","00","Europe/Kiev","9:00 AM GMT on November 08, 2016","2016","11","08","09","00","UTC","5","42","3","37","75","7.2","4.5","","","270","West","20","12","1014","29.94","-999","-999","-9999","-9999","","","Overcast","cloudy","0","0","0","0","0","0","AAXX 08091 33345 42998 82702 10054 20027 39934 40139 52014 8802/ 555 11007"
"11:00 AM EET on November 08, 2016","2016","11","08","11","00","Europe/Kiev","9:00 AM GMT on November 08, 2016","2016","11","08","09","00","UTC","5.0","41.0","3.0","37.4","87","7.2","4.5","-9999.0","-9999.0","240","WSW","10.0","6.2","1013","29.92","3.4","38.1","-9999","-9999","-9999.00","-9999.00","Mostly Cloudy","mostlycloudy","0","0","0","0","0","0","METAR UKKK 080900Z 24002MPS 210V270 9999 SCT040 BKN150 05/03 Q1013 R26/CLRD70 NOSIG"
"11:30 AM EET on November 08, 2016","2016","11","08","11","30","Europe/Kiev","9:30 AM GMT on November 08, 2016","2016","11","08","09","30","UTC","6.0","42.8","3.0","37.4","81","7.2","4.5","-9999.0","-9999.0","210","SSW","10.0","6.2","1012","29.89","4.5","40.2","-9999","-9999","-9999.00","-9999.00","Mostly Cloudy","mostlycloudy","0","0","0","0","0","0","METAR UKKK 080930Z 21002MPS 180V240 9999 SCT040 BKN150 06/03 Q1012 R26/CLRD70 NOSIG"
"12:00 PM EET on November 08, 2016","2016","11","08","12","00","Europe/Kiev","10:00 AM GMT on November 08, 2016","2016","11","08","10","00","UTC","6.0","42.8","3.0","37.4","81","3.6","2.2","-9999.0","-9999.0","0","Variable","9.0","5.6","1012","29.89","-999","-999","-9999","-9999","-9999.00","-9999.00","Mostly Cloudy","mostlycloudy","0","0","0","0","0","0","METAR UKKK 081000Z VRB01MPS 9000 FEW040 BKN140 06/03 Q1012 R26/CLRD70 NOSIG"
"12:30 PM EET on November 08, 2016","2016","11","08","12","30","Europe/Kiev","10:30 AM GMT on November 08, 2016","2016","11","08","10","30","UTC","6.0","42.8","3.0","37.4","81","3.6","2.2","-9999.0","-9999.0","0","Variable","-9999.0","-9999.0","1012","29.89","-999","-999","-9999","-9999","-9999.00","-9999.00","Clear","clear","0","0","0","0","0","0","METAR UKKK 081030Z VRB01MPS CAVOK 06/03 Q1012 R26/CLRD70 NOSIG"
"1:00 PM EET on November 08, 2016","2016","11","08","13","00","Europe/Kiev","11:00 AM GMT on November 08, 2016","2016","11","08","11","00","UTC","7.0","44.6","3.0","37.4","76","3.6","2.2","-9999.0","-9999.0","0","Variable","-9999.0","-9999.0","1012","29.89","-999","-999","-9999","-9999","-9999.00","-9999.00","Clear","clear","0","0","0","0","0","0","METAR UKKK 081100Z VRB01MPS CAVOK 07/03 Q1012 R26/CLRD70 NOSIG"
"1:30 PM EET on November 08, 2016","2016","11","08","13","30","Europe/Kiev","11:30 AM GMT on November 08, 2016","2016","11","08","11","30","UTC","7.0","44.6","3.0","37.4","76","3.6","2.2","-9999.0","-9999.0","0","Variable","-9999.0","-9999.0","1012","29.89","-999","-999","-9999","-9999","-9999.00","-9999.00","Clear","clear","0","0","0","0","0","0","METAR UKKK 081130Z VRB01MPS CAVOK 07/03 Q1012 R26/CLRD70 NOSIG"
"2:00 PM EET on November 08, 2016","2016","11","08","14","00","Europe/Kiev","12:00 PM GMT on November 08, 2016","2016","11","08","12","00","UTC","8","46","3","38","63","3.6","2.2","","","310","NW","20","12","1013","29.91","-999","-999","-9999","-9999","","","Mostly Cloudy","mostlycloudy","0","0","0","0","0","0","AAXX 08121 33345 32998 63101 10076 20031 39925 40128 58009 85079 555 11010"
"2:00 PM EET on November 08, 2016","2016","11","08","14","00","Europe/Kiev","12:00 PM GMT on November 08, 2016","2016","11","08","12","00","UTC","7.0","44.6","3.0","37.4","76","3.6","2.2","-9999.0","-9999.0","0","Variable","-9999.0","-9999.0","1012","29.89","-999","-999","-9999","-9999","-9999.00","-9999.00","Clear","clear","0","0","0","0","0","0","METAR UKKK 081200Z VRB01MPS CAVOK 07/03 Q1012 R26/CLRD70 NOSIG"
"2:30 PM EET on November 08, 2016","2016","11","08","14","30","Europe/Kiev","12:30 PM GMT on November 08, 2016","2016","11","08","12","30","UTC","7.0","44.6","3.0","37.4","76","3.6","2.2","-9999.0","-9999.0","0","Variable","-9999.0","-9999.0","1012","29.89","-999","-999","-9999","-9999","-9999.00","-9999.00","Clear","clear","0","0","0","0","0","0","METAR UKKK 081230Z VRB01MPS CAVOK 07/03 Q1012 R26/CLRD70 NOSIG"
"3:00 PM EET on November 08, 2016","2016","11","08","15","00","Europe/Kiev","1:00 PM GMT on November 08, 2016","2016","11","08","13","00","UTC","7.0","44.6","3.0","37.4","76","3.6","2.2","-9999.0","-9999.0","0","Variable","-9999.0","-9999.0","1012","29.89","-999","-999","-9999","-9999","-9999.00","-9999.00","Clear","clear","0","0","0","0","0","0","METAR UKKK 081300Z VRB01MPS CAVOK 07/03 Q1012 R26/CLRD70 NOSIG"
"3:30 PM EET on November 08, 2016","2016","11","08","15","30","Europe/Kiev","1:30 PM GMT on November 08, 2016","2016","11","08","13","30","UTC","6.0","42.8","3.0","37.4","81","3.6","2.2","-9999.0","-9999.0","0","Variable","-9999.0","-9999.0","1012","29.89","-999","-999","-9999","-9999","-9999.00","-9999.00","Clear","clear","0","0","0","0","0","0","METAR UKKK 081330Z VRB01MPS CAVOK 06/03 Q1012 R26/CLRD70 NOSIG"
"4:00 PM EET on November 08, 2016","2016","11","08","16","00","Europe/Kiev","2:00 PM GMT on November 08, 2016","2016","11","08","14","00","UTC","6.0","42.8","2.0","35.6","76","0.0","0.0","-9999.0","-9999.0","0","North","9.0","5.6","1012","29.89","-999","-999","-9999","-9999","-9999.00","-9999.00","Unknown","unknown","0","0","0","0","0","0","METAR UKKK 081400Z 00000MPS 9000 NSC 06/02 Q1012 R26/CLRD70 NOSIG"
"4:30 PM EET on November 08, 2016","2016","11","08","16","30","Europe/Kiev","2:30 PM GMT on November 08, 2016","2016","11","08","14","30","UTC","6.0","42.8","2.0","35.6","76","3.6","2.2","-9999.0","-9999.0","120","ESE","8.0","5.0","1012","29.89","-999","-999","-9999","-9999","-9999.00","-9999.00","Mostly Cloudy","mostlycloudy","0","0","0","0","0","0","METAR UKKK 081430Z 12001MPS 8000 SCT021 BKN100 06/02 Q1012 R26/CLRD70 NOSIG"
"5:00 PM EET on November 08, 2016","2016","11","08","17","00","Europe/Kiev","3:00 PM GMT on November 08, 2016","2016","11","08","15","00","UTC","6","42","3","37","75","3.6","2.2","","","90","East","20","12","1013","29.93","-999","-999","-9999","-9999","","","Overcast","cloudy","0","0","0","0","0","0","AAXX 08151 33345 42598 80901 10058 20026 39929 40134 53004 885// 333 88621 555 11005"
"5:00 PM EET on November 08, 2016","2016","11","08","17","00","Europe/Kiev","3:00 PM GMT on November 08, 2016","2016","11","08","15","00","UTC","5.0","41.0","3.0","37.4","87","7.2","4.5","-9999.0","-9999.0","70","ENE","6.0","3.7","1012","29.89","3.4","38.1","-9999","-9999","-9999.00","-9999.00","Mostly Cloudy","mostlycloudy","0","0","0","0","0","0","METAR UKKK 081500Z 07002MPS 6000 SCT022 BKN100 05/03 Q1012 R26/CLRD70 NOSIG"
"5:30 PM EET on November 08, 2016","2016","11","08","17","30","Europe/Kiev","3:30 PM GMT on November 08, 2016","2016","11","08","15","30","UTC","6.0","42.8","3.0","37.4","81","10.8","6.7","-9999.0","-9999.0","40","NE","9.0","5.6","1012","29.89","3.7","38.7","-9999","-9999","-9999.00","-9999.00","Mostly Cloudy","mostlycloudy","0","0","0","0","0","0","METAR UKKK 081530Z 04003MPS 9000 SCT022 BKN100 06/03 Q1012 R08/CLRD70 NOSIG"
"6:00 PM EET on November 08, 2016","2016","11","08","18","00","Europe/Kiev","4:00 PM GMT on November 08, 2016","2016","11","08","16","00","UTC","6.0","42.8","3.0","37.4","81","10.8","6.7","-9999.0","-9999.0","40","NE","9.0","5.6","1012","29.89","3.7","38.7","-9999","-9999","-9999.00","-9999.00","Mostly Cloudy","mostlycloudy","0","0","0","0","0","0","METAR UKKK 081600Z 04003MPS 9000 SCT022 BKN100 06/03 Q1012 R08/CLRD70 NOSIG"
"6:30 PM EET on November 08, 2016","2016","11","08","18","30","Europe/Kiev","4:30 PM GMT on November 08, 2016","2016","11","08","16","30","UTC","5.0","41.0","3.0","37.4","87","14.4","8.9","-9999.0","-9999.0","20","NNE","9.0","5.6","1012","29.89","1.9","35.4","-9999","-9999","-9999.00","-9999.00","Unknown","unknown","0","0","0","0","0","0","METAR UKKK 081630Z 02004MPS 9000 NSC 05/03 Q1012 R08/CLRD70 NOSIG"
"7:00 PM EET on November 08, 2016","2016","11","08","19","00","Europe/Kiev","5:00 PM GMT on November 08, 2016","2016","11","08","17","00","UTC","5.0","41.0","3.0","37.4","87","14.4","8.9","-9999.0","-9999.0","50","NE","9.0","5.6","1012","29.89","1.9","35.4","-9999","-9999","-9999.00","-9999.00","Unknown","unknown","0","0","0","0","0","0","METAR UKKK 081700Z 05004MPS 9000 NSC 05/03 Q1012 R08/CLRD70 NOSIG"
"7:30 PM EET on November 08, 2016","2016","11","08","19","30","Europe/Kiev","5:30 PM GMT on November 08, 2016","2016","11","08","17","30","UTC","5.0","41.0","3.0","37.4","87","10.8","6.7","-9999.0","-9999.0","50","NE","9.0","5.6","1012","29.89","2.5","36.5","-9999","-9999","-9999.00","-9999.00","Unknown","unknown","0","0","0","0","0","0","METAR UKKK 081730Z 05003MPS 9000 NSC 05/03 Q1012 R08/CLRD70 NOSIG"
"8:00 PM EET on November 08, 2016","2016","11","08","20","00","Europe/Kiev","6:00 PM GMT on November 08, 2016","2016","11","08","18","00","UTC","5","41","3","37","80","7.2","4.5","","","60","ENE","10","6","1013","29.93","-999","-999","-9999","-9999","","","Overcast","cloudy","0","0","0","0","0","0","AAXX 08181 33345 32997 80602 10050 20028 39929 40134 54000 8807/ 333 10076 555 11004"
"8:00 PM EET on November 08, 2016","2016","11","08","20","00","Europe/Kiev","6:00 PM GMT on November 08, 2016","2016","11","08","18","00","UTC","5.0","41.0","3.0","37.4","87","10.8","6.7","-9999.0","-9999.0","60","ENE","9.0","5.6","1012","29.89","2.5","36.5","-9999","-9999","-9999.00","-9999.00","Unknown","unknown","0","0","0","0","0","0","METAR UKKK 081800Z 06003MPS 9000 NSC 05/03 Q1012 R08/CLRD70 NOSIG"
"8:30 PM EET on November 08, 2016","2016","11","08","20","30","Europe/Kiev","6:30 PM GMT on November 08, 2016","2016","11","08","18","30","UTC","5.0","41.0","3.0","37.4","87","14.4","8.9","-9999.0","-9999.0","60","ENE","9.0","5.6","1012","29.89","1.9","35.4","-9999","-9999","-9999.00","-9999.00","Unknown","unknown","0","0","0","0","0","0","METAR UKKK 081830Z 06004MPS 9000 NSC 05/03 Q1012 R08/CLRD70 NOSIG"
"9:00 PM EET on November 08, 2016","2016","11","08","21","00","Europe/Kiev","7:00 PM GMT on November 08, 2016","2016","11","08","19","00","UTC","5.0","41.0","3.0","37.4","87","10.8","6.7","-9999.0","-9999.0","60","ENE","9.0","5.6","1012","29.89","2.5","36.5","-9999","-9999","-9999.00","-9999.00","Unknown","unknown","0","0","0","0","0","0","METAR UKKK 081900Z 06003MPS 9000 NSC 05/03 Q1012 R08/CLRD70 NOSIG"
"9:30 PM EET on November 08, 2016","2016","11","08","21","30","Europe/Kiev","7:30 PM GMT on November 08, 2016","2016","11","08","19","30","UTC","5.0","41.0","3.0","37.4","87","10.8","6.7","-9999.0","-9999.0","30","NNE","9.0","5.6","1012","29.89","2.5","36.5","-9999","-9999","-9999.00","-9999.00","Unknown","unknown","0","0","0","0","0","0","METAR UKKK 081930Z 03003MPS 9000 NSC 05/03 Q1012 R08/CLRD70 NOSIG"
"10:00 PM EET on November 08, 2016","2016","11","08","22","00","Europe/Kiev","8:00 PM GMT on November 08, 2016","2016","11","08","20","00","UTC","5.0","41.0","3.0","37.4","87","10.8","6.7","-9999.0","-9999.0","60","ENE","8.0","5.0","1012","29.89","2.5","36.5","-9999","-9999","-9999.00","-9999.00","Unknown","unknown","0","0","0","0","0","0","METAR UKKK 082000Z 06003MPS 8000 NSC 05/03 Q1012 R08/CLRD70 NOSIG"
"10:30 PM EET on November 08, 2016","2016","11","08","22","30","Europe/Kiev","8:30 PM GMT on November 08, 2016","2016","11","08","20","30","UTC","5.0","41.0","3.0","37.4","87","7.2","4.5","-9999.0","-9999.0","50","NE","8.0","5.0","1013","29.92","3.4","38.1","-9999","-9999","-9999.00","-9999.00","Unknown","unknown","0","0","0","0","0","0","METAR UKKK 082030Z 05002MPS 8000 NSC 05/03 Q1013 R08/CLRD70 NOSIG"
"11:00 PM EET on November 08, 2016","2016","11","08","23","00","Europe/Kiev","9:00 PM GMT on November 08, 2016","2016","11","08","21","00","UTC","5","40","3","37","86","7.2","4.5","","","50","NE","10","6","1014","29.94","-999","-999","-9999","-9999","","","Overcast","cloudy","0","0","0","0","0","0","AAXX 08211 33345 42997 80502 10046 20029 39933 40139 53004 8803/ 555 11004"
"11:00 PM EET on November 08, 2016","2016","11","08","23","00","Europe/Kiev","9:00 PM GMT on November 08, 2016","2016","11","08","21","00","UTC","4.0","39.2","3.0","37.4","93","7.2","4.5","-9999.0","-9999.0","40","NE","8.0","5.0","1013","29.92","2.2","36.0","-9999","-9999","-9999.00","-9999.00","Unknown","unknown","0","0","0","0","0","0","METAR UKKK 082100Z 04002MPS 8000 NSC 04/03 Q1013 R08/CLRD70 NOSIG"
"11:30 PM EET on November 08, 2016","2016","11","08","23","30","Europe/Kiev","9:30 PM GMT on November 08, 2016","2016","11","08","21","30","UTC","5.0","41.0","3.0","37.4","87","10.8","6.7","-9999.0","-9999.0","50","NE","8.0","5.0","1012","29.89","2.5","36.5","-9999","-9999","-9999.00","-9999.00","Unknown","unknown","0","0","0","0","0","0","METAR UKKK 082130Z 05003MPS 8000 NSC 05/03 Q1012 R08/CLRD70 NOSIG"
"12:00 AM EET on November 09, 2016","2016","11","09","00","00","Europe/Kiev","10:00 PM GMT on November 08, 2016","2016","11","08","22","00","UTC","4.0","39.2","3.0","37.4","93","14.4","8.9","-9999.0","-9999.0","60","ENE","8.0","5.0","1013","29.92","0.6","33.1","-9999","-9999","-9999.00","-9999.00","Unknown","unknown","0","0","0","0","0","0","METAR UKKK 082200Z 06004MPS 8000 NSC 04/03 Q1013 R08/CLRD70 NOSIG"
"12:30 AM EET on November 09, 2016","2016","11","09","00","30","Europe/Kiev","10:30 PM GMT on November 08, 2016","2016","11","08","22","30","UTC","4.0","39.2","3.0","37.4","93","10.8","6.7","-9999.0","-9999.0","50","NE","8.0","5.0","1013","29.92","1.3","34.4","-9999","-9999","-9999.00","-9999.00","Unknown","unknown","0","0","0","0","0","0","METAR UKKK 082230Z 05003MPS 8000 NSC 04/03 Q1013 R08/CLRD70 NOSIG"
"1:00 AM EET on November 09, 2016","2016","11","09","01","00","Europe/Kiev","11:00 PM GMT on November 08, 2016","2016","11","08","23","00","UTC","4.0","39.2","3.0","37.4","93","10.8","6.7","-9999.0","-9999.0","50","NE","8.0","5.0","1012","29.89","1.3","34.4","-9999","-9999","-9999.00","-9999.00","Unknown","unknown","0","0","0","0","0","0","METAR UKKK 082300Z 05003MPS 8000 NSC 04/03 Q1012 R08/CLRD70 NOSIG"
"1:30 AM EET on November 09, 2016","2016","11","09","01","30","Europe/Kiev","11:30 PM GMT on November 08, 2016","2016","11","08","23","30","UTC","4.0","39.2","3.0","37.4","93","14.4","8.9","-9999.0","-9999.0","60","ENE","8.0","5.0","1013","29.92","0.6","33.1","-9999","-9999","-9999.00","-9999.00","Unknown","unknown","0","0","0","0","0","0","METAR UKKK 082330Z 06004MPS 8000 NSC 04/03 Q1013 R08/CLRD70 NOSIG"
"2:00 AM EET on November 09, 2016","2016","11","09","02","00","Europe/Kiev","12:00 AM GMT on November 09, 2016","2016","11","09","00","00","UTC","4","39","3","37","88","10.8","6.7","","","60","ENE","10","6","1014","29.93","-999","-999","-9999","-9999","","","Overcast","cloudy","0","0","0","0","0","0","AAXX 09001 33345 32997 80603 10041 20026 39929 40135 58004 8805/ 555 11003"
"2:00 AM EET on November 09, 2016","2016","11","09","02","00","Europe/Kiev","12:00 AM GMT on November 09, 2016","2016","11","09","00","00","UTC","4.0","39.2","3.0","37.4","93","14.4","8.9","-9999.0","-9999.0","60","ENE","8.0","5.0","1012","29.89","0.6","33.1","-9999","-9999","-9999.00","-9999.00","Unknown","unknown","0","0","0","0","0","0","METAR UKKK 090000Z 06004MPS 8000 NSC 04/03 Q1012 R08/CLRD70 NOSIG"
"2:30 AM EET on November 09, 2016","2016","11","09","02","30","Europe/Kiev","12:30 AM GMT on November 09, 2016","2016","11","09","00","30","UTC","4.0","39.2","2.0","35.6","87","14.4","8.9","-9999.0","-9999.0","60","ENE","8.0","5.0","1012","29.89","0.6","33.1","-9999","-9999","-9999.00","-9999.00","Unknown","unknown","0","0","0","0","0","0","METAR UKKK 090030Z 06004MPS 8000 NSC 04/02 Q1012 R08/CLRD70 NOSIG"
"3:00 AM EET on November 09, 2016","2016","11","09","03","00","Europe/Kiev","1:00 AM GMT on November 09, 2016","2016","11","09","01","00","UTC","4.0","39.2","2.0","35.6","87","14.4","8.9","-9999.0","-9999.0","60","ENE","8.0","5.0","1012","29.89","0.6","33.1","-9999","-9999","-9999.00","-9999.00","Unknown","unknown","0","0","0","0","0","0","METAR UKKK 090100Z 06004MPS 8000 NSC 04/02 Q1012 R08/CLRD70 NOSIG"
"3:30 AM EET on November 09, 2016","2016","11","09","03","30","Europe/Kiev","1:30 AM GMT on November 09, 2016","2016","11","09","01","30","UTC","4.0","39.2","2.0","35.6","87","14.4","8.9","-9999.0","-9999.0","50","NE","8.0","5.0","1012","29.89","0.6","33.1","-9999","-9999","-9999.00","-9999.00","Unknown","unknown","0","0","0","0","0","0","METAR UKKK 090130Z 05004MPS 8000 NSC 04/02 Q1012 R08/CLRD70 NOSIG"
"4:00 AM EET on November 09, 2016","2016","11","09","04","00","Europe/Kiev","2:00 AM GMT on November 09, 2016","2016","11","09","02","00","UTC","4.0","39.2","2.0","35.6","87","10.8","6.7","-9999.0","-9999.0","50","NE","9.0","5.6","1012","29.89","1.3","34.4","-9999","-9999","-9999.00","-9999.00","Unknown","unknown","0","0","0","0","0","0","METAR UKKK 090200Z 05003MPS 9000 NSC 04/02 Q1012 R08/CLRD70 NOSIG"
"4:30 AM EET on November 09, 2016","2016","11","09","04","30","Europe/Kiev","2:30 AM GMT on November 09, 2016","2016","11","09","02","30","UTC","4.0","39.2","2.0","35.6","87","10.8","6.7","-9999.0","-9999.0","30","NNE","9.0","5.6","1012","29.89","1.3","34.4","-9999","-9999","-9999.00","-9999.00","Mostly Cloudy","mostlycloudy","0","0","0","0","0","0","METAR UKKK 090230Z 03003MPS 9000 SCT010 BKN100 04/02 Q1012 R08/CLRD70 NOSIG"
"5:00 AM EET on November 09, 2016","2016","11","09","05","00","Europe/Kiev","3:00 AM GMT on November 09, 2016","2016","11","09","03","00","UTC","4","39","2","36","83","7.2","4.5","","","60","ENE","10","6","1013","29.91","-999","-999","-9999","-9999","","","Overcast","cloudy","0","0","0","0","0","0","AAXX 09031 33345 42997 80602 10038 20020 39923 40129 57006 8805/ 555 11003"
"5:00 AM EET on November 09, 2016","2016","11","09","05","00","Europe/Kiev","3:00 AM GMT on November 09, 2016","2016","11","09","03","00","UTC","4.0","39.2","2.0","35.6","87","10.8","6.7","-9999.0","-9999.0","30","NNE","9.0","5.6","1012","29.89","1.3","34.4","-9999","-9999","-9999.00","-9999.00","Mostly Cloudy","mostlycloudy","0","0","0","0","0","0","METAR UKKK 090300Z 03003MPS 9000 SCT009 BKN100 04/02 Q1012 R08/CLRD70 NOSIG"
"5:30 AM EET on November 09, 2016","2016","11","09","05","30","Europe/Kiev","3:30 AM GMT on November 09, 2016","2016","11","09","03","30","UTC","3.0","37.4","2.0","35.6","93","10.8","6.7","-9999.0","-9999.0","40","NE","9.0","5.6","1012","29.89","0.1","32.2","-9999","-9999","-9999.00","-9999.00","Mostly Cloudy","mostlycloudy","0","0","0","0","0","0","METAR UKKK 090330Z 04003MPS 9000 SCT009 BKN100 03/02 Q1012 R08/CLRD70 NOSIG"
"6:00 AM EET on November 09, 2016","2016","11","09","06","00","Europe/Kiev","4:00 AM GMT on November 09, 2016","2016","11","09","04","00","UTC","4.0","39.2","2.0","35.6","87","14.4","8.9","-9999.0","-9999.0","60","ENE","9.0","5.6","1011","29.86","0.6","33.1","-9999","-9999","-9999.00","-9999.00","Mostly Cloudy","mostlycloudy","0","0","0","0","0","0","METAR UKKK 090400Z 06004MPS 9000 SCT010 BKN100 04/02 Q1011 R08/CLRD70 NOSIG"
"6:30 AM EET on November 09, 2016","2016","11","09","06","30","Europe/Kiev","4:30 AM GMT on November 09, 2016","2016","11","09","04","30","UTC","4.0","39.2","2.0","35.6","87","14.4","8.9","-9999.0","-9999.0","40","NE","9.0","5.6","1011","29.86","0.6","33.1","-9999","-9999","-9999.00","-9999.00","Mostly Cloudy","mostlycloudy","0","0","0","0","0","0","METAR UKKK 090430Z 04004MPS 9000 SCT009 BKN100 04/02 Q1011 R08/CLRD70 NOSIG"
"7:00 AM EET on November 09, 2016","2016","11","09","07","00","Europe/Kiev","5:00 AM GMT on November 09, 2016","2016","11","09","05","00","UTC","3.0","37.4","2.0","35.6","93","10.8","6.7","-9999.0","-9999.0","50","NE","9.0","5.6","1011","29.86","0.1","32.2","-9999","-9999","-9999.00","-9999.00","Mostly Cloudy","mostlycloudy","0","0","0","0","0","0","METAR UKKK 090500Z 05003MPS 9000 SCT010 BKN100 03/02 Q1011 R08/CLRD70 NOSIG"
"7:30 AM EET on November 09, 2016","2016","11","09","07","30","Europe/Kiev","5:30 AM GMT on November 09, 2016","2016","11","09","05","30","UTC","4.0","39.2","2.0","35.6","87","10.8","6.7","-9999.0","-9999.0","40","NE","10.0","6.2","1011","29.86","1.3","34.4","-9999","-9999","-9999.00","-9999.00","Mostly Cloudy","mostlycloudy","0","0","0","0","0","0","METAR UKKK 090530Z 04003MPS 010V070 9999 SCT010 BKN100 04/02 Q1011 R08/CLRD70 NOSIG"
"8:00 AM EET on November 09, 2016","2016","11","09","08","00","Europe/Kiev","6:00 AM GMT on November 09, 2016","2016","11","09","06","00","UTC","4","38","2","35","84","10.8","6.7","","","60","ENE","20","12","1012","29.90","-999","-999","-9999","-9999","","","Mostly Cloudy","mostlycloudy","0","0","0","0","0","0","AAXX 09061 33345 32998 70603 10036 20016 39919 40125 57004 87030 333 20034 555 11003"
"8:00 AM EET on November 09, 2016","2016","11","09","08","00","Europe/Kiev","6:00 AM GMT on November 09, 2016","2016","11","09","06","00","UTC","4.0","39.2","2.0","35.6","87","14.4","8.9","-9999.0","-9999.0","50","NE","10.0","6.2","1011","29.86","0.6","33.1","-9999","-9999","-9999.00","-9999.00","Mostly Cloudy","mostlycloudy","0","0","0","0","0","0","METAR UKKK 090600Z 05004MPS 9999 SCT012 BKN100 04/02 Q1011 R08/CLRD70 NOSIG"
"8:30 AM EET on November 09, 2016","2016","11","09","08","30","Europe/Kiev","6:30 AM GMT on November 09, 2016","2016","11","09","06","30","UTC","4.0","39.2","2.0","35.6","87","14.4","8.9","-9999.0","-9999.0","60","ENE","10.0","6.2","1012","29.89","0.6","33.1","-9999","-9999","-9999.00","-9999.00","Mostly Cloudy","mostlycloudy","0","0","0","0","0","0","METAR UKKK 090630Z 06004MPS 9999 SCT012 BKN090 04/02 Q1012 R08/CLRD70 NOSIG"
"9:00 AM EET on November 09, 2016","2016","11","09","09","00","Europe/Kiev","7:00 AM GMT on November 09, 2016","2016","11","09","07","00","UTC","4.0","39.2","2.0","35.6","87","14.4","8.9","-9999.0","-9999.0","50","NE","10.0","6.2","1012","29.89","0.6","33.1","-9999","-9999","-9999.00","-9999.00","Mostly Cloudy","mostlycloudy","0","0","0","0","0","0","METAR UKKK 090700Z 05004MPS 9999 SCT012 BKN090 04/02 Q1012 R08/CLRD70 NOSIG"
"9:30 AM EET on November 09, 2016","2016","11","09","09","30","Europe/Kiev","7:30 AM GMT on November 09, 2016","2016","11","09","07","30","UTC","5.0","41.0","2.0","35.6","81","18.0","11.2","-9999.0","-9999.0","60","ENE","-9999.0","-9999.0","1012","29.89","1.3","34.4","-9999","-9999","-9999.00","-9999.00","Clear","clear","0","0","0","0","0","0","METAR UKKK 090730Z 06005MPS CAVOK 05/02 Q1012 R08/CLRD70 NOSIG"
"10:00 AM EET on November 09, 2016","2016","11","09","10","00","Europe/Kiev","8:00 AM GMT on November 09, 2016","2016","11","09","08","00","UTC","5.0","41.0","2.0","35.6","81","18.0","11.2","-9999.0","-9999.0","60","ENE","10.0","6.2","1011","29.86","1.3","34.4","-9999","-9999","-9999.00","-9999.00","Mostly Cloudy","mostlycloudy","0","0","0","0","0","0","METAR UKKK 090800Z 06005MPS 9999 SCT013 BKN058 05/02 Q1011 R08/CLRD70 NOSIG"
"10:30 AM EET on November 09, 2016","2016","11","09","10","30","Europe/Kiev","8:30 AM GMT on November 09, 2016","2016","11","09","08","30","UTC","5.0","41.0","2.0","35.6","81","21.6","13.4","-9999.0","-9999.0","70","ENE","-9999.0","-9999.0","1010","29.83","0.9","33.6","-9999","-9999","-9999.00","-9999.00","Clear","clear","0","0","0","0","0","0","METAR UKKK 090830Z 07006MPS CAVOK 05/02 Q1010 R08/CLRD70 NOSIG"
"11:00 AM EET on November 09, 2016","2016","11","09","11","00","Europe/Kiev","9:00 AM GMT on November 09, 2016","2016","11","09","09","00","UTC","5","41","2","36","74","7.2","4.5","","","100","East","20","12","1012","29.88","-999","-999","-9999","-9999","","","Overcast","cloudy","0","0","0","0","0","0","AAXX 09091 33345 42698 81002 10050 20020 39914 40119 57005 885// 333 88646 555 11006"
"11:00 AM EET on November 09, 2016","2016","11","09","11","00","Europe/Kiev","9:00 AM GMT on November 09, 2016","2016","11","09","09","00","UTC","5.0","41.0","2.0","35.6","81","18.0","11.2","-9999.0","-9999.0","80","East","10.0","6.2","1011","29.86","1.3","34.4","-9999","-9999","-9999.00","-9999.00","Overcast","cloudy","0","0","0","0","0","0","METAR UKKK 090900Z 08005MPS 9999 OVC046 05/02 Q1011 R08/CLRD70 NOSIG"
"11:30 AM EET on November 09, 2016","2016","11","09","11","30","Europe/Kiev","9:30 AM GMT on November 09, 2016","2016","11","09","09","30","UTC","6.0","42.8","3.0","37.4","81","21.6","13.4","-9999.0","-9999.0","80","East","10.0","6.2","1010","29.83","2.2","35.9","-9999","-9999","-9999.00","-9999.00","Overcast","cloudy","0","0","0","0","0","0","METAR UKKK 090930Z 08006MPS 9999 FEW014 OVC043 06/03 Q1010 R08/CLRD70 NOSIG"
"12:00 PM EET on November 09, 2016","2016","11","09","12","00","Europe/Kiev","10:00 AM GMT on November 09, 2016","2016","11","09","10","00","UTC","6.0","42.8","3.0","37.4","81","21.6","13.4","-9999.0","-9999.0","80","East","10.0","6.2","1009","29.80","2.2","35.9","-9999","-9999","-9999.00","-9999.00","Overcast","cloudy","0","0","0","0","0","0","METAR UKKK 091000Z 08006MPS 9999 FEW014 OVC040 06/03 Q1009 R08/CLRD70 NOSIG"
"12:30 PM EET on November 09, 2016","2016","11","09","12","30","Europe/Kiev","10:30 AM GMT on November 09, 2016","2016","11","09","10","30","UTC","6.0","42.8","3.0","37.4","81","21.6","13.4","-9999.0","-9999.0","80","East","10.0","6.2","1008","29.77","2.2","35.9","-9999","-9999","-9999.00","-9999.00","Overcast","cloudy","0","0","0","0","0","0","METAR UKKK 091030Z 08006MPS 9999 FEW014 OVC031 06/03 Q1008 R08/CLRD70 NOSIG"
"1:00 PM EET on November 09, 2016","2016","11","09","13","00","Europe/Kiev","11:00 AM GMT on November 09, 2016","2016","11","09","11","00","UTC","6.0","42.8","3.0","37.4","81","21.6","13.4","-9999.0","-9999.0","90","East","10.0","6.2","1007","29.74","2.2","35.9","-9999","-9999","-9999.00","-9999.00","Overcast","cloudy","0","0","0","0","0","0","METAR UKKK 091100Z 09006MPS 9999 FEW013 OVC031 06/03 Q1007 R08/CLRD70 NOSIG"
"1:30 PM EET on November 09, 2016","2016","11","09","13","30","Europe/Kiev","11:30 AM GMT on November 09, 2016","2016","11","09","11","30","UTC","5.0","41.0","3.0","37.4","87","21.6","13.4","-9999.0","-9999.0","90","East","10.0","6.2","1007","29.74","0.9","33.6","-9999","-9999","-9999.00","-9999.00","Overcast","cloudy","0","0","0","0","0","0","METAR UKKK 091130Z 09006MPS 9999 OVC012 05/03 Q1007 R08/CLRD70 NOSIG"
"2:00 PM EET on November 09, 2016","2016","11","09","14","00","Europe/Kiev","12:00 PM GMT on November 09, 2016","2016","11","09","12","00","UTC","6","42","3","37","78","14.4","8.9","","","130","SE","20","12","1008","29.77","-999","-999","-9999","-9999","","","Overcast","cloudy","0","0","0","0","0","0","AAXX 09121 33345 32498 81304 10056 20030 39877 40081 57037 885// 333 88713 555 11006"
"2:00 PM EET on November 09, 2016","2016","11","09","14","00","Europe/Kiev","12:00 PM GMT on November 09, 2016","2016","11","09","12","00","UTC","6.0","42.8","3.0","37.4","81","18.0","11.2","-9999.0","-9999.0","90","East","10.0","6.2","1007","29.74","2.6","36.7","-9999","-9999","-9999.00","-9999.00","Overcast","cloudy","0","0","0","0","0","0","METAR UKKK 091200Z 09005MPS 9999 OVC012 06/03 Q1007 R08/CLRD70 NOSIG"
"2:30 PM EET on November 09, 2016","2016","11","09","14","30","Europe/Kiev","12:30 PM GMT on November 09, 2016","2016","11","09","12","30","UTC","6.0","42.8","3.0","37.4","81","21.6","13.4","-9999.0","-9999.0","90","East","10.0","6.2","1007","29.74","2.2","35.9","-9999","-9999","-9999.00","-9999.00","Overcast","cloudy","0","0","0","0","0","0","METAR UKKK 091230Z 09006MPS 9999 OVC012 06/03 Q1007 R08/CLRD70 NOSIG"
"3:00 PM EET on November 09, 2016","2016","11","09","15","00","Europe/Kiev","1:00 PM GMT on November 09, 2016","2016","11","09","13","00","UTC","6.0","42.8","3.0","37.4","81","21.6","13.4","-9999.0","-9999.0","90","East","10.0","6.2","1006","29.71","2.2","35.9","-9999","-9999","-9999.00","-9999.00","Overcast","cloudy","0","0","0","0","0","0","METAR UKKK 091300Z 09006MPS 9999 OVC011 06/03 Q1006 R08/CLRD70 NOSIG"
"3:30 PM EET on November 09, 2016","2016","11","09","15","30","Europe/Kiev","1:30 PM GMT on November 09, 2016","2016","11","09","13","30","UTC","6.0","42.8","3.0","37.4","81","18.0","11.2","-9999.0","-9999.0","100","East","10.0","6.2","1006","29.71","2.6","36.7","-9999","-9999","-9999.00","-9999.00","Overcast","cloudy","0","0","0","0","0","0","METAR UKKK 091330Z 10005MPS 080V140 9999 OVC010 06/03 Q1006 R08/CLRD70 NOSIG"
"4:00 PM EET on November 09, 2016","2016","11","09","16","00","Europe/Kiev","2:00 PM GMT on November 09, 2016","2016","11","09","14","00","UTC","6.0","42.8","4.0","39.2","87","18.0","11.2","-9999.0","-9999.0","110","ESE","10.0","6.2","1005","29.68","2.6","36.7","-9999","-9999","-9999.00","-9999.00","Light Rain","rain","0","1","0","0","0","0","METAR UKKK 091400Z 11005MPS 070V140 9999 -RA OVC009 06/04 Q1005 R08/CLRD70 NOSIG"
"4:30 PM EET on November 09, 2016","2016","11","09","16","30","Europe/Kiev","2:30 PM GMT on November 09, 2016","2016","11","09","14","30","UTC","5.0","41.0","4.0","39.2","93","18.0","11.2","-9999.0","-9999.0","110","ESE","9.0","5.6","1005","29.68","1.3","34.4","-9999","-9999","-9999.00","-9999.00","Light Rain","rain","0","1","0","0","0","0","METAR UKKK 091430Z 11005MPS 9000 -RA OVC007 05/04 Q1005 R08/CLRD70 NOSIG"
"5:00 PM EET on November 09, 2016","2016","11","09","17","00","Europe/Kiev","3:00 PM GMT on November 09, 2016","2016","11","09","15","00","UTC","5","42","4","40","88","10.8","6.7","","","140","SE","4","2","1006","29.70","-999","-999","-9999","-9999","","","Light Rain","rain","0","1","0","0","0","0","AAXX 09151 33345 41396 81403 10054 20042 39853 40056 57024 76162 885// 333 88707 555 11006"
"5:00 PM EET on November 09, 2016","2016","11","09","17","00","Europe/Kiev","3:00 PM GMT on November 09, 2016","2016","11","09","15","00","UTC","5.0","41.0","4.0","39.2","93","21.6","13.4","-9999.0","-9999.0","110","ESE","9.0","5.6","1004","29.65","0.9","33.6","-9999","-9999","-9999.00","-9999.00","Light Rain","rain","0","1","0","0","0","0","METAR UKKK 091500Z 11006MPS 080V140 9000 -RA OVC006 05/04 Q1004 R08/290058 TEMPO OVC005"
"5:23 PM EET on November 09, 2016","2016","11","09","17","23","Europe/Kiev","3:23 PM GMT on November 09, 2016","2016","11","09","15","23","UTC","5.0","41.0","4.0","39.2","93","21.6","13.4","-9999.0","-9999.0","110","ESE","5.0","3.1","1004","29.65","0.9","33.6","-9999","-9999","-9999.00","-9999.00","Light Rain","rain","0","1","0","0","0","0","SPECI UKKK 091523Z 11006MPS 5000 -RA OVC004 05/04 Q1004 R08/290058 TEMPO 2000 -SHRA BR BKN004 SCT015CB"
"5:30 PM EET on November 09, 2016","2016","11","09","17","30","Europe/Kiev","3:30 PM GMT on November 09, 2016","2016","11","09","15","30","UTC","5.0","41.0","4.0","39.2","93","21.6","13.4","-9999.0","-9999.0","110","ESE","5.0","3.1","1004","29.65","0.9","33.6","-9999","-9999","-9999.00","-9999.00","Light Rain","rain","0","1","0","0","0","0","METAR UKKK 091530Z 11006MPS 080V140 5000 -RA BR OVC004 05/04 Q1004 R08/290058 TEMPO 2000 -SHRA BR BKN003 SCT015CB"
"6:00 PM EET on November 09, 2016","2016","11","09","18","00","Europe/Kiev","4:00 PM GMT on November 09, 2016","2016","11","09","16","00","UTC","5.0","41.0","5.0","41.0","100","21.6","13.4","-9999.0","-9999.0","110","ESE","3.5","2.2","1004","29.65","0.9","33.6","-9999","-9999","-9999.00","-9999.00","Light Rain Showers","rain","0","1","0","0","0","0","METAR UKKK 091600Z 11006MPS 3500 -SHRA BR BKN003 BKN025CB 05/05 Q1004 R08/290255 TEMPO 0400 -SHRA FG BKN002 SCT015CB"
"6:30 PM EET on November 09, 2016","2016","11","09","18","30","Europe/Kiev","4:30 PM GMT on November 09, 2016","2016","11","09","16","30","UTC","5.0","41.0","5.0","41.0","100","18.0","11.2","-9999.0","-9999.0","110","ESE","6.0","3.7","1003","29.62","1.3","34.4","-9999","-9999","-9999.00","-9999.00","Light Rain Showers","rain","0","1","0","0","0","0","METAR UKKK 091630Z 11005MPS 6000 -SHRA BKN003 BKN025CB 05/05 Q1003 R08/290255 TEMPO 2000 -SHRA BR BKN002 SCT015CB"
"7:00 PM EET on November 09, 2016","2016","11","09","19","00","Europe/Kiev","5:00 PM GMT on November 09, 2016","2016","11","09","17","00","UTC","5.0","41.0","5.0","41.0","100","14.4","8.9","-9999.0","-9999.0","110","ESE","4.0","2.5","1003","29.62","1.9","35.4","-9999","-9999","-9999.00","-9999.00","Light Rain","rain","0","1","0","0","0","0","METAR UKKK 091700Z 11004MPS 4000 -RA BR OVC003 05/05 Q1003 R08/290255 TEMPO 2000 -SHRA BR BKN002 SCT015CB"
"7:30 PM EET on November 09, 2016","2016","11","09","19","30","Europe/Kiev","5:30 PM GMT on November 09, 2016","2016","11","09","17","30","UTC","5.0","41.0","5.0","41.0","100","10.8","6.7","-9999.0","-9999.0","110","ESE","2.2","1.4","1003","29.62","2.5","36.5","-9999","-9999","-9999.00","-9999.00","Light Rain","rain","0","1","0","0","0","0","METAR UKKK 091730Z 11003MPS 2200 -RA BR OVC003 05/05 Q1003 R08/290255 TEMPO 0700 -SHRA FG BKN002 SCT015CB"
"8:00 PM EET on November 09, 2016","2016","11","09","20","00","Europe/Kiev","6:00 PM GMT on November 09, 2016","2016","11","09","18","00","UTC","5","41","4","39","91","3.6","2.2","","","130","SE","4","2","1004","29.65","-999","-999","-9999","-9999","","","Light Rain","rain","0","1","0","0","0","0","AAXX 09181 33345 11296 81301 10049 20040 39836 40039 57017 60032 76162 8872/ 333 10058 88704 555 11005"
"8:00 PM EET on November 09, 2016","2016","11","09","20","00","Europe/Kiev","6:00 PM GMT on November 09, 2016","2016","11","09","18","00","UTC","5.0","41.0","5.0","41.0","100","7.2","4.5","-9999.0","-9999.0","110","ESE","-9999.0","-9999.0","1003","29.62","3.4","38.1","-9999","-9999","-9999.00","-9999.00","Light Rain","rain","0","1","0","0","0","0","METAR UKKK 091800Z 11002MPS 070V140 4100 -RA BR OVC003 05/05 Q1003 R08/290255 TEMPO 0700 -SHRA FG BKN002 SCT015CB"
"8:30 PM EET on November 09, 2016","2016","11","09","20","30","Europe/Kiev","6:30 PM GMT on November 09, 2016","2016","11","09","18","30","UTC","5.0","41.0","5.0","41.0","100","10.8","6.7","-9999.0","-9999.0","90","East","6.0","3.7","1003","29.62","2.5","36.5","-9999","-9999","-9999.00","-9999.00","Light Rain","rain","0","1","0","0","0","0","METAR UKKK 091830Z 09003MPS 6000 -RA BKN003 OVC006 05/05 Q1003 R08/290255 TEMPO BKN002"
"9:00 PM EET on November 09, 2016","2016","11","09","21","00","Europe/Kiev","7:00 PM GMT on November 09, 2016","2016","11","09","19","00","UTC","5.0","41.0","5.0","41.0","100","10.8","6.7","-9999.0","-9999.0","90","East","9.0","5.6","1002","29.59","2.5","36.5","-9999","-9999","-9999.00","-9999.00","Light Rain","rain","0","1","0","0","0","0","METAR UKKK 091900Z 09003MPS 9000 -RA BKN003 OVC006 05/05 Q1002 R08/290255 TEMPO BKN002"
"9:30 PM EET on November 09, 2016","2016","11","09","21","30","Europe/Kiev","7:30 PM GMT on November 09, 2016","2016","11","09","19","30","UTC","5.0","41.0","5.0","41.0","100","10.8","6.7","-9999.0","-9999.0","100","East","4.5","2.8","1002","29.59","2.5","36.5","-9999","-9999","-9999.00","-9999.00","Overcast","cloudy","0","0","0","0","0","0","METAR UKKK 091930Z 10003MPS 070V130 4500 BR OVC003 05/05 Q1002 R08/290255 TEMPO BKN002"
"10:00 PM EET on November 09, 2016","2016","11","09","22","00","Europe/Kiev","8:00 PM GMT on November 09, 2016","2016","11","09","20","00","UTC","5.0","41.0","5.0","41.0","100","7.2","4.5","-9999.0","-9999.0","120","ESE","3.0","1.9","1002","29.59","3.4","38.1","-9999","-9999","-9999.00","-9999.00","Overcast","cloudy","0","0","0","0","0","0","METAR UKKK 092000Z 12002MPS 080V160 3000 BR OVC002 05/05 Q1002 R08/290255 TEMPO 1000 BR BKN001"
"10:30 PM EET on November 09, 2016","2016","11","09","22","30","Europe/Kiev","8:30 PM GMT on November 09, 2016","2016","11","09","20","30","UTC","5.0","41.0","5.0","41.0","100","7.2","4.5","-9999.0","-9999.0","120","ESE","1.8","1.1","1002","29.59","3.4","38.1","-9999","-9999","-9999.00","-9999.00","Light Drizzle","rain","0","0","0","0","0","0","METAR UKKK 092030Z 12002MPS 1800 -DZ BR OVC002 05/05 Q1002 R08/290255 TEMPO 1000 BR BKN001"
"10:37 PM EET on November 09, 2016","2016","11","09","22","37","Europe/Kiev","8:37 PM GMT on November 09, 2016","2016","11","09","20","37","UTC","5.0","41.0","5.0","41.0","100","7.2","4.5","-9999.0","-9999.0","120","ESE","1.3","0.8","1002","29.59","3.4","38.1","-9999","-9999","-9999.00","-9999.00","Light Drizzle","rain","0","0","0","0","0","0","SPECI UKKK 092037Z 12002MPS 090V150 1300 R08/1600VP2000U -DZ BR OVC002 05/05 Q1002 R08/290255 TEMPO 0400 FG BKN001"
"11:00 PM EET on November 09, 2016","2016","11","09","23","00","Europe/Kiev","9:00 PM GMT on November 09, 2016","2016","11","09","21","00","UTC","5","41","4","40","95","0.0","0.0","","","","","1","1","1002","29.60","-999","-999","-9999","-9999","","","Light Rain","rain","0","1","0","0","0","0","AAXX 09211 33345 41294 80000 10050 20045 39820 40023 57016 76162 8872/ 333 88704 555 11005"
"11:00 PM EET on November 09, 2016","2016","11","09","23","00","Europe/Kiev","9:00 PM GMT on November 09, 2016","2016","11","09","21","00","UTC","5.0","41.0","5.0","41.0","100","7.2","4.5","-9999.0","-9999.0","110","ESE","1.8","1.1","1001","29.56","3.4","38.1","-9999","-9999","-9999.00","-9999.00","Light Drizzle","rain","0","0","0","0","0","0","METAR UKKK 092100Z 11002MPS 1800 -DZ BR OVC002 05/05 Q1001 R08/290255 TEMPO 0400 FG BKN001"
"11:30 PM EET on November 09, 2016","2016","11","09","23","30","Europe/Kiev","9:30 PM GMT on November 09, 2016","2016","11","09","21","30","UTC","5.0","41.0","5.0","41.0","100","3.6","2.2","-9999.0","-9999.0","0","Variable","1.7","1.1","1001","29.56","-999","-999","-9999","-9999","-9999.00","-9999.00","Light Drizzle","rain","0","0","0","0","0","0","METAR UKKK 092130Z VRB01MPS 1700 -DZ BR OVC002 05/05 Q1001 R08/290255 TEMPO 0400 FG BKN001"
"11:34 PM EET on November 09, 2016","2016","11","09","23","34","Europe/Kiev","9:34 PM GMT on November 09, 2016","2016","11","09","21","34","UTC","5.0","41.0","5.0","41.0","100","3.6","2.2","-9999.0","-9999.0","0","Variable","1.2","0.7","1001","29.56","-999","-999","-9999","-9999","-9999.00","-9999.00","Light Drizzle","rain","0","0","0","0","0","0","SPECI UKKK 092134Z VRB01MPS 1200 R08/P2000U -DZ BR OVC002 05/05 Q1001 R08/290255 TEMPO 0400 FG BKN001"
"11:43 PM EET on November 09, 2016","2016","11","09","23","43","Europe/Kiev","9:43 PM GMT on November 09, 2016","2016","11","09","21","43","UTC","5.0","41.0","5.0","41.0","100","3.6","2.2","-9999.0","-9999.0","0","Variable","-9999.0","-9999.0","1001","29.56","-999","-999","-9999","-9999","-9999.00","-9999.00","Light Drizzle","rain","0","0","0","0","0","0","SPECI UKKK 092143Z VRB01MPS 0750 R08/P2000D -DZ PRFG OVC002 05/05 Q1001 R08/290255 TEMPO 0400 FG BKN001"
"12:00 AM EET on November 10, 2016","2016","11","10","00","00","Europe/Kiev","10:00 PM GMT on November 09, 2016","2016","11","09","22","00","UTC","5.0","41.0","5.0","41.0","100","3.6","2.2","-9999.0","-9999.0","0","Variable","1.3","0.8","1001","29.56","-999","-999","-9999","-9999","-9999.00","-9999.00","Light Drizzle","rain","0","0","0","0","0","0","METAR UKKK 092200Z VRB01MPS 1300 R08/P2000U -DZ BR OVC002 05/05 Q1001 R08/290255 TEMPO 0400 FG BKN001"
"12:30 AM EET on November 10, 2016","2016","11","10","00","30","Europe/Kiev","10:30 PM GMT on November 09, 2016","2016","11","09","22","30","UTC","5.0","41.0","5.0","41.0","100","3.6","2.2","-9999.0","-9999.0","0","Variable","2.3","1.4","1001","29.56","-999","-999","-9999","-9999","-9999.00","-9999.00","Light Drizzle","rain","0","0","0","0","0","0","METAR UKKK 092230Z VRB01MPS 2300 -DZ BR OVC002 05/05 Q1001 R08/290255 TEMPO 0400 FG BKN001"
"1:00 AM EET on November 10, 2016","2016","11","10","01","00","Europe/Kiev","11:00 PM GMT on November 09, 2016","2016","11","09","23","00","UTC","5.0","41.0","5.0","41.0","100","7.2","4.5","-9999.0","-9999.0","240","WSW","-9999.0","-9999.0","1001","29.56","3.4","38.1","-9999","-9999","-9999.00","-9999.00","Light Drizzle","rain","0","0","0","0","0","0","METAR UKKK 092300Z 24002MPS 3100 -DZ BR OVC002 05/05 Q1001 R26/290255 TEMPO 0400 FG BKN001"
"1:30 AM EET on November 10, 2016","2016","11","10","01","30","Europe/Kiev","11:30 PM GMT on November 09, 2016","2016","11","09","23","30","UTC","5.0","41.0","5.0","41.0","100","10.8","6.7","-9999.0","-9999.0","250","WSW","5.0","3.1","1001","29.56","2.5","36.5","-9999","-9999","-9999.00","-9999.00","Overcast","cloudy","0","0","0","0","0","0","METAR UKKK 092330Z 25003MPS 5000 BR OVC004 05/05 Q1001 R26/290255 TEMPO BKN002"
"2:00 AM EET on November 10, 2016","2016","11","10","02","00","Europe/Kiev","12:00 AM GMT on November 10, 2016","2016","11","10","00","00","UTC","5","41","4","40","93","7.2","4.5","","","290","WNW","4","2","1002","29.60","-999","-999","-9999","-9999","","","Mist","hazy","0","0","0","0","0","0","AAXX 10001 33345 /1496 82902 10052 20043 39819 40022 56001 71064 885// 333 88711 555 11005 69991"
"2:00 AM EET on November 10, 2016","2016","11","10","02","00","Europe/Kiev","12:00 AM GMT on November 10, 2016","2016","11","10","00","00","UTC","5.0","41.0","5.0","41.0","100","10.8","6.7","-9999.0","-9999.0","270","West","6.0","3.7","1001","29.56","2.5","36.5","-9999","-9999","-9999.00","-9999.00","Overcast","cloudy","0","0","0","0","0","0","METAR UKKK 100000Z 27003MPS 6000 BKN003 OVC010 05/05 Q1001 R26/290255 TEMPO BKN003"
"2:30 AM EET on November 10, 2016","2016","11","10","02","30","Europe/Kiev","12:30 AM GMT on November 10, 2016","2016","11","10","00","30","UTC","5.0","41.0","5.0","41.0","100","14.4","8.9","-9999.0","-9999.0","270","West","6.0","3.7","1001","29.56","1.9","35.4","-9999","-9999","-9999.00","-9999.00","Overcast","cloudy","0","0","0","0","0","0","METAR UKKK 100030Z 27004MPS 6000 BKN004 OVC012 05/05 Q1001 R26/290255 TEMPO BKN003"
"3:00 AM EET on November 10, 2016","2016","11","10","03","00","Europe/Kiev","1:00 AM GMT on November 10, 2016","2016","11","10","01","00","UTC","5.0","41.0","5.0","41.0","100","18.0","11.2","-9999.0","-9999.0","270","West","9.0","5.6","1002","29.59","1.3","34.4","-9999","-9999","-9999.00","-9999.00","Overcast","cloudy","0","0","0","0","0","0","METAR UKKK 100100Z 27005MPS 9000 BKN006 OVC015 05/05 Q1002 R26/290255 TEMPO BKN003"
"3:30 AM EET on November 10, 2016","2016","11","10","03","30","Europe/Kiev","1:30 AM GMT on November 10, 2016","2016","11","10","01","30","UTC","5.0","41.0","5.0","41.0","100","18.0","11.2","-9999.0","-9999.0","280","West","10.0","6.2","1002","29.59","1.3","34.4","-9999","-9999","-9999.00","-9999.00","Overcast","cloudy","0","0","0","0","0","0","METAR UKKK 100130Z 28005MPS 9999 BKN006 OVC016 05/05 Q1002 R26/290255 TEMPO BKN003"
"4:00 AM EET on November 10, 2016","2016","11","10","04","00","Europe/Kiev","2:00 AM GMT on November 10, 2016","2016","11","10","02","00","UTC","5.0","41.0","5.0","41.0","100","18.0","11.2","-9999.0","-9999.0","280","West","10.0","6.2","1002","29.59","1.3","34.4","-9999","-9999","-9999.00","-9999.00","Overcast","cloudy","0","0","0","0","0","0","METAR UKKK 100200Z 28005MPS 9999 BKN006 OVC016 05/05 Q1002 R26/290255 TEMPO BKN003"
"4:30 AM EET on November 10, 2016","2016","11","10","04","30","Europe/Kiev","2:30 AM GMT on November 10, 2016","2016","11","10","02","30","UTC","5.0","41.0","4.0","39.2","93","18.0","11.2","-9999.0","-9999.0","290","WNW","10.0","6.2","1002","29.59","1.3","34.4","-9999","-9999","-9999.00","-9999.00","Overcast","cloudy","0","0","0","0","0","0","METAR UKKK 100230Z 29005MPS 9999 BKN007 OVC020 05/04 Q1002 R26/290255 NOSIG"
"5:00 AM EET on November 10, 2016","2016","11","10","05","00","Europe/Kiev","3:00 AM GMT on November 10, 2016","2016","11","10","03","00","UTC","5","41","3","38","85","10.8","6.7","","","340","NNW","4","2","1004","29.64","-999","-999","-9999","-9999","","","Mist","hazy","0","0","0","0","0","0","AAXX 10031 33345 41496 63403 10051 20034 39833 40036 53014 71022 86600 333 86711 555 11004"
"5:00 AM EET on November 10, 2016","2016","11","10","05","00","Europe/Kiev","3:00 AM GMT on November 10, 2016","2016","11","10","03","00","UTC","5.0","41.0","4.0","39.2","93","21.6","13.4","-9999.0","-9999.0","300","WNW","10.0","6.2","1002","29.59","0.9","33.6","-9999","-9999","-9999.00","-9999.00","Overcast","cloudy","0","0","0","0","0","0","METAR UKKK 100300Z 30006MPS 9999 BKN008 OVC023 05/04 Q1002 R26/290255 NOSIG"
"5:30 AM EET on November 10, 2016","2016","11","10","05","30","Europe/Kiev","3:30 AM GMT on November 10, 2016","2016","11","10","03","30","UTC","5.0","41.0","4.0","39.2","93","14.4","8.9","-9999.0","-9999.0","310","NW","10.0","6.2","1003","29.62","1.9","35.4","-9999","-9999","-9999.00","-9999.00","Overcast","cloudy","0","0","0","0","0","0","METAR UKKK 100330Z 31004MPS 9999 BKN008 OVC023 05/04 Q1003 R26/290255 NOSIG"
"6:00 AM EET on November 10, 2016","2016","11","10","06","00","Europe/Kiev","4:00 AM GMT on November 10, 2016","2016","11","10","04","00","UTC","5.0","41.0","3.0","37.4","87","21.6","13.4","-9999.0","-9999.0","310","NW","10.0","6.2","1003","29.62","0.9","33.6","-9999","-9999","-9999.00","-9999.00","Overcast","cloudy","0","0","0","0","0","0","METAR UKKK 100400Z 31006MPS 9999 BKN010 OVC023 05/03 Q1003 R26/290255 NOSIG"
"6:30 AM EET on November 10, 2016","2016","11","10","06","30","Europe/Kiev","4:30 AM GMT on November 10, 2016","2016","11","10","04","30","UTC","4.0","39.2","3.0","37.4","93","25.2","15.7","-9999.0","-9999.0","310","NW","10.0","6.2","1004","29.65","-0.8","30.6","-9999","-9999","-9999.00","-9999.00","Overcast","cloudy","0","0","0","0","0","0","METAR UKKK 100430Z 31007MPS 9999 BKN010 OVC023 04/03 Q1004 R26/290157 NOSIG"
"7:00 AM EET on November 10, 2016","2016","11","10","07","00","Europe/Kiev","5:00 AM GMT on November 10, 2016","2016","11","10","05","00","UTC","4.0","39.2","2.0","35.6","87","21.6","13.4","-9999.0","-9999.0","310","NW","10.0","6.2","1004","29.65","-0.4","31.3","-9999","-9999","-9999.00","-9999.00","Overcast","cloudy","0","0","0","0","0","0","METAR UKKK 100500Z 31006MPS 9999 OVC012 04/02 Q1004 R26/290157 NOSIG"
"7:30 AM EET on November 10, 2016","2016","11","10","07","30","Europe/Kiev","5:30 AM GMT on November 10, 2016","2016","11","10","05","30","UTC","3.0","37.4","1.0","33.8","87","21.6","13.4","-9999.0","-9999.0","310","NW","10.0","6.2","1004","29.65","-1.6","29.1","-9999","-9999","-9999.00","-9999.00","Overcast","cloudy","0","0","0","0","0","0","METAR UKKK 100530Z 31006MPS 9999 OVC011 03/01 Q1004 R26/290157 NOSIG"
"8:00 AM EET on November 10, 2016","2016","11","10","08","00","Europe/Kiev","6:00 AM GMT on November 10, 2016","2016","11","10","06","00","UTC","4","38","1","34","81","10.8","6.7","","","0","North","10","6","1005","29.69","-999","-999","-9999","-9999","","","Overcast","cloudy","0","0","0","0","0","0","AAXX 10061 33345 12497 83603 10036 20013 39848 40053 52015 69992 885// 333 20036 88711 555 11004"
"8:00 AM EET on November 10, 2016","2016","11","10","08","00","Europe/Kiev","6:00 AM GMT on November 10, 2016","2016","11","10","06","00","UTC","3.0","37.4","2.0","35.6","93","21.6","13.4","-9999.0","-9999.0","320","NW","10.0","6.2","1004","29.65","-1.6","29.1","-9999","-9999","-9999.00","-9999.00","Overcast","cloudy","0","0","0","0","0","0","METAR UKKK 100600Z 32006MPS 9999 OVC008 03/02 Q1004 R26/290157 NOSIG"
"8:30 AM EET on November 10, 2016","2016","11","10","08","30","Europe/Kiev","6:30 AM GMT on November 10, 2016","2016","11","10","06","30","UTC","3.0","37.4","1.0","33.8","87","25.2","15.7","-9999.0","-9999.0","310","NW","10.0","6.2","1005","29.68","-2.1","28.3","-9999","-9999","-9999.00","-9999.00","Overcast","cloudy","0","0","0","0","0","0","METAR UKKK 100630Z 31007MPS 9999 OVC008 03/01 Q1005 R26/290157 NOSIG"
"9:00 AM EET on November 10, 2016","2016","11","10","09","00","Europe/Kiev","7:00 AM GMT on November 10, 2016","2016","11","10","07","00","UTC","2.0","35.6","1.0","33.8","93","25.2","15.7","-9999.0","-9999.0","310","NW","10.0","6.2","1005","29.68","-3.3","26.0","-9999","-9999","-9999.00","-9999.00","Overcast","cloudy","0","0","0","0","0","0","METAR UKKK 100700Z 31007MPS 9999 OVC007 02/01 Q1005 R26/290157 NOSIG"
"9:30 AM EET on November 10, 2016","2016","11","10","09","30","Europe/Kiev","7:30 AM GMT on November 10, 2016","2016","11","10","07","30","UTC","2.0","35.6","1.0","33.8","93","21.6","13.4","-9999.0","-9999.0","320","NW","10.0","6.2","1006","29.71","-2.9","26.8","-9999","-9999","-9999.00","-9999.00","Overcast","cloudy","0","0","0","0","0","0","METAR UKKK 100730Z 32006MPS 290V350 9999 OVC007 02/01 Q1006 R26/290157 NOSIG"
"10:00 AM EET on November 10, 2016","2016","11","10","10","00","Europe/Kiev","8:00 AM GMT on November 10, 2016","2016","11","10","08","00","UTC","2.0","35.6","0.0","32.0","87","18.0","11.2","-9999.0","-9999.0","310","NW","10.0","6.2","1006","29.71","-2.4","27.7","-9999","-9999","-9999.00","-9999.00","Overcast","cloudy","0","0","0","0","0","0","METAR UKKK 100800Z 31005MPS 9999 OVC008 02/00 Q1006 R26/290157 NOSIG"
"10:30 AM EET on November 10, 2016","2016","11","10","10","30","Europe/Kiev","8:30 AM GMT on November 10, 2016","2016","11","10","08","30","UTC","2.0","35.6","0.0","32.0","87","25.2","15.7","-9999.0","-9999.0","310","NW","10.0","6.2","1006","29.71","-3.3","26.0","-9999","-9999","-9999.00","-9999.00","Overcast","cloudy","0","0","0","0","0","0","METAR UKKK 100830Z 31007MPS 9999 OVC010 02/00 Q1006 R26/190060 NOSIG"
"11:00 AM EET on November 10, 2016","2016","11","10","11","00","Europe/Kiev","9:00 AM GMT on November 10, 2016","2016","11","10","09","00","UTC","2","36","-0","32","78","14.4","8.9","","","0","North","20","12","1007","29.74","-999","-999","-9999","-9999","","","Overcast","cloudy","0","0","0","0","0","0","AAXX 10091 33345 42498 83604 10020 21002 39865 40071 52017 885// 333 88711 555 11003"
"11:00 AM EET on November 10, 2016","2016","11","10","11","00","Europe/Kiev","9:00 AM GMT on November 10, 2016","2016","11","10","09","00","UTC","2.0","35.6","0.0","32.0","87","18.0","11.2","-9999.0","-9999.0","330","NNW","10.0","6.2","1006","29.71","-2.4","27.7","-9999","-9999","-9999.00","-9999.00","Overcast","cloudy","0","0","0","0","0","0","METAR UKKK 100900Z 33005MPS 9999 OVC009 02/00 Q1006 R26/190060 NOSIG"
"11:30 AM EET on November 10, 2016","2016","11","10","11","30","Europe/Kiev","9:30 AM GMT on November 10, 2016","2016","11","10","09","30","UTC","2.0","35.6","0.0","32.0","87","25.2","15.7","-9999.0","-9999.0","320","NW","10.0","6.2","1006","29.71","-3.3","26.0","-9999","-9999","-9999.00","-9999.00","Overcast","cloudy","0","0","0","0","0","0","METAR UKKK 100930Z 32007MPS 9999 OVC009 02/00 Q1006 R26/190060 NOSIG"
"12:00 PM EET on November 10, 2016","2016","11","10","12","00","Europe/Kiev","10:00 AM GMT on November 10, 2016","2016","11","10","10","00","UTC","2.0","35.6","0.0","32.0","87","18.0","11.2","-9999.0","-9999.0","340","NNW","10.0","6.2","1006","29.71","-2.4","27.7","-9999","-9999","-9999.00","-9999.00","Overcast","cloudy","0","0","0","0","0","0","METAR UKKK 101000Z 34005MPS 9999 OVC008 02/00 Q1006 R26/190060 NOSIG"
"12:30 PM EET on November 10, 2016","2016","11","10","12","30","Europe/Kiev","10:30 AM GMT on November 10, 2016","2016","11","10","10","30","UTC","2.0","35.6","-1.0","30.2","81","21.6","13.4","-9999.0","-9999.0","310","NW","10.0","6.2","1006","29.71","-2.9","26.8","-9999","-9999","-9999.00","-9999.00","Overcast","cloudy","0","0","0","0","0","0","METAR UKKK 101030Z 31006MPS 9999 OVC013 02/M01 Q1006 R26/190060 NOSIG"
"1:00 PM EET on November 10, 2016","2016","11","10","13","00","Europe/Kiev","11:00 AM GMT on November 10, 2016","2016","11","10","11","00","UTC","2.0","35.6","0.0","32.0","87","18.0","11.2","-9999.0","-9999.0","320","NW","10.0","6.2","1006","29.71","-2.4","27.7","-9999","-9999","-9999.00","-9999.00","Overcast","cloudy","0","0","0","0","0","0","METAR UKKK 101100Z 32005MPS 9999 OVC014 02/M00 Q1006 R26/190060 NOSIG"
"1:30 PM EET on November 10, 2016","2016","11","10","13","30","Europe/Kiev","11:30 AM GMT on November 10, 2016","2016","11","10","11","30","UTC","2.0","35.6","-1.0","30.2","81","18.0","11.2","-9999.0","-9999.0","330","NNW","10.0","6.2","1006","29.71","-2.4","27.7","-9999","-9999","-9999.00","-9999.00","Overcast","cloudy","0","0","0","0","0","0","METAR UKKK 101130Z 33005MPS 9999 OVC013 02/M01 Q1006 R26/CLRD70 NOSIG"
"2:00 PM EET on November 10, 2016","2016","11","10","14","00","Europe/Kiev","12:00 PM GMT on November 10, 2016","2016","11","10","12","00","UTC","2","36","-1","30","73","10.8","6.7","","","0","North","20","12","1007","29.75","-999","-999","-9999","-9999","","","Overcast","cloudy","0","0","0","0","0","0","AAXX 10121 33345 32498 83603 10021 21009 39866 40072 51001 885// 333 88714 555 11003"
"2:00 PM EET on November 10, 2016","2016","11","10","14","00","Europe/Kiev","12:00 PM GMT on November 10, 2016","2016","11","10","12","00","UTC","2.0","35.6","-1.0","30.2","81","21.6","13.4","-9999.0","-9999.0","330","NNW","10.0","6.2","1006","29.71","-2.9","26.8","-9999","-9999","-9999.00","-9999.00","Overcast","cloudy","0","0","0","0","0","0","METAR UKKK 101200Z 33006MPS 9999 OVC014 02/M01 Q1006 R26/CLRD70 NOSIG"
"2:30 PM EET on November 10, 2016","2016","11","10","14","30","Europe/Kiev","12:30 PM GMT on November 10, 2016","2016","11","10","12","30","UTC","2.0","35.6","-1.0","30.2","81","21.6","13.4","-9999.0","-9999.0","330","NNW","10.0","6.2","1006","29.71","-2.9","26.8","-9999","-9999","-9999.00","-9999.00","Overcast","cloudy","0","0","0","0","0","0","METAR UKKK 101230Z 33006MPS 9999 OVC013 02/M01 Q1006 R26/CLRD70 NOSIG"
"3:00 PM EET on November 10, 2016","2016","11","10","15","00","Europe/Kiev","1:00 PM GMT on November 10, 2016","2016","11","10","13","00","UTC","2.0","35.6","-1.0","30.2","81","18.0","11.2","-9999.0","-9999.0","330","NNW","10.0","6.2","1006","29.71","-2.4","27.7","-9999","-9999","-9999.00","-9999.00","Overcast","cloudy","0","0","0","0","0","0","METAR UKKK 101300Z 33005MPS 9999 OVC014 02/M01 Q1006 R26/CLRD70 NOSIG"
"3:30 PM EET on November 10, 2016","2016","11","10","15","30","Europe/Kiev","1:30 PM GMT on November 10, 2016","2016","11","10","13","30","UTC","2.0","35.6","-1.0","30.2","81","21.6","13.4","-9999.0","-9999.0","330","NNW","10.0","6.2","1007","29.74","-2.9","26.8","-9999","-9999","-9999.00","-9999.00","Overcast","cloudy","0","0","0","0","0","0","METAR UKKK 101330Z 33006MPS 9999 OVC014 02/M01 Q1007 R26/CLRD70 NOSIG"
"4:00 PM EET on November 10, 2016","2016","11","10","16","00","Europe/Kiev","2:00 PM GMT on November 10, 2016","2016","11","10","14","00","UTC","2.0","35.6","-1.0","30.2","81","18.0","11.2","-9999.0","-9999.0","340","NNW","10.0","6.2","1007","29.74","-2.4","27.7","-9999","-9999","-9999.00","-9999.00","Overcast","cloudy","0","0","0","0","0","0","METAR UKKK 101400Z 34005MPS 9999 OVC014 02/M01 Q1007 R26/CLRD70 NOSIG"
"4:30 PM EET on November 10, 2016","2016","11","10","16","30","Europe/Kiev","2:30 PM GMT on November 10, 2016","2016","11","10","14","30","UTC","2.0","35.6","-1.0","30.2","81","21.6","13.4","-9999.0","-9999.0","320","NW","10.0","6.2","1007","29.74","-2.9","26.8","-9999","-9999","-9999.00","-9999.00","Overcast","cloudy","0","0","0","0","0","0","METAR UKKK 101430Z 32006MPS 9999 OVC015 02/M01 Q1007 R26/CLRD70 NOSIG"
"5:00 PM EET on November 10, 2016","2016","11","10","17","00","Europe/Kiev","3:00 PM GMT on November 10, 2016","2016","11","10","15","00","UTC","2","35","-2","29","71","14.4","8.9","","","0","North","20","12","1008","29.78","-999","-999","-9999","-9999","","","Overcast","cloudy","0","0","0","0","0","0","AAXX 10151 33345 42598 83604 10018 21016 39875 40082 53009 8657/ 555 11002"
"5:00 PM EET on November 10, 2016","2016","11","10","17","00","Europe/Kiev","3:00 PM GMT on November 10, 2016","2016","11","10","15","00","UTC","2.0","35.6","-1.0","30.2","81","18.0","11.2","-9999.0","-9999.0","330","NNW","10.0","6.2","1007","29.74","-2.4","27.7","-9999","-9999","-9999.00","-9999.00","Overcast","cloudy","0","0","0","0","0","0","METAR UKKK 101500Z 33005MPS 300V360 9999 OVC016 02/M01 Q1007 R26/CLRD70 NOSIG"
"5:30 PM EET on November 10, 2016","2016","11","10","17","30","Europe/Kiev","3:30 PM GMT on November 10, 2016","2016","11","10","15","30","UTC","2.0","35.6","-1.0","30.2","81","21.6","13.4","-9999.0","-9999.0","320","NW","10.0","6.2","1007","29.74","-2.9","26.8","-9999","-9999","-9999.00","-9999.00","Overcast","cloudy","0","0","0","0","0","0","METAR UKKK 101530Z 32006MPS 300V360 9999 OVC016 02/M01 Q1007 R26/CLRD70 NOSIG"
"6:00 PM EET on November 10, 2016","2016","11","10","18","00","Europe/Kiev","4:00 PM GMT on November 10, 2016","2016","11","10","16","00","UTC","2.0","35.6","-1.0","30.2","81","21.6","13.4","-9999.0","-9999.0","320","NW","10.0","6.2","1007","29.74","-2.9","26.8","-9999","-9999","-9999.00","-9999.00","Overcast","cloudy","0","0","0","0","0","0","METAR UKKK 101600Z 32006MPS 9999 OVC015 02/M01 Q1007 R26/CLRD70 NOSIG"
"6:30 PM EET on November 10, 2016","2016","11","10","18","30","Europe/Kiev","4:30 PM GMT on November 10, 2016","2016","11","10","16","30","UTC","2.0","35.6","-2.0","28.4","75","21.6","13.4","-9999.0","-9999.0","310","NW","10.0","6.2","1008","29.77","-2.9","26.8","-9999","-9999","-9999.00","-9999.00","Overcast","cloudy","0","0","0","0","0","0","METAR UKKK 101630Z 31006MPS 9999 OVC015 02/M02 Q1008 R26/CLRD70 NOSIG"
"7:00 PM EET on November 10, 2016","2016","11","10","19","00","Europe/Kiev","5:00 PM GMT on November 10, 2016","2016","11","10","17","00","UTC","1.0","33.8","-2.0","28.4","81","25.2","15.7","-9999.0","-9999.0","310","NW","10.0","6.2","1008","29.77","-4.6","23.7","-9999","-9999","-9999.00","-9999.00","Overcast","cloudy","0","0","0","0","0","0","METAR UKKK 101700Z 31007MPS 9999 OVC016 01/M02 Q1008 R26/CLRD70 NOSIG"
"7:30 PM EET on November 10, 2016","2016","11","10","19","30","Europe/Kiev","5:30 PM GMT on November 10, 2016","2016","11","10","17","30","UTC","1.0","33.8","-2.0","28.4","81","21.6","13.4","-9999.0","-9999.0","310","NW","10.0","6.2","1008","29.77","-4.2","24.5","-9999","-9999","-9999.00","-9999.00","Overcast","cloudy","0","0","0","0","0","0","METAR UKKK 101730Z 31006MPS 9999 OVC016 01/M02 Q1008 R26/CLRD70 NOSIG"
"8:00 PM EET on November 10, 2016","2016","11","10","20","00","Europe/Kiev","6:00 PM GMT on November 10, 2016","2016","11","10","18","00","UTC","1","35","-2","28","68","14.4","8.9","","","340","NNW","20","12","1010","29.81","-999","-999","-9999","-9999","","","Overcast","cloudy","0","0","0","0","0","0","AAXX 10181 33345 32598 83404 10014 21021 39888 40095 52013 8652/ 333 10036 555 11001"
"8:00 PM EET on November 10, 2016","2016","11","10","20","00","Europe/Kiev","6:00 PM GMT on November 10, 2016","2016","11","10","18","00","UTC","1.0","33.8","-2.0","28.4","81","21.6","13.4","-9999.0","-9999.0","310","NW","10.0","6.2","1008","29.77","-4.2","24.5","-9999","-9999","-9999.00","-9999.00","Overcast","cloudy","0","0","0","0","0","0","METAR UKKK 101800Z 31006MPS 9999 OVC016 01/M02 Q1008 R26/CLRD70 NOSIG"
"8:30 PM EET on November 10, 2016","2016","11","10","20","30","Europe/Kiev","6:30 PM GMT on November 10, 2016","2016","11","10","18","30","UTC","1.0","33.8","-2.0","28.4","81","18.0","11.2","-9999.0","-9999.0","310","NW","10.0","6.2","1009","29.80","-3.7","25.4","-9999","-9999","-9999.00","-9999.00","Overcast","cloudy","0","0","0","0","0","0","METAR UKKK 101830Z 31005MPS 9999 OVC015 01/M02 Q1009 R26/CLRD70 NOSIG"
"9:00 PM EET on November 10, 2016","2016","11","10","21","00","Europe/Kiev","7:00 PM GMT on November 10, 2016","2016","11","10","19","00","UTC","1.0","33.8","-2.0","28.4","81","21.6","13.4","-9999.0","-9999.0","300","WNW","10.0","6.2","1009","29.80","-4.2","24.5","-9999","-9999","-9999.00","-9999.00","Overcast","cloudy","0","0","0","0","0","0","METAR UKKK 101900Z 30006MPS 9999 OVC015 01/M02 Q1009 R26/CLRD70 NOSIG"
"9:30 PM EET on November 10, 2016","2016","11","10","21","30","Europe/Kiev","7:30 PM GMT on November 10, 2016","2016","11","10","19","30","UTC","1.0","33.8","-2.0","28.4","81","21.6","13.4","-9999.0","-9999.0","300","WNW","10.0","6.2","1009","29.80","-4.2","24.5","-9999","-9999","-9999.00","-9999.00","Overcast","cloudy","0","0","0","0","0","0","METAR UKKK 101930Z 30006MPS 9999 OVC016 01/M02 Q1009 R26/CLRD70 NOSIG"
"10:00 PM EET on November 10, 2016","2016","11","10","22","00","Europe/Kiev","8:00 PM GMT on November 10, 2016","2016","11","10","20","00","UTC","1.0","33.8","-2.0","28.4","81","21.6","13.4","-9999.0","-9999.0","300","WNW","10.0","6.2","1009","29.80","-4.2","24.5","-9999","-9999","-9999.00","-9999.00","Overcast","cloudy","0","0","0","0","0","0","METAR UKKK 102000Z 30006MPS 9999 OVC015 01/M02 Q1009 R26/CLRD70 NOSIG"
"10:30 PM EET on November 10, 2016","2016","11","10","22","30","Europe/Kiev","8:30 PM GMT on November 10, 2016","2016","11","10","20","30","UTC","1.0","33.8","-2.0","28.4","81","21.6","13.4","-9999.0","-9999.0","300","WNW","10.0","6.2","1009","29.80","-4.2","24.5","-9999","-9999","-9999.00","-9999.00","Mostly Cloudy","mostlycloudy","0","0","0","0","0","0","METAR UKKK 102030Z 30006MPS 9999 SCT015 BKN025 01/M02 Q1009 R26/CLRD70 NOSIG"
"11:00 PM EET on November 10, 2016","2016","11","10","23","00","Europe/Kiev","9:00 PM GMT on November 10, 2016","2016","11","10","21","00","UTC","1","34","-2","29","73","10.8","6.7","","","320","NW","20","12","1010","29.84","-999","-999","-9999","-9999","","","Mostly Cloudy","mostlycloudy","0","0","0","0","0","0","AAXX 10211 33345 42498 73203 10010 21019 39896 40104 52008 87900 333 87918 555 11001"
"11:00 PM EET on November 10, 2016","2016","11","10","23","00","Europe/Kiev","9:00 PM GMT on November 10, 2016","2016","11","10","21","00","UTC","1.0","33.8","-2.0","28.4","81","18.0","11.2","-9999.0","-9999.0","300","WNW","10.0","6.2","1009","29.80","-3.7","25.4","-9999","-9999","-9999.00","-9999.00","Mostly Cloudy","mostlycloudy","0","0","0","0","0","0","METAR UKKK 102100Z 30005MPS 9999 SCT015 BKN025 01/M02 Q1009 R26/CLRD70 NOSIG"
"11:30 PM EET on November 10, 2016","2016","11","10","23","30","Europe/Kiev","9:30 PM GMT on November 10, 2016","2016","11","10","21","30","UTC","1.0","33.8","-2.0","28.4","81","18.0","11.2","-9999.0","-9999.0","290","WNW","10.0","6.2","1009","29.80","-3.7","25.4","-9999","-9999","-9999.00","-9999.00","Mostly Cloudy","mostlycloudy","0","0","0","0","0","0","METAR UKKK 102130Z 29005MPS 9999 SCT015 BKN025 01/M02 Q1009 R26/CLRD70 NOSIG"
"12:00 AM EET on November 11, 2016","2016","11","11","00","00","Europe/Kiev","10:00 PM GMT on November 10, 2016","2016","11","10","22","00","UTC","1.0","33.8","-2.0","28.4","81","21.6","13.4","-9999.0","-9999.0","280","West","10.0","6.2","1010","29.83","-4.2","24.5","-9999","-9999","-9999.00","-9999.00","Overcast","cloudy","0","0","0","0","0","0","METAR UKKK 102200Z 28006MPS 9999 OVC014 01/M02 Q1010 R26/CLRD70 NOSIG"
"12:30 AM EET on November 11, 2016","2016","11","11","00","30","Europe/Kiev","10:30 PM GMT on November 10, 2016","2016","11","10","22","30","UTC","1.0","33.8","-2.0","28.4","81","21.6","13.4","-9999.0","-9999.0","270","West","10.0","6.2","1010","29.83","-4.2","24.5","-9999","-9999","-9999.00","-9999.00","Mostly Cloudy","mostlycloudy","0","0","0","0","0","0","METAR UKKK 102230Z 27006MPS 9999 SCT014 BKN024 01/M02 Q1010 R26/CLRD70 NOSIG"
"1:00 AM EET on November 11, 2016","2016","11","11","01","00","Europe/Kiev","11:00 PM GMT on November 10, 2016","2016","11","10","23","00","UTC","1.0","33.8","-2.0","28.4","81","18.0","11.2","-9999.0","-9999.0","280","West","10.0","6.2","1010","29.83","-3.7","25.4","-9999","-9999","-9999.00","-9999.00","Mostly Cloudy","mostlycloudy","0","0","0","0","0","0","METAR UKKK 102300Z 28005MPS 9999 SCT015 BKN023 01/M02 Q1010 R26/CLRD70 NOSIG"
"1:30 AM EET on November 11, 2016","2016","11","11","01","30","Europe/Kiev","11:30 PM GMT on November 10, 2016","2016","11","10","23","30","UTC","0.0","32.0","-1.0","30.2","93","21.6","13.4","-9999.0","-9999.0","280","West","10.0","6.2","1010","29.83","-5.4","22.2","-9999","-9999","-9999.00","-9999.00","Mostly Cloudy","mostlycloudy","0","0","0","0","0","0","METAR UKKK 102330Z 28006MPS 9999 SCT011 BKN024 00/M01 Q1010 R26/CLRD70 NOSIG"
"2:00 AM EET on November 11, 2016","2016","11","11","02","00","Europe/Kiev","12:00 AM GMT on November 11, 2016","2016","11","11","00","00","UTC","1","33","-1","29","82","10.8","6.7","","","300","WNW","10","6","1012","29.88","-999","-999","-9999","-9999","","","Overcast","cloudy","0","0","0","0","0","0","AAXX 11001 33345 32597 83003 10006 21014 39911 40119 52015 889// 555 11001"
"2:00 AM EET on November 11, 2016","2016","11","11","02","00","Europe/Kiev","12:00 AM GMT on November 11, 2016","2016","11","11","00","00","UTC","0.0","32.0","-2.0","28.4","87","18.0","11.2","-9999.0","-9999.0","280","West","10.0","6.2","1011","29.86","-4.9","23.2","-9999","-9999","-9999.00","-9999.00","Mostly Cloudy","mostlycloudy","0","0","0","0","0","0","METAR UKKK 110000Z 28005MPS 9999 SCT013 BKN024 00/M02 Q1011 R26/CLRD70 NOSIG"
"2:30 AM EET on November 11, 2016","2016","11","11","02","30","Europe/Kiev","12:30 AM GMT on November 11, 2016","2016","11","11","00","30","UTC","1.0","33.8","-2.0","28.4","81","18.0","11.2","-9999.0","-9999.0","280","West","9.0","5.6","1011","29.86","-3.7","25.4","-9999","-9999","-9999.00","-9999.00","Mostly Cloudy","mostlycloudy","0","0","0","0","0","0","METAR UKKK 110030Z 28005MPS 9000 SCT014 BKN025 01/M02 Q1011 R26/CLRD70 NOSIG"
"3:00 AM EET on November 11, 2016","2016","11","11","03","00","Europe/Kiev","1:00 AM GMT on November 11, 2016","2016","11","11","01","00","UTC","0.0","32.0","-2.0","28.4","87","21.6","13.4","-9999.0","-9999.0","280","West","10.0","6.2","1011","29.86","-5.4","22.2","-9999","-9999","-9999.00","-9999.00","Overcast","cloudy","0","0","0","0","0","0","METAR UKKK 110100Z 28006MPS 9999 OVC021 00/M02 Q1011 R26/CLRD70 NOSIG"
"3:30 AM EET on November 11, 2016","2016","11","11","03","30","Europe/Kiev","1:30 AM GMT on November 11, 2016","2016","11","11","01","30","UTC","0.0","32.0","-2.0","28.4","87","18.0","11.2","-9999.0","-9999.0","280","West","10.0","6.2","1011","29.86","-4.9","23.2","-9999","-9999","-9999.00","-9999.00","Overcast","cloudy","0","0","0","0","0","0","METAR UKKK 110130Z 28005MPS 9999 OVC014 00/M02 Q1011 R26/CLRD70 NOSIG"
"4:00 AM EET on November 11, 2016","2016","11","11","04","00","Europe/Kiev","2:00 AM GMT on November 11, 2016","2016","11","11","02","00","UTC","0.0","32.0","-2.0","28.4","87","14.4","8.9","-9999.0","-9999.0","290","WNW","10.0","6.2","1011","29.86","-4.3","24.3","-9999","-9999","-9999.00","-9999.00","Overcast","cloudy","0","0","0","0","0","0","METAR UKKK 110200Z 29004MPS 9999 OVC014 00/M02 Q1011 R26/CLRD70 NOSIG"
"4:30 AM EET on November 11, 2016","2016","11","11","04","30","Europe/Kiev","2:30 AM GMT on November 11, 2016","2016","11","11","02","30","UTC","0.0","32.0","-2.0","28.4","87","18.0","11.2","-9999.0","-9999.0","280","West","8.0","5.0","1012","29.89","-4.9","23.2","-9999","-9999","-9999.00","-9999.00","Light Snow","snow","0","0","1","0","0","0","METAR UKKK 110230Z 28005MPS 8000 -SN OVC015 00/M02 Q1012 R26/CLRD70 NOSIG"
"5:00 AM EET on November 11, 2016","2016","11","11","05","00","Europe/Kiev","3:00 AM GMT on November 11, 2016","2016","11","11","03","00","UTC","0","33","-2","29","80","14.4","8.9","","","320","NW","10","6","1013","29.92","-999","-999","-9999","-9999","","","Light Snow Showers","snow","0","0","1","0","0","0","AAXX 11031 33345 41497 83204 10004 21016 39923 40132 52012 72622 889// 555 11000"
"5:00 AM EET on November 11, 2016","2016","11","11","05","00","Europe/Kiev","3:00 AM GMT on November 11, 2016","2016","11","11","03","00","UTC","0.0","32.0","-2.0","28.4","87","18.0","11.2","-9999.0","-9999.0","290","WNW","9.0","5.6","1012","29.89","-4.9","23.2","-9999","-9999","-9999.00","-9999.00","Light Snow","snow","0","0","1","0","0","0","METAR UKKK 110300Z 29005MPS 9000 -SN OVC013 00/M02 Q1012 R26/290058 NOSIG"
"5:30 AM EET on November 11, 2016","2016","11","11","05","30","Europe/Kiev","3:30 AM GMT on November 11, 2016","2016","11","11","03","30","UTC","0.0","32.0","-2.0","28.4","87","18.0","11.2","-9999.0","-9999.0","290","WNW","10.0","6.2","1012","29.89","-4.9","23.2","-9999","-9999","-9999.00","-9999.00","Overcast","cloudy","0","0","0","0","0","0","METAR UKKK 110330Z 29005MPS 9999 OVC020 00/M02 Q1012 R26/290058 NOSIG"
"6:00 AM EET on November 11, 2016","2016","11","11","06","00","Europe/Kiev","4:00 AM GMT on November 11, 2016","2016","11","11","04","00","UTC","0.0","32.0","-2.0","28.4","87","18.0","11.2","-9999.0","-9999.0","300","WNW","9.0","5.6","1012","29.89","-4.9","23.2","-9999","-9999","-9999.00","-9999.00","Light Snow","snow","0","0","1","0","0","0","METAR UKKK 110400Z 30005MPS 9000 -SN OVC013 00/M02 Q1012 R26/290058 NOSIG"
"6:30 AM EET on November 11, 2016","2016","11","11","06","30","Europe/Kiev","4:30 AM GMT on November 11, 2016","2016","11","11","04","30","UTC","0.0","32.0","-2.0","28.4","87","18.0","11.2","-9999.0","-9999.0","300","WNW","10.0","6.2","1012","29.89","-4.9","23.2","-9999","-9999","-9999.00","-9999.00","Overcast","cloudy","0","0","0","0","0","0","METAR UKKK 110430Z 30005MPS 9999 OVC020 00/M02 Q1012 R26/290058 NOSIG"
"7:00 AM EET on November 11, 2016","2016","11","11","07","00","Europe/Kiev","5:00 AM GMT on November 11, 2016","2016","11","11","05","00","UTC","0.0","32.0","-2.0","28.4","87","18.0","11.2","-9999.0","-9999.0","290","WNW","10.0","6.2","1013","29.92","-4.9","23.2","-9999","-9999","-9999.00","-9999.00","Overcast","cloudy","0","0","0","0","0","0","METAR UKKK 110500Z 29005MPS 9999 OVC020 00/M02 Q1013 R26/290058 NOSIG"
"7:30 AM EET on November 11, 2016","2016","11","11","07","30","Europe/Kiev","5:30 AM GMT on November 11, 2016","2016","11","11","05","30","UTC","0.0","32.0","-3.0","26.6","80","18.0","11.2","-9999.0","-9999.0","300","WNW","10.0","6.2","1013","29.92","-4.9","23.2","-9999","-9999","-9999.00","-9999.00","Overcast","cloudy","0","0","0","0","0","0","METAR UKKK 110530Z 30005MPS 9999 OVC016 00/M03 Q1013 R26/190060 NOSIG"
"8:00 AM EET on November 11, 2016","2016","11","11","08","00","Europe/Kiev","6:00 AM GMT on November 11, 2016","2016","11","11","06","00","UTC","0","33","-3","27","69","14.4","8.9","","","320","NW","20","12","1015","29.97","-999","-999","-9999","-9999","","","Partly Cloudy","partlycloudy","0","0","0","0","0","0","AAXX 11061 33345 11498 83204 10003 21030 39938 40147 52015 69902 70282 885// 333 20001 88717 555 11000"
"8:00 AM EET on November 11, 2016","2016","11","11","08","00","Europe/Kiev","6:00 AM GMT on November 11, 2016","2016","11","11","06","00","UTC","0.0","32.0","-3.0","26.6","80","14.4","8.9","-9999.0","-9999.0","280","West","10.0","6.2","1013","29.92","-4.3","24.3","-9999","-9999","-9999.00","-9999.00","Overcast","cloudy","0","0","0","0","0","0","METAR UKKK 110600Z 28004MPS 9999 OVC016 00/M03 Q1013 R26/190060 NOSIG"
"8:30 AM EET on November 11, 2016","2016","11","11","08","30","Europe/Kiev","6:30 AM GMT on November 11, 2016","2016","11","11","06","30","UTC","0.0","32.0","-3.0","26.6","80","21.6","13.4","-9999.0","-9999.0","290","WNW","10.0","6.2","1014","29.95","-5.4","22.2","-9999","-9999","-9999.00","-9999.00","Light Snow","snow","0","0","1","0","0","0","METAR UKKK 110630Z 29006MPS 9999 -SN OVC014 00/M03 Q1014 R26/190060 NOSIG"
"9:00 AM EET on November 11, 2016","2016","11","11","09","00","Europe/Kiev","7:00 AM GMT on November 11, 2016","2016","11","11","07","00","UTC","0.0","32.0","-3.0","26.6","80","21.6","13.4","-9999.0","-9999.0","300","WNW","10.0","6.2","1014","29.95","-5.4","22.2","-9999","-9999","-9999.00","-9999.00","Light Snow","snow","0","0","1","0","0","0","METAR UKKK 110700Z 30006MPS 9999 -SN OVC016 00/M03 Q1014 R26/CLRD70 NOSIG"
"9:30 AM EET on November 11, 2016","2016","11","11","09","30","Europe/Kiev","7:30 AM GMT on November 11, 2016","2016","11","11","07","30","UTC","0.0","32.0","-2.0","28.4","87","21.6","13.4","-9999.0","-9999.0","280","West","10.0","6.2","1014","29.95","-5.4","22.2","-9999","-9999","-9999.00","-9999.00","Overcast","cloudy","0","0","0","0","0","0","METAR UKKK 110730Z 28006MPS 9999 OVC013 00/M02 Q1014 R26/CLRD70 NOSIG"
"10:00 AM EET on November 11, 2016","2016","11","11","10","00","Europe/Kiev","8:00 AM GMT on November 11, 2016","2016","11","11","08","00","UTC","1.0","33.8","-2.0","28.4","81","18.0","11.2","-9999.0","-9999.0","280","West","10.0","6.2","1015","29.98","-3.7","25.4","-9999","-9999","-9999.00","-9999.00","Overcast","cloudy","0","0","0","0","0","0","METAR UKKK 110800Z 28005MPS 9999 OVC016 01/M02 Q1015 R26/CLRD70 NOSIG"
"10:30 AM EET on November 11, 2016","2016","11","11","10","30","Europe/Kiev","8:30 AM GMT on November 11, 2016","2016","11","11","08","30","UTC","1.0","33.8","-2.0","28.4","81","18.0","11.2","-9999.0","-9999.0","280","West","10.0","6.2","1015","29.98","-3.7","25.4","-9999","-9999","-9999.00","-9999.00","Overcast","cloudy","0","0","0","0","0","0","METAR UKKK 110830Z 28005MPS 9999 OVC014 01/M02 Q1015 R26/CLRD70 NOSIG"
"11:00 AM EET on November 11, 2016","2016","11","11","11","00","Europe/Kiev","9:00 AM GMT on November 11, 2016","2016","11","11","09","00","UTC","1","33","-2","28","75","14.4","8.9","","","320","NW","20","12","1016","30.02","-999","-999","-9999","-9999","","","Overcast","cloudy","0","0","0","0","0","0","AAXX 11091 33345 42498 83204 10007 21022 39955 40164 52017 886// 333 88714 555 11001"
"11:00 AM EET on November 11, 2016","2016","11","11","11","00","Europe/Kiev","9:00 AM GMT on November 11, 2016","2016","11","11","09","00","UTC","1.0","33.8","-2.0","28.4","81","18.0","11.2","-9999.0","-9999.0","280","West","10.0","6.2","1015","29.98","-3.7","25.4","-9999","-9999","-9999.00","-9999.00","Overcast","cloudy","0","0","0","0","0","0","METAR UKKK 110900Z 28005MPS 9999 OVC012 01/M02 Q1015 R26/CLRD70 NOSIG"
"11:30 AM EET on November 11, 2016","2016","11","11","11","30","Europe/Kiev","9:30 AM GMT on November 11, 2016","2016","11","11","09","30","UTC","1.0","33.8","-2.0","28.4","81","18.0","11.2","-9999.0","-9999.0","290","WNW","10.0","6.2","1015","29.98","-3.7","25.4","-9999","-9999","-9999.00","-9999.00","Overcast","cloudy","0","0","0","0","0","0","METAR UKKK 110930Z 29005MPS 9999 OVC011 01/M02 Q1015 R26/CLRD70 NOSIG"
"12:00 PM EET on November 11, 2016","2016","11","11","12","00","Europe/Kiev","10:00 AM GMT on November 11, 2016","2016","11","11","10","00","UTC","1.0","33.8","-2.0","28.4","81","14.4","8.9","-9999.0","-9999.0","290","WNW","10.0","6.2","1015","29.98","-3.0","26.5","-9999","-9999","-9999.00","-9999.00","Overcast","cloudy","0","0","0","0","0","0","METAR UKKK 111000Z 29004MPS 9999 OVC013 01/M02 Q1015 R26/CLRD70 NOSIG"
"12:30 PM EET on November 11, 2016","2016","11","11","12","30","Europe/Kiev","10:30 AM GMT on November 11, 2016","2016","11","11","10","30","UTC","1.0","33.8","-2.0","28.4","81","21.6","13.4","-9999.0","-9999.0","280","West","10.0","6.2","1015","29.98","-4.2","24.5","-9999","-9999","-9999.00","-9999.00","Overcast","cloudy","0","0","0","0","0","0","METAR UKKK 111030Z 28006MPS 9999 OVC014 01/M02 Q1015 R26/CLRD70 NOSIG"
"1:00 PM EET on November 11, 2016","2016","11","11","13","00","Europe/Kiev","11:00 AM GMT on November 11, 2016","2016","11","11","11","00","UTC","1.0","33.8","-2.0","28.4","81","21.6","13.4","-9999.0","-9999.0","280","West","10.0","6.2","1015","29.98","-4.2","24.5","-9999","-9999","-9999.00","-9999.00","Overcast","cloudy","0","0","0","0","0","0","METAR UKKK 111100Z 28006MPS 9999 OVC015 01/M02 Q1015 R26/CLRD70 NOSIG"
"1:30 PM EET on November 11, 2016","2016","11","11","13","30","Europe/Kiev","11:30 AM GMT on November 11, 2016","2016","11","11","11","30","UTC","2.0","35.6","-2.0","28.4","75","18.0","11.2","-9999.0","-9999.0","280","West","10.0","6.2","1016","30.01","-2.4","27.7","-9999","-9999","-9999.00","-9999.00","Overcast","cloudy","0","0","0","0","0","0","METAR UKKK 111130Z 28005MPS 9999 OVC017 02/M02 Q1016 R26/CLRD70 NOSIG"
"2:00 PM EET on November 11, 2016","2016","11","11","14","00","Europe/Kiev","12:00 PM GMT on November 11, 2016","2016","11","11","12","00","UTC","2","35","-2","29","69","10.8","6.7","","","300","WNW","20","12","1017","30.04","-999","-999","-9999","-9999","","","Overcast","cloudy","0","0","0","0","0","0","AAXX 11121 33345 32598 83003 10018 21019 39962 40171 52007 8651/ 333 86620 555 11003"
"2:00 PM EET on November 11, 2016","2016","11","11","14","00","Europe/Kiev","12:00 PM GMT on November 11, 2016","2016","11","11","12","00","UTC","2.0","35.6","-2.0","28.4","75","21.6","13.4","-9999.0","-9999.0","270","West","10.0","6.2","1016","30.01","-2.9","26.8","-9999","-9999","-9999.00","-9999.00","Overcast","cloudy","0","0","0","0","0","0","METAR UKKK 111200Z 27006MPS 9999 OVC018 02/M02 Q1016 R26/CLRD70 NOSIG"
"2:30 PM EET on November 11, 2016","2016","11","11","14","30","Europe/Kiev","12:30 PM GMT on November 11, 2016","2016","11","11","12","30","UTC","2.0","35.6","-2.0","28.4","75","18.0","11.2","-9999.0","-9999.0","280","West","10.0","6.2","1016","30.01","-2.4","27.7","-9999","-9999","-9999.00","-9999.00","Overcast","cloudy","0","0","0","0","0","0","METAR UKKK 111230Z 28005MPS 9999 OVC018 02/M02 Q1016 R26/CLRD70 NOSIG"
"3:00 PM EET on November 11, 2016","2016","11","11","15","00","Europe/Kiev","1:00 PM GMT on November 11, 2016","2016","11","11","13","00","UTC","2.0","35.6","-2.0","28.4","75","21.6","13.4","-9999.0","-9999.0","280","West","10.0","6.2","1016","30.01","-2.9","26.8","-9999","-9999","-9999.00","-9999.00","Overcast","cloudy","0","0","0","0","0","0","METAR UKKK 111300Z 28006MPS 9999 OVC018 02/M02 Q1016 R26/CLRD70 NOSIG"
"3:30 PM EET on November 11, 2016","2016","11","11","15","30","Europe/Kiev","1:30 PM GMT on November 11, 2016","2016","11","11","13","30","UTC","2.0","35.6","-1.0","30.2","81","18.0","11.2","-9999.0","-9999.0","280","West","10.0","6.2","1017","30.04","-2.4","27.7","-9999","-9999","-9999.00","-9999.00","Overcast","cloudy","0","0","0","0","0","0","METAR UKKK 111330Z 28005MPS 9999 OVC019 02/M01 Q1017 R26/CLRD70 NOSIG"
"4:00 PM EET on November 11, 2016","2016","11","11","16","00","Europe/Kiev","2:00 PM GMT on November 11, 2016","2016","11","11","14","00","UTC","2.0","35.6","-2.0","28.4","75","18.0","11.2","-9999.0","-9999.0","290","WNW","10.0","6.2","1017","30.04","-2.4","27.7","-9999","-9999","-9999.00","-9999.00","Overcast","cloudy","0","0","0","0","0","0","METAR UKKK 111400Z 29005MPS 9999 OVC021 02/M02 Q1017 R26/CLRD70 NOSIG"
"4:30 PM EET on November 11, 2016","2016","11","11","16","30","Europe/Kiev","2:30 PM GMT on November 11, 2016","2016","11","11","14","30","UTC","2.0","35.6","-2.0","28.4","75","10.8","6.7","-9999.0","-9999.0","300","WNW","10.0","6.2","1017","30.04","-1.1","30.0","-9999","-9999","-9999.00","-9999.00","Overcast","cloudy","0","0","0","0","0","0","METAR UKKK 111430Z 30003MPS 9999 OVC034 02/M02 Q1017 R26/CLRD70 NOSIG"
"5:00 PM EET on November 11, 2016","2016","11","11","17","00","Europe/Kiev","3:00 PM GMT on November 11, 2016","2016","11","11","15","00","UTC","2","35","-2","29","71","3.6","2.2","","","330","NNW","20","12","1019","30.08","-999","-999","-9999","-9999","","","Scattered Clouds","partlycloudy","0","0","0","0","0","0","AAXX 11151 33345 42498 23301 10015 21016 39977 40186 52015 82601 555 11101"
"5:00 PM EET on November 11, 2016","2016","11","11","17","00","Europe/Kiev","3:00 PM GMT on November 11, 2016","2016","11","11","15","00","UTC","1.0","33.8","-2.0","28.4","81","10.8","6.7","-9999.0","-9999.0","300","WNW","10.0","6.2","1017","30.04","-2.3","27.9","-9999","-9999","-9999.00","-9999.00","Scattered Clouds","partlycloudy","0","0","0","0","0","0","METAR UKKK 111500Z 30003MPS 9999 SCT029 01/M02 Q1017 R26/CLRD70 NOSIG"
"5:30 PM EET on November 11, 2016","2016","11","11","17","30","Europe/Kiev","3:30 PM GMT on November 11, 2016","2016","11","11","15","30","UTC","1.0","33.8","-1.0","30.2","87","7.2","4.5","-9999.0","-9999.0","280","West","9.0","5.6","1018","30.06","-1.3","29.7","-9999","-9999","-9999.00","-9999.00","Mostly Cloudy","mostlycloudy","0","0","0","0","0","0","METAR UKKK 111530Z 28002MPS 9000 BKN029 01/M01 Q1018 R26/CLRD70 NOSIG"
"6:00 PM EET on November 11, 2016","2016","11","11","18","00","Europe/Kiev","4:00 PM GMT on November 11, 2016","2016","11","11","16","00","UTC","1.0","33.8","-1.0","30.2","87","7.2","4.5","-9999.0","-9999.0","300","WNW","9.0","5.6","1018","30.06","-1.3","29.7","-9999","-9999","-9999.00","-9999.00","Mostly Cloudy","mostlycloudy","0","0","0","0","0","0","METAR UKKK 111600Z 30002MPS 9000 BKN035 01/M01 Q1018 R26/CLRD70 NOSIG"
"6:30 PM EET on November 11, 2016","2016","11","11","18","30","Europe/Kiev","4:30 PM GMT on November 11, 2016","2016","11","11","16","30","UTC","1.0","33.8","-2.0","28.4","81","7.2","4.5","-9999.0","-9999.0","310","NW","9.0","5.6","1018","30.06","-1.3","29.7","-9999","-9999","-9999.00","-9999.00","Mostly Cloudy","mostlycloudy","0","0","0","0","0","0","METAR UKKK 111630Z 31002MPS 9000 BKN047 01/M02 Q1018 R26/CLRD70 NOSIG"
"7:00 PM EET on November 11, 2016","2016","11","11","19","00","Europe/Kiev","5:00 PM GMT on November 11, 2016","2016","11","11","17","00","UTC","1.0","33.8","-2.0","28.4","81","7.2","4.5","-9999.0","-9999.0","280","West","7.0","4.3","1018","30.06","-1.3","29.7","-9999","-9999","-9999.00","-9999.00","Mostly Cloudy","mostlycloudy","0","0","0","0","0","0","METAR UKKK 111700Z 28002MPS 7000 BKN048 01/M02 Q1018 R26/CLRD70 NOSIG"
"7:30 PM EET on November 11, 2016","2016","11","11","19","30","Europe/Kiev","5:30 PM GMT on November 11, 2016","2016","11","11","17","30","UTC","0.0","32.0","-2.0","28.4","87","7.2","4.5","-9999.0","-9999.0","260","West","4.0","2.5","1019","30.09","-2.5","27.6","-9999","-9999","-9999.00","-9999.00","Scattered Clouds","partlycloudy","0","0","0","0","0","0","METAR UKKK 111730Z 26002MPS 4000 BR SCT023 00/M02 Q1019 R26/CLRD70 NOSIG"
"8:00 PM EET on November 11, 2016","2016","11","11","20","00","Europe/Kiev","6:00 PM GMT on November 11, 2016","2016","11","11","18","00","UTC","1","33","-2","29","80","0.0","0.0","","","","","10","6","1020","30.13","-999","-999","-9999","-9999","","","Mostly Cloudy","mostlycloudy","0","0","0","0","0","0","AAXX 11181 33345 32497 60000 10007 21016 39991 40201 51014 86600 333 10021 86717 555 11101"
"8:00 PM EET on November 11, 2016","2016","11","11","20","00","Europe/Kiev","6:00 PM GMT on November 11, 2016","2016","11","11","18","00","UTC","0.0","32.0","-2.0","28.4","87","3.6","2.2","-9999.0","-9999.0","240","WSW","-9999.0","-9999.0","1019","30.09","-999","-999","-9999","-9999","-9999.00","-9999.00","Mostly Cloudy","mostlycloudy","0","0","0","0","0","0","METAR UKKK 111800Z 24001MPS 3800 BR SCT020 BKN083 M00/M02 Q1019 R26/CLRD70 TEMPO 1700 BR"
"8:30 PM EET on November 11, 2016","2016","11","11","20","30","Europe/Kiev","6:30 PM GMT on November 11, 2016","2016","11","11","18","30","UTC","0.0","32.0","-1.0","30.2","93","3.6","2.2","-9999.0","-9999.0","230","SW","2.6","1.6","1019","30.09","-999","-999","-9999","-9999","-9999.00","-9999.00","Mostly Cloudy","mostlycloudy","0","0","0","0","0","0","METAR UKKK 111830Z 23001MPS 2600 BR FEW023 BKN083 M00/M01 Q1019 R26/CLRD70 TEMPO 1700 BR"
"8:53 PM EET on November 11, 2016","2016","11","11","20","53","Europe/Kiev","6:53 PM GMT on November 11, 2016","2016","11","11","18","53","UTC","0.0","32.0","-1.0","30.2","93","0.0","0.0","-9999.0","-9999.0","0","North","1.2","0.7","1019","30.09","-999","-999","-9999","-9999","-9999.00","-9999.00","Mostly Cloudy","mostlycloudy","0","0","0","0","0","0","SPECI UKKK 111853Z 00000MPS 1200 R26/P2000D BR FEW023 BKN083 00/M01 Q1019 R26/CLRD70 TEMPO 0400 FG"
"9:00 PM EET on November 11, 2016","2016","11","11","21","00","Europe/Kiev","7:00 PM GMT on November 11, 2016","2016","11","11","19","00","UTC","0.0","32.0","-2.0","28.4","87","0.0","0.0","-9999.0","-9999.0","0","North","2.3","1.4","1019","30.09","-999","-999","-9999","-9999","-9999.00","-9999.00","Mist","hazy","0","0","0","0","0","0","METAR UKKK 111900Z 00000MPS 2300 BR NSC 00/M02 Q1019 R26/CLRD70 TEMPO 0400 FG"
"9:30 PM EET on November 11, 2016","2016","11","11","21","30","Europe/Kiev","7:30 PM GMT on November 11, 2016","2016","11","11","19","30","UTC","0.0","32.0","-1.0","30.2","93","0.0","0.0","-9999.0","-9999.0","0","North","2.9","1.8","1019","30.09","-999","-999","-9999","-9999","-9999.00","-9999.00","Light Snow","snow","0","0","1","0","0","0","METAR UKKK 111930Z 00000MPS 2900 -SN BR OVC030 M00/M01 Q1019 R26/CLRD70 TEMPO 1700 BR"
"10:00 PM EET on November 11, 2016","2016","11","11","22","00","Europe/Kiev","8:00 PM GMT on November 11, 2016","2016","11","11","20","00","UTC","0.0","32.0","-1.0","30.2","93","3.6","2.2","-9999.0","-9999.0","260","West","2.9","1.8","1019","30.09","-999","-999","-9999","-9999","-9999.00","-9999.00","Light Snow","snow","0","0","1","0","0","0","METAR UKKK 112000Z 26001MPS 2900 -SN BR OVC031 M00/M01 Q1019 R26/CLRD70 TEMPO 1700 BR"
"10:30 PM EET on November 11, 2016","2016","11","11","22","30","Europe/Kiev","8:30 PM GMT on November 11, 2016","2016","11","11","20","30","UTC","0.0","32.0","-1.0","30.2","93","0.0","0.0","-9999.0","-9999.0","0","North","2.4","1.5","1020","30.12","-999","-999","-9999","-9999","-9999.00","-9999.00","Light Snow","snow","0","0","1","0","0","0","METAR UKKK 112030Z 00000MPS 2400 -SN BR OVC033 00/M01 Q1020 R26/CLRD70 TEMPO 2000 BR"
"11:00 PM EET on November 11, 2016","2016","11","11","23","00","Europe/Kiev","9:00 PM GMT on November 11, 2016","2016","11","11","21","00","UTC","1","34","-1","30","80","0.0","0.0","","","","","4","2","1021","30.16","-999","-999","-9999","-9999","","","Light Snow","snow","0","0","1","0","0","0","AAXX 11211 33345 41596 80000 10010 21010 30002 40212 53011 76872 885// 333 88623 555 11100"
"11:00 PM EET on November 11, 2016","2016","11","11","23","00","Europe/Kiev","9:00 PM GMT on November 11, 2016","2016","11","11","21","00","UTC","1.0","33.8","0.0","32.0","93","0.0","0.0","-9999.0","-9999.0","0","North","2.8","1.7","1020","30.12","-999","-999","-9999","-9999","-9999.00","-9999.00","Light Snow","snow","0","0","1","0","0","0","METAR UKKK 112100Z 00000MPS 2800 -SN BR OVC022 01/M00 Q1020 R26/CLRD70 TEMPO 2000 BR"
"11:30 PM EET on November 11, 2016","2016","11","11","23","30","Europe/Kiev","9:30 PM GMT on November 11, 2016","2016","11","11","21","30","UTC","1.0","33.8","0.0","32.0","93","0.0","0.0","-9999.0","-9999.0","0","North","2.2","1.4","1020","30.12","-999","-999","-9999","-9999","-9999.00","-9999.00","Light Snow","snow","0","0","1","0","0","0","METAR UKKK 112130Z 00000MPS 2200 -SN BR OVC021 01/M00 Q1020 R26/CLRD70 TEMPO 1700 BR"
"12:00 AM EET on November 12, 2016","2016","11","12","00","00","Europe/Kiev","10:00 PM GMT on November 11, 2016","2016","11","11","22","00","UTC","1.0","33.8","0.0","32.0","93","0.0","0.0","-9999.0","-9999.0","0","North","2.4","1.5","1020","30.12","-999","-999","-9999","-9999","-9999.00","-9999.00","Light Snow","snow","0","0","1","0","0","0","METAR UKKK 112200Z 00000MPS 2400 -SN BR OVC021 01/00 Q1020 R26/CLRD70 TEMPO 1700 BR"
"12:30 AM EET on November 12, 2016","2016","11","12","00","30","Europe/Kiev","10:30 PM GMT on November 11, 2016","2016","11","11","22","30","UTC","1.0","33.8","0.0","32.0","93","0.0","0.0","-9999.0","-9999.0","0","North","3.0","1.9","1021","30.15","-999","-999","-9999","-9999","-9999.00","-9999.00","Overcast","cloudy","0","0","0","0","0","0","METAR UKKK 112230Z 00000MPS 3000 BR OVC016 01/M00 Q1021 R26/CLRD70 TEMPO 1700 BR"
"1:00 AM EET on November 12, 2016","2016","11","12","01","00","Europe/Kiev","11:00 PM GMT on November 11, 2016","2016","11","11","23","00","UTC","1.0","33.8","0.0","32.0","93","3.6","2.2","-9999.0","-9999.0","0","Variable","5.0","3.1","1021","30.15","-999","-999","-9999","-9999","-9999.00","-9999.00","Overcast","cloudy","0","0","0","0","0","0","METAR UKKK 112300Z VRB01MPS 5000 BR OVC018 01/M00 Q1021 R26/CLRD70 NOSIG"
"1:30 AM EET on November 12, 2016","2016","11","12","01","30","Europe/Kiev","11:30 PM GMT on November 11, 2016","2016","11","11","23","30","UTC","1.0","33.8","-1.0","30.2","87","0.0","0.0","-9999.0","-9999.0","0","North","5.0","3.1","1021","30.15","-999","-999","-9999","-9999","-9999.00","-9999.00","Overcast","cloudy","0","0","0","0","0","0","METAR UKKK 112330Z 00000MPS 5000 BR OVC017 01/M01 Q1021 R26/CLRD70 NOSIG"
"2:00 AM EET on November 12, 2016","2016","11","12","02","00","Europe/Kiev","12:00 AM GMT on November 12, 2016","2016","11","12","00","00","UTC","1","34","-1","31","84","0.0","0.0","","","","","4","2","1023","30.20","-999","-999","-9999","-9999","","","Mist","hazy","0","0","0","0","0","0","AAXX 12001 33345 /1496 80000 10011 21006 30016 40226 52014 71072 886// 333 88717 555 11000 69901"
"2:00 AM EET on November 12, 2016","2016","11","12","02","00","Europe/Kiev","12:00 AM GMT on November 12, 2016","2016","11","12","00","00","UTC","1.0","33.8","-1.0","30.2","87","0.0","0.0","-9999.0","-9999.0","0","North","5.0","3.1","1021","30.15","-999","-999","-9999","-9999","-9999.00","-9999.00","Overcast","cloudy","0","0","0","0","0","0","METAR UKKK 120000Z 00000MPS 5000 BR OVC018 01/M01 Q1021 R26/CLRD70 NOSIG"
"2:30 AM EET on November 12, 2016","2016","11","12","02","30","Europe/Kiev","12:30 AM GMT on November 12, 2016","2016","11","12","00","30","UTC","1.0","33.8","-1.0","30.2","87","3.6","2.2","-9999.0","-9999.0","280","West","6.0","3.7","1021","30.15","-999","-999","-9999","-9999","-9999.00","-9999.00","Overcast","cloudy","0","0","0","0","0","0","METAR UKKK 120030Z 28001MPS 6000 OVC016 01/M01 Q1021 R26/CLRD70 NOSIG"
"3:00 AM EET on November 12, 2016","2016","11","12","03","00","Europe/Kiev","1:00 AM GMT on November 12, 2016","2016","11","12","01","00","UTC","1.0","33.8","-1.0","30.2","87","7.2","4.5","-9999.0","-9999.0","290","WNW","8.0","5.0","1022","30.18","-1.3","29.7","-9999","-9999","-9999.00","-9999.00","Overcast","cloudy","0","0","0","0","0","0","METAR UKKK 120100Z 29002MPS 8000 OVC016 01/M01 Q1022 R26/CLRD70 NOSIG"
"3:30 AM EET on November 12, 2016","2016","11","12","03","30","Europe/Kiev","1:30 AM GMT on November 12, 2016","2016","11","12","01","30","UTC","1.0","33.8","0.0","32.0","93","3.6","2.2","-9999.0","-9999.0","270","West","7.0","4.3","1022","30.18","-999","-999","-9999","-9999","-9999.00","-9999.00","Overcast","cloudy","0","0","0","0","0","0","METAR UKKK 120130Z 27001MPS 7000 OVC016 01/M00 Q1022 R26/CLRD70 NOSIG"
"4:00 AM EET on November 12, 2016","2016","11","12","04","00","Europe/Kiev","2:00 AM GMT on November 12, 2016","2016","11","12","02","00","UTC","1.0","33.8","-1.0","30.2","87","3.6","2.2","-9999.0","-9999.0","0","Variable","7.0","4.3","1022","30.18","-999","-999","-9999","-9999","-9999.00","-9999.00","Overcast","cloudy","0","0","0","0","0","0","METAR UKKK 120200Z VRB01MPS 7000 OVC016 01/M01 Q1022 R26/CLRD70 NOSIG"
"4:30 AM EET on November 12, 2016","2016","11","12","04","30","Europe/Kiev","2:30 AM GMT on November 12, 2016","2016","11","12","02","30","UTC","1.0","33.8","-1.0","30.2","87","0.0","0.0","-9999.0","-9999.0","0","North","7.0","4.3","1022","30.18","-999","-999","-9999","-9999","-9999.00","-9999.00","Overcast","cloudy","0","0","0","0","0","0","METAR UKKK 120230Z 00000MPS 7000 OVC016 01/M01 Q1022 R26/CLRD70 NOSIG"
"5:00 AM EET on November 12, 2016","2016","11","12","05","00","Europe/Kiev","3:00 AM GMT on November 12, 2016","2016","11","12","03","00","UTC","1","35","-1","31","79","3.6","2.2","","","300","WNW","4","2","1024","30.23","-999","-999","-9999","-9999","","","Mist","hazy","0","0","0","0","0","0","AAXX 12031 33345 41496 83001 10014 21006 30026 40236 52010 71022 886// 333 88716 555 11001"
"5:00 AM EET on November 12, 2016","2016","11","12","05","00","Europe/Kiev","3:00 AM GMT on November 12, 2016","2016","11","12","03","00","UTC","1.0","33.8","0.0","32.0","93","7.2","4.5","-9999.0","-9999.0","220","SW","6.0","3.7","1022","30.18","-1.3","29.7","-9999","-9999","-9999.00","-9999.00","Overcast","cloudy","0","0","0","0","0","0","METAR UKKK 120300Z 22002MPS 6000 OVC018 01/M00 Q1022 R26/CLRD70 NOSIG"
"5:30 AM EET on November 12, 2016","2016","11","12","05","30","Europe/Kiev","3:30 AM GMT on November 12, 2016","2016","11","12","03","30","UTC","1.0","33.8","0.0","32.0","93","3.6","2.2","-9999.0","-9999.0","0","Variable","6.0","3.7","1023","30.21","-999","-999","-9999","-9999","-9999.00","-9999.00","Overcast","cloudy","0","0","0","0","0","0","METAR UKKK 120330Z VRB01MPS 6000 OVC018 01/M00 Q1023 R26/CLRD70 NOSIG"
"6:00 AM EET on November 12, 2016","2016","11","12","06","00","Europe/Kiev","4:00 AM GMT on November 12, 2016","2016","11","12","04","00","UTC","0.0","32.0","-1.0","30.2","93","0.0","0.0","-9999.0","-9999.0","0","North","5.0","3.1","1023","30.21","-999","-999","-9999","-9999","-9999.00","-9999.00","Overcast","cloudy","0","0","0","0","0","0","METAR UKKK 120400Z 00000MPS 5000 BR OVC018 00/M01 Q1023 R26/CLRD70 NOSIG"
"6:30 AM EET on November 12, 2016","2016","11","12","06","30","Europe/Kiev","4:30 AM GMT on November 12, 2016","2016","11","12","04","30","UTC","0.0","32.0","-1.0","30.2","93","3.6","2.2","-9999.0","-9999.0","230","SW","-9999.0","-9999.0","1023","30.21","-999","-999","-9999","-9999","-9999.00","-9999.00","Overcast","cloudy","0","0","0","0","0","0","METAR UKKK 120430Z 23001MPS 4200 BR OVC033 00/M01 Q1023 R26/CLRD70 NOSIG"
"7:00 AM EET on November 12, 2016","2016","11","12","07","00","Europe/Kiev","5:00 AM GMT on November 12, 2016","2016","11","12","05","00","UTC","0.0","32.0","-1.0","30.2","93","3.6","2.2","-9999.0","-9999.0","280","West","5.0","3.1","1023","30.21","-999","-999","-9999","-9999","-9999.00","-9999.00","Mostly Cloudy","mostlycloudy","0","0","0","0","0","0","METAR UKKK 120500Z 28001MPS 5000 BR BKN043 00/M01 Q1023 R26/CLRD70 NOSIG"
"7:30 AM EET on November 12, 2016","2016","11","12","07","30","Europe/Kiev","5:30 AM GMT on November 12, 2016","2016","11","12","05","30","UTC","-1.0","30.2","-1.0","30.2","100","3.6","2.2","-9999.0","-9999.0","0","Variable","-9999.0","-9999.0","1023","30.21","-999","-999","-9999","-9999","-9999.00","-9999.00","Mist","hazy","0","0","0","0","0","0","METAR UKKK 120530Z VRB01MPS 4400 BR NSC M01/M01 Q1023 R26/CLRD70 NOSIG"
"8:00 AM EET on November 12, 2016","2016","11","12","08","00","Europe/Kiev","6:00 AM GMT on November 12, 2016","2016","11","12","06","00","UTC","0","33","-1","30","82","0.0","0.0","","","","","4","2","1025","30.28","-999","-999","-9999","-9999","","","Mist","hazy","0","0","0","0","0","0","AAXX 12061 33345 11996 20000 10003 21013 30041 40252 52015 69902 71011 80001 333 20003 555 11101"
"8:00 AM EET on November 12, 2016","2016","11","12","08","00","Europe/Kiev","6:00 AM GMT on November 12, 2016","2016","11","12","06","00","UTC","0.0","32.0","-2.0","28.4","87","3.6","2.2","-9999.0","-9999.0","0","Variable","5.0","3.1","1024","30.24","-999","-999","-9999","-9999","-9999.00","-9999.00","Mist","hazy","0","0","0","0","0","0","METAR UKKK 120600Z VRB01MPS 5000 BR NSC M00/M02 Q1024 R26/CLRD70 NOSIG"
"8:30 AM EET on November 12, 2016","2016","11","12","08","30","Europe/Kiev","6:30 AM GMT on November 12, 2016","2016","11","12","06","30","UTC","0.0","32.0","-1.0","30.2","93","7.2","4.5","-9999.0","-9999.0","250","WSW","-9999.0","-9999.0","1024","30.24","-2.5","27.6","-9999","-9999","-9999.00","-9999.00","Mostly Cloudy","mostlycloudy","0","0","0","0","0","0","METAR UKKK 120630Z 25002MPS 4400 BR FEW020 BKN200 M00/M01 Q1024 R26/CLRD70 NOSIG"
"9:00 AM EET on November 12, 2016","2016","11","12","09","00","Europe/Kiev","7:00 AM GMT on November 12, 2016","2016","11","12","07","00","UTC","1.0","33.8","0.0","32.0","93","7.2","4.5","-9999.0","-9999.0","260","West","5.0","3.1","1025","30.27","-1.3","29.7","-9999","-9999","-9999.00","-9999.00","Mostly Cloudy","mostlycloudy","0","0","0","0","0","0","METAR UKKK 120700Z 26002MPS 230V310 5000 BR FEW020 BKN200 01/M00 Q1025 R26/CLRD70 NOSIG"
"9:30 AM EET on November 12, 2016","2016","11","12","09","30","Europe/Kiev","7:30 AM GMT on November 12, 2016","2016","11","12","07","30","UTC","2.0","35.6","-1.0","30.2","81","3.6","2.2","-9999.0","-9999.0","0","Variable","6.0","3.7","1025","30.27","-999","-999","-9999","-9999","-9999.00","-9999.00","Mostly Cloudy","mostlycloudy","0","0","0","0","0","0","METAR UKKK 120730Z VRB01MPS 6000 SCT021 BKN200 02/M01 Q1025 R26/CLRD70 NOSIG"
"10:00 AM EET on November 12, 2016","2016","11","12","10","00","Europe/Kiev","8:00 AM GMT on November 12, 2016","2016","11","12","08","00","UTC","2.0","35.6","-1.0","30.2","81","3.6","2.2","-9999.0","-9999.0","0","Variable","9.0","5.6","1025","30.27","-999","-999","-9999","-9999","-9999.00","-9999.00","Mostly Cloudy","mostlycloudy","0","0","0","0","0","0","METAR UKKK 120800Z VRB01MPS 9000 SCT013 BKN200 02/M01 Q1025 R26/CLRD70 NOSIG"
"10:30 AM EET on November 12, 2016","2016","11","12","10","30","Europe/Kiev","8:30 AM GMT on November 12, 2016","2016","11","12","08","30","UTC","2.0","35.6","-1.0","30.2","81","3.6","2.2","-9999.0","-9999.0","0","Variable","9.0","5.6","1025","30.27","-999","-999","-9999","-9999","-9999.00","-9999.00","Mostly Cloudy","mostlycloudy","0","0","0","0","0","0","METAR UKKK 120830Z VRB01MPS 9000 SCT013 BKN200 02/M01 Q1025 R26/CLRD70 NOSIG"
"11:00 AM EET on November 12, 2016","2016","11","12","11","00","Europe/Kiev","9:00 AM GMT on November 12, 2016","2016","11","12","09","00","UTC","3","37","-1","30","69","3.6","2.2","","","30","NNE","20","12","1026","30.31","-999","-999","-9999","-9999","","","Mostly Cloudy","mostlycloudy","0","0","0","0","0","0","AAXX 12091 33345 42498 60301 10027 21009 30052 40262 52011 86500 555 11005"
"11:00 AM EET on November 12, 2016","2016","11","12","11","00","Europe/Kiev","9:00 AM GMT on November 12, 2016","2016","11","12","09","00","UTC","3.0","37.4","-1.0","30.2","75","3.6","2.2","-9999.0","-9999.0","0","Variable","10.0","6.2","1025","30.27","-999","-999","-9999","-9999","-9999.00","-9999.00","Mostly Cloudy","mostlycloudy","0","0","0","0","0","0","METAR UKKK 120900Z VRB01MPS 9999 SCT016 BKN200 03/M01 Q1025 R26/CLRD70 NOSIG"
"11:30 AM EET on November 12, 2016","2016","11","12","11","30","Europe/Kiev","9:30 AM GMT on November 12, 2016","2016","11","12","09","30","UTC","3.0","37.4","-1.0","30.2","75","3.6","2.2","-9999.0","-9999.0","0","Variable","10.0","6.2","1025","30.27","-999","-999","-9999","-9999","-9999.00","-9999.00","Mostly Cloudy","mostlycloudy","0","0","0","0","0","0","METAR UKKK 120930Z VRB01MPS 9999 BKN016 03/M01 Q1025 R26/CLRD70 NOSIG"
"12:00 PM EET on November 12, 2016","2016","11","12","12","00","Europe/Kiev","10:00 AM GMT on November 12, 2016","2016","11","12","10","00","UTC","3.0","37.4","-1.0","30.2","75","3.6","2.2","-9999.0","-9999.0","0","Variable","10.0","6.2","1025","30.27","-999","-999","-9999","-9999","-9999.00","-9999.00","Mostly Cloudy","mostlycloudy","0","0","0","0","0","0","METAR UKKK 121000Z VRB01MPS 9999 BKN018 03/M01 Q1025 R26/CLRD70 NOSIG"
"12:30 PM EET on November 12, 2016","2016","11","12","12","30","Europe/Kiev","10:30 AM GMT on November 12, 2016","2016","11","12","10","30","UTC","3.0","37.4","-1.0","30.2","75","0.0","0.0","-9999.0","-9999.0","0","North","10.0","6.2","1025","30.27","-999","-999","-9999","-9999","-9999.00","-9999.00","Mostly Cloudy","mostlycloudy","0","0","0","0","0","0","METAR UKKK 121030Z 00000MPS 9999 BKN018 03/M01 Q1025 R08/CLRD70 NOSIG"
"1:00 PM EET on November 12, 2016","2016","11","12","13","00","Europe/Kiev","11:00 AM GMT on November 12, 2016","2016","11","12","11","00","UTC","3.0","37.4","-1.0","30.2","75","7.2","4.5","-9999.0","-9999.0","40","NE","9.0","5.6","1025","30.27","1.0","33.9","-9999","-9999","-9999.00","-9999.00","Mostly Cloudy","mostlycloudy","0","0","0","0","0","0","METAR UKKK 121100Z 04002MPS 010V070 9000 BKN019 03/M01 Q1025 R08/CLRD70 NOSIG"
"1:30 PM EET on November 12, 2016","2016","11","12","13","30","Europe/Kiev","11:30 AM GMT on November 12, 2016","2016","11","12","11","30","UTC","3.0","37.4","-1.0","30.2","75","10.8","6.7","-9999.0","-9999.0","20","NNE","10.0","6.2","1025","30.27","0.1","32.2","-9999","-9999","-9999.00","-9999.00","Mostly Cloudy","mostlycloudy","0","0","0","0","0","0","METAR UKKK 121130Z 02003MPS 9999 BKN019 03/M01 Q1025 R08/CLRD70 NOSIG"
"2:00 PM EET on November 12, 2016","2016","11","12","14","00","Europe/Kiev","12:00 PM GMT on November 12, 2016","2016","11","12","12","00","UTC","2","36","-1","29","69","7.2","4.5","","","60","ENE","20","12","1026","30.29","-999","-999","-9999","-9999","","","Mostly Cloudy","mostlycloudy","0","0","0","0","0","0","AAXX 12121 33345 32498 70602 10025 21014 30047 40257 58005 87500 333 87618 555 11005"
"2:00 PM EET on November 12, 2016","2016","11","12","14","00","Europe/Kiev","12:00 PM GMT on November 12, 2016","2016","11","12","12","00","UTC","3.0","37.4","-1.0","30.2","75","10.8","6.7","-9999.0","-9999.0","30","NNE","10.0","6.2","1024","30.24","0.1","32.2","-9999","-9999","-9999.00","-9999.00","Overcast","cloudy","0","0","0","0","0","0","METAR UKKK 121200Z 03003MPS 9999 OVC019 03/M01 Q1024 R08/CLRD70 NOSIG"
"2:30 PM EET on November 12, 2016","2016","11","12","14","30","Europe/Kiev","12:30 PM GMT on November 12, 2016","2016","11","12","12","30","UTC","2.0","35.6","-1.0","30.2","81","10.8","6.7","-9999.0","-9999.0","40","NE","10.0","6.2","1024","30.24","-1.1","30.0","-9999","-9999","-9999.00","-9999.00","Overcast","cloudy","0","0","0","0","0","0","METAR UKKK 121230Z 04003MPS 9999 OVC018 02/M01 Q1024 R08/CLRD70 NOSIG"
"3:00 PM EET on November 12, 2016","2016","11","12","15","00","Europe/Kiev","1:00 PM GMT on November 12, 2016","2016","11","12","13","00","UTC","2.0","35.6","-1.0","30.2","81","7.2","4.5","-9999.0","-9999.0","70","ENE","9.0","5.6","1025","30.27","-0.1","31.8","-9999","-9999","-9999.00","-9999.00","Overcast","cloudy","0","0","0","0","0","0","METAR UKKK 121300Z 07002MPS 030V100 9000 OVC017 02/M01 Q1025 R08/CLRD70 NOSIG"
"4:30 PM EET on November 12, 2016","2016","11","12","16","30","Europe/Kiev","2:30 PM GMT on November 12, 2016","2016","11","12","14","30","UTC","2.0","35.6","-1.0","30.2","81","10.8","6.7","-9999.0","-9999.0","60","ENE","10.0","6.2","1024","30.24","-1.1","30.0","-9999","-9999","-9999.00","-9999.00","Overcast","cloudy","0","0","0","0","0","0","METAR UKKK 121430Z 06003MPS 9999 OVC017 02/M01 Q1024 R08/CLRD70 NOSIG"
"5:00 PM EET on November 12, 2016","2016","11","12","17","00","Europe/Kiev","3:00 PM GMT on November 12, 2016","2016","11","12","15","00","UTC","2","35","-1","30","74","10.8","6.7","","","70","ENE","20","12","1026","30.29","-999","-999","-9999","-9999","","","Overcast","cloudy","0","0","0","0","0","0","AAXX 12151 33345 42498 80703 10015 21013 30046 40257 57001 885// 333 88617 555 11001"
"5:00 PM EET on November 12, 2016","2016","11","12","17","00","Europe/Kiev","3:00 PM GMT on November 12, 2016","2016","11","12","15","00","UTC","1.0","33.8","-1.0","30.2","87","10.8","6.7","-9999.0","-9999.0","50","NE","10.0","6.2","1024","30.24","-2.3","27.9","-9999","-9999","-9999.00","-9999.00","Overcast","cloudy","0","0","0","0","0","0","METAR UKKK 121500Z 05003MPS 9999 FEW017 SCT032 OVC120 01/M01 Q1024 R08/CLRD70 NOSIG"
"5:30 PM EET on November 12, 2016","2016","11","12","17","30","Europe/Kiev","3:30 PM GMT on November 12, 2016","2016","11","12","15","30","UTC","1.0","33.8","-1.0","30.2","87","10.8","6.7","-9999.0","-9999.0","60","ENE","10.0","6.2","1024","30.24","-2.3","27.9","-9999","-9999","-9999.00","-9999.00","Mostly Cloudy","mostlycloudy","0","0","0","0","0","0","METAR UKKK 121530Z 06003MPS 9999 FEW032 BKN120 01/M01 Q1024 R08/CLRD70 NOSIG"
"6:00 PM EET on November 12, 2016","2016","11","12","18","00","Europe/Kiev","4:00 PM GMT on November 12, 2016","2016","11","12","16","00","UTC","1.0","33.8","-2.0","28.4","81","10.8","6.7","-9999.0","-9999.0","60","ENE","-9999.0","-9999.0","1024","30.24","-2.3","27.9","-9999","-9999","-9999.00","-9999.00","Clear","clear","0","0","0","0","0","0","METAR UKKK 121600Z 06003MPS CAVOK 01/M02 Q1024 R08/CLRD70 NOSIG"
"6:30 PM EET on November 12, 2016","2016","11","12","18","30","Europe/Kiev","4:30 PM GMT on November 12, 2016","2016","11","12","16","30","UTC","1.0","33.8","-2.0","28.4","81","14.4","8.9","-9999.0","-9999.0","60","ENE","10.0","6.2","1024","30.24","-3.0","26.5","-9999","-9999","-9999.00","-9999.00","Mostly Cloudy","mostlycloudy","0","0","0","0","0","0","METAR UKKK 121630Z 06004MPS 9999 SCT025 BKN120 01/M02 Q1024 R08/CLRD70 NOSIG"
"7:00 PM EET on November 12, 2016","2016","11","12","19","00","Europe/Kiev","5:00 PM GMT on November 12, 2016","2016","11","12","17","00","UTC","1.0","33.8","-2.0","28.4","81","14.4","8.9","-9999.0","-9999.0","70","ENE","10.0","6.2","1024","30.24","-3.0","26.5","-9999","-9999","-9999.00","-9999.00","Mostly Cloudy","mostlycloudy","0","0","0","0","0","0","METAR UKKK 121700Z 07004MPS 9999 BKN023 01/M02 Q1024 R08/CLRD70 NOSIG"
"7:30 PM EET on November 12, 2016","2016","11","12","19","30","Europe/Kiev","5:30 PM GMT on November 12, 2016","2016","11","12","17","30","UTC","1.0","33.8","-2.0","28.4","81","14.4","8.9","-9999.0","-9999.0","60","ENE","10.0","6.2","1024","30.24","-3.0","26.5","-9999","-9999","-9999.00","-9999.00","Mostly Cloudy","mostlycloudy","0","0","0","0","0","0","METAR UKKK 121730Z 06004MPS 9999 BKN022 01/M02 Q1024 R08/CLRD70 NOSIG"
"8:00 PM EET on November 12, 2016","2016","11","12","20","00","Europe/Kiev","6:00 PM GMT on November 12, 2016","2016","11","12","18","00","UTC","1","34","-2","29","74","7.2","4.5","","","80","East","20","12","1025","30.28","-999","-999","-9999","-9999","","","Overcast","cloudy","0","0","0","0","0","0","AAXX 12181 33345 32498 80802 10011 21018 30043 40254 57003 885// 333 10031 88619 555 11001"
"8:00 PM EET on November 12, 2016","2016","11","12","20","00","Europe/Kiev","6:00 PM GMT on November 12, 2016","2016","11","12","18","00","UTC","1.0","33.8","-2.0","28.4","81","14.4","8.9","-9999.0","-9999.0","70","ENE","10.0","6.2","1024","30.24","-3.0","26.5","-9999","-9999","-9999.00","-9999.00","Light Snow Showers","snow","0","0","1","0","0","0","METAR UKKK 121800Z 07004MPS 9999 -SHSN SCT019CB BKN023 01/M02 Q1024 R08/CLRD70 NOSIG"
"8:30 PM EET on November 12, 2016","2016","11","12","20","30","Europe/Kiev","6:30 PM GMT on November 12, 2016","2016","11","12","18","30","UTC","1.0","33.8","-2.0","28.4","81","21.6","13.4","-9999.0","-9999.0","60","ENE","10.0","6.2","1024","30.24","-4.2","24.5","-9999","-9999","-9999.00","-9999.00","Light Snow Showers","snow","0","0","1","0","0","0","METAR UKKK 121830Z 06006MPS 9999 -SHSN SCT018CB BKN023 01/M02 Q1024 R08/CLRD70 NOSIG"
"9:00 PM EET on November 12, 2016","2016","11","12","21","00","Europe/Kiev","7:00 PM GMT on November 12, 2016","2016","11","12","19","00","UTC","1.0","33.8","-2.0","28.4","81","14.4","8.9","-9999.0","-9999.0","60","ENE","10.0","6.2","1024","30.24","-3.0","26.5","-9999","-9999","-9999.00","-9999.00","Overcast","cloudy","0","0","0","0","0","0","METAR UKKK 121900Z 06004MPS 9999 OVC020 01/M02 Q1024 R08/CLRD70 NOSIG"
"9:30 PM EET on November 12, 2016","2016","11","12","21","30","Europe/Kiev","7:30 PM GMT on November 12, 2016","2016","11","12","19","30","UTC","1.0","33.8","-3.0","26.6","75","21.6","13.4","-9999.0","-9999.0","60","ENE","10.0","6.2","1024","30.24","-4.2","24.5","-9999","-9999","-9999.00","-9999.00","Overcast","cloudy","0","0","0","0","0","0","METAR UKKK 121930Z 06006MPS 9999 OVC018 01/M03 Q1024 R08/CLRD70 NOSIG"
"10:00 PM EET on November 12, 2016","2016","11","12","22","00","Europe/Kiev","8:00 PM GMT on November 12, 2016","2016","11","12","20","00","UTC","1.0","33.8","-3.0","26.6","75","21.6","13.4","-9999.0","-9999.0","60","ENE","10.0","6.2","1023","30.21","-4.2","24.5","-9999","-9999","-9999.00","-9999.00","Overcast","cloudy","0","0","0","0","0","0","METAR UKKK 122000Z 06006MPS 9999 OVC018 01/M03 Q1023 R08/CLRD70 NOSIG"
"10:30 PM EET on November 12, 2016","2016","11","12","22","30","Europe/Kiev","8:30 PM GMT on November 12, 2016","2016","11","12","20","30","UTC","1.0","33.8","-3.0","26.6","75","21.6","13.4","-9999.0","-9999.0","70","ENE","10.0","6.2","1023","30.21","-4.2","24.5","-9999","-9999","-9999.00","-9999.00","Overcast","cloudy","0","0","0","0","0","0","METAR UKKK 122030Z 07006MPS 9999 OVC018 01/M03 Q1023 R08/CLRD70 NOSIG"
"11:00 PM EET on November 12, 2016","2016","11","12","23","00","Europe/Kiev","9:00 PM GMT on November 12, 2016","2016","11","12","21","00","UTC","1","33","-3","27","72","10.8","6.7","","","80","East","20","12","1025","30.26","-999","-999","-9999","-9999","","","Overcast","cloudy","0","0","0","0","0","0","AAXX 12211 33345 42598 80803 10007 21026 30035 40246 57008 885// 333 88620 555 11001"
"11:00 PM EET on November 12, 2016","2016","11","12","23","00","Europe/Kiev","9:00 PM GMT on November 12, 2016","2016","11","12","21","00","UTC","1.0","33.8","-3.0","26.6","75","21.6","13.4","-9999.0","-9999.0","80","East","10.0","6.2","1023","30.21","-4.2","24.5","-9999","-9999","-9999.00","-9999.00","Overcast","cloudy","0","0","0","0","0","0","METAR UKKK 122100Z 08006MPS 9999 OVC018 01/M03 Q1023 R08/CLRD70 NOSIG"
"11:30 PM EET on November 12, 2016","2016","11","12","23","30","Europe/Kiev","9:30 PM GMT on November 12, 2016","2016","11","12","21","30","UTC","1.0","33.8","-3.0","26.6","75","25.2","15.7","-9999.0","-9999.0","70","ENE","9.0","5.6","1023","30.21","-4.6","23.7","-9999","-9999","-9999.00","-9999.00","Light Snow Showers","snow","0","0","1","0","0","0","METAR UKKK 122130Z 07007MPS 9000 -SHSN BKN016CB OVC020 01/M03 Q1023 R08/CLRD70 NOSIG"
"12:00 AM EET on November 13, 2016","2016","11","13","00","00","Europe/Kiev","10:00 PM GMT on November 12, 2016","2016","11","12","22","00","UTC","0.0","32.0","-3.0","26.6","80","25.2","15.7","-9999.0","-9999.0","70","ENE","6.0","3.7","1022","30.18","-5.9","21.4","-9999","-9999","-9999.00","-9999.00","Light Snow Showers","snow","0","0","1","0","0","0","METAR UKKK 122200Z 07007MPS 6000 -SHSN BKN018CB OVC023 00/M03 Q1022 R08/190060 NOSIG"
"12:22 AM EET on November 13, 2016","2016","11","13","00","22","Europe/Kiev","10:22 PM GMT on November 12, 2016","2016","11","12","22","22","UTC","0.0","32.0","-3.0","26.6","80","25.2","15.7","-9999.0","-9999.0","70","ENE","2.5","1.6","1022","30.18","-5.9","21.4","-9999","-9999","-9999.00","-9999.00","Snow Showers","snow","0","0","1","0","0","0","SPECI UKKK 122222Z 07007MPS 2500 SHSN BKN018CB OVC023 M00/M03 Q1022 R08/190060 TEMPO 1000 SHSN BKN010CB"
"12:30 AM EET on November 13, 2016","2016","11","13","00","30","Europe/Kiev","10:30 PM GMT on November 12, 2016","2016","11","12","22","30","UTC","0.0","32.0","-3.0","26.6","80","25.2","15.7","-9999.0","-9999.0","70","ENE","1.9","1.2","1022","30.18","-5.9","21.4","-9999","-9999","-9999.00","-9999.00","Snow Showers","snow","0","0","1","0","0","0","METAR UKKK 122230Z 07007MPS 1900 SHSN BKN018CB OVC030 M00/M03 Q1022 R08/190060 TEMPO 1000 SHSN BKN010CB"
"12:55 AM EET on November 13, 2016","2016","11","13","00","55","Europe/Kiev","10:55 PM GMT on November 12, 2016","2016","11","12","22","55","UTC","-1.0","30.2","-3.0","26.6","86","25.2","15.7","-9999.0","-9999.0","70","ENE","1.3","0.8","1021","30.15","-7.2","19.1","-9999","-9999","-9999.00","-9999.00","Snow Showers","snow","0","0","1","0","0","0","SPECI UKKK 122255Z 07007MPS 1300 R08/P2000U SHSN SCT010 BKN019CB M01/M03 Q1021 R08/190060 TEMPO 0700 +SHSN BKN010CB"
"1:00 AM EET on November 13, 2016","2016","11","13","01","00","Europe/Kiev","11:00 PM GMT on November 12, 2016","2016","11","12","23","00","UTC","-1.0","30.2","-3.0","26.6","86","25.2","15.7","-9999.0","-9999.0","70","ENE","1.5","0.9","1021","30.15","-7.2","19.1","-9999","-9999","-9999.00","-9999.00","Snow Showers","snow","0","0","1","0","0","0","METAR UKKK 122300Z 07007MPS 1500 SHSN SCT009 BKN019CB M01/M03 Q1021 R08/190060 TEMPO 0700 +SHSN BKN010CB"
"1:04 AM EET on November 13, 2016","2016","11","13","01","04","Europe/Kiev","11:04 PM GMT on November 12, 2016","2016","11","12","23","04","UTC","-1.0","30.2","-3.0","26.6","86","25.2","15.7","-9999.0","-9999.0","70","ENE","1.3","0.8","1021","30.15","-7.2","19.1","-9999","-9999","-9999.00","-9999.00","Snow Showers","snow","0","0","1","0","0","0","SPECI UKKK 122304Z 07007MPS 1300 R08/1600VP2000D SHSN SCT011 BKN019CB M01/M03 Q1021 R08/190060 TEMPO 0700 +SHSN BKN010CB"
"1:09 AM EET on November 13, 2016","2016","11","13","01","09","Europe/Kiev","11:09 PM GMT on November 12, 2016","2016","11","12","23","09","UTC","-1.0","30.2","-3.0","26.6","86","25.2","15.7","-9999.0","-9999.0","60","ENE","-9999.0","-9999.0","1021","30.15","-7.2","19.1","-9999","-9999","-9999.00","-9999.00","Heavy Snow Showers","snow","0","0","1","0","0","0","SPECI UKKK 122309Z 06007MPS 0750 R08/1500VP2000U +SHSN SCT010 BKN019CB M01/M03 Q1021 R08/190060 TEMPO 0400 +SHSN BKN010CB"
"1:30 AM EET on November 13, 2016","2016","11","13","01","30","Europe/Kiev","11:30 PM GMT on November 12, 2016","2016","11","12","23","30","UTC","-1.0","30.2","-2.0","28.4","93","25.2","15.7","-9999.0","-9999.0","60","ENE","1.0","0.6","1021","30.15","-7.2","19.1","-9999","-9999","-9999.00","-9999.00","Snow Showers","snow","0","0","1","0","0","0","METAR UKKK 122330Z 06007MPS 1000 R08/1700VP2000D SHSN SCT009 BKN019CB M01/M02 Q1021 RESHSN R08/590250 TEMPO 0400 +SHSN BKN010CB"
"1:46 AM EET on November 13, 2016","2016","11","13","01","46","Europe/Kiev","11:46 PM GMT on November 12, 2016","2016","11","12","23","46","UTC","-1.0","30.2","-2.0","28.4","93","25.2","15.7","-9999.0","-9999.0","60","ENE","-9999.0","-9999.0","1020","30.12","-7.2","19.1","-9999","-9999","-9999.00","-9999.00","Heavy Snow Showers","snow","0","0","1","0","0","0","SPECI UKKK 122346Z 06007MPS 0750 R08/1900U +SHSN SCT009 BKN019CB M01/M02 Q1020 R08/590250 TEMPO 06009G15MPS 0500 +SHSN BKN012CB"
"2:00 AM EET on November 13, 2016","2016","11","13","02","00","Europe/Kiev","12:00 AM GMT on November 13, 2016","2016","11","13","00","00","UTC","-1","30","-3","27","85","14.4","8.9","","","90","East","4","2","1022","30.18","-999","-999","-9999","-9999","","","Light Snow","snow","0","0","1","0","0","0","AAXX 13001 33345 /1396 80904 11011 21027 30008 40220 57027 77172 8872/ 333 88708 555 1/000 69961"
"2:00 AM EET on November 13, 2016","2016","11","13","02","00","Europe/Kiev","12:00 AM GMT on November 13, 2016","2016","11","13","00","00","UTC","-1.0","30.2","-2.0","28.4","93","28.8","17.9","-9999.0","-9999.0","70","ENE","-9999.0","-9999.0","1020","30.12","-7.6","18.3","-9999","-9999","-9999.00","-9999.00","Heavy Snow Showers","snow","0","0","1","0","0","0","METAR UKKK 130000Z 07008MPS 0750 R08/1700N +SHSN SCT007 BKN019CB M01/M02 Q1020 R08/590250 TEMPO 06009G15MPS 0500 +SHSN BKN012CB"
"2:19 AM EET on November 13, 2016","2016","11","13","02","19","Europe/Kiev","12:19 AM GMT on November 13, 2016","2016","11","13","00","19","UTC","-1.0","30.2","-2.0","28.4","93","25.2","15.7","-9999.0","-9999.0","70","ENE","-9999.0","-9999.0","1020","30.12","-7.2","19.1","-9999","-9999","-9999.00","-9999.00","Light Snow Showers","snow","0","0","1","0","0","0","SPECI UKKK 130019Z 07007MPS 3300 -SHSN SCT007 BKN019CB M01/M02 Q1020 RESHSN R08/590250 TEMPO 06009G15MPS 0700 +SHSN BKN005 BKN012CB"
"2:30 AM EET on November 13, 2016","2016","11","13","02","30","Europe/Kiev","12:30 AM GMT on November 13, 2016","2016","11","13","00","30","UTC","-1.0","30.2","-2.0","28.4","93","25.2","15.7","-9999.0","-9999.0","70","ENE","8.0","5.0","1020","30.12","-7.2","19.1","-9999","-9999","-9999.00","-9999.00","Light Snow Showers","snow","0","0","1","0","0","0","METAR UKKK 130030Z 07007MPS 8000 -SHSN SCT011 BKN019CB M01/M02 Q1020 R08/590250 TEMPO 06009G15MPS 0700 +SHSN BKN005 BKN012CB"
"3:00 AM EET on November 13, 2016","2016","11","13","03","00","Europe/Kiev","1:00 AM GMT on November 13, 2016","2016","11","13","01","00","UTC","-1.0","30.2","-3.0","26.6","86","25.2","15.7","-9999.0","-9999.0","80","East","4.0","2.5","1020","30.12","-7.2","19.1","-9999","-9999","-9999.00","-9999.00","Light Snow Showers","snow","0","0","1","0","0","0","METAR UKKK 130100Z 08007MPS 4000 -SHSN SCT011 BKN019CB M01/M03 Q1020 R08/590250 TEMPO 06009G15MPS 0700 +SHSN BKN005 BKN012CB"
"3:30 AM EET on November 13, 2016","2016","11","13","03","30","Europe/Kiev","1:30 AM GMT on November 13, 2016","2016","11","13","01","30","UTC","-1.0","30.2","-3.0","26.6","86","25.2","15.7","-9999.0","-9999.0","80","East","2.2","1.4","1019","30.09","-7.2","19.1","-9999","-9999","-9999.00","-9999.00","Light Snow","snow","0","0","1","0","0","0","METAR UKKK 130130Z 08007MPS 2200 -SN OVC016 M01/M03 Q1019 R08/590246 TEMPO 06009G15MPS 0700 +SHSN BKN005 BKN012CB"
"4:00 AM EET on November 13, 2016","2016","11","13","04","00","Europe/Kiev","2:00 AM GMT on November 13, 2016","2016","11","13","02","00","UTC","0.0","32.0","-3.0","26.6","80","25.2","15.7","-9999.0","-9999.0","70","ENE","10.0","6.2","1019","30.09","-5.9","21.4","-9999","-9999","-9999.00","-9999.00","Overcast","cloudy","0","0","0","0","0","0","METAR UKKK 130200Z 07007MPS 9999 OVC016 M00/M03 Q1019 R08/590246 TEMPO 06009G15MPS 0700 +SHSN BKN005 BKN012CB"
"4:30 AM EET on November 13, 2016","2016","11","13","04","30","Europe/Kiev","2:30 AM GMT on November 13, 2016","2016","11","13","02","30","UTC","0.0","32.0","-4.0","24.8","75","28.8","17.9","-9999.0","-9999.0","70","ENE","10.0","6.2","1019","30.09","-6.3","20.6","-9999","-9999","-9999.00","-9999.00","Overcast","cloudy","0","0","0","0","0","0","METAR UKKK 130230Z 07008MPS 9999 OVC015 M00/M04 Q1019 R08/590246 TEMPO 06009G15MPS 2000 SHSN BKN012CB"
"5:00 AM EET on November 13, 2016","2016","11","13","05","00","Europe/Kiev","3:00 AM GMT on November 13, 2016","2016","11","13","03","00","UTC","-0","31","-4","26","72","14.4","8.9","","","100","East","10","6","1020","30.12","-999","-999","-9999","-9999","","","Partly Cloudy","partlycloudy","0","0","0","0","0","0","AAXX 13031 33345 41597 81004 11003 21036 39987 40198 57021 70272 885// 333 88622 555 1/000"
"5:00 AM EET on November 13, 2016","2016","11","13","05","00","Europe/Kiev","3:00 AM GMT on November 13, 2016","2016","11","13","03","00","UTC","0.0","32.0","-4.0","24.8","75","28.8","17.9","-9999.0","-9999.0","70","ENE","10.0","6.2","1018","30.06","-6.3","20.6","-9999","-9999","-9999.00","-9999.00","Overcast","cloudy","0","0","0","0","0","0","METAR UKKK 130300Z 07008MPS 9999 OVC016 M00/M04 Q1018 R08/590246 TEMPO 06009G15MPS 2000 SHSN BKN012CB"
"5:30 AM EET on November 13, 2016","2016","11","13","05","30","Europe/Kiev","3:30 AM GMT on November 13, 2016","2016","11","13","03","30","UTC","0.0","32.0","-4.0","24.8","75","32.4","20.1","-9999.0","-9999.0","70","ENE","9.0","5.6","1017","30.04","-6.7","20.0","-9999","-9999","-9999.00","-9999.00","Mostly Cloudy","mostlycloudy","0","0","0","0","0","0","METAR UKKK 130330Z 07009MPS 9000 FEW016 BKN073 M00/M04 Q1017 R08/590246 TEMPO 06009G15MPS 2000 SHSN BKN012CB"
"6:00 AM EET on November 13, 2016","2016","11","13","06","00","Europe/Kiev","4:00 AM GMT on November 13, 2016","2016","11","13","04","00","UTC","0.0","32.0","-4.0","24.8","75","28.8","17.9","-9999.0","-9999.0","70","ENE","-9999.0","-9999.0","1017","30.04","-6.3","20.6","-9999","-9999","-9999.00","-9999.00","Clear","clear","0","0","0","0","0","0","METAR UKKK 130400Z 07008MPS CAVOK M00/M04 Q1017 R08/590246 TEMPO 06009G15MPS 2000 SHSN BKN012CB"
"6:30 AM EET on November 13, 2016","2016","11","13","06","30","Europe/Kiev","4:30 AM GMT on November 13, 2016","2016","11","13","04","30","UTC","0.0","32.0","-4.0","24.8","75","28.8","17.9","-9999.0","-9999.0","70","ENE","10.0","6.2","1016","30.01","-6.3","20.6","-9999","-9999","-9999.00","-9999.00","Mostly Cloudy","mostlycloudy","0","0","0","0","0","0","METAR UKKK 130430Z 07008MPS 9999 FEW016 BKN079 M00/M04 Q1016 R08/590246 TEMPO 06009G15MPS 2000 SHSN BKN012CB"
"7:00 AM EET on November 13, 2016","2016","11","13","07","00","Europe/Kiev","5:00 AM GMT on November 13, 2016","2016","11","13","05","00","UTC","0.0","32.0","-4.0","24.8","75","28.8","17.9","-9999.0","-9999.0","70","ENE","10.0","6.2","1016","30.01","-6.3","20.6","-9999","-9999","-9999.00","-9999.00","Overcast","cloudy","0","0","0","0","0","0","METAR UKKK 130500Z 07008MPS 9999 BKN015 OVC100 M00/M04 Q1016 R08/590246 TEMPO 06009G15MPS"
"7:30 AM EET on November 13, 2016","2016","11","13","07","30","Europe/Kiev","5:30 AM GMT on November 13, 2016","2016","11","13","05","30","UTC","0.0","32.0","-3.0","26.6","80","28.8","17.9","-9999.0","-9999.0","70","ENE","10.0","6.2","1016","30.01","-6.3","20.6","-9999","-9999","-9999.00","-9999.00","Overcast","cloudy","0","0","0","0","0","0","METAR UKKK 130530Z 07008MPS 9999 OVC015 M00/M03 Q1016 R08/590246 TEMPO 06009G15MPS"
"8:00 AM EET on November 13, 2016","2016","11","13","08","00","Europe/Kiev","6:00 AM GMT on November 13, 2016","2016","11","13","06","00","UTC","-0","31","-4","25","71","14.4","8.9","","","90","East","20","12","1017","30.04","-999","-999","-9999","-9999","","","Partly Cloudy","partlycloudy","0","0","0","0","0","0","AAXX 13061 33345 11498 80904 11004 21038 39963 40173 57024 69992 70272 885// 333 21012 43003 88617 555 1/101"
"8:00 AM EET on November 13, 2016","2016","11","13","08","00","Europe/Kiev","6:00 AM GMT on November 13, 2016","2016","11","13","06","00","UTC","0.0","32.0","-3.0","26.6","80","28.8","17.9","-9999.0","-9999.0","70","ENE","10.0","6.2","1015","29.98","-6.3","20.6","-9999","-9999","-9999.00","-9999.00","Overcast","cloudy","0","0","0","0","0","0","METAR UKKK 130600Z 07008MPS 9999 OVC014 M00/M03 Q1015 R08/590246 TEMPO 06009G15MPS"
"8:30 AM EET on November 13, 2016","2016","11","13","08","30","Europe/Kiev","6:30 AM GMT on November 13, 2016","2016","11","13","06","30","UTC","0.0","32.0","-3.0","26.6","80","28.8","17.9","-9999.0","-9999.0","70","ENE","10.0","6.2","1015","29.98","-6.3","20.6","-9999","-9999","-9999.00","-9999.00","Overcast","cloudy","0","0","0","0","0","0","METAR UKKK 130630Z 07008MPS 9999 OVC014 M00/M03 Q1015 R08/590246 TEMPO 06009G15MPS"
"9:00 AM EET on November 13, 2016","2016","11","13","09","00","Europe/Kiev","7:00 AM GMT on November 13, 2016","2016","11","13","07","00","UTC","0.0","32.0","-3.0","26.6","80","28.8","17.9","-9999.0","-9999.0","70","ENE","10.0","6.2","1015","29.98","-6.3","20.6","-9999","-9999","-9999.00","-9999.00","Overcast","cloudy","0","0","0","0","0","0","METAR UKKK 130700Z 07008MPS 9999 OVC014 00/M03 Q1015 R08/590246 TEMPO 06009G15MPS"
"9:30 AM EET on November 13, 2016","2016","11","13","09","30","Europe/Kiev","7:30 AM GMT on November 13, 2016","2016","11","13","07","30","UTC","0.0","32.0","-3.0","26.6","80","28.8","17.9","-9999.0","-9999.0","70","ENE","9.0","5.6","1015","29.98","-6.3","20.6","-9999","-9999","-9999.00","-9999.00","Overcast","cloudy","0","0","0","0","0","0","METAR UKKK 130730Z 07008MPS 9000 BKN014 OVC037 00/M03 Q1015 R08/590246 TEMPO 06009G15MPS"
"9:50 AM EET on November 13, 2016","2016","11","13","09","50","Europe/Kiev","7:50 AM GMT on November 13, 2016","2016","11","13","07","50","UTC","0.0","32.0","-2.0","28.4","87","28.8","17.9","46.8","29.1","60","ENE","1.9","1.2","1015","29.98","-6.3","20.6","-9999","-9999","-9999.00","-9999.00","Snow","snow","0","0","1","0","0","0","SPECI UKKK 130750Z 06008G13MPS 1900 SN BKN012 OVC034 00/M02 Q1015 R08/590246 TEMPO 06009G15MPS 1000 SHSN BKN012CB"
"9:52 AM EET on November 13, 2016","2016","11","13","09","52","Europe/Kiev","7:52 AM GMT on November 13, 2016","2016","11","13","07","52","UTC","0.0","32.0","-2.0","28.4","87","32.4","20.1","-9999.0","-9999.0","60","ENE","0.8","0.5","1015","29.98","-6.7","20.0","-9999","-9999","-9999.00","-9999.00","Heavy Snow","snow","0","0","1","0","0","0","SPECI UKKK 130752Z 06009MPS 0800 R08/1000VP2000D +SN BKN009 OVC026 00/M02 Q1015 R08/590246 TEMPO 06009G15MPS 0600 +SHSN BKN012CB"
"10:00 AM EET on November 13, 2016","2016","11","13","10","00","Europe/Kiev","8:00 AM GMT on November 13, 2016","2016","11","13","08","00","UTC","0.0","32.0","-2.0","28.4","87","28.8","17.9","46.8","29.1","60","ENE","-9999.0","-9999.0","1015","29.98","-6.3","20.6","-9999","-9999","-9999.00","-9999.00","Light Snow","snow","0","0","1","0","0","0","METAR UKKK 130800Z 06008G13MPS 4900 -SN BKN013 OVC033 M00/M02 Q1015 RESN R08/590246 TEMPO 03010G17MPS 0600 +SHSN BKN015CB"
"10:30 AM EET on November 13, 2016","2016","11","13","10","30","Europe/Kiev","8:30 AM GMT on November 13, 2016","2016","11","13","08","30","UTC","0.0","32.0","-2.0","28.4","87","28.8","17.9","-9999.0","-9999.0","60","ENE","10.0","6.2","1015","29.98","-6.3","20.6","-9999","-9999","-9999.00","-9999.00","Overcast","cloudy","0","0","0","0","0","0","METAR UKKK 130830Z 06008MPS 9999 BKN013 OVC042 M00/M02 Q1015 R08/590246 TEMPO 03010G17MPS 1400 SHSN BKN015CB"
"11:00 AM EET on November 13, 2016","2016","11","13","11","00","Europe/Kiev","9:00 AM GMT on November 13, 2016","2016","11","13","09","00","UTC","0","32","-3","27","76","14.4","8.9","","","80","East","4","2","1016","30.00","-999","-999","-9999","-9999","","","Light Snow","snow","0","0","1","0","0","0","AAXX 13091 33345 41496 80804 10000 21026 39947 40157 57016 77172 885// 333 88716 555 1/100"
"11:00 AM EET on November 13, 2016","2016","11","13","11","00","Europe/Kiev","9:00 AM GMT on November 13, 2016","2016","11","13","09","00","UTC","0.0","32.0","-2.0","28.4","87","28.8","17.9","-9999.0","-9999.0","60","ENE","5.0","3.1","1014","29.95","-6.3","20.6","-9999","-9999","-9999.00","-9999.00","Light Snow","snow","0","0","1","0","0","0","METAR UKKK 130900Z 06008MPS 5000 -SN BKN014 OVC043 M00/M02 Q1014 R08/590246 TEMPO 03010G17MPS 1400 SHSN BKN015CB"
"11:30 AM EET on November 13, 2016","2016","11","13","11","30","Europe/Kiev","9:30 AM GMT on November 13, 2016","2016","11","13","09","30","UTC","0.0","32.0","-2.0","28.4","87","32.4","20.1","-9999.0","-9999.0","60","ENE","5.0","3.1","1013","29.92","-6.7","20.0","-9999","-9999","-9999.00","-9999.00","Light Snow Showers","snow","0","0","1","0","0","0","METAR UKKK 130930Z 06009MPS 5000 -SHSN SCT022CB BKN043 00/M02 Q1013 R08/590246 TEMPO 03010G17MPS 1400 SHSN BKN015CB"
"12:00 PM EET on November 13, 2016","2016","11","13","12","00","Europe/Kiev","10:00 AM GMT on November 13, 2016","2016","11","13","10","00","UTC","0.0","32.0","-2.0","28.4","87","28.8","17.9","-9999.0","-9999.0","60","ENE","8.0","5.0","1013","29.92","-6.3","20.6","-9999","-9999","-9999.00","-9999.00","Light Snow Showers","snow","0","0","1","0","0","0","METAR UKKK 131000Z 06008MPS 8000 -SHSN SCT030CB OVC046 00/M02 Q1013 R08/590246 TEMPO 03010G17MPS 2000 SHSN BKN015CB"
"12:30 PM EET on November 13, 2016","2016","11","13","12","30","Europe/Kiev","10:30 AM GMT on November 13, 2016","2016","11","13","10","30","UTC","0.0","32.0","-2.0","28.4","87","28.8","17.9","-9999.0","-9999.0","60","ENE","9.0","5.6","1013","29.92","-6.3","20.6","-9999","-9999","-9999.00","-9999.00","Light Snow","snow","0","0","1","0","0","0","METAR UKKK 131030Z 06008MPS 9000 -SN SCT015 OVC031 00/M02 Q1013 R08/590246 TEMPO 03010G17MPS 2000 SHSN BKN015CB"
"12:54 PM EET on November 13, 2016","2016","11","13","12","54","Europe/Kiev","10:54 AM GMT on November 13, 2016","2016","11","13","10","54","UTC","0.0","32.0","-2.0","28.4","87","28.8","17.9","50.4","31.3","60","ENE","1.8","1.1","1012","29.89","-6.3","20.6","-9999","-9999","-9999.00","-9999.00","Snow","snow","0","0","1","0","0","0","SPECI UKKK 131054Z 06008G14MPS 1800 SN SCT012 OVC030 00/M02 Q1012 R08/590246 TEMPO 03010G17MPS 1000 SHSN BKN015CB"
"1:00 PM EET on November 13, 2016","2016","11","13","13","00","Europe/Kiev","11:00 AM GMT on November 13, 2016","2016","11","13","11","00","UTC","0.0","32.0","-2.0","28.4","87","28.8","17.9","-9999.0","-9999.0","60","ENE","1.2","0.7","1012","29.89","-6.3","20.6","-9999","-9999","-9999.00","-9999.00","Snow","snow","0","0","1","0","0","0","METAR UKKK 131100Z 06008MPS 1200 R08/1500VP2000D SN SCT012 OVC027 00/M02 Q1012 R08/590246 TEMPO 03010G17MPS 0600 +SHSN BKN015CB"
"1:30 PM EET on November 13, 2016","2016","11","13","13","30","Europe/Kiev","11:30 AM GMT on November 13, 2016","2016","11","13","11","30","UTC","0.0","32.0","-2.0","28.4","87","32.4","20.1","50.4","31.3","50","NE","1.3","0.8","1011","29.86","-6.7","20.0","-9999","-9999","-9999.00","-9999.00","Snow","snow","0","0","1","0","0","0","METAR UKKK 131130Z 05009G14MPS 1300 R08/1500N SN SCT010 OVC027 M00/M02 Q1011 R08/590246 TEMPO 03010G17MPS 0600 +SHSN BKN015CB"
"1:50 PM EET on November 13, 2016","2016","11","13","13","50","Europe/Kiev","11:50 AM GMT on November 13, 2016","2016","11","13","11","50","UTC","0.0","32.0","-1.0","30.2","93","32.4","20.1","-9999.0","-9999.0","50","NE","2.5","1.6","1011","29.86","-6.7","20.0","-9999","-9999","-9999.00","-9999.00","Light Snow","snow","0","0","1","0","0","0","SPECI UKKK 131150Z 05009MPS 2500 -SN SCT010 OVC027 M00/M01 Q1011 RESN R08/590246 TEMPO 03010G17MPS 1400 SHSN BKN015CB"
"2:00 PM EET on November 13, 2016","2016","11","13","14","00","Europe/Kiev","12:00 PM GMT on November 13, 2016","2016","11","13","12","00","UTC","-0","31","-2","29","90","21.6","13.4","","","70","ENE","1","1","1012","29.90","-999","-999","-9999","-9999","","","Heavy Snow","snow","0","0","1","0","0","0","AAXX 13121 33345 /1394 80706 11004 21016 39914 40123 56033 77572 8872/ 333 88706 555 1/100 60021"
"2:00 PM EET on November 13, 2016","2016","11","13","14","00","Europe/Kiev","12:00 PM GMT on November 13, 2016","2016","11","13","12","00","UTC","0.0","32.0","-1.0","30.2","93","32.4","20.1","-9999.0","-9999.0","50","NE","2.8","1.7","1011","29.86","-6.7","20.0","-9999","-9999","-9999.00","-9999.00","Light Snow","snow","0","0","1","0","0","0","METAR UKKK 131200Z 05009MPS 2800 -SN SCT008 OVC030 M00/M01 Q1011 R08/590246 TEMPO 03010G17MPS 1400 SHSN BKN015CB"
"2:30 PM EET on November 13, 2016","2016","11","13","14","30","Europe/Kiev","12:30 PM GMT on November 13, 2016","2016","11","13","12","30","UTC","0.0","32.0","-2.0","28.4","87","28.8","17.9","-9999.0","-9999.0","40","NE","1.4","0.9","1011","29.86","-6.3","20.6","-9999","-9999","-9999.00","-9999.00","Snow","snow","0","0","1","0","0","0","METAR UKKK 131230Z 04008MPS 1400 R08/1300VP2000D SN SCT007 OVC023 M00/M02 Q1011 R08/590536 TEMPO 06010G17MPS 0600 +SHSN BKN005 BKN015CB"
"3:00 PM EET on November 13, 2016","2016","11","13","15","00","Europe/Kiev","1:00 PM GMT on November 13, 2016","2016","11","13","13","00","UTC","0.0","32.0","-2.0","28.4","87","28.8","17.9","46.8","29.1","50","NE","1.0","0.6","1011","29.86","-6.3","20.6","-9999","-9999","-9999.00","-9999.00","Snow","snow","0","0","1","0","0","0","METAR UKKK 131300Z 05008G13MPS 1000 R08/1200N SN SCT009 OVC023 M00/M02 Q1011 R08/590536 TEMPO 06010G17MPS 0600 +SHSN BKN005 BKN015CB"
"3:16 PM EET on November 13, 2016","2016","11","13","15","16","Europe/Kiev","1:16 PM GMT on November 13, 2016","2016","11","13","13","16","UTC","0.0","32.0","-2.0","28.4","87","28.8","17.9","-9999.0","-9999.0","50","NE","0.9","0.6","1011","29.86","-6.3","20.6","-9999","-9999","-9999.00","-9999.00","Heavy Snow","snow","0","0","1","0","0","0","SPECI UKKK 131316Z 05008MPS 0900 R08/1300N +SN OVC006 M00/M02 Q1011 R08/590536 TEMPO 06010G17MPS 0600 +SHSN BKN005 BKN015CB"
"3:17 PM EET on November 13, 2016","2016","11","13","15","17","Europe/Kiev","1:17 PM GMT on November 13, 2016","2016","11","13","13","17","UTC","0.0","32.0","-2.0","28.4","87","28.8","17.9","-9999.0","-9999.0","60","ENE","-9999.0","-9999.0","1011","29.86","-6.3","20.6","-9999","-9999","-9999.00","-9999.00","Heavy Snow","snow","0","0","1","0","0","0","SPECI UKKK 131317Z 06008MPS 0750 R08/1300N +SN OVC006 M00/M02 Q1011 R08/590536 TEMPO 06010G17MPS 0400 +SHSN BKN004 BKN015CB"
"3:30 PM EET on November 13, 2016","2016","11","13","15","30","Europe/Kiev","1:30 PM GMT on November 13, 2016","2016","11","13","13","30","UTC","-1.0","30.2","-2.0","28.4","93","25.2","15.7","-9999.0","-9999.0","50","NE","-9999.0","-9999.0","1011","29.86","-7.2","19.1","-9999","-9999","-9999.00","-9999.00","Heavy Snow","snow","0","0","1","0","0","0","METAR UKKK 131330Z 05007MPS 0650 R08/1200N +SN OVC008 M01/M02 Q1011 R08/590536 TEMPO 06010G17MPS 0400 +SHSN BKN004 BKN015CB"
"3:40 PM EET on November 13, 2016","2016","11","13","15","40","Europe/Kiev","1:40 PM GMT on November 13, 2016","2016","11","13","13","40","UTC","-1.0","30.2","-2.0","28.4","93","25.2","15.7","-9999.0","-9999.0","50","NE","-9999.0","-9999.0","1011","29.86","-7.2","19.1","-9999","-9999","-9999.00","-9999.00","Heavy Snow","snow","0","0","1","0","0","0","SPECI UKKK 131340Z 05007MPS 0550 R08/1200N +SN OVC004 M01/M02 Q1011 R08/590536 TEMPO 06010G17MPS 0400 +SHSN BKN003 BKN015CB"
"4:00 PM EET on November 13, 2016","2016","11","13","16","00","Europe/Kiev","2:00 PM GMT on November 13, 2016","2016","11","13","14","00","UTC","-1.0","30.2","-1.0","30.2","100","25.2","15.7","-9999.0","-9999.0","50","NE","0.4","0.3","1011","29.86","-7.2","19.1","-9999","-9999","-9999.00","-9999.00","Heavy Snow","snow","0","0","1","0","0","0","METAR UKKK 131400Z 05007MPS 0450 R08/1000N +SN OVC003 M01/M01 Q1011 R08/590536 TEMPO 06010G17MPS 0400 +SHSN BKN003 BKN015CB"
"4:30 PM EET on November 13, 2016","2016","11","13","16","30","Europe/Kiev","2:30 PM GMT on November 13, 2016","2016","11","13","14","30","UTC","-1.0","30.2","-1.0","30.2","100","28.8","17.9","-9999.0","-9999.0","50","NE","0.4","0.3","1011","29.86","-7.6","18.3","-9999","-9999","-9999.00","-9999.00","Heavy Snow","snow","0","0","1","0","0","0","METAR UKKK 131430Z 05008MPS 0450 R08/1100U +SN OVC003 M01/M01 Q1011 R08/590536 TEMPO 06010G17MPS 0400 +SHSN BKN002 BKN015CB"
"5:00 PM EET on November 13, 2016","2016","11","13","17","00","Europe/Kiev","3:00 PM GMT on November 13, 2016","2016","11","13","15","00","UTC","-1","30","-2","29","94","18.0","11.2","","","60","ENE","1","1","1013","29.91","-999","-999","-9999","-9999","","","Snow","snow","0","0","1","0","0","0","AAXX 13151 33345 41294 80605 11011 21017 39919 40129 53005 77372 8872/ 333 88703 555 1/101"
"5:00 PM EET on November 13, 2016","2016","11","13","17","00","Europe/Kiev","3:00 PM GMT on November 13, 2016","2016","11","13","15","00","UTC","-1.0","30.2","-2.0","28.4","93","28.8","17.9","-9999.0","-9999.0","50","NE","0.6","0.4","1011","29.86","-7.6","18.3","-9999","-9999","-9999.00","-9999.00","Heavy Snow","snow","0","0","1","0","0","0","METAR UKKK 131500Z 05008MPS 0600 R08/1600U +SN OVC004 M01/M02 Q1011 R08/590536 TEMPO 06010G17MPS 0400 +SHSN BKN002 BKN015CB"
"5:30 PM EET on November 13, 2016","2016","11","13","17","30","Europe/Kiev","3:30 PM GMT on November 13, 2016","2016","11","13","15","30","UTC","-1.0","30.2","-2.0","28.4","93","25.2","15.7","-9999.0","-9999.0","40","NE","-9999.0","-9999.0","1011","29.86","-7.2","19.1","-9999","-9999","-9999.00","-9999.00","Heavy Snow","snow","0","0","1","0","0","0","METAR UKKK 131530Z 04007MPS 0550 R08/1500N +SN OVC004 M01/M02 Q1011 R08/590536 TEMPO 06010G17MPS 0400 +SHSN BKN002 BKN015CB"
"6:00 PM EET on November 13, 2016","2016","11","13","18","00","Europe/Kiev","4:00 PM GMT on November 13, 2016","2016","11","13","16","00","UTC","-1.0","30.2","-2.0","28.4","93","32.4","20.1","-9999.0","-9999.0","30","NNE","-9999.0","-9999.0","1012","29.89","-8.0","17.6","-9999","-9999","-9999.00","-9999.00","Heavy Snow","snow","0","0","1","0","0","0","METAR UKKK 131600Z 03009MPS 0550 R08/1500D +SN OVC004 M01/M02 Q1012 R08/590536 TEMPO 06010G17MPS 0400 +SHSN BKN002 BKN015CB"
"6:30 PM EET on November 13, 2016","2016","11","13","18","30","Europe/Kiev","4:30 PM GMT on November 13, 2016","2016","11","13","16","30","UTC","-1.0","30.2","-2.0","28.4","93","28.8","17.9","-9999.0","-9999.0","30","NNE","0.7","0.4","1012","29.89","-7.6","18.3","-9999","-9999","-9999.00","-9999.00","Heavy Snow","snow","0","0","1","0","0","0","METAR UKKK 131630Z 03008MPS 0700 R08/1700U +SN OVC005 M01/M02 Q1012 R08/590536 TEMPO 06010G17MPS 0400 +SHSN BKN002 BKN015CB"
"6:40 PM EET on November 13, 2016","2016","11","13","18","40","Europe/Kiev","4:40 PM GMT on November 13, 2016","2016","11","13","16","40","UTC","-1.0","30.2","-2.0","28.4","93","32.4","20.1","-9999.0","-9999.0","30","NNE","0.7","0.4","1012","29.89","-8.0","17.6","-9999","-9999","-9999.00","-9999.00","Heavy Snow","snow","0","0","1","0","0","0","SPECI UKKK 131640Z 03009MPS 0700 R08/1700N +SN OVC004 M01/M02 Q1012 R08/890520 TEMPO 06010G17MPS 0400 +SHSN BKN002 BKN015CB"
"7:00 PM EET on November 13, 2016","2016","11","13","19","00","Europe/Kiev","5:00 PM GMT on November 13, 2016","2016","11","13","17","00","UTC","-1.0","30.2","-2.0","28.4","93","32.4","20.1","50.4","31.3","30","NNE","1.0","0.6","1012","29.89","-8.0","17.6","-9999","-9999","-9999.00","-9999.00","Snow","snow","0","0","1","0","0","0","METAR UKKK 131700Z 03009G14MPS 1000 R08/2000U SN OVC007 M01/M02 Q1012 RESN R08/890520 TEMPO 06010G17MPS 0400 +SHSN BKN002 BKN015CB"
"7:26 PM EET on November 13, 2016","2016","11","13","19","26","Europe/Kiev","5:26 PM GMT on November 13, 2016","2016","11","13","17","26","UTC","-1.0","30.2","-2.0","28.4","93","36.0","22.4","-9999.0","-9999.0","30","NNE","0.9","0.6","1012","29.89","-8.3","17.0","-9999","-9999","-9999.00","-9999.00","Heavy Snow","snow","0","0","1","0","0","0","SPECI UKKK 131726Z 03010MPS 0900 R08/1900D +SN OVC005 M01/M02 Q1012 R08/890520 TEMPO 06010G17MPS 0400 +SHSN BKN002 BKN015CB"
"7:30 PM EET on November 13, 2016","2016","11","13","19","30","Europe/Kiev","5:30 PM GMT on November 13, 2016","2016","11","13","17","30","UTC","-1.0","30.2","-2.0","28.4","93","36.0","22.4","-9999.0","-9999.0","30","NNE","-9999.0","-9999.0","1012","29.89","-8.3","17.0","-9999","-9999","-9999.00","-9999.00","Heavy Snow","snow","0","0","1","0","0","0","METAR UKKK 131730Z 03010MPS 0750 R08/1800N +SN OVC004 M01/M02 Q1012 R08/890520 TEMPO 06010G17MPS 0400 +SHSN BKN002 BKN015CB"
"8:00 PM EET on November 13, 2016","2016","11","13","20","00","Europe/Kiev","6:00 PM GMT on November 13, 2016","2016","11","13","18","00","UTC","-2","29","-2","29","98","21.6","13.4","","","50","NE","1","1","1014","29.94","-999","-999","-9999","-9999","","","Heavy Snow","snow","0","0","1","0","0","0","AAXX 13181 33345 11294 80506 11016 21019 39928 40139 52009 60152 77572 8872/ 333 10001 555 1/103"
"8:00 PM EET on November 13, 2016","2016","11","13","20","00","Europe/Kiev","6:00 PM GMT on November 13, 2016","2016","11","13","18","00","UTC","-1.0","30.2","-2.0","28.4","93","32.4","20.1","-9999.0","-9999.0","30","NNE","-9999.0","-9999.0","1012","29.89","-8.0","17.6","-9999","-9999","-9999.00","-9999.00","Heavy Snow","snow","0","0","1","0","0","0","METAR UKKK 131800Z 03009MPS 0750 R08/1700N +SN BKN004 OVC013 M01/M02 Q1012 R08/890520 TEMPO 06010G17MPS 0400 +SHSN BKN002 BKN015CB"
"8:01 PM EET on November 13, 2016","2016","11","13","20","01","Europe/Kiev","6:01 PM GMT on November 13, 2016","2016","11","13","18","01","UTC","-2.0","28.4","-3.0","26.6","93","32.4","20.1","50.4","31.3","30","NNE","0.8","0.5","1012","29.89","-9.3","15.2","-9999","-9999","-9999.00","-9999.00","Heavy Snow","snow","0","0","1","0","0","0","SPECI UKKK 131801Z 03009G14MPS 0800 R08/1700D +SN BKN004 OVC013 M02/M03 Q1012 R08/890520 TEMPO 06010G17MPS 0400 +SHSN BKN002 BKN015CB"
"8:30 PM EET on November 13, 2016","2016","11","13","20","30","Europe/Kiev","6:30 PM GMT on November 13, 2016","2016","11","13","18","30","UTC","-2.0","28.4","-3.0","26.6","93","36.0","22.4","-9999.0","-9999.0","30","NNE","0.9","0.6","1013","29.92","-9.7","14.6","-9999","-9999","-9999.00","-9999.00","Heavy Snow","snow","0","0","1","0","0","0","METAR UKKK 131830Z 03010MPS 0900 R08/1800N +SN BKN005 OVC013 M02/M03 Q1013 R08/890520 TEMPO 36010G17MPS 0400 +SHSN BKN003 BKN012CB"
"8:48 PM EET on November 13, 2016","2016","11","13","20","48","Europe/Kiev","6:48 PM GMT on November 13, 2016","2016","11","13","18","48","UTC","-2.0","28.4","-3.0","26.6","93","32.4","20.1","-9999.0","-9999.0","30","NNE","1.2","0.7","1013","29.92","-9.3","15.2","-9999","-9999","-9999.00","-9999.00","Snow","snow","0","0","1","0","0","0","SPECI UKKK 131848Z 03009MPS 1200 R08/P2000U SN BKN006 OVC013 M02/M03 Q1013 RESN R08/890520 TEMPO 36010G17MPS 0400 +SHSN BKN003 BKN012CB"
"9:00 PM EET on November 13, 2016","2016","11","13","21","00","Europe/Kiev","7:00 PM GMT on November 13, 2016","2016","11","13","19","00","UTC","-2.0","28.4","-3.0","26.6","93","32.4","20.1","-9999.0","-9999.0","30","NNE","1.2","0.7","1013","29.92","-9.3","15.2","-9999","-9999","-9999.00","-9999.00","Snow","snow","0","0","1","0","0","0","METAR UKKK 131900Z 03009MPS 1200 R08/P2000N SN BKN006 OVC013 M02/M03 Q1013 R08/890520 TEMPO 36010G17MPS 0400 +SHSN BKN003 BKN012CB"
"9:30 PM EET on November 13, 2016","2016","11","13","21","30","Europe/Kiev","7:30 PM GMT on November 13, 2016","2016","11","13","19","30","UTC","-2.0","28.4","-3.0","26.6","93","32.4","20.1","-9999.0","-9999.0","30","NNE","1.1","0.7","1013","29.92","-9.3","15.2","-9999","-9999","-9999.00","-9999.00","Snow","snow","0","0","1","0","0","0","METAR UKKK 131930Z 03009MPS 1100 R08/2000N SN BKN006 OVC014 M02/M03 Q1013 R08/890520 TEMPO 36010G17MPS 0400 +SHSN BKN003 BKN012CB"
"9:38 PM EET on November 13, 2016","2016","11","13","21","38","Europe/Kiev","7:38 PM GMT on November 13, 2016","2016","11","13","19","38","UTC","-2.0","28.4","-3.0","26.6","93","32.4","20.1","50.4","31.3","30","NNE","1.2","0.7","1013","29.92","-9.3","15.2","-9999","-9999","-9999.00","-9999.00","Snow","snow","0","0","1","0","0","0","SPECI UKKK 131938Z 03009G14MPS 1200 R08/P2000U SN BKN006 OVC014 M02/M03 Q1013 R08/890520 TEMPO 36010G17MPS 0400 +SHSN BKN003 BKN012CB"
"10:00 PM EET on November 13, 2016","2016","11","13","22","00","Europe/Kiev","8:00 PM GMT on November 13, 2016","2016","11","13","20","00","UTC","-2.0","28.4","-3.0","26.6","93","32.4","20.1","-9999.0","-9999.0","20","NNE","1.3","0.8","1013","29.92","-9.3","15.2","-9999","-9999","-9999.00","-9999.00","Snow","snow","0","0","1","0","0","0","METAR UKKK 132000Z 02009MPS 1300 R08/P2000D SN BKN006 OVC015 M02/M03 Q1013 R08/890520 TEMPO 02010G17MPS 0800 +SHSN BKN004 BKN012CB"
"10:30 PM EET on November 13, 2016","2016","11","13","22","30","Europe/Kiev","8:30 PM GMT on November 13, 2016","2016","11","13","20","30","UTC","-2.0","28.4","-3.0","26.6","93","32.4","20.1","-9999.0","-9999.0","20","NNE","1.6","1.0","1014","29.95","-9.3","15.2","-9999","-9999","-9999.00","-9999.00","Snow","snow","0","0","1","0","0","0","METAR UKKK 132030Z 02009MPS 1600 SN BKN006 OVC015 M02/M03 Q1014 R08/890520 TEMPO 02010G17MPS 0800 +SHSN BKN004 BKN012CB"
"10:58 PM EET on November 13, 2016","2016","11","13","22","58","Europe/Kiev","8:58 PM GMT on November 13, 2016","2016","11","13","20","58","UTC","-2.0","28.4","-3.0","26.6","93","32.4","20.1","-9999.0","-9999.0","20","NNE","2.3","1.4","1014","29.95","-9.3","15.2","-9999","-9999","-9999.00","-9999.00","Light Snow","snow","0","0","1","0","0","0","SPECI UKKK 132058Z 02009MPS 2300 -SN BKN006 OVC015 M02/M03 Q1014 RESN R08/890520 TEMPO 02010G17MPS 0800 +SHSN BKN004 BKN012CB"
"11:00 PM EET on November 13, 2016","2016","11","13","23","00","Europe/Kiev","9:00 PM GMT on November 13, 2016","2016","11","13","21","00","UTC","-2","29","-2","28","93","21.6","13.4","","","40","NE","1","1","1015","29.99","-999","-999","-9999","-9999","","","Light Snow","snow","0","0","1","0","0","0","AAXX 13211 33345 41394 80406 11019 21024 39942 40153 52014 77177 8872/ 333 88708 555 1/102"
"11:00 PM EET on November 13, 2016","2016","11","13","23","00","Europe/Kiev","9:00 PM GMT on November 13, 2016","2016","11","13","21","00","UTC","-2.0","28.4","-3.0","26.6","93","28.8","17.9","-9999.0","-9999.0","20","NNE","2.3","1.4","1014","29.95","-8.9","15.9","-9999","-9999","-9999.00","-9999.00","Light Snow","snow","0","0","1","0","0","0","METAR UKKK 132100Z 02008MPS 2300 -SN BKN007 OVC015 M02/M03 Q1014 R08/890520 TEMPO 02010G17MPS 0800 +SHSN BKN004 BKN012CB"
"11:03 PM EET on November 13, 2016","2016","11","13","23","03","Europe/Kiev","9:03 PM GMT on November 13, 2016","2016","11","13","21","03","UTC","-2.0","28.4","-3.0","26.6","93","28.8","17.9","50.4","31.3","20","NNE","2.4","1.5","1014","29.95","-8.9","15.9","-9999","-9999","-9999.00","-9999.00","Light Snow","snow","0","0","1","0","0","0","SPECI UKKK 132103Z 02008G14MPS 2400 -SN BKN007 OVC015 M02/M03 Q1014 R08/890520 TEMPO 02010G17MPS 0800 +SHSN BKN004 BKN012CB"
"11:30 PM EET on November 13, 2016","2016","11","13","23","30","Europe/Kiev","9:30 PM GMT on November 13, 2016","2016","11","13","21","30","UTC","-2.0","28.4","-3.0","26.6","93","32.4","20.1","-9999.0","-9999.0","20","NNE","1.3","0.8","1014","29.95","-9.3","15.2","-9999","-9999","-9999.00","-9999.00","Snow","snow","0","0","1","0","0","0","METAR UKKK 132130Z 02009MPS 1300 R08/P2000U SN BKN006 OVC015 M02/M03 Q1014 R08/890520 TEMPO 02010G17MPS 1000 SHSN BKN005 BKN012CB"
"12:00 AM EET on November 14, 2016","2016","11","14","00","00","Europe/Kiev","10:00 PM GMT on November 13, 2016","2016","11","13","22","00","UTC","-2.0","28.4","-3.0","26.6","93","32.4","20.1","-9999.0","-9999.0","20","NNE","2.0","1.2","1015","29.98","-9.3","15.2","-9999","-9999","-9999.00","-9999.00","Snow","snow","0","0","1","0","0","0","METAR UKKK 132200Z 02009MPS 2000 SN BKN006 OVC015 M02/M03 Q1015 R08/890520 TEMPO 02010G17MPS 1000 SHSN BKN005 BKN012CB"
"12:30 AM EET on November 14, 2016","2016","11","14","00","30","Europe/Kiev","10:30 PM GMT on November 13, 2016","2016","11","13","22","30","UTC","-2.0","28.4","-3.0","26.6","93","32.4","20.1","50.4","31.3","10","North","2.8","1.7","1015","29.98","-9.3","15.2","-9999","-9999","-9999.00","-9999.00","Light Snow","snow","0","0","1","0","0","0","METAR UKKK 132230Z 01009G14MPS 2800 -SN BKN006 OVC015 M02/M03 Q1015 RESN R08/890520 TEMPO 02010G17MPS 1000 SHSN BKN005 BKN012CB"
"1:00 AM EET on November 14, 2016","2016","11","14","01","00","Europe/Kiev","11:00 PM GMT on November 13, 2016","2016","11","13","23","00","UTC","-2.0","28.4","-3.0","26.6","93","32.4","20.1","-9999.0","-9999.0","10","North","7.0","4.3","1015","29.98","-9.3","15.2","-9999","-9999","-9999.00","-9999.00","Light Snow","snow","0","0","1","0","0","0","METAR UKKK 132300Z 01009MPS 7000 -SN BKN007 OVC015 M02/M03 Q1015 R08/850340 TEMPO 01010G17MPS 1000 SHSN BKN005 BKN012CB"
"1:30 AM EET on November 14, 2016","2016","11","14","01","30","Europe/Kiev","11:30 PM GMT on November 13, 2016","2016","11","13","23","30","UTC","-2.0","28.4","-3.0","26.6","93","32.4","20.1","-9999.0","-9999.0","10","North","9.0","5.6","1016","30.01","-9.3","15.2","-9999","-9999","-9999.00","-9999.00","Light Snow","snow","0","0","1","0","0","0","METAR UKKK 132330Z 01009MPS 9000 -SN OVC009 M02/M03 Q1016 R08/850340 TEMPO 01010G17MPS"
"1:54 AM EET on November 14, 2016","2016","11","14","01","54","Europe/Kiev","11:54 PM GMT on November 13, 2016","2016","11","13","23","54","UTC","-2.0","28.4","-3.0","26.6","93","28.8","17.9","-9999.0","-9999.0","10","North","1.9","1.2","1016","30.01","-8.9","15.9","-9999","-9999","-9999.00","-9999.00","Snow","snow","0","0","1","0","0","0","SPECI UKKK 132354Z 01008MPS 1900 SN OVC007 M02/M03 Q1016 R08/850340 TEMPO 01010G17MPS 1000 SHSN BLSN BKN005 BKN012CB"
"2:00 AM EET on November 14, 2016","2016","11","14","02","00","Europe/Kiev","12:00 AM GMT on November 14, 2016","2016","11","14","00","00","UTC","-2","28","-3","26","91","21.6","13.4","","","30","NNE","1","1","1017","30.04","-999","-999","-9999","-9999","","","Light Snow","snow","0","0","1","0","0","0","AAXX 14001 33345 /1294 80306 11022 21031 39959 40171 52017 77173 8872/ 333 88703 555 1/102 60031"
"2:00 AM EET on November 14, 2016","2016","11","14","02","00","Europe/Kiev","12:00 AM GMT on November 14, 2016","2016","11","14","00","00","UTC","-2.0","28.4","-3.0","26.6","93","28.8","17.9","-9999.0","-9999.0","10","North","1.4","0.9","1016","30.01","-8.9","15.9","-9999","-9999","-9999.00","-9999.00","Snow","snow","0","0","1","0","0","0","METAR UKKK 140000Z 01008MPS 1400 R08/P2000U SN OVC008 M02/M03 Q1016 R08/850340 TEMPO 01010G17MPS 1000 SHSN BLSN BKN005 BKN012CB"
"2:30 AM EET on November 14, 2016","2016","11","14","02","30","Europe/Kiev","12:30 AM GMT on November 14, 2016","2016","11","14","00","30","UTC","-2.0","28.4","-3.0","26.6","93","25.2","15.7","-9999.0","-9999.0","10","North","1.3","0.8","1016","30.01","-8.5","16.7","-9999","-9999","-9999.00","-9999.00","Snow","snow","0","0","1","0","0","0","METAR UKKK 140030Z 01007MPS 1300 R08/P2000D SN BKN006 OVC010 M02/M03 Q1016 R08/850340 TEMPO 01010G17MPS 1000 SHSN BLSN BKN005 BKN012CB"
"3:00 AM EET on November 14, 2016","2016","11","14","03","00","Europe/Kiev","1:00 AM GMT on November 14, 2016","2016","11","14","01","00","UTC","-2.0","28.4","-3.0","26.6","93","28.8","17.9","-9999.0","-9999.0","10","North","1.7","1.1","1016","30.01","-8.9","15.9","-9999","-9999","-9999.00","-9999.00","Snow","snow","0","0","1","0","0","0","METAR UKKK 140100Z 01008MPS 1700 SN BKN006 OVC010 M02/M03 Q1016 R08/850340 TEMPO 01010G17MPS 1000 SHSN BLSN BKN005 BKN012CB"
"3:13 AM EET on November 14, 2016","2016","11","14","03","13","Europe/Kiev","1:13 AM GMT on November 14, 2016","2016","11","14","01","13","UTC","-2.0","28.4","-3.0","26.6","93","32.4","20.1","54.0","33.6","10","North","2.1","1.3","1016","30.01","-9.3","15.2","-9999","-9999","-9999.00","-9999.00","Light Snow","snow","0","0","1","0","0","0","SPECI UKKK 140113Z 01009G15MPS 2100 -SN BKN006 OVC011 M02/M03 Q1016 R08/850340 TEMPO 01010G17MPS 1000 SHSN BLSN BKN005 BKN012CB"
"3:30 AM EET on November 14, 2016","2016","11","14","03","30","Europe/Kiev","1:30 AM GMT on November 14, 2016","2016","11","14","01","30","UTC","-2.0","28.4","-3.0","26.6","93","28.8","17.9","-9999.0","-9999.0","10","North","2.0","1.2","1016","30.01","-8.9","15.9","-9999","-9999","-9999.00","-9999.00","Snow","snow","0","0","1","0","0","0","METAR UKKK 140130Z 01008MPS 2000 SN BKN006 OVC011 M02/M03 Q1016 R08/850340 TEMPO 01010G17MPS 1000 SHSN BLSN BKN005 BKN012CB"
"4:00 AM EET on November 14, 2016","2016","11","14","04","00","Europe/Kiev","2:00 AM GMT on November 14, 2016","2016","11","14","02","00","UTC","-2.0","28.4","-3.0","26.6","93","25.2","15.7","-9999.0","-9999.0","10","North","4.0","2.5","1017","30.04","-8.5","16.7","-9999","-9999","-9999.00","-9999.00","Light Snow","snow","0","0","1","0","0","0","METAR UKKK 140200Z 01007MPS 4000 -SN BKN007 OVC011 M02/M03 Q1017 RESN R08/850340 TEMPO 01010G17MPS 1000 SHSN BLSN BKN005 BKN012CB"
"4:30 AM EET on November 14, 2016","2016","11","14","04","30","Europe/Kiev","2:30 AM GMT on November 14, 2016","2016","11","14","02","30","UTC","-2.0","28.4","-3.0","26.6","93","28.8","17.9","-9999.0","-9999.0","10","North","6.0","3.7","1017","30.04","-8.9","15.9","-9999","-9999","-9999.00","-9999.00","Light Snow","snow","0","0","1","0","0","0","METAR UKKK 140230Z 01008MPS 6000 -SN BKN008 OVC012 M02/M03 Q1017 R08/850340 TEMPO 01010G17MPS"
"4:58 AM EET on November 14, 2016","2016","11","14","04","58","Europe/Kiev","2:58 AM GMT on November 14, 2016","2016","11","14","02","58","UTC","-2.0","28.4","-3.0","26.6","93","25.2","15.7","-9999.0","-9999.0","10","North","1.9","1.2","1018","30.06","-8.5","16.7","-9999","-9999","-9999.00","-9999.00","Snow","snow","0","0","1","0","0","0","SPECI UKKK 140258Z 01007MPS 1900 SN BKN008 OVC015 M02/M03 Q1018 R08/850340 TEMPO 01010G17MPS 1000 SHSN BLSN BKN005 BKN012CB"
"5:00 AM EET on November 14, 2016","2016","11","14","05","00","Europe/Kiev","3:00 AM GMT on November 14, 2016","2016","11","14","03","00","UTC","-2","28","-3","26","90","18.0","11.2","","","30","NNE","1","1","1019","30.10","-999","-999","-9999","-9999","","","Blowing Snow","snow","0","0","1","0","0","0","AAXX 14031 33345 41394 80305 11023 21032 39979 40191 52020 73873 8872/ 333 88709 555 1/103"
"5:00 AM EET on November 14, 2016","2016","11","14","05","00","Europe/Kiev","3:00 AM GMT on November 14, 2016","2016","11","14","03","00","UTC","-2.0","28.4","-3.0","26.6","93","25.2","15.7","-9999.0","-9999.0","10","North","1.8","1.1","1018","30.06","-8.5","16.7","-9999","-9999","-9999.00","-9999.00","Snow","snow","0","0","1","0","0","0","METAR UKKK 140300Z 01007MPS 1800 SN BKN007 OVC015 M02/M03 Q1018 R08/850340 TEMPO 36010G17MPS 1000 SHSN BLSN BKN005 BKN012CB"
"5:27 AM EET on November 14, 2016","2016","11","14","05","27","Europe/Kiev","3:27 AM GMT on November 14, 2016","2016","11","14","03","27","UTC","-2.0","28.4","-3.0","26.6","93","28.8","17.9","-9999.0","-9999.0","10","North","1.4","0.9","1018","30.06","-8.9","15.9","-9999","-9999","-9999.00","-9999.00","Snow","snow","0","0","1","0","0","0","SPECI UKKK 140327Z 01008MPS 1400 R08/P2000N SN BKN007 OVC015 M02/M03 Q1018 R08/850340 TEMPO 36010G17MPS 1000 SHSN BLSN BKN005 BKN012CB"
"5:30 AM EET on November 14, 2016","2016","11","14","05","30","Europe/Kiev","3:30 AM GMT on November 14, 2016","2016","11","14","03","30","UTC","-2.0","28.4","-3.0","26.6","93","28.8","17.9","-9999.0","-9999.0","10","North","1.3","0.8","1018","30.06","-8.9","15.9","-9999","-9999","-9999.00","-9999.00","Snow","snow","0","0","1","0","0","0","METAR UKKK 140330Z 01008MPS 1300 R08/P2000D SN BKN007 OVC015 M02/M03 Q1018 R08/850340 TEMPO 36010G17MPS 1000 SHSN BLSN BKN005 BKN012CB"
"6:00 AM EET on November 14, 2016","2016","11","14","06","00","Europe/Kiev","4:00 AM GMT on November 14, 2016","2016","11","14","04","00","UTC","-2.0","28.4","-3.0","26.6","93","25.2","15.7","-9999.0","-9999.0","360","North","0.9","0.6","1018","30.06","-8.5","16.7","-9999","-9999","-9999.00","-9999.00","Heavy Snow","snow","0","0","1","0","0","0","METAR UKKK 140400Z 36007MPS 0900 R08/1900D +SN BLSN BKN006 OVC014 M02/M03 Q1018 R08/850340 TEMPO 36010G17MPS 1000 SHSN BLSN BKN005 BKN012CB"
"6:30 AM EET on November 14, 2016","2016","11","14","06","30","Europe/Kiev","4:30 AM GMT on November 14, 2016","2016","11","14","04","30","UTC","-2.0","28.4","-3.0","26.6","93","28.8","17.9","-9999.0","-9999.0","10","North","0.9","0.6","1019","30.09","-8.9","15.9","-9999","-9999","-9999.00","-9999.00","Heavy Snow","snow","0","0","1","0","0","0","METAR UKKK 140430Z 01008MPS 0900 R08/1800N +SN BLSN BKN006 OVC015 M02/M03 Q1019 R08/850340 TEMPO 36010G17MPS 0600 +SHSN BLSN BKN004 BKN012CB"
"7:00 AM EET on November 14, 2016","2016","11","14","07","00","Europe/Kiev","5:00 AM GMT on November 14, 2016","2016","11","14","05","00","UTC","-2.0","28.4","-3.0","26.6","93","28.8","17.9","-9999.0","-9999.0","10","North","1.0","0.6","1019","30.09","-8.9","15.9","-9999","-9999","-9999.00","-9999.00","Snow","snow","0","0","1","0","0","0","METAR UKKK 140500Z 01008MPS 1000 R08/1600D SN BLSN BKN007 OVC014 M02/M03 Q1019 R08/850340 TEMPO 36010G17MPS 0600 +SHSN BLSN BKN004 BKN012CB"
"7:23 AM EET on November 14, 2016","2016","11","14","07","23","Europe/Kiev","5:23 AM GMT on November 14, 2016","2016","11","14","05","23","UTC","-2.0","28.4","-3.0","26.6","93","25.2","15.7","-9999.0","-9999.0","360","North","1.8","1.1","1020","30.12","-8.5","16.7","-9999","-9999","-9999.00","-9999.00","Snow","snow","0","0","1","0","0","0","SPECI UKKK 140523Z 36007MPS 1800 SN BLSN BKN008 OVC014 M02/M03 Q1020 R08/850340 TEMPO 36010G17MPS 1000 SHSN BLSN BKN005 BKN012CB"
"7:30 AM EET on November 14, 2016","2016","11","14","07","30","Europe/Kiev","5:30 AM GMT on November 14, 2016","2016","11","14","05","30","UTC","-2.0","28.4","-3.0","26.6","93","25.2","15.7","43.2","26.8","360","North","2.3","1.4","1020","30.12","-8.5","16.7","-9999","-9999","-9999.00","-9999.00","Light Snow","snow","0","0","1","0","0","0","METAR UKKK 140530Z 36007G12MPS 2300 -SN BLSN BKN007 OVC014 M02/M03 Q1020 RESN R08/850340 TEMPO 36010G17MPS 1000 SHSN BLSN BKN005 BKN012CB"
"8:00 AM EET on November 14, 2016","2016","11","14","08","00","Europe/Kiev","6:00 AM GMT on November 14, 2016","2016","11","14","06","00","UTC","-2","28","-4","26","87","21.6","13.4","","","30","NNE","1","1","1022","30.18","-999","-999","-9999","-9999","","","Blowing Snow","snow","0","0","1","0","0","0","AAXX 14061 33345 11394 80306 11023 21035 30007 40220 52028 60072 73873 8872/ 333 21023 47014 88709 555 1/103"
"8:00 AM EET on November 14, 2016","2016","11","14","08","00","Europe/Kiev","6:00 AM GMT on November 14, 2016","2016","11","14","06","00","UTC","-2.0","28.4","-3.0","26.6","93","21.6","13.4","-9999.0","-9999.0","350","North","-9999.0","-9999.0","1020","30.12","-8.0","17.6","-9999","-9999","-9999.00","-9999.00","Light Snow","snow","0","0","1","0","0","0","METAR UKKK 140600Z 35006MPS 4900 -SN BKN008 OVC015 M02/M03 Q1020 REBLSN R08/850340 TEMPO 1000 SHSN BLSN BKN005 BKN012CB"
"8:30 AM EET on November 14, 2016","2016","11","14","08","30","Europe/Kiev","6:30 AM GMT on November 14, 2016","2016","11","14","06","30","UTC","-2.0","28.4","-4.0","24.8","86","18.0","11.2","-9999.0","-9999.0","360","North","9.0","5.6","1021","30.15","-7.4","18.7","-9999","-9999","-9999.00","-9999.00","Light Snow","snow","0","0","1","0","0","0","METAR UKKK 140630Z 36005MPS 9000 -SN BKN008 OVC021 M02/M04 Q1021 R26/850335 TEMPO 1000 SHSN BLSN BKN005 BKN012CB"
"9:00 AM EET on November 14, 2016","2016","11","14","09","00","Europe/Kiev","7:00 AM GMT on November 14, 2016","2016","11","14","07","00","UTC","-2.0","28.4","-4.0","24.8","86","18.0","11.2","-9999.0","-9999.0","360","North","7.0","4.3","1021","30.15","-7.4","18.7","-9999","-9999","-9999.00","-9999.00","Light Snow","snow","0","0","1","0","0","0","METAR UKKK 140700Z 36005MPS 7000 -SN BKN010 OVC021 M02/M04 Q1021 R26/850335 NOSIG"
"9:30 AM EET on November 14, 2016","2016","11","14","09","30","Europe/Kiev","7:30 AM GMT on November 14, 2016","2016","11","14","07","30","UTC","-2.0","28.4","-4.0","24.8","86","18.0","11.2","-9999.0","-9999.0","360","North","9.0","5.6","1022","30.18","-7.4","18.7","-9999","-9999","-9999.00","-9999.00","Light Snow","snow","0","0","1","0","0","0","METAR UKKK 140730Z 36005MPS 9000 -SN BKN013 OVC030 M02/M04 Q1022 R26/850335 NOSIG"
"10:00 AM EET on November 14, 2016","2016","11","14","10","00","Europe/Kiev","8:00 AM GMT on November 14, 2016","2016","11","14","08","00","UTC","-1.0","30.2","-4.0","24.8","80","21.6","13.4","-9999.0","-9999.0","360","North","9.0","5.6","1023","30.21","-6.7","19.9","-9999","-9999","-9999.00","-9999.00","Light Snow","snow","0","0","1","0","0","0","METAR UKKK 140800Z 36006MPS 330V040 9000 -SN BKN015 OVC030 M01/M04 Q1023 R26/850335 NOSIG"
"10:30 AM EET on November 14, 2016","2016","11","14","10","30","Europe/Kiev","8:30 AM GMT on November 14, 2016","2016","11","14","08","30","UTC","-1.0","30.2","-4.0","24.8","80","18.0","11.2","-9999.0","-9999.0","360","North","10.0","6.2","1023","30.21","-6.2","20.9","-9999","-9999","-9999.00","-9999.00","Overcast","cloudy","0","0","0","0","0","0","METAR UKKK 140830Z 36005MPS 9999 OVC020 M01/M04 Q1023 R26/850335 NOSIG"
"11:00 AM EET on November 14, 2016","2016","11","14","11","00","Europe/Kiev","9:00 AM GMT on November 14, 2016","2016","11","14","09","00","UTC","-1","30","-4","25","73","18.0","11.2","","","30","NNE","20","12","1025","30.26","-999","-999","-9999","-9999","","","Light Snow","snow","0","0","1","0","0","0","AAXX 14091 33345 41498 80305 11011 21040 30034 40246 52027 72273 885// 333 88618 555 1/102"
"11:00 AM EET on November 14, 2016","2016","11","14","11","00","Europe/Kiev","9:00 AM GMT on November 14, 2016","2016","11","14","09","00","UTC","-1.0","30.2","-4.0","24.8","80","18.0","11.2","-9999.0","-9999.0","360","North","10.0","6.2","1023","30.21","-6.2","20.9","-9999","-9999","-9999.00","-9999.00","Overcast","cloudy","0","0","0","0","0","0","METAR UKKK 140900Z 36005MPS 330V030 9999 BKN018 OVC033 M01/M04 Q1023 R26/850335 NOSIG"
"11:30 AM EET on November 14, 2016","2016","11","14","11","30","Europe/Kiev","9:30 AM GMT on November 14, 2016","2016","11","14","09","30","UTC","-1.0","30.2","-4.0","24.8","80","21.6","13.4","-9999.0","-9999.0","350","North","9.0","5.6","1023","30.21","-6.7","19.9","-9999","-9999","-9999.00","-9999.00","Overcast","cloudy","0","0","0","0","0","0","METAR UKKK 140930Z 35006MPS 320V030 9000 BKN019 OVC033 M01/M04 Q1023 R26/850335 NOSIG"
"12:00 PM EET on November 14, 2016","2016","11","14","12","00","Europe/Kiev","10:00 AM GMT on November 14, 2016","2016","11","14","10","00","UTC","-1.0","30.2","-4.0","24.8","80","21.6","13.4","-9999.0","-9999.0","350","North","10.0","6.2","1024","30.24","-6.7","19.9","-9999","-9999","-9999.00","-9999.00","Overcast","cloudy","0","0","0","0","0","0","METAR UKKK 141000Z 35006MPS 330V030 9999 BKN019 OVC033 M01/M04 Q1024 R26/590340 NOSIG"
"12:30 PM EET on November 14, 2016","2016","11","14","12","30","Europe/Kiev","10:30 AM GMT on November 14, 2016","2016","11","14","10","30","UTC","-1.0","30.2","-4.0","24.8","80","28.8","17.9","46.8","29.1","350","North","7.0","4.3","1024","30.24","-7.6","18.3","-9999","-9999","-9999.00","-9999.00","Light Snow","snow","0","0","1","0","0","0","METAR UKKK 141030Z 35008G13MPS 7000 -SN BKN019 OVC033 M01/M04 Q1024 R26/590340 NOSIG"
"1:00 PM EET on November 14, 2016","2016","11","14","13","00","Europe/Kiev","11:00 AM GMT on November 14, 2016","2016","11","14","11","00","UTC","0.0","32.0","-4.0","24.8","75","25.2","15.7","-9999.0","-9999.0","350","North","9.0","5.6","1024","30.24","-5.9","21.4","-9999","-9999","-9999.00","-9999.00","Light Snow","snow","0","0","1","0","0","0","METAR UKKK 141100Z 35007MPS 9000 -SN OVC033 M00/M04 Q1024 R26/590340 NOSIG"
"1:30 PM EET on November 14, 2016","2016","11","14","13","30","Europe/Kiev","11:30 AM GMT on November 14, 2016","2016","11","14","11","30","UTC","0.0","32.0","-5.0","23.0","69","25.2","15.7","-9999.0","-9999.0","360","North","9.0","5.6","1025","30.27","-5.9","21.4","-9999","-9999","-9999.00","-9999.00","Overcast","cloudy","0","0","0","0","0","0","METAR UKKK 141130Z 36007MPS 9000 OVC035 M00/M05 Q1025 R26/590340 NOSIG"
"2:00 PM EET on November 14, 2016","2016","11","14","14","00","Europe/Kiev","12:00 PM GMT on November 14, 2016","2016","11","14","12","00","UTC","-0","32","-4","25","66","18.0","11.2","","","10","North","20","12","1026","30.30","-999","-999","-9999","-9999","","","Low Drifting Snow","snow","0","0","1","0","0","0","AAXX 14121 33345 /1498 80105 11002 21039 30048 40260 52014 73673 8672/ 333 86713 555 1/101 69921"
"2:00 PM EET on November 14, 2016","2016","11","14","14","00","Europe/Kiev","12:00 PM GMT on November 14, 2016","2016","11","14","12","00","UTC","0.0","32.0","-5.0","23.0","69","25.2","15.7","-9999.0","-9999.0","350","North","-9999.0","-9999.0","1025","30.27","-5.9","21.4","-9999","-9999","-9999.00","-9999.00","Clear","clear","0","0","0","0","0","0","METAR UKKK 141200Z 35007MPS 320V030 CAVOK M00/M05 Q1025 R26/590340 NOSIG"
"2:30 PM EET on November 14, 2016","2016","11","14","14","30","Europe/Kiev","12:30 PM GMT on November 14, 2016","2016","11","14","12","30","UTC","0.0","32.0","-5.0","23.0","69","21.6","13.4","-9999.0","-9999.0","350","North","-9999.0","-9999.0","1025","30.27","-5.4","22.2","-9999","-9999","-9999.00","-9999.00","Clear","clear","0","0","0","0","0","0","METAR UKKK 141230Z 35006MPS CAVOK M00/M05 Q1025 R26/590340 NOSIG"
"3:00 PM EET on November 14, 2016","2016","11","14","15","00","Europe/Kiev","1:00 PM GMT on November 14, 2016","2016","11","14","13","00","UTC","0.0","32.0","-5.0","23.0","69","25.2","15.7","-9999.0","-9999.0","350","North","10.0","6.2","1025","30.27","-5.9","21.4","-9999","-9999","-9999.00","-9999.00","Mostly Cloudy","mostlycloudy","0","0","0","0","0","0","METAR UKKK 141300Z 35007MPS 320V020 9999 BKN036 M00/M05 Q1025 R26/590340 NOSIG"
"3:30 PM EET on November 14, 2016","2016","11","14","15","30","Europe/Kiev","1:30 PM GMT on November 14, 2016","2016","11","14","13","30","UTC","0.0","32.0","-5.0","23.0","69","18.0","11.2","-9999.0","-9999.0","350","North","10.0","6.2","1026","30.30","-4.9","23.2","-9999","-9999","-9999.00","-9999.00","Mostly Cloudy","mostlycloudy","0","0","0","0","0","0","METAR UKKK 141330Z 35005MPS 9999 BKN036 00/M05 Q1026 R26/590340 NOSIG"
"4:00 PM EET on November 14, 2016","2016","11","14","16","00","Europe/Kiev","2:00 PM GMT on November 14, 2016","2016","11","14","14","00","UTC","0.0","32.0","-5.0","23.0","69","21.6","13.4","-9999.0","-9999.0","340","NNW","10.0","6.2","1026","30.30","-5.4","22.2","-9999","-9999","-9999.00","-9999.00","Mostly Cloudy","mostlycloudy","0","0","0","0","0","0","METAR UKKK 141400Z 34006MPS 9999 BKN036 M00/M05 Q1026 R26/590340 NOSIG"
"4:30 PM EET on November 14, 2016","2016","11","14","16","30","Europe/Kiev","2:30 PM GMT on November 14, 2016","2016","11","14","14","30","UTC","0.0","32.0","-5.0","23.0","69","18.0","11.2","-9999.0","-9999.0","350","North","-9999.0","-9999.0","1026","30.30","-4.9","23.2","-9999","-9999","-9999.00","-9999.00","Clear","clear","0","0","0","0","0","0","METAR UKKK 141430Z 35005MPS CAVOK M00/M05 Q1026 R26/590340 NOSIG"
"5:00 PM EET on November 14, 2016","2016","11","14","17","00","Europe/Kiev","3:00 PM GMT on November 14, 2016","2016","11","14","15","00","UTC","0","32","-4","25","65","14.4","8.9","","","10","North","20","12","1028","30.35","-999","-999","-9999","-9999","","","Partly Cloudy","partlycloudy","0","0","0","0","0","0","AAXX 14151 33345 41998 70104 10001 21041 30064 40276 52016 70232 87030 555 1/102"
"5:00 PM EET on November 14, 2016","2016","11","14","17","00","Europe/Kiev","3:00 PM GMT on November 14, 2016","2016","11","14","15","00","UTC","0.0","32.0","-5.0","23.0","69","18.0","11.2","-9999.0","-9999.0","330","NNW","-9999.0","-9999.0","1027","30.33","-4.9","23.2","-9999","-9999","-9999.00","-9999.00","Clear","clear","0","0","0","0","0","0","METAR UKKK 141500Z 33005MPS 290V360 CAVOK M00/M05 Q1027 R26/590340 NOSIG"
"5:30 PM EET on November 14, 2016","2016","11","14","17","30","Europe/Kiev","3:30 PM GMT on November 14, 2016","2016","11","14","15","30","UTC","-1.0","30.2","-5.0","23.0","75","18.0","11.2","-9999.0","-9999.0","340","NNW","-9999.0","-9999.0","1027","30.33","-6.2","20.9","-9999","-9999","-9999.00","-9999.00","Clear","clear","0","0","0","0","0","0","METAR UKKK 141530Z 34005MPS CAVOK M01/M05 Q1027 R26/590145 NOSIG"
"6:00 PM EET on November 14, 2016","2016","11","14","18","00","Europe/Kiev","4:00 PM GMT on November 14, 2016","2016","11","14","16","00","UTC","-1.0","30.2","-5.0","23.0","75","18.0","11.2","-9999.0","-9999.0","320","NW","-9999.0","-9999.0","1027","30.33","-6.2","20.9","-9999","-9999","-9999.00","-9999.00","Clear","clear","0","0","0","0","0","0","METAR UKKK 141600Z 32005MPS CAVOK M01/M05 Q1027 R26/590145 NOSIG"
"6:30 PM EET on November 14, 2016","2016","11","14","18","30","Europe/Kiev","4:30 PM GMT on November 14, 2016","2016","11","14","16","30","UTC","-2.0","28.4","-5.0","23.0","80","14.4","8.9","-9999.0","-9999.0","330","NNW","-9999.0","-9999.0","1028","30.36","-6.7","19.9","-9999","-9999","-9999.00","-9999.00","Clear","clear","0","0","0","0","0","0","METAR UKKK 141630Z 33004MPS 300V030 CAVOK M02/M05 Q1028 R26/590145 NOSIG"
"7:00 PM EET on November 14, 2016","2016","11","14","19","00","Europe/Kiev","5:00 PM GMT on November 14, 2016","2016","11","14","17","00","UTC","-1.0","30.2","-5.0","23.0","75","14.4","8.9","-9999.0","-9999.0","320","NW","-9999.0","-9999.0","1028","30.36","-5.5","22.1","-9999","-9999","-9999.00","-9999.00","Clear","clear","0","0","0","0","0","0","METAR UKKK 141700Z 32004MPS CAVOK M01/M05 Q1028 R26/590145 NOSIG"
"7:30 PM EET on November 14, 2016","2016","11","14","19","30","Europe/Kiev","5:30 PM GMT on November 14, 2016","2016","11","14","17","30","UTC","-2.0","28.4","-5.0","23.0","80","14.4","8.9","-9999.0","-9999.0","330","NNW","-9999.0","-9999.0","1028","30.36","-6.7","19.9","-9999","-9999","-9999.00","-9999.00","Clear","clear","0","0","0","0","0","0","METAR UKKK 141730Z 33004MPS CAVOK M02/M05 Q1028 R26/590145 NOSIG"
"8:00 PM EET on November 14, 2016","2016","11","14","20","00","Europe/Kiev","6:00 PM GMT on November 14, 2016","2016","11","14","18","00","UTC","-2","29","-5","23","71","10.8","6.7","","","0","North","20","12","1030","30.41","-999","-999","-9999","-9999","","","Partly Cloudy","partlycloudy","0","0","0","0","0","0","AAXX 14181 33345 11998 33603 11015 21049 30083 40297 52019 69922 70231 83030 333 10004 555 1/107"
"8:00 PM EET on November 14, 2016","2016","11","14","20","00","Europe/Kiev","6:00 PM GMT on November 14, 2016","2016","11","14","18","00","UTC","-2.0","28.4","-6.0","21.2","74","14.4","8.9","-9999.0","-9999.0","330","NNW","-9999.0","-9999.0","1028","30.36","-6.7","19.9","-9999","-9999","-9999.00","-9999.00","Clear","clear","0","0","0","0","0","0","METAR UKKK 141800Z 33004MPS CAVOK M02/M06 Q1028 R26/590145 NOSIG"
"8:30 PM EET on November 14, 2016","2016","11","14","20","30","Europe/Kiev","6:30 PM GMT on November 14, 2016","2016","11","14","18","30","UTC","-2.0","28.4","-6.0","21.2","74","18.0","11.2","-9999.0","-9999.0","330","NNW","-9999.0","-9999.0","1029","30.39","-7.4","18.7","-9999","-9999","-9999.00","-9999.00","Clear","clear","0","0","0","0","0","0","METAR UKKK 141830Z 33005MPS CAVOK M02/M06 Q1029 R26/590145 NOSIG"
"9:00 PM EET on November 14, 2016","2016","11","14","21","00","Europe/Kiev","7:00 PM GMT on November 14, 2016","2016","11","14","19","00","UTC","-3.0","26.6","-6.0","21.2","80","14.4","8.9","-9999.0","-9999.0","330","NNW","-9999.0","-9999.0","1029","30.39","-8.0","17.7","-9999","-9999","-9999.00","-9999.00","Clear","clear","0","0","0","0","0","0","METAR UKKK 141900Z 33004MPS 300V360 CAVOK M03/M06 Q1029 R26/590145 NOSIG"
"9:30 PM EET on November 14, 2016","2016","11","14","21","30","Europe/Kiev","7:30 PM GMT on November 14, 2016","2016","11","14","19","30","UTC","-3.0","26.6","-6.0","21.2","80","14.4","8.9","-9999.0","-9999.0","320","NW","-9999.0","-9999.0","1029","30.39","-8.0","17.7","-9999","-9999","-9999.00","-9999.00","Clear","clear","0","0","0","0","0","0","METAR UKKK 141930Z 32004MPS CAVOK M03/M06 Q1029 R26/590145 NOSIG"
"10:00 PM EET on November 14, 2016","2016","11","14","22","00","Europe/Kiev","8:00 PM GMT on November 14, 2016","2016","11","14","20","00","UTC","-3.0","26.6","-6.0","21.2","80","14.4","8.9","-9999.0","-9999.0","320","NW","-9999.0","-9999.0","1029","30.39","-8.0","17.7","-9999","-9999","-9999.00","-9999.00","Clear","clear","0","0","0","0","0","0","METAR UKKK 142000Z 32004MPS CAVOK M03/M06 Q1029 R26/590145 NOSIG"
"10:30 PM EET on November 14, 2016","2016","11","14","22","30","Europe/Kiev","8:30 PM GMT on November 14, 2016","2016","11","14","20","30","UTC","-3.0","26.6","-6.0","21.2","80","10.8","6.7","-9999.0","-9999.0","330","NNW","-9999.0","-9999.0","1029","30.39","-7.1","19.2","-9999","-9999","-9999.00","-9999.00","Clear","clear","0","0","0","0","0","0","METAR UKKK 142030Z 33003MPS CAVOK M03/M06 Q1029 R26/590145 NOSIG"
"11:00 PM EET on November 14, 2016","2016","11","14","23","00","Europe/Kiev","9:00 PM GMT on November 14, 2016","2016","11","14","21","00","UTC","-3","27","-6","22","74","10.8","6.7","","","0","North","20","12","1031","30.45","-999","-999","-9999","-9999","","","Scattered Clouds","partlycloudy","0","0","0","0","0","0","AAXX 14211 33345 42998 13603 11026 21056 30094 40309 52011 81030 555 1/109"
"11:00 PM EET on November 14, 2016","2016","11","14","23","00","Europe/Kiev","9:00 PM GMT on November 14, 2016","2016","11","14","21","00","UTC","-4.0","24.8","-6.0","21.2","86","10.8","6.7","-9999.0","-9999.0","320","NW","-9999.0","-9999.0","1029","30.39","-8.3","17.1","-9999","-9999","-9999.00","-9999.00","Clear","clear","0","0","0","0","0","0","METAR UKKK 142100Z 32003MPS CAVOK M04/M06 Q1029 R26/590145 NOSIG"
"11:30 PM EET on November 14, 2016","2016","11","14","23","30","Europe/Kiev","9:30 PM GMT on November 14, 2016","2016","11","14","21","30","UTC","-3.0","26.6","-6.0","21.2","80","14.4","8.9","-9999.0","-9999.0","330","NNW","-9999.0","-9999.0","1030","30.42","-8.0","17.7","-9999","-9999","-9999.00","-9999.00","Clear","clear","0","0","0","0","0","0","METAR UKKK 142130Z 33004MPS 310V010 CAVOK M03/M06 Q1030 R26/590145 NOSIG"
"12:00 AM EET on November 15, 2016","2016","11","15","00","00","Europe/Kiev","10:00 PM GMT on November 14, 2016","2016","11","14","22","00","UTC","-3.0","26.6","-6.0","21.2","80","14.4","8.9","-9999.0","-9999.0","320","NW","-9999.0","-9999.0","1030","30.42","-8.0","17.7","-9999","-9999","-9999.00","-9999.00","Clear","clear","0","0","0","0","0","0","METAR UKKK 142200Z 32004MPS CAVOK M03/M06 Q1030 R26/590145 NOSIG"
"12:30 AM EET on November 15, 2016","2016","11","15","00","30","Europe/Kiev","10:30 PM GMT on November 14, 2016","2016","11","14","22","30","UTC","-3.0","26.6","-6.0","21.2","80","18.0","11.2","-9999.0","-9999.0","330","NNW","-9999.0","-9999.0","1030","30.42","-8.7","16.4","-9999","-9999","-9999.00","-9999.00","Clear","clear","0","0","0","0","0","0","METAR UKKK 142230Z 33005MPS CAVOK M03/M06 Q1030 R26/590145 NOSIG"
"1:00 AM EET on November 15, 2016","2016","11","15","01","00","Europe/Kiev","11:00 PM GMT on November 14, 2016","2016","11","14","23","00","UTC","-4.0","24.8","-6.0","21.2","86","10.8","6.7","-9999.0","-9999.0","330","NNW","-9999.0","-9999.0","1029","30.39","-8.3","17.1","-9999","-9999","-9999.00","-9999.00","Clear","clear","0","0","0","0","0","0","METAR UKKK 142300Z 33003MPS CAVOK M04/M06 Q1029 R26/590145 NOSIG"
"1:30 AM EET on November 15, 2016","2016","11","15","01","30","Europe/Kiev","11:30 PM GMT on November 14, 2016","2016","11","14","23","30","UTC","-4.0","24.8","-6.0","21.2","86","10.8","6.7","-9999.0","-9999.0","330","NNW","-9999.0","-9999.0","1030","30.42","-8.3","17.1","-9999","-9999","-9999.00","-9999.00","Clear","clear","0","0","0","0","0","0","METAR UKKK 142330Z 33003MPS CAVOK M04/M06 Q1030 R26/590145 NOSIG"
"2:00 AM EET on November 15, 2016","2016","11","15","02","00","Europe/Kiev","12:00 AM GMT on November 15, 2016","2016","11","15","00","00","UTC","-3","26","-5","22","80","10.8","6.7","","","0","North","20","12","1031","30.45","-999","-999","-9999","-9999","","","","","0","0","0","0","0","0","AAXX 15001 33345 32998 03603 11033 21054 30095 40311 51001 555 1/110"
"2:00 AM EET on November 15, 2016","2016","11","15","02","00","Europe/Kiev","12:00 AM GMT on November 15, 2016","2016","11","15","00","00","UTC","-4.0","24.8","-6.0","21.2","86","14.4","8.9","-9999.0","-9999.0","330","NNW","-9999.0","-9999.0","1030","30.42","-9.2","15.5","-9999","-9999","-9999.00","-9999.00","Clear","clear","0","0","0","0","0","0","METAR UKKK 150000Z 33004MPS CAVOK M04/M06 Q1030 R26/590145 NOSIG"
"2:30 AM EET on November 15, 2016","2016","11","15","02","30","Europe/Kiev","12:30 AM GMT on November 15, 2016","2016","11","15","00","30","UTC","-4.0","24.8","-6.0","21.2","86","10.8","6.7","-9999.0","-9999.0","320","NW","-9999.0","-9999.0","1030","30.42","-8.3","17.1","-9999","-9999","-9999.00","-9999.00","Clear","clear","0","0","0","0","0","0","METAR UKKK 150030Z 32003MPS CAVOK M04/M06 Q1030 R26/590145 NOSIG"
"3:00 AM EET on November 15, 2016","2016","11","15","03","00","Europe/Kiev","1:00 AM GMT on November 15, 2016","2016","11","15","01","00","UTC","-4.0","24.8","-6.0","21.2","86","10.8","6.7","-9999.0","-9999.0","330","NNW","-9999.0","-9999.0","1030","30.42","-8.3","17.1","-9999","-9999","-9999.00","-9999.00","Clear","clear","0","0","0","0","0","0","METAR UKKK 150100Z 33003MPS CAVOK M04/M06 Q1030 R26/810550 NOSIG"
"3:30 AM EET on November 15, 2016","2016","11","15","03","30","Europe/Kiev","1:30 AM GMT on November 15, 2016","2016","11","15","01","30","UTC","-5.0","23.0","-7.0","19.4","86","10.8","6.7","-9999.0","-9999.0","300","WNW","-9999.0","-9999.0","1030","30.42","-9.5","14.9","-9999","-9999","-9999.00","-9999.00","Clear","clear","0","0","0","0","0","0","METAR UKKK 150130Z 30003MPS CAVOK M05/M07 Q1030 R26/810550 NOSIG"
"4:00 AM EET on November 15, 2016","2016","11","15","04","00","Europe/Kiev","2:00 AM GMT on November 15, 2016","2016","11","15","02","00","UTC","-5.0","23.0","-6.0","21.2","93","10.8","6.7","-9999.0","-9999.0","310","NW","9.0","5.6","1030","30.42","-9.5","14.9","-9999","-9999","-9999.00","-9999.00","Unknown","unknown","0","0","0","0","0","0","METAR UKKK 150200Z 31003MPS 300V360 9000 NSC M05/M06 Q1030 R26/810550 NOSIG"
"4:30 AM EET on November 15, 2016","2016","11","15","04","30","Europe/Kiev","2:30 AM GMT on November 15, 2016","2016","11","15","02","30","UTC","-5.0","23.0","-6.0","21.2","93","10.8","6.7","-9999.0","-9999.0","310","NW","-9999.0","-9999.0","1030","30.42","-9.5","14.9","-9999","-9999","-9999.00","-9999.00","Clear","clear","0","0","0","0","0","0","METAR UKKK 150230Z 31003MPS CAVOK M05/M06 Q1030 R26/810550 NOSIG"
"5:00 AM EET on November 15, 2016","2016","11","15","05","00","Europe/Kiev","3:00 AM GMT on November 15, 2016","2016","11","15","03","00","UTC","-4","24","-5","22","90","7.2","4.5","","","350","North","20","12","1032","30.47","-999","-999","-9999","-9999","","","","","0","0","0","0","0","0","AAXX 15031 33345 42998 03502 11042 21054 30102 40318 53007 555 1/111"
"5:00 AM EET on November 15, 2016","2016","11","15","05","00","Europe/Kiev","3:00 AM GMT on November 15, 2016","2016","11","15","03","00","UTC","-7.0","19.4","-8.0","17.6","93","10.8","6.7","-9999.0","-9999.0","300","WNW","9.0","5.6","1030","30.42","-11.9","10.6","-9999","-9999","-9999.00","-9999.00","Unknown","unknown","0","0","0","0","0","0","METAR UKKK 150300Z 30003MPS 9000 NSC M07/M08 Q1030 R26/810550 NOSIG"
"5:30 AM EET on November 15, 2016","2016","11","15","05","30","Europe/Kiev","3:30 AM GMT on November 15, 2016","2016","11","15","03","30","UTC","-7.0","19.4","-8.0","17.6","93","10.8","6.7","-9999.0","-9999.0","310","NW","7.0","4.3","1030","30.42","-11.9","10.6","-9999","-9999","-9999.00","-9999.00","Unknown","unknown","0","0","0","0","0","0","METAR UKKK 150330Z 31003MPS 7000 NSC M07/M08 Q1030 R26/810550 NOSIG"
"6:00 AM EET on November 15, 2016","2016","11","15","06","00","Europe/Kiev","4:00 AM GMT on November 15, 2016","2016","11","15","04","00","UTC","-7.0","19.4","-8.0","17.6","93","7.2","4.5","-9999.0","-9999.0","270","West","5.0","3.1","1030","30.42","-10.6","12.9","-9999","-9999","-9999.00","-9999.00","Mist","hazy","0","0","0","0","0","0","METAR UKKK 150400Z 27002MPS 5000 BR NSC M07/M08 Q1030 R26/810550 NOSIG"
"6:09 AM EET on November 15, 2016","2016","11","15","06","09","Europe/Kiev","4:09 AM GMT on November 15, 2016","2016","11","15","04","09","UTC","-7.0","19.4","-8.0","17.6","93","10.8","6.7","-9999.0","-9999.0","280","West","1.3","0.8","1030","30.42","-11.9","10.6","-9999","-9999","-9999.00","-9999.00","Mist","hazy","0","0","0","0","0","0","SPECI UKKK 150409Z 28003MPS 1300 R26/1800VP2000D BR NSC M07/M08 Q1030 R26/810550 TEMPO 0400 FZFG"
"6:10 AM EET on November 15, 2016","2016","11","15","06","10","Europe/Kiev","4:10 AM GMT on November 15, 2016","2016","11","15","04","10","UTC","-7.0","19.4","-8.0","17.6","93","10.8","6.7","-9999.0","-9999.0","280","West","0.8","0.5","1030","30.42","-11.9","10.6","-9999","-9999","-9999.00","-9999.00","Light Freezing Fog","fog","1","0","0","0","0","0","SPECI UKKK 150410Z 28003MPS 0800 R26/1600VP2000D FZFG NSC M07/M08 Q1030 R26/810550 TEMPO 0400 FZFG"
"6:22 AM EET on November 15, 2016","2016","11","15","06","22","Europe/Kiev","4:22 AM GMT on November 15, 2016","2016","11","15","04","22","UTC","-7.0","19.4","-8.0","17.6","93","10.8","6.7","-9999.0","-9999.0","280","West","2.9","1.8","1030","30.42","-11.9","10.6","-9999","-9999","-9999.00","-9999.00","Mist","hazy","0","0","0","0","0","0","SPECI UKKK 150422Z 28003MPS 2900 BR NSC M07/M08 Q1030 REFZFG R26/810550 TEMPO 0400 FZFG"
"6:30 AM EET on November 15, 2016","2016","11","15","06","30","Europe/Kiev","4:30 AM GMT on November 15, 2016","2016","11","15","04","30","UTC","-7.0","19.4","-8.0","17.6","93","10.8","6.7","-9999.0","-9999.0","280","West","-9999.0","-9999.0","1030","30.42","-11.9","10.6","-9999","-9999","-9999.00","-9999.00","Mist","hazy","0","0","0","0","0","0","METAR UKKK 150430Z 28003MPS 3700 BR NSC M07/M08 Q1030 R26/810550 TEMPO 0400 FZFG"
"7:00 AM EET on November 15, 2016","2016","11","15","07","00","Europe/Kiev","5:00 AM GMT on November 15, 2016","2016","11","15","05","00","UTC","-7.0","19.4","-8.0","17.6","93","7.2","4.5","-9999.0","-9999.0","250","WSW","-9999.0","-9999.0","1030","30.42","-10.6","12.9","-9999","-9999","-9999.00","-9999.00","Mist","hazy","0","0","0","0","0","0","METAR UKKK 150500Z 25002MPS 4300 BR NSC M07/M08 Q1030 R26/810550 TEMPO 0400 FZFG"
"7:03 AM EET on November 15, 2016","2016","11","15","07","03","Europe/Kiev","5:03 AM GMT on November 15, 2016","2016","11","15","05","03","UTC","-7.0","19.4","-8.0","17.6","93","7.2","4.5","-9999.0","-9999.0","260","West","1.4","0.9","1030","30.42","-10.6","12.9","-9999","-9999","-9999.00","-9999.00","Mist","hazy","0","0","0","0","0","0","SPECI UKKK 150503Z 26002MPS 1400 R26/P2000N BR NSC M07/M08 Q1030 R26/810550 TEMPO 0400 FZFG"
"7:05 AM EET on November 15, 2016","2016","11","15","07","05","Europe/Kiev","5:05 AM GMT on November 15, 2016","2016","11","15","05","05","UTC","-7.0","19.4","-8.0","17.6","93","7.2","4.5","-9999.0","-9999.0","260","West","0.9","0.6","1030","30.42","-10.6","12.9","-9999","-9999","-9999.00","-9999.00","Light Freezing Fog","fog","1","0","0","0","0","0","SPECI UKKK 150505Z 26002MPS 0900 R26/P2000N FZFG NSC M07/M08 Q1030 R26/810550 TEMPO 0400 FZFG"
"7:06 AM EET on November 15, 2016","2016","11","15","07","06","Europe/Kiev","5:06 AM GMT on November 15, 2016","2016","11","15","05","06","UTC","-7.0","19.4","-8.0","17.6","93","7.2","4.5","-9999.0","-9999.0","260","West","-9999.0","-9999.0","1030","30.42","-10.6","12.9","-9999","-9999","-9999.00","-9999.00","Light Freezing Fog","fog","1","0","0","0","0","0","SPECI UKKK 150506Z 26002MPS 0550 R26/P2000D FZFG NSC M07/M08 Q1030 R26/810550 TEMPO 0400 FZFG"
"7:24 AM EET on November 15, 2016","2016","11","15","07","24","Europe/Kiev","5:24 AM GMT on November 15, 2016","2016","11","15","05","24","UTC","-7.0","19.4","-8.0","17.6","93","7.2","4.5","-9999.0","-9999.0","250","WSW","0.2","0.2","1030","30.42","-10.6","12.9","-9999","-9999","-9999.00","-9999.00","Light Freezing Fog","fog","1","0","0","0","0","0","SPECI UKKK 150524Z 25002MPS 0250 R26/1900D FZFG BKN003 M07/M08 Q1030 R26/810550 TEMPO 0300 FZFG VV003"
"7:30 AM EET on November 15, 2016","2016","11","15","07","30","Europe/Kiev","5:30 AM GMT on November 15, 2016","2016","11","15","05","30","UTC","-7.0","19.4","-8.0","17.6","93","7.2","4.5","-9999.0","-9999.0","260","West","0.1","0.1","1030","30.42","-10.6","12.9","-9999","-9999","-9999.00","-9999.00","Light Freezing Fog","fog","1","0","0","0","0","0","METAR UKKK 150530Z 26002MPS 0150 R26/0550V2000D FZFG VV001 M07/M08 Q1030 R26/810550 TEMPO 0300 FZFG VV003"
"8:00 AM EET on November 15, 2016","2016","11","15","08","00","Europe/Kiev","6:00 AM GMT on November 15, 2016","2016","11","15","06","00","UTC","-6","22","-7","20","86","10.8","6.7","","","310","NW","20","12","1032","30.49","-999","-999","-9999","-9999","","","Clear","clear","0","0","0","0","0","0","AAXX 15061 33345 32998 23103 11055 21069 30106 40324 52004 80005 333 21057 47010 555 1/111"
"8:00 AM EET on November 15, 2016","2016","11","15","08","00","Europe/Kiev","6:00 AM GMT on November 15, 2016","2016","11","15","06","00","UTC","-7.0","19.4","-7.0","19.4","100","10.8","6.7","-9999.0","-9999.0","250","WSW","0.1","0.1","1031","30.45","-11.9","10.6","-9999","-9999","-9999.00","-9999.00","Light Freezing Fog","fog","1","0","0","0","0","0","METAR UKKK 150600Z 25003MPS 0150 R26/0350N FZFG VV001 M07/M07 Q1031 R26/810550 NOSIG"
"8:30 AM EET on November 15, 2016","2016","11","15","08","30","Europe/Kiev","6:30 AM GMT on November 15, 2016","2016","11","15","06","30","UTC","-7.0","19.4","-8.0","17.6","93","10.8","6.7","-9999.0","-9999.0","260","West","0.1","0.1","1031","30.45","-11.9","10.6","-9999","-9999","-9999.00","-9999.00","Light Freezing Fog","fog","1","0","0","0","0","0","METAR UKKK 150630Z 26003MPS 0150 R26/0300N FZFG VV001 M07/M08 Q1031 R26/810550 NOSIG"
"8:45 AM EET on November 15, 2016","2016","11","15","08","45","Europe/Kiev","6:45 AM GMT on November 15, 2016","2016","11","15","06","45","UTC","-7.0","19.4","-7.0","19.4","100","14.4","8.9","-9999.0","-9999.0","270","West","0.2","0.1","1031","30.45","-12.9","8.8","-9999","-9999","-9999.00","-9999.00","Light Freezing Fog","fog","1","0","0","0","0","0","SPECI UKKK 150645Z 27004MPS 0200 R26/0300N FZFG VV002 M07/M07 Q1031 R26/810550 NOSIG"
"9:00 AM EET on November 15, 2016","2016","11","15","09","00","Europe/Kiev","7:00 AM GMT on November 15, 2016","2016","11","15","07","00","UTC","-6.0","21.2","-7.0","19.4","93","14.4","8.9","-9999.0","-9999.0","270","West","0.2","0.1","1031","30.45","-11.6","11.0","-9999","-9999","-9999.00","-9999.00","Light Freezing Fog","fog","1","0","0","0","0","0","METAR UKKK 150700Z 27004MPS 0200 R26/0350N FZFG VV002 M06/M07 Q1031 R26/810550 NOSIG"
"9:30 AM EET on November 15, 2016","2016","11","15","09","30","Europe/Kiev","7:30 AM GMT on November 15, 2016","2016","11","15","07","30","UTC","-6.0","21.2","-7.0","19.4","93","10.8","6.7","-9999.0","-9999.0","270","West","0.3","0.2","1031","30.45","-10.7","12.7","-9999","-9999","-9999.00","-9999.00","Light Freezing Fog","fog","1","0","0","0","0","0","METAR UKKK 150730Z 27003MPS 0300 R26/0450N FZFG VV002 M06/M07 Q1031 R26/810550 NOSIG"
"9:34 AM EET on November 15, 2016","2016","11","15","09","34","Europe/Kiev","7:34 AM GMT on November 15, 2016","2016","11","15","07","34","UTC","-6.0","21.2","-7.0","19.4","93","10.8","6.7","-9999.0","-9999.0","270","West","0.3","0.2","1031","30.45","-10.7","12.7","-9999","-9999","-9999.00","-9999.00","Light Freezing Fog","fog","1","0","0","0","0","0","SPECI UKKK 150734Z 27003MPS 0350 R26/0400V0900U FZFG VV001 M06/M07 Q1031 R26/810550 NOSIG"
"9:47 AM EET on November 15, 2016","2016","11","15","09","47","Europe/Kiev","7:47 AM GMT on November 15, 2016","2016","11","15","07","47","UTC","-6.0","21.2","-7.0","19.4","93","10.8","6.7","-9999.0","-9999.0","270","West","0.3","0.2","1031","30.45","-10.7","12.7","-9999","-9999","-9999.00","-9999.00","Light Freezing Fog","fog","1","0","0","0","0","0","SPECI UKKK 150747Z 27003MPS 0350 R26/0350V0600N FZFG VV002 M06/M07 Q1031 R26/810550 NOSIG"
"10:00 AM EET on November 15, 2016","2016","11","15","10","00","Europe/Kiev","8:00 AM GMT on November 15, 2016","2016","11","15","08","00","UTC","-6.0","21.2","-7.0","19.4","93","14.4","8.9","-9999.0","-9999.0","270","West","0.3","0.2","1031","30.45","-11.6","11.0","-9999","-9999","-9999.00","-9999.00","Light Freezing Fog","fog","1","0","0","0","0","0","METAR UKKK 150800Z 27004MPS 0300 R26/0450N FZFG VV002 M06/M07 Q1031 R26/810550 NOSIG"
"10:13 AM EET on November 15, 2016","2016","11","15","10","13","Europe/Kiev","8:13 AM GMT on November 15, 2016","2016","11","15","08","13","UTC","-6.0","21.2","-7.0","19.4","93","10.8","6.7","-9999.0","-9999.0","270","West","0.3","0.2","1031","30.45","-10.7","12.7","-9999","-9999","-9999.00","-9999.00","Light Freezing Fog","fog","1","0","0","0","0","0","SPECI UKKK 150813Z 27003MPS 0300 R26/0300V0550N FZFG VV001 M06/M07 Q1031 R26/810550 NOSIG"
"10:30 AM EET on November 15, 2016","2016","11","15","10","30","Europe/Kiev","8:30 AM GMT on November 15, 2016","2016","11","15","08","30","UTC","-6.0","21.2","-6.0","21.2","100","10.8","6.7","-9999.0","-9999.0","270","West","0.2","0.2","1030","30.42","-10.7","12.7","-9999","-9999","-9999.00","-9999.00","Light Freezing Fog","fog","1","0","0","0","0","0","METAR UKKK 150830Z 27003MPS 0250 R26/0350N FZFG VV002 M06/M06 Q1030 R26/810550 NOSIG"
"10:40 AM EET on November 15, 2016","2016","11","15","10","40","Europe/Kiev","8:40 AM GMT on November 15, 2016","2016","11","15","08","40","UTC","-5.0","23.0","-6.0","21.2","93","10.8","6.7","-9999.0","-9999.0","280","West","0.3","0.2","1030","30.42","-9.5","14.9","-9999","-9999","-9999.00","-9999.00","Light Freezing Fog","fog","1","0","0","0","0","0","SPECI UKKK 150840Z 28003MPS 0300 R26/0350N FZFG VV001 M05/M06 Q1030 R26/810550 NOSIG"
"11:00 AM EET on November 15, 2016","2016","11","15","11","00","Europe/Kiev","9:00 AM GMT on November 15, 2016","2016","11","15","09","00","UTC","-4","25","-5","23","87","7.2","4.5","","","320","NW","4","2","1032","30.47","-999","-999","-9999","-9999","","","Mist","hazy","0","0","0","0","0","0","AAXX 15091 33345 41296 63202 11040 21052 30102 40318 58004 71041 84604 555 1/104"
"11:00 AM EET on November 15, 2016","2016","11","15","11","00","Europe/Kiev","9:00 AM GMT on November 15, 2016","2016","11","15","09","00","UTC","-5.0","23.0","-6.0","21.2","93","10.8","6.7","-9999.0","-9999.0","270","West","0.4","0.3","1030","30.42","-9.5","14.9","-9999","-9999","-9999.00","-9999.00","Light Freezing Fog","fog","1","0","0","0","0","0","METAR UKKK 150900Z 27003MPS 0450 R26/0500V0750N FZFG VV001 M05/M06 Q1030 R26/810550 TEMPO 0400 FZFG VV001"
"11:23 AM EET on November 15, 2016","2016","11","15","11","23","Europe/Kiev","9:23 AM GMT on November 15, 2016","2016","11","15","09","23","UTC","-5.0","23.0","-5.0","23.0","100","10.8","6.7","-9999.0","-9999.0","270","West","1.2","0.7","1030","30.42","-9.5","14.9","-9999","-9999","-9999.00","-9999.00","Mostly Cloudy","mostlycloudy","0","0","0","0","0","0","SPECI UKKK 150923Z 27003MPS 1200 R26/0600V1700U BR BKN002 M05/M05 Q1030 REFZFG R26/810550 TEMPO 0800 FZFG VV002"
"11:30 AM EET on November 15, 2016","2016","11","15","11","30","Europe/Kiev","9:30 AM GMT on November 15, 2016","2016","11","15","09","30","UTC","-4.0","24.8","-5.0","23.0","93","10.8","6.7","-9999.0","-9999.0","280","West","1.7","1.1","1030","30.42","-8.3","17.1","-9999","-9999","-9999.00","-9999.00","Mostly Cloudy","mostlycloudy","0","0","0","0","0","0","METAR UKKK 150930Z 28003MPS 1700 BR BKN002 M04/M05 Q1030 R26/810550 TEMPO 0800 FZFG VV002"
"12:00 PM EET on November 15, 2016","2016","11","15","12","00","Europe/Kiev","10:00 AM GMT on November 15, 2016","2016","11","15","10","00","UTC","-4.0","24.8","-4.0","24.8","100","7.2","4.5","-9999.0","-9999.0","280","West","3.0","1.9","1030","30.42","-7.1","19.2","-9999","-9999","-9999.00","-9999.00","Mostly Cloudy","mostlycloudy","0","0","0","0","0","0","METAR UKKK 151000Z 28002MPS 3000 BR BKN004 M04/M04 Q1030 R26/810550 TEMPO 1500 BR BKN003"
"12:30 PM EET on November 15, 2016","2016","11","15","12","30","Europe/Kiev","10:30 AM GMT on November 15, 2016","2016","11","15","10","30","UTC","-3.0","26.6","-3.0","26.6","100","3.6","2.2","-9999.0","-9999.0","0","Variable","-9999.0","-9999.0","1030","30.42","-999","-999","-9999","-9999","-9999.00","-9999.00","Mostly Cloudy","mostlycloudy","0","0","0","0","0","0","METAR UKKK 151030Z VRB01MPS 4900 BR BKN005 M03/M03 Q1030 R26/810550 TEMPO BKN004"
"1:00 PM EET on November 15, 2016","2016","11","15","13","00","Europe/Kiev","11:00 AM GMT on November 15, 2016","2016","11","15","11","00","UTC","-3.0","26.6","-3.0","26.6","100","7.2","4.5","-9999.0","-9999.0","280","West","6.0","3.7","1030","30.42","-5.9","21.3","-9999","-9999","-9999.00","-9999.00","Mostly Cloudy","mostlycloudy","0","0","0","0","0","0","METAR UKKK 151100Z 28002MPS 6000 BKN006 M03/M03 Q1030 R26/810550 TEMPO BKN005"
"1:30 PM EET on November 15, 2016","2016","11","15","13","30","Europe/Kiev","11:30 AM GMT on November 15, 2016","2016","11","15","11","30","UTC","-2.0","28.4","-2.0","28.4","100","7.2","4.5","-9999.0","-9999.0","310","NW","7.0","4.3","1030","30.42","-4.8","23.4","-9999","-9999","-9999.00","-9999.00","Mostly Cloudy","mostlycloudy","0","0","0","0","0","0","METAR UKKK 151130Z 31002MPS 300V360 7000 BKN006 M02/M02 Q1030 R26/810550 TEMPO BKN005"
"1:50 PM EET on November 15, 2016","2016","11","15","13","50","Europe/Kiev","11:50 AM GMT on November 15, 2016","2016","11","15","11","50","UTC","-2.0","28.4","-2.0","28.4","100","10.8","6.7","-9999.0","-9999.0","330","NNW","7.0","4.3","1030","30.42","-5.9","21.4","-9999","-9999","-9999.00","-9999.00","Mostly Cloudy","mostlycloudy","0","0","0","0","0","0","SPECI UKKK 151150Z 33003MPS 7000 SCT007 BKN061 M02/M02 Q1030 R26/810550 NOSIG"
"2:00 PM EET on November 15, 2016","2016","11","15","14","00","Europe/Kiev","12:00 PM GMT on November 15, 2016","2016","11","15","12","00","UTC","-1","30","-3","26","80","3.6","2.2","","","350","North","10","6","1031","30.45","-999","-999","-9999","-9999","","","Partly Cloudy","partlycloudy","0","0","0","0","0","0","AAXX 15121 33345 31497 63501 11012 21032 30097 40311 57005 70241 83604 555 1/104"
"2:00 PM EET on November 15, 2016","2016","11","15","14","00","Europe/Kiev","12:00 PM GMT on November 15, 2016","2016","11","15","12","00","UTC","-2.0","28.4","-2.0","28.4","100","7.2","4.5","-9999.0","-9999.0","340","NNW","7.0","4.3","1030","30.42","-4.8","23.4","-9999","-9999","-9999.00","-9999.00","Mostly Cloudy","mostlycloudy","0","0","0","0","0","0","METAR UKKK 151200Z 34002MPS 320V020 7000 SCT007 BKN061 M02/M02 Q1030 R26/810550 NOSIG"
"2:30 PM EET on November 15, 2016","2016","11","15","14","30","Europe/Kiev","12:30 PM GMT on November 15, 2016","2016","11","15","12","30","UTC","-2.0","28.4","-2.0","28.4","100","3.6","2.2","-9999.0","-9999.0","0","Variable","6.0","3.7","1030","30.42","-999","-999","-9999","-9999","-9999.00","-9999.00","Mostly Cloudy","mostlycloudy","0","0","0","0","0","0","METAR UKKK 151230Z VRB01MPS 6000 SCT007 BKN061 M02/M02 Q1030 R26/810550 NOSIG"
"3:00 PM EET on November 15, 2016","2016","11","15","15","00","Europe/Kiev","1:00 PM GMT on November 15, 2016","2016","11","15","13","00","UTC","-2.0","28.4","-2.0","28.4","100","0.0","0.0","-9999.0","-9999.0","0","North","5.0","3.1","1029","30.39","-999","-999","-9999","-9999","-9999.00","-9999.00","Mostly Cloudy","mostlycloudy","0","0","0","0","0","0","METAR UKKK 151300Z 00000MPS 5000 BR SCT009 BKN061 M02/M02 Q1029 R26/810550 NOSIG"
"3:30 PM EET on November 15, 2016","2016","11","15","15","30","Europe/Kiev","1:30 PM GMT on November 15, 2016","2016","11","15","13","30","UTC","-2.0","28.4","-2.0","28.4","100","7.2","4.5","-9999.0","-9999.0","310","NW","5.0","3.1","1029","30.39","-4.8","23.4","-9999","-9999","-9999.00","-9999.00","Mostly Cloudy","mostlycloudy","0","0","0","0","0","0","METAR UKKK 151330Z 31002MPS 5000 BR SCT010 BKN064 M02/M02 Q1029 R26/810550 NOSIG"
"4:00 PM EET on November 15, 2016","2016","11","15","16","00","Europe/Kiev","2:00 PM GMT on November 15, 2016","2016","11","15","14","00","UTC","-2.0","28.4","-2.0","28.4","100","3.6","2.2","-9999.0","-9999.0","270","West","4.0","2.5","1029","30.39","-999","-999","-9999","-9999","-9999.00","-9999.00","Mostly Cloudy","mostlycloudy","0","0","0","0","0","0","METAR UKKK 151400Z 27001MPS 4000 BR BKN008 BKN064 M02/M02 Q1029 R26/810550 NOSIG"
"4:30 PM EET on November 15, 2016","2016","11","15","16","30","Europe/Kiev","2:30 PM GMT on November 15, 2016","2016","11","15","14","30","UTC","-2.0","28.4","-2.0","28.4","100","3.6","2.2","-9999.0","-9999.0","0","Variable","-9999.0","-9999.0","1029","30.39","-999","-999","-9999","-9999","-9999.00","-9999.00","Overcast","cloudy","0","0","0","0","0","0","METAR UKKK 151430Z VRB01MPS 3100 BR OVC008 M02/M02 Q1029 R26/810550 NOSIG"
"5:00 PM EET on November 15, 2016","2016","11","15","17","00","Europe/Kiev","3:00 PM GMT on November 15, 2016","2016","11","15","15","00","UTC","-2","28","-3","26","88","0.0","0.0","","","","","4","2","1031","30.45","-999","-999","-9999","-9999","","","Mist","hazy","0","0","0","0","0","0","AAXX 15151 33345 41396 80000 11022 21034 30094 40309 56003 71022 886// 333 88708 555 1/107"
"5:00 PM EET on November 15, 2016","2016","11","15","17","00","Europe/Kiev","3:00 PM GMT on November 15, 2016","2016","11","15","15","00","UTC","-2.0","28.4","-2.0","28.4","100","3.6","2.2","-9999.0","-9999.0","250","WSW","2.6","1.6","1029","30.39","-999","-999","-9999","-9999","-9999.00","-9999.00","Overcast","cloudy","0","0","0","0","0","0","METAR UKKK 151500Z 25001MPS 2600 BR OVC008 M02/M02 Q1029 R26/810550 BECMG 0300 FZFG VV001"
"5:30 PM EET on November 15, 2016","2016","11","15","17","30","Europe/Kiev","3:30 PM GMT on November 15, 2016","2016","11","15","15","30","UTC","-2.0","28.4","-2.0","28.4","100","3.6","2.2","-9999.0","-9999.0","0","Variable","2.8","1.7","1029","30.39","-999","-999","-9999","-9999","-9999.00","-9999.00","Overcast","cloudy","0","0","0","0","0","0","METAR UKKK 151530Z VRB01MPS 2800 BR OVC008 M02/M02 Q1029 R26/810550 BECMG 0300 FZFG VV001"
"6:00 PM EET on November 15, 2016","2016","11","15","18","00","Europe/Kiev","4:00 PM GMT on November 15, 2016","2016","11","15","16","00","UTC","-1.0","30.2","-1.0","30.2","100","7.2","4.5","-9999.0","-9999.0","360","North","8.0","5.0","1029","30.39","-3.6","25.5","-9999","-9999","-9999.00","-9999.00","Overcast","cloudy","0","0","0","0","0","0","METAR UKKK 151600Z 36002MPS 330V040 8000 OVC008 M01/M01 Q1029 R26/810550 NOSIG"
"6:30 PM EET on November 15, 2016","2016","11","15","18","30","Europe/Kiev","4:30 PM GMT on November 15, 2016","2016","11","15","16","30","UTC","-1.0","30.2","-2.0","28.4","93","7.2","4.5","-9999.0","-9999.0","350","North","10.0","6.2","1029","30.39","-3.6","25.5","-9999","-9999","-9999.00","-9999.00","Overcast","cloudy","0","0","0","0","0","0","METAR UKKK 151630Z 35002MPS 9999 OVC009 M01/M02 Q1029 R26/810550 NOSIG"
"7:00 PM EET on November 15, 2016","2016","11","15","19","00","Europe/Kiev","5:00 PM GMT on November 15, 2016","2016","11","15","17","00","UTC","-1.0","30.2","-2.0","28.4","93","7.2","4.5","-9999.0","-9999.0","350","North","10.0","6.2","1029","30.39","-3.6","25.5","-9999","-9999","-9999.00","-9999.00","Overcast","cloudy","0","0","0","0","0","0","METAR UKKK 151700Z 35002MPS 330V030 9999 OVC010 M01/M02 Q1029 R26/810550 NOSIG"
"7:30 PM EET on November 15, 2016","2016","11","15","19","30","Europe/Kiev","5:30 PM GMT on November 15, 2016","2016","11","15","17","30","UTC","-1.0","30.2","-2.0","28.4","93","7.2","4.5","-9999.0","-9999.0","360","North","10.0","6.2","1029","30.39","-3.6","25.5","-9999","-9999","-9999.00","-9999.00","Overcast","cloudy","0","0","0","0","0","0","METAR UKKK 151730Z 36002MPS 330V030 9999 OVC011 M01/M02 Q1029 R26/810550 NOSIG"
"8:00 PM EET on November 15, 2016","2016","11","15","20","00","Europe/Kiev","6:00 PM GMT on November 15, 2016","2016","11","15","18","00","UTC","-2","28","-3","26","90","0.0","0.0","","","","","4","2","1030","30.43","-999","-999","-9999","-9999","","","Mist","hazy","0","0","0","0","0","0","AAXX 15181 33345 31496 70000 11020 21032 30088 40302 58006 71022 87600 333 11006 87713 555 1/106"
"8:00 PM EET on November 15, 2016","2016","11","15","20","00","Europe/Kiev","6:00 PM GMT on November 15, 2016","2016","11","15","18","00","UTC","-1.0","30.2","-2.0","28.4","93","7.2","4.5","-9999.0","-9999.0","340","NNW","10.0","6.2","1029","30.39","-3.6","25.5","-9999","-9999","-9999.00","-9999.00","Overcast","cloudy","0","0","0","0","0","0","METAR UKKK 151800Z 34002MPS 9999 OVC011 M01/M02 Q1029 R26/810550 NOSIG"
"8:30 PM EET on November 15, 2016","2016","11","15","20","30","Europe/Kiev","6:30 PM GMT on November 15, 2016","2016","11","15","18","30","UTC","-1.0","30.2","-2.0","28.4","93","7.2","4.5","-9999.0","-9999.0","350","North","10.0","6.2","1029","30.39","-3.6","25.5","-9999","-9999","-9999.00","-9999.00","Overcast","cloudy","0","0","0","0","0","0","METAR UKKK 151830Z 35002MPS 320V020 9999 OVC012 M01/M02 Q1029 R26/810550 NOSIG"
"9:00 PM EET on November 15, 2016","2016","11","15","21","00","Europe/Kiev","7:00 PM GMT on November 15, 2016","2016","11","15","19","00","UTC","-1.0","30.2","-3.0","26.6","86","3.6","2.2","-9999.0","-9999.0","0","Variable","10.0","6.2","1028","30.36","-999","-999","-9999","-9999","-9999.00","-9999.00","Overcast","cloudy","0","0","0","0","0","0","METAR UKKK 151900Z VRB01MPS 9999 OVC012 M01/M03 Q1028 R26/810550 NOSIG"
"9:30 PM EET on November 15, 2016","2016","11","15","21","30","Europe/Kiev","7:30 PM GMT on November 15, 2016","2016","11","15","19","30","UTC","-2.0","28.4","-3.0","26.6","93","3.6","2.2","-9999.0","-9999.0","0","Variable","8.0","5.0","1028","30.36","-999","-999","-9999","-9999","-9999.00","-9999.00","Overcast","cloudy","0","0","0","0","0","0","METAR UKKK 151930Z VRB01MPS 8000 OVC012 M02/M03 Q1028 R26/810550 NOSIG"
"10:00 PM EET on November 15, 2016","2016","11","15","22","00","Europe/Kiev","8:00 PM GMT on November 15, 2016","2016","11","15","20","00","UTC","-2.0","28.4","-3.0","26.6","93","3.6","2.2","-9999.0","-9999.0","330","NNW","10.0","6.2","1028","30.36","-999","-999","-9999","-9999","-9999.00","-9999.00","Overcast","cloudy","0","0","0","0","0","0","METAR UKKK 152000Z 33001MPS 9999 OVC010 M02/M03 Q1028 R26/810550 NOSIG"
"10:30 PM EET on November 15, 2016","2016","11","15","22","30","Europe/Kiev","8:30 PM GMT on November 15, 2016","2016","11","15","20","30","UTC","-2.0","28.4","-3.0","26.6","93","7.2","4.5","-9999.0","-9999.0","300","WNW","10.0","6.2","1028","30.36","-4.8","23.4","-9999","-9999","-9999.00","-9999.00","Overcast","cloudy","0","0","0","0","0","0","METAR UKKK 152030Z 30002MPS 9999 OVC011 M02/M03 Q1028 R26/810550 NOSIG"
"11:00 PM EET on November 15, 2016","2016","11","15","23","00","Europe/Kiev","9:00 PM GMT on November 15, 2016","2016","11","15","21","00","UTC","-5","24","-5","23","94","0.0","0.0","","","","","0.05","0","1030","30.41","-999","-999","-9999","-9999","","","Fog","fog","1","0","0","0","0","0","AAXX 15211 33345 41991 00000 11047 21050 30081 40297 57007 74841 555 1/111"
"11:00 PM EET on November 15, 2016","2016","11","15","23","00","Europe/Kiev","9:00 PM GMT on November 15, 2016","2016","11","15","21","00","UTC","-3.0","26.6","-4.0","24.8","93","7.2","4.5","-9999.0","-9999.0","320","NW","9.0","5.6","1028","30.36","-5.9","21.3","-9999","-9999","-9999.00","-9999.00","Overcast","cloudy","0","0","0","0","0","0","METAR UKKK 152100Z 32002MPS 9000 OVC010 M03/M04 Q1028 R26/190550 NOSIG"
"11:30 PM EET on November 15, 2016","2016","11","15","23","30","Europe/Kiev","9:30 PM GMT on November 15, 2016","2016","11","15","21","30","UTC","-5.0","23.0","-6.0","21.2","93","3.6","2.2","-9999.0","-9999.0","320","NW","5.0","3.1","1028","30.36","-999","-999","-9999","-9999","-9999.00","-9999.00","Mostly Cloudy","mostlycloudy","0","0","0","0","0","0","METAR UKKK 152130Z 32001MPS 5000 BR BKN009 M05/M06 Q1028 R26/190550 TEMPO 2000 BR"
"12:00 AM EET on November 16, 2016","2016","11","16","00","00","Europe/Kiev","10:00 PM GMT on November 15, 2016","2016","11","15","22","00","UTC","-5.0","23.0","-5.0","23.0","100","3.6","2.2","-9999.0","-9999.0","100","East","2.8","1.7","1028","30.36","-999","-999","-9999","-9999","-9999.00","-9999.00","Mostly Cloudy","mostlycloudy","0","0","0","0","0","0","METAR UKKK 152200Z 10001MPS 2800 BR BKN009 M05/M05 Q1028 R26/190550 TEMPO 0400 FZFG"
"12:03 AM EET on November 16, 2016","2016","11","16","00","03","Europe/Kiev","10:03 PM GMT on November 15, 2016","2016","11","15","22","03","UTC","-5.0","23.0","-6.0","21.2","93","7.2","4.5","-9999.0","-9999.0","100","East","1.0","0.6","1028","30.36","-8.3","17.1","-9999","-9999","-9999.00","-9999.00","Mostly Cloudy","mostlycloudy","0","0","0","0","0","0","SPECI UKKK 152203Z 10002MPS 060V120 1000 R26/P2000D BR BKN007 M05/M06 Q1028 R26/190550 TEMPO 0400 FZFG"
"12:13 AM EET on November 16, 2016","2016","11","16","00","13","Europe/Kiev","10:13 PM GMT on November 15, 2016","2016","11","15","22","13","UTC","-5.0","23.0","-6.0","21.2","93","7.2","4.5","-9999.0","-9999.0","90","East","0.7","0.4","1028","30.36","-8.3","17.1","-9999","-9999","-9999.00","-9999.00","Light Freezing Fog","fog","1","0","0","0","0","0","SPECI UKKK 152213Z 09002MPS 0700 R26/1900N FZFG BKN007 M05/M06 Q1028 R26/190550 TEMPO 0400 FZFG"
"12:30 AM EET on November 16, 2016","2016","11","16","00","30","Europe/Kiev","10:30 PM GMT on November 15, 2016","2016","11","15","22","30","UTC","-5.0","23.0","-5.0","23.0","100","7.2","4.5","-9999.0","-9999.0","110","ESE","1.5","0.9","1028","30.36","-8.3","17.1","-9999","-9999","-9999.00","-9999.00","Mostly Cloudy","mostlycloudy","0","0","0","0","0","0","METAR UKKK 152230Z 11002MPS 080V140 1500 BR BKN007 M05/M05 Q1028 REFZFG R26/190550 TEMPO 0400 FZFG"
"12:35 AM EET on November 16, 2016","2016","11","16","00","35","Europe/Kiev","10:35 PM GMT on November 15, 2016","2016","11","15","22","35","UTC","-4.0","24.8","-5.0","23.0","93","7.2","4.5","-9999.0","-9999.0","110","ESE","0.7","0.4","1028","30.36","-7.1","19.2","-9999","-9999","-9999.00","-9999.00","Light Freezing Fog","fog","1","0","0","0","0","0","SPECI UKKK 152235Z 11002MPS 0700 R26/1400VP2000U FZFG OVC006 M04/M05 Q1028 R26/190550 TEMPO 0400 FZFG"
"12:38 AM EET on November 16, 2016","2016","11","16","00","38","Europe/Kiev","10:38 PM GMT on November 15, 2016","2016","11","15","22","38","UTC","-5.0","23.0","-5.0","23.0","100","7.2","4.5","-9999.0","-9999.0","110","ESE","0.2","0.1","1028","30.36","-8.3","17.1","-9999","-9999","-9999.00","-9999.00","Light Freezing Fog","fog","1","0","0","0","0","0","SPECI UKKK 152238Z 11002MPS 0200 R26/0650VP2000D FZFG OVC005 M05/M05 Q1028 R26/190550 NOSIG"
"1:00 AM EET on November 16, 2016","2016","11","16","01","00","Europe/Kiev","11:00 PM GMT on November 15, 2016","2016","11","15","23","00","UTC","-4.0","24.8","-5.0","23.0","93","3.6","2.2","-9999.0","-9999.0","0","Variable","0.1","0.1","1027","30.33","-999","-999","-9999","-9999","-9999.00","-9999.00","Light Freezing Fog","fog","1","0","0","0","0","0","METAR UKKK 152300Z VRB01MPS 0150 R26/0450N FZFG OVC005 M04/M05 Q1027 R26/190550 NOSIG"
"1:30 AM EET on November 16, 2016","2016","11","16","01","30","Europe/Kiev","11:30 PM GMT on November 15, 2016","2016","11","15","23","30","UTC","-4.0","24.8","-4.0","24.8","100","3.6","2.2","-9999.0","-9999.0","0","Variable","0.4","0.2","1027","30.33","-999","-999","-9999","-9999","-9999.00","-9999.00","Light Freezing Fog","fog","1","0","0","0","0","0","METAR UKKK 152330Z VRB01MPS 0400 R26/0650V1400U FZFG OVC008 M04/M04 Q1027 R26/190550 TEMPO 0400 FZFG VV003"
"1:55 AM EET on November 16, 2016","2016","11","16","01","55","Europe/Kiev","11:55 PM GMT on November 15, 2016","2016","11","15","23","55","UTC","-4.0","24.8","-4.0","24.8","100","7.2","4.5","-9999.0","-9999.0","280","West","2.4","1.5","1027","30.33","-7.1","19.2","-9999","-9999","-9999.00","-9999.00","Overcast","cloudy","0","0","0","0","0","0","SPECI UKKK 152355Z 28002MPS 2400 BR OVC008 M04/M04 Q1027 REFZFG R26/190550 TEMPO 0400 FZFG VV003"
"2:00 AM EET on November 16, 2016","2016","11","16","02","00","Europe/Kiev","12:00 AM GMT on November 16, 2016","2016","11","16","00","00","UTC","-3","26","-3","26","100","0.0","0.0","","","","","0.5","0","1029","30.39","-999","-999","-9999","-9999","","","Heavy Fog","fog","1","0","0","0","0","0","AAXX 16001 33345 31/93 90000 11032 21033 30076 40291 56005 74941 555 1/104"
"2:00 AM EET on November 16, 2016","2016","11","16","02","00","Europe/Kiev","12:00 AM GMT on November 16, 2016","2016","11","16","00","00","UTC","-4.0","24.8","-4.0","24.8","100","7.2","4.5","-9999.0","-9999.0","280","West","2.6","1.6","1027","30.33","-7.1","19.2","-9999","-9999","-9999.00","-9999.00","Overcast","cloudy","0","0","0","0","0","0","METAR UKKK 160000Z 28002MPS 2600 BR OVC008 M04/M04 Q1027 R26/190550 TEMPO 0400 FZFG VV003"
"2:30 AM EET on November 16, 2016","2016","11","16","02","30","Europe/Kiev","12:30 AM GMT on November 16, 2016","2016","11","16","00","30","UTC","-3.0","26.6","-4.0","24.8","93","3.6","2.2","-9999.0","-9999.0","280","West","-9999.0","-9999.0","1027","30.33","-999","-999","-9999","-9999","-9999.00","-9999.00","Overcast","cloudy","0","0","0","0","0","0","METAR UKKK 160030Z 28001MPS 4600 BR OVC008 M03/M04 Q1027 R26/190550 TEMPO 0400 FZFG"
"3:00 AM EET on November 16, 2016","2016","11","16","03","00","Europe/Kiev","1:00 AM GMT on November 16, 2016","2016","11","16","01","00","UTC","-3.0","26.6","-4.0","24.8","93","3.6","2.2","-9999.0","-9999.0","0","Variable","7.0","4.3","1027","30.33","-999","-999","-9999","-9999","-9999.00","-9999.00","Overcast","cloudy","0","0","0","0","0","0","METAR UKKK 160100Z VRB01MPS 7000 OVC008 M03/M04 Q1027 R26/190550 TEMPO 0400 FZFG"
"3:30 AM EET on November 16, 2016","2016","11","16","03","30","Europe/Kiev","1:30 AM GMT on November 16, 2016","2016","11","16","01","30","UTC","-3.0","26.6","-4.0","24.8","93","7.2","4.5","-9999.0","-9999.0","240","WSW","7.0","4.3","1026","30.30","-5.9","21.3","-9999","-9999","-9999.00","-9999.00","Overcast","cloudy","0","0","0","0","0","0","METAR UKKK 160130Z 24002MPS 7000 OVC008 M03/M04 Q1026 R26/190550 TEMPO 0400 FZFG"
"4:00 AM EET on November 16, 2016","2016","11","16","04","00","Europe/Kiev","2:00 AM GMT on November 16, 2016","2016","11","16","02","00","UTC","-4.0","24.8","-4.0","24.8","100","3.6","2.2","-9999.0","-9999.0","250","WSW","6.0","3.7","1026","30.30","-999","-999","-9999","-9999","-9999.00","-9999.00","Overcast","cloudy","0","0","0","0","0","0","METAR UKKK 160200Z 25001MPS 6000 OVC007 M04/M04 Q1026 R26/190550 TEMPO 2000 BR OVC005"
"4:30 AM EET on November 16, 2016","2016","11","16","04","30","Europe/Kiev","2:30 AM GMT on November 16, 2016","2016","11","16","02","30","UTC","-3.0","26.6","-4.0","24.8","93","7.2","4.5","-9999.0","-9999.0","250","WSW","6.0","3.7","1026","30.30","-5.9","21.3","-9999","-9999","-9999.00","-9999.00","Overcast","cloudy","0","0","0","0","0","0","METAR UKKK 160230Z 25002MPS 6000 OVC006 M03/M04 Q1026 R26/190550 TEMPO 2000 BR OVC005"
"5:00 AM EET on November 16, 2016","2016","11","16","05","00","Europe/Kiev","3:00 AM GMT on November 16, 2016","2016","11","16","03","00","UTC","-3","26","-4","25","95","0.0","0.0","","","","","1","1","1028","30.35","-999","-999","-9999","-9999","","","Mist","hazy","0","0","0","0","0","0","AAXX 16031 33345 41394 80000 11034 21038 30061 40276 58015 71042 886// 333 88707 555 1/105"
"5:00 AM EET on November 16, 2016","2016","11","16","05","00","Europe/Kiev","3:00 AM GMT on November 16, 2016","2016","11","16","03","00","UTC","-4.0","24.8","-4.0","24.8","100","7.2","4.5","-9999.0","-9999.0","250","WSW","6.0","3.7","1026","30.30","-7.1","19.2","-9999","-9999","-9999.00","-9999.00","Overcast","cloudy","0","0","0","0","0","0","METAR UKKK 160300Z 25002MPS 6000 OVC006 M04/M04 Q1026 R26/190550 TEMPO 2000 BR OVC005"
"5:30 AM EET on November 16, 2016","2016","11","16","05","30","Europe/Kiev","3:30 AM GMT on November 16, 2016","2016","11","16","03","30","UTC","-4.0","24.8","-4.0","24.8","100","7.2","4.5","-9999.0","-9999.0","280","West","5.0","3.1","1026","30.30","-7.1","19.2","-9999","-9999","-9999.00","-9999.00","Overcast","cloudy","0","0","0","0","0","0","METAR UKKK 160330Z 28002MPS 5000 BR OVC005 M04/M04 Q1026 R26/190550 TEMPO 2000 BR OVC004"
"6:00 AM EET on November 16, 2016","2016","11","16","06","00","Europe/Kiev","4:00 AM GMT on November 16, 2016","2016","11","16","04","00","UTC","-4.0","24.8","-4.0","24.8","100","3.6","2.2","-9999.0","-9999.0","260","West","5.0","3.1","1026","30.30","-999","-999","-9999","-9999","-9999.00","-9999.00","Overcast","cloudy","0","0","0","0","0","0","METAR UKKK 160400Z 26001MPS 5000 BR OVC005 M04/M04 Q1026 R26/190550 TEMPO 2000 BR OVC004"
"6:30 AM EET on November 16, 2016","2016","11","16","06","30","Europe/Kiev","4:30 AM GMT on November 16, 2016","2016","11","16","04","30","UTC","-4.0","24.8","-4.0","24.8","100","3.6","2.2","-9999.0","-9999.0","260","West","5.0","3.1","1026","30.30","-999","-999","-9999","-9999","-9999.00","-9999.00","Overcast","cloudy","0","0","0","0","0","0","METAR UKKK 160430Z 26001MPS 5000 BR OVC005 M04/M04 Q1026 R26/190550 TEMPO 2000 BR OVC004"
"6:37 AM EET on November 16, 2016","2016","11","16","06","37","Europe/Kiev","4:37 AM GMT on November 16, 2016","2016","11","16","04","37","UTC","-4.0","24.8","-4.0","24.8","100","3.6","2.2","-9999.0","-9999.0","240","WSW","5.0","3.1","1026","30.30","-999","-999","-9999","-9999","-9999.00","-9999.00","Overcast","cloudy","0","0","0","0","0","0","SPECI UKKK 160437Z 24001MPS 5000 BR OVC004 M04/M04 Q1026 R26/190550 TEMPO 2000 BR OVC003"
"7:00 AM EET on November 16, 2016","2016","11","16","07","00","Europe/Kiev","5:00 AM GMT on November 16, 2016","2016","11","16","05","00","UTC","-4.0","24.8","-5.0","23.0","93","7.2","4.5","-9999.0","-9999.0","230","SW","-9999.0","-9999.0","1026","30.30","-7.1","19.2","-9999","-9999","-9999.00","-9999.00","Overcast","cloudy","0","0","0","0","0","0","METAR UKKK 160500Z 23002MPS 4200 BR OVC004 M04/M05 Q1026 R26/190550 TEMPO 2000 BR OVC003"
"7:30 AM EET on November 16, 2016","2016","11","16","07","30","Europe/Kiev","5:30 AM GMT on November 16, 2016","2016","11","16","05","30","UTC","-4.0","24.8","-5.0","23.0","93","7.2","4.5","-9999.0","-9999.0","240","WSW","4.5","2.8","1026","30.30","-7.1","19.2","-9999","-9999","-9999.00","-9999.00","Overcast","cloudy","0","0","0","0","0","0","METAR UKKK 160530Z 24002MPS 200V260 4500 BR OVC004 M04/M05 Q1026 R26/190550 TEMPO 2000 BR OVC003"
"8:00 AM EET on November 16, 2016","2016","11","16","08","00","Europe/Kiev","6:00 AM GMT on November 16, 2016","2016","11","16","06","00","UTC","-4","25","-4","24","95","3.6","2.2","","","190","South","1","1","1028","30.35","-999","-999","-9999","-9999","","","Mist","hazy","0","0","0","0","0","0","AAXX 16061 33345 31294 81901 11039 21044 30061 40276 54000 71042 886// 333 21047 47010 88706 555 1/104"
"8:00 AM EET on November 16, 2016","2016","11","16","08","00","Europe/Kiev","6:00 AM GMT on November 16, 2016","2016","11","16","06","00","UTC","-4.0","24.8","-5.0","23.0","93","7.2","4.5","-9999.0","-9999.0","210","SSW","-9999.0","-9999.0","1026","30.30","-7.1","19.2","-9999","-9999","-9999.00","-9999.00","Overcast","cloudy","0","0","0","0","0","0","METAR UKKK 160600Z 21002MPS 170V230 4300 BR OVC004 M04/M05 Q1026 R26/190550 TEMPO 2000 BR OVC003"
"8:30 AM EET on November 16, 2016","2016","11","16","08","30","Europe/Kiev","6:30 AM GMT on November 16, 2016","2016","11","16","06","30","UTC","-4.0","24.8","-5.0","23.0","93","7.2","4.5","-9999.0","-9999.0","180","South","-9999.0","-9999.0","1026","30.30","-7.1","19.2","-9999","-9999","-9999.00","-9999.00","Overcast","cloudy","0","0","0","0","0","0","METAR UKKK 160630Z 18002MPS 4200 BR OVC003 M04/M05 Q1026 R26/190550 TEMPO 2000 BR OVC002"
"9:00 AM EET on November 16, 2016","2016","11","16","09","00","Europe/Kiev","7:00 AM GMT on November 16, 2016","2016","11","16","07","00","UTC","-4.0","24.8","-5.0","23.0","93","7.2","4.5","-9999.0","-9999.0","100","East","4.5","2.8","1026","30.30","-7.1","19.2","-9999","-9999","-9999.00","-9999.00","Overcast","cloudy","0","0","0","0","0","0","METAR UKKK 160700Z 10002MPS 4500 BR OVC003 M04/M05 Q1026 R26/810540 TEMPO 2000 BR OVC002"
"9:30 AM EET on November 16, 2016","2016","11","16","09","30","Europe/Kiev","7:30 AM GMT on November 16, 2016","2016","11","16","07","30","UTC","-4.0","24.8","-5.0","23.0","93","7.2","4.5","-9999.0","-9999.0","210","SSW","-9999.0","-9999.0","1026","30.30","-7.1","19.2","-9999","-9999","-9999.00","-9999.00","Overcast","cloudy","0","0","0","0","0","0","METAR UKKK 160730Z 21002MPS 180V240 3400 BR OVC003 M04/M05 Q1026 R26/810540 TEMPO 2000 BR OVC002"
"10:00 AM EET on November 16, 2016","2016","11","16","10","00","Europe/Kiev","8:00 AM GMT on November 16, 2016","2016","11","16","08","00","UTC","-4.0","24.8","-5.0","23.0","93","7.2","4.5","-9999.0","-9999.0","230","SW","1.8","1.1","1026","30.30","-7.1","19.2","-9999","-9999","-9999.00","-9999.00","Overcast","cloudy","0","0","0","0","0","0","METAR UKKK 160800Z 23002MPS 170V300 1800 BR OVC002 M04/M05 Q1026 R26/810540 TEMPO 1000 BR OVC001"
"10:30 AM EET on November 16, 2016","2016","11","16","10","30","Europe/Kiev","8:30 AM GMT on November 16, 2016","2016","11","16","08","30","UTC","-4.0","24.8","-4.0","24.8","100","7.2","4.5","-9999.0","-9999.0","240","WSW","-9999.0","-9999.0","1026","30.30","-7.1","19.2","-9999","-9999","-9999.00","-9999.00","Overcast","cloudy","0","0","0","0","0","0","METAR UKKK 160830Z 24002MPS 200V270 3200 BR OVC002 M04/M04 Q1026 R26/810540 TEMPO 1000 BR OVC001"
"11:00 AM EET on November 16, 2016","2016","11","16","11","00","Europe/Kiev","9:00 AM GMT on November 16, 2016","2016","11","16","09","00","UTC","-4","25","-5","24","93","3.6","2.2","","","240","WSW","1","1","1027","30.34","-999","-999","-9999","-9999","","","Mist","hazy","0","0","0","0","0","0","AAXX 16091 33345 41294 82401 11041 21046 30058 40273 58003 71022 886// 333 88705 555 1/102"
"11:00 AM EET on November 16, 2016","2016","11","16","11","00","Europe/Kiev","9:00 AM GMT on November 16, 2016","2016","11","16","09","00","UTC","-4.0","24.8","-4.0","24.8","100","7.2","4.5","-9999.0","-9999.0","240","WSW","2.8","1.7","1026","30.30","-7.1","19.2","-9999","-9999","-9999.00","-9999.00","Overcast","cloudy","0","0","0","0","0","0","METAR UKKK 160900Z 24002MPS 210V280 2800 BR OVC002 M04/M04 Q1026 R26/810540 TEMPO OVC001"
"11:30 AM EET on November 16, 2016","2016","11","16","11","30","Europe/Kiev","9:30 AM GMT on November 16, 2016","2016","11","16","09","30","UTC","-4.0","24.8","-4.0","24.8","100","3.6","2.2","-9999.0","-9999.0","0","Variable","-9999.0","-9999.0","1025","30.27","-999","-999","-9999","-9999","-9999.00","-9999.00","Overcast","cloudy","0","0","0","0","0","0","METAR UKKK 160930Z VRB01MPS 4700 BR OVC003 M04/M04 Q1025 R26/810540 TEMPO OVC002"
"12:00 PM EET on November 16, 2016","2016","11","16","12","00","Europe/Kiev","10:00 AM GMT on November 16, 2016","2016","11","16","10","00","UTC","-4.0","24.8","-4.0","24.8","100","3.6","2.2","-9999.0","-9999.0","0","Variable","-9999.0","-9999.0","1025","30.27","-999","-999","-9999","-9999","-9999.00","-9999.00","Overcast","cloudy","0","0","0","0","0","0","METAR UKKK 161000Z VRB01MPS 4900 BR OVC003 M04/M04 Q1025 R26/810540 TEMPO OVC003"
"12:30 PM EET on November 16, 2016","2016","11","16","12","30","Europe/Kiev","10:30 AM GMT on November 16, 2016","2016","11","16","10","30","UTC","-3.0","26.6","-4.0","24.8","93","3.6","2.2","-9999.0","-9999.0","0","Variable","-9999.0","-9999.0","1025","30.27","-999","-999","-9999","-9999","-9999.00","-9999.00","Overcast","cloudy","0","0","0","0","0","0","METAR UKKK 161030Z VRB01MPS 4400 BR OVC004 M03/M04 Q1025 R26/810540 TEMPO OVC003"
"1:00 PM EET on November 16, 2016","2016","11","16","13","00","Europe/Kiev","11:00 AM GMT on November 16, 2016","2016","11","16","11","00","UTC","-3.0","26.6","-4.0","24.8","93","7.2","4.5","-9999.0","-9999.0","210","SSW","-9999.0","-9999.0","1025","30.27","-5.9","21.3","-9999","-9999","-9999.00","-9999.00","Overcast","cloudy","0","0","0","0","0","0","METAR UKKK 161100Z 21002MPS 180V250 4300 BR OVC004 M03/M04 Q1025 R26/810540 TEMPO OVC003"
"1:30 PM EET on November 16, 2016","2016","11","16","13","30","Europe/Kiev","11:30 AM GMT on November 16, 2016","2016","11","16","11","30","UTC","-3.0","26.6","-4.0","24.8","93","7.2","4.5","-9999.0","-9999.0","190","South","-9999.0","-9999.0","1024","30.24","-5.9","21.3","-9999","-9999","-9999.00","-9999.00","Overcast","cloudy","0","0","0","0","0","0","METAR UKKK 161130Z 19002MPS 4400 BR OVC004 M03/M04 Q1024 R26/810540 TEMPO OVC003"
"2:00 PM EET on November 16, 2016","2016","11","16","14","00","Europe/Kiev","12:00 PM GMT on November 16, 2016","2016","11","16","12","00","UTC","-3","26","-4","24","91","3.6","2.2","","","220","SW","1","1","1026","30.30","-999","-999","-9999","-9999","","","Mist","hazy","0","0","0","0","0","0","AAXX 16121 33345 31294 82201 11034 21042 30046 40261 57012 71022 886// 333 88705 555 1/102"
"2:00 PM EET on November 16, 2016","2016","11","16","14","00","Europe/Kiev","12:00 PM GMT on November 16, 2016","2016","11","16","12","00","UTC","-3.0","26.6","-4.0","24.8","93","7.2","4.5","-9999.0","-9999.0","140","SE","4.0","2.5","1024","30.24","-5.9","21.3","-9999","-9999","-9999.00","-9999.00","Overcast","cloudy","0","0","0","0","0","0","METAR UKKK 161200Z 14002MPS 110V180 4000 BR OVC004 M03/M04 Q1024 R26/810540 TEMPO OVC003"
"2:30 PM EET on November 16, 2016","2016","11","16","14","30","Europe/Kiev","12:30 PM GMT on November 16, 2016","2016","11","16","12","30","UTC","-3.0","26.6","-4.0","24.8","93","7.2","4.5","-9999.0","-9999.0","150","SSE","-9999.0","-9999.0","1024","30.24","-5.9","21.3","-9999","-9999","-9999.00","-9999.00","Overcast","cloudy","0","0","0","0","0","0","METAR UKKK 161230Z 15002MPS 110V190 4600 BR OVC004 M03/M04 Q1024 R26/810540 TEMPO OVC003"
"3:00 PM EET on November 16, 2016","2016","11","16","15","00","Europe/Kiev","1:00 PM GMT on November 16, 2016","2016","11","16","13","00","UTC","-3.0","26.6","-4.0","24.8","93","3.6","2.2","-9999.0","-9999.0","0","Variable","-9999.0","-9999.0","1024","30.24","-999","-999","-9999","-9999","-9999.00","-9999.00","Overcast","cloudy","0","0","0","0","0","0","METAR UKKK 161300Z VRB01MPS 4600 BR OVC004 M03/M04 Q1024 R26/810540 TEMPO BKN002"
"3:30 PM EET on November 16, 2016","2016","11","16","15","30","Europe/Kiev","1:30 PM GMT on November 16, 2016","2016","11","16","13","30","UTC","-3.0","26.6","-4.0","24.8","93","7.2","4.5","-9999.0","-9999.0","150","SSE","-9999.0","-9999.0","1024","30.24","-5.9","21.3","-9999","-9999","-9999.00","-9999.00","Overcast","cloudy","0","0","0","0","0","0","METAR UKKK 161330Z 15002MPS 130V190 3700 BR OVC003 M03/M04 Q1024 R26/810540 TEMPO BKN002"
"4:00 PM EET on November 16, 2016","2016","11","16","16","00","Europe/Kiev","2:00 PM GMT on November 16, 2016","2016","11","16","14","00","UTC","-4.0","24.8","-4.0","24.8","100","7.2","4.5","-9999.0","-9999.0","140","SE","2.8","1.7","1024","30.24","-7.1","19.2","-9999","-9999","-9999.00","-9999.00","Overcast","cloudy","0","0","0","0","0","0","METAR UKKK 161400Z 14002MPS 110V180 2800 BR OVC002 M04/M04 Q1024 R26/810540 TEMPO 1000 BR OVC001"
"4:30 PM EET on November 16, 2016","2016","11","16","16","30","Europe/Kiev","2:30 PM GMT on November 16, 2016","2016","11","16","14","30","UTC","-4.0","24.8","-5.0","23.0","93","7.2","4.5","-9999.0","-9999.0","190","South","2.2","1.4","1024","30.24","-7.1","19.2","-9999","-9999","-9999.00","-9999.00","Overcast","cloudy","0","0","0","0","0","0","METAR UKKK 161430Z 19002MPS 150V240 2200 BR OVC002 M04/M05 Q1024 R08/810540 TEMPO 1000 BR OVC001"
"4:49 PM EET on November 16, 2016","2016","11","16","16","49","Europe/Kiev","2:49 PM GMT on November 16, 2016","2016","11","16","14","49","UTC","-4.0","24.8","-5.0","23.0","93","10.8","6.7","-9999.0","-9999.0","150","SSE","1.4","0.9","1024","30.24","-8.3","17.1","-9999","-9999","-9999.00","-9999.00","Overcast","cloudy","0","0","0","0","0","0","SPECI UKKK 161449Z 15003MPS 110V220 1400 R08/P2000D BR OVC002 M04/M05 Q1024 R08/810540 TEMPO 1000 BR OVC001"
"5:00 PM EET on November 16, 2016","2016","11","16","17","00","Europe/Kiev","3:00 PM GMT on November 16, 2016","2016","11","16","15","00","UTC","-4","24","-5","23","93","7.2","4.5","","","200","SSW","1","1","1026","30.30","-999","-999","-9999","-9999","","","Mist","hazy","0","0","0","0","0","0","AAXX 16151 33345 41294 82002 11045 21051 30046 40261 54000 71022 886// 333 88703 555 1/104"
"5:00 PM EET on November 16, 2016","2016","11","16","17","00","Europe/Kiev","3:00 PM GMT on November 16, 2016","2016","11","16","15","00","UTC","-4.0","24.8","-5.0","23.0","93","7.2","4.5","-9999.0","-9999.0","150","SSE","1.2","0.7","1024","30.24","-7.1","19.2","-9999","-9999","-9999.00","-9999.00","Overcast","cloudy","0","0","0","0","0","0","METAR UKKK 161500Z 15002MPS 110V190 1200 R08/P2000D BR OVC001 M04/M05 Q1024 R08/810540 BECMG 0300 FZFG VV001"
"5:10 PM EET on November 16, 2016","2016","11","16","17","10","Europe/Kiev","3:10 PM GMT on November 16, 2016","2016","11","16","15","10","UTC","-4.0","24.8","-5.0","23.0","93","7.2","4.5","-9999.0","-9999.0","150","SSE","-9999.0","-9999.0","1024","30.24","-7.1","19.2","-9999","-9999","-9999.00","-9999.00","Light Freezing Fog","fog","1","0","0","0","0","0","SPECI UKKK 161510Z 15002MPS 120V190 0550 R08/P2000U FZFG BKN001 OVC007 M04/M05 Q1024 R08/810540 BECMG 0300 FZFG VV001"
"5:30 PM EET on November 16, 2016","2016","11","16","17","30","Europe/Kiev","3:30 PM GMT on November 16, 2016","2016","11","16","15","30","UTC","-4.0","24.8","-5.0","23.0","93","7.2","4.5","-9999.0","-9999.0","140","SE","0.6","0.4","1024","30.24","-7.1","19.2","-9999","-9999","-9999.00","-9999.00","Light Freezing Fog","fog","1","0","0","0","0","0","METAR UKKK 161530Z 14002MPS 090V170 0600 R08/2000VP2000D FZFG OVC001 M04/M05 Q1024 R08/810540 BECMG 0300 FZFG VV001"
"6:00 PM EET on November 16, 2016","2016","11","16","18","00","Europe/Kiev","4:00 PM GMT on November 16, 2016","2016","11","16","16","00","UTC","-5.0","23.0","-5.0","23.0","100","10.8","6.7","-9999.0","-9999.0","130","SE","0.4","0.3","1024","30.24","-9.5","14.9","-9999","-9999","-9999.00","-9999.00","Light Freezing Fog","fog","1","0","0","0","0","0","METAR UKKK 161600Z 13003MPS 110V170 0450 R08/0900V1700U FZFG VV002 M05/M05 Q1024 R08/810540 BECMG 0300 FZFG VV001"
"6:30 PM EET on November 16, 2016","2016","11","16","18","30","Europe/Kiev","4:30 PM GMT on November 16, 2016","2016","11","16","16","30","UTC","-5.0","23.0","-5.0","23.0","100","7.2","4.5","-9999.0","-9999.0","150","SSE","0.2","0.2","1024","30.24","-8.3","17.1","-9999","-9999","-9999.00","-9999.00","Light Freezing Fog","fog","1","0","0","0","0","0","METAR UKKK 161630Z 15002MPS 100V200 0250 R08/1300VP2000U FZFG VV002 M05/M05 Q1024 R08/810540 BECMG 0300 FZFG VV001"
"7:00 PM EET on November 16, 2016","2016","11","16","19","00","Europe/Kiev","5:00 PM GMT on November 16, 2016","2016","11","16","17","00","UTC","-5.0","23.0","-6.0","21.2","93","7.2","4.5","-9999.0","-9999.0","180","South","0.2","0.2","1024","30.24","-8.3","17.1","-9999","-9999","-9999.00","-9999.00","Light Freezing Fog","fog","1","0","0","0","0","0","METAR UKKK 161700Z 18002MPS 150V230 0250 R08/1800N FZFG VV002 M05/M06 Q1024 R08/810540 TEMPO 0600 FZFG VV001"
"7:30 PM EET on November 16, 2016","2016","11","16","19","30","Europe/Kiev","5:30 PM GMT on November 16, 2016","2016","11","16","17","30","UTC","-5.0","23.0","-6.0","21.2","93","7.2","4.5","-9999.0","-9999.0","170","South","0.3","0.2","1024","30.24","-8.3","17.1","-9999","-9999","-9999.00","-9999.00","Light Freezing Fog","fog","1","0","0","0","0","0","METAR UKKK 161730Z 17002MPS 120V220 0350 R08/1600N FZFG VV002 M05/M06 Q1024 R08/810540 TEMPO 0600 FZFG VV001"
"7:38 PM EET on November 16, 2016","2016","11","16","19","38","Europe/Kiev","5:38 PM GMT on November 16, 2016","2016","11","16","17","38","UTC","-5.0","23.0","-6.0","21.2","93","7.2","4.5","-9999.0","-9999.0","170","South","0.5","0.3","1024","30.24","-8.3","17.1","-9999","-9999","-9999.00","-9999.00","Light Freezing Fog","fog","1","0","0","0","0","0","SPECI UKKK 161738Z 17002MPS 130V270 0500 R08/1100VP2000U FZFG VV001 M05/M06 Q1024 R08/810540 TEMPO 0600 FZFG VV001"
"8:00 PM EET on November 16, 2016","2016","11","16","20","00","Europe/Kiev","6:00 PM GMT on November 16, 2016","2016","11","16","18","00","UTC","-5","22","-6","21","95","10.8","6.7","","","230","SW","1","1","1026","30.30","-999","-999","-9999","-9999","","","Mist","hazy","0","0","0","0","0","0","AAXX 16181 33345 31294 82303 11053 21060 30043 40259 58003 71042 886// 333 11032 88703 555 1/105"
"8:00 PM EET on November 16, 2016","2016","11","16","20","00","Europe/Kiev","6:00 PM GMT on November 16, 2016","2016","11","16","18","00","UTC","-5.0","23.0","-6.0","21.2","93","7.2","4.5","-9999.0","-9999.0","180","South","-9999.0","-9999.0","1024","30.24","-8.3","17.1","-9999","-9999","-9999.00","-9999.00","Light Freezing Fog","fog","1","0","0","0","0","0","METAR UKKK 161800Z 18002MPS 110V220 0750 R08/P2000N FZFG OVC001 M05/M06 Q1024 R08/810540 TEMPO 0600 FZFG VV001"
"8:30 PM EET on November 16, 2016","2016","11","16","20","30","Europe/Kiev","6:30 PM GMT on November 16, 2016","2016","11","16","18","30","UTC","-5.0","23.0","-6.0","21.2","93","10.8","6.7","-9999.0","-9999.0","190","South","1.0","0.6","1024","30.24","-9.5","14.9","-9999","-9999","-9999.00","-9999.00","Overcast","cloudy","0","0","0","0","0","0","METAR UKKK 161830Z 19003MPS 150V270 1000 R08/P2000N BR OVC002 M05/M06 Q1024 REFZFG R08/810540 TEMPO 0600 FZFG VV001"
"8:51 PM EET on November 16, 2016","2016","11","16","20","51","Europe/Kiev","6:51 PM GMT on November 16, 2016","2016","11","16","18","51","UTC","-5.0","23.0","-6.0","21.2","93","7.2","4.5","-9999.0","-9999.0","180","South","-9999.0","-9999.0","1024","30.24","-8.3","17.1","-9999","-9999","-9999.00","-9999.00","Light Freezing Fog","fog","1","0","0","0","0","0","SPECI UKKK 161851Z 18002MPS 130V230 0750 R08/P2000U FZFG OVC002 M05/M06 Q1024 R08/810540 TEMPO 0600 FZFG VV001"
"9:00 PM EET on November 16, 2016","2016","11","16","21","00","Europe/Kiev","7:00 PM GMT on November 16, 2016","2016","11","16","19","00","UTC","-5.0","23.0","-5.0","23.0","100","7.2","4.5","-9999.0","-9999.0","180","South","1.0","0.6","1024","30.24","-8.3","17.1","-9999","-9999","-9999.00","-9999.00","Overcast","cloudy","0","0","0","0","0","0","METAR UKKK 161900Z 18002MPS 130V220 1000 R08/P2000N BR OVC002 M05/M05 Q1024 REFZFG R08/810540 TEMPO 0300 FZFG VV001"
"9:06 PM EET on November 16, 2016","2016","11","16","21","06","Europe/Kiev","7:06 PM GMT on November 16, 2016","2016","11","16","19","06","UTC","-5.0","23.0","-5.0","23.0","100","10.8","6.7","-9999.0","-9999.0","180","South","-9999.0","-9999.0","1024","30.24","-9.5","14.9","-9999","-9999","-9999.00","-9999.00","Light Freezing Fog","fog","1","0","0","0","0","0","SPECI UKKK 161906Z 18003MPS 130V220 0750 R08/P2000N FZFG OVC002 M05/M05 Q1024 R08/810540 TEMPO 0300 FZFG VV001"
"9:30 PM EET on November 16, 2016","2016","11","16","21","30","Europe/Kiev","7:30 PM GMT on November 16, 2016","2016","11","16","19","30","UTC","-5.0","23.0","-5.0","23.0","100","10.8","6.7","-9999.0","-9999.0","180","South","1.0","0.6","1024","30.24","-9.5","14.9","-9999","-9999","-9999.00","-9999.00","Overcast","cloudy","0","0","0","0","0","0","METAR UKKK 161930Z 18003MPS 130V240 1000 R08/P2000N BR OVC002 M05/M05 Q1024 REFZFG R08/810540 TEMPO 0300 FZFG VV001"
"9:41 PM EET on November 16, 2016","2016","11","16","21","41","Europe/Kiev","7:41 PM GMT on November 16, 2016","2016","11","16","19","41","UTC","-5.0","23.0","-5.0","23.0","100","10.8","6.7","-9999.0","-9999.0","160","SSE","-9999.0","-9999.0","1024","30.24","-9.5","14.9","-9999","-9999","-9999.00","-9999.00","Light Freezing Fog","fog","1","0","0","0","0","0","SPECI UKKK 161941Z 16003MPS 120V210 0750 R08/P2000N FZFG OVC002 M05/M05 Q1024 R08/810540 TEMPO 0300 FZFG VV001"
"10:00 PM EET on November 16, 2016","2016","11","16","22","00","Europe/Kiev","8:00 PM GMT on November 16, 2016","2016","11","16","20","00","UTC","-5.0","23.0","-5.0","23.0","100","14.4","8.9","-9999.0","-9999.0","170","South","-9999.0","-9999.0","1024","30.24","-10.4","13.2","-9999","-9999","-9999.00","-9999.00","Light Freezing Fog","fog","1","0","0","0","0","0","METAR UKKK 162000Z 17004MPS 130V230 0650 R08/1900D FZFG OVC002 M05/M05 Q1024 R08/810540 TEMPO 0300 FZFG VV001"
"10:24 PM EET on November 16, 2016","2016","11","16","22","24","Europe/Kiev","8:24 PM GMT on November 16, 2016","2016","11","16","20","24","UTC","-5.0","23.0","-5.0","23.0","100","10.8","6.7","-9999.0","-9999.0","190","South","0.6","0.4","1024","30.24","-9.5","14.9","-9999","-9999","-9999.00","-9999.00","Light Freezing Fog","fog","1","0","0","0","0","0","SPECI UKKK 162024Z 19003MPS 140V240 0600 R08/1300VP2000U FZFG VV001 M05/M05 Q1024 R08/810540 TEMPO 0300 FZFG VV001"
"10:30 PM EET on November 16, 2016","2016","11","16","22","30","Europe/Kiev","8:30 PM GMT on November 16, 2016","2016","11","16","20","30","UTC","-5.0","23.0","-5.0","23.0","100","10.8","6.7","-9999.0","-9999.0","180","South","0.4","0.3","1024","30.24","-9.5","14.9","-9999","-9999","-9999.00","-9999.00","Light Freezing Fog","fog","1","0","0","0","0","0","METAR UKKK 162030Z 18003MPS 140V240 0450 R08/1200VP2000D FZFG VV002 M05/M05 Q1024 R08/810540 TEMPO 0300 FZFG VV001"
"11:00 PM EET on November 16, 2016","2016","11","16","23","00","Europe/Kiev","9:00 PM GMT on November 16, 2016","2016","11","16","21","00","UTC","-5","24","-5","23","92","10.8","6.7","","","220","SW","1","1","1025","30.28","-999","-999","-9999","-9999","","","Mist","hazy","0","0","0","0","0","0","AAXX 16211 33345 41294 82203 11046 21052 30039 40254 57004 71022 886// 333 88703 555 1/104"
"11:00 PM EET on November 16, 2016","2016","11","16","23","00","Europe/Kiev","9:00 PM GMT on November 16, 2016","2016","11","16","21","00","UTC","-5.0","23.0","-5.0","23.0","100","7.2","4.5","-9999.0","-9999.0","180","South","0.4","0.2","1024","30.24","-8.3","17.1","-9999","-9999","-9999.00","-9999.00","Light Freezing Fog","fog","1","0","0","0","0","0","METAR UKKK 162100Z 18002MPS 140V230 0400 R08/1900U FZFG VV002 M05/M05 Q1024 R08/810540 TEMPO 0300 FZFG VV001"
"11:30 PM EET on November 16, 2016","2016","11","16","23","30","Europe/Kiev","9:30 PM GMT on November 16, 2016","2016","11","16","21","30","UTC","-4.0","24.8","-5.0","23.0","93","10.8","6.7","-9999.0","-9999.0","170","South","-9999.0","-9999.0","1023","30.21","-8.3","17.1","-9999","-9999","-9999.00","-9999.00","Light Freezing Fog","fog","1","0","0","0","0","0","METAR UKKK 162130Z 17003MPS 130V210 0650 R08/P2000U FZFG VV002 M04/M05 Q1023 R08/810540 TEMPO 0300 FZFG VV001"
"12:00 AM EET on November 17, 2016","2016","11","17","00","00","Europe/Kiev","10:00 PM GMT on November 16, 2016","2016","11","16","22","00","UTC","-4.0","24.8","-4.0","24.8","100","10.8","6.7","-9999.0","-9999.0","170","South","1.1","0.7","1023","30.21","-8.3","17.1","-9999","-9999","-9999.00","-9999.00","Overcast","cloudy","0","0","0","0","0","0","METAR UKKK 162200Z 17003MPS 130V270 1100 R08/P2000N BR OVC002 M04/M04 Q1023 REFZFG R08/810540 TEMPO 0300 FZFG VV001"
"12:23 AM EET on November 17, 2016","2016","11","17","00","23","Europe/Kiev","10:23 PM GMT on November 16, 2016","2016","11","16","22","23","UTC","-4.0","24.8","-4.0","24.8","100","10.8","6.7","-9999.0","-9999.0","190","South","1.7","1.1","1023","30.21","-8.3","17.1","-9999","-9999","-9999.00","-9999.00","Overcast","cloudy","0","0","0","0","0","0","SPECI UKKK 162223Z 19003MPS 150V240 1700 BR OVC002 M04/M04 Q1023 R08/810540 TEMPO 0300 FZFG VV001"
"12:30 AM EET on November 17, 2016","2016","11","17","00","30","Europe/Kiev","10:30 PM GMT on November 16, 2016","2016","11","16","22","30","UTC","-4.0","24.8","-4.0","24.8","100","10.8","6.7","-9999.0","-9999.0","190","South","2.1","1.3","1023","30.21","-8.3","17.1","-9999","-9999","-9999.00","-9999.00","Overcast","cloudy","0","0","0","0","0","0","METAR UKKK 162230Z 19003MPS 140V240 2100 BR OVC002 M04/M04 Q1023 R08/810540 TEMPO 0300 FZFG VV001"
"1:00 AM EET on November 17, 2016","2016","11","17","01","00","Europe/Kiev","11:00 PM GMT on November 16, 2016","2016","11","16","23","00","UTC","-4.0","24.8","-4.0","24.8","100","7.2","4.5","-9999.0","-9999.0","210","SSW","2.2","1.4","1023","30.21","-7.1","19.2","-9999","-9999","-9999.00","-9999.00","Overcast","cloudy","0","0","0","0","0","0","METAR UKKK 162300Z 21002MPS 150V250 2200 BR OVC003 M04/M04 Q1023 R08/810540 TEMPO 0300 FZFG VV001"
"1:30 AM EET on November 17, 2016","2016","11","17","01","30","Europe/Kiev","11:30 PM GMT on November 16, 2016","2016","11","16","23","30","UTC","-3.0","26.6","-4.0","24.8","93","10.8","6.7","-9999.0","-9999.0","200","SSW","-9999.0","-9999.0","1023","30.21","-7.1","19.2","-9999","-9999","-9999.00","-9999.00","Overcast","cloudy","0","0","0","0","0","0","METAR UKKK 162330Z 20003MPS 150V240 3900 BR OVC003 M03/M04 Q1023 R08/810540 TEMPO 1500 BR OVC003"
"2:00 AM EET on November 17, 2016","2016","11","17","02","00","Europe/Kiev","12:00 AM GMT on November 17, 2016","2016","11","17","00","00","UTC","-3","26","-4","25","95","10.8","6.7","","","220","SW","1","1","1025","30.27","-999","-999","-9999","-9999","","","Mist","hazy","0","0","0","0","0","0","AAXX 17001 33345 31294 82203 11034 21038 30036 40250 57003 71022 886// 333 88705 555 1/103"
"2:00 AM EET on November 17, 2016","2016","11","17","02","00","Europe/Kiev","12:00 AM GMT on November 17, 2016","2016","11","17","00","00","UTC","-3.0","26.6","-4.0","24.8","93","10.8","6.7","-9999.0","-9999.0","210","SSW","-9999.0","-9999.0","1023","30.21","-7.1","19.2","-9999","-9999","-9999.00","-9999.00","Overcast","cloudy","0","0","0","0","0","0","METAR UKKK 170000Z 21003MPS 170V260 3800 BR OVC003 M03/M04 Q1023 R08/810540 TEMPO OVC002"
"2:30 AM EET on November 17, 2016","2016","11","17","02","30","Europe/Kiev","12:30 AM GMT on November 17, 2016","2016","11","17","00","30","UTC","-3.0","26.6","-4.0","24.8","93","7.2","4.5","-9999.0","-9999.0","180","South","-9999.0","-9999.0","1023","30.21","-5.9","21.3","-9999","-9999","-9999.00","-9999.00","Overcast","cloudy","0","0","0","0","0","0","METAR UKKK 170030Z 18002MPS 110V240 3400 BR OVC002 M03/M04 Q1023 R08/810540 TEMPO OVC002"
"3:00 AM EET on November 17, 2016","2016","11","17","03","00","Europe/Kiev","1:00 AM GMT on November 17, 2016","2016","11","17","01","00","UTC","-3.0","26.6","-4.0","24.8","93","10.8","6.7","-9999.0","-9999.0","180","South","2.4","1.5","1023","30.21","-7.1","19.2","-9999","-9999","-9999.00","-9999.00","Overcast","cloudy","0","0","0","0","0","0","METAR UKKK 170100Z 18003MPS 120V230 2400 BR OVC002 M03/M04 Q1023 R08/810540 TEMPO 0400 FZFG VV001"
"3:30 AM EET on November 17, 2016","2016","11","17","03","30","Europe/Kiev","1:30 AM GMT on November 17, 2016","2016","11","17","01","30","UTC","-3.0","26.6","-4.0","24.8","93","10.8","6.7","-9999.0","-9999.0","170","South","2.3","1.4","1022","30.18","-7.1","19.2","-9999","-9999","-9999.00","-9999.00","Overcast","cloudy","0","0","0","0","0","0","METAR UKKK 170130Z 17003MPS 110V250 2300 BR OVC002 M03/M04 Q1022 R08/810540 TEMPO 0400 FZFG VV001"
"4:00 AM EET on November 17, 2016","2016","11","17","04","00","Europe/Kiev","2:00 AM GMT on November 17, 2016","2016","11","17","02","00","UTC","-3.0","26.6","-3.0","26.6","100","7.2","4.5","-9999.0","-9999.0","190","South","1.8","1.1","1022","30.18","-5.9","21.3","-9999","-9999","-9999.00","-9999.00","Overcast","cloudy","0","0","0","0","0","0","METAR UKKK 170200Z 19002MPS 120V230 1800 BR OVC002 M03/M03 Q1022 R08/810540 TEMPO 0400 FZFG VV001"
"4:30 AM EET on November 17, 2016","2016","11","17","04","30","Europe/Kiev","2:30 AM GMT on November 17, 2016","2016","11","17","02","30","UTC","-3.0","26.6","-3.0","26.6","100","10.8","6.7","-9999.0","-9999.0","180","South","1.9","1.2","1022","30.18","-7.1","19.2","-9999","-9999","-9999.00","-9999.00","Overcast","cloudy","0","0","0","0","0","0","METAR UKKK 170230Z 18003MPS 130V220 1900 BR OVC002 M03/M03 Q1022 R08/810540 TEMPO 1000 BR OVC001"
"4:44 AM EET on November 17, 2016","2016","11","17","04","44","Europe/Kiev","2:44 AM GMT on November 17, 2016","2016","11","17","02","44","UTC","-3.0","26.6","-3.0","26.6","100","7.2","4.5","-9999.0","-9999.0","180","South","1.2","0.7","1022","30.18","-5.9","21.3","-9999","-9999","-9999.00","-9999.00","Overcast","cloudy","0","0","0","0","0","0","SPECI UKKK 170244Z 18002MPS 130V230 1200 R08/P2000D BR OVC002 M03/M03 Q1022 R08/810540 TEMPO 1000 BR OVC001"
"5:00 AM EET on November 17, 2016","2016","11","17","05","00","Europe/Kiev","3:00 AM GMT on November 17, 2016","2016","11","17","03","00","UTC","-3","26","-4","25","95","10.8","6.7","","","220","SW","1","1","1024","30.25","-999","-999","-9999","-9999","","","Mist","hazy","0","0","0","0","0","0","AAXX 17031 33345 41294 82203 11034 21038 30028 40242 57008 71022 886// 333 88703 555 1/103"
"5:00 AM EET on November 17, 2016","2016","11","17","05","00","Europe/Kiev","3:00 AM GMT on November 17, 2016","2016","11","17","03","00","UTC","-3.0","26.6","-3.0","26.6","100","7.2","4.5","-9999.0","-9999.0","180","South","1.2","0.7","1022","30.18","-5.9","21.3","-9999","-9999","-9999.00","-9999.00","Overcast","cloudy","0","0","0","0","0","0","METAR UKKK 170300Z 18002MPS 130V250 1200 R08/1700VP2000D BR OVC002 M03/M03 Q1022 R08/810540 TEMPO 0300 FZFG VV001"
"5:30 AM EET on November 17, 2016","2016","11","17","05","30","Europe/Kiev","3:30 AM GMT on November 17, 2016","2016","11","17","03","30","UTC","-3.0","26.6","-4.0","24.8","93","7.2","4.5","-9999.0","-9999.0","200","SSW","1.6","1.0","1022","30.18","-5.9","21.3","-9999","-9999","-9999.00","-9999.00","Overcast","cloudy","0","0","0","0","0","0","METAR UKKK 170330Z 20002MPS 140V260 1600 BR OVC002 M03/M04 Q1022 R08/810540 TEMPO 0300 FZFG VV001"
"6:00 AM EET on November 17, 2016","2016","11","17","06","00","Europe/Kiev","4:00 AM GMT on November 17, 2016","2016","11","17","04","00","UTC","-3.0","26.6","-4.0","24.8","93","10.8","6.7","-9999.0","-9999.0","200","SSW","2.3","1.4","1023","30.21","-7.1","19.2","-9999","-9999","-9999.00","-9999.00","Overcast","cloudy","0","0","0","0","0","0","METAR UKKK 170400Z 20003MPS 160V260 2300 BR OVC002 M03/M04 Q1023 R08/810540 TEMPO 0300 FZFG VV001"
"6:30 AM EET on November 17, 2016","2016","11","17","06","30","Europe/Kiev","4:30 AM GMT on November 17, 2016","2016","11","17","04","30","UTC","-3.0","26.6","-4.0","24.8","93","10.8","6.7","-9999.0","-9999.0","200","SSW","4.5","2.8","1023","30.21","-7.1","19.2","-9999","-9999","-9999.00","-9999.00","Overcast","cloudy","0","0","0","0","0","0","METAR UKKK 170430Z 20003MPS 170V250 4500 BR OVC003 M03/M04 Q1023 R08/810540 TEMPO 1000 BR OVC003"
"7:00 AM EET on November 17, 2016","2016","11","17","07","00","Europe/Kiev","5:00 AM GMT on November 17, 2016","2016","11","17","05","00","UTC","-3.0","26.6","-4.0","24.8","93","10.8","6.7","-9999.0","-9999.0","190","South","5.0","3.1","1023","30.21","-7.1","19.2","-9999","-9999","-9999.00","-9999.00","Overcast","cloudy","0","0","0","0","0","0","METAR UKKK 170500Z 19003MPS 120V250 5000 BR OVC003 M03/M04 Q1023 R08/810540 TEMPO OVC002"
"7:30 AM EET on November 17, 2016","2016","11","17","07","30","Europe/Kiev","5:30 AM GMT on November 17, 2016","2016","11","17","05","30","UTC","-3.0","26.6","-4.0","24.8","93","7.2","4.5","-9999.0","-9999.0","180","South","6.0","3.7","1023","30.21","-5.9","21.3","-9999","-9999","-9999.00","-9999.00","Overcast","cloudy","0","0","0","0","0","0","METAR UKKK 170530Z 18002MPS 130V240 6000 OVC004 M03/M04 Q1023 R08/810540 TEMPO OVC002"
"8:00 AM EET on November 17, 2016","2016","11","17","08","00","Europe/Kiev","6:00 AM GMT on November 17, 2016","2016","11","17","06","00","UTC","-3","26","-4","25","96","14.4","8.9","","","210","SSW","1","1","1024","30.25","-999","-999","-9999","-9999","","","Mist","hazy","0","0","0","0","0","0","AAXX 17061 33345 31294 82104 11033 21037 30030 40244 53002 71022 886// 333 21050 47010 88706 555 1/103"
"8:00 AM EET on November 17, 2016","2016","11","17","08","00","Europe/Kiev","6:00 AM GMT on November 17, 2016","2016","11","17","06","00","UTC","-3.0","26.6","-4.0","24.8","93","10.8","6.7","-9999.0","-9999.0","180","South","6.0","3.7","1023","30.21","-7.1","19.2","-9999","-9999","-9999.00","-9999.00","Overcast","cloudy","0","0","0","0","0","0","METAR UKKK 170600Z 18003MPS 140V230 6000 OVC004 M03/M04 Q1023 R08/810540 TEMPO OVC003"
"8:30 AM EET on November 17, 2016","2016","11","17","08","30","Europe/Kiev","6:30 AM GMT on November 17, 2016","2016","11","17","06","30","UTC","-3.0","26.6","-3.0","26.6","100","7.2","4.5","-9999.0","-9999.0","190","South","8.0","5.0","1023","30.21","-5.9","21.3","-9999","-9999","-9999.00","-9999.00","Overcast","cloudy","0","0","0","0","0","0","METAR UKKK 170630Z 19002MPS 150V250 8000 OVC005 M03/M03 Q1023 R08/810540 TEMPO OVC003"
"8:48 AM EET on November 17, 2016","2016","11","17","08","48","Europe/Kiev","6:48 AM GMT on November 17, 2016","2016","11","17","06","48","UTC","-3.0","26.6","-3.0","26.6","100","10.8","6.7","-9999.0","-9999.0","190","South","8.0","5.0","1023","30.21","-7.1","19.2","-9999","-9999","-9999.00","-9999.00","Overcast","cloudy","0","0","0","0","0","0","SPECI UKKK 170648Z 19003MPS 120V250 8000 OVC004 M03/M03 Q1023 R08/810540 TEMPO OVC004"
"9:00 AM EET on November 17, 2016","2016","11","17","09","00","Europe/Kiev","7:00 AM GMT on November 17, 2016","2016","11","17","07","00","UTC","-3.0","26.6","-3.0","26.6","100","10.8","6.7","-9999.0","-9999.0","180","South","8.0","5.0","1023","30.21","-7.1","19.2","-9999","-9999","-9999.00","-9999.00","Overcast","cloudy","0","0","0","0","0","0","METAR UKKK 170700Z 18003MPS 140V230 8000 OVC005 M03/M03 Q1023 R08/810540 TEMPO OVC003"
"9:30 AM EET on November 17, 2016","2016","11","17","09","30","Europe/Kiev","7:30 AM GMT on November 17, 2016","2016","11","17","07","30","UTC","-3.0","26.6","-3.0","26.6","100","10.8","6.7","-9999.0","-9999.0","180","South","9.0","5.6","1023","30.21","-7.1","19.2","-9999","-9999","-9999.00","-9999.00","Overcast","cloudy","0","0","0","0","0","0","METAR UKKK 170730Z 18003MPS 140V220 9000 OVC005 M03/M03 Q1023 R08/810540 TEMPO OVC004"
"10:00 AM EET on November 17, 2016","2016","11","17","10","00","Europe/Kiev","8:00 AM GMT on November 17, 2016","2016","11","17","08","00","UTC","-3.0","26.6","-3.0","26.6","100","14.4","8.9","-9999.0","-9999.0","180","South","9.0","5.6","1023","30.21","-8.0","17.7","-9999","-9999","-9999.00","-9999.00","Overcast","cloudy","0","0","0","0","0","0","METAR UKKK 170800Z 18004MPS 140V220 9000 OVC006 M03/M03 Q1023 R08/810540 TEMPO OVC005"
"10:30 AM EET on November 17, 2016","2016","11","17","10","30","Europe/Kiev","8:30 AM GMT on November 17, 2016","2016","11","17","08","30","UTC","-2.0","28.4","-3.0","26.6","93","10.8","6.7","-9999.0","-9999.0","190","South","10.0","6.2","1023","30.21","-5.9","21.4","-9999","-9999","-9999.00","-9999.00","Overcast","cloudy","0","0","0","0","0","0","METAR UKKK 170830Z 19003MPS 9999 OVC007 M02/M03 Q1023 R08/810540 TEMPO OVC005"
"11:00 AM EET on November 17, 2016","2016","11","17","11","00","Europe/Kiev","9:00 AM GMT on November 17, 2016","2016","11","17","09","00","UTC","-2","28","-3","26","90","14.4","8.9","","","210","SSW","4","2","1024","30.26","-999","-999","-9999","-9999","","","Mist","hazy","0","0","0","0","0","0","AAXX 17091 33345 41396 82104 11023 21032 30032 40245 52002 71022 886// 333 88708 555 1/102"
"11:00 AM EET on November 17, 2016","2016","11","17","11","00","Europe/Kiev","9:00 AM GMT on November 17, 2016","2016","11","17","09","00","UTC","-2.0","28.4","-3.0","26.6","93","14.4","8.9","-9999.0","-9999.0","190","South","10.0","6.2","1023","30.21","-6.7","19.9","-9999","-9999","-9999.00","-9999.00","Overcast","cloudy","0","0","0","0","0","0","METAR UKKK 170900Z 19004MPS 140V230 9999 OVC007 M02/M03 Q1023 R08/810540 TEMPO OVC005"
"11:30 AM EET on November 17, 2016","2016","11","17","11","30","Europe/Kiev","9:30 AM GMT on November 17, 2016","2016","11","17","09","30","UTC","-2.0","28.4","-3.0","26.6","93","14.4","8.9","-9999.0","-9999.0","190","South","9.0","5.6","1023","30.21","-6.7","19.9","-9999","-9999","-9999.00","-9999.00","Overcast","cloudy","0","0","0","0","0","0","METAR UKKK 170930Z 19004MPS 160V220 9000 OVC007 M02/M03 Q1023 R08/810540 TEMPO OVC005"
"12:00 PM EET on November 17, 2016","2016","11","17","12","00","Europe/Kiev","10:00 AM GMT on November 17, 2016","2016","11","17","10","00","UTC","-2.0","28.4","-3.0","26.6","93","10.8","6.7","-9999.0","-9999.0","180","South","10.0","6.2","1022","30.18","-5.9","21.4","-9999","-9999","-9999.00","-9999.00","Overcast","cloudy","0","0","0","0","0","0","METAR UKKK 171000Z 18003MPS 140V230 9999 OVC007 M02/M03 Q1022 R08/810540 TEMPO OVC005"
"12:30 PM EET on November 17, 2016","2016","11","17","12","30","Europe/Kiev","10:30 AM GMT on November 17, 2016","2016","11","17","10","30","UTC","-2.0","28.4","-3.0","26.6","93","10.8","6.7","-9999.0","-9999.0","190","South","10.0","6.2","1022","30.18","-5.9","21.4","-9999","-9999","-9999.00","-9999.00","Overcast","cloudy","0","0","0","0","0","0","METAR UKKK 171030Z 19003MPS 140V230 9999 OVC007 M02/M03 Q1022 R08/810540 NOSIG"
"1:00 PM EET on November 17, 2016","2016","11","17","13","00","Europe/Kiev","11:00 AM GMT on November 17, 2016","2016","11","17","11","00","UTC","-1.0","30.2","-4.0","24.8","80","10.8","6.7","-9999.0","-9999.0","200","SSW","10.0","6.2","1022","30.18","-4.7","23.5","-9999","-9999","-9999.00","-9999.00","Overcast","cloudy","0","0","0","0","0","0","METAR UKKK 171100Z 20003MPS 150V260 9999 OVC009 M01/M04 Q1022 R08/810540 NOSIG"
"1:30 PM EET on November 17, 2016","2016","11","17","13","30","Europe/Kiev","11:30 AM GMT on November 17, 2016","2016","11","17","11","30","UTC","-1.0","30.2","-3.0","26.6","86","10.8","6.7","-9999.0","-9999.0","190","South","10.0","6.2","1022","30.18","-4.7","23.5","-9999","-9999","-9999.00","-9999.00","Overcast","cloudy","0","0","0","0","0","0","METAR UKKK 171130Z 19003MPS 140V240 9999 OVC009 M01/M03 Q1022 R08/810540 NOSIG"
"2:00 PM EET on November 17, 2016","2016","11","17","14","00","Europe/Kiev","12:00 PM GMT on November 17, 2016","2016","11","17","12","00","UTC","-1","30","-2","28","86","14.4","8.9","","","200","SSW","4","2","1024","30.23","-999","-999","-9999","-9999","","","Mist","hazy","0","0","0","0","0","0","AAXX 17121 33345 31396 82004 11012 21025 30024 40236 58008 71022 886// 333 88709 555 1/101"
"2:00 PM EET on November 17, 2016","2016","11","17","14","00","Europe/Kiev","12:00 PM GMT on November 17, 2016","2016","11","17","12","00","UTC","-1.0","30.2","-3.0","26.6","86","10.8","6.7","-9999.0","-9999.0","170","South","10.0","6.2","1022","30.18","-4.7","23.5","-9999","-9999","-9999.00","-9999.00","Overcast","cloudy","0","0","0","0","0","0","METAR UKKK 171200Z 17003MPS 120V220 9999 OVC009 M01/M03 Q1022 R08/810540 NOSIG"
"2:30 PM EET on November 17, 2016","2016","11","17","14","30","Europe/Kiev","12:30 PM GMT on November 17, 2016","2016","11","17","12","30","UTC","-1.0","30.2","-3.0","26.6","86","14.4","8.9","-9999.0","-9999.0","180","South","10.0","6.2","1022","30.18","-5.5","22.1","-9999","-9999","-9999.00","-9999.00","Overcast","cloudy","0","0","0","0","0","0","METAR UKKK 171230Z 18004MPS 150V210 9999 OVC009 M01/M03 Q1022 R08/810540 NOSIG"
"3:00 PM EET on November 17, 2016","2016","11","17","15","00","Europe/Kiev","1:00 PM GMT on November 17, 2016","2016","11","17","13","00","UTC","-1.0","30.2","-3.0","26.6","86","7.2","4.5","-9999.0","-9999.0","180","South","10.0","6.2","1022","30.18","-3.6","25.5","-9999","-9999","-9999.00","-9999.00","Overcast","cloudy","0","0","0","0","0","0","METAR UKKK 171300Z 18002MPS 130V230 9999 OVC010 M01/M03 Q1022 R08/810540 NOSIG"
"3:30 PM EET on November 17, 2016","2016","11","17","15","30","Europe/Kiev","1:30 PM GMT on November 17, 2016","2016","11","17","13","30","UTC","-1.0","30.2","-3.0","26.6","86","10.8","6.7","-9999.0","-9999.0","180","South","10.0","6.2","1022","30.18","-4.7","23.5","-9999","-9999","-9999.00","-9999.00","Overcast","cloudy","0","0","0","0","0","0","METAR UKKK 171330Z 18003MPS 140V240 9999 OVC010 M01/M03 Q1022 R08/810540 NOSIG"
"4:00 PM EET on November 17, 2016","2016","11","17","16","00","Europe/Kiev","2:00 PM GMT on November 17, 2016","2016","11","17","14","00","UTC","-1.0","30.2","-3.0","26.6","86","10.8","6.7","-9999.0","-9999.0","190","South","10.0","6.2","1022","30.18","-4.7","23.5","-9999","-9999","-9999.00","-9999.00","Overcast","cloudy","0","0","0","0","0","0","METAR UKKK 171400Z 19003MPS 140V230 9999 OVC010 M01/M03 Q1022 R08/810540 NOSIG"
"4:30 PM EET on November 17, 2016","2016","11","17","16","30","Europe/Kiev","2:30 PM GMT on November 17, 2016","2016","11","17","14","30","UTC","-1.0","30.2","-3.0","26.6","86","14.4","8.9","-9999.0","-9999.0","180","South","10.0","6.2","1022","30.18","-5.5","22.1","-9999","-9999","-9999.00","-9999.00","Overcast","cloudy","0","0","0","0","0","0","METAR UKKK 171430Z 18004MPS 130V230 9999 OVC012 M01/M03 Q1022 R08/810540 NOSIG"
"5:00 PM EET on November 17, 2016","2016","11","17","17","00","Europe/Kiev","3:00 PM GMT on November 17, 2016","2016","11","17","15","00","UTC","-1","30","-3","27","82","14.4","8.9","","","210","SSW","4","2","1024","30.23","-999","-999","-9999","-9999","","","Mist","hazy","0","0","0","0","0","0","AAXX 17151 33345 41496 82104 11011 21030 30025 40237 53001 71022 886// 333 88713 555 1/103"
"5:00 PM EET on November 17, 2016","2016","11","17","17","00","Europe/Kiev","3:00 PM GMT on November 17, 2016","2016","11","17","15","00","UTC","-1.0","30.2","-4.0","24.8","80","10.8","6.7","-9999.0","-9999.0","180","South","10.0","6.2","1022","30.18","-4.7","23.5","-9999","-9999","-9999.00","-9999.00","Overcast","cloudy","0","0","0","0","0","0","METAR UKKK 171500Z 18003MPS 120V230 9999 OVC012 M01/M04 Q1022 R08/810540 NOSIG"
"5:30 PM EET on November 17, 2016","2016","11","17","17","30","Europe/Kiev","3:30 PM GMT on November 17, 2016","2016","11","17","15","30","UTC","-1.0","30.2","-4.0","24.8","80","10.8","6.7","-9999.0","-9999.0","190","South","10.0","6.2","1022","30.18","-4.7","23.5","-9999","-9999","-9999.00","-9999.00","Overcast","cloudy","0","0","0","0","0","0","METAR UKKK 171530Z 19003MPS 150V230 9999 OVC013 M01/M04 Q1022 R08/810540 NOSIG"
"6:00 PM EET on November 17, 2016","2016","11","17","18","00","Europe/Kiev","4:00 PM GMT on November 17, 2016","2016","11","17","16","00","UTC","-1.0","30.2","-4.0","24.8","80","7.2","4.5","-9999.0","-9999.0","170","South","10.0","6.2","1022","30.18","-3.6","25.5","-9999","-9999","-9999.00","-9999.00","Overcast","cloudy","0","0","0","0","0","0","METAR UKKK 171600Z 17002MPS 120V250 9999 OVC018 M01/M04 Q1022 R08/810540 NOSIG"
"6:30 PM EET on November 17, 2016","2016","11","17","18","30","Europe/Kiev","4:30 PM GMT on November 17, 2016","2016","11","17","16","30","UTC","-1.0","30.2","-3.0","26.6","86","7.2","4.5","-9999.0","-9999.0","160","SSE","10.0","6.2","1022","30.18","-3.6","25.5","-9999","-9999","-9999.00","-9999.00","Overcast","cloudy","0","0","0","0","0","0","METAR UKKK 171630Z 16002MPS 120V220 9999 OVC020 M01/M03 Q1022 R08/810540 NOSIG"
"7:00 PM EET on November 17, 2016","2016","11","17","19","00","Europe/Kiev","5:00 PM GMT on November 17, 2016","2016","11","17","17","00","UTC","-1.0","30.2","-3.0","26.6","86","10.8","6.7","-9999.0","-9999.0","150","SSE","10.0","6.2","1022","30.18","-4.7","23.5","-9999","-9999","-9999.00","-9999.00","Overcast","cloudy","0","0","0","0","0","0","METAR UKKK 171700Z 15003MPS 110V210 9999 OVC018 M01/M03 Q1022 R08/810540 NOSIG"
"7:30 PM EET on November 17, 2016","2016","11","17","19","30","Europe/Kiev","5:30 PM GMT on November 17, 2016","2016","11","17","17","30","UTC","-1.0","30.2","-3.0","26.6","86","10.8","6.7","-9999.0","-9999.0","160","SSE","10.0","6.2","1022","30.18","-4.7","23.5","-9999","-9999","-9999.00","-9999.00","Overcast","cloudy","0","0","0","0","0","0","METAR UKKK 171730Z 16003MPS 120V200 9999 OVC016 M01/M03 Q1022 R08/810540 NOSIG"
"8:00 PM EET on November 17, 2016","2016","11","17","20","00","Europe/Kiev","6:00 PM GMT on November 17, 2016","2016","11","17","18","00","UTC","-2","29","-3","26","84","7.2","4.5","","","180","South","10","6","1024","30.23","-999","-999","-9999","-9999","","","Mostly Cloudy","mostlycloudy","0","0","0","0","0","0","AAXX 17181 33345 32597 71802 11016 21033 30023 40236 58002 87500 333 11010 87621 555 1/103"
"8:00 PM EET on November 17, 2016","2016","11","17","20","00","Europe/Kiev","6:00 PM GMT on November 17, 2016","2016","11","17","18","00","UTC","-1.0","30.2","-3.0","26.6","86","10.8","6.7","-9999.0","-9999.0","170","South","10.0","6.2","1022","30.18","-4.7","23.5","-9999","-9999","-9999.00","-9999.00","Overcast","cloudy","0","0","0","0","0","0","METAR UKKK 171800Z 17003MPS 110V240 9999 OVC017 M01/M03 Q1022 R08/810540 NOSIG"
"8:30 PM EET on November 17, 2016","2016","11","17","20","30","Europe/Kiev","6:30 PM GMT on November 17, 2016","2016","11","17","18","30","UTC","-1.0","30.2","-3.0","26.6","86","10.8","6.7","-9999.0","-9999.0","170","South","10.0","6.2","1022","30.18","-4.7","23.5","-9999","-9999","-9999.00","-9999.00","Overcast","cloudy","0","0","0","0","0","0","METAR UKKK 171830Z 17003MPS 110V240 9999 BKN019 OVC046 M01/M03 Q1022 R08/810540 NOSIG"
"9:00 PM EET on November 17, 2016","2016","11","17","21","00","Europe/Kiev","7:00 PM GMT on November 17, 2016","2016","11","17","19","00","UTC","-1.0","30.2","-3.0","26.6","86","10.8","6.7","-9999.0","-9999.0","170","South","10.0","6.2","1022","30.18","-4.7","23.5","-9999","-9999","-9999.00","-9999.00","Overcast","cloudy","0","0","0","0","0","0","METAR UKKK 171900Z 17003MPS 130V210 9999 BKN020 OVC046 M01/M03 Q1022 R08/810540 NOSIG"
"9:30 PM EET on November 17, 2016","2016","11","17","21","30","Europe/Kiev","7:30 PM GMT on November 17, 2016","2016","11","17","19","30","UTC","-1.0","30.2","-3.0","26.6","86","10.8","6.7","-9999.0","-9999.0","180","South","10.0","6.2","1022","30.18","-4.7","23.5","-9999","-9999","-9999.00","-9999.00","Overcast","cloudy","0","0","0","0","0","0","METAR UKKK 171930Z 18003MPS 120V240 9999 BKN020 OVC046 M01/M03 Q1022 R08/810540 NOSIG"
"10:00 PM EET on November 17, 2016","2016","11","17","22","00","Europe/Kiev","8:00 PM GMT on November 17, 2016","2016","11","17","20","00","UTC","-1.0","30.2","-3.0","26.6","86","10.8","6.7","-9999.0","-9999.0","170","South","9.0","5.6","1022","30.18","-4.7","23.5","-9999","-9999","-9999.00","-9999.00","Overcast","cloudy","0","0","0","0","0","0","METAR UKKK 172000Z 17003MPS 120V200 9000 SCT021 OVC046 M01/M03 Q1022 R08/810540 NOSIG"
"10:30 PM EET on November 17, 2016","2016","11","17","22","30","Europe/Kiev","8:30 PM GMT on November 17, 2016","2016","11","17","20","30","UTC","-1.0","30.2","-3.0","26.6","86","7.2","4.5","-9999.0","-9999.0","190","South","9.0","5.6","1022","30.18","-3.6","25.5","-9999","-9999","-9999.00","-9999.00","Overcast","cloudy","0","0","0","0","0","0","METAR UKKK 172030Z 19002MPS 140V250 9000 BKN013 OVC040 M01/M03 Q1022 R08/810540 NOSIG"
"11:00 PM EET on November 17, 2016","2016","11","17","23","00","Europe/Kiev","9:00 PM GMT on November 17, 2016","2016","11","17","21","00","UTC","-1","31","-2","28","85","14.4","8.9","","","200","SSW","4","2","1023","30.22","-999","-999","-9999","-9999","","","Mist","hazy","0","0","0","0","0","0","AAXX 17211 33345 41496 82004 11008 21021 30021 40233 56002 71022 886// 333 88710 555 1/102"
"11:00 PM EET on November 17, 2016","2016","11","17","23","00","Europe/Kiev","9:00 PM GMT on November 17, 2016","2016","11","17","21","00","UTC","0.0","32.0","-2.0","28.4","87","10.8","6.7","-9999.0","-9999.0","180","South","9.0","5.6","1022","30.18","-3.5","25.7","-9999","-9999","-9999.00","-9999.00","Overcast","cloudy","0","0","0","0","0","0","METAR UKKK 172100Z 18003MPS 120V240 9000 BKN008 OVC021 M00/M02 Q1022 R08/810540 NOSIG"
"11:30 PM EET on November 17, 2016","2016","11","17","23","30","Europe/Kiev","9:30 PM GMT on November 17, 2016","2016","11","17","21","30","UTC","0.0","32.0","-2.0","28.4","87","10.8","6.7","-9999.0","-9999.0","180","South","8.0","5.0","1022","30.18","-3.5","25.7","-9999","-9999","-9999.00","-9999.00","Overcast","cloudy","0","0","0","0","0","0","METAR UKKK 172130Z 18003MPS 150V230 8000 BKN008 OVC018 M00/M02 Q1022 R08/810540 NOSIG"
"12:00 AM EET on November 18, 2016","2016","11","18","00","00","Europe/Kiev","10:00 PM GMT on November 17, 2016","2016","11","17","22","00","UTC","0.0","32.0","-1.0","30.2","93","7.2","4.5","-9999.0","-9999.0","190","South","7.0","4.3","1022","30.18","-2.5","27.6","-9999","-9999","-9999.00","-9999.00","Overcast","cloudy","0","0","0","0","0","0","METAR UKKK 172200Z 19002MPS 140V240 7000 OVC009 00/M01 Q1022 R08/810540 NOSIG"
"12:30 AM EET on November 18, 2016","2016","11","18","00","30","Europe/Kiev","10:30 PM GMT on November 17, 2016","2016","11","17","22","30","UTC","1.0","33.8","-1.0","30.2","87","10.8","6.7","-9999.0","-9999.0","180","South","8.0","5.0","1021","30.15","-2.3","27.9","-9999","-9999","-9999.00","-9999.00","Overcast","cloudy","0","0","0","0","0","0","METAR UKKK 172230Z 18003MPS 150V230 8000 OVC008 01/M01 Q1021 R08/810540 NOSIG"
"1:00 AM EET on November 18, 2016","2016","11","18","01","00","Europe/Kiev","11:00 PM GMT on November 17, 2016","2016","11","17","23","00","UTC","1.0","33.8","0.0","32.0","93","10.8","6.7","-9999.0","-9999.0","190","South","8.0","5.0","1021","30.15","-2.3","27.9","-9999","-9999","-9999.00","-9999.00","Overcast","cloudy","0","0","0","0","0","0","METAR UKKK 172300Z 19003MPS 150V250 8000 OVC008 01/M00 Q1021 R08/810540 NOSIG"
"1:30 AM EET on November 18, 2016","2016","11","18","01","30","Europe/Kiev","11:30 PM GMT on November 17, 2016","2016","11","17","23","30","UTC","2.0","35.6","0.0","32.0","87","14.4","8.9","-9999.0","-9999.0","190","South","9.0","5.6","1021","30.15","-1.8","28.7","-9999","-9999","-9999.00","-9999.00","Overcast","cloudy","0","0","0","0","0","0","METAR UKKK 172330Z 19004MPS 140V250 9000 OVC009 02/M00 Q1021 R08/810540 NOSIG"
"2:00 AM EET on November 18, 2016","2016","11","18","02","00","Europe/Kiev","12:00 AM GMT on November 18, 2016","2016","11","18","00","00","UTC","1","35","0","33","87","14.4","8.9","","","210","SSW","4","2","1023","30.20","-999","-999","-9999","-9999","","","Mist","hazy","0","0","0","0","0","0","AAXX 18001 33345 31496 82104 10014 20003 30016 40226 58005 71022 886// 333 88710 555 1/000"
"2:00 AM EET on November 18, 2016","2016","11","18","02","00","Europe/Kiev","12:00 AM GMT on November 18, 2016","2016","11","18","00","00","UTC","2.0","35.6","0.0","32.0","87","10.8","6.7","-9999.0","-9999.0","180","South","9.0","5.6","1021","30.15","-1.1","30.0","-9999","-9999","-9999.00","-9999.00","Overcast","cloudy","0","0","0","0","0","0","METAR UKKK 180000Z 18003MPS 140V230 9000 OVC008 02/00 Q1021 R08/810540 NOSIG"
"2:30 AM EET on November 18, 2016","2016","11","18","02","30","Europe/Kiev","12:30 AM GMT on November 18, 2016","2016","11","18","00","30","UTC","2.0","35.6","0.0","32.0","87","10.8","6.7","-9999.0","-9999.0","190","South","9.0","5.6","1021","30.15","-1.1","30.0","-9999","-9999","-9999.00","-9999.00","Overcast","cloudy","0","0","0","0","0","0","METAR UKKK 180030Z 19003MPS 140V230 9000 OVC009 02/00 Q1021 R08/810540 NOSIG"
"3:00 AM EET on November 18, 2016","2016","11","18","03","00","Europe/Kiev","1:00 AM GMT on November 18, 2016","2016","11","18","01","00","UTC","2.0","35.6","0.0","32.0","87","10.8","6.7","-9999.0","-9999.0","200","SSW","9.0","5.6","1021","30.15","-1.1","30.0","-9999","-9999","-9999.00","-9999.00","Light Drizzle","rain","0","0","0","0","0","0","METAR UKKK 180100Z 20003MPS 150V230 9000 -DZ OVC009 02/00 Q1021 R08/810540 NOSIG"
"3:30 AM EET on November 18, 2016","2016","11","18","03","30","Europe/Kiev","1:30 AM GMT on November 18, 2016","2016","11","18","01","30","UTC","2.0","35.6","0.0","32.0","87","7.2","4.5","-9999.0","-9999.0","190","South","9.0","5.6","1021","30.15","-0.1","31.8","-9999","-9999","-9999.00","-9999.00","Overcast","cloudy","0","0","0","0","0","0","METAR UKKK 180130Z 19002MPS 130V250 9000 OVC009 02/00 Q1021 R08/810540 NOSIG"
"4:00 AM EET on November 18, 2016","2016","11","18","04","00","Europe/Kiev","2:00 AM GMT on November 18, 2016","2016","11","18","02","00","UTC","2.0","35.6","0.0","32.0","87","7.2","4.5","-9999.0","-9999.0","180","South","10.0","6.2","1021","30.15","-0.1","31.8","-9999","-9999","-9999.00","-9999.00","Overcast","cloudy","0","0","0","0","0","0","METAR UKKK 180200Z 18002MPS 120V230 9999 OVC009 02/00 Q1021 R08/810540 NOSIG"
"4:30 AM EET on November 18, 2016","2016","11","18","04","30","Europe/Kiev","2:30 AM GMT on November 18, 2016","2016","11","18","02","30","UTC","2.0","35.6","0.0","32.0","87","10.8","6.7","-9999.0","-9999.0","190","South","10.0","6.2","1021","30.15","-1.1","30.0","-9999","-9999","-9999.00","-9999.00","Overcast","cloudy","0","0","0","0","0","0","METAR UKKK 180230Z 19003MPS 140V270 9999 OVC008 02/00 Q1021 R08/810540 NOSIG"
"5:00 AM EET on November 18, 2016","2016","11","18","05","00","Europe/Kiev","3:00 AM GMT on November 18, 2016","2016","11","18","03","00","UTC","1","34","0","33","92","10.8","6.7","","","190","South","4","2","1022","30.19","-999","-999","-9999","-9999","","","Mist","hazy","0","0","0","0","0","0","AAXX 18031 33345 41496 81903 10011 20003 30014 40224 57002 71022 886// 333 88710 555 1/100"
"5:00 AM EET on November 18, 2016","2016","11","18","05","00","Europe/Kiev","3:00 AM GMT on November 18, 2016","2016","11","18","03","00","UTC","2.0","35.6","0.0","32.0","87","10.8","6.7","-9999.0","-9999.0","180","South","10.0","6.2","1021","30.15","-1.1","30.0","-9999","-9999","-9999.00","-9999.00","Overcast","cloudy","0","0","0","0","0","0","METAR UKKK 180300Z 18003MPS 140V230 9999 OVC008 02/00 Q1021 R08/810540 NOSIG"
"5:30 AM EET on November 18, 2016","2016","11","18","05","30","Europe/Kiev","3:30 AM GMT on November 18, 2016","2016","11","18","03","30","UTC","2.0","35.6","0.0","32.0","87","10.8","6.7","-9999.0","-9999.0","180","South","10.0","6.2","1021","30.15","-1.1","30.0","-9999","-9999","-9999.00","-9999.00","Overcast","cloudy","0","0","0","0","0","0","METAR UKKK 180330Z 18003MPS 150V240 9999 OVC008 02/00 Q1021 R08/810540 NOSIG"
"6:00 AM EET on November 18, 2016","2016","11","18","06","00","Europe/Kiev","4:00 AM GMT on November 18, 2016","2016","11","18","04","00","UTC","2.0","35.6","0.0","32.0","87","10.8","6.7","-9999.0","-9999.0","190","South","10.0","6.2","1021","30.15","-1.1","30.0","-9999","-9999","-9999.00","-9999.00","Overcast","cloudy","0","0","0","0","0","0","METAR UKKK 180400Z 19003MPS 140V250 9999 OVC008 02/00 Q1021 R08/810540 NOSIG"
"6:30 AM EET on November 18, 2016","2016","11","18","06","30","Europe/Kiev","4:30 AM GMT on November 18, 2016","2016","11","18","04","30","UTC","2.0","35.6","0.0","32.0","87","10.8","6.7","-9999.0","-9999.0","190","South","10.0","6.2","1022","30.18","-1.1","30.0","-9999","-9999","-9999.00","-9999.00","Overcast","cloudy","0","0","0","0","0","0","METAR UKKK 180430Z 19003MPS 160V240 9999 BKN009 OVC036 02/00 Q1022 R08/810540 NOSIG"
"7:00 AM EET on November 18, 2016","2016","11","18","07","00","Europe/Kiev","5:00 AM GMT on November 18, 2016","2016","11","18","05","00","UTC","2.0","35.6","0.0","32.0","87","7.2","4.5","-9999.0","-9999.0","200","SSW","10.0","6.2","1022","30.18","-0.1","31.8","-9999","-9999","-9999.00","-9999.00","Overcast","cloudy","0","0","0","0","0","0","METAR UKKK 180500Z 20002MPS 150V240 9999 BKN008 OVC036 02/00 Q1022 R08/810540 NOSIG"
"7:30 AM EET on November 18, 2016","2016","11","18","07","30","Europe/Kiev","5:30 AM GMT on November 18, 2016","2016","11","18","05","30","UTC","2.0","35.6","0.0","32.0","87","10.8","6.7","-9999.0","-9999.0","190","South","9.0","5.6","1022","30.18","-1.1","30.0","-9999","-9999","-9999.00","-9999.00","Overcast","cloudy","0","0","0","0","0","0","METAR UKKK 180530Z 19003MPS 130V230 9000 SCT009 OVC036 02/00 Q1022 R08/810540 NOSIG"
"8:00 AM EET on November 18, 2016","2016","11","18","08","00","Europe/Kiev","6:00 AM GMT on November 18, 2016","2016","11","18","06","00","UTC","2","35","0","33","89","10.8","6.7","","","190","South","4","2","1024","30.24","-999","-999","-9999","-9999","","","Mist","hazy","0","0","0","0","0","0","AAXX 18061 33345 31496 81903 10018 20005 30028 40238 53014 71022 886// 333 21018 43007 88710 555 1/000"
"8:00 AM EET on November 18, 2016","2016","11","18","08","00","Europe/Kiev","6:00 AM GMT on November 18, 2016","2016","11","18","06","00","UTC","2.0","35.6","1.0","33.8","93","10.8","6.7","-9999.0","-9999.0","180","South","9.0","5.6","1022","30.18","-1.1","30.0","-9999","-9999","-9999.00","-9999.00","Overcast","cloudy","0","0","0","0","0","0","METAR UKKK 180600Z 18003MPS 140V240 9000 SCT008 OVC040 02/01 Q1022 R08/810540 TEMPO 2000 SHRASN BKN006 SCT015CB"
"8:30 AM EET on November 18, 2016","2016","11","18","08","30","Europe/Kiev","6:30 AM GMT on November 18, 2016","2016","11","18","06","30","UTC","2.0","35.6","1.0","33.8","93","10.8","6.7","-9999.0","-9999.0","170","South","9.0","5.6","1022","30.18","-1.1","30.0","-9999","-9999","-9999.00","-9999.00","Overcast","cloudy","0","0","0","0","0","0","METAR UKKK 180630Z 17003MPS 130V210 9000 SCT008 OVC040 02/01 Q1022 R08/810540 TEMPO 2000 SHRASN BKN006 SCT015CB"
"9:00 AM EET on November 18, 2016","2016","11","18","09","00","Europe/Kiev","7:00 AM GMT on November 18, 2016","2016","11","18","07","00","UTC","2.0","35.6","1.0","33.8","93","14.4","8.9","-9999.0","-9999.0","180","South","10.0","6.2","1022","30.18","-1.8","28.7","-9999","-9999","-9999.00","-9999.00","Light Rain","rain","0","1","0","0","0","0","METAR UKKK 180700Z 18004MPS 120V220 9999 -RA SCT008 OVC046 02/01 Q1022 R08/810540 TEMPO 2000 SHRASN BKN006 SCT015CB"
"9:30 AM EET on November 18, 2016","2016","11","18","09","30","Europe/Kiev","7:30 AM GMT on November 18, 2016","2016","11","18","07","30","UTC","3.0","37.4","1.0","33.8","87","14.4","8.9","-9999.0","-9999.0","190","South","10.0","6.2","1023","30.21","-0.6","30.9","-9999","-9999","-9999.00","-9999.00","Mostly Cloudy","mostlycloudy","0","0","0","0","0","0","METAR UKKK 180730Z 19004MPS 150V230 9999 SCT009 BKN046 03/01 Q1023 R08/810540 TEMPO 2000 SHRASN BKN006 SCT015CB"
"10:00 AM EET on November 18, 2016","2016","11","18","10","00","Europe/Kiev","8:00 AM GMT on November 18, 2016","2016","11","18","08","00","UTC","3.0","37.4","1.0","33.8","87","10.8","6.7","-9999.0","-9999.0","190","South","10.0","6.2","1023","30.21","0.1","32.2","-9999","-9999","-9999.00","-9999.00","Mostly Cloudy","mostlycloudy","0","0","0","0","0","0","METAR UKKK 180800Z 19003MPS 140V230 9999 SCT009 BKN043 03/01 Q1023 R08/810540 TEMPO 2000 SHRASN BKN006 SCT015CB"
"10:30 AM EET on November 18, 2016","2016","11","18","10","30","Europe/Kiev","8:30 AM GMT on November 18, 2016","2016","11","18","08","30","UTC","3.0","37.4","1.0","33.8","87","14.4","8.9","-9999.0","-9999.0","180","South","10.0","6.2","1023","30.21","-0.6","30.9","-9999","-9999","-9999.00","-9999.00","Mostly Cloudy","mostlycloudy","0","0","0","0","0","0","METAR UKKK 180830Z 18004MPS 140V220 9999 SCT010 BKN043 03/01 Q1023 R08/810540 TEMPO 2000 SHRASN BKN006 SCT015CB"
"11:00 AM EET on November 18, 2016","2016","11","18","11","00","Europe/Kiev","9:00 AM GMT on November 18, 2016","2016","11","18","09","00","UTC","3","38","1","35","82","18.0","11.2","","","210","SSW","10","6","1025","30.26","-999","-999","-9999","-9999","","","Partly Cloudy","partlycloudy","0","0","0","0","0","0","AAXX 18091 33345 41497 82105 10032 20014 30037 40246 52009 70262 886// 333 88713 555 1/000"
"11:00 AM EET on November 18, 2016","2016","11","18","11","00","Europe/Kiev","9:00 AM GMT on November 18, 2016","2016","11","18","09","00","UTC","3.0","37.4","1.0","33.8","87","10.8","6.7","-9999.0","-9999.0","180","South","10.0","6.2","1023","30.21","0.1","32.2","-9999","-9999","-9999.00","-9999.00","Mostly Cloudy","mostlycloudy","0","0","0","0","0","0","METAR UKKK 180900Z 18003MPS 150V230 9999 SCT011 BKN043 03/01 Q1023 R08/810540 TEMPO 2000 SHRASN BKN006 SCT015CB"
"11:30 AM EET on November 18, 2016","2016","11","18","11","30","Europe/Kiev","9:30 AM GMT on November 18, 2016","2016","11","18","09","30","UTC","3.0","37.4","1.0","33.8","87","10.8","6.7","-9999.0","-9999.0","190","South","10.0","6.2","1023","30.21","0.1","32.2","-9999","-9999","-9999.00","-9999.00","Mostly Cloudy","mostlycloudy","0","0","0","0","0","0","METAR UKKK 180930Z 19003MPS 150V230 9999 SCT011 BKN046 03/01 Q1023 R08/810540 TEMPO 2000 SHRASN BKN006 SCT015CB"
"12:00 PM EET on November 18, 2016","2016","11","18","12","00","Europe/Kiev","10:00 AM GMT on November 18, 2016","2016","11","18","10","00","UTC","4.0","39.2","1.0","33.8","81","10.8","6.7","-9999.0","-9999.0","190","South","10.0","6.2","1023","30.21","1.3","34.4","-9999","-9999","-9999.00","-9999.00","Mostly Cloudy","mostlycloudy","0","0","0","0","0","0","METAR UKKK 181000Z 19003MPS 140V240 9999 SCT012 BKN046 04/01 Q1023 R08/810540 NOSIG"
"12:30 PM EET on November 18, 2016","2016","11","18","12","30","Europe/Kiev","10:30 AM GMT on November 18, 2016","2016","11","18","10","30","UTC","4.0","39.2","1.0","33.8","81","14.4","8.9","-9999.0","-9999.0","180","South","10.0","6.2","1023","30.21","0.6","33.1","-9999","-9999","-9999.00","-9999.00","Mostly Cloudy","mostlycloudy","0","0","0","0","0","0","METAR UKKK 181030Z 18004MPS 150V220 9999 SCT012 BKN050 04/01 Q1023 R08/810540 NOSIG"
"1:00 PM EET on November 18, 2016","2016","11","18","13","00","Europe/Kiev","11:00 AM GMT on November 18, 2016","2016","11","18","11","00","UTC","5.0","41.0","1.0","33.8","76","10.8","6.7","-9999.0","-9999.0","180","South","10.0","6.2","1023","30.21","2.5","36.5","-9999","-9999","-9999.00","-9999.00","Mostly Cloudy","mostlycloudy","0","0","0","0","0","0","METAR UKKK 181100Z 18003MPS 150V240 9999 BKN012 05/01 Q1023 R08/810540 NOSIG"
"1:30 PM EET on November 18, 2016","2016","11","18","13","30","Europe/Kiev","11:30 AM GMT on November 18, 2016","2016","11","18","11","30","UTC","5.0","41.0","1.0","33.8","76","10.8","6.7","-9999.0","-9999.0","190","South","10.0","6.2","1023","30.21","2.5","36.5","-9999","-9999","-9999.00","-9999.00","Mostly Cloudy","mostlycloudy","0","0","0","0","0","0","METAR UKKK 181130Z 19003MPS 150V240 9999 BKN013 05/01 Q1023 R08/810540 NOSIG"
"2:00 PM EET on November 18, 2016","2016","11","18","14","00","Europe/Kiev","12:00 PM GMT on November 18, 2016","2016","11","18","12","00","UTC","5","42","2","36","72","14.4","8.9","","","210","SSW","20","12","1024","30.25","-999","-999","-9999","-9999","","","Partly Cloudy","partlycloudy","0","0","0","0","0","0","AAXX 18121 33345 /1598 62104 10054 20022 30034 40241 58003 70262 86500 555 1/004 69901"
"2:00 PM EET on November 18, 2016","2016","11","18","14","00","Europe/Kiev","12:00 PM GMT on November 18, 2016","2016","11","18","12","00","UTC","5.0","41.0","1.0","33.8","76","14.4","8.9","-9999.0","-9999.0","180","South","10.0","6.2","1023","30.21","1.9","35.4","-9999","-9999","-9999.00","-9999.00","Mostly Cloudy","mostlycloudy","0","0","0","0","0","0","METAR UKKK 181200Z 18004MPS 130V220 9999 BKN013 05/01 Q1023 R08/810540 NOSIG"
"2:30 PM EET on November 18, 2016","2016","11","18","14","30","Europe/Kiev","12:30 PM GMT on November 18, 2016","2016","11","18","12","30","UTC","5.0","41.0","2.0","35.6","81","14.4","8.9","-9999.0","-9999.0","170","South","10.0","6.2","1023","30.21","1.9","35.4","-9999","-9999","-9999.00","-9999.00","Mostly Cloudy","mostlycloudy","0","0","0","0","0","0","METAR UKKK 181230Z 17004MPS 140V200 9999 SCT012 BKN200 05/02 Q1023 R08/810540 NOSIG"
"3:00 PM EET on November 18, 2016","2016","11","18","15","00","Europe/Kiev","1:00 PM GMT on November 18, 2016","2016","11","18","13","00","UTC","4.0","39.2","2.0","35.6","87","10.8","6.7","-9999.0","-9999.0","170","South","10.0","6.2","1023","30.21","1.3","34.4","-9999","-9999","-9999.00","-9999.00","Mostly Cloudy","mostlycloudy","0","0","0","0","0","0","METAR UKKK 181300Z 17003MPS 140V210 9999 SCT012 BKN200 04/02 Q1023 R08/810540 NOSIG"
"3:30 PM EET on November 18, 2016","2016","11","18","15","30","Europe/Kiev","1:30 PM GMT on November 18, 2016","2016","11","18","13","30","UTC","4.0","39.2","2.0","35.6","87","10.8","6.7","-9999.0","-9999.0","160","SSE","9.0","5.6","1023","30.21","1.3","34.4","-9999","-9999","-9999.00","-9999.00","Mostly Cloudy","mostlycloudy","0","0","0","0","0","0","METAR UKKK 181330Z 16003MPS 120V200 9000 FEW011 BKN200 04/02 Q1023 R08/810540 NOSIG"
"4:00 PM EET on November 18, 2016","2016","11","18","16","00","Europe/Kiev","2:00 PM GMT on November 18, 2016","2016","11","18","14","00","UTC","4.0","39.2","2.0","35.6","87","10.8","6.7","-9999.0","-9999.0","160","SSE","9.0","5.6","1023","30.21","1.3","34.4","-9999","-9999","-9999.00","-9999.00","Mostly Cloudy","mostlycloudy","0","0","0","0","0","0","METAR UKKK 181400Z 16003MPS 120V220 9000 FEW011 BKN200 04/02 Q1023 R08/810540 NOSIG"
"4:30 PM EET on November 18, 2016","2016","11","18","16","30","Europe/Kiev","2:30 PM GMT on November 18, 2016","2016","11","18","14","30","UTC","4.0","39.2","2.0","35.6","87","10.8","6.7","-9999.0","-9999.0","150","SSE","9.0","5.6","1023","30.21","1.3","34.4","-9999","-9999","-9999.00","-9999.00","Unknown","unknown","0","0","0","0","0","0","METAR UKKK 181430Z 15003MPS 120V190 9000 NSC 04/02 Q1023 R08/810540 NOSIG"
"5:00 PM EET on November 18, 2016","2016","11","18","17","00","Europe/Kiev","3:00 PM GMT on November 18, 2016","2016","11","18","15","00","UTC","3","38","2","36","90","10.8","6.7","","","180","South","10","6","1024","30.26","-999","-999","-9999","-9999","","","","","0","0","0","0","0","0","AAXX 18151 33345 42997 01803 10033 20023 30036 40245 53002 555 1/000"
"5:00 PM EET on November 18, 2016","2016","11","18","17","00","Europe/Kiev","3:00 PM GMT on November 18, 2016","2016","11","18","15","00","UTC","4.0","39.2","3.0","37.4","93","10.8","6.7","-9999.0","-9999.0","150","SSE","-9999.0","-9999.0","1023","30.21","1.3","34.4","-9999","-9999","-9999.00","-9999.00","Clear","clear","0","0","0","0","0","0","METAR UKKK 181500Z 15003MPS 110V190 CAVOK 04/03 Q1023 R08/810540 NOSIG"
"5:30 PM EET on November 18, 2016","2016","11","18","17","30","Europe/Kiev","3:30 PM GMT on November 18, 2016","2016","11","18","15","30","UTC","4.0","39.2","3.0","37.4","93","14.4","8.9","-9999.0","-9999.0","160","SSE","9.0","5.6","1023","30.21","0.6","33.1","-9999","-9999","-9999.00","-9999.00","Unknown","unknown","0","0","0","0","0","0","METAR UKKK 181530Z 16004MPS 080V180 9000 NSC 04/03 Q1023 R08/810540 NOSIG"
"6:00 PM EET on November 18, 2016","2016","11","18","18","00","Europe/Kiev","4:00 PM GMT on November 18, 2016","2016","11","18","16","00","UTC","5.0","41.0","3.0","37.4","87","14.4","8.9","-9999.0","-9999.0","160","SSE","9.0","5.6","1023","30.21","1.9","35.4","-9999","-9999","-9999.00","-9999.00","Scattered Clouds","partlycloudy","0","0","0","0","0","0","METAR UKKK 181600Z 16004MPS 120V220 9000 SCT010 05/03 Q1023 R08/810540 NOSIG"
"6:30 PM EET on November 18, 2016","2016","11","18","18","30","Europe/Kiev","4:30 PM GMT on November 18, 2016","2016","11","18","16","30","UTC","5.0","41.0","3.0","37.4","87","14.4","8.9","-9999.0","-9999.0","160","SSE","9.0","5.6","1023","30.21","1.9","35.4","-9999","-9999","-9999.00","-9999.00","Mostly Cloudy","mostlycloudy","0","0","0","0","0","0","METAR UKKK 181630Z 16004MPS 110V200 9000 BKN008 05/03 Q1023 R08/810540 NOSIG"
"7:00 PM EET on November 18, 2016","2016","11","18","19","00","Europe/Kiev","5:00 PM GMT on November 18, 2016","2016","11","18","17","00","UTC","5.0","41.0","3.0","37.4","87","14.4","8.9","-9999.0","-9999.0","160","SSE","9.0","5.6","1023","30.21","1.9","35.4","-9999","-9999","-9999.00","-9999.00","Mostly Cloudy","mostlycloudy","0","0","0","0","0","0","METAR UKKK 181700Z 16004MPS 100V200 9000 BKN008 05/03 Q1023 R08/810540 NOSIG"
"7:30 PM EET on November 18, 2016","2016","11","18","19","30","Europe/Kiev","5:30 PM GMT on November 18, 2016","2016","11","18","17","30","UTC","5.0","41.0","4.0","39.2","93","14.4","8.9","-9999.0","-9999.0","160","SSE","9.0","5.6","1023","30.21","1.9","35.4","-9999","-9999","-9999.00","-9999.00","Mostly Cloudy","mostlycloudy","0","0","0","0","0","0","METAR UKKK 181730Z 16004MPS 120V200 9000 BKN008 05/04 Q1023 R08/810540 NOSIG"
"8:00 PM EET on November 18, 2016","2016","11","18","20","00","Europe/Kiev","6:00 PM GMT on November 18, 2016","2016","11","18","18","00","UTC","4","40","4","38","91","14.4","8.9","","","190","South","4","2","1024","30.26","-999","-999","-9999","-9999","","","Mist","hazy","0","0","0","0","0","0","AAXX 18181 33345 11496 81904 10042 20035 30037 40245 52001 69902 71011 886// 333 10054 88711 555 1/002"
"8:00 PM EET on November 18, 2016","2016","11","18","20","00","Europe/Kiev","6:00 PM GMT on November 18, 2016","2016","11","18","18","00","UTC","5.0","41.0","4.0","39.2","93","14.4","8.9","-9999.0","-9999.0","170","South","9.0","5.6","1023","30.21","1.9","35.4","-9999","-9999","-9999.00","-9999.00","Mostly Cloudy","mostlycloudy","0","0","0","0","0","0","METAR UKKK 181800Z 17004MPS 120V220 9000 BKN008 05/04 Q1023 R08/810540 NOSIG"
"8:30 PM EET on November 18, 2016","2016","11","18","20","30","Europe/Kiev","6:30 PM GMT on November 18, 2016","2016","11","18","18","30","UTC","5.0","41.0","4.0","39.2","93","14.4","8.9","-9999.0","-9999.0","170","South","10.0","6.2","1024","30.24","1.9","35.4","-9999","-9999","-9999.00","-9999.00","Mostly Cloudy","mostlycloudy","0","0","0","0","0","0","METAR UKKK 181830Z 17004MPS 130V270 9999 BKN008 05/04 Q1024 R08/810540 NOSIG"
"9:30 PM EET on November 18, 2016","2016","11","18","21","30","Europe/Kiev","7:30 PM GMT on November 18, 2016","2016","11","18","19","30","UTC","5.0","41.0","4.0","39.2","93","10.8","6.7","-9999.0","-9999.0","180","South","10.0","6.2","1024","30.24","2.5","36.5","-9999","-9999","-9999.00","-9999.00","Mostly Cloudy","mostlycloudy","0","0","0","0","0","0","METAR UKKK 181930Z 18003MPS 140V220 9999 BKN014 05/04 Q1024 R08/810540 NOSIG"
"10:00 PM EET on November 18, 2016","2016","11","18","22","00","Europe/Kiev","8:00 PM GMT on November 18, 2016","2016","11","18","20","00","UTC","6.0","42.8","4.0","39.2","87","14.4","8.9","-9999.0","-9999.0","180","South","10.0","6.2","1024","30.24","3.1","37.6","-9999","-9999","-9999.00","-9999.00","Mostly Cloudy","mostlycloudy","0","0","0","0","0","0","METAR UKKK 182000Z 18004MPS 140V230 9999 BKN014 06/04 Q1024 R08/810540 NOSIG"
"10:30 PM EET on November 18, 2016","2016","11","18","22","30","Europe/Kiev","8:30 PM GMT on November 18, 2016","2016","11","18","20","30","UTC","6.0","42.8","4.0","39.2","87","14.4","8.9","-9999.0","-9999.0","170","South","10.0","6.2","1024","30.24","3.1","37.6","-9999","-9999","-9999.00","-9999.00","Mostly Cloudy","mostlycloudy","0","0","0","0","0","0","METAR UKKK 182030Z 17004MPS 120V220 9999 BKN014 06/04 Q1024 R08/810540 NOSIG"
"11:00 PM EET on November 18, 2016","2016","11","18","23","00","Europe/Kiev","9:00 PM GMT on November 18, 2016","2016","11","18","21","00","UTC","6","42","4","39","87","14.4","8.9","","","200","SSW","4","2","1026","30.29","-999","-999","-9999","-9999","","","Mist","hazy","0","0","0","0","0","0","AAXX 18211 33345 41496 82004 10055 20041 30049 40256 52012 71022 886// 333 88714 555 1/003"
"11:00 PM EET on November 18, 2016","2016","11","18","23","00","Europe/Kiev","9:00 PM GMT on November 18, 2016","2016","11","18","21","00","UTC","6.0","42.8","4.0","39.2","87","10.8","6.7","-9999.0","-9999.0","170","South","10.0","6.2","1024","30.24","3.7","38.7","-9999","-9999","-9999.00","-9999.00","Mostly Cloudy","mostlycloudy","0","0","0","0","0","0","METAR UKKK 182100Z 17003MPS 140V210 9999 BKN012 06/04 Q1024 R08/810540 NOSIG"
"11:30 PM EET on November 18, 2016","2016","11","18","23","30","Europe/Kiev","9:30 PM GMT on November 18, 2016","2016","11","18","21","30","UTC","6.0","42.8","4.0","39.2","87","14.4","8.9","-9999.0","-9999.0","170","South","10.0","6.2","1025","30.27","3.1","37.6","-9999","-9999","-9999.00","-9999.00","Mostly Cloudy","mostlycloudy","0","0","0","0","0","0","METAR UKKK 182130Z 17004MPS 120V200 9999 BKN015 06/04 Q1025 R08/810540 NOSIG"
"12:00 AM EET on November 19, 2016","2016","11","19","00","00","Europe/Kiev","10:00 PM GMT on November 18, 2016","2016","11","18","22","00","UTC","6.0","42.8","4.0","39.2","87","14.4","8.9","-9999.0","-9999.0","170","South","10.0","6.2","1025","30.27","3.1","37.6","-9999","-9999","-9999.00","-9999.00","Mostly Cloudy","mostlycloudy","0","0","0","0","0","0","METAR UKKK 182200Z 17004MPS 140V210 9999 BKN013 06/04 Q1025 R08/810540 NOSIG"
"12:30 AM EET on November 19, 2016","2016","11","19","00","30","Europe/Kiev","10:30 PM GMT on November 18, 2016","2016","11","18","22","30","UTC","6.0","42.8","4.0","39.2","87","10.8","6.7","-9999.0","-9999.0","160","SSE","10.0","6.2","1025","30.27","3.7","38.7","-9999","-9999","-9999.00","-9999.00","Mostly Cloudy","mostlycloudy","0","0","0","0","0","0","METAR UKKK 182230Z 16003MPS 120V200 9999 BKN012 06/04 Q1025 R08/810540 NOSIG"
"1:00 AM EET on November 19, 2016","2016","11","19","01","00","Europe/Kiev","11:00 PM GMT on November 18, 2016","2016","11","18","23","00","UTC","6.0","42.8","4.0","39.2","87","10.8","6.7","-9999.0","-9999.0","170","South","10.0","6.2","1025","30.27","3.7","38.7","-9999","-9999","-9999.00","-9999.00","Mostly Cloudy","mostlycloudy","0","0","0","0","0","0","METAR UKKK 182300Z 17003MPS 120V240 9999 BKN012 06/04 Q1025 R08/810540 NOSIG"
"1:30 AM EET on November 19, 2016","2016","11","19","01","30","Europe/Kiev","11:30 PM GMT on November 18, 2016","2016","11","18","23","30","UTC","6.0","42.8","4.0","39.2","87","10.8","6.7","28.8","17.9","160","SSE","10.0","6.2","1025","30.27","3.7","38.7","-9999","-9999","-9999.00","-9999.00","Mostly Cloudy","mostlycloudy","0","0","0","0","0","0","METAR UKKK 182330Z 16003G08MPS 130V240 9999 BKN012 06/04 Q1025 R08/810540 NOSIG"
"2:00 AM EET on November 19, 2016","2016","11","19","02","00","Europe/Kiev","12:00 AM GMT on November 19, 2016","2016","11","19","00","00","UTC","5","42","4","39","86","10.8","6.7","","","180","South","4","2","1026","30.31","-999","-999","-9999","-9999","","","Mist","hazy","0","0","0","0","0","0","AAXX 19001 33345 31496 81803 10054 20040 30056 40264 52007 71022 886// 333 88713 555 1/003"
"2:00 AM EET on November 19, 2016","2016","11","19","02","00","Europe/Kiev","12:00 AM GMT on November 19, 2016","2016","11","19","00","00","UTC","6.0","42.8","4.0","39.2","87","10.8","6.7","-9999.0","-9999.0","170","South","10.0","6.2","1025","30.27","3.7","38.7","-9999","-9999","-9999.00","-9999.00","Mostly Cloudy","mostlycloudy","0","0","0","0","0","0","METAR UKKK 190000Z 17003MPS 090V220 9999 BKN012 06/04 Q1025 R08/810540 NOSIG"
"2:30 AM EET on November 19, 2016","2016","11","19","02","30","Europe/Kiev","12:30 AM GMT on November 19, 2016","2016","11","19","00","30","UTC","6.0","42.8","4.0","39.2","87","10.8","6.7","-9999.0","-9999.0","170","South","10.0","6.2","1025","30.27","3.7","38.7","-9999","-9999","-9999.00","-9999.00","Mostly Cloudy","mostlycloudy","0","0","0","0","0","0","METAR UKKK 190030Z 17003MPS 120V200 9999 BKN012 06/04 Q1025 R08/810540 NOSIG"
"3:00 AM EET on November 19, 2016","2016","11","19","03","00","Europe/Kiev","1:00 AM GMT on November 19, 2016","2016","11","19","01","00","UTC","6.0","42.8","4.0","39.2","87","10.8","6.7","-9999.0","-9999.0","160","SSE","10.0","6.2","1025","30.27","3.7","38.7","-9999","-9999","-9999.00","-9999.00","Mostly Cloudy","mostlycloudy","0","0","0","0","0","0","METAR UKKK 190100Z 16003MPS 120V200 9999 BKN012 06/04 Q1025 R08/810540 NOSIG"
"3:30 AM EET on November 19, 2016","2016","11","19","03","30","Europe/Kiev","1:30 AM GMT on November 19, 2016","2016","11","19","01","30","UTC","6.0","42.8","4.0","39.2","87","14.4","8.9","-9999.0","-9999.0","150","SSE","10.0","6.2","1025","30.27","3.1","37.6","-9999","-9999","-9999.00","-9999.00","Mostly Cloudy","mostlycloudy","0","0","0","0","0","0","METAR UKKK 190130Z 15004MPS 120V190 9999 BKN010 06/04 Q1025 R08/810540 NOSIG"
"4:00 AM EET on November 19, 2016","2016","11","19","04","00","Europe/Kiev","2:00 AM GMT on November 19, 2016","2016","11","19","02","00","UTC","6.0","42.8","4.0","39.2","87","10.8","6.7","-9999.0","-9999.0","160","SSE","10.0","6.2","1025","30.27","3.7","38.7","-9999","-9999","-9999.00","-9999.00","Mostly Cloudy","mostlycloudy","0","0","0","0","0","0","METAR UKKK 190200Z 16003MPS 130V210 9999 BKN009 06/04 Q1025 R08/810540 NOSIG"
"4:30 AM EET on November 19, 2016","2016","11","19","04","30","Europe/Kiev","2:30 AM GMT on November 19, 2016","2016","11","19","02","30","UTC","6.0","42.8","4.0","39.2","87","10.8","6.7","-9999.0","-9999.0","170","South","10.0","6.2","1026","30.30","3.7","38.7","-9999","-9999","-9999.00","-9999.00","Mostly Cloudy","mostlycloudy","0","0","0","0","0","0","METAR UKKK 190230Z 17003MPS 110V220 9999 BKN010 06/04 Q1026 R08/810540 NOSIG"
"5:00 AM EET on November 19, 2016","2016","11","19","05","00","Europe/Kiev","3:00 AM GMT on November 19, 2016","2016","11","19","03","00","UTC","5","42","4","39","87","14.4","8.9","","","190","South","4","2","1027","30.33","-999","-999","-9999","-9999","","","Mist","hazy","0","0","0","0","0","0","AAXX 19031 33345 41496 81904 10053 20041 30061 40269 52005 71022 886// 333 88711 555 1/001"
"5:00 AM EET on November 19, 2016","2016","11","19","05","00","Europe/Kiev","3:00 AM GMT on November 19, 2016","2016","11","19","03","00","UTC","6.0","42.8","4.0","39.2","87","10.8","6.7","-9999.0","-9999.0","160","SSE","10.0","6.2","1026","30.30","3.7","38.7","-9999","-9999","-9999.00","-9999.00","Mostly Cloudy","mostlycloudy","0","0","0","0","0","0","METAR UKKK 190300Z 16003MPS 100V210 9999 BKN009 06/04 Q1026 R08/810540 NOSIG"
"5:30 AM EET on November 19, 2016","2016","11","19","05","30","Europe/Kiev","3:30 AM GMT on November 19, 2016","2016","11","19","03","30","UTC","6.0","42.8","4.0","39.2","87","10.8","6.7","-9999.0","-9999.0","150","SSE","10.0","6.2","1026","30.30","3.7","38.7","-9999","-9999","-9999.00","-9999.00","Mostly Cloudy","mostlycloudy","0","0","0","0","0","0","METAR UKKK 190330Z 15003MPS 110V200 9999 BKN007 06/04 Q1026 R08/810540 NOSIG"
"6:00 AM EET on November 19, 2016","2016","11","19","06","00","Europe/Kiev","4:00 AM GMT on November 19, 2016","2016","11","19","04","00","UTC","6.0","42.8","4.0","39.2","87","14.4","8.9","-9999.0","-9999.0","150","SSE","9.0","5.6","1026","30.30","3.1","37.6","-9999","-9999","-9999.00","-9999.00","Mostly Cloudy","mostlycloudy","0","0","0","0","0","0","METAR UKKK 190400Z 15004MPS 110V210 9000 BKN007 06/04 Q1026 R08/810540 NOSIG"
"6:30 AM EET on November 19, 2016","2016","11","19","06","30","Europe/Kiev","4:30 AM GMT on November 19, 2016","2016","11","19","04","30","UTC","6.0","42.8","4.0","39.2","87","14.4","8.9","-9999.0","-9999.0","150","SSE","9.0","5.6","1026","30.30","3.1","37.6","-9999","-9999","-9999.00","-9999.00","Mostly Cloudy","mostlycloudy","0","0","0","0","0","0","METAR UKKK 190430Z 15004MPS 110V190 9000 BKN007 06/04 Q1026 R08/810540 NOSIG"
"7:00 AM EET on November 19, 2016","2016","11","19","07","00","Europe/Kiev","5:00 AM GMT on November 19, 2016","2016","11","19","05","00","UTC","6.0","42.8","4.0","39.2","87","14.4","8.9","-9999.0","-9999.0","160","SSE","9.0","5.6","1026","30.30","3.1","37.6","-9999","-9999","-9999.00","-9999.00","Mostly Cloudy","mostlycloudy","0","0","0","0","0","0","METAR UKKK 190500Z 16004MPS 120V220 9000 BKN006 06/04 Q1026 R08/810540 TEMPO BKN005"
"7:30 AM EET on November 19, 2016","2016","11","19","07","30","Europe/Kiev","5:30 AM GMT on November 19, 2016","2016","11","19","05","30","UTC","6.0","42.8","4.0","39.2","87","10.8","6.7","-9999.0","-9999.0","170","South","9.0","5.6","1027","30.33","3.7","38.7","-9999","-9999","-9999.00","-9999.00","Overcast","cloudy","0","0","0","0","0","0","METAR UKKK 190530Z 17003MPS 130V230 9000 OVC007 06/04 Q1027 R08/810540 TEMPO BKN005"
"8:00 AM EET on November 19, 2016","2016","11","19","08","00","Europe/Kiev","6:00 AM GMT on November 19, 2016","2016","11","19","06","00","UTC","6","42","4","40","89","14.4","8.9","","","200","SSW","4","2","1028","30.37","-999","-999","-9999","-9999","","","Mist","hazy","0","0","0","0","0","0","AAXX 19061 33345 31396 82004 10056 20044 30074 40282 52013 71022 886// 333 20042 42998 88709 555 1/004"
"8:00 AM EET on November 19, 2016","2016","11","19","08","00","Europe/Kiev","6:00 AM GMT on November 19, 2016","2016","11","19","06","00","UTC","6.0","42.8","4.0","39.2","87","14.4","8.9","-9999.0","-9999.0","170","South","9.0","5.6","1027","30.33","3.1","37.6","-9999","-9999","-9999.00","-9999.00","Overcast","cloudy","0","0","0","0","0","0","METAR UKKK 190600Z 17004MPS 130V220 9000 OVC007 06/04 Q1027 R08/810540 NOSIG"
"8:30 AM EET on November 19, 2016","2016","11","19","08","30","Europe/Kiev","6:30 AM GMT on November 19, 2016","2016","11","19","06","30","UTC","6.0","42.8","5.0","41.0","93","14.4","8.9","-9999.0","-9999.0","160","SSE","10.0","6.2","1027","30.33","3.1","37.6","-9999","-9999","-9999.00","-9999.00","Overcast","cloudy","0","0","0","0","0","0","METAR UKKK 190630Z 16004MPS 130V200 9999 OVC007 06/05 Q1027 R08/290050 NOSIG"
"9:00 AM EET on November 19, 2016","2016","11","19","09","00","Europe/Kiev","7:00 AM GMT on November 19, 2016","2016","11","19","07","00","UTC","6.0","42.8","5.0","41.0","93","10.8","6.7","-9999.0","-9999.0","160","SSE","9.0","5.6","1028","30.36","3.7","38.7","-9999","-9999","-9999.00","-9999.00","Overcast","cloudy","0","0","0","0","0","0","METAR UKKK 190700Z 16003MPS 110V200 9000 OVC007 06/05 Q1028 R08/290050 NOSIG"
"9:30 AM EET on November 19, 2016","2016","11","19","09","30","Europe/Kiev","7:30 AM GMT on November 19, 2016","2016","11","19","07","30","UTC","6.0","42.8","5.0","41.0","93","18.0","11.2","-9999.0","-9999.0","160","SSE","9.0","5.6","1028","30.36","2.6","36.7","-9999","-9999","-9999.00","-9999.00","Overcast","cloudy","0","0","0","0","0","0","METAR UKKK 190730Z 16005MPS 130V240 9000 OVC006 06/05 Q1028 R08/290050 NOSIG"
"10:00 AM EET on November 19, 2016","2016","11","19","10","00","Europe/Kiev","8:00 AM GMT on November 19, 2016","2016","11","19","08","00","UTC","6.0","42.8","5.0","41.0","93","18.0","11.2","-9999.0","-9999.0","160","SSE","8.0","5.0","1028","30.36","2.6","36.7","-9999","-9999","-9999.00","-9999.00","Overcast","cloudy","0","0","0","0","0","0","METAR UKKK 190800Z 16005MPS 130V210 8000 OVC005 06/05 Q1028 R08/290050 TEMPO OVC004"
"10:30 AM EET on November 19, 2016","2016","11","19","10","30","Europe/Kiev","8:30 AM GMT on November 19, 2016","2016","11","19","08","30","UTC","6.0","42.8","5.0","41.0","93","21.6","13.4","-9999.0","-9999.0","160","SSE","7.0","4.3","1027","30.33","2.2","35.9","-9999","-9999","-9999.00","-9999.00","Overcast","cloudy","0","0","0","0","0","0","METAR UKKK 190830Z 16006MPS 130V190 7000 OVC005 06/05 Q1027 R08/290050 TEMPO OVC004"
"11:00 AM EET on November 19, 2016","2016","11","19","11","00","Europe/Kiev","9:00 AM GMT on November 19, 2016","2016","11","19","09","00","UTC","6","43","5","41","91","18.0","11.2","","","200","SSW","4","2","1029","30.39","-999","-999","-9999","-9999","","","Mist","hazy","0","0","0","0","0","0","AAXX 19091 33345 41396 82005 10060 20051 30081 40289 52007 71022 886// 333 88707 555 1/004"
"11:00 AM EET on November 19, 2016","2016","11","19","11","00","Europe/Kiev","9:00 AM GMT on November 19, 2016","2016","11","19","09","00","UTC","6.0","42.8","5.0","41.0","93","14.4","8.9","-9999.0","-9999.0","180","South","9.0","5.6","1028","30.36","3.1","37.6","-9999","-9999","-9999.00","-9999.00","Overcast","cloudy","0","0","0","0","0","0","METAR UKKK 190900Z 18004MPS 140V220 9000 OVC006 06/05 Q1028 R08/290050 TEMPO OVC004"
"11:30 AM EET on November 19, 2016","2016","11","19","11","30","Europe/Kiev","9:30 AM GMT on November 19, 2016","2016","11","19","09","30","UTC","6.0","42.8","5.0","41.0","93","14.4","8.9","-9999.0","-9999.0","180","South","10.0","6.2","1028","30.36","3.1","37.6","-9999","-9999","-9999.00","-9999.00","Overcast","cloudy","0","0","0","0","0","0","METAR UKKK 190930Z 18004MPS 130V230 9999 OVC007 06/05 Q1028 R08/290050 NOSIG"
"12:00 PM EET on November 19, 2016","2016","11","19","12","00","Europe/Kiev","10:00 AM GMT on November 19, 2016","2016","11","19","10","00","UTC","7.0","44.6","5.0","41.0","87","14.4","8.9","32.4","20.1","180","South","10.0","6.2","1028","30.36","4.3","39.8","-9999","-9999","-9999.00","-9999.00","Overcast","cloudy","0","0","0","0","0","0","METAR UKKK 191000Z 18004G09MPS 120V220 9999 OVC009 07/05 Q1028 R08/290050 NOSIG"
"12:30 PM EET on November 19, 2016","2016","11","19","12","30","Europe/Kiev","10:30 AM GMT on November 19, 2016","2016","11","19","10","30","UTC","7.0","44.6","5.0","41.0","87","10.8","6.7","28.8","17.9","180","South","10.0","6.2","1028","30.36","4.9","40.8","-9999","-9999","-9999.00","-9999.00","Overcast","cloudy","0","0","0","0","0","0","METAR UKKK 191030Z 18003G08MPS 130V240 9999 OVC011 07/05 Q1028 R08/290050 NOSIG"
"1:00 PM EET on November 19, 2016","2016","11","19","13","00","Europe/Kiev","11:00 AM GMT on November 19, 2016","2016","11","19","11","00","UTC","7.0","44.6","5.0","41.0","87","14.4","8.9","-9999.0","-9999.0","180","South","10.0","6.2","1028","30.36","4.3","39.8","-9999","-9999","-9999.00","-9999.00","Overcast","cloudy","0","0","0","0","0","0","METAR UKKK 191100Z 18004MPS 140V250 9999 OVC011 07/05 Q1028 R08/290050 NOSIG"
"1:30 PM EET on November 19, 2016","2016","11","19","13","30","Europe/Kiev","11:30 AM GMT on November 19, 2016","2016","11","19","11","30","UTC","7.0","44.6","5.0","41.0","87","18.0","11.2","-9999.0","-9999.0","190","South","10.0","6.2","1028","30.36","3.8","38.9","-9999","-9999","-9999.00","-9999.00","Overcast","cloudy","0","0","0","0","0","0","METAR UKKK 191130Z 19005MPS 160V230 9999 OVC013 07/05 Q1028 R08/290050 NOSIG"
"2:00 PM EET on November 19, 2016","2016","11","19","14","00","Europe/Kiev","12:00 PM GMT on November 19, 2016","2016","11","19","12","00","UTC","7","44","5","40","83","14.4","8.9","","","200","SSW","10","6","1029","30.39","-999","-999","-9999","-9999","","","Overcast","cloudy","0","0","0","0","0","0","AAXX 19121 33345 32497 82004 10068 20047 30082 40289 51001 886// 333 88714 555 1/005"
"2:00 PM EET on November 19, 2016","2016","11","19","14","00","Europe/Kiev","12:00 PM GMT on November 19, 2016","2016","11","19","12","00","UTC","7.0","44.6","5.0","41.0","87","10.8","6.7","-9999.0","-9999.0","170","South","10.0","6.2","1028","30.36","4.9","40.8","-9999","-9999","-9999.00","-9999.00","Overcast","cloudy","0","0","0","0","0","0","METAR UKKK 191200Z 17003MPS 100V230 9999 OVC013 07/05 Q1028 R08/290050 NOSIG"
"2:30 PM EET on November 19, 2016","2016","11","19","14","30","Europe/Kiev","12:30 PM GMT on November 19, 2016","2016","11","19","12","30","UTC","7.0","44.6","5.0","41.0","87","14.4","8.9","-9999.0","-9999.0","170","South","10.0","6.2","1028","30.36","4.3","39.8","-9999","-9999","-9999.00","-9999.00","Overcast","cloudy","0","0","0","0","0","0","METAR UKKK 191230Z 17004MPS 090V220 9999 OVC013 07/05 Q1028 R08/290050 NOSIG"
"3:00 PM EET on November 19, 2016","2016","11","19","15","00","Europe/Kiev","1:00 PM GMT on November 19, 2016","2016","11","19","13","00","UTC","7.0","44.6","5.0","41.0","87","10.8","6.7","-9999.0","-9999.0","160","SSE","10.0","6.2","1028","30.36","4.9","40.8","-9999","-9999","-9999.00","-9999.00","Overcast","cloudy","0","0","0","0","0","0","METAR UKKK 191300Z 16003MPS 100V220 9999 OVC013 07/05 Q1028 R08/290050 NOSIG"
"3:30 PM EET on November 19, 2016","2016","11","19","15","30","Europe/Kiev","1:30 PM GMT on November 19, 2016","2016","11","19","13","30","UTC","7.0","44.6","5.0","41.0","87","14.4","8.9","-9999.0","-9999.0","160","SSE","10.0","6.2","1028","30.36","4.3","39.8","-9999","-9999","-9999.00","-9999.00","Overcast","cloudy","0","0","0","0","0","0","METAR UKKK 191330Z 16004MPS 120V200 9999 OVC013 07/05 Q1028 R08/290050 NOSIG"
"4:00 PM EET on November 19, 2016","2016","11","19","16","00","Europe/Kiev","2:00 PM GMT on November 19, 2016","2016","11","19","14","00","UTC","7.0","44.6","4.0","39.2","81","14.4","8.9","-9999.0","-9999.0","150","SSE","10.0","6.2","1028","30.36","4.3","39.8","-9999","-9999","-9999.00","-9999.00","Overcast","cloudy","0","0","0","0","0","0","METAR UKKK 191400Z 15004MPS 110V190 9999 OVC012 07/04 Q1028 R08/290050 NOSIG"
"4:30 PM EET on November 19, 2016","2016","11","19","16","30","Europe/Kiev","2:30 PM GMT on November 19, 2016","2016","11","19","14","30","UTC","7.0","44.6","4.0","39.2","81","18.0","11.2","-9999.0","-9999.0","160","SSE","10.0","6.2","1028","30.36","3.8","38.9","-9999","-9999","-9999.00","-9999.00","Overcast","cloudy","0","0","0","0","0","0","METAR UKKK 191430Z 16005MPS 130V190 9999 OVC012 07/04 Q1028 R08/290050 NOSIG"
"5:00 PM EET on November 19, 2016","2016","11","19","17","00","Europe/Kiev","3:00 PM GMT on November 19, 2016","2016","11","19","15","00","UTC","6","44","4","39","78","18.0","11.2","","","200","SSW","10","6","1029","30.40","-999","-999","-9999","-9999","","","Overcast","cloudy","0","0","0","0","0","0","AAXX 19151 33345 42497 82005 10064 20041 30085 40292 53003 886// 333 88713 555 11004"
"5:00 PM EET on November 19, 2016","2016","11","19","17","00","Europe/Kiev","3:00 PM GMT on November 19, 2016","2016","11","19","15","00","UTC","6.0","42.8","4.0","39.2","87","18.0","11.2","-9999.0","-9999.0","160","SSE","10.0","6.2","1028","30.36","2.6","36.7","-9999","-9999","-9999.00","-9999.00","Overcast","cloudy","0","0","0","0","0","0","METAR UKKK 191500Z 16005MPS 110V210 9999 OVC012 06/04 Q1028 R08/290050 NOSIG"
"5:30 PM EET on November 19, 2016","2016","11","19","17","30","Europe/Kiev","3:30 PM GMT on November 19, 2016","2016","11","19","15","30","UTC","6.0","42.8","4.0","39.2","87","18.0","11.2","-9999.0","-9999.0","170","South","10.0","6.2","1028","30.36","2.6","36.7","-9999","-9999","-9999.00","-9999.00","Overcast","cloudy","0","0","0","0","0","0","METAR UKKK 191530Z 17005MPS 130V220 9999 OVC013 06/04 Q1028 R08/290050 NOSIG"
"6:00 PM EET on November 19, 2016","2016","11","19","18","00","Europe/Kiev","4:00 PM GMT on November 19, 2016","2016","11","19","16","00","UTC","6.0","42.8","4.0","39.2","87","14.4","8.9","-9999.0","-9999.0","160","SSE","10.0","6.2","1028","30.36","3.1","37.6","-9999","-9999","-9999.00","-9999.00","Overcast","cloudy","0","0","0","0","0","0","METAR UKKK 191600Z 16004MPS 120V210 9999 OVC013 06/04 Q1028 R08/290050 NOSIG"
"6:30 PM EET on November 19, 2016","2016","11","19","18","30","Europe/Kiev","4:30 PM GMT on November 19, 2016","2016","11","19","16","30","UTC","6.0","42.8","4.0","39.2","87","18.0","11.2","-9999.0","-9999.0","170","South","10.0","6.2","1028","30.36","2.6","36.7","-9999","-9999","-9999.00","-9999.00","Overcast","cloudy","0","0","0","0","0","0","METAR UKKK 191630Z 17005MPS 110V210 9999 OVC014 06/04 Q1028 R08/290050 NOSIG"
"7:00 PM EET on November 19, 2016","2016","11","19","19","00","Europe/Kiev","5:00 PM GMT on November 19, 2016","2016","11","19","17","00","UTC","6.0","42.8","3.0","37.4","81","18.0","11.2","-9999.0","-9999.0","170","South","10.0","6.2","1028","30.36","2.6","36.7","-9999","-9999","-9999.00","-9999.00","Overcast","cloudy","0","0","0","0","0","0","METAR UKKK 191700Z 17005MPS 110V220 9999 OVC015 06/03 Q1028 R08/290050 NOSIG"
"7:30 PM EET on November 19, 2016","2016","11","19","19","30","Europe/Kiev","5:30 PM GMT on November 19, 2016","2016","11","19","17","30","UTC","6.0","42.8","3.0","37.4","81","18.0","11.2","-9999.0","-9999.0","160","SSE","10.0","6.2","1028","30.36","2.6","36.7","-9999","-9999","-9999.00","-9999.00","Overcast","cloudy","0","0","0","0","0","0","METAR UKKK 191730Z 16005MPS 110V220 9999 OVC013 06/03 Q1028 R08/290050 NOSIG"
"8:00 PM EET on November 19, 2016","2016","11","19","20","00","Europe/Kiev","6:00 PM GMT on November 19, 2016","2016","11","19","18","00","UTC","4","40","2","36","82","14.4","8.9","","","180","South","10","6","1030","30.41","-999","-999","-9999","-9999","","","Overcast","cloudy","0","0","0","0","0","0","AAXX 19181 33345 32497 81804 10042 20025 30087 40296 51002 886// 333 10068 88714 555 11004"
"8:00 PM EET on November 19, 2016","2016","11","19","20","00","Europe/Kiev","6:00 PM GMT on November 19, 2016","2016","11","19","18","00","UTC","5.0","41.0","3.0","37.4","87","14.4","8.9","-9999.0","-9999.0","160","SSE","10.0","6.2","1028","30.36","1.9","35.4","-9999","-9999","-9999.00","-9999.00","Overcast","cloudy","0","0","0","0","0","0","METAR UKKK 191800Z 16004MPS 120V200 9999 OVC011 05/03 Q1028 R08/290050 NOSIG"
"8:30 PM EET on November 19, 2016","2016","11","19","20","30","Europe/Kiev","6:30 PM GMT on November 19, 2016","2016","11","19","18","30","UTC","4.0","39.2","2.0","35.6","87","14.4","8.9","-9999.0","-9999.0","150","SSE","10.0","6.2","1028","30.36","0.6","33.1","-9999","-9999","-9999.00","-9999.00","Overcast","cloudy","0","0","0","0","0","0","METAR UKKK 191830Z 15004MPS 110V180 9999 OVC010 04/02 Q1028 R08/290050 NOSIG"
"9:00 PM EET on November 19, 2016","2016","11","19","21","00","Europe/Kiev","7:00 PM GMT on November 19, 2016","2016","11","19","19","00","UTC","4.0","39.2","2.0","35.6","87","14.4","8.9","32.4","20.1","150","SSE","10.0","6.2","1028","30.36","0.6","33.1","-9999","-9999","-9999.00","-9999.00","Overcast","cloudy","0","0","0","0","0","0","METAR UKKK 191900Z 15004G09MPS 110V220 9999 OVC009 04/02 Q1028 R08/290050 NOSIG"
"9:30 PM EET on November 19, 2016","2016","11","19","21","30","Europe/Kiev","7:30 PM GMT on November 19, 2016","2016","11","19","19","30","UTC","4.0","39.2","2.0","35.6","87","18.0","11.2","-9999.0","-9999.0","160","SSE","10.0","6.2","1028","30.36","0.1","32.2","-9999","-9999","-9999.00","-9999.00","Overcast","cloudy","0","0","0","0","0","0","METAR UKKK 191930Z 16005MPS 120V190 9999 OVC009 04/02 Q1028 R08/290050 NOSIG"
"10:00 PM EET on November 19, 2016","2016","11","19","22","00","Europe/Kiev","8:00 PM GMT on November 19, 2016","2016","11","19","20","00","UTC","4.0","39.2","1.0","33.8","81","21.6","13.4","39.6","24.6","160","SSE","10.0","6.2","1028","30.36","-0.4","31.3","-9999","-9999","-9999.00","-9999.00","Overcast","cloudy","0","0","0","0","0","0","METAR UKKK 192000Z 16006G11MPS 120V210 9999 OVC009 04/01 Q1028 R08/290050 NOSIG"
"10:30 PM EET on November 19, 2016","2016","11","19","22","30","Europe/Kiev","8:30 PM GMT on November 19, 2016","2016","11","19","20","30","UTC","3.0","37.4","1.0","33.8","87","18.0","11.2","-9999.0","-9999.0","160","SSE","10.0","6.2","1028","30.36","-1.2","29.9","-9999","-9999","-9999.00","-9999.00","Overcast","cloudy","0","0","0","0","0","0","METAR UKKK 192030Z 16005MPS 120V190 9999 OVC007 03/01 Q1028 R08/290050 NOSIG"
"11:00 PM EET on November 19, 2016","2016","11","19","23","00","Europe/Kiev","9:00 PM GMT on November 19, 2016","2016","11","19","21","00","UTC","3","37","1","34","84","18.0","11.2","","","200","SSW","10","6","1030","30.42","-999","-999","-9999","-9999","","","Overcast","cloudy","0","0","0","0","0","0","AAXX 19211 33345 42497 82005 10026 20010 30089 40300 51002 886// 333 88710 555 11002"
"11:00 PM EET on November 19, 2016","2016","11","19","23","00","Europe/Kiev","9:00 PM GMT on November 19, 2016","2016","11","19","21","00","UTC","3.0","37.4","1.0","33.8","87","18.0","11.2","-9999.0","-9999.0","160","SSE","10.0","6.2","1029","30.39","-1.2","29.9","-9999","-9999","-9999.00","-9999.00","Overcast","cloudy","0","0","0","0","0","0","METAR UKKK 192100Z 16005MPS 120V200 9999 OVC007 03/01 Q1029 R08/290050 NOSIG"
"11:30 PM EET on November 19, 2016","2016","11","19","23","30","Europe/Kiev","9:30 PM GMT on November 19, 2016","2016","11","19","21","30","UTC","2.0","35.6","0.0","32.0","87","14.4","8.9","32.4","20.1","170","South","10.0","6.2","1029","30.39","-1.8","28.7","-9999","-9999","-9999.00","-9999.00","Overcast","cloudy","0","0","0","0","0","0","METAR UKKK 192130Z 17004G09MPS 110V240 9999 OVC007 02/00 Q1029 R08/290050 NOSIG"
"12:00 AM EET on November 20, 2016","2016","11","20","00","00","Europe/Kiev","10:00 PM GMT on November 19, 2016","2016","11","19","22","00","UTC","2.0","35.6","-1.0","30.2","81","21.6","13.4","-9999.0","-9999.0","170","South","10.0","6.2","1029","30.39","-2.9","26.8","-9999","-9999","-9999.00","-9999.00","Overcast","cloudy","0","0","0","0","0","0","METAR UKKK 192200Z 17006MPS 140V210 9999 OVC010 02/M01 Q1029 R08/290050 NOSIG"
"12:30 AM EET on November 20, 2016","2016","11","20","00","30","Europe/Kiev","10:30 PM GMT on November 19, 2016","2016","11","19","22","30","UTC","1.0","33.8","-1.0","30.2","87","21.6","13.4","39.6","24.6","160","SSE","10.0","6.2","1029","30.39","-4.2","24.5","-9999","-9999","-9999.00","-9999.00","Overcast","cloudy","0","0","0","0","0","0","METAR UKKK 192230Z 16006G11MPS 110V190 9999 OVC010 01/M01 Q1029 R08/290050 NOSIG"
"1:00 AM EET on November 20, 2016","2016","11","20","01","00","Europe/Kiev","11:00 PM GMT on November 19, 2016","2016","11","19","23","00","UTC","1.0","33.8","-1.0","30.2","87","18.0","11.2","-9999.0","-9999.0","160","SSE","10.0","6.2","1029","30.39","-3.7","25.4","-9999","-9999","-9999.00","-9999.00","Overcast","cloudy","0","0","0","0","0","0","METAR UKKK 192300Z 16005MPS 120V210 9999 OVC010 01/M01 Q1029 R08/290050 NOSIG"
"1:30 AM EET on November 20, 2016","2016","11","20","01","30","Europe/Kiev","11:30 PM GMT on November 19, 2016","2016","11","19","23","30","UTC","1.0","33.8","-1.0","30.2","87","18.0","11.2","-9999.0","-9999.0","170","South","10.0","6.2","1029","30.39","-3.7","25.4","-9999","-9999","-9999.00","-9999.00","Overcast","cloudy","0","0","0","0","0","0","METAR UKKK 192330Z 17005MPS 120V220 9999 OVC010 01/M01 Q1029 R08/290050 NOSIG"
"2:00 AM EET on November 20, 2016","2016","11","20","02","00","Europe/Kiev","12:00 AM GMT on November 20, 2016","2016","11","20","00","00","UTC","1","34","-1","30","80","18.0","11.2","","","190","South","10","6","1031","30.44","-999","-999","-9999","-9999","","","Overcast","cloudy","0","0","0","0","0","0","AAXX 20001 33345 32497 81905 10010 21010 30094 40306 53005 886// 333 88712 555 11001"
"2:00 AM EET on November 20, 2016","2016","11","20","02","00","Europe/Kiev","12:00 AM GMT on November 20, 2016","2016","11","20","00","00","UTC","1.0","33.8","-1.0","30.2","87","18.0","11.2","-9999.0","-9999.0","170","South","10.0","6.2","1029","30.39","-3.7","25.4","-9999","-9999","-9999.00","-9999.00","Overcast","cloudy","0","0","0","0","0","0","METAR UKKK 200000Z 17005MPS 120V220 9999 OVC010 01/M01 Q1029 R08/290050 NOSIG"
"2:30 AM EET on November 20, 2016","2016","11","20","02","30","Europe/Kiev","12:30 AM GMT on November 20, 2016","2016","11","20","00","30","UTC","1.0","33.8","-1.0","30.2","87","18.0","11.2","-9999.0","-9999.0","170","South","10.0","6.2","1029","30.39","-3.7","25.4","-9999","-9999","-9999.00","-9999.00","Overcast","cloudy","0","0","0","0","0","0","METAR UKKK 200030Z 17005MPS 130V210 9999 OVC010 01/M01 Q1029 R08/290050 NOSIG"
"3:00 AM EET on November 20, 2016","2016","11","20","03","00","Europe/Kiev","1:00 AM GMT on November 20, 2016","2016","11","20","01","00","UTC","1.0","33.8","-1.0","30.2","87","14.4","8.9","-9999.0","-9999.0","160","SSE","10.0","6.2","1029","30.39","-3.0","26.5","-9999","-9999","-9999.00","-9999.00","Overcast","cloudy","0","0","0","0","0","0","METAR UKKK 200100Z 16004MPS 130V190 9999 OVC010 01/M01 Q1029 R08/290050 NOSIG"
"3:30 AM EET on November 20, 2016","2016","11","20","03","30","Europe/Kiev","1:30 AM GMT on November 20, 2016","2016","11","20","01","30","UTC","1.0","33.8","0.0","32.0","93","14.4","8.9","-9999.0","-9999.0","150","SSE","10.0","6.2","1029","30.39","-3.0","26.5","-9999","-9999","-9999.00","-9999.00","Overcast","cloudy","0","0","0","0","0","0","METAR UKKK 200130Z 15004MPS 120V190 9999 OVC010 01/M00 Q1029 R08/290050 NOSIG"
"4:00 AM EET on November 20, 2016","2016","11","20","04","00","Europe/Kiev","2:00 AM GMT on November 20, 2016","2016","11","20","02","00","UTC","1.0","33.8","0.0","32.0","93","14.4","8.9","32.4","20.1","150","SSE","10.0","6.2","1029","30.39","-3.0","26.5","-9999","-9999","-9999.00","-9999.00","Overcast","cloudy","0","0","0","0","0","0","METAR UKKK 200200Z 15004G09MPS 110V190 9999 OVC010 01/M00 Q1029 R08/290050 NOSIG"
"4:30 AM EET on November 20, 2016","2016","11","20","04","30","Europe/Kiev","2:30 AM GMT on November 20, 2016","2016","11","20","02","30","UTC","1.0","33.8","0.0","32.0","93","18.0","11.2","-9999.0","-9999.0","150","SSE","10.0","6.2","1029","30.39","-3.7","25.4","-9999","-9999","-9999.00","-9999.00","Overcast","cloudy","0","0","0","0","0","0","METAR UKKK 200230Z 15005MPS 120V180 9999 OVC009 01/M00 Q1029 R08/290050 NOSIG"
"5:00 AM EET on November 20, 2016","2016","11","20","05","00","Europe/Kiev","3:00 AM GMT on November 20, 2016","2016","11","20","03","00","UTC","1","34","-0","31","86","21.6","13.4","","","190","South","10","6","1030","30.42","-999","-999","-9999","-9999","","","Overcast","cloudy","0","0","0","0","0","0","AAXX 20031 33345 42397 81906 10010 21004 30089 40301 58005 886// 333 88709 555 11001"
"5:00 AM EET on November 20, 2016","2016","11","20","05","00","Europe/Kiev","3:00 AM GMT on November 20, 2016","2016","11","20","03","00","UTC","1.0","33.8","0.0","32.0","93","18.0","11.2","-9999.0","-9999.0","150","SSE","10.0","6.2","1028","30.36","-3.7","25.4","-9999","-9999","-9999.00","-9999.00","Overcast","cloudy","0","0","0","0","0","0","METAR UKKK 200300Z 15005MPS 110V190 9999 OVC008 01/M00 Q1028 R08/290050 NOSIG"
"5:30 AM EET on November 20, 2016","2016","11","20","05","30","Europe/Kiev","3:30 AM GMT on November 20, 2016","2016","11","20","03","30","UTC","1.0","33.8","0.0","32.0","93","18.0","11.2","-9999.0","-9999.0","160","SSE","10.0","6.2","1028","30.36","-3.7","25.4","-9999","-9999","-9999.00","-9999.00","Overcast","cloudy","0","0","0","0","0","0","METAR UKKK 200330Z 16005MPS 100V230 9999 OVC008 01/M00 Q1028 R08/290050 NOSIG"
"6:00 AM EET on November 20, 2016","2016","11","20","06","00","Europe/Kiev","4:00 AM GMT on November 20, 2016","2016","11","20","04","00","UTC","1.0","33.8","0.0","32.0","93","14.4","8.9","-9999.0","-9999.0","150","SSE","10.0","6.2","1028","30.36","-3.0","26.5","-9999","-9999","-9999.00","-9999.00","Overcast","cloudy","0","0","0","0","0","0","METAR UKKK 200400Z 15004MPS 100V210 9999 OVC008 01/M00 Q1028 R08/290050 NOSIG"
"6:30 AM EET on November 20, 2016","2016","11","20","06","30","Europe/Kiev","4:30 AM GMT on November 20, 2016","2016","11","20","04","30","UTC","1.0","33.8","0.0","32.0","93","14.4","8.9","-9999.0","-9999.0","150","SSE","9.0","5.6","1029","30.39","-3.0","26.5","-9999","-9999","-9999.00","-9999.00","Overcast","cloudy","0","0","0","0","0","0","METAR UKKK 200430Z 15004MPS 110V240 9000 OVC008 01/M00 Q1029 R08/290050 NOSIG"
"7:00 AM EET on November 20, 2016","2016","11","20","07","00","Europe/Kiev","5:00 AM GMT on November 20, 2016","2016","11","20","05","00","UTC","1.0","33.8","0.0","32.0","93","14.4","8.9","32.4","20.1","150","SSE","7.0","4.3","1029","30.39","-3.0","26.5","-9999","-9999","-9999.00","-9999.00","Overcast","cloudy","0","0","0","0","0","0","METAR UKKK 200500Z 15004G09MPS 100V190 7000 OVC007 01/M00 Q1029 R08/290050 TEMPO 2000 BR OVC005"
"7:30 AM EET on November 20, 2016","2016","11","20","07","30","Europe/Kiev","5:30 AM GMT on November 20, 2016","2016","11","20","05","30","UTC","1.0","33.8","0.0","32.0","93","14.4","8.9","-9999.0","-9999.0","150","SSE","5.0","3.1","1029","30.39","-3.0","26.5","-9999","-9999","-9999.00","-9999.00","Overcast","cloudy","0","0","0","0","0","0","METAR UKKK 200530Z 15004MPS 120V190 5000 BR OVC006 01/M00 Q1029 R08/290050 TEMPO 2000 BR OVC005"
"8:00 AM EET on November 20, 2016","2016","11","20","08","00","Europe/Kiev","6:00 AM GMT on November 20, 2016","2016","11","20","06","00","UTC","1","34","-0","31","86","18.0","11.2","","","200","SSW","10","6","1031","30.44","-999","-999","-9999","-9999","","","Overcast","cloudy","0","0","0","0","0","0","AAXX 20061 33345 32397 82005 10010 21004 30094 40306 53005 886// 333 20008 88709 555 11001"
"8:00 AM EET on November 20, 2016","2016","11","20","08","00","Europe/Kiev","6:00 AM GMT on November 20, 2016","2016","11","20","06","00","UTC","1.0","33.8","0.0","32.0","93","18.0","11.2","-9999.0","-9999.0","160","SSE","10.0","6.2","1029","30.39","-3.7","25.4","-9999","-9999","-9999.00","-9999.00","Overcast","cloudy","0","0","0","0","0","0","METAR UKKK 200600Z 16005MPS 130V200 9999 OVC008 01/M00 Q1029 R08/290045 TEMPO OVC005"
"8:30 AM EET on November 20, 2016","2016","11","20","08","30","Europe/Kiev","6:30 AM GMT on November 20, 2016","2016","11","20","06","30","UTC","1.0","33.8","-1.0","30.2","87","14.4","8.9","-9999.0","-9999.0","170","South","10.0","6.2","1029","30.39","-3.0","26.5","-9999","-9999","-9999.00","-9999.00","Overcast","cloudy","0","0","0","0","0","0","METAR UKKK 200630Z 17004MPS 130V210 9999 OVC009 01/M01 Q1029 R08/290045 TEMPO OVC005"
"9:00 AM EET on November 20, 2016","2016","11","20","09","00","Europe/Kiev","7:00 AM GMT on November 20, 2016","2016","11","20","07","00","UTC","2.0","35.6","-1.0","30.2","81","14.4","8.9","-9999.0","-9999.0","170","South","10.0","6.2","1030","30.42","-1.8","28.7","-9999","-9999","-9999.00","-9999.00","Overcast","cloudy","0","0","0","0","0","0","METAR UKKK 200700Z 17004MPS 130V230 9999 OVC010 02/M01 Q1030 R08/290045 TEMPO OVC005"
"9:30 AM EET on November 20, 2016","2016","11","20","09","30","Europe/Kiev","7:30 AM GMT on November 20, 2016","2016","11","20","07","30","UTC","2.0","35.6","-1.0","30.2","81","18.0","11.2","-9999.0","-9999.0","160","SSE","10.0","6.2","1029","30.39","-2.4","27.7","-9999","-9999","-9999.00","-9999.00","Overcast","cloudy","0","0","0","0","0","0","METAR UKKK 200730Z 16005MPS 100V190 9999 OVC010 02/M01 Q1029 R08/290045 NOSIG"
"10:00 AM EET on November 20, 2016","2016","11","20","10","00","Europe/Kiev","8:00 AM GMT on November 20, 2016","2016","11","20","08","00","UTC","2.0","35.6","0.0","32.0","87","14.4","8.9","-9999.0","-9999.0","180","South","10.0","6.2","1030","30.42","-1.8","28.7","-9999","-9999","-9999.00","-9999.00","Overcast","cloudy","0","0","0","0","0","0","METAR UKKK 200800Z 18004MPS 140V220 9999 OVC010 02/M00 Q1030 R08/290045 NOSIG"
"10:30 AM EET on November 20, 2016","2016","11","20","10","30","Europe/Kiev","8:30 AM GMT on November 20, 2016","2016","11","20","08","30","UTC","2.0","35.6","0.0","32.0","87","18.0","11.2","-9999.0","-9999.0","170","South","10.0","6.2","1030","30.42","-2.4","27.7","-9999","-9999","-9999.00","-9999.00","Mostly Cloudy","mostlycloudy","0","0","0","0","0","0","METAR UKKK 200830Z 17005MPS 130V210 9999 BKN012 02/M00 Q1030 R08/290045 NOSIG"
"11:00 AM EET on November 20, 2016","2016","11","20","11","00","Europe/Kiev","9:00 AM GMT on November 20, 2016","2016","11","20","09","00","UTC","3","37","-0","31","73","18.0","11.2","","","190","South","20","12","1031","30.45","-999","-999","-9999","-9999","","","Mostly Cloudy","mostlycloudy","0","0","0","0","0","0","AAXX 20091 33345 42498 61905 10027 21003 30099 40310 52005 86500 333 86617 555 11004"
"11:00 AM EET on November 20, 2016","2016","11","20","11","00","Europe/Kiev","9:00 AM GMT on November 20, 2016","2016","11","20","09","00","UTC","3.0","37.4","0.0","32.0","81","14.4","8.9","-9999.0","-9999.0","170","South","10.0","6.2","1030","30.42","-0.6","30.9","-9999","-9999","-9999.00","-9999.00","Mostly Cloudy","mostlycloudy","0","0","0","0","0","0","METAR UKKK 200900Z 17004MPS 120V250 9999 BKN013 03/M00 Q1030 R08/290045 NOSIG"
"11:30 AM EET on November 20, 2016","2016","11","20","11","30","Europe/Kiev","9:30 AM GMT on November 20, 2016","2016","11","20","09","30","UTC","3.0","37.4","0.0","32.0","81","10.8","6.7","-9999.0","-9999.0","160","SSE","10.0","6.2","1029","30.39","0.1","32.2","-9999","-9999","-9999.00","-9999.00","Mostly Cloudy","mostlycloudy","0","0","0","0","0","0","METAR UKKK 200930Z 16003MPS 100V210 9999 BKN013 03/M00 Q1029 R08/290045 NOSIG"
"12:00 PM EET on November 20, 2016","2016","11","20","12","00","Europe/Kiev","10:00 AM GMT on November 20, 2016","2016","11","20","10","00","UTC","3.0","37.4","0.0","32.0","81","18.0","11.2","-9999.0","-9999.0","150","SSE","10.0","6.2","1029","30.39","-1.2","29.9","-9999","-9999","-9999.00","-9999.00","Mostly Cloudy","mostlycloudy","0","0","0","0","0","0","METAR UKKK 201000Z 15005MPS 120V180 9999 BKN014 03/M00 Q1029 R08/290045 NOSIG"
"12:30 PM EET on November 20, 2016","2016","11","20","12","30","Europe/Kiev","10:30 AM GMT on November 20, 2016","2016","11","20","10","30","UTC","5.0","41.0","0.0","32.0","70","14.4","8.9","-9999.0","-9999.0","150","SSE","10.0","6.2","1029","30.39","1.9","35.4","-9999","-9999","-9999.00","-9999.00","Mostly Cloudy","mostlycloudy","0","0","0","0","0","0","METAR UKKK 201030Z 15004MPS 110V200 9999 BKN014 05/00 Q1029 R08/290045 NOSIG"
"1:00 PM EET on November 20, 2016","2016","11","20","13","00","Europe/Kiev","11:00 AM GMT on November 20, 2016","2016","11","20","11","00","UTC","3.0","37.4","0.0","32.0","81","14.4","8.9","-9999.0","-9999.0","170","South","10.0","6.2","1029","30.39","-0.6","30.9","-9999","-9999","-9999.00","-9999.00","Mostly Cloudy","mostlycloudy","0","0","0","0","0","0","METAR UKKK 201100Z 17004MPS 110V230 9999 BKN014 03/M00 Q1029 R08/290045 NOSIG"
"1:30 PM EET on November 20, 2016","2016","11","20","13","30","Europe/Kiev","11:30 AM GMT on November 20, 2016","2016","11","20","11","30","UTC","4.0","39.2","0.0","32.0","75","14.4","8.9","-9999.0","-9999.0","150","SSE","10.0","6.2","1029","30.39","0.6","33.1","-9999","-9999","-9999.00","-9999.00","Mostly Cloudy","mostlycloudy","0","0","0","0","0","0","METAR UKKK 201130Z 15004MPS 120V190 9999 BKN014 04/00 Q1029 R08/290045 NOSIG"
"2:00 PM EET on November 20, 2016","2016","11","20","14","00","Europe/Kiev","12:00 PM GMT on November 20, 2016","2016","11","20","12","00","UTC","4","40","1","33","68","10.8","6.7","","","170","South","20","12","1030","30.43","-999","-999","-9999","-9999","","","Partly Cloudy","partlycloudy","0","0","0","0","0","0","AAXX 20121 33345 32598 41703 10043 20006 30095 40304 58004 84500 555 11007"
"2:00 PM EET on November 20, 2016","2016","11","20","14","00","Europe/Kiev","12:00 PM GMT on November 20, 2016","2016","11","20","12","00","UTC","4.0","39.2","0.0","32.0","75","18.0","11.2","-9999.0","-9999.0","140","SE","10.0","6.2","1029","30.39","0.1","32.2","-9999","-9999","-9999.00","-9999.00","Mostly Cloudy","mostlycloudy","0","0","0","0","0","0","METAR UKKK 201200Z 14005MPS 110V180 9999 BKN016 04/00 Q1029 R08/290045 NOSIG"
"2:30 PM EET on November 20, 2016","2016","11","20","14","30","Europe/Kiev","12:30 PM GMT on November 20, 2016","2016","11","20","12","30","UTC","4.0","39.2","0.0","32.0","75","10.8","6.7","-9999.0","-9999.0","150","SSE","10.0","6.2","1029","30.39","1.3","34.4","-9999","-9999","-9999.00","-9999.00","Mostly Cloudy","mostlycloudy","0","0","0","0","0","0","METAR UKKK 201230Z 15003MPS 110V180 9999 BKN016 04/00 Q1029 R08/290045 NOSIG"
"3:00 PM EET on November 20, 2016","2016","11","20","15","00","Europe/Kiev","1:00 PM GMT on November 20, 2016","2016","11","20","13","00","UTC","4.0","39.2","0.0","32.0","75","14.4","8.9","-9999.0","-9999.0","140","SE","10.0","6.2","1030","30.42","0.6","33.1","-9999","-9999","-9999.00","-9999.00","Mostly Cloudy","mostlycloudy","0","0","0","0","0","0","METAR UKKK 201300Z 14004MPS 110V180 9999 BKN016 04/00 Q1030 R08/290045 NOSIG"
"3:30 PM EET on November 20, 2016","2016","11","20","15","30","Europe/Kiev","1:30 PM GMT on November 20, 2016","2016","11","20","13","30","UTC","4.0","39.2","0.0","32.0","75","10.8","6.7","-9999.0","-9999.0","140","SE","10.0","6.2","1030","30.42","1.3","34.4","-9999","-9999","-9999.00","-9999.00","Scattered Clouds","partlycloudy","0","0","0","0","0","0","METAR UKKK 201330Z 14003MPS 100V190 9999 SCT017 04/00 Q1030 R08/290045 NOSIG"
"4:00 PM EET on November 20, 2016","2016","11","20","16","00","Europe/Kiev","2:00 PM GMT on November 20, 2016","2016","11","20","14","00","UTC","3.0","37.4","0.0","32.0","81","10.8","6.7","-9999.0","-9999.0","130","SE","10.0","6.2","1030","30.42","0.1","32.2","-9999","-9999","-9999.00","-9999.00","Scattered Clouds","partlycloudy","0","0","0","0","0","0","METAR UKKK 201400Z 13003MPS 100V170 9999 SCT016 03/M00 Q1030 R08/290045 NOSIG"
"4:30 PM EET on November 20, 2016","2016","11","20","16","30","Europe/Kiev","2:30 PM GMT on November 20, 2016","2016","11","20","14","30","UTC","3.0","37.4","0.0","32.0","81","14.4","8.9","-9999.0","-9999.0","140","SE","9.0","5.6","1030","30.42","-0.6","30.9","-9999","-9999","-9999.00","-9999.00","Unknown","unknown","0","0","0","0","0","0","METAR UKKK 201430Z 14004MPS 120V180 9000 NSC 03/M00 Q1030 R08/290045 NOSIG"
"5:00 PM EET on November 20, 2016","2016","11","20","17","00","Europe/Kiev","3:00 PM GMT on November 20, 2016","2016","11","20","15","00","UTC","2","36","-1","31","74","10.8","6.7","","","180","South","20","12","1031","30.46","-999","-999","-9999","-9999","","","Scattered Clouds","partlycloudy","0","0","0","0","0","0","AAXX 20151 33345 42998 21803 10021 21007 30102 40313 53007 82030 555 11001"
"5:00 PM EET on November 20, 2016","2016","11","20","17","00","Europe/Kiev","3:00 PM GMT on November 20, 2016","2016","11","20","15","00","UTC","3.0","37.4","0.0","32.0","81","14.4","8.9","-9999.0","-9999.0","140","SE","-9999.0","-9999.0","1030","30.42","-0.6","30.9","-9999","-9999","-9999.00","-9999.00","Clear","clear","0","0","0","0","0","0","METAR UKKK 201500Z 14004MPS 120V180 CAVOK 03/M00 Q1030 R08/290045 NOSIG"
"5:30 PM EET on November 20, 2016","2016","11","20","17","30","Europe/Kiev","3:30 PM GMT on November 20, 2016","2016","11","20","15","30","UTC","3.0","37.4","0.0","32.0","81","14.4","8.9","-9999.0","-9999.0","150","SSE","-9999.0","-9999.0","1030","30.42","-0.6","30.9","-9999","-9999","-9999.00","-9999.00","Clear","clear","0","0","0","0","0","0","METAR UKKK 201530Z 15004MPS 100V190 CAVOK 03/M00 Q1030 R08/290045 NOSIG"
"6:00 PM EET on November 20, 2016","2016","11","20","18","00","Europe/Kiev","4:00 PM GMT on November 20, 2016","2016","11","20","16","00","UTC","2.0","35.6","-1.0","30.2","81","10.8","6.7","-9999.0","-9999.0","130","SE","-9999.0","-9999.0","1030","30.42","-1.1","30.0","-9999","-9999","-9999.00","-9999.00","Clear","clear","0","0","0","0","0","0","METAR UKKK 201600Z 13003MPS 090V160 CAVOK 02/M01 Q1030 R08/290045 NOSIG"
"6:30 PM EET on November 20, 2016","2016","11","20","18","30","Europe/Kiev","4:30 PM GMT on November 20, 2016","2016","11","20","16","30","UTC","2.0","35.6","-1.0","30.2","81","14.4","8.9","-9999.0","-9999.0","130","SE","9.0","5.6","1030","30.42","-1.8","28.7","-9999","-9999","-9999.00","-9999.00","Unknown","unknown","0","0","0","0","0","0","METAR UKKK 201630Z 13004MPS 9000 NSC 02/M01 Q1030 R08/290045 NOSIG"
"7:00 PM EET on November 20, 2016","2016","11","20","19","00","Europe/Kiev","5:00 PM GMT on November 20, 2016","2016","11","20","17","00","UTC","1.0","33.8","-1.0","30.2","87","14.4","8.9","-9999.0","-9999.0","130","SE","-9999.0","-9999.0","1030","30.42","-3.0","26.5","-9999","-9999","-9999.00","-9999.00","Clear","clear","0","0","0","0","0","0","METAR UKKK 201700Z 13004MPS CAVOK 01/M01 Q1030 R08/290045 NOSIG"
"7:30 PM EET on November 20, 2016","2016","11","20","19","30","Europe/Kiev","5:30 PM GMT on November 20, 2016","2016","11","20","17","30","UTC","1.0","33.8","-1.0","30.2","87","14.4","8.9","-9999.0","-9999.0","140","SE","9.0","5.6","1031","30.45","-3.0","26.5","-9999","-9999","-9999.00","-9999.00","Mostly Cloudy","mostlycloudy","0","0","0","0","0","0","METAR UKKK 201730Z 14004MPS 120V180 9000 SCT009 BKN200 01/M01 Q1031 R08/290045 TEMPO 2000 BR"
"8:00 PM EET on November 20, 2016","2016","11","20","20","00","Europe/Kiev","6:00 PM GMT on November 20, 2016","2016","11","20","18","00","UTC","0","33","-1","30","83","18.0","11.2","","","190","South","10","6","1032","30.48","-999","-999","-9999","-9999","","","Scattered Clouds","partlycloudy","0","0","0","0","0","0","AAXX 20181 33345 32997 21905 10005 21012 30107 40320 52005 82030 333 10050 555 11100"
"8:00 PM EET on November 20, 2016","2016","11","20","20","00","Europe/Kiev","6:00 PM GMT on November 20, 2016","2016","11","20","18","00","UTC","1.0","33.8","-1.0","30.2","87","10.8","6.7","-9999.0","-9999.0","150","SSE","9.0","5.6","1030","30.42","-2.3","27.9","-9999","-9999","-9999.00","-9999.00","Mostly Cloudy","mostlycloudy","0","0","0","0","0","0","METAR UKKK 201800Z 15003MPS 110V210 9000 SCT010 BKN200 01/M01 Q1030 R08/290045 TEMPO 2000 BR"
"8:30 PM EET on November 20, 2016","2016","11","20","20","30","Europe/Kiev","6:30 PM GMT on November 20, 2016","2016","11","20","18","30","UTC","1.0","33.8","-1.0","30.2","87","14.4","8.9","-9999.0","-9999.0","150","SSE","8.0","5.0","1031","30.45","-3.0","26.5","-9999","-9999","-9999.00","-9999.00","Mostly Cloudy","mostlycloudy","0","0","0","0","0","0","METAR UKKK 201830Z 15004MPS 8000 SCT008 BKN200 01/M01 Q1031 R08/290045 TEMPO 2000 BR"
"9:00 PM EET on November 20, 2016","2016","11","20","21","00","Europe/Kiev","7:00 PM GMT on November 20, 2016","2016","11","20","19","00","UTC","0.0","32.0","-1.0","30.2","93","10.8","6.7","-9999.0","-9999.0","160","SSE","7.0","4.3","1031","30.45","-3.5","25.7","-9999","-9999","-9999.00","-9999.00","Mostly Cloudy","mostlycloudy","0","0","0","0","0","0","METAR UKKK 201900Z 16003MPS 7000 BKN007 00/M01 Q1031 R08/290045 TEMPO 2000 BR"
"9:30 PM EET on November 20, 2016","2016","11","20","21","30","Europe/Kiev","7:30 PM GMT on November 20, 2016","2016","11","20","19","30","UTC","0.0","32.0","-2.0","28.4","87","18.0","11.2","-9999.0","-9999.0","150","SSE","7.0","4.3","1031","30.45","-4.9","23.2","-9999","-9999","-9999.00","-9999.00","Mostly Cloudy","mostlycloudy","0","0","0","0","0","0","METAR UKKK 201930Z 15005MPS 110V200 7000 BKN007 00/M02 Q1031 R08/290045 TEMPO 2000 BR"
"10:00 PM EET on November 20, 2016","2016","11","20","22","00","Europe/Kiev","8:00 PM GMT on November 20, 2016","2016","11","20","20","00","UTC","0.0","32.0","-2.0","28.4","87","18.0","11.2","-9999.0","-9999.0","150","SSE","5.0","3.1","1031","30.45","-4.9","23.2","-9999","-9999","-9999.00","-9999.00","Overcast","cloudy","0","0","0","0","0","0","METAR UKKK 202000Z 15005MPS 120V180 5000 BR OVC007 00/M02 Q1031 R08/290045 TEMPO 2000 BR"
"10:30 PM EET on November 20, 2016","2016","11","20","22","30","Europe/Kiev","8:30 PM GMT on November 20, 2016","2016","11","20","20","30","UTC","0.0","32.0","-2.0","28.4","87","10.8","6.7","-9999.0","-9999.0","150","SSE","6.0","3.7","1032","30.48","-3.5","25.7","-9999","-9999","-9999.00","-9999.00","Overcast","cloudy","0","0","0","0","0","0","METAR UKKK 202030Z 15003MPS 130V190 6000 OVC007 M00/M02 Q1032 R08/290045 TEMPO 1200 BR BKN003"
"11:00 PM EET on November 20, 2016","2016","11","20","23","00","Europe/Kiev","9:00 PM GMT on November 20, 2016","2016","11","20","21","00","UTC","-1","31","-2","28","82","21.6","13.4","","","190","South","4","2","1034","30.53","-999","-999","-9999","-9999","","","Mist","hazy","0","0","0","0","0","0","AAXX 20211 33345 41496 81906 11008 21024 30123 40337 52016 71011 886// 333 88710 555 11100"
"11:00 PM EET on November 20, 2016","2016","11","20","23","00","Europe/Kiev","9:00 PM GMT on November 20, 2016","2016","11","20","21","00","UTC","0.0","32.0","-2.0","28.4","87","10.8","6.7","-9999.0","-9999.0","160","SSE","5.0","3.1","1032","30.48","-3.5","25.7","-9999","-9999","-9999.00","-9999.00","Overcast","cloudy","0","0","0","0","0","0","METAR UKKK 202100Z 16003MPS 130V210 5000 BR OVC007 M00/M02 Q1032 R08/290045 TEMPO 1200 BR BKN003"
"11:30 PM EET on November 20, 2016","2016","11","20","23","30","Europe/Kiev","9:30 PM GMT on November 20, 2016","2016","11","20","21","30","UTC","0.0","32.0","-2.0","28.4","87","10.8","6.7","-9999.0","-9999.0","140","SE","5.0","3.1","1032","30.48","-3.5","25.7","-9999","-9999","-9999.00","-9999.00","Overcast","cloudy","0","0","0","0","0","0","METAR UKKK 202130Z 14003MPS 120V190 5000 BR OVC007 M00/M02 Q1032 R08/290045 TEMPO 1200 BR BKN003"
"12:00 AM EET on November 21, 2016","2016","11","21","00","00","Europe/Kiev","10:00 PM GMT on November 20, 2016","2016","11","20","22","00","UTC","-1.0","30.2","-3.0","26.6","86","14.4","8.9","-9999.0","-9999.0","140","SE","7.0","4.3","1032","30.48","-5.5","22.1","-9999","-9999","-9999.00","-9999.00","Overcast","cloudy","0","0","0","0","0","0","METAR UKKK 202200Z 14004MPS 100V180 7000 OVC007 M01/M03 Q1032 R08/290045 TEMPO 1200 BR BKN003"
"12:30 AM EET on November 21, 2016","2016","11","21","00","30","Europe/Kiev","10:30 PM GMT on November 20, 2016","2016","11","20","22","30","UTC","-1.0","30.2","-3.0","26.6","86","10.8","6.7","-9999.0","-9999.0","150","SSE","7.0","4.3","1033","30.51","-4.7","23.5","-9999","-9999","-9999.00","-9999.00","Overcast","cloudy","0","0","0","0","0","0","METAR UKKK 202230Z 15003MPS 100V190 7000 OVC007 M01/M03 Q1033 R08/290045 NOSIG"
"1:00 AM EET on November 21, 2016","2016","11","21","01","00","Europe/Kiev","11:00 PM GMT on November 20, 2016","2016","11","20","23","00","UTC","-1.0","30.2","-3.0","26.6","86","14.4","8.9","-9999.0","-9999.0","160","SSE","8.0","5.0","1033","30.51","-5.5","22.1","-9999","-9999","-9999.00","-9999.00","Overcast","cloudy","0","0","0","0","0","0","METAR UKKK 202300Z 16004MPS 120V210 8000 OVC007 M01/M03 Q1033 R08/290045 NOSIG"
"1:30 AM EET on November 21, 2016","2016","11","21","01","30","Europe/Kiev","11:30 PM GMT on November 20, 2016","2016","11","20","23","30","UTC","-1.0","30.2","-3.0","26.6","86","14.4","8.9","-9999.0","-9999.0","150","SSE","7.0","4.3","1033","30.51","-5.5","22.1","-9999","-9999","-9999.00","-9999.00","Overcast","cloudy","0","0","0","0","0","0","METAR UKKK 202330Z 15004MPS 120V190 7000 OVC007 M01/M03 Q1033 R08/290045 NOSIG"
"2:00 AM EET on November 21, 2016","2016","11","21","02","00","Europe/Kiev","12:00 AM GMT on November 21, 2016","2016","11","21","00","00","UTC","-2","29","-3","27","87","18.0","11.2","","","190","South","4","2","1034","30.55","-999","-999","-9999","-9999","","","Mist","hazy","0","0","0","0","0","0","AAXX 21001 33345 31396 81905 11016 21030 30130 40345 52007 71011 886// 333 88708 555 14100"
"2:00 AM EET on November 21, 2016","2016","11","21","02","00","Europe/Kiev","12:00 AM GMT on November 21, 2016","2016","11","21","00","00","UTC","-1.0","30.2","-3.0","26.6","86","14.4","8.9","-9999.0","-9999.0","140","SE","8.0","5.0","1033","30.51","-5.5","22.1","-9999","-9999","-9999.00","-9999.00","Overcast","cloudy","0","0","0","0","0","0","METAR UKKK 210000Z 14004MPS 110V170 8000 OVC007 M01/M03 Q1033 R08/290045 NOSIG"
"2:30 AM EET on November 21, 2016","2016","11","21","02","30","Europe/Kiev","12:30 AM GMT on November 21, 2016","2016","11","21","00","30","UTC","-1.0","30.2","-3.0","26.6","86","14.4","8.9","-9999.0","-9999.0","140","SE","9.0","5.6","1033","30.51","-5.5","22.1","-9999","-9999","-9999.00","-9999.00","Overcast","cloudy","0","0","0","0","0","0","METAR UKKK 210030Z 14004MPS 100V210 9000 OVC008 M01/M03 Q1033 R08/290045 NOSIG"
"3:00 AM EET on November 21, 2016","2016","11","21","03","00","Europe/Kiev","1:00 AM GMT on November 21, 2016","2016","11","21","01","00","UTC","-1.0","30.2","-3.0","26.6","86","14.4","8.9","-9999.0","-9999.0","140","SE","10.0","6.2","1033","30.51","-5.5","22.1","-9999","-9999","-9999.00","-9999.00","Overcast","cloudy","0","0","0","0","0","0","METAR UKKK 210100Z 14004MPS 110V180 9999 OVC008 M01/M03 Q1033 R08/290045 NOSIG"
"3:30 AM EET on November 21, 2016","2016","11","21","03","30","Europe/Kiev","1:30 AM GMT on November 21, 2016","2016","11","21","01","30","UTC","-1.0","30.2","-3.0","26.6","86","18.0","11.2","-9999.0","-9999.0","150","SSE","10.0","6.2","1033","30.51","-6.2","20.9","-9999","-9999","-9999.00","-9999.00","Overcast","cloudy","0","0","0","0","0","0","METAR UKKK 210130Z 15005MPS 120V190 9999 OVC008 M01/M03 Q1033 R08/290045 NOSIG"
"4:00 AM EET on November 21, 2016","2016","11","21","04","00","Europe/Kiev","2:00 AM GMT on November 21, 2016","2016","11","21","02","00","UTC","-1.0","30.2","-3.0","26.6","86","14.4","8.9","-9999.0","-9999.0","160","SSE","10.0","6.2","1033","30.51","-5.5","22.1","-9999","-9999","-9999.00","-9999.00","Overcast","cloudy","0","0","0","0","0","0","METAR UKKK 210200Z 16004MPS 110V210 9999 OVC009 M01/M03 Q1033 R08/290045 NOSIG"
"4:30 AM EET on November 21, 2016","2016","11","21","04","30","Europe/Kiev","2:30 AM GMT on November 21, 2016","2016","11","21","02","30","UTC","-1.0","30.2","-3.0","26.6","86","14.4","8.9","-9999.0","-9999.0","160","SSE","10.0","6.2","1033","30.51","-5.5","22.1","-9999","-9999","-9999.00","-9999.00","Overcast","cloudy","0","0","0","0","0","0","METAR UKKK 210230Z 16004MPS 120V200 9999 OVC009 M01/M03 Q1033 R08/290045 NOSIG"
"5:00 AM EET on November 21, 2016","2016","11","21","05","00","Europe/Kiev","3:00 AM GMT on November 21, 2016","2016","11","21","03","00","UTC","-1","30","-3","27","83","14.4","8.9","","","200","SSW","4","2","1035","30.56","-999","-999","-9999","-9999","","","Mist","hazy","0","0","0","0","0","0","AAXX 21031 33345 41396 82004 11012 21029 30133 40348 52003 71022 886// 333 88709 555 14100"
"5:00 AM EET on November 21, 2016","2016","11","21","05","00","Europe/Kiev","3:00 AM GMT on November 21, 2016","2016","11","21","03","00","UTC","-1.0","30.2","-3.0","26.6","86","14.4","8.9","-9999.0","-9999.0","150","SSE","10.0","6.2","1033","30.51","-5.5","22.1","-9999","-9999","-9999.00","-9999.00","Overcast","cloudy","0","0","0","0","0","0","METAR UKKK 210300Z 15004MPS 110V190 9999 OVC008 M01/M03 Q1033 R08/290045 NOSIG"
"5:30 AM EET on November 21, 2016","2016","11","21","05","30","Europe/Kiev","3:30 AM GMT on November 21, 2016","2016","11","21","03","30","UTC","-1.0","30.2","-3.0","26.6","86","14.4","8.9","-9999.0","-9999.0","150","SSE","10.0","6.2","1033","30.51","-5.5","22.1","-9999","-9999","-9999.00","-9999.00","Overcast","cloudy","0","0","0","0","0","0","METAR UKKK 210330Z 15004MPS 100V190 9999 OVC009 M01/M03 Q1033 R08/290045 NOSIG"
"6:00 AM EET on November 21, 2016","2016","11","21","06","00","Europe/Kiev","4:00 AM GMT on November 21, 2016","2016","11","21","04","00","UTC","-1.0","30.2","-3.0","26.6","86","10.8","6.7","-9999.0","-9999.0","150","SSE","10.0","6.2","1033","30.51","-4.7","23.5","-9999","-9999","-9999.00","-9999.00","Overcast","cloudy","0","0","0","0","0","0","METAR UKKK 210400Z 15003MPS 100V210 9999 OVC009 M01/M03 Q1033 R08/290045 NOSIG"
"6:30 AM EET on November 21, 2016","2016","11","21","06","30","Europe/Kiev","4:30 AM GMT on November 21, 2016","2016","11","21","04","30","UTC","-1.0","30.2","-3.0","26.6","86","10.8","6.7","-9999.0","-9999.0","150","SSE","10.0","6.2","1033","30.51","-4.7","23.5","-9999","-9999","-9999.00","-9999.00","Overcast","cloudy","0","0","0","0","0","0","METAR UKKK 210430Z 15003MPS 120V200 9999 OVC009 M01/M03 Q1033 R08/290045 NOSIG"
"7:00 AM EET on November 21, 2016","2016","11","21","07","00","Europe/Kiev","5:00 AM GMT on November 21, 2016","2016","11","21","05","00","UTC","0.0","32.0","-2.0","28.4","87","10.8","6.7","-9999.0","-9999.0","140","SE","10.0","6.2","1033","30.51","-3.5","25.7","-9999","-9999","-9999.00","-9999.00","Overcast","cloudy","0","0","0","0","0","0","METAR UKKK 210500Z 14003MPS 110V180 9999 OVC009 M00/M02 Q1033 R08/290045 NOSIG"
"7:30 AM EET on November 21, 2016","2016","11","21","07","30","Europe/Kiev","5:30 AM GMT on November 21, 2016","2016","11","21","05","30","UTC","0.0","32.0","-2.0","28.4","87","14.4","8.9","-9999.0","-9999.0","150","SSE","10.0","6.2","1033","30.51","-4.3","24.3","-9999","-9999","-9999.00","-9999.00","Overcast","cloudy","0","0","0","0","0","0","METAR UKKK 210530Z 15004MPS 120V210 9999 OVC009 M00/M02 Q1033 R08/290045 NOSIG"
"8:00 AM EET on November 21, 2016","2016","11","21","08","00","Europe/Kiev","6:00 AM GMT on November 21, 2016","2016","11","21","06","00","UTC","-0","31","-2","28","83","10.8","6.7","","","190","South","10","6","1035","30.58","-999","-999","-9999","-9999","","","Overcast","cloudy","0","0","0","0","0","0","AAXX 21061 33345 32497 81903 11005 21023 30140 40354 52007 886// 333 21017 88711 555 14100"
"8:00 AM EET on November 21, 2016","2016","11","21","08","00","Europe/Kiev","6:00 AM GMT on November 21, 2016","2016","11","21","06","00","UTC","0.0","32.0","-2.0","28.4","87","14.4","8.9","-9999.0","-9999.0","130","SE","10.0","6.2","1034","30.54","-4.3","24.3","-9999","-9999","-9999.00","-9999.00","Overcast","cloudy","0","0","0","0","0","0","METAR UKKK 210600Z 13004MPS 100V190 9999 OVC009 M00/M02 Q1034 R08/290045 NOSIG"
"8:30 AM EET on November 21, 2016","2016","11","21","08","30","Europe/Kiev","6:30 AM GMT on November 21, 2016","2016","11","21","06","30","UTC","0.0","32.0","-2.0","28.4","87","10.8","6.7","-9999.0","-9999.0","140","SE","10.0","6.2","1034","30.54","-3.5","25.7","-9999","-9999","-9999.00","-9999.00","Overcast","cloudy","0","0","0","0","0","0","METAR UKKK 210630Z 14003MPS 110V180 9999 OVC009 M00/M02 Q1034 R08/290045 NOSIG"
"9:00 AM EET on November 21, 2016","2016","11","21","09","00","Europe/Kiev","7:00 AM GMT on November 21, 2016","2016","11","21","07","00","UTC","0.0","32.0","-2.0","28.4","87","18.0","11.2","-9999.0","-9999.0","140","SE","10.0","6.2","1034","30.54","-4.9","23.2","-9999","-9999","-9999.00","-9999.00","Overcast","cloudy","0","0","0","0","0","0","METAR UKKK 210700Z 14005MPS 110V180 9999 OVC009 M00/M02 Q1034 R08/290045 NOSIG"
"9:30 AM EET on November 21, 2016","2016","11","21","09","30","Europe/Kiev","7:30 AM GMT on November 21, 2016","2016","11","21","07","30","UTC","0.0","32.0","-2.0","28.4","87","18.0","11.2","-9999.0","-9999.0","140","SE","10.0","6.2","1034","30.54","-4.9","23.2","-9999","-9999","-9999.00","-9999.00","Overcast","cloudy","0","0","0","0","0","0","METAR UKKK 210730Z 14005MPS 9999 OVC010 M00/M02 Q1034 R08/290045 NOSIG"
"10:00 AM EET on November 21, 2016","2016","11","21","10","00","Europe/Kiev","8:00 AM GMT on November 21, 2016","2016","11","21","08","00","UTC","0.0","32.0","-2.0","28.4","87","14.4","8.9","-9999.0","-9999.0","140","SE","10.0","6.2","1034","30.54","-4.3","24.3","-9999","-9999","-9999.00","-9999.00","Overcast","cloudy","0","0","0","0","0","0","METAR UKKK 210800Z 14004MPS 110V170 9999 OVC010 M00/M02 Q1034 R08/290045 NOSIG"
"10:30 AM EET on November 21, 2016","2016","11","21","10","30","Europe/Kiev","8:30 AM GMT on November 21, 2016","2016","11","21","08","30","UTC","0.0","32.0","-2.0","28.4","87","14.4","8.9","-9999.0","-9999.0","150","SSE","10.0","6.2","1034","30.54","-4.3","24.3","-9999","-9999","-9999.00","-9999.00","Overcast","cloudy","0","0","0","0","0","0","METAR UKKK 210830Z 15004MPS 120V180 9999 OVC010 M00/M02 Q1034 R08/290045 NOSIG"
"11:00 AM EET on November 21, 2016","2016","11","21","11","00","Europe/Kiev","9:00 AM GMT on November 21, 2016","2016","11","21","09","00","UTC","0","32","-2","28","79","10.8","6.7","","","180","South","10","6","1036","30.58","-999","-999","-9999","-9999","","","Overcast","cloudy","0","0","0","0","0","0","AAXX 21091 33345 42497 81803 10001 21022 30142 40356 52002 886// 333 88711 555 14100"
"11:00 AM EET on November 21, 2016","2016","11","21","11","00","Europe/Kiev","9:00 AM GMT on November 21, 2016","2016","11","21","09","00","UTC","0.0","32.0","-2.0","28.4","87","14.4","8.9","-9999.0","-9999.0","140","SE","10.0","6.2","1034","30.54","-4.3","24.3","-9999","-9999","-9999.00","-9999.00","Overcast","cloudy","0","0","0","0","0","0","METAR UKKK 210900Z 14004MPS 120V180 9999 OVC010 00/M02 Q1034 R08/290045 NOSIG"
"11:30 AM EET on November 21, 2016","2016","11","21","11","30","Europe/Kiev","9:30 AM GMT on November 21, 2016","2016","11","21","09","30","UTC","0.0","32.0","-2.0","28.4","87","14.4","8.9","-9999.0","-9999.0","150","SSE","10.0","6.2","1034","30.54","-4.3","24.3","-9999","-9999","-9999.00","-9999.00","Overcast","cloudy","0","0","0","0","0","0","METAR UKKK 210930Z 15004MPS 120V220 9999 OVC010 00/M02 Q1034 R08/290045 NOSIG"
"12:00 PM EET on November 21, 2016","2016","11","21","12","00","Europe/Kiev","10:00 AM GMT on November 21, 2016","2016","11","21","10","00","UTC","0.0","32.0","-2.0","28.4","87","10.8","6.7","-9999.0","-9999.0","160","SSE","10.0","6.2","1034","30.54","-3.5","25.7","-9999","-9999","-9999.00","-9999.00","Overcast","cloudy","0","0","0","0","0","0","METAR UKKK 211000Z 16003MPS 100V210 9999 OVC011 00/M02 Q1034 R08/290045 NOSIG"
"12:30 PM EET on November 21, 2016","2016","11","21","12","30","Europe/Kiev","10:30 AM GMT on November 21, 2016","2016","11","21","10","30","UTC","0.0","32.0","-2.0","28.4","87","14.4","8.9","-9999.0","-9999.0","130","SE","10.0","6.2","1034","30.54","-4.3","24.3","-9999","-9999","-9999.00","-9999.00","Overcast","cloudy","0","0","0","0","0","0","METAR UKKK 211030Z 13004MPS 9999 OVC011 00/M02 Q1034 R08/290045 NOSIG"
"1:00 PM EET on November 21, 2016","2016","11","21","13","00","Europe/Kiev","11:00 AM GMT on November 21, 2016","2016","11","21","11","00","UTC","0.0","32.0","-2.0","28.4","87","14.4","8.9","-9999.0","-9999.0","130","SE","10.0","6.2","1034","30.54","-4.3","24.3","-9999","-9999","-9999.00","-9999.00","Overcast","cloudy","0","0","0","0","0","0","METAR UKKK 211100Z 13004MPS 9999 OVC010 00/M02 Q1034 R08/290045 NOSIG"
"1:30 PM EET on November 21, 2016","2016","11","21","13","30","Europe/Kiev","11:30 AM GMT on November 21, 2016","2016","11","21","11","30","UTC","0.0","32.0","-2.0","28.4","87","14.4","8.9","-9999.0","-9999.0","140","SE","10.0","6.2","1034","30.54","-4.3","24.3","-9999","-9999","-9999.00","-9999.00","Overcast","cloudy","0","0","0","0","0","0","METAR UKKK 211130Z 14004MPS 110V190 9999 OVC011 00/M02 Q1034 R08/290045 NOSIG"
"2:00 PM EET on November 21, 2016","2016","11","21","14","00","Europe/Kiev","12:00 PM GMT on November 21, 2016","2016","11","21","12","00","UTC","0","33","-2","28","76","10.8","6.7","","","180","South","10","6","1035","30.57","-999","-999","-9999","-9999","","","Overcast","cloudy","0","0","0","0","0","0","AAXX 21121 33345 32497 81803 10003 21021 30137 40350 58005 886// 333 88712 555 14100"
"2:00 PM EET on November 21, 2016","2016","11","21","14","00","Europe/Kiev","12:00 PM GMT on November 21, 2016","2016","11","21","12","00","UTC","0.0","32.0","-2.0","28.4","87","10.8","6.7","-9999.0","-9999.0","140","SE","10.0","6.2","1034","30.54","-3.5","25.7","-9999","-9999","-9999.00","-9999.00","Overcast","cloudy","0","0","0","0","0","0","METAR UKKK 211200Z 14003MPS 110V180 9999 OVC011 00/M02 Q1034 R08/290045 NOSIG"
"2:30 PM EET on November 21, 2016","2016","11","21","14","30","Europe/Kiev","12:30 PM GMT on November 21, 2016","2016","11","21","12","30","UTC","0.0","32.0","-2.0","28.4","87","14.4","8.9","-9999.0","-9999.0","150","SSE","10.0","6.2","1034","30.54","-4.3","24.3","-9999","-9999","-9999.00","-9999.00","Overcast","cloudy","0","0","0","0","0","0","METAR UKKK 211230Z 15004MPS 120V180 9999 OVC011 00/M02 Q1034 R08/290045 NOSIG"
"3:00 PM EET on November 21, 2016","2016","11","21","15","00","Europe/Kiev","1:00 PM GMT on November 21, 2016","2016","11","21","13","00","UTC","0.0","32.0","-2.0","28.4","87","14.4","8.9","-9999.0","-9999.0","150","SSE","10.0","6.2","1034","30.54","-4.3","24.3","-9999","-9999","-9999.00","-9999.00","Overcast","cloudy","0","0","0","0","0","0","METAR UKKK 211300Z 15004MPS 120V180 9999 OVC011 00/M02 Q1034 R08/290045 NOSIG"
"3:30 PM EET on November 21, 2016","2016","11","21","15","30","Europe/Kiev","1:30 PM GMT on November 21, 2016","2016","11","21","13","30","UTC","0.0","32.0","-2.0","28.4","87","14.4","8.9","-9999.0","-9999.0","130","SE","9.0","5.6","1034","30.54","-4.3","24.3","-9999","-9999","-9999.00","-9999.00","Overcast","cloudy","0","0","0","0","0","0","METAR UKKK 211330Z 13004MPS 100V170 9000 OVC010 00/M02 Q1034 R08/290045 NOSIG"
"4:00 PM EET on November 21, 2016","2016","11","21","16","00","Europe/Kiev","2:00 PM GMT on November 21, 2016","2016","11","21","14","00","UTC","0.0","32.0","-2.0","28.4","87","14.4","8.9","-9999.0","-9999.0","130","SE","10.0","6.2","1034","30.54","-4.3","24.3","-9999","-9999","-9999.00","-9999.00","Overcast","cloudy","0","0","0","0","0","0","METAR UKKK 211400Z 13004MPS 100V170 9999 OVC011 M00/M02 Q1034 R08/290045 NOSIG"
"4:30 PM EET on November 21, 2016","2016","11","21","16","30","Europe/Kiev","2:30 PM GMT on November 21, 2016","2016","11","21","14","30","UTC","0.0","32.0","-2.0","28.4","87","10.8","6.7","-9999.0","-9999.0","140","SE","10.0","6.2","1034","30.54","-3.5","25.7","-9999","-9999","-9999.00","-9999.00","Overcast","cloudy","0","0","0","0","0","0","METAR UKKK 211430Z 14003MPS 110V170 9999 OVC011 M00/M02 Q1034 R08/290045 NOSIG"
"5:00 PM EET on November 21, 2016","2016","11","21","17","00","Europe/Kiev","3:00 PM GMT on November 21, 2016","2016","11","21","15","00","UTC","-0","32","-2","28","79","14.4","8.9","","","190","South","10","6","1035","30.58","-999","-999","-9999","-9999","","","Overcast","cloudy","0","0","0","0","0","0","AAXX 21151 33345 42497 81904 11001 21022 30140 40354 53003 886// 333 88712 555 14100"
"5:00 PM EET on November 21, 2016","2016","11","21","17","00","Europe/Kiev","3:00 PM GMT on November 21, 2016","2016","11","21","15","00","UTC","0.0","32.0","-3.0","26.6","80","14.4","8.9","-9999.0","-9999.0","130","SE","9.0","5.6","1034","30.54","-4.3","24.3","-9999","-9999","-9999.00","-9999.00","Overcast","cloudy","0","0","0","0","0","0","METAR UKKK 211500Z 13004MPS 110V170 9000 OVC011 M00/M03 Q1034 R08/290045 NOSIG"
"5:30 PM EET on November 21, 2016","2016","11","21","17","30","Europe/Kiev","3:30 PM GMT on November 21, 2016","2016","11","21","15","30","UTC","0.0","32.0","-3.0","26.6","80","14.4","8.9","-9999.0","-9999.0","150","SSE","10.0","6.2","1034","30.54","-4.3","24.3","-9999","-9999","-9999.00","-9999.00","Overcast","cloudy","0","0","0","0","0","0","METAR UKKK 211530Z 15004MPS 100V180 9999 OVC011 M00/M03 Q1034 R08/290045 NOSIG"
"6:00 PM EET on November 21, 2016","2016","11","21","18","00","Europe/Kiev","4:00 PM GMT on November 21, 2016","2016","11","21","16","00","UTC","0.0","32.0","-3.0","26.6","80","18.0","11.2","-9999.0","-9999.0","140","SE","10.0","6.2","1034","30.54","-4.9","23.2","-9999","-9999","-9999.00","-9999.00","Overcast","cloudy","0","0","0","0","0","0","METAR UKKK 211600Z 14005MPS 110V180 9999 OVC012 M00/M03 Q1034 R08/290045 NOSIG"
"6:30 PM EET on November 21, 2016","2016","11","21","18","30","Europe/Kiev","4:30 PM GMT on November 21, 2016","2016","11","21","16","30","UTC","0.0","32.0","-3.0","26.6","80","14.4","8.9","-9999.0","-9999.0","150","SSE","9.0","5.6","1034","30.54","-4.3","24.3","-9999","-9999","-9999.00","-9999.00","Overcast","cloudy","0","0","0","0","0","0","METAR UKKK 211630Z 15004MPS 100V180 9000 OVC015 M00/M03 Q1034 R08/290045 NOSIG"
"7:00 PM EET on November 21, 2016","2016","11","21","19","00","Europe/Kiev","5:00 PM GMT on November 21, 2016","2016","11","21","17","00","UTC","0.0","32.0","-3.0","26.6","80","10.8","6.7","-9999.0","-9999.0","150","SSE","10.0","6.2","1034","30.54","-3.5","25.7","-9999","-9999","-9999.00","-9999.00","Overcast","cloudy","0","0","0","0","0","0","METAR UKKK 211700Z 15003MPS 100V190 9999 OVC016 00/M03 Q1034 R08/290045 NOSIG"
"7:30 PM EET on November 21, 2016","2016","11","21","19","30","Europe/Kiev","5:30 PM GMT on November 21, 2016","2016","11","21","17","30","UTC","0.0","32.0","-3.0","26.6","80","10.8","6.7","-9999.0","-9999.0","150","SSE","10.0","6.2","1034","30.54","-3.5","25.7","-9999","-9999","-9999.00","-9999.00","Overcast","cloudy","0","0","0","0","0","0","METAR UKKK 211730Z 15003MPS 120V190 9999 OVC017 00/M03 Q1034 R08/290045 NOSIG"
"8:00 PM EET on November 21, 2016","2016","11","21","20","00","Europe/Kiev","6:00 PM GMT on November 21, 2016","2016","11","21","18","00","UTC","0","32","-3","27","76","14.4","8.9","","","200","SSW","20","12","1036","30.58","-999","-999","-9999","-9999","","","Mostly Cloudy","mostlycloudy","0","0","0","0","0","0","AAXX 21181 33345 32498 72004 10001 21026 30142 40356 52002 87500 333 10004 87619 555 14100"
"8:00 PM EET on November 21, 2016","2016","11","21","20","00","Europe/Kiev","6:00 PM GMT on November 21, 2016","2016","11","21","18","00","UTC","0.0","32.0","-3.0","26.6","80","10.8","6.7","-9999.0","-9999.0","170","South","10.0","6.2","1034","30.54","-3.5","25.7","-9999","-9999","-9999.00","-9999.00","Overcast","cloudy","0","0","0","0","0","0","METAR UKKK 211800Z 17003MPS 9999 OVC017 00/M03 Q1034 R08/290045 NOSIG"
"8:30 PM EET on November 21, 2016","2016","11","21","20","30","Europe/Kiev","6:30 PM GMT on November 21, 2016","2016","11","21","18","30","UTC","0.0","32.0","-3.0","26.6","80","7.2","4.5","-9999.0","-9999.0","160","SSE","10.0","6.2","1034","30.54","-2.5","27.6","-9999","-9999","-9999.00","-9999.00","Mostly Cloudy","mostlycloudy","0","0","0","0","0","0","METAR UKKK 211830Z 16002MPS 120V210 9999 SCT016 BKN200 M00/M03 Q1034 R08/290045 NOSIG"
"9:00 PM EET on November 21, 2016","2016","11","21","21","00","Europe/Kiev","7:00 PM GMT on November 21, 2016","2016","11","21","19","00","UTC","-1.0","30.2","-3.0","26.6","86","7.2","4.5","-9999.0","-9999.0","140","SE","9.0","5.6","1034","30.54","-3.6","25.5","-9999","-9999","-9999.00","-9999.00","Mostly Cloudy","mostlycloudy","0","0","0","0","0","0","METAR UKKK 211900Z 14002MPS 120V180 9000 SCT016 BKN200 M01/M03 Q1034 R08/290045 NOSIG"
"9:30 PM EET on November 21, 2016","2016","11","21","21","30","Europe/Kiev","7:30 PM GMT on November 21, 2016","2016","11","21","19","30","UTC","-1.0","30.2","-3.0","26.6","86","7.2","4.5","-9999.0","-9999.0","140","SE","10.0","6.2","1034","30.54","-3.6","25.5","-9999","-9999","-9999.00","-9999.00","Mostly Cloudy","mostlycloudy","0","0","0","0","0","0","METAR UKKK 211930Z 14002MPS 100V180 9999 SCT016 BKN200 M01/M03 Q1034 R08/290045 NOSIG"
"10:00 PM EET on November 21, 2016","2016","11","21","22","00","Europe/Kiev","8:00 PM GMT on November 21, 2016","2016","11","21","20","00","UTC","-1.0","30.2","-3.0","26.6","86","7.2","4.5","-9999.0","-9999.0","120","ESE","9.0","5.6","1034","30.54","-3.6","25.5","-9999","-9999","-9999.00","-9999.00","Unknown","unknown","0","0","0","0","0","0","METAR UKKK 212000Z 12002MPS 9000 NSC M01/M03 Q1034 R08/290045 TEMPO 2000 BR"
"10:30 PM EET on November 21, 2016","2016","11","21","22","30","Europe/Kiev","8:30 PM GMT on November 21, 2016","2016","11","21","20","30","UTC","-2.0","28.4","-3.0","26.6","93","7.2","4.5","-9999.0","-9999.0","120","ESE","9.0","5.6","1034","30.54","-4.8","23.4","-9999","-9999","-9999.00","-9999.00","Unknown","unknown","0","0","0","0","0","0","METAR UKKK 212030Z 12002MPS 9000 NSC M02/M03 Q1034 R08/290045 TEMPO 2000 BR"
"11:00 PM EET on November 21, 2016","2016","11","21","23","00","Europe/Kiev","9:00 PM GMT on November 21, 2016","2016","11","21","21","00","UTC","-2","28","-4","25","84","0.0","0.0","","","","","4","2","1036","30.59","-999","-999","-9999","-9999","","","Mist","hazy","0","0","0","0","0","0","AAXX 21211 33345 41996 00000 11025 21038 30141 40357 58001 71011 555 14101"
"11:00 PM EET on November 21, 2016","2016","11","21","23","00","Europe/Kiev","9:00 PM GMT on November 21, 2016","2016","11","21","21","00","UTC","-2.0","28.4","-3.0","26.6","93","10.8","6.7","-9999.0","-9999.0","120","ESE","-9999.0","-9999.0","1034","30.54","-5.9","21.4","-9999","-9999","-9999.00","-9999.00","Clear","clear","0","0","0","0","0","0","METAR UKKK 212100Z 12003MPS CAVOK M02/M03 Q1034 R08/290045 TEMPO 2000 BR"
"11:30 PM EET on November 21, 2016","2016","11","21","23","30","Europe/Kiev","9:30 PM GMT on November 21, 2016","2016","11","21","21","30","UTC","-2.0","28.4","-3.0","26.6","93","7.2","4.5","-9999.0","-9999.0","120","ESE","9.0","5.6","1034","30.54","-4.8","23.4","-9999","-9999","-9999.00","-9999.00","Unknown","unknown","0","0","0","0","0","0","METAR UKKK 212130Z 12002MPS 9000 NSC M02/M03 Q1034 R08/290045 TEMPO 2000 BR"
"12:00 AM EET on November 22, 2016","2016","11","22","00","00","Europe/Kiev","10:00 PM GMT on November 21, 2016","2016","11","21","22","00","UTC","-2.0","28.4","-3.0","26.6","93","7.2","4.5","-9999.0","-9999.0","110","ESE","6.0","3.7","1034","30.54","-4.8","23.4","-9999","-9999","-9999.00","-9999.00","Unknown","unknown","0","0","0","0","0","0","METAR UKKK 212200Z 11002MPS 6000 NSC M02/M03 Q1034 R08/290045 TEMPO 2000 BR"
"12:30 AM EET on November 22, 2016","2016","11","22","00","30","Europe/Kiev","10:30 PM GMT on November 21, 2016","2016","11","21","22","30","UTC","-2.0","28.4","-3.0","26.6","93","10.8","6.7","-9999.0","-9999.0","120","ESE","6.0","3.7","1034","30.54","-5.9","21.4","-9999","-9999","-9999.00","-9999.00","Unknown","unknown","0","0","0","0","0","0","METAR UKKK 212230Z 12003MPS 6000 NSC M02/M03 Q1034 R08/290045 TEMPO 2000 BR"
"1:00 AM EET on November 22, 2016","2016","11","22","01","00","Europe/Kiev","11:00 PM GMT on November 21, 2016","2016","11","21","23","00","UTC","-2.0","28.4","-3.0","26.6","93","10.8","6.7","-9999.0","-9999.0","120","ESE","9.0","5.6","1034","30.54","-5.9","21.4","-9999","-9999","-9999.00","-9999.00","Unknown","unknown","0","0","0","0","0","0","METAR UKKK 212300Z 12003MPS 9000 NSC M02/M03 Q1034 R08/290045 TEMPO 2000 BR"
"1:30 AM EET on November 22, 2016","2016","11","22","01","30","Europe/Kiev","11:30 PM GMT on November 21, 2016","2016","11","21","23","30","UTC","-2.0","28.4","-4.0","24.8","86","14.4","8.9","-9999.0","-9999.0","120","ESE","-9999.0","-9999.0","1034","30.54","-6.7","19.9","-9999","-9999","-9999.00","-9999.00","Clear","clear","0","0","0","0","0","0","METAR UKKK 212330Z 12004MPS 090V150 CAVOK M02/M04 Q1034 R08/290045 TEMPO 2000 BR"
"2:00 AM EET on November 22, 2016","2016","11","22","02","00","Europe/Kiev","12:00 AM GMT on November 22, 2016","2016","11","22","00","00","UTC","-3","27","-4","25","90","7.2","4.5","","","170","South","4","2","1035","30.58","-999","-999","-9999","-9999","","","Mist","hazy","0","0","0","0","0","0","AAXX 22001 33345 31996 01702 11028 21038 30138 40354 57003 71011 555 14101"
"2:00 AM EET on November 22, 2016","2016","11","22","02","00","Europe/Kiev","12:00 AM GMT on November 22, 2016","2016","11","22","00","00","UTC","-2.0","28.4","-4.0","24.8","86","10.8","6.7","-9999.0","-9999.0","120","ESE","-9999.0","-9999.0","1034","30.54","-5.9","21.4","-9999","-9999","-9999.00","-9999.00","Clear","clear","0","0","0","0","0","0","METAR UKKK 220000Z 12003MPS CAVOK M02/M04 Q1034 R08/290045 TEMPO 2000 BR"
"2:30 AM EET on November 22, 2016","2016","11","22","02","30","Europe/Kiev","12:30 AM GMT on November 22, 2016","2016","11","22","00","30","UTC","-2.0","28.4","-4.0","24.8","86","10.8","6.7","-9999.0","-9999.0","130","SE","-9999.0","-9999.0","1034","30.54","-5.9","21.4","-9999","-9999","-9999.00","-9999.00","Clear","clear","0","0","0","0","0","0","METAR UKKK 220030Z 13003MPS CAVOK M02/M04 Q1034 R08/290045 NOSIG"
"3:00 AM EET on November 22, 2016","2016","11","22","03","00","Europe/Kiev","1:00 AM GMT on November 22, 2016","2016","11","22","01","00","UTC","-2.0","28.4","-4.0","24.8","86","10.8","6.7","-9999.0","-9999.0","130","SE","-9999.0","-9999.0","1034","30.54","-5.9","21.4","-9999","-9999","-9999.00","-9999.00","Clear","clear","0","0","0","0","0","0","METAR UKKK 220100Z 13003MPS CAVOK M02/M04 Q1034 R08/290045 NOSIG"
"3:30 AM EET on November 22, 2016","2016","11","22","03","30","Europe/Kiev","1:30 AM GMT on November 22, 2016","2016","11","22","01","30","UTC","-2.0","28.4","-4.0","24.8","86","10.8","6.7","-9999.0","-9999.0","130","SE","-9999.0","-9999.0","1034","30.54","-5.9","21.4","-9999","-9999","-9999.00","-9999.00","Clear","clear","0","0","0","0","0","0","METAR UKKK 220130Z 13003MPS CAVOK M02/M04 Q1034 R08/290045 NOSIG"
"4:00 AM EET on November 22, 2016","2016","11","22","04","00","Europe/Kiev","2:00 AM GMT on November 22, 2016","2016","11","22","02","00","UTC","-2.0","28.4","-4.0","24.8","86","10.8","6.7","-9999.0","-9999.0","130","SE","10.0","6.2","1034","30.54","-5.9","21.4","-9999","-9999","-9999.00","-9999.00","Mostly Cloudy","mostlycloudy","0","0","0","0","0","0","METAR UKKK 220200Z 13003MPS 9999 BKN017 M02/M04 Q1034 R08/290045 NOSIG"
"4:30 AM EET on November 22, 2016","2016","11","22","04","30","Europe/Kiev","2:30 AM GMT on November 22, 2016","2016","11","22","02","30","UTC","-1.0","30.2","-4.0","24.8","80","14.4","8.9","-9999.0","-9999.0","140","SE","10.0","6.2","1034","30.54","-5.5","22.1","-9999","-9999","-9999.00","-9999.00","Overcast","cloudy","0","0","0","0","0","0","METAR UKKK 220230Z 14004MPS 110V170 9999 OVC015 M01/M04 Q1034 R08/290045 NOSIG"
"5:00 AM EET on November 22, 2016","2016","11","22","05","00","Europe/Kiev","3:00 AM GMT on November 22, 2016","2016","11","22","03","00","UTC","-2","29","-4","26","82","14.4","8.9","","","190","South","4","2","1035","30.58","-999","-999","-9999","-9999","","","Mist","hazy","0","0","0","0","0","0","AAXX 22031 33345 41496 81904 11015 21035 30138 40353 54000 71011 886// 333 88713 555 14101"
"5:00 AM EET on November 22, 2016","2016","11","22","05","00","Europe/Kiev","3:00 AM GMT on November 22, 2016","2016","11","22","03","00","UTC","-1.0","30.2","-4.0","24.8","80","14.4","8.9","-9999.0","-9999.0","140","SE","10.0","6.2","1034","30.54","-5.5","22.1","-9999","-9999","-9999.00","-9999.00","Overcast","cloudy","0","0","0","0","0","0","METAR UKKK 220300Z 14004MPS 110V180 9999 OVC012 M01/M04 Q1034 R08/290045 NOSIG"
"5:30 AM EET on November 22, 2016","2016","11","22","05","30","Europe/Kiev","3:30 AM GMT on November 22, 2016","2016","11","22","03","30","UTC","-1.0","30.2","-4.0","24.8","80","14.4","8.9","-9999.0","-9999.0","140","SE","10.0","6.2","1034","30.54","-5.5","22.1","-9999","-9999","-9999.00","-9999.00","Overcast","cloudy","0","0","0","0","0","0","METAR UKKK 220330Z 14004MPS 110V180 9999 OVC013 M01/M04 Q1034 R08/290045 NOSIG"
"6:00 AM EET on November 22, 2016","2016","11","22","06","00","Europe/Kiev","4:00 AM GMT on November 22, 2016","2016","11","22","04","00","UTC","-2.0","28.4","-4.0","24.8","86","14.4","8.9","-9999.0","-9999.0","140","SE","10.0","6.2","1034","30.54","-6.7","19.9","-9999","-9999","-9999.00","-9999.00","Overcast","cloudy","0","0","0","0","0","0","METAR UKKK 220400Z 14004MPS 120V210 9999 OVC012 M02/M04 Q1034 R08/290045 NOSIG"
"6:30 AM EET on November 22, 2016","2016","11","22","06","30","Europe/Kiev","4:30 AM GMT on November 22, 2016","2016","11","22","04","30","UTC","-2.0","28.4","-4.0","24.8","86","10.8","6.7","-9999.0","-9999.0","140","SE","10.0","6.2","1034","30.54","-5.9","21.4","-9999","-9999","-9999.00","-9999.00","Overcast","cloudy","0","0","0","0","0","0","METAR UKKK 220430Z 14003MPS 100V170 9999 OVC011 M02/M04 Q1034 R08/290045 NOSIG"
"7:00 AM EET on November 22, 2016","2016","11","22","07","00","Europe/Kiev","5:00 AM GMT on November 22, 2016","2016","11","22","05","00","UTC","-1.0","30.2","-4.0","24.8","80","14.4","8.9","-9999.0","-9999.0","140","SE","10.0","6.2","1034","30.54","-5.5","22.1","-9999","-9999","-9999.00","-9999.00","Overcast","cloudy","0","0","0","0","0","0","METAR UKKK 220500Z 14004MPS 110V180 9999 OVC010 M01/M04 Q1034 R08/290045 NOSIG"
"7:30 AM EET on November 22, 2016","2016","11","22","07","30","Europe/Kiev","5:30 AM GMT on November 22, 2016","2016","11","22","05","30","UTC","-1.0","30.2","-3.0","26.6","86","14.4","8.9","-9999.0","-9999.0","140","SE","10.0","6.2","1034","30.54","-5.5","22.1","-9999","-9999","-9999.00","-9999.00","Overcast","cloudy","0","0","0","0","0","0","METAR UKKK 220530Z 14004MPS 100V190 9999 OVC009 M01/M03 Q1034 R08/290045 NOSIG"
"8:00 AM EET on November 22, 2016","2016","11","22","08","00","Europe/Kiev","6:00 AM GMT on November 22, 2016","2016","11","22","06","00","UTC","-2","29","-3","26","84","18.0","11.2","","","190","South","4","2","1036","30.59","-999","-999","-9999","-9999","","","Mist","hazy","0","0","0","0","0","0","AAXX 22061 33345 31496 81905 11016 21033 30143 40358 53005 71011 886// 333 21031 88711 555 14101"
"8:00 AM EET on November 22, 2016","2016","11","22","08","00","Europe/Kiev","6:00 AM GMT on November 22, 2016","2016","11","22","06","00","UTC","-1.0","30.2","-3.0","26.6","86","14.4","8.9","-9999.0","-9999.0","140","SE","10.0","6.2","1034","30.54","-5.5","22.1","-9999","-9999","-9999.00","-9999.00","Overcast","cloudy","0","0","0","0","0","0","METAR UKKK 220600Z 14004MPS 120V180 9999 OVC009 M01/M03 Q1034 R08/290045 NOSIG"
"8:30 AM EET on November 22, 2016","2016","11","22","08","30","Europe/Kiev","6:30 AM GMT on November 22, 2016","2016","11","22","06","30","UTC","-1.0","30.2","-3.0","26.6","86","14.4","8.9","-9999.0","-9999.0","140","SE","10.0","6.2","1034","30.54","-5.5","22.1","-9999","-9999","-9999.00","-9999.00","Overcast","cloudy","0","0","0","0","0","0","METAR UKKK 220630Z 14004MPS 110V190 9999 OVC010 M01/M03 Q1034 R08/290045 NOSIG"
"9:00 AM EET on November 22, 2016","2016","11","22","09","00","Europe/Kiev","7:00 AM GMT on November 22, 2016","2016","11","22","07","00","UTC","-1.0","30.2","-3.0","26.6","86","10.8","6.7","-9999.0","-9999.0","140","SE","10.0","6.2","1034","30.54","-4.7","23.5","-9999","-9999","-9999.00","-9999.00","Overcast","cloudy","0","0","0","0","0","0","METAR UKKK 220700Z 14003MPS 110V180 9999 OVC009 M01/M03 Q1034 R08/290045 NOSIG"
"9:30 AM EET on November 22, 2016","2016","11","22","09","30","Europe/Kiev","7:30 AM GMT on November 22, 2016","2016","11","22","07","30","UTC","-2.0","28.4","-4.0","24.8","86","14.4","8.9","-9999.0","-9999.0","140","SE","10.0","6.2","1035","30.57","-6.7","19.9","-9999","-9999","-9999.00","-9999.00","Light Snow","snow","0","0","1","0","0","0","METAR UKKK 220730Z 14004MPS 110V200 9999 -SN OVC010 M02/M04 Q1035 R08/290045 NOSIG"
"10:00 AM EET on November 22, 2016","2016","11","22","10","00","Europe/Kiev","8:00 AM GMT on November 22, 2016","2016","11","22","08","00","UTC","-2.0","28.4","-4.0","24.8","86","10.8","6.7","-9999.0","-9999.0","150","SSE","10.0","6.2","1035","30.57","-5.9","21.4","-9999","-9999","-9999.00","-9999.00","Overcast","cloudy","0","0","0","0","0","0","METAR UKKK 220800Z 15003MPS 110V190 9999 OVC010 M02/M04 Q1035 R08/290045 NOSIG"
"10:30 AM EET on November 22, 2016","2016","11","22","10","30","Europe/Kiev","8:30 AM GMT on November 22, 2016","2016","11","22","08","30","UTC","-2.0","28.4","-4.0","24.8","86","14.4","8.9","-9999.0","-9999.0","130","SE","10.0","6.2","1035","30.57","-6.7","19.9","-9999","-9999","-9999.00","-9999.00","Overcast","cloudy","0","0","0","0","0","0","METAR UKKK 220830Z 13004MPS 100V170 9999 OVC009 M02/M04 Q1035 R08/290045 NOSIG"
"11:00 AM EET on November 22, 2016","2016","11","22","11","00","Europe/Kiev","9:00 AM GMT on November 22, 2016","2016","11","22","09","00","UTC","-2","28","-4","26","87","10.8","6.7","","","210","SSW","4","2","1037","30.61","-999","-999","-9999","-9999","","","Light Snow","snow","0","0","1","0","0","0","AAXX 22091 33345 41496 82103 11020 21035 30150 40366 52007 77172 8872/ 333 88712 555 14101"
"11:00 AM EET on November 22, 2016","2016","11","22","11","00","Europe/Kiev","9:00 AM GMT on November 22, 2016","2016","11","22","09","00","UTC","-2.0","28.4","-4.0","24.8","86","14.4","8.9","-9999.0","-9999.0","140","SE","10.0","6.2","1035","30.57","-6.7","19.9","-9999","-9999","-9999.00","-9999.00","Overcast","cloudy","0","0","0","0","0","0","METAR UKKK 220900Z 14004MPS 090V170 9999 OVC009 M02/M04 Q1035 R08/290045 NOSIG"
"11:30 AM EET on November 22, 2016","2016","11","22","11","30","Europe/Kiev","9:30 AM GMT on November 22, 2016","2016","11","22","09","30","UTC","-2.0","28.4","-4.0","24.8","86","10.8","6.7","-9999.0","-9999.0","140","SE","9.0","5.6","1035","30.57","-5.9","21.4","-9999","-9999","-9999.00","-9999.00","Overcast","cloudy","0","0","0","0","0","0","METAR UKKK 220930Z 14003MPS 110V210 9000 OVC009 M02/M04 Q1035 R08/290045 NOSIG"
"12:00 PM EET on November 22, 2016","2016","11","22","12","00","Europe/Kiev","10:00 AM GMT on November 22, 2016","2016","11","22","10","00","UTC","-2.0","28.4","-4.0","24.8","86","10.8","6.7","-9999.0","-9999.0","140","SE","9.0","5.6","1035","30.57","-5.9","21.4","-9999","-9999","-9999.00","-9999.00","Overcast","cloudy","0","0","0","0","0","0","METAR UKKK 221000Z 14003MPS 090V200 9000 OVC010 M02/M04 Q1035 R08/290045 NOSIG"
"12:30 PM EET on November 22, 2016","2016","11","22","12","30","Europe/Kiev","10:30 AM GMT on November 22, 2016","2016","11","22","10","30","UTC","-2.0","28.4","-4.0","24.8","86","10.8","6.7","-9999.0","-9999.0","140","SE","9.0","5.6","1034","30.54","-5.9","21.4","-9999","-9999","-9999.00","-9999.00","Overcast","cloudy","0","0","0","0","0","0","METAR UKKK 221030Z 14003MPS 100V180 9000 OVC009 M02/M04 Q1034 R08/290045 NOSIG"
"1:00 PM EET on November 22, 2016","2016","11","22","13","00","Europe/Kiev","11:00 AM GMT on November 22, 2016","2016","11","22","11","00","UTC","-2.0","28.4","-4.0","24.8","86","10.8","6.7","-9999.0","-9999.0","140","SE","8.0","5.0","1034","30.54","-5.9","21.4","-9999","-9999","-9999.00","-9999.00","Overcast","cloudy","0","0","0","0","0","0","METAR UKKK 221100Z 14003MPS 100V180 8000 OVC010 M02/M04 Q1034 R08/290045 NOSIG"
"1:30 PM EET on November 22, 2016","2016","11","22","13","30","Europe/Kiev","11:30 AM GMT on November 22, 2016","2016","11","22","11","30","UTC","-2.0","28.4","-4.0","24.8","86","10.8","6.7","-9999.0","-9999.0","150","SSE","9.0","5.6","1034","30.54","-5.9","21.4","-9999","-9999","-9999.00","-9999.00","Overcast","cloudy","0","0","0","0","0","0","METAR UKKK 221130Z 15003MPS 110V190 9000 OVC010 M02/M04 Q1034 R08/290045 NOSIG"
"2:00 PM EET on November 22, 2016","2016","11","22","14","00","Europe/Kiev","12:00 PM GMT on November 22, 2016","2016","11","22","12","00","UTC","-2","29","-4","25","79","14.4","8.9","","","190","South","10","6","1036","30.59","-999","-999","-9999","-9999","","","Partly Cloudy","partlycloudy","0","0","0","0","0","0","AAXX 22121 33345 /1497 81904 11018 21039 30144 40359 58006 70272 887// 333 88713 555 14100 69901"
"2:00 PM EET on November 22, 2016","2016","11","22","14","00","Europe/Kiev","12:00 PM GMT on November 22, 2016","2016","11","22","12","00","UTC","-2.0","28.4","-4.0","24.8","86","7.2","4.5","-9999.0","-9999.0","150","SSE","8.0","5.0","1034","30.54","-4.8","23.4","-9999","-9999","-9999.00","-9999.00","Overcast","cloudy","0","0","0","0","0","0","METAR UKKK 221200Z 15002MPS 110V190 8000 OVC010 M02/M04 Q1034 R08/290045 NOSIG"
"2:30 PM EET on November 22, 2016","2016","11","22","14","30","Europe/Kiev","12:30 PM GMT on November 22, 2016","2016","11","22","12","30","UTC","-2.0","28.4","-4.0","24.8","86","10.8","6.7","-9999.0","-9999.0","160","SSE","8.0","5.0","1034","30.54","-5.9","21.4","-9999","-9999","-9999.00","-9999.00","Overcast","cloudy","0","0","0","0","0","0","METAR UKKK 221230Z 16003MPS 110V190 8000 OVC011 M02/M04 Q1034 R08/290045 NOSIG"
"3:00 PM EET on November 22, 2016","2016","11","22","15","00","Europe/Kiev","1:00 PM GMT on November 22, 2016","2016","11","22","13","00","UTC","-2.0","28.4","-4.0","24.8","86","14.4","8.9","-9999.0","-9999.0","140","SE","9.0","5.6","1034","30.54","-6.7","19.9","-9999","-9999","-9999.00","-9999.00","Overcast","cloudy","0","0","0","0","0","0","METAR UKKK 221300Z 14004MPS 100V180 9000 OVC011 M02/M04 Q1034 R08/290045 NOSIG"
"3:30 PM EET on November 22, 2016","2016","11","22","15","30","Europe/Kiev","1:30 PM GMT on November 22, 2016","2016","11","22","13","30","UTC","-2.0","28.4","-4.0","24.8","86","10.8","6.7","-9999.0","-9999.0","140","SE","9.0","5.6","1034","30.54","-5.9","21.4","-9999","-9999","-9999.00","-9999.00","Overcast","cloudy","0","0","0","0","0","0","METAR UKKK 221330Z 14003MPS 110V180 9000 OVC011 M02/M04 Q1034 R08/290045 NOSIG"
"4:00 PM EET on November 22, 2016","2016","11","22","16","00","Europe/Kiev","2:00 PM GMT on November 22, 2016","2016","11","22","14","00","UTC","-2.0","28.4","-4.0","24.8","86","14.4","8.9","-9999.0","-9999.0","150","SSE","9.0","5.6","1034","30.54","-6.7","19.9","-9999","-9999","-9999.00","-9999.00","Overcast","cloudy","0","0","0","0","0","0","METAR UKKK 221400Z 15004MPS 110V190 9000 OVC011 M02/M04 Q1034 R08/290045 NOSIG"
"4:30 PM EET on November 22, 2016","2016","11","22","16","30","Europe/Kiev","2:30 PM GMT on November 22, 2016","2016","11","22","14","30","UTC","-2.0","28.4","-4.0","24.8","86","10.8","6.7","-9999.0","-9999.0","150","SSE","9.0","5.6","1034","30.54","-5.9","21.4","-9999","-9999","-9999.00","-9999.00","Overcast","cloudy","0","0","0","0","0","0","METAR UKKK 221430Z 15003MPS 120V190 9000 OVC011 M02/M04 Q1034 R08/290045 NOSIG"
"5:00 PM EET on November 22, 2016","2016","11","22","17","00","Europe/Kiev","3:00 PM GMT on November 22, 2016","2016","11","22","15","00","UTC","-2","29","-4","25","78","14.4","8.9","","","180","South","10","6","1036","30.60","-999","-999","-9999","-9999","","","Partly Cloudy","partlycloudy","0","0","0","0","0","0","AAXX 22151 33345 41497 81804 11019 21040 30146 40361 53002 70272 887// 333 88713 555 14101"
"5:00 PM EET on November 22, 2016","2016","11","22","17","00","Europe/Kiev","3:00 PM GMT on November 22, 2016","2016","11","22","15","00","UTC","-2.0","28.4","-5.0","23.0","80","10.8","6.7","-9999.0","-9999.0","170","South","9.0","5.6","1034","30.54","-5.9","21.4","-9999","-9999","-9999.00","-9999.00","Overcast","cloudy","0","0","0","0","0","0","METAR UKKK 221500Z 17003MPS 120V220 9000 OVC012 M02/M05 Q1034 R08/290045 NOSIG"
"5:30 PM EET on November 22, 2016","2016","11","22","17","30","Europe/Kiev","3:30 PM GMT on November 22, 2016","2016","11","22","15","30","UTC","-2.0","28.4","-4.0","24.8","86","10.8","6.7","-9999.0","-9999.0","150","SSE","10.0","6.2","1034","30.54","-5.9","21.4","-9999","-9999","-9999.00","-9999.00","Overcast","cloudy","0","0","0","0","0","0","METAR UKKK 221530Z 15003MPS 120V200 9999 OVC013 M02/M04 Q1034 R08/290045 NOSIG"
"6:00 PM EET on November 22, 2016","2016","11","22","18","00","Europe/Kiev","4:00 PM GMT on November 22, 2016","2016","11","22","16","00","UTC","-2.0","28.4","-5.0","23.0","80","10.8","6.7","-9999.0","-9999.0","150","SSE","10.0","6.2","1034","30.54","-5.9","21.4","-9999","-9999","-9999.00","-9999.00","Overcast","cloudy","0","0","0","0","0","0","METAR UKKK 221600Z 15003MPS 120V190 9999 OVC014 M02/M05 Q1034 R08/290045 NOSIG"
"6:30 PM EET on November 22, 2016","2016","11","22","18","30","Europe/Kiev","4:30 PM GMT on November 22, 2016","2016","11","22","16","30","UTC","-2.0","28.4","-5.0","23.0","80","10.8","6.7","-9999.0","-9999.0","140","SE","10.0","6.2","1034","30.54","-5.9","21.4","-9999","-9999","-9999.00","-9999.00","Overcast","cloudy","0","0","0","0","0","0","METAR UKKK 221630Z 14003MPS 110V180 9999 OVC015 M02/M05 Q1034 R08/290045 NOSIG"
"7:00 PM EET on November 22, 2016","2016","11","22","19","00","Europe/Kiev","5:00 PM GMT on November 22, 2016","2016","11","22","17","00","UTC","-2.0","28.4","-5.0","23.0","80","10.8","6.7","-9999.0","-9999.0","150","SSE","10.0","6.2","1035","30.57","-5.9","21.4","-9999","-9999","-9999.00","-9999.00","Overcast","cloudy","0","0","0","0","0","0","METAR UKKK 221700Z 15003MPS 110V210 9999 OVC017 M02/M05 Q1035 R08/290045 NOSIG"
"7:30 PM EET on November 22, 2016","2016","11","22","19","30","Europe/Kiev","5:30 PM GMT on November 22, 2016","2016","11","22","17","30","UTC","-2.0","28.4","-6.0","21.2","74","14.4","8.9","-9999.0","-9999.0","150","SSE","10.0","6.2","1035","30.57","-6.7","19.9","-9999","-9999","-9999.00","-9999.00","Overcast","cloudy","0","0","0","0","0","0","METAR UKKK 221730Z 15004MPS 120V180 9999 OVC018 M02/M06 Q1035 R08/290045 NOSIG"
"8:00 PM EET on November 22, 2016","2016","11","22","20","00","Europe/Kiev","6:00 PM GMT on November 22, 2016","2016","11","22","18","00","UTC","-2","28","-5","23","72","14.4","8.9","","","190","South","20","12","1036","30.61","-999","-999","-9999","-9999","","","Partly Cloudy","partlycloudy","0","0","0","0","0","0","AAXX 22181 33345 11498 81904 11020 21052 30147 40363 51001 69902 70272 885// 333 11014 88618 555 14101"
"8:00 PM EET on November 22, 2016","2016","11","22","20","00","Europe/Kiev","6:00 PM GMT on November 22, 2016","2016","11","22","18","00","UTC","-2.0","28.4","-6.0","21.2","74","14.4","8.9","-9999.0","-9999.0","160","SSE","10.0","6.2","1035","30.57","-6.7","19.9","-9999","-9999","-9999.00","-9999.00","Overcast","cloudy","0","0","0","0","0","0","METAR UKKK 221800Z 16004MPS 110V200 9999 OVC018 M02/M06 Q1035 R08/290045 NOSIG"
"8:30 PM EET on November 22, 2016","2016","11","22","20","30","Europe/Kiev","6:30 PM GMT on November 22, 2016","2016","11","22","18","30","UTC","-2.0","28.4","-6.0","21.2","74","10.8","6.7","-9999.0","-9999.0","160","SSE","10.0","6.2","1035","30.57","-5.9","21.4","-9999","-9999","-9999.00","-9999.00","Overcast","cloudy","0","0","0","0","0","0","METAR UKKK 221830Z 16003MPS 120V210 9999 OVC016 M02/M06 Q1035 R08/290045 NOSIG"
"9:00 PM EET on November 22, 2016","2016","11","22","21","00","Europe/Kiev","7:00 PM GMT on November 22, 2016","2016","11","22","19","00","UTC","-2.0","28.4","-5.0","23.0","80","10.8","6.7","-9999.0","-9999.0","170","South","10.0","6.2","1035","30.57","-5.9","21.4","-9999","-9999","-9999.00","-9999.00","Overcast","cloudy","0","0","0","0","0","0","METAR UKKK 221900Z 17003MPS 120V210 9999 OVC016 M02/M05 Q1035 R08/290045 NOSIG"
"9:30 PM EET on November 22, 2016","2016","11","22","21","30","Europe/Kiev","7:30 PM GMT on November 22, 2016","2016","11","22","19","30","UTC","-2.0","28.4","-5.0","23.0","80","14.4","8.9","-9999.0","-9999.0","170","South","10.0","6.2","1035","30.57","-6.7","19.9","-9999","-9999","-9999.00","-9999.00","Overcast","cloudy","0","0","0","0","0","0","METAR UKKK 221930Z 17004MPS 140V220 9999 OVC014 M02/M05 Q1035 R08/290045 NOSIG"
"10:00 PM EET on November 22, 2016","2016","11","22","22","00","Europe/Kiev","8:00 PM GMT on November 22, 2016","2016","11","22","20","00","UTC","-1.0","30.2","-5.0","23.0","75","10.8","6.7","-9999.0","-9999.0","160","SSE","10.0","6.2","1035","30.57","-4.7","23.5","-9999","-9999","-9999.00","-9999.00","Overcast","cloudy","0","0","0","0","0","0","METAR UKKK 222000Z 16003MPS 110V200 9999 OVC014 M01/M05 Q1035 R08/290045 NOSIG"
"10:30 PM EET on November 22, 2016","2016","11","22","22","30","Europe/Kiev","8:30 PM GMT on November 22, 2016","2016","11","22","20","30","UTC","-1.0","30.2","-4.0","24.8","80","10.8","6.7","-9999.0","-9999.0","170","South","10.0","6.2","1035","30.57","-4.7","23.5","-9999","-9999","-9999.00","-9999.00","Overcast","cloudy","0","0","0","0","0","0","METAR UKKK 222030Z 17003MPS 070V220 9999 OVC014 M01/M04 Q1035 R08/290045 NOSIG"
"11:00 PM EET on November 22, 2016","2016","11","22","23","00","Europe/Kiev","9:00 PM GMT on November 22, 2016","2016","11","22","21","00","UTC","-2","29","-4","24","75","10.8","6.7","","","190","South","20","12","1036","30.60","-999","-999","-9999","-9999","","","Overcast","cloudy","0","0","0","0","0","0","AAXX 22211 33345 42498 81903 11016 21043 30147 40362 54000 886// 333 88715 555 14101"
"11:00 PM EET on November 22, 2016","2016","11","22","23","00","Europe/Kiev","9:00 PM GMT on November 22, 2016","2016","11","22","21","00","UTC","-1.0","30.2","-4.0","24.8","80","10.8","6.7","-9999.0","-9999.0","170","South","10.0","6.2","1035","30.57","-4.7","23.5","-9999","-9999","-9999.00","-9999.00","Overcast","cloudy","0","0","0","0","0","0","METAR UKKK 222100Z 17003MPS 100V240 9999 OVC014 M01/M04 Q1035 R08/290045 NOSIG"
"11:30 PM EET on November 22, 2016","2016","11","22","23","30","Europe/Kiev","9:30 PM GMT on November 22, 2016","2016","11","22","21","30","UTC","-1.0","30.2","-4.0","24.8","80","10.8","6.7","-9999.0","-9999.0","160","SSE","10.0","6.2","1034","30.54","-4.7","23.5","-9999","-9999","-9999.00","-9999.00","Overcast","cloudy","0","0","0","0","0","0","METAR UKKK 222130Z 16003MPS 130V200 9999 OVC013 M01/M04 Q1034 R08/290045 NOSIG"
"12:00 AM EET on November 23, 2016","2016","11","23","00","00","Europe/Kiev","10:00 PM GMT on November 22, 2016","2016","11","22","22","00","UTC","-1.0","30.2","-4.0","24.8","80","7.2","4.5","-9999.0","-9999.0","160","SSE","10.0","6.2","1034","30.54","-3.6","25.5","-9999","-9999","-9999.00","-9999.00","Overcast","cloudy","0","0","0","0","0","0","METAR UKKK 222200Z 16002MPS 080V210 9999 OVC013 M01/M04 Q1034 R08/290045 NOSIG"
"12:30 AM EET on November 23, 2016","2016","11","23","00","30","Europe/Kiev","10:30 PM GMT on November 22, 2016","2016","11","22","22","30","UTC","-1.0","30.2","-4.0","24.8","80","10.8","6.7","-9999.0","-9999.0","160","SSE","10.0","6.2","1034","30.54","-4.7","23.5","-9999","-9999","-9999.00","-9999.00","Overcast","cloudy","0","0","0","0","0","0","METAR UKKK 222230Z 16003MPS 120V210 9999 OVC013 M01/M04 Q1034 R08/290045 NOSIG"
"1:00 AM EET on November 23, 2016","2016","11","23","01","00","Europe/Kiev","11:00 PM GMT on November 22, 2016","2016","11","22","23","00","UTC","-1.0","30.2","-4.0","24.8","80","10.8","6.7","-9999.0","-9999.0","160","SSE","10.0","6.2","1034","30.54","-4.7","23.5","-9999","-9999","-9999.00","-9999.00","Overcast","cloudy","0","0","0","0","0","0","METAR UKKK 222300Z 16003MPS 120V200 9999 OVC014 M01/M04 Q1034 R08/290045 NOSIG"
"1:30 AM EET on November 23, 2016","2016","11","23","01","30","Europe/Kiev","11:30 PM GMT on November 22, 2016","2016","11","22","23","30","UTC","-1.0","30.2","-4.0","24.8","80","10.8","6.7","-9999.0","-9999.0","170","South","10.0","6.2","1034","30.54","-4.7","23.5","-9999","-9999","-9999.00","-9999.00","Overcast","cloudy","0","0","0","0","0","0","METAR UKKK 222330Z 17003MPS 130V210 9999 OVC013 M01/M04 Q1034 R08/290045 NOSIG"
"2:00 AM EET on November 23, 2016","2016","11","23","02","00","Europe/Kiev","12:00 AM GMT on November 23, 2016","2016","11","23","00","00","UTC","-1","30","-3","26","78","10.8","6.7","","","200","SSW","20","12","1035","30.57","-999","-999","-9999","-9999","","","Overcast","cloudy","0","0","0","0","0","0","AAXX 23001 33345 32498 82003 11011 21034 30137 40352 58010 886// 333 88715 555 14101"
"2:00 AM EET on November 23, 2016","2016","11","23","02","00","Europe/Kiev","12:00 AM GMT on November 23, 2016","2016","11","23","00","00","UTC","-1.0","30.2","-4.0","24.8","80","10.8","6.7","-9999.0","-9999.0","170","South","10.0","6.2","1034","30.54","-4.7","23.5","-9999","-9999","-9999.00","-9999.00","Overcast","cloudy","0","0","0","0","0","0","METAR UKKK 230000Z 17003MPS 130V220 9999 OVC013 M01/M04 Q1034 R08/290045 NOSIG"
"2:30 AM EET on November 23, 2016","2016","11","23","02","30","Europe/Kiev","12:30 AM GMT on November 23, 2016","2016","11","23","00","30","UTC","-1.0","30.2","-4.0","24.8","80","10.8","6.7","-9999.0","-9999.0","170","South","10.0","6.2","1033","30.51","-4.7","23.5","-9999","-9999","-9999.00","-9999.00","Overcast","cloudy","0","0","0","0","0","0","METAR UKKK 230030Z 17003MPS 120V220 9999 OVC013 M01/M04 Q1033 R08/290045 NOSIG"
"3:00 AM EET on November 23, 2016","2016","11","23","03","00","Europe/Kiev","1:00 AM GMT on November 23, 2016","2016","11","23","01","00","UTC","-1.0","30.2","-4.0","24.8","80","10.8","6.7","-9999.0","-9999.0","170","South","10.0","6.2","1033","30.51","-4.7","23.5","-9999","-9999","-9999.00","-9999.00","Overcast","cloudy","0","0","0","0","0","0","METAR UKKK 230100Z 17003MPS 130V200 9999 OVC013 M01/M04 Q1033 R08/290045 NOSIG"
"3:30 AM EET on November 23, 2016","2016","11","23","03","30","Europe/Kiev","1:30 AM GMT on November 23, 2016","2016","11","23","01","30","UTC","-1.0","30.2","-4.0","24.8","80","7.2","4.5","-9999.0","-9999.0","180","South","10.0","6.2","1033","30.51","-3.6","25.5","-9999","-9999","-9999.00","-9999.00","Overcast","cloudy","0","0","0","0","0","0","METAR UKKK 230130Z 18002MPS 130V220 9999 OVC013 M01/M04 Q1033 R08/290045 NOSIG"
"4:00 AM EET on November 23, 2016","2016","11","23","04","00","Europe/Kiev","2:00 AM GMT on November 23, 2016","2016","11","23","02","00","UTC","-1.0","30.2","-4.0","24.8","80","10.8","6.7","-9999.0","-9999.0","190","South","10.0","6.2","1033","30.51","-4.7","23.5","-9999","-9999","-9999.00","-9999.00","Overcast","cloudy","0","0","0","0","0","0","METAR UKKK 230200Z 19003MPS 150V230 9999 OVC012 M01/M04 Q1033 R08/290045 NOSIG"
"4:30 AM EET on November 23, 2016","2016","11","23","04","30","Europe/Kiev","2:30 AM GMT on November 23, 2016","2016","11","23","02","30","UTC","-1.0","30.2","-4.0","24.8","80","10.8","6.7","-9999.0","-9999.0","170","South","10.0","6.2","1033","30.51","-4.7","23.5","-9999","-9999","-9999.00","-9999.00","Overcast","cloudy","0","0","0","0","0","0","METAR UKKK 230230Z 17003MPS 130V220 9999 OVC012 M01/M04 Q1033 R08/290045 NOSIG"
"5:00 AM EET on November 23, 2016","2016","11","23","05","00","Europe/Kiev","3:00 AM GMT on November 23, 2016","2016","11","23","03","00","UTC","-2","29","-4","26","82","10.8","6.7","","","200","SSW","10","6","1035","30.56","-999","-999","-9999","-9999","","","Overcast","cloudy","0","0","0","0","0","0","AAXX 23031 33345 42497 82003 11015 21035 30134 40349 57003 886// 333 88712 555 14101"
"5:00 AM EET on November 23, 2016","2016","11","23","05","00","Europe/Kiev","3:00 AM GMT on November 23, 2016","2016","11","23","03","00","UTC","-1.0","30.2","-4.0","24.8","80","7.2","4.5","-9999.0","-9999.0","180","South","10.0","6.2","1033","30.51","-3.6","25.5","-9999","-9999","-9999.00","-9999.00","Overcast","cloudy","0","0","0","0","0","0","METAR UKKK 230300Z 18002MPS 120V230 9999 OVC011 M01/M04 Q1033 R08/290045 NOSIG"
"5:30 AM EET on November 23, 2016","2016","11","23","05","30","Europe/Kiev","3:30 AM GMT on November 23, 2016","2016","11","23","03","30","UTC","-2.0","28.4","-4.0","24.8","86","10.8","6.7","-9999.0","-9999.0","170","South","10.0","6.2","1033","30.51","-5.9","21.4","-9999","-9999","-9999.00","-9999.00","Overcast","cloudy","0","0","0","0","0","0","METAR UKKK 230330Z 17003MPS 120V220 9999 OVC011 M02/M04 Q1033 R08/290045 NOSIG"
"6:00 AM EET on November 23, 2016","2016","11","23","06","00","Europe/Kiev","4:00 AM GMT on November 23, 2016","2016","11","23","04","00","UTC","-2.0","28.4","-4.0","24.8","86","10.8","6.7","-9999.0","-9999.0","170","South","10.0","6.2","1033","30.51","-5.9","21.4","-9999","-9999","-9999.00","-9999.00","Overcast","cloudy","0","0","0","0","0","0","METAR UKKK 230400Z 17003MPS 130V200 9999 OVC011 M02/M04 Q1033 R08/290045 NOSIG"
"6:30 AM EET on November 23, 2016","2016","11","23","06","30","Europe/Kiev","4:30 AM GMT on November 23, 2016","2016","11","23","04","30","UTC","-2.0","28.4","-4.0","24.8","86","10.8","6.7","-9999.0","-9999.0","190","South","10.0","6.2","1033","30.51","-5.9","21.4","-9999","-9999","-9999.00","-9999.00","Overcast","cloudy","0","0","0","0","0","0","METAR UKKK 230430Z 19003MPS 150V250 9999 OVC010 M02/M04 Q1033 R08/290045 NOSIG"
"7:00 AM EET on November 23, 2016","2016","11","23","07","00","Europe/Kiev","5:00 AM GMT on November 23, 2016","2016","11","23","05","00","UTC","-2.0","28.4","-4.0","24.8","86","10.8","6.7","-9999.0","-9999.0","180","South","10.0","6.2","1033","30.51","-5.9","21.4","-9999","-9999","-9999.00","-9999.00","Overcast","cloudy","0","0","0","0","0","0","METAR UKKK 230500Z 18003MPS 130V230 9999 OVC011 M02/M04 Q1033 R08/290045 NOSIG"
"7:30 AM EET on November 23, 2016","2016","11","23","07","30","Europe/Kiev","5:30 AM GMT on November 23, 2016","2016","11","23","05","30","UTC","-1.0","30.2","-4.0","24.8","80","10.8","6.7","-9999.0","-9999.0","180","South","10.0","6.2","1033","30.51","-4.7","23.5","-9999","-9999","-9999.00","-9999.00","Overcast","cloudy","0","0","0","0","0","0","METAR UKKK 230530Z 18003MPS 120V230 9999 OVC011 M01/M04 Q1033 R08/290045 NOSIG"
"8:00 AM EET on November 23, 2016","2016","11","23","08","00","Europe/Kiev","6:00 AM GMT on November 23, 2016","2016","11","23","06","00","UTC","-2","29","-4","25","78","10.8","6.7","","","220","SW","20","12","1035","30.57","-999","-999","-9999","-9999","","","Overcast","cloudy","0","0","0","0","0","0","AAXX 23061 33345 32498 82203 11016 21040 30136 40351 53002 886// 333 21020 88711 555 14101"
"8:00 AM EET on November 23, 2016","2016","11","23","08","00","Europe/Kiev","6:00 AM GMT on November 23, 2016","2016","11","23","06","00","UTC","-1.0","30.2","-4.0","24.8","80","10.8","6.7","-9999.0","-9999.0","160","SSE","10.0","6.2","1034","30.54","-4.7","23.5","-9999","-9999","-9999.00","-9999.00","Overcast","cloudy","0","0","0","0","0","0","METAR UKKK 230600Z 16003MPS 130V190 9999 OVC011 M01/M04 Q1034 R08/290045 NOSIG"
"8:30 AM EET on November 23, 2016","2016","11","23","08","30","Europe/Kiev","6:30 AM GMT on November 23, 2016","2016","11","23","06","30","UTC","-2.0","28.4","-4.0","24.8","86","10.8","6.7","-9999.0","-9999.0","190","South","10.0","6.2","1033","30.51","-5.9","21.4","-9999","-9999","-9999.00","-9999.00","Overcast","cloudy","0","0","0","0","0","0","METAR UKKK 230630Z 19003MPS 150V240 9999 OVC010 M02/M04 Q1033 R08/290045 NOSIG"
"9:00 AM EET on November 23, 2016","2016","11","23","09","00","Europe/Kiev","7:00 AM GMT on November 23, 2016","2016","11","23","07","00","UTC","-1.0","30.2","-4.0","24.8","80","7.2","4.5","-9999.0","-9999.0","160","SSE","10.0","6.2","1033","30.51","-3.6","25.5","-9999","-9999","-9999.00","-9999.00","Overcast","cloudy","0","0","0","0","0","0","METAR UKKK 230700Z 16002MPS 100V240 9999 OVC010 M01/M04 Q1033 R08/290045 NOSIG"
"9:30 AM EET on November 23, 2016","2016","11","23","09","30","Europe/Kiev","7:30 AM GMT on November 23, 2016","2016","11","23","07","30","UTC","-1.0","30.2","-4.0","24.8","80","10.8","6.7","-9999.0","-9999.0","150","SSE","10.0","6.2","1033","30.51","-4.7","23.5","-9999","-9999","-9999.00","-9999.00","Overcast","cloudy","0","0","0","0","0","0","METAR UKKK 230730Z 15003MPS 120V180 9999 OVC010 M01/M04 Q1033 R08/290045 NOSIG"
"10:00 AM EET on November 23, 2016","2016","11","23","10","00","Europe/Kiev","8:00 AM GMT on November 23, 2016","2016","11","23","08","00","UTC","-1.0","30.2","-4.0","24.8","80","10.8","6.7","-9999.0","-9999.0","180","South","10.0","6.2","1033","30.51","-4.7","23.5","-9999","-9999","-9999.00","-9999.00","Overcast","cloudy","0","0","0","0","0","0","METAR UKKK 230800Z 18003MPS 130V240 9999 OVC010 M01/M04 Q1033 R08/290045 NOSIG"
"10:30 AM EET on November 23, 2016","2016","11","23","10","30","Europe/Kiev","8:30 AM GMT on November 23, 2016","2016","11","23","08","30","UTC","-1.0","30.2","-4.0","24.8","80","10.8","6.7","-9999.0","-9999.0","180","South","10.0","6.2","1033","30.51","-4.7","23.5","-9999","-9999","-9999.00","-9999.00","Overcast","cloudy","0","0","0","0","0","0","METAR UKKK 230830Z 18003MPS 130V230 9999 OVC010 M01/M04 Q1033 R08/290045 NOSIG"
"11:00 AM EET on November 23, 2016","2016","11","23","11","00","Europe/Kiev","9:00 AM GMT on November 23, 2016","2016","11","23","09","00","UTC","-1","30","-3","26","80","7.2","4.5","","","210","SSW","20","12","1035","30.56","-999","-999","-9999","-9999","","","Overcast","cloudy","0","0","0","0","0","0","AAXX 23091 33345 42498 82102 11012 21032 30134 40349 58002 886// 333 88711 555 14101"
"11:00 AM EET on November 23, 2016","2016","11","23","11","00","Europe/Kiev","9:00 AM GMT on November 23, 2016","2016","11","23","09","00","UTC","-1.0","30.2","-4.0","24.8","80","10.8","6.7","-9999.0","-9999.0","190","South","10.0","6.2","1033","30.51","-4.7","23.5","-9999","-9999","-9999.00","-9999.00","Overcast","cloudy","0","0","0","0","0","0","METAR UKKK 230900Z 19003MPS 140V220 9999 OVC010 M01/M04 Q1033 R08/290045 NOSIG"
"11:30 AM EET on November 23, 2016","2016","11","23","11","30","Europe/Kiev","9:30 AM GMT on November 23, 2016","2016","11","23","09","30","UTC","-1.0","30.2","-4.0","24.8","80","7.2","4.5","-9999.0","-9999.0","170","South","10.0","6.2","1033","30.51","-3.6","25.5","-9999","-9999","-9999.00","-9999.00","Overcast","cloudy","0","0","0","0","0","0","METAR UKKK 230930Z 17002MPS 100V240 9999 OVC010 M01/M04 Q1033 R08/290045 NOSIG"
"12:00 PM EET on November 23, 2016","2016","11","23","12","00","Europe/Kiev","10:00 AM GMT on November 23, 2016","2016","11","23","10","00","UTC","-1.0","30.2","-3.0","26.6","86","7.2","4.5","-9999.0","-9999.0","200","SSW","10.0","6.2","1033","30.51","-3.6","25.5","-9999","-9999","-9999.00","-9999.00","Overcast","cloudy","0","0","0","0","0","0","METAR UKKK 231000Z 20002MPS 150V260 9999 OVC011 M01/M03 Q1033 R08/290045 NOSIG"
"12:30 PM EET on November 23, 2016","2016","11","23","12","30","Europe/Kiev","10:30 AM GMT on November 23, 2016","2016","11","23","10","30","UTC","0.0","32.0","-3.0","26.6","80","7.2","4.5","-9999.0","-9999.0","190","South","10.0","6.2","1033","30.51","-2.5","27.6","-9999","-9999","-9999.00","-9999.00","Overcast","cloudy","0","0","0","0","0","0","METAR UKKK 231030Z 19002MPS 150V230 9999 OVC011 M00/M03 Q1033 R08/290045 NOSIG"
"1:00 PM EET on November 23, 2016","2016","11","23","13","00","Europe/Kiev","11:00 AM GMT on November 23, 2016","2016","11","23","11","00","UTC","0.0","32.0","-3.0","26.6","80","10.8","6.7","-9999.0","-9999.0","190","South","10.0","6.2","1032","30.48","-3.5","25.7","-9999","-9999","-9999.00","-9999.00","Overcast","cloudy","0","0","0","0","0","0","METAR UKKK 231100Z 19003MPS 150V240 9999 OVC012 M00/M03 Q1032 R08/290045 NOSIG"
"1:30 PM EET on November 23, 2016","2016","11","23","13","30","Europe/Kiev","11:30 AM GMT on November 23, 2016","2016","11","23","11","30","UTC","0.0","32.0","-3.0","26.6","80","10.8","6.7","-9999.0","-9999.0","200","SSW","10.0","6.2","1032","30.48","-3.5","25.7","-9999","-9999","-9999.00","-9999.00","Overcast","cloudy","0","0","0","0","0","0","METAR UKKK 231130Z 20003MPS 130V240 9999 OVC012 M00/M03 Q1032 R08/290045 NOSIG"
"2:00 PM EET on November 23, 2016","2016","11","23","14","00","Europe/Kiev","12:00 PM GMT on November 23, 2016","2016","11","23","12","00","UTC","-0","31","-3","26","76","10.8","6.7","","","200","SSW","20","12","1034","30.52","-999","-999","-9999","-9999","","","Overcast","cloudy","0","0","0","0","0","0","AAXX 23121 33345 32498 82003 11004 21031 30121 40335 57013 886// 333 88713 555 14100"
"2:00 PM EET on November 23, 2016","2016","11","23","14","00","Europe/Kiev","12:00 PM GMT on November 23, 2016","2016","11","23","12","00","UTC","0.0","32.0","-3.0","26.6","80","7.2","4.5","-9999.0","-9999.0","180","South","10.0","6.2","1032","30.48","-2.5","27.6","-9999","-9999","-9999.00","-9999.00","Overcast","cloudy","0","0","0","0","0","0","METAR UKKK 231200Z 18002MPS 120V240 9999 OVC012 M00/M03 Q1032 R08/290045 NOSIG"
"2:30 PM EET on November 23, 2016","2016","11","23","14","30","Europe/Kiev","12:30 PM GMT on November 23, 2016","2016","11","23","12","30","UTC","0.0","32.0","-3.0","26.6","80","7.2","4.5","-9999.0","-9999.0","180","South","10.0","6.2","1032","30.48","-2.5","27.6","-9999","-9999","-9999.00","-9999.00","Overcast","cloudy","0","0","0","0","0","0","METAR UKKK 231230Z 18002MPS 110V240 9999 OVC012 M00/M03 Q1032 R08/290045 NOSIG"
"3:00 PM EET on November 23, 2016","2016","11","23","15","00","Europe/Kiev","1:00 PM GMT on November 23, 2016","2016","11","23","13","00","UTC","0.0","32.0","-3.0","26.6","80","7.2","4.5","-9999.0","-9999.0","180","South","10.0","6.2","1032","30.48","-2.5","27.6","-9999","-9999","-9999.00","-9999.00","Overcast","cloudy","0","0","0","0","0","0","METAR UKKK 231300Z 18002MPS 140V220 9999 OVC012 M00/M03 Q1032 R08/290045 NOSIG"
"3:30 PM EET on November 23, 2016","2016","11","23","15","30","Europe/Kiev","1:30 PM GMT on November 23, 2016","2016","11","23","13","30","UTC","0.0","32.0","-3.0","26.6","80","7.2","4.5","-9999.0","-9999.0","170","South","10.0","6.2","1032","30.48","-2.5","27.6","-9999","-9999","-9999.00","-9999.00","Overcast","cloudy","0","0","0","0","0","0","METAR UKKK 231330Z 17002MPS 120V250 9999 OVC012 M00/M03 Q1032 R08/290045 NOSIG"
"4:00 PM EET on November 23, 2016","2016","11","23","16","00","Europe/Kiev","2:00 PM GMT on November 23, 2016","2016","11","23","14","00","UTC","0.0","32.0","-3.0","26.6","80","7.2","4.5","-9999.0","-9999.0","140","SE","10.0","6.2","1031","30.45","-2.5","27.6","-9999","-9999","-9999.00","-9999.00","Overcast","cloudy","0","0","0","0","0","0","METAR UKKK 231400Z 14002MPS 100V180 9999 OVC013 M00/M03 Q1031 R08/290045 NOSIG"
"4:30 PM EET on November 23, 2016","2016","11","23","16","30","Europe/Kiev","2:30 PM GMT on November 23, 2016","2016","11","23","14","30","UTC","-1.0","30.2","-3.0","26.6","86","7.2","4.5","-9999.0","-9999.0","130","SE","8.0","5.0","1031","30.45","-3.6","25.5","-9999","-9999","-9999.00","-9999.00","Overcast","cloudy","0","0","0","0","0","0","METAR UKKK 231430Z 13002MPS 100V170 8000 OVC012 M01/M03 Q1031 R08/290045 NOSIG"
"5:00 PM EET on November 23, 2016","2016","11","23","17","00","Europe/Kiev","3:00 PM GMT on November 23, 2016","2016","11","23","15","00","UTC","-1","31","-3","27","77","7.2","4.5","","","190","South","10","6","1033","30.51","-999","-999","-9999","-9999","","","Overcast","cloudy","0","0","0","0","0","0","AAXX 23151 33345 42497 81902 11008 21030 30115 40329 57006 886// 333 88712 555 14100"
"5:00 PM EET on November 23, 2016","2016","11","23","17","00","Europe/Kiev","3:00 PM GMT on November 23, 2016","2016","11","23","15","00","UTC","-1.0","30.2","-3.0","26.6","86","7.2","4.5","-9999.0","-9999.0","170","South","7.0","4.3","1031","30.45","-3.6","25.5","-9999","-9999","-9999.00","-9999.00","Overcast","cloudy","0","0","0","0","0","0","METAR UKKK 231500Z 17002MPS 130V240 7000 OVC011 M01/M03 Q1031 R08/290045 NOSIG"
"5:30 PM EET on November 23, 2016","2016","11","23","17","30","Europe/Kiev","3:30 PM GMT on November 23, 2016","2016","11","23","15","30","UTC","-1.0","30.2","-3.0","26.6","86","7.2","4.5","-9999.0","-9999.0","170","South","9.0","5.6","1031","30.45","-3.6","25.5","-9999","-9999","-9999.00","-9999.00","Overcast","cloudy","0","0","0","0","0","0","METAR UKKK 231530Z 17002MPS 120V210 9000 OVC011 M01/M03 Q1031 R08/290045 NOSIG"
"6:00 PM EET on November 23, 2016","2016","11","23","18","00","Europe/Kiev","4:00 PM GMT on November 23, 2016","2016","11","23","16","00","UTC","-1.0","30.2","-3.0","26.6","86","7.2","4.5","-9999.0","-9999.0","170","South","9.0","5.6","1031","30.45","-3.6","25.5","-9999","-9999","-9999.00","-9999.00","Overcast","cloudy","0","0","0","0","0","0","METAR UKKK 231600Z 17002MPS 130V210 9000 OVC010 M01/M03 Q1031 R08/290045 NOSIG"
"6:30 PM EET on November 23, 2016","2016","11","23","18","30","Europe/Kiev","4:30 PM GMT on November 23, 2016","2016","11","23","16","30","UTC","-1.0","30.2","-3.0","26.6","86","7.2","4.5","-9999.0","-9999.0","180","South","9.0","5.6","1031","30.45","-3.6","25.5","-9999","-9999","-9999.00","-9999.00","Overcast","cloudy","0","0","0","0","0","0","METAR UKKK 231630Z 18002MPS 140V220 9000 OVC010 M01/M03 Q1031 R08/290045 NOSIG"
"7:00 PM EET on November 23, 2016","2016","11","23","19","00","Europe/Kiev","5:00 PM GMT on November 23, 2016","2016","11","23","17","00","UTC","-1.0","30.2","-4.0","24.8","80","10.8","6.7","-9999.0","-9999.0","160","SSE","9.0","5.6","1031","30.45","-4.7","23.5","-9999","-9999","-9999.00","-9999.00","Overcast","cloudy","0","0","0","0","0","0","METAR UKKK 231700Z 16003MPS 120V220 9000 OVC011 M01/M04 Q1031 R08/290045 NOSIG"
"7:30 PM EET on November 23, 2016","2016","11","23","19","30","Europe/Kiev","5:30 PM GMT on November 23, 2016","2016","11","23","17","30","UTC","-1.0","30.2","-4.0","24.8","80","7.2","4.5","-9999.0","-9999.0","170","South","9.0","5.6","1031","30.45","-3.6","25.5","-9999","-9999","-9999.00","-9999.00","Overcast","cloudy","0","0","0","0","0","0","METAR UKKK 231730Z 17002MPS 130V210 9000 OVC011 M01/M04 Q1031 R08/290045 NOSIG"
"8:00 PM EET on November 23, 2016","2016","11","23","20","00","Europe/Kiev","6:00 PM GMT on November 23, 2016","2016","11","23","18","00","UTC","-1","30","-3","26","79","7.2","4.5","","","230","SW","10","6","1033","30.51","-999","-999","-9999","-9999","","","Overcast","cloudy","0","0","0","0","0","0","AAXX 23181 33345 32497 82302 11013 21033 30115 40329 54000 886// 333 11003 88712 555 14101"
"8:00 PM EET on November 23, 2016","2016","11","23","20","00","Europe/Kiev","6:00 PM GMT on November 23, 2016","2016","11","23","18","00","UTC","-1.0","30.2","-4.0","24.8","80","7.2","4.5","-9999.0","-9999.0","170","South","9.0","5.6","1031","30.45","-3.6","25.5","-9999","-9999","-9999.00","-9999.00","Overcast","cloudy","0","0","0","0","0","0","METAR UKKK 231800Z 17002MPS 120V200 9000 OVC011 M01/M04 Q1031 R08/290045 NOSIG"
"8:30 PM EET on November 23, 2016","2016","11","23","20","30","Europe/Kiev","6:30 PM GMT on November 23, 2016","2016","11","23","18","30","UTC","-1.0","30.2","-4.0","24.8","80","10.8","6.7","-9999.0","-9999.0","160","SSE","9.0","5.6","1031","30.45","-4.7","23.5","-9999","-9999","-9999.00","-9999.00","Overcast","cloudy","0","0","0","0","0","0","METAR UKKK 231830Z 16003MPS 120V180 9000 OVC011 M01/M04 Q1031 R08/290045 NOSIG"
"9:00 PM EET on November 23, 2016","2016","11","23","21","00","Europe/Kiev","7:00 PM GMT on November 23, 2016","2016","11","23","19","00","UTC","-1.0","30.2","-4.0","24.8","80","10.8","6.7","-9999.0","-9999.0","150","SSE","10.0","6.2","1031","30.45","-4.7","23.5","-9999","-9999","-9999.00","-9999.00","Overcast","cloudy","0","0","0","0","0","0","METAR UKKK 231900Z 15003MPS 120V200 9999 OVC011 M01/M04 Q1031 R08/290045 NOSIG"
"9:30 PM EET on November 23, 2016","2016","11","23","21","30","Europe/Kiev","7:30 PM GMT on November 23, 2016","2016","11","23","19","30","UTC","-1.0","30.2","-4.0","24.8","80","7.2","4.5","-9999.0","-9999.0","150","SSE","9.0","5.6","1031","30.45","-3.6","25.5","-9999","-9999","-9999.00","-9999.00","Overcast","cloudy","0","0","0","0","0","0","METAR UKKK 231930Z 15002MPS 120V200 9000 OVC015 M01/M04 Q1031 R08/290045 NOSIG"
"10:00 PM EET on November 23, 2016","2016","11","23","22","00","Europe/Kiev","8:00 PM GMT on November 23, 2016","2016","11","23","20","00","UTC","-1.0","30.2","-4.0","24.8","80","14.4","8.9","-9999.0","-9999.0","150","SSE","9.0","5.6","1030","30.42","-5.5","22.1","-9999","-9999","-9999.00","-9999.00","Overcast","cloudy","0","0","0","0","0","0","METAR UKKK 232000Z 15004MPS 120V180 9000 OVC017 M01/M04 Q1030 R08/290045 NOSIG"
"10:30 PM EET on November 23, 2016","2016","11","23","22","30","Europe/Kiev","8:30 PM GMT on November 23, 2016","2016","11","23","20","30","UTC","-1.0","30.2","-4.0","24.8","80","10.8","6.7","-9999.0","-9999.0","150","SSE","9.0","5.6","1030","30.42","-4.7","23.5","-9999","-9999","-9999.00","-9999.00","Overcast","cloudy","0","0","0","0","0","0","METAR UKKK 232030Z 15003MPS 110V220 9000 OVC017 M01/M04 Q1030 R08/290045 NOSIG"
"11:00 PM EET on November 23, 2016","2016","11","23","23","00","Europe/Kiev","9:00 PM GMT on November 23, 2016","2016","11","23","21","00","UTC","-2","29","-4","25","80","14.4","8.9","","","190","South","10","6","1032","30.47","-999","-999","-9999","-9999","","","Overcast","cloudy","0","0","0","0","0","0","AAXX 23211 33345 42497 81904 11016 21037 30102 40316 58013 886// 333 88716 555 14101"
"11:00 PM EET on November 23, 2016","2016","11","23","23","00","Europe/Kiev","9:00 PM GMT on November 23, 2016","2016","11","23","21","00","UTC","-1.0","30.2","-4.0","24.8","80","10.8","6.7","-9999.0","-9999.0","150","SSE","8.0","5.0","1030","30.42","-4.7","23.5","-9999","-9999","-9999.00","-9999.00","Overcast","cloudy","0","0","0","0","0","0","METAR UKKK 232100Z 15003MPS 100V180 8000 OVC016 M01/M04 Q1030 R08/290045 NOSIG"
"11:30 PM EET on November 23, 2016","2016","11","23","23","30","Europe/Kiev","9:30 PM GMT on November 23, 2016","2016","11","23","21","30","UTC","-1.0","30.2","-4.0","24.8","80","7.2","4.5","-9999.0","-9999.0","160","SSE","7.0","4.3","1030","30.42","-3.6","25.5","-9999","-9999","-9999.00","-9999.00","Overcast","cloudy","0","0","0","0","0","0","METAR UKKK 232130Z 16002MPS 120V190 7000 OVC015 M01/M04 Q1030 R08/290045 NOSIG"
"12:00 AM EET on November 24, 2016","2016","11","24","00","00","Europe/Kiev","10:00 PM GMT on November 23, 2016","2016","11","23","22","00","UTC","-2.0","28.4","-4.0","24.8","86","7.2","4.5","-9999.0","-9999.0","160","SSE","8.0","5.0","1030","30.42","-4.8","23.4","-9999","-9999","-9999.00","-9999.00","Overcast","cloudy","0","0","0","0","0","0","METAR UKKK 232200Z 16002MPS 120V200 8000 OVC014 M02/M04 Q1030 R08/290045 NOSIG"
"12:30 AM EET on November 24, 2016","2016","11","24","00","30","Europe/Kiev","10:30 PM GMT on November 23, 2016","2016","11","23","22","30","UTC","-2.0","28.4","-5.0","23.0","80","7.2","4.5","-9999.0","-9999.0","170","South","9.0","5.6","1029","30.39","-4.8","23.4","-9999","-9999","-9999.00","-9999.00","Overcast","cloudy","0","0","0","0","0","0","METAR UKKK 232230Z 17002MPS 130V230 9000 OVC013 M02/M05 Q1029 R08/290045 NOSIG"
"1:00 AM EET on November 24, 2016","2016","11","24","01","00","Europe/Kiev","11:00 PM GMT on November 23, 2016","2016","11","23","23","00","UTC","-2.0","28.4","-4.0","24.8","86","7.2","4.5","-9999.0","-9999.0","180","South","9.0","5.6","1029","30.39","-4.8","23.4","-9999","-9999","-9999.00","-9999.00","Overcast","cloudy","0","0","0","0","0","0","METAR UKKK 232300Z 18002MPS 140V230 9000 OVC013 M02/M04 Q1029 R08/290045 NOSIG"
"1:30 AM EET on November 24, 2016","2016","11","24","01","30","Europe/Kiev","11:30 PM GMT on November 23, 2016","2016","11","23","23","30","UTC","-2.0","28.4","-4.0","24.8","86","7.2","4.5","-9999.0","-9999.0","170","South","9.0","5.6","1029","30.39","-4.8","23.4","-9999","-9999","-9999.00","-9999.00","Overcast","cloudy","0","0","0","0","0","0","METAR UKKK 232330Z 17002MPS 120V210 9000 OVC013 M02/M04 Q1029 R08/290045 NOSIG"
"2:00 AM EET on November 24, 2016","2016","11","24","02","00","Europe/Kiev","12:00 AM GMT on November 24, 2016","2016","11","24","00","00","UTC","-2","28","-4","25","84","7.2","4.5","","","210","SSW","10","6","1031","30.44","-999","-999","-9999","-9999","","","Overcast","cloudy","0","0","0","0","0","0","AAXX 24001 33345 32497 82102 11021 21039 30092 40306 57010 886// 333 88714 555 14101"
"2:00 AM EET on November 24, 2016","2016","11","24","02","00","Europe/Kiev","12:00 AM GMT on November 24, 2016","2016","11","24","00","00","UTC","-2.0","28.4","-4.0","24.8","86","7.2","4.5","-9999.0","-9999.0","190","South","9.0","5.6","1029","30.39","-4.8","23.4","-9999","-9999","-9999.00","-9999.00","Overcast","cloudy","0","0","0","0","0","0","METAR UKKK 240000Z 19002MPS 150V240 9000 OVC013 M02/M04 Q1029 R08/290045 NOSIG"
"2:30 AM EET on November 24, 2016","2016","11","24","02","30","Europe/Kiev","12:30 AM GMT on November 24, 2016","2016","11","24","00","30","UTC","-2.0","28.4","-4.0","24.8","86","3.6","2.2","-9999.0","-9999.0","0","Variable","9.0","5.6","1029","30.39","-999","-999","-9999","-9999","-9999.00","-9999.00","Overcast","cloudy","0","0","0","0","0","0","METAR UKKK 240030Z VRB01MPS 9000 OVC012 M02/M04 Q1029 R08/290045 NOSIG"
"3:00 AM EET on November 24, 2016","2016","11","24","03","00","Europe/Kiev","1:00 AM GMT on November 24, 2016","2016","11","24","01","00","UTC","-1.0","30.2","-3.0","26.6","86","7.2","4.5","-9999.0","-9999.0","160","SSE","9.0","5.6","1028","30.36","-3.6","25.5","-9999","-9999","-9999.00","-9999.00","Overcast","cloudy","0","0","0","0","0","0","METAR UKKK 240100Z 16002MPS 120V180 9000 OVC012 M01/M03 Q1028 R08/290045 NOSIG"
"3:30 AM EET on November 24, 2016","2016","11","24","03","30","Europe/Kiev","1:30 AM GMT on November 24, 2016","2016","11","24","01","30","UTC","-1.0","30.2","-3.0","26.6","86","7.2","4.5","-9999.0","-9999.0","170","South","9.0","5.6","1028","30.36","-3.6","25.5","-9999","-9999","-9999.00","-9999.00","Overcast","cloudy","0","0","0","0","0","0","METAR UKKK 240130Z 17002MPS 120V250 9000 OVC012 M01/M03 Q1028 R08/290045 NOSIG"
"4:00 AM EET on November 24, 2016","2016","11","24","04","00","Europe/Kiev","2:00 AM GMT on November 24, 2016","2016","11","24","02","00","UTC","-1.0","30.2","-3.0","26.6","86","7.2","4.5","-9999.0","-9999.0","180","South","9.0","5.6","1028","30.36","-3.6","25.5","-9999","-9999","-9999.00","-9999.00","Overcast","cloudy","0","0","0","0","0","0","METAR UKKK 240200Z 18002MPS 140V230 9000 OVC011 M01/M03 Q1028 R08/290045 NOSIG"
"4:30 AM EET on November 24, 2016","2016","11","24","04","30","Europe/Kiev","2:30 AM GMT on November 24, 2016","2016","11","24","02","30","UTC","-1.0","30.2","-3.0","26.6","86","7.2","4.5","-9999.0","-9999.0","170","South","9.0","5.6","1027","30.33","-3.6","25.5","-9999","-9999","-9999.00","-9999.00","Overcast","cloudy","0","0","0","0","0","0","METAR UKKK 240230Z 17002MPS 120V210 9000 OVC010 M01/M03 Q1027 R08/290045 NOSIG"
"5:00 AM EET on November 24, 2016","2016","11","24","05","00","Europe/Kiev","3:00 AM GMT on November 24, 2016","2016","11","24","03","00","UTC","-2","29","-4","26","82","3.6","2.2","","","200","SSW","10","6","1029","30.39","-999","-999","-9999","-9999","","","Overcast","cloudy","0","0","0","0","0","0","AAXX 24031 33345 42497 82001 11017 21035 30075 40289 57017 886// 333 88711 555 14101"
"5:00 AM EET on November 24, 2016","2016","11","24","05","00","Europe/Kiev","3:00 AM GMT on November 24, 2016","2016","11","24","03","00","UTC","-1.0","30.2","-3.0","26.6","86","3.6","2.2","-9999.0","-9999.0","0","Variable","9.0","5.6","1027","30.33","-999","-999","-9999","-9999","-9999.00","-9999.00","Overcast","cloudy","0","0","0","0","0","0","METAR UKKK 240300Z VRB01MPS 9000 OVC010 M01/M03 Q1027 R08/290045 NOSIG"
"5:30 AM EET on November 24, 2016","2016","11","24","05","30","Europe/Kiev","3:30 AM GMT on November 24, 2016","2016","11","24","03","30","UTC","-1.0","30.2","-3.0","26.6","86","7.2","4.5","-9999.0","-9999.0","200","SSW","10.0","6.2","1027","30.33","-3.6","25.5","-9999","-9999","-9999.00","-9999.00","Overcast","cloudy","0","0","0","0","0","0","METAR UKKK 240330Z 20002MPS 160V250 9999 OVC009 M01/M03 Q1027 R08/290045 NOSIG"
"6:00 AM EET on November 24, 2016","2016","11","24","06","00","Europe/Kiev","4:00 AM GMT on November 24, 2016","2016","11","24","04","00","UTC","-1.0","30.2","-3.0","26.6","86","7.2","4.5","-9999.0","-9999.0","190","South","10.0","6.2","1027","30.33","-3.6","25.5","-9999","-9999","-9999.00","-9999.00","Overcast","cloudy","0","0","0","0","0","0","METAR UKKK 240400Z 19002MPS 150V240 9999 OVC008 M01/M03 Q1027 R08/290045 NOSIG"
"6:30 AM EET on November 24, 2016","2016","11","24","06","30","Europe/Kiev","4:30 AM GMT on November 24, 2016","2016","11","24","04","30","UTC","-1.0","30.2","-3.0","26.6","86","7.2","4.5","-9999.0","-9999.0","180","South","9.0","5.6","1026","30.30","-3.6","25.5","-9999","-9999","-9999.00","-9999.00","Overcast","cloudy","0","0","0","0","0","0","METAR UKKK 240430Z 18002MPS 140V230 9000 OVC009 M01/M03 Q1026 R08/290045 NOSIG"
"7:00 AM EET on November 24, 2016","2016","11","24","07","00","Europe/Kiev","5:00 AM GMT on November 24, 2016","2016","11","24","05","00","UTC","-1.0","30.2","-3.0","26.6","86","7.2","4.5","-9999.0","-9999.0","200","SSW","10.0","6.2","1026","30.30","-3.6","25.5","-9999","-9999","-9999.00","-9999.00","Overcast","cloudy","0","0","0","0","0","0","METAR UKKK 240500Z 20002MPS 150V250 9999 OVC009 M01/M03 Q1026 R08/290045 NOSIG"
"7:30 AM EET on November 24, 2016","2016","11","24","07","30","Europe/Kiev","5:30 AM GMT on November 24, 2016","2016","11","24","05","30","UTC","-1.0","30.2","-3.0","26.6","86","7.2","4.5","-9999.0","-9999.0","220","SW","10.0","6.2","1026","30.30","-3.6","25.5","-9999","-9999","-9999.00","-9999.00","Overcast","cloudy","0","0","0","0","0","0","METAR UKKK 240530Z 22002MPS 160V280 9999 OVC008 M01/M03 Q1026 R08/290045 NOSIG"
"8:00 AM EET on November 24, 2016","2016","11","24","08","00","Europe/Kiev","6:00 AM GMT on November 24, 2016","2016","11","24","06","00","UTC","-1","30","-3","27","85","10.8","6.7","","","240","WSW","10","6","1028","30.35","-999","-999","-9999","-9999","","","Overcast","cloudy","0","0","0","0","0","0","AAXX 24061 33345 32397 82403 11010 21026 30063 40276 57012 886// 333 21021 88709 555 14101"
"8:00 AM EET on November 24, 2016","2016","11","24","08","00","Europe/Kiev","6:00 AM GMT on November 24, 2016","2016","11","24","06","00","UTC","-1.0","30.2","-3.0","26.6","86","10.8","6.7","-9999.0","-9999.0","220","SW","10.0","6.2","1026","30.30","-4.7","23.5","-9999","-9999","-9999.00","-9999.00","Overcast","cloudy","0","0","0","0","0","0","METAR UKKK 240600Z 22003MPS 170V260 9999 OVC008 M01/M03 Q1026 R08/290045 NOSIG"
"8:30 AM EET on November 24, 2016","2016","11","24","08","30","Europe/Kiev","6:30 AM GMT on November 24, 2016","2016","11","24","06","30","UTC","-1.0","30.2","-3.0","26.6","86","10.8","6.7","-9999.0","-9999.0","220","SW","10.0","6.2","1026","30.30","-4.7","23.5","-9999","-9999","-9999.00","-9999.00","Overcast","cloudy","0","0","0","0","0","0","METAR UKKK 240630Z 22003MPS 190V280 9999 OVC008 M01/M03 Q1026 R26/290045 NOSIG"
"9:00 AM EET on November 24, 2016","2016","11","24","09","00","Europe/Kiev","7:00 AM GMT on November 24, 2016","2016","11","24","07","00","UTC","-1.0","30.2","-3.0","26.6","86","14.4","8.9","-9999.0","-9999.0","230","SW","10.0","6.2","1026","30.30","-5.5","22.1","-9999","-9999","-9999.00","-9999.00","Overcast","cloudy","0","0","0","0","0","0","METAR UKKK 240700Z 23004MPS 200V260 9999 OVC008 M01/M03 Q1026 R26/290045 NOSIG"
"9:30 AM EET on November 24, 2016","2016","11","24","09","30","Europe/Kiev","7:30 AM GMT on November 24, 2016","2016","11","24","07","30","UTC","-1.0","30.2","-3.0","26.6","86","14.4","8.9","-9999.0","-9999.0","200","SSW","10.0","6.2","1026","30.30","-5.5","22.1","-9999","-9999","-9999.00","-9999.00","Overcast","cloudy","0","0","0","0","0","0","METAR UKKK 240730Z 20004MPS 9999 OVC008 M01/M03 Q1026 R26/290045 NOSIG"
"10:00 AM EET on November 24, 2016","2016","11","24","10","00","Europe/Kiev","8:00 AM GMT on November 24, 2016","2016","11","24","08","00","UTC","-1.0","30.2","-2.0","28.4","93","14.4","8.9","-9999.0","-9999.0","220","SW","10.0","6.2","1026","30.30","-5.5","22.1","-9999","-9999","-9999.00","-9999.00","Overcast","cloudy","0","0","0","0","0","0","METAR UKKK 240800Z 22004MPS 170V250 9999 OVC008 M01/M02 Q1026 R26/290045 NOSIG"
"10:30 AM EET on November 24, 2016","2016","11","24","10","30","Europe/Kiev","8:30 AM GMT on November 24, 2016","2016","11","24","08","30","UTC","-1.0","30.2","-3.0","26.6","86","10.8","6.7","-9999.0","-9999.0","220","SW","10.0","6.2","1026","30.30","-4.7","23.5","-9999","-9999","-9999.00","-9999.00","Overcast","cloudy","0","0","0","0","0","0","METAR UKKK 240830Z 22003MPS 180V260 9999 OVC008 M01/M03 Q1026 R26/290045 NOSIG"
"11:00 AM EET on November 24, 2016","2016","11","24","11","00","Europe/Kiev","9:00 AM GMT on November 24, 2016","2016","11","24","09","00","UTC","-1","31","-3","27","81","10.8","6.7","","","250","WSW","20","12","1027","30.33","-999","-999","-9999","-9999","","","Overcast","cloudy","0","0","0","0","0","0","AAXX 24091 33345 42498 82503 11007 21026 30057 40270 57006 886// 333 88710 555 14100"
"11:00 AM EET on November 24, 2016","2016","11","24","11","00","Europe/Kiev","9:00 AM GMT on November 24, 2016","2016","11","24","09","00","UTC","0.0","32.0","-3.0","26.6","80","14.4","8.9","-9999.0","-9999.0","220","SW","10.0","6.2","1025","30.27","-4.3","24.3","-9999","-9999","-9999.00","-9999.00","Overcast","cloudy","0","0","0","0","0","0","METAR UKKK 240900Z 22004MPS 9999 OVC009 M00/M03 Q1025 R26/290045 NOSIG"
"11:30 AM EET on November 24, 2016","2016","11","24","11","30","Europe/Kiev","9:30 AM GMT on November 24, 2016","2016","11","24","09","30","UTC","0.0","32.0","-2.0","28.4","87","14.4","8.9","-9999.0","-9999.0","240","WSW","10.0","6.2","1025","30.27","-4.3","24.3","-9999","-9999","-9999.00","-9999.00","Overcast","cloudy","0","0","0","0","0","0","METAR UKKK 240930Z 24004MPS 210V270 9999 OVC009 M00/M02 Q1025 R26/290045 NOSIG"
"12:00 PM EET on November 24, 2016","2016","11","24","12","00","Europe/Kiev","10:00 AM GMT on November 24, 2016","2016","11","24","10","00","UTC","0.0","32.0","-2.0","28.4","87","14.4","8.9","-9999.0","-9999.0","210","SSW","10.0","6.2","1025","30.27","-4.3","24.3","-9999","-9999","-9999.00","-9999.00","Overcast","cloudy","0","0","0","0","0","0","METAR UKKK 241000Z 21004MPS 190V250 9999 OVC009 M00/M02 Q1025 R26/290045 NOSIG"
"12:30 PM EET on November 24, 2016","2016","11","24","12","30","Europe/Kiev","10:30 AM GMT on November 24, 2016","2016","11","24","10","30","UTC","0.0","32.0","-3.0","26.6","80","10.8","6.7","-9999.0","-9999.0","220","SW","10.0","6.2","1024","30.24","-3.5","25.7","-9999","-9999","-9999.00","-9999.00","Overcast","cloudy","0","0","0","0","0","0","METAR UKKK 241030Z 22003MPS 190V250 9999 OVC009 M00/M03 Q1024 R26/290045 NOSIG"
"1:00 PM EET on November 24, 2016","2016","11","24","13","00","Europe/Kiev","11:00 AM GMT on November 24, 2016","2016","11","24","11","00","UTC","0.0","32.0","-2.0","28.4","87","14.4","8.9","-9999.0","-9999.0","220","SW","10.0","6.2","1024","30.24","-4.3","24.3","-9999","-9999","-9999.00","-9999.00","Overcast","cloudy","0","0","0","0","0","0","METAR UKKK 241100Z 22004MPS 190V260 9999 OVC010 00/M02 Q1024 R26/290045 NOSIG"
"1:30 PM EET on November 24, 2016","2016","11","24","13","30","Europe/Kiev","11:30 AM GMT on November 24, 2016","2016","11","24","11","30","UTC","0.0","32.0","-2.0","28.4","87","14.4","8.9","-9999.0","-9999.0","220","SW","10.0","6.2","1024","30.24","-4.3","24.3","-9999","-9999","-9999.00","-9999.00","Overcast","cloudy","0","0","0","0","0","0","METAR UKKK 241130Z 22004MPS 190V250 9999 OVC010 00/M02 Q1024 R26/290045 NOSIG"
"2:00 PM EET on November 24, 2016","2016","11","24","14","00","Europe/Kiev","12:00 PM GMT on November 24, 2016","2016","11","24","12","00","UTC","0","32","-2","28","81","7.2","4.5","","","270","West","20","12","1025","30.27","-999","-999","-9999","-9999","","","Overcast","cloudy","0","0","0","0","0","0","AAXX 24121 33345 32498 82702 10001 21020 30037 40249 57020 886// 333 88711 555 14000"
"2:00 PM EET on November 24, 2016","2016","11","24","14","00","Europe/Kiev","12:00 PM GMT on November 24, 2016","2016","11","24","12","00","UTC","0.0","32.0","-2.0","28.4","87","10.8","6.7","-9999.0","-9999.0","220","SW","10.0","6.2","1023","30.21","-3.5","25.7","-9999","-9999","-9999.00","-9999.00","Overcast","cloudy","0","0","0","0","0","0","METAR UKKK 241200Z 22003MPS 190V260 9999 OVC010 00/M02 Q1023 R26/290045 NOSIG"
"2:30 PM EET on November 24, 2016","2016","11","24","14","30","Europe/Kiev","12:30 PM GMT on November 24, 2016","2016","11","24","12","30","UTC","0.0","32.0","-2.0","28.4","87","14.4","8.9","-9999.0","-9999.0","260","West","10.0","6.2","1023","30.21","-4.3","24.3","-9999","-9999","-9999.00","-9999.00","Overcast","cloudy","0","0","0","0","0","0","METAR UKKK 241230Z 26004MPS 9999 OVC010 00/M02 Q1023 R26/290045 NOSIG"
"3:00 PM EET on November 24, 2016","2016","11","24","15","00","Europe/Kiev","1:00 PM GMT on November 24, 2016","2016","11","24","13","00","UTC","0.0","32.0","-2.0","28.4","87","10.8","6.7","-9999.0","-9999.0","240","WSW","10.0","6.2","1023","30.21","-3.5","25.7","-9999","-9999","-9999.00","-9999.00","Overcast","cloudy","0","0","0","0","0","0","METAR UKKK 241300Z 24003MPS 210V270 9999 OVC011 00/M02 Q1023 R26/290045 NOSIG"
"3:30 PM EET on November 24, 2016","2016","11","24","15","30","Europe/Kiev","1:30 PM GMT on November 24, 2016","2016","11","24","13","30","UTC","0.0","32.0","-2.0","28.4","87","14.4","8.9","-9999.0","-9999.0","230","SW","10.0","6.2","1023","30.21","-4.3","24.3","-9999","-9999","-9999.00","-9999.00","Overcast","cloudy","0","0","0","0","0","0","METAR UKKK 241330Z 23004MPS 9999 OVC011 00/M02 Q1023 R26/290045 NOSIG"
"4:00 PM EET on November 24, 2016","2016","11","24","16","00","Europe/Kiev","2:00 PM GMT on November 24, 2016","2016","11","24","14","00","UTC","0.0","32.0","-2.0","28.4","87","10.8","6.7","-9999.0","-9999.0","220","SW","10.0","6.2","1022","30.18","-3.5","25.7","-9999","-9999","-9999.00","-9999.00","Overcast","cloudy","0","0","0","0","0","0","METAR UKKK 241400Z 22003MPS 9999 OVC011 00/M02 Q1022 R26/290045 NOSIG"
"4:30 PM EET on November 24, 2016","2016","11","24","16","30","Europe/Kiev","2:30 PM GMT on November 24, 2016","2016","11","24","14","30","UTC","0.0","32.0","-2.0","28.4","87","14.4","8.9","-9999.0","-9999.0","230","SW","10.0","6.2","1022","30.18","-4.3","24.3","-9999","-9999","-9999.00","-9999.00","Overcast","cloudy","0","0","0","0","0","0","METAR UKKK 241430Z 23004MPS 200V260 9999 OVC011 00/M02 Q1022 R26/290045 NOSIG"
"5:00 PM EET on November 24, 2016","2016","11","24","17","00","Europe/Kiev","3:00 PM GMT on November 24, 2016","2016","11","24","15","00","UTC","-0","32","-2","28","79","7.2","4.5","","","260","West","20","12","1024","30.24","-999","-999","-9999","-9999","","","Overcast","cloudy","0","0","0","0","0","0","AAXX 24151 33345 42498 82602 11001 21022 30027 40238 57010 886// 333 88712 555 14100"
"5:00 PM EET on November 24, 2016","2016","11","24","17","00","Europe/Kiev","3:00 PM GMT on November 24, 2016","2016","11","24","15","00","UTC","0.0","32.0","-2.0","28.4","87","14.4","8.9","-9999.0","-9999.0","260","West","10.0","6.2","1022","30.18","-4.3","24.3","-9999","-9999","-9999.00","-9999.00","Overcast","cloudy","0","0","0","0","0","0","METAR UKKK 241500Z 26004MPS 9999 OVC010 00/M02 Q1022 R26/290045 NOSIG"
"5:30 PM EET on November 24, 2016","2016","11","24","17","30","Europe/Kiev","3:30 PM GMT on November 24, 2016","2016","11","24","15","30","UTC","0.0","32.0","-2.0","28.4","87","10.8","6.7","-9999.0","-9999.0","240","WSW","10.0","6.2","1022","30.18","-3.5","25.7","-9999","-9999","-9999.00","-9999.00","Overcast","cloudy","0","0","0","0","0","0","METAR UKKK 241530Z 24003MPS 9999 OVC010 00/M02 Q1022 R26/290045 NOSIG"
"6:00 PM EET on November 24, 2016","2016","11","24","18","00","Europe/Kiev","4:00 PM GMT on November 24, 2016","2016","11","24","16","00","UTC","0.0","32.0","-2.0","28.4","87","14.4","8.9","-9999.0","-9999.0","230","SW","10.0","6.2","1022","30.18","-4.3","24.3","-9999","-9999","-9999.00","-9999.00","Overcast","cloudy","0","0","0","0","0","0","METAR UKKK 241600Z 23004MPS 9999 OVC010 00/M02 Q1022 R26/290045 NOSIG"
"6:30 PM EET on November 24, 2016","2016","11","24","18","30","Europe/Kiev","4:30 PM GMT on November 24, 2016","2016","11","24","16","30","UTC","0.0","32.0","-2.0","28.4","87","10.8","6.7","-9999.0","-9999.0","240","WSW","10.0","6.2","1022","30.18","-3.5","25.7","-9999","-9999","-9999.00","-9999.00","Overcast","cloudy","0","0","0","0","0","0","METAR UKKK 241630Z 24003MPS 9999 OVC009 M00/M02 Q1022 R26/290045 NOSIG"
"7:00 PM EET on November 24, 2016","2016","11","24","19","00","Europe/Kiev","5:00 PM GMT on November 24, 2016","2016","11","24","17","00","UTC","0.0","32.0","-2.0","28.4","87","14.4","8.9","-9999.0","-9999.0","240","WSW","10.0","6.2","1022","30.18","-4.3","24.3","-9999","-9999","-9999.00","-9999.00","Overcast","cloudy","0","0","0","0","0","0","METAR UKKK 241700Z 24004MPS 9999 OVC009 M00/M02 Q1022 R26/290045 NOSIG"
"7:30 PM EET on November 24, 2016","2016","11","24","19","30","Europe/Kiev","5:30 PM GMT on November 24, 2016","2016","11","24","17","30","UTC","0.0","32.0","-2.0","28.4","87","18.0","11.2","-9999.0","-9999.0","260","West","10.0","6.2","1022","30.18","-4.9","23.2","-9999","-9999","-9999.00","-9999.00","Overcast","cloudy","0","0","0","0","0","0","METAR UKKK 241730Z 26005MPS 9999 OVC009 M00/M02 Q1022 R26/290045 NOSIG"
"8:00 PM EET on November 24, 2016","2016","11","24","20","00","Europe/Kiev","6:00 PM GMT on November 24, 2016","2016","11","24","18","00","UTC","-0","31","-2","28","85","14.4","8.9","","","280","West","20","12","1023","30.22","-999","-999","-9999","-9999","","","Overcast","cloudy","0","0","0","0","0","0","AAXX 24181 33345 32498 82804 11003 21021 30021 40232 57006 886// 333 10002 88710 555 14100"
"8:00 PM EET on November 24, 2016","2016","11","24","20","00","Europe/Kiev","6:00 PM GMT on November 24, 2016","2016","11","24","18","00","UTC","0.0","32.0","-2.0","28.4","87","14.4","8.9","-9999.0","-9999.0","260","West","10.0","6.2","1022","30.18","-4.3","24.3","-9999","-9999","-9999.00","-9999.00","Overcast","cloudy","0","0","0","0","0","0","METAR UKKK 241800Z 26004MPS 9999 OVC009 M00/M02 Q1022 R26/290045 NOSIG"
"8:30 PM EET on November 24, 2016","2016","11","24","20","30","Europe/Kiev","6:30 PM GMT on November 24, 2016","2016","11","24","18","30","UTC","0.0","32.0","-2.0","28.4","87","14.4","8.9","-9999.0","-9999.0","250","WSW","10.0","6.2","1022","30.18","-4.3","24.3","-9999","-9999","-9999.00","-9999.00","Overcast","cloudy","0","0","0","0","0","0","METAR UKKK 241830Z 25004MPS 9999 OVC008 00/M02 Q1022 R26/290045 NOSIG"
"9:00 PM EET on November 24, 2016","2016","11","24","21","00","Europe/Kiev","7:00 PM GMT on November 24, 2016","2016","11","24","19","00","UTC","0.0","32.0","-2.0","28.4","87","10.8","6.7","-9999.0","-9999.0","250","WSW","10.0","6.2","1021","30.15","-3.5","25.7","-9999","-9999","-9999.00","-9999.00","Overcast","cloudy","0","0","0","0","0","0","METAR UKKK 241900Z 25003MPS 9999 OVC008 00/M02 Q1021 R26/290045 NOSIG"
"9:30 PM EET on November 24, 2016","2016","11","24","21","30","Europe/Kiev","7:30 PM GMT on November 24, 2016","2016","11","24","19","30","UTC","0.0","32.0","-2.0","28.4","87","14.4","8.9","-9999.0","-9999.0","250","WSW","10.0","6.2","1021","30.15","-4.3","24.3","-9999","-9999","-9999.00","-9999.00","Overcast","cloudy","0","0","0","0","0","0","METAR UKKK 241930Z 25004MPS 220V280 9999 OVC008 00/M02 Q1021 R26/290045 NOSIG"
"10:00 PM EET on November 24, 2016","2016","11","24","22","00","Europe/Kiev","8:00 PM GMT on November 24, 2016","2016","11","24","20","00","UTC","0.0","32.0","-2.0","28.4","87","14.4","8.9","-9999.0","-9999.0","250","WSW","10.0","6.2","1021","30.15","-4.3","24.3","-9999","-9999","-9999.00","-9999.00","Overcast","cloudy","0","0","0","0","0","0","METAR UKKK 242000Z 25004MPS 9999 OVC008 00/M02 Q1021 R26/290045 NOSIG"
"10:30 PM EET on November 24, 2016","2016","11","24","22","30","Europe/Kiev","8:30 PM GMT on November 24, 2016","2016","11","24","20","30","UTC","0.0","32.0","-2.0","28.4","87","14.4","8.9","-9999.0","-9999.0","260","West","10.0","6.2","1021","30.15","-4.3","24.3","-9999","-9999","-9999.00","-9999.00","Overcast","cloudy","0","0","0","0","0","0","METAR UKKK 242030Z 26004MPS 9999 OVC008 00/M02 Q1021 R26/290045 NOSIG"
"11:00 PM EET on November 24, 2016","2016","11","24","23","00","Europe/Kiev","9:00 PM GMT on November 24, 2016","2016","11","24","21","00","UTC","0","32","-2","29","83","10.8","6.7","","","290","WNW","10","6","1023","30.20","-999","-999","-9999","-9999","","","Overcast","cloudy","0","0","0","0","0","0","AAXX 24211 33345 42497 82903 10000 21018 30015 40226 57006 886// 333 88710 555 14100"
"11:00 PM EET on November 24, 2016","2016","11","24","23","00","Europe/Kiev","9:00 PM GMT on November 24, 2016","2016","11","24","21","00","UTC","0.0","32.0","-2.0","28.4","87","10.8","6.7","-9999.0","-9999.0","270","West","9.0","5.6","1021","30.15","-3.5","25.7","-9999","-9999","-9999.00","-9999.00","Overcast","cloudy","0","0","0","0","0","0","METAR UKKK 242100Z 27003MPS 9000 OVC008 00/M02 Q1021 R26/290045 NOSIG"
"11:30 PM EET on November 24, 2016","2016","11","24","23","30","Europe/Kiev","9:30 PM GMT on November 24, 2016","2016","11","24","21","30","UTC","0.0","32.0","-1.0","30.2","93","10.8","6.7","-9999.0","-9999.0","270","West","10.0","6.2","1021","30.15","-3.5","25.7","-9999","-9999","-9999.00","-9999.00","Overcast","cloudy","0","0","0","0","0","0","METAR UKKK 242130Z 27003MPS 9999 OVC008 00/M01 Q1021 R26/290045 NOSIG"
"12:00 AM EET on November 25, 2016","2016","11","25","00","00","Europe/Kiev","10:00 PM GMT on November 24, 2016","2016","11","24","22","00","UTC","0.0","32.0","-1.0","30.2","93","14.4","8.9","-9999.0","-9999.0","280","West","10.0","6.2","1021","30.15","-4.3","24.3","-9999","-9999","-9999.00","-9999.00","Overcast","cloudy","0","0","0","0","0","0","METAR UKKK 242200Z 28004MPS 9999 OVC007 00/M01 Q1021 R26/290045 NOSIG"
"12:30 AM EET on November 25, 2016","2016","11","25","00","30","Europe/Kiev","10:30 PM GMT on November 24, 2016","2016","11","24","22","30","UTC","0.0","32.0","-1.0","30.2","93","14.4","8.9","-9999.0","-9999.0","280","West","10.0","6.2","1021","30.15","-4.3","24.3","-9999","-9999","-9999.00","-9999.00","Overcast","cloudy","0","0","0","0","0","0","METAR UKKK 242230Z 28004MPS 9999 OVC007 00/M01 Q1021 R26/290045 NOSIG"
"1:00 AM EET on November 25, 2016","2016","11","25","01","00","Europe/Kiev","11:00 PM GMT on November 24, 2016","2016","11","24","23","00","UTC","0.0","32.0","-1.0","30.2","93","10.8","6.7","-9999.0","-9999.0","280","West","9.0","5.6","1021","30.15","-3.5","25.7","-9999","-9999","-9999.00","-9999.00","Overcast","cloudy","0","0","0","0","0","0","METAR UKKK 242300Z 28003MPS 9000 OVC007 00/M01 Q1021 R26/290045 NOSIG"
"1:30 AM EET on November 25, 2016","2016","11","25","01","30","Europe/Kiev","11:30 PM GMT on November 24, 2016","2016","11","24","23","30","UTC","0.0","32.0","-1.0","30.2","93","10.8","6.7","-9999.0","-9999.0","260","West","9.0","5.6","1020","30.12","-3.5","25.7","-9999","-9999","-9999.00","-9999.00","Overcast","cloudy","0","0","0","0","0","0","METAR UKKK 242330Z 26003MPS 9000 OVC006 00/M01 Q1020 R26/290045 TEMPO OVC004"
"2:00 AM EET on November 25, 2016","2016","11","25","02","00","Europe/Kiev","12:00 AM GMT on November 25, 2016","2016","11","25","00","00","UTC","0","32","-1","30","88","7.2","4.5","","","300","WNW","4","2","1022","30.17","-999","-999","-9999","-9999","","","Overcast","cloudy","0","0","0","0","0","0","AAXX 25001 33345 32396 83002 10002 21012 30005 40216 57010 886// 333 88708 555 14100"
"2:00 AM EET on November 25, 2016","2016","11","25","02","00","Europe/Kiev","12:00 AM GMT on November 25, 2016","2016","11","25","00","00","UTC","0.0","32.0","-1.0","30.2","93","7.2","4.5","-9999.0","-9999.0","270","West","6.0","3.7","1020","30.12","-2.5","27.6","-9999","-9999","-9999.00","-9999.00","Overcast","cloudy","0","0","0","0","0","0","METAR UKKK 250000Z 27002MPS 6000 OVC006 00/M01 Q1020 R26/290045 TEMPO OVC004"
"2:30 AM EET on November 25, 2016","2016","11","25","02","30","Europe/Kiev","12:30 AM GMT on November 25, 2016","2016","11","25","00","30","UTC","0.0","32.0","-1.0","30.2","93","10.8","6.7","-9999.0","-9999.0","260","West","7.0","4.3","1020","30.12","-3.5","25.7","-9999","-9999","-9999.00","-9999.00","Overcast","cloudy","0","0","0","0","0","0","METAR UKKK 250030Z 26003MPS 7000 OVC005 00/M01 Q1020 R26/290045 TEMPO 2000 BR OVC003"
"3:00 AM EET on November 25, 2016","2016","11","25","03","00","Europe/Kiev","1:00 AM GMT on November 25, 2016","2016","11","25","01","00","UTC","0.0","32.0","-1.0","30.2","93","10.8","6.7","-9999.0","-9999.0","270","West","6.0","3.7","1020","30.12","-3.5","25.7","-9999","-9999","-9999.00","-9999.00","Overcast","cloudy","0","0","0","0","0","0","METAR UKKK 250100Z 27003MPS 6000 OVC005 00/M01 Q1020 R26/290045 TEMPO 2000 BR OVC003"
"3:10 AM EET on November 25, 2016","2016","11","25","03","10","Europe/Kiev","1:10 AM GMT on November 25, 2016","2016","11","25","01","10","UTC","0.0","32.0","-1.0","30.2","93","10.8","6.7","-9999.0","-9999.0","260","West","6.0","3.7","1020","30.12","-3.5","25.7","-9999","-9999","-9999.00","-9999.00","Overcast","cloudy","0","0","0","0","0","0","SPECI UKKK 250110Z 26003MPS 6000 OVC004 00/M01 Q1020 R26/290045 TEMPO 2000 BR OVC003"
"3:30 AM EET on November 25, 2016","2016","11","25","03","30","Europe/Kiev","1:30 AM GMT on November 25, 2016","2016","11","25","01","30","UTC","0.0","32.0","-1.0","30.2","93","7.2","4.5","-9999.0","-9999.0","250","WSW","5.0","3.1","1019","30.09","-2.5","27.6","-9999","-9999","-9999.00","-9999.00","Overcast","cloudy","0","0","0","0","0","0","METAR UKKK 250130Z 25002MPS 5000 BR OVC004 00/M01 Q1019 R26/290045 TEMPO 2000 BR OVC003"
"4:00 AM EET on November 25, 2016","2016","11","25","04","00","Europe/Kiev","2:00 AM GMT on November 25, 2016","2016","11","25","02","00","UTC","0.0","32.0","-1.0","30.2","93","10.8","6.7","-9999.0","-9999.0","250","WSW","5.0","3.1","1019","30.09","-3.5","25.7","-9999","-9999","-9999.00","-9999.00","Overcast","cloudy","0","0","0","0","0","0","METAR UKKK 250200Z 25003MPS 5000 BR OVC004 00/M01 Q1019 R26/290045 TEMPO 1000 BR OVC002"
"4:30 AM EET on November 25, 2016","2016","11","25","04","30","Europe/Kiev","2:30 AM GMT on November 25, 2016","2016","11","25","02","30","UTC","0.0","32.0","0.0","32.0","100","10.8","6.7","-9999.0","-9999.0","260","West","-9999.0","-9999.0","1019","30.09","-3.5","25.7","-9999","-9999","-9999.00","-9999.00","Overcast","cloudy","0","0","0","0","0","0","METAR UKKK 250230Z 26003MPS 3700 BR OVC003 00/M00 Q1019 R26/290045 TEMPO 1000 BR OVC002"
"5:00 AM EET on November 25, 2016","2016","11","25","05","00","Europe/Kiev","3:00 AM GMT on November 25, 2016","2016","11","25","03","00","UTC","0","32","-1","31","94","7.2","4.5","","","290","WNW","4","2","1021","30.15","-999","-999","-9999","-9999","","","Mist","hazy","0","0","0","0","0","0","AAXX 25031 33345 41396 82902 10002 21006 39998 40209 57007 71022 886// 333 88707 555 14100"
"5:00 AM EET on November 25, 2016","2016","11","25","05","00","Europe/Kiev","3:00 AM GMT on November 25, 2016","2016","11","25","03","00","UTC","0.0","32.0","0.0","32.0","100","7.2","4.5","-9999.0","-9999.0","270","West","2.2","1.4","1019","30.09","-2.5","27.6","-9999","-9999","-9999.00","-9999.00","Overcast","cloudy","0","0","0","0","0","0","METAR UKKK 250300Z 27002MPS 2200 BR OVC002 00/M00 Q1019 R26/290045 TEMPO 0300 FZFG VV001"
"5:04 AM EET on November 25, 2016","2016","11","25","05","04","Europe/Kiev","3:04 AM GMT on November 25, 2016","2016","11","25","03","04","UTC","0.0","32.0","0.0","32.0","100","10.8","6.7","-9999.0","-9999.0","280","West","1.4","0.9","1019","30.09","-3.5","25.7","-9999","-9999","-9999.00","-9999.00","Overcast","cloudy","0","0","0","0","0","0","SPECI UKKK 250304Z 28003MPS 1400 R26/P2000D BR OVC002 00/M00 Q1019 R26/290045 TEMPO 0300 FZFG VV001"
"5:13 AM EET on November 25, 2016","2016","11","25","05","13","Europe/Kiev","3:13 AM GMT on November 25, 2016","2016","11","25","03","13","UTC","0.0","32.0","0.0","32.0","100","10.8","6.7","-9999.0","-9999.0","280","West","1.3","0.8","1019","30.09","-3.5","25.7","-9999","-9999","-9999.00","-9999.00","Overcast","cloudy","0","0","0","0","0","0","SPECI UKKK 250313Z 28003MPS 1300 R26/P2000N BR OVC001 00/M00 Q1019 R26/290045 TEMPO 0300 FZFG VV001"
"5:30 AM EET on November 25, 2016","2016","11","25","05","30","Europe/Kiev","3:30 AM GMT on November 25, 2016","2016","11","25","03","30","UTC","0.0","32.0","0.0","32.0","100","10.8","6.7","-9999.0","-9999.0","270","West","-9999.0","-9999.0","1019","30.09","-3.5","25.7","-9999","-9999","-9999.00","-9999.00","Overcast","cloudy","0","0","0","0","0","0","METAR UKKK 250330Z 27003MPS 0750 R26/1600N PRFG OVC001 00/M00 Q1019 R26/290045 TEMPO 0300 FZFG VV001"
"5:50 AM EET on November 25, 2016","2016","11","25","05","50","Europe/Kiev","3:50 AM GMT on November 25, 2016","2016","11","25","03","50","UTC","0.0","32.0","0.0","32.0","100","10.8","6.7","-9999.0","-9999.0","280","West","0.8","0.5","1019","30.09","-3.5","25.7","-9999","-9999","-9999.00","-9999.00","Overcast","cloudy","0","0","0","0","0","0","SPECI UKKK 250350Z 28003MPS 0800 R26/1700N PRFG OVC002 00/M00 Q1019 R26/290045 TEMPO 0300 FZFG VV001"
"6:00 AM EET on November 25, 2016","2016","11","25","06","00","Europe/Kiev","4:00 AM GMT on November 25, 2016","2016","11","25","04","00","UTC","0.0","32.0","0.0","32.0","100","10.8","6.7","-9999.0","-9999.0","280","West","1.5","0.9","1019","30.09","-3.5","25.7","-9999","-9999","-9999.00","-9999.00","Overcast","cloudy","0","0","0","0","0","0","METAR UKKK 250400Z 28003MPS 1500 BR OVC002 00/M00 Q1019 R26/290045 TEMPO 0300 FZFG VV001"
"6:30 AM EET on November 25, 2016","2016","11","25","06","30","Europe/Kiev","4:30 AM GMT on November 25, 2016","2016","11","25","04","30","UTC","0.0","32.0","0.0","32.0","100","10.8","6.7","-9999.0","-9999.0","270","West","2.2","1.4","1019","30.09","-3.5","25.7","-9999","-9999","-9999.00","-9999.00","Overcast","cloudy","0","0","0","0","0","0","METAR UKKK 250430Z 27003MPS 2200 BR OVC003 00/00 Q1019 R26/290045 TEMPO 0300 FZFG VV001"
"6:41 AM EET on November 25, 2016","2016","11","25","06","41","Europe/Kiev","4:41 AM GMT on November 25, 2016","2016","11","25","04","41","UTC","0.0","32.0","0.0","32.0","100","7.2","4.5","-9999.0","-9999.0","270","West","1.4","0.9","1019","30.09","-2.5","27.6","-9999","-9999","-9999.00","-9999.00","Light Snow","snow","0","0","1","0","0","0","SPECI UKKK 250441Z 27002MPS 1400 R26/P2000D -SN BR OVC003 00/00 Q1019 R26/290045 TEMPO 0300 FZFG VV001"
"7:00 AM EET on November 25, 2016","2016","11","25","07","00","Europe/Kiev","5:00 AM GMT on November 25, 2016","2016","11","25","05","00","UTC","0.0","32.0","0.0","32.0","100","7.2","4.5","-9999.0","-9999.0","270","West","1.3","0.8","1019","30.09","-2.5","27.6","-9999","-9999","-9999.00","-9999.00","Light Snow","snow","0","0","1","0","0","0","METAR UKKK 250500Z 27002MPS 1300 R26/P2000N -SN BR OVC004 00/00 Q1019 R26/290045 TEMPO 0300 FZFG VV001"
"7:30 AM EET on November 25, 2016","2016","11","25","07","30","Europe/Kiev","5:30 AM GMT on November 25, 2016","2016","11","25","05","30","UTC","1.0","33.8","0.0","32.0","93","10.8","6.7","-9999.0","-9999.0","270","West","1.6","1.0","1019","30.09","-2.3","27.9","-9999","-9999","-9999.00","-9999.00","Light Drizzle","rain","0","0","0","0","0","0","METAR UKKK 250530Z 27003MPS 1600 -DZ BR OVC004 01/00 Q1019 R26/290045 TEMPO 1000 BR OVC003"
"8:00 AM EET on November 25, 2016","2016","11","25","08","00","Europe/Kiev","6:00 AM GMT on November 25, 2016","2016","11","25","06","00","UTC","0","33","-0","32","93","3.6","2.2","","","330","NNW","4","2","1021","30.14","-999","-999","-9999","-9999","","","Mist","hazy","0","0","0","0","0","0","AAXX 25061 33345 31296 83301 10005 21001 39997 40207 57001 71022 886// 333 21003 88706 555 14100"
"8:00 AM EET on November 25, 2016","2016","11","25","08","00","Europe/Kiev","6:00 AM GMT on November 25, 2016","2016","11","25","06","00","UTC","1.0","33.8","0.0","32.0","93","10.8","6.7","-9999.0","-9999.0","270","West","1.9","1.2","1019","30.09","-2.3","27.9","-9999","-9999","-9999.00","-9999.00","Light Drizzle","rain","0","0","0","0","0","0","METAR UKKK 250600Z 27003MPS 1900 -DZ BR OVC003 01/00 Q1019 R26/290045 NOSIG"
"8:30 AM EET on November 25, 2016","2016","11","25","08","30","Europe/Kiev","6:30 AM GMT on November 25, 2016","2016","11","25","06","30","UTC","1.0","33.8","0.0","32.0","93","7.2","4.5","-9999.0","-9999.0","280","West","1.6","1.0","1019","30.09","-1.3","29.7","-9999","-9999","-9999.00","-9999.00","Light Drizzle","rain","0","0","0","0","0","0","METAR UKKK 250630Z 28002MPS 1600 -DZ BR OVC003 01/00 Q1019 R26/290243 TEMPO 0700 -DZ FG OVC001"
"8:42 AM EET on November 25, 2016","2016","11","25","08","42","Europe/Kiev","6:42 AM GMT on November 25, 2016","2016","11","25","06","42","UTC","1.0","33.8","0.0","32.0","93","7.2","4.5","-9999.0","-9999.0","280","West","1.4","0.9","1019","30.09","-1.3","29.7","-9999","-9999","-9999.00","-9999.00","Light Drizzle","rain","0","0","0","0","0","0","SPECI UKKK 250642Z 28002MPS 1400 R26/1500N -DZ BR OVC002 01/00 Q1019 R26/290243 TEMPO 0700 -DZ FG OVC001"
"9:00 AM EET on November 25, 2016","2016","11","25","09","00","Europe/Kiev","7:00 AM GMT on November 25, 2016","2016","11","25","07","00","UTC","1.0","33.8","0.0","32.0","93","7.2","4.5","-9999.0","-9999.0","270","West","1.4","0.9","1019","30.09","-1.3","29.7","-9999","-9999","-9999.00","-9999.00","Light Drizzle","rain","0","0","0","0","0","0","METAR UKKK 250700Z 27002MPS 1400 R26/1500N -DZ BR OVC002 01/00 Q1019 R26/290243 TEMPO 0700 -DZ FG OVC001"
"9:30 AM EET on November 25, 2016","2016","11","25","09","30","Europe/Kiev","7:30 AM GMT on November 25, 2016","2016","11","25","07","30","UTC","1.0","33.8","1.0","33.8","100","7.2","4.5","-9999.0","-9999.0","250","WSW","1.3","0.8","1019","30.09","-1.3","29.7","-9999","-9999","-9999.00","-9999.00","Overcast","cloudy","0","0","0","0","0","0","METAR UKKK 250730Z 25002MPS 1300 R26/1400N BR OVC002 01/01 Q1019 R26/290243 TEMPO 0700 -DZ FG OVC001"
"10:00 AM EET on November 25, 2016","2016","11","25","10","00","Europe/Kiev","8:00 AM GMT on November 25, 2016","2016","11","25","08","00","UTC","1.0","33.8","1.0","33.8","100","7.2","4.5","-9999.0","-9999.0","260","West","1.6","1.0","1019","30.09","-1.3","29.7","-9999","-9999","-9999.00","-9999.00","Overcast","cloudy","0","0","0","0","0","0","METAR UKKK 250800Z 26002MPS 1600 BR OVC002 01/01 Q1019 R26/290243 TEMPO 0700 -DZ FG OVC001"
"10:21 AM EET on November 25, 2016","2016","11","25","10","21","Europe/Kiev","8:21 AM GMT on November 25, 2016","2016","11","25","08","21","UTC","1.0","33.8","1.0","33.8","100","7.2","4.5","-9999.0","-9999.0","270","West","1.4","0.9","1019","30.09","-1.3","29.7","-9999","-9999","-9999.00","-9999.00","Overcast","cloudy","0","0","0","0","0","0","SPECI UKKK 250821Z 27002MPS 1400 R26/1400N BR OVC002 01/01 Q1019 R26/290243 TEMPO 0700 -DZ FG OVC001"
"10:30 AM EET on November 25, 2016","2016","11","25","10","30","Europe/Kiev","8:30 AM GMT on November 25, 2016","2016","11","25","08","30","UTC","1.0","33.8","1.0","33.8","100","7.2","4.5","-9999.0","-9999.0","270","West","1.6","1.0","1019","30.09","-1.3","29.7","-9999","-9999","-9999.00","-9999.00","Overcast","cloudy","0","0","0","0","0","0","METAR UKKK 250830Z 27002MPS 1600 BR OVC002 01/01 Q1019 R26/290243 TEMPO 0700 -DZ FG OVC001"
"10:41 AM EET on November 25, 2016","2016","11","25","10","41","Europe/Kiev","8:41 AM GMT on November 25, 2016","2016","11","25","08","41","UTC","1.0","33.8","1.0","33.8","100","7.2","4.5","-9999.0","-9999.0","250","WSW","1.4","0.9","1019","30.09","-1.3","29.7","-9999","-9999","-9999.00","-9999.00","Overcast","cloudy","0","0","0","0","0","0","SPECI UKKK 250841Z 25002MPS 1400 R26/1500N BR OVC002 01/01 Q1019 R26/290243 TEMPO 0700 -DZ FG OVC001"
"11:00 AM EET on November 25, 2016","2016","11","25","11","00","Europe/Kiev","9:00 AM GMT on November 25, 2016","2016","11","25","09","00","UTC","1","34","1","33","96","3.6","2.2","","","300","WNW","1","1","1020","30.12","-999","-999","-9999","-9999","","","Mist","hazy","0","0","0","0","0","0","AAXX 25091 33345 41294 83001 10012 20007 39990 40200 57007 71062 886// 333 88705 555 11000"
"11:00 AM EET on November 25, 2016","2016","11","25","11","00","Europe/Kiev","9:00 AM GMT on November 25, 2016","2016","11","25","09","00","UTC","1.0","33.8","1.0","33.8","100","7.2","4.5","-9999.0","-9999.0","270","West","1.5","0.9","1019","30.09","-1.3","29.7","-9999","-9999","-9999.00","-9999.00","Overcast","cloudy","0","0","0","0","0","0","METAR UKKK 250900Z 27002MPS 1500 BR OVC002 01/01 Q1019 R26/290243 TEMPO 0700 FG VV001"
"11:03 AM EET on November 25, 2016","2016","11","25","11","03","Europe/Kiev","9:03 AM GMT on November 25, 2016","2016","11","25","09","03","UTC","1.0","33.8","1.0","33.8","100","7.2","4.5","-9999.0","-9999.0","270","West","1.4","0.9","1019","30.09","-1.3","29.7","-9999","-9999","-9999.00","-9999.00","Overcast","cloudy","0","0","0","0","0","0","SPECI UKKK 250903Z 27002MPS 1400 R26/1600N BR OVC002 01/01 Q1019 R26/290243 TEMPO 0700 FG VV001"
"11:30 AM EET on November 25, 2016","2016","11","25","11","30","Europe/Kiev","9:30 AM GMT on November 25, 2016","2016","11","25","09","30","UTC","1.0","33.8","1.0","33.8","100","10.8","6.7","-9999.0","-9999.0","260","West","1.4","0.9","1019","30.09","-2.3","27.9","-9999","-9999","-9999.00","-9999.00","Overcast","cloudy","0","0","0","0","0","0","METAR UKKK 250930Z 26003MPS 1400 R26/1500U BR OVC002 01/01 Q1019 R26/290243 TEMPO 0700 FG VV001"
"12:00 PM EET on November 25, 2016","2016","11","25","12","00","Europe/Kiev","10:00 AM GMT on November 25, 2016","2016","11","25","10","00","UTC","1.0","33.8","1.0","33.8","100","10.8","6.7","-9999.0","-9999.0","270","West","1.8","1.1","1018","30.06","-2.3","27.9","-9999","-9999","-9999.00","-9999.00","Overcast","cloudy","0","0","0","0","0","0","METAR UKKK 251000Z 27003MPS 1800 BR OVC002 01/01 Q1018 R26/290243 TEMPO 0700 FG VV001"
"12:30 PM EET on November 25, 2016","2016","11","25","12","30","Europe/Kiev","10:30 AM GMT on November 25, 2016","2016","11","25","10","30","UTC","2.0","35.6","1.0","33.8","93","10.8","6.7","-9999.0","-9999.0","280","West","2.5","1.6","1018","30.06","-1.1","30.0","-9999","-9999","-9999.00","-9999.00","Overcast","cloudy","0","0","0","0","0","0","METAR UKKK 251030Z 28003MPS 2500 BR OVC002 02/01 Q1018 R26/290243 TEMPO OVC002"
"1:00 PM EET on November 25, 2016","2016","11","25","13","00","Europe/Kiev","11:00 AM GMT on November 25, 2016","2016","11","25","11","00","UTC","2.0","35.6","1.0","33.8","93","10.8","6.7","-9999.0","-9999.0","280","West","2.1","1.3","1018","30.06","-1.1","30.0","-9999","-9999","-9999.00","-9999.00","Overcast","cloudy","0","0","0","0","0","0","METAR UKKK 251100Z 28003MPS 2100 BR OVC003 02/01 Q1018 R26/290243 TEMPO OVC002"
"1:30 PM EET on November 25, 2016","2016","11","25","13","30","Europe/Kiev","11:30 AM GMT on November 25, 2016","2016","11","25","11","30","UTC","2.0","35.6","1.0","33.8","93","14.4","8.9","-9999.0","-9999.0","300","WNW","2.0","1.2","1018","30.06","-1.8","28.7","-9999","-9999","-9999.00","-9999.00","Overcast","cloudy","0","0","0","0","0","0","METAR UKKK 251130Z 30004MPS 2000 BR OVC002 02/01 Q1018 R26/290243 TEMPO 1000 BR OVC001"
"1:47 PM EET on November 25, 2016","2016","11","25","13","47","Europe/Kiev","11:47 AM GMT on November 25, 2016","2016","11","25","11","47","UTC","2.0","35.6","1.0","33.8","93","10.8","6.7","-9999.0","-9999.0","310","NW","1.3","0.8","1018","30.06","-1.1","30.0","-9999","-9999","-9999.00","-9999.00","Overcast","cloudy","0","0","0","0","0","0","SPECI UKKK 251147Z 31003MPS 1300 R26/1400N BR OVC002 02/01 Q1018 R26/290243 TEMPO 0800 FG VV001"
"2:00 PM EET on November 25, 2016","2016","11","25","14","00","Europe/Kiev","12:00 PM GMT on November 25, 2016","2016","11","25","12","00","UTC","2","35","1","34","94","3.6","2.2","","","340","NNW","0.5","0","1019","30.09","-999","-999","-9999","-9999","","","Heavy Fog","fog","1","0","0","0","0","0","AAXX 25121 33345 /1/93 93401 10016 20011 39979 40188 57011 74564 800// 555 11001 69961"
"2:00 PM EET on November 25, 2016","2016","11","25","14","00","Europe/Kiev","12:00 PM GMT on November 25, 2016","2016","11","25","12","00","UTC","2.0","35.6","1.0","33.8","93","10.8","6.7","-9999.0","-9999.0","300","WNW","2.0","1.2","1018","30.06","-1.1","30.0","-9999","-9999","-9999.00","-9999.00","Overcast","cloudy","0","0","0","0","0","0","METAR UKKK 251200Z 30003MPS 2000 BR OVC002 02/01 Q1018 R26/290243 TEMPO 0800 FG VV001"
"2:08 PM EET on November 25, 2016","2016","11","25","14","08","Europe/Kiev","12:08 PM GMT on November 25, 2016","2016","11","25","12","08","UTC","2.0","35.6","1.0","33.8","93","10.8","6.7","-9999.0","-9999.0","290","WNW","1.4","0.9","1018","30.06","-1.1","30.0","-9999","-9999","-9999.00","-9999.00","Overcast","cloudy","0","0","0","0","0","0","SPECI UKKK 251208Z 29003MPS 1400 R26/1300VP2000D BR OVC002 02/01 Q1018 R26/290243 TEMPO 1000 BR OVC001"
"2:25 PM EET on November 25, 2016","2016","11","25","14","25","Europe/Kiev","12:25 PM GMT on November 25, 2016","2016","11","25","12","25","UTC","2.0","35.6","1.0","33.8","93","14.4","8.9","-9999.0","-9999.0","300","WNW","2.1","1.3","1018","30.06","-1.8","28.7","-9999","-9999","-9999.00","-9999.00","Overcast","cloudy","0","0","0","0","0","0","SPECI UKKK 251225Z 30004MPS 2100 BR OVC003 02/01 Q1018 R26/290243 TEMPO 1000 BR OVC001"
"2:30 PM EET on November 25, 2016","2016","11","25","14","30","Europe/Kiev","12:30 PM GMT on November 25, 2016","2016","11","25","12","30","UTC","2.0","35.6","1.0","33.8","93","14.4","8.9","-9999.0","-9999.0","310","NW","2.3","1.4","1018","30.06","-1.8","28.7","-9999","-9999","-9999.00","-9999.00","Overcast","cloudy","0","0","0","0","0","0","METAR UKKK 251230Z 31004MPS 2300 BR OVC003 02/01 Q1018 R26/290243 TEMPO 1000 BR OVC001"
"2:52 PM EET on November 25, 2016","2016","11","25","14","52","Europe/Kiev","12:52 PM GMT on November 25, 2016","2016","11","25","12","52","UTC","2.0","35.6","1.0","33.8","93","18.0","11.2","-9999.0","-9999.0","330","NNW","4.5","2.8","1018","30.06","-2.4","27.7","-9999","-9999","-9999.00","-9999.00","Overcast","cloudy","0","0","0","0","0","0","SPECI UKKK 251252Z 33005MPS 4500 BR OVC006 02/01 Q1018 R26/290243 TEMPO 1000 BR OVC001"
"3:00 PM EET on November 25, 2016","2016","11","25","15","00","Europe/Kiev","1:00 PM GMT on November 25, 2016","2016","11","25","13","00","UTC","2.0","35.6","1.0","33.8","93","18.0","11.2","-9999.0","-9999.0","320","NW","6.0","3.7","1018","30.06","-2.4","27.7","-9999","-9999","-9999.00","-9999.00","Overcast","cloudy","0","0","0","0","0","0","METAR UKKK 251300Z 32005MPS 6000 OVC006 02/01 Q1018 R26/290243 NOSIG"
"3:30 PM EET on November 25, 2016","2016","11","25","15","30","Europe/Kiev","1:30 PM GMT on November 25, 2016","2016","11","25","13","30","UTC","2.0","35.6","1.0","33.8","93","10.8","6.7","-9999.0","-9999.0","320","NW","7.0","4.3","1018","30.06","-1.1","30.0","-9999","-9999","-9999.00","-9999.00","Overcast","cloudy","0","0","0","0","0","0","METAR UKKK 251330Z 32003MPS 7000 OVC010 02/01 Q1018 R26/290050 NOSIG"
"4:00 PM EET on November 25, 2016","2016","11","25","16","00","Europe/Kiev","2:00 PM GMT on November 25, 2016","2016","11","25","14","00","UTC","2.0","35.6","0.0","32.0","87","10.8","6.7","-9999.0","-9999.0","320","NW","9.0","5.6","1018","30.06","-1.1","30.0","-9999","-9999","-9999.00","-9999.00","Overcast","cloudy","0","0","0","0","0","0","METAR UKKK 251400Z 32003MPS 9000 OVC013 02/M00 Q1018 R26/290050 NOSIG"
"4:30 PM EET on November 25, 2016","2016","11","25","16","30","Europe/Kiev","2:30 PM GMT on November 25, 2016","2016","11","25","14","30","UTC","2.0","35.6","0.0","32.0","87","18.0","11.2","-9999.0","-9999.0","320","NW","9.0","5.6","1018","30.06","-2.4","27.7","-9999","-9999","-9999.00","-9999.00","Overcast","cloudy","0","0","0","0","0","0","METAR UKKK 251430Z 32005MPS 9000 OVC012 02/00 Q1018 R26/290050 NOSIG"
"5:00 PM EET on November 25, 2016","2016","11","25","17","00","Europe/Kiev","3:00 PM GMT on November 25, 2016","2016","11","25","15","00","UTC","2","36","0","32","81","10.8","6.7","","","10","North","4","2","1020","30.11","-999","-999","-9999","-9999","","","Mist","hazy","0","0","0","0","0","0","AAXX 25151 33345 41496 80103 10020 20001 39986 40195 53007 71042 886// 333 88713 555 11000"
"5:00 PM EET on November 25, 2016","2016","11","25","17","00","Europe/Kiev","3:00 PM GMT on November 25, 2016","2016","11","25","15","00","UTC","2.0","35.6","-1.0","30.2","81","21.6","13.4","-9999.0","-9999.0","330","NNW","9.0","5.6","1018","30.06","-2.9","26.8","-9999","-9999","-9999.00","-9999.00","Overcast","cloudy","0","0","0","0","0","0","METAR UKKK 251500Z 33006MPS 300V010 9000 OVC012 02/M01 Q1018 R26/290050 NOSIG"
"5:30 PM EET on November 25, 2016","2016","11","25","17","30","Europe/Kiev","3:30 PM GMT on November 25, 2016","2016","11","25","15","30","UTC","2.0","35.6","-1.0","30.2","81","14.4","8.9","-9999.0","-9999.0","330","NNW","10.0","6.2","1018","30.06","-1.8","28.7","-9999","-9999","-9999.00","-9999.00","Overcast","cloudy","0","0","0","0","0","0","METAR UKKK 251530Z 33004MPS 310V010 9999 OVC015 02/M01 Q1018 R26/290050 NOSIG"
"6:00 PM EET on November 25, 2016","2016","11","25","18","00","Europe/Kiev","4:00 PM GMT on November 25, 2016","2016","11","25","16","00","UTC","2.0","35.6","-1.0","30.2","81","18.0","11.2","-9999.0","-9999.0","330","NNW","10.0","6.2","1018","30.06","-2.4","27.7","-9999","-9999","-9999.00","-9999.00","Overcast","cloudy","0","0","0","0","0","0","METAR UKKK 251600Z 33005MPS 300V010 9999 OVC018 02/M01 Q1018 R26/290050 NOSIG"
"6:30 PM EET on November 25, 2016","2016","11","25","18","30","Europe/Kiev","4:30 PM GMT on November 25, 2016","2016","11","25","16","30","UTC","2.0","35.6","-1.0","30.2","81","18.0","11.2","-9999.0","-9999.0","330","NNW","10.0","6.2","1018","30.06","-2.4","27.7","-9999","-9999","-9999.00","-9999.00","Overcast","cloudy","0","0","0","0","0","0","METAR UKKK 251630Z 33005MPS 9999 OVC014 02/M01 Q1018 R26/290050 NOSIG"
"7:00 PM EET on November 25, 2016","2016","11","25","19","00","Europe/Kiev","5:00 PM GMT on November 25, 2016","2016","11","25","17","00","UTC","2.0","35.6","-1.0","30.2","81","18.0","11.2","-9999.0","-9999.0","330","NNW","10.0","6.2","1019","30.09","-2.4","27.7","-9999","-9999","-9999.00","-9999.00","Overcast","cloudy","0","0","0","0","0","0","METAR UKKK 251700Z 33005MPS 9999 OVC013 02/M01 Q1019 R26/290050 NOSIG"
"7:30 PM EET on November 25, 2016","2016","11","25","19","30","Europe/Kiev","5:30 PM GMT on November 25, 2016","2016","11","25","17","30","UTC","1.0","33.8","-2.0","28.4","81","14.4","8.9","-9999.0","-9999.0","340","NNW","10.0","6.2","1019","30.09","-3.0","26.5","-9999","-9999","-9999.00","-9999.00","Mostly Cloudy","mostlycloudy","0","0","0","0","0","0","METAR UKKK 251730Z 34004MPS 9999 BKN021 01/M02 Q1019 R26/290050 NOSIG"
"8:00 PM EET on November 25, 2016","2016","11","25","20","00","Europe/Kiev","6:00 PM GMT on November 25, 2016","2016","11","25","18","00","UTC","1","35","-2","28","66","10.8","6.7","","","0","North","20","12","1020","30.13","-999","-999","-9999","-9999","","","Partly Cloudy","partlycloudy","0","0","0","0","0","0","AAXX 25181 33345 11598 73603 10014 21024 39991 40201 52005 69962 70242 87500 333 10021 87626 555 14100"
"8:00 PM EET on November 25, 2016","2016","11","25","20","00","Europe/Kiev","6:00 PM GMT on November 25, 2016","2016","11","25","18","00","UTC","1.0","33.8","-2.0","28.4","81","14.4","8.9","-9999.0","-9999.0","320","NW","10.0","6.2","1019","30.09","-3.0","26.5","-9999","-9999","-9999.00","-9999.00","Mostly Cloudy","mostlycloudy","0","0","0","0","0","0","METAR UKKK 251800Z 32004MPS 9999 BKN029 01/M02 Q1019 R26/290050 NOSIG"
"8:30 PM EET on November 25, 2016","2016","11","25","20","30","Europe/Kiev","6:30 PM GMT on November 25, 2016","2016","11","25","18","30","UTC","1.0","33.8","-2.0","28.4","81","14.4","8.9","-9999.0","-9999.0","310","NW","10.0","6.2","1019","30.09","-3.0","26.5","-9999","-9999","-9999.00","-9999.00","Mostly Cloudy","mostlycloudy","0","0","0","0","0","0","METAR UKKK 251830Z 31004MPS 9999 BKN029 01/M02 Q1019 R26/290050 NOSIG"
"9:00 PM EET on November 25, 2016","2016","11","25","21","00","Europe/Kiev","7:00 PM GMT on November 25, 2016","2016","11","25","19","00","UTC","1.0","33.8","-2.0","28.4","81","14.4","8.9","-9999.0","-9999.0","300","WNW","10.0","6.2","1019","30.09","-3.0","26.5","-9999","-9999","-9999.00","-9999.00","Mostly Cloudy","mostlycloudy","0","0","0","0","0","0","METAR UKKK 251900Z 30004MPS 9999 BKN029 01/M02 Q1019 R26/290050 NOSIG"
"9:30 PM EET on November 25, 2016","2016","11","25","21","30","Europe/Kiev","7:30 PM GMT on November 25, 2016","2016","11","25","19","30","UTC","1.0","33.8","-2.0","28.4","81","14.4","8.9","-9999.0","-9999.0","300","WNW","10.0","6.2","1019","30.09","-3.0","26.5","-9999","-9999","-9999.00","-9999.00","Mostly Cloudy","mostlycloudy","0","0","0","0","0","0","METAR UKKK 251930Z 30004MPS 9999 BKN029 01/M02 Q1019 R26/290050 NOSIG"
"10:00 PM EET on November 25, 2016","2016","11","25","22","00","Europe/Kiev","8:00 PM GMT on November 25, 2016","2016","11","25","20","00","UTC","1.0","33.8","-2.0","28.4","81","14.4","8.9","-9999.0","-9999.0","310","NW","10.0","6.2","1019","30.09","-3.0","26.5","-9999","-9999","-9999.00","-9999.00","Mostly Cloudy","mostlycloudy","0","0","0","0","0","0","METAR UKKK 252000Z 31004MPS 9999 BKN029 01/M02 Q1019 R26/290050 NOSIG"
"10:30 PM EET on November 25, 2016","2016","11","25","22","30","Europe/Kiev","8:30 PM GMT on November 25, 2016","2016","11","25","20","30","UTC","1.0","33.8","-2.0","28.4","81","10.8","6.7","-9999.0","-9999.0","300","WNW","10.0","6.2","1019","30.09","-2.3","27.9","-9999","-9999","-9999.00","-9999.00","Mostly Cloudy","mostlycloudy","0","0","0","0","0","0","METAR UKKK 252030Z 30003MPS 9999 BKN029 01/M02 Q1019 R26/290050 NOSIG"
"11:00 PM EET on November 25, 2016","2016","11","25","23","00","Europe/Kiev","9:00 PM GMT on November 25, 2016","2016","11","25","21","00","UTC","1","34","-2","29","75","10.8","6.7","","","350","North","20","12","1021","30.14","-999","-999","-9999","-9999","","","Mostly Cloudy","mostlycloudy","0","0","0","0","0","0","AAXX 25211 33345 42498 73503 10012 21017 39996 40206 52005 87500 333 87618 555 14100"
"11:00 PM EET on November 25, 2016","2016","11","25","23","00","Europe/Kiev","9:00 PM GMT on November 25, 2016","2016","11","25","21","00","UTC","1.0","33.8","-2.0","28.4","81","14.4","8.9","-9999.0","-9999.0","300","WNW","10.0","6.2","1019","30.09","-3.0","26.5","-9999","-9999","-9999.00","-9999.00","Mostly Cloudy","mostlycloudy","0","0","0","0","0","0","METAR UKKK 252100Z 30004MPS 9999 BKN019 01/M02 Q1019 R26/290050 NOSIG"
"11:30 PM EET on November 25, 2016","2016","11","25","23","30","Europe/Kiev","9:30 PM GMT on November 25, 2016","2016","11","25","21","30","UTC","1.0","33.8","-2.0","28.4","81","14.4","8.9","-9999.0","-9999.0","300","WNW","10.0","6.2","1020","30.12","-3.0","26.5","-9999","-9999","-9999.00","-9999.00","Overcast","cloudy","0","0","0","0","0","0","METAR UKKK 252130Z 30004MPS 9999 OVC022 01/M02 Q1020 R26/290050 NOSIG"
"12:00 AM EET on November 26, 2016","2016","11","26","00","00","Europe/Kiev","10:00 PM GMT on November 25, 2016","2016","11","25","22","00","UTC","1.0","33.8","-2.0","28.4","81","14.4","8.9","-9999.0","-9999.0","320","NW","10.0","6.2","1020","30.12","-3.0","26.5","-9999","-9999","-9999.00","-9999.00","Mostly Cloudy","mostlycloudy","0","0","0","0","0","0","METAR UKKK 252200Z 32004MPS 9999 BKN032 01/M02 Q1020 R26/290050 NOSIG"
"12:30 AM EET on November 26, 2016","2016","11","26","00","30","Europe/Kiev","10:30 PM GMT on November 25, 2016","2016","11","25","22","30","UTC","1.0","33.8","-1.0","30.2","87","10.8","6.7","-9999.0","-9999.0","320","NW","10.0","6.2","1020","30.12","-2.3","27.9","-9999","-9999","-9999.00","-9999.00","Mostly Cloudy","mostlycloudy","0","0","0","0","0","0","METAR UKKK 252230Z 32003MPS 9999 BKN032 01/M01 Q1020 R26/290050 NOSIG"
"1:00 AM EET on November 26, 2016","2016","11","26","01","00","Europe/Kiev","11:00 PM GMT on November 25, 2016","2016","11","25","23","00","UTC","1.0","33.8","-1.0","30.2","87","10.8","6.7","-9999.0","-9999.0","310","NW","10.0","6.2","1020","30.12","-2.3","27.9","-9999","-9999","-9999.00","-9999.00","Mostly Cloudy","mostlycloudy","0","0","0","0","0","0","METAR UKKK 252300Z 31003MPS 9999 BKN031 01/M01 Q1020 R26/290050 NOSIG"
"1:30 AM EET on November 26, 2016","2016","11","26","01","30","Europe/Kiev","11:30 PM GMT on November 25, 2016","2016","11","25","23","30","UTC","1.0","33.8","-1.0","30.2","87","10.8","6.7","-9999.0","-9999.0","300","WNW","10.0","6.2","1020","30.12","-2.3","27.9","-9999","-9999","-9999.00","-9999.00","Mostly Cloudy","mostlycloudy","0","0","0","0","0","0","METAR UKKK 252330Z 30003MPS 9999 BKN029 01/M01 Q1020 R26/290050 NOSIG"
"2:00 AM EET on November 26, 2016","2016","11","26","02","00","Europe/Kiev","12:00 AM GMT on November 26, 2016","2016","11","26","00","00","UTC","1","35","-2","29","70","7.2","4.5","","","350","North","20","12","1021","30.17","-999","-999","-9999","-9999","","","Mostly Cloudy","mostlycloudy","0","0","0","0","0","0","AAXX 26001 33345 32598 73502 10014 21018 30004 40214 52008 87500 333 87631 555 14100"
"2:00 AM EET on November 26, 2016","2016","11","26","02","00","Europe/Kiev","12:00 AM GMT on November 26, 2016","2016","11","26","00","00","UTC","1.0","33.8","-2.0","28.4","81","7.2","4.5","-9999.0","-9999.0","290","WNW","10.0","6.2","1020","30.12","-1.3","29.7","-9999","-9999","-9999.00","-9999.00","Mostly Cloudy","mostlycloudy","0","0","0","0","0","0","METAR UKKK 260000Z 29002MPS 9999 BKN030 01/M02 Q1020 R26/290050 NOSIG"
"2:30 AM EET on November 26, 2016","2016","11","26","02","30","Europe/Kiev","12:30 AM GMT on November 26, 2016","2016","11","26","00","30","UTC","1.0","33.8","-2.0","28.4","81","10.8","6.7","-9999.0","-9999.0","300","WNW","10.0","6.2","1020","30.12","-2.3","27.9","-9999","-9999","-9999.00","-9999.00","Mostly Cloudy","mostlycloudy","0","0","0","0","0","0","METAR UKKK 260030Z 30003MPS 9999 BKN029 01/M02 Q1020 R26/290050 NOSIG"
"3:00 AM EET on November 26, 2016","2016","11","26","03","00","Europe/Kiev","1:00 AM GMT on November 26, 2016","2016","11","26","01","00","UTC","1.0","33.8","-2.0","28.4","81","10.8","6.7","-9999.0","-9999.0","310","NW","10.0","6.2","1021","30.15","-2.3","27.9","-9999","-9999","-9999.00","-9999.00","Mostly Cloudy","mostlycloudy","0","0","0","0","0","0","METAR UKKK 260100Z 31003MPS 9999 BKN025 01/M02 Q1021 R26/290050 NOSIG"
"3:30 AM EET on November 26, 2016","2016","11","26","03","30","Europe/Kiev","1:30 AM GMT on November 26, 2016","2016","11","26","01","30","UTC","1.0","33.8","-2.0","28.4","81","14.4","8.9","-9999.0","-9999.0","320","NW","10.0","6.2","1021","30.15","-3.0","26.5","-9999","-9999","-9999.00","-9999.00","Mostly Cloudy","mostlycloudy","0","0","0","0","0","0","METAR UKKK 260130Z 32004MPS 9999 BKN026 01/M02 Q1021 R26/290050 NOSIG"
"4:00 AM EET on November 26, 2016","2016","11","26","04","00","Europe/Kiev","2:00 AM GMT on November 26, 2016","2016","11","26","02","00","UTC","1.0","33.8","-3.0","26.6","75","14.4","8.9","-9999.0","-9999.0","330","NNW","10.0","6.2","1020","30.12","-3.0","26.5","-9999","-9999","-9999.00","-9999.00","Mostly Cloudy","mostlycloudy","0","0","0","0","0","0","METAR UKKK 260200Z 33004MPS 9999 BKN025 01/M03 Q1020 R26/290050 NOSIG"
"4:30 AM EET on November 26, 2016","2016","11","26","04","30","Europe/Kiev","2:30 AM GMT on November 26, 2016","2016","11","26","02","30","UTC","1.0","33.8","-4.0","24.8","70","14.4","8.9","-9999.0","-9999.0","320","NW","10.0","6.2","1021","30.15","-3.0","26.5","-9999","-9999","-9999.00","-9999.00","Overcast","cloudy","0","0","0","0","0","0","METAR UKKK 260230Z 32004MPS 9999 OVC023 01/M04 Q1021 R26/290050 NOSIG"
"5:00 AM EET on November 26, 2016","2016","11","26","05","00","Europe/Kiev","3:00 AM GMT on November 26, 2016","2016","11","26","03","00","UTC","1","34","-3","26","62","10.8","6.7","","","350","North","20","12","1022","30.18","-999","-999","-9999","-9999","","","Mostly Cloudy","mostlycloudy","0","0","0","0","0","0","AAXX 26031 33345 42598 73503 10011 21034 30008 40218 52004 87500 333 87624 555 14100"
"5:00 AM EET on November 26, 2016","2016","11","26","05","00","Europe/Kiev","3:00 AM GMT on November 26, 2016","2016","11","26","03","00","UTC","1.0","33.8","-4.0","24.8","70","18.0","11.2","-9999.0","-9999.0","310","NW","10.0","6.2","1021","30.15","-3.7","25.4","-9999","-9999","-9999.00","-9999.00","Overcast","cloudy","0","0","0","0","0","0","METAR UKKK 260300Z 31005MPS 9999 OVC025 01/M04 Q1021 R26/290050 NOSIG"
"5:30 AM EET on November 26, 2016","2016","11","26","05","30","Europe/Kiev","3:30 AM GMT on November 26, 2016","2016","11","26","03","30","UTC","1.0","33.8","-4.0","24.8","70","14.4","8.9","-9999.0","-9999.0","310","NW","10.0","6.2","1020","30.12","-3.0","26.5","-9999","-9999","-9999.00","-9999.00","Overcast","cloudy","0","0","0","0","0","0","METAR UKKK 260330Z 31004MPS 9999 OVC024 01/M04 Q1020 R26/290050 NOSIG"
"6:00 AM EET on November 26, 2016","2016","11","26","06","00","Europe/Kiev","4:00 AM GMT on November 26, 2016","2016","11","26","04","00","UTC","1.0","33.8","-4.0","24.8","70","14.4","8.9","-9999.0","-9999.0","300","WNW","10.0","6.2","1021","30.15","-3.0","26.5","-9999","-9999","-9999.00","-9999.00","Overcast","cloudy","0","0","0","0","0","0","METAR UKKK 260400Z 30004MPS 9999 OVC023 01/M04 Q1021 R26/290050 NOSIG"
"6:30 AM EET on November 26, 2016","2016","11","26","06","30","Europe/Kiev","4:30 AM GMT on November 26, 2016","2016","11","26","04","30","UTC","1.0","33.8","-4.0","24.8","70","14.4","8.9","-9999.0","-9999.0","300","WNW","10.0","6.2","1020","30.12","-3.0","26.5","-9999","-9999","-9999.00","-9999.00","Overcast","cloudy","0","0","0","0","0","0","METAR UKKK 260430Z 30004MPS 9999 OVC024 01/M04 Q1020 R26/290050 NOSIG"
"7:00 AM EET on November 26, 2016","2016","11","26","07","00","Europe/Kiev","5:00 AM GMT on November 26, 2016","2016","11","26","05","00","UTC","0.0","32.0","-4.0","24.8","75","10.8","6.7","-9999.0","-9999.0","280","West","10.0","6.2","1020","30.12","-3.5","25.7","-9999","-9999","-9999.00","-9999.00","Overcast","cloudy","0","0","0","0","0","0","METAR UKKK 260500Z 28003MPS 9999 OVC023 00/M04 Q1020 R26/290050 NOSIG"
"7:30 AM EET on November 26, 2016","2016","11","26","07","30","Europe/Kiev","5:30 AM GMT on November 26, 2016","2016","11","26","05","30","UTC","0.0","32.0","-4.0","24.8","75","10.8","6.7","-9999.0","-9999.0","280","West","10.0","6.2","1020","30.12","-3.5","25.7","-9999","-9999","-9999.00","-9999.00","Mostly Cloudy","mostlycloudy","0","0","0","0","0","0","METAR UKKK 260530Z 28003MPS 9999 BKN023 00/M04 Q1020 R26/290050 NOSIG"
"8:00 AM EET on November 26, 2016","2016","11","26","08","00","Europe/Kiev","6:00 AM GMT on November 26, 2016","2016","11","26","06","00","UTC","0","33","-4","25","63","7.2","4.5","","","290","WNW","20","12","1022","30.17","-999","-999","-9999","-9999","","","Mostly Cloudy","mostlycloudy","0","0","0","0","0","0","AAXX 26061 33345 32598 72902 10005 21038 30006 40217 58002 87500 333 20004 87624 555 14101"
"8:00 AM EET on November 26, 2016","2016","11","26","08","00","Europe/Kiev","6:00 AM GMT on November 26, 2016","2016","11","26","06","00","UTC","0.0","32.0","-4.0","24.8","75","10.8","6.7","-9999.0","-9999.0","270","West","10.0","6.2","1020","30.12","-3.5","25.7","-9999","-9999","-9999.00","-9999.00","Mostly Cloudy","mostlycloudy","0","0","0","0","0","0","METAR UKKK 260600Z 27003MPS 9999 BKN023 00/M04 Q1020 R26/290050 NOSIG"
"8:30 AM EET on November 26, 2016","2016","11","26","08","30","Europe/Kiev","6:30 AM GMT on November 26, 2016","2016","11","26","06","30","UTC","1.0","33.8","-4.0","24.8","70","10.8","6.7","-9999.0","-9999.0","260","West","10.0","6.2","1020","30.12","-2.3","27.9","-9999","-9999","-9999.00","-9999.00","Mostly Cloudy","mostlycloudy","0","0","0","0","0","0","METAR UKKK 260630Z 26003MPS 9999 BKN023 01/M04 Q1020 R26/290050 NOSIG"
"9:00 AM EET on November 26, 2016","2016","11","26","09","00","Europe/Kiev","7:00 AM GMT on November 26, 2016","2016","11","26","07","00","UTC","1.0","33.8","-4.0","24.8","70","14.4","8.9","-9999.0","-9999.0","250","WSW","10.0","6.2","1020","30.12","-3.0","26.5","-9999","-9999","-9999.00","-9999.00","Mostly Cloudy","mostlycloudy","0","0","0","0","0","0","METAR UKKK 260700Z 25004MPS 9999 BKN023 01/M04 Q1020 R26/290050 NOSIG"
"9:30 AM EET on November 26, 2016","2016","11","26","09","30","Europe/Kiev","7:30 AM GMT on November 26, 2016","2016","11","26","07","30","UTC","1.0","33.8","-4.0","24.8","70","18.0","11.2","-9999.0","-9999.0","260","West","10.0","6.2","1020","30.12","-3.7","25.4","-9999","-9999","-9999.00","-9999.00","Mostly Cloudy","mostlycloudy","0","0","0","0","0","0","METAR UKKK 260730Z 26005MPS 9999 FEW033 BKN200 01/M04 Q1020 R26/290050 NOSIG"
"10:00 AM EET on November 26, 2016","2016","11","26","10","00","Europe/Kiev","8:00 AM GMT on November 26, 2016","2016","11","26","08","00","UTC","2.0","35.6","-3.0","26.6","70","21.6","13.4","-9999.0","-9999.0","250","WSW","-9999.0","-9999.0","1020","30.12","-2.9","26.8","-9999","-9999","-9999.00","-9999.00","Clear","clear","0","0","0","0","0","0","METAR UKKK 260800Z 25006MPS CAVOK 02/M03 Q1020 R26/290050 NOSIG"
"10:30 AM EET on November 26, 2016","2016","11","26","10","30","Europe/Kiev","8:30 AM GMT on November 26, 2016","2016","11","26","08","30","UTC","2.0","35.6","-3.0","26.6","70","25.2","15.7","-9999.0","-9999.0","250","WSW","10.0","6.2","1019","30.09","-3.3","26.0","-9999","-9999","-9999.00","-9999.00","Mostly Cloudy","mostlycloudy","0","0","0","0","0","0","METAR UKKK 260830Z 25007MPS 9999 FEW022 BKN200 02/M03 Q1019 R26/290050 NOSIG"
"11:00 AM EET on November 26, 2016","2016","11","26","11","00","Europe/Kiev","9:00 AM GMT on November 26, 2016","2016","11","26","09","00","UTC","2","36","-3","27","59","18.0","11.2","","","290","WNW","20","12","1020","30.14","-999","-999","-9999","-9999","","","Scattered Clouds","partlycloudy","0","0","0","0","0","0","AAXX 26091 33345 42998 62905 10024 21029 39995 40204 57011 82015 555 11002"
"11:00 AM EET on November 26, 2016","2016","11","26","11","00","Europe/Kiev","9:00 AM GMT on November 26, 2016","2016","11","26","09","00","UTC","2.0","35.6","-3.0","26.6","70","21.6","13.4","-9999.0","-9999.0","260","West","10.0","6.2","1019","30.09","-2.9","26.8","-9999","-9999","-9999.00","-9999.00","Mostly Cloudy","mostlycloudy","0","0","0","0","0","0","METAR UKKK 260900Z 26006MPS 9999 FEW030 BKN200 02/M03 Q1019 R26/290050 NOSIG"
"11:30 AM EET on November 26, 2016","2016","11","26","11","30","Europe/Kiev","9:30 AM GMT on November 26, 2016","2016","11","26","09","30","UTC","3.0","37.4","-3.0","26.6","65","25.2","15.7","-9999.0","-9999.0","250","WSW","-9999.0","-9999.0","1018","30.06","-2.1","28.3","-9999","-9999","-9999.00","-9999.00","Clear","clear","0","0","0","0","0","0","METAR UKKK 260930Z 25007MPS 220V280 CAVOK 03/M03 Q1018 R26/190055 NOSIG"
"12:00 PM EET on November 26, 2016","2016","11","26","12","00","Europe/Kiev","10:00 AM GMT on November 26, 2016","2016","11","26","10","00","UTC","2.0","35.6","-3.0","26.6","70","21.6","13.4","-9999.0","-9999.0","250","WSW","-9999.0","-9999.0","1018","30.06","-2.9","26.8","-9999","-9999","-9999.00","-9999.00","Clear","clear","0","0","0","0","0","0","METAR UKKK 261000Z 25006MPS CAVOK 02/M03 Q1018 R26/190055 NOSIG"
"12:30 PM EET on November 26, 2016","2016","11","26","12","30","Europe/Kiev","10:30 AM GMT on November 26, 2016","2016","11","26","10","30","UTC","2.0","35.6","-3.0","26.6","70","21.6","13.4","-9999.0","-9999.0","250","WSW","-9999.0","-9999.0","1017","30.04","-2.9","26.8","-9999","-9999","-9999.00","-9999.00","Clear","clear","0","0","0","0","0","0","METAR UKKK 261030Z 25006MPS CAVOK 02/M03 Q1017 R26/190055 NOSIG"
"1:00 PM EET on November 26, 2016","2016","11","26","13","00","Europe/Kiev","11:00 AM GMT on November 26, 2016","2016","11","26","11","00","UTC","3.0","37.4","-3.0","26.6","65","21.6","13.4","-9999.0","-9999.0","240","WSW","-9999.0","-9999.0","1017","30.04","-1.6","29.1","-9999","-9999","-9999.00","-9999.00","Clear","clear","0","0","0","0","0","0","METAR UKKK 261100Z 24006MPS 210V270 CAVOK 03/M03 Q1017 R26/190055 NOSIG"
"1:30 PM EET on November 26, 2016","2016","11","26","13","30","Europe/Kiev","11:30 AM GMT on November 26, 2016","2016","11","26","11","30","UTC","3.0","37.4","-3.0","26.6","65","18.0","11.2","-9999.0","-9999.0","240","WSW","-9999.0","-9999.0","1017","30.04","-1.2","29.9","-9999","-9999","-9999.00","-9999.00","Clear","clear","0","0","0","0","0","0","METAR UKKK 261130Z 24005MPS CAVOK 03/M03 Q1017 R26/190055 NOSIG"
"2:00 PM EET on November 26, 2016","2016","11","26","14","00","Europe/Kiev","12:00 PM GMT on November 26, 2016","2016","11","26","12","00","UTC","2","36","-2","28","61","14.4","8.9","","","250","WSW","20","12","1017","30.05","-999","-999","-9999","-9999","","","Overcast","cloudy","0","0","0","0","0","0","AAXX 26121 33345 32998 82504 10024 21025 39966 40174 57029 8807/ 555 11001"
"2:00 PM EET on November 26, 2016","2016","11","26","14","00","Europe/Kiev","12:00 PM GMT on November 26, 2016","2016","11","26","12","00","UTC","3.0","37.4","-2.0","28.4","70","25.2","15.7","-9999.0","-9999.0","240","WSW","-9999.0","-9999.0","1016","30.01","-2.1","28.3","-9999","-9999","-9999.00","-9999.00","Clear","clear","0","0","0","0","0","0","METAR UKKK 261200Z 24007MPS CAVOK 03/M02 Q1016 R26/190055 NOSIG"
"2:30 PM EET on November 26, 2016","2016","11","26","14","30","Europe/Kiev","12:30 PM GMT on November 26, 2016","2016","11","26","12","30","UTC","2.0","35.6","-2.0","28.4","75","18.0","11.2","-9999.0","-9999.0","240","WSW","9.0","5.6","1016","30.01","-2.4","27.7","-9999","-9999","-9999.00","-9999.00","Unknown","unknown","0","0","0","0","0","0","METAR UKKK 261230Z 24005MPS 9000 NSC 02/M02 Q1016 R26/190055 NOSIG"
"3:00 PM EET on November 26, 2016","2016","11","26","15","00","Europe/Kiev","1:00 PM GMT on November 26, 2016","2016","11","26","13","00","UTC","3.0","37.4","-2.0","28.4","70","18.0","11.2","-9999.0","-9999.0","240","WSW","-9999.0","-9999.0","1015","29.98","-1.2","29.9","-9999","-9999","-9999.00","-9999.00","Clear","clear","0","0","0","0","0","0","METAR UKKK 261300Z 24005MPS CAVOK 03/M02 Q1015 R26/190055 NOSIG"
"3:30 PM EET on November 26, 2016","2016","11","26","15","30","Europe/Kiev","1:30 PM GMT on November 26, 2016","2016","11","26","13","30","UTC","2.0","35.6","-2.0","28.4","75","18.0","11.2","-9999.0","-9999.0","230","SW","-9999.0","-9999.0","1015","29.98","-2.4","27.7","-9999","-9999","-9999.00","-9999.00","Clear","clear","0","0","0","0","0","0","METAR UKKK 261330Z 23005MPS CAVOK 02/M02 Q1015 R26/190055 NOSIG"
"4:00 PM EET on November 26, 2016","2016","11","26","16","00","Europe/Kiev","2:00 PM GMT on November 26, 2016","2016","11","26","14","00","UTC","2.0","35.6","-2.0","28.4","75","18.0","11.2","-9999.0","-9999.0","230","SW","-9999.0","-9999.0","1014","29.95","-2.4","27.7","-9999","-9999","-9999.00","-9999.00","Clear","clear","0","0","0","0","0","0","METAR UKKK 261400Z 23005MPS CAVOK 02/M02 Q1014 R26/190055 NOSIG"
"4:30 PM EET on November 26, 2016","2016","11","26","16","30","Europe/Kiev","2:30 PM GMT on November 26, 2016","2016","11","26","14","30","UTC","2.0","35.6","-2.0","28.4","75","14.4","8.9","-9999.0","-9999.0","230","SW","-9999.0","-9999.0","1014","29.95","-1.8","28.7","-9999","-9999","-9999.00","-9999.00","Clear","clear","0","0","0","0","0","0","METAR UKKK 261430Z 23004MPS CAVOK 02/M02 Q1014 R26/190055 NOSIG"
"5:00 PM EET on November 26, 2016","2016","11","26","17","00","Europe/Kiev","3:00 PM GMT on November 26, 2016","2016","11","26","15","00","UTC","2","36","-2","28","64","10.8","6.7","","","240","WSW","20","12","1015","29.97","-999","-999","-9999","-9999","","","Mostly Cloudy","mostlycloudy","0","0","0","0","0","0","AAXX 26151 33345 42998 72403 10022 21021 39939 40147 57027 87030 555 11000"
"5:00 PM EET on November 26, 2016","2016","11","26","17","00","Europe/Kiev","3:00 PM GMT on November 26, 2016","2016","11","26","15","00","UTC","2.0","35.6","-2.0","28.4","75","14.4","8.9","-9999.0","-9999.0","230","SW","-9999.0","-9999.0","1013","29.92","-1.8","28.7","-9999","-9999","-9999.00","-9999.00","Clear","clear","0","0","0","0","0","0","METAR UKKK 261500Z 23004MPS CAVOK 02/M02 Q1013 R26/190055 NOSIG"
"5:30 PM EET on November 26, 2016","2016","11","26","17","30","Europe/Kiev","3:30 PM GMT on November 26, 2016","2016","11","26","15","30","UTC","2.0","35.6","-2.0","28.4","75","14.4","8.9","-9999.0","-9999.0","230","SW","9.0","5.6","1013","29.92","-1.8","28.7","-9999","-9999","-9999.00","-9999.00","Unknown","unknown","0","0","0","0","0","0","METAR UKKK 261530Z 23004MPS 9000 NSC 02/M02 Q1013 R26/190055 NOSIG"
"6:00 PM EET on November 26, 2016","2016","11","26","18","00","Europe/Kiev","4:00 PM GMT on November 26, 2016","2016","11","26","16","00","UTC","2.0","35.6","-1.0","30.2","81","14.4","8.9","-9999.0","-9999.0","230","SW","-9999.0","-9999.0","1012","29.89","-1.8","28.7","-9999","-9999","-9999.00","-9999.00","Clear","clear","0","0","0","0","0","0","METAR UKKK 261600Z 23004MPS CAVOK 02/M01 Q1012 R26/190055 NOSIG"
"6:30 PM EET on November 26, 2016","2016","11","26","18","30","Europe/Kiev","4:30 PM GMT on November 26, 2016","2016","11","26","16","30","UTC","2.0","35.6","-1.0","30.2","81","18.0","11.2","-9999.0","-9999.0","240","WSW","-9999.0","-9999.0","1012","29.89","-2.4","27.7","-9999","-9999","-9999.00","-9999.00","Clear","clear","0","0","0","0","0","0","METAR UKKK 261630Z 24005MPS CAVOK 02/M01 Q1012 R26/190055 NOSIG"
"7:00 PM EET on November 26, 2016","2016","11","26","19","00","Europe/Kiev","5:00 PM GMT on November 26, 2016","2016","11","26","17","00","UTC","3.0","37.4","-1.0","30.2","75","18.0","11.2","-9999.0","-9999.0","240","WSW","-9999.0","-9999.0","1011","29.86","-1.2","29.9","-9999","-9999","-9999.00","-9999.00","Clear","clear","0","0","0","0","0","0","METAR UKKK 261700Z 24005MPS CAVOK 03/M01 Q1011 R26/190055 NOSIG"
"7:30 PM EET on November 26, 2016","2016","11","26","19","30","Europe/Kiev","5:30 PM GMT on November 26, 2016","2016","11","26","17","30","UTC","3.0","37.4","-1.0","30.2","75","18.0","11.2","-9999.0","-9999.0","230","SW","-9999.0","-9999.0","1011","29.86","-1.2","29.9","-9999","-9999","-9999.00","-9999.00","Clear","clear","0","0","0","0","0","0","METAR UKKK 261730Z 23005MPS CAVOK 03/M01 Q1011 R26/190055 NOSIG"
"8:00 PM EET on November 26, 2016","2016","11","26","20","00","Europe/Kiev","6:00 PM GMT on November 26, 2016","2016","11","26","18","00","UTC","3","37","-2","29","64","14.4","8.9","","","250","WSW","20","12","1012","29.88","-999","-999","-9999","-9999","","","Mostly Cloudy","mostlycloudy","0","0","0","0","0","0","AAXX 26181 33345 32998 72504 10027 21015 39912 40119 57027 87030 333 10030 555 11000"
"8:00 PM EET on November 26, 2016","2016","11","26","20","00","Europe/Kiev","6:00 PM GMT on November 26, 2016","2016","11","26","18","00","UTC","3.0","37.4","-2.0","28.4","70","21.6","13.4","-9999.0","-9999.0","240","WSW","-9999.0","-9999.0","1010","29.83","-1.6","29.1","-9999","-9999","-9999.00","-9999.00","Clear","clear","0","0","0","0","0","0","METAR UKKK 261800Z 24006MPS CAVOK 03/M02 Q1010 R26/190055 NOSIG"
"8:30 PM EET on November 26, 2016","2016","11","26","20","30","Europe/Kiev","6:30 PM GMT on November 26, 2016","2016","11","26","18","30","UTC","3.0","37.4","-1.0","30.2","75","21.6","13.4","-9999.0","-9999.0","240","WSW","-9999.0","-9999.0","1010","29.83","-1.6","29.1","-9999","-9999","-9999.00","-9999.00","Clear","clear","0","0","0","0","0","0","METAR UKKK 261830Z 24006MPS CAVOK 03/M01 Q1010 R26/190055 NOSIG"
"9:00 PM EET on November 26, 2016","2016","11","26","21","00","Europe/Kiev","7:00 PM GMT on November 26, 2016","2016","11","26","19","00","UTC","3.0","37.4","-1.0","30.2","75","25.2","15.7","-9999.0","-9999.0","240","WSW","-9999.0","-9999.0","1010","29.83","-2.1","28.3","-9999","-9999","-9999.00","-9999.00","Clear","clear","0","0","0","0","0","0","METAR UKKK 261900Z 24007MPS CAVOK 03/M01 Q1010 R26/190055 NOSIG"
"9:30 PM EET on November 26, 2016","2016","11","26","21","30","Europe/Kiev","7:30 PM GMT on November 26, 2016","2016","11","26","19","30","UTC","3.0","37.4","-1.0","30.2","75","21.6","13.4","-9999.0","-9999.0","250","WSW","-9999.0","-9999.0","1010","29.83","-1.6","29.1","-9999","-9999","-9999.00","-9999.00","Clear","clear","0","0","0","0","0","0","METAR UKKK 261930Z 25006MPS CAVOK 03/M01 Q1010 R26/190055 NOSIG"
"10:00 PM EET on November 26, 2016","2016","11","26","22","00","Europe/Kiev","8:00 PM GMT on November 26, 2016","2016","11","26","20","00","UTC","3.0","37.4","-1.0","30.2","75","21.6","13.4","-9999.0","-9999.0","250","WSW","-9999.0","-9999.0","1009","29.80","-1.6","29.1","-9999","-9999","-9999.00","-9999.00","Clear","clear","0","0","0","0","0","0","METAR UKKK 262000Z 25006MPS CAVOK 03/M01 Q1009 R26/190055 NOSIG"
"10:30 PM EET on November 26, 2016","2016","11","26","22","30","Europe/Kiev","8:30 PM GMT on November 26, 2016","2016","11","26","20","30","UTC","2.0","35.6","-1.0","30.2","81","21.6","13.4","-9999.0","-9999.0","240","WSW","-9999.0","-9999.0","1009","29.80","-2.9","26.8","-9999","-9999","-9999.00","-9999.00","Clear","clear","0","0","0","0","0","0","METAR UKKK 262030Z 24006MPS CAVOK 02/M01 Q1009 R26/190055 NOSIG"
"11:00 PM EET on November 26, 2016","2016","11","26","23","00","Europe/Kiev","9:00 PM GMT on November 26, 2016","2016","11","26","21","00","UTC","2","36","-0","31","76","18.0","11.2","","","260","West","20","12","1010","29.82","-999","-999","-9999","-9999","","","","","0","0","0","0","0","0","AAXX 26211 33345 42998 02605 10022 21005 39891 40098 57021 555 11100"
"11:00 PM EET on November 26, 2016","2016","11","26","23","00","Europe/Kiev","9:00 PM GMT on November 26, 2016","2016","11","26","21","00","UTC","2.0","35.6","-1.0","30.2","81","21.6","13.4","-9999.0","-9999.0","250","WSW","-9999.0","-9999.0","1008","29.77","-2.9","26.8","-9999","-9999","-9999.00","-9999.00","Clear","clear","0","0","0","0","0","0","METAR UKKK 262100Z 25006MPS CAVOK 02/M01 Q1008 R26/190055 NOSIG"
"11:30 PM EET on November 26, 2016","2016","11","26","23","30","Europe/Kiev","9:30 PM GMT on November 26, 2016","2016","11","26","21","30","UTC","2.0","35.6","-1.0","30.2","81","21.6","13.4","-9999.0","-9999.0","240","WSW","-9999.0","-9999.0","1008","29.77","-2.9","26.8","-9999","-9999","-9999.00","-9999.00","Clear","clear","0","0","0","0","0","0","METAR UKKK 262130Z 24006MPS CAVOK 02/M01 Q1008 R26/190055 NOSIG"
"12:00 AM EET on November 27, 2016","2016","11","27","00","00","Europe/Kiev","10:00 PM GMT on November 26, 2016","2016","11","26","22","00","UTC","2.0","35.6","-1.0","30.2","81","21.6","13.4","-9999.0","-9999.0","240","WSW","-9999.0","-9999.0","1008","29.77","-2.9","26.8","-9999","-9999","-9999.00","-9999.00","Clear","clear","0","0","0","0","0","0","METAR UKKK 262200Z 24006MPS CAVOK 02/M01 Q1008 R26/190055 NOSIG"
"12:30 AM EET on November 27, 2016","2016","11","27","00","30","Europe/Kiev","10:30 PM GMT on November 26, 2016","2016","11","26","22","30","UTC","2.0","35.6","-1.0","30.2","81","21.6","13.4","-9999.0","-9999.0","240","WSW","-9999.0","-9999.0","1007","29.74","-2.9","26.8","-9999","-9999","-9999.00","-9999.00","Clear","clear","0","0","0","0","0","0","METAR UKKK 262230Z 24006MPS CAVOK 02/M01 Q1007 R26/190055 NOSIG"
"1:00 AM EET on November 27, 2016","2016","11","27","01","00","Europe/Kiev","11:00 PM GMT on November 26, 2016","2016","11","26","23","00","UTC","2.0","35.6","0.0","32.0","87","25.2","15.7","-9999.0","-9999.0","250","WSW","10.0","6.2","1007","29.74","-3.3","26.0","-9999","-9999","-9999.00","-9999.00","Partly Cloudy","partlycloudy","0","0","0","0","0","0","METAR UKKK 262300Z 25007MPS 9999 FEW009 02/M00 Q1007 R26/190055 NOSIG"
"1:30 AM EET on November 27, 2016","2016","11","27","01","30","Europe/Kiev","11:30 PM GMT on November 26, 2016","2016","11","26","23","30","UTC","3.0","37.4","1.0","33.8","87","32.4","20.1","-9999.0","-9999.0","250","WSW","10.0","6.2","1006","29.71","-2.8","27.0","-9999","-9999","-9999.00","-9999.00","Scattered Clouds","partlycloudy","0","0","0","0","0","0","METAR UKKK 262330Z 25009MPS 9999 SCT009 03/01 Q1006 R26/190055 NOSIG"
"2:00 AM EET on November 27, 2016","2016","11","27","02","00","Europe/Kiev","12:00 AM GMT on November 27, 2016","2016","11","27","00","00","UTC","3","37","1","34","85","21.6","13.4","","","280","West","10","6","1008","29.75","-999","-999","-9999","-9999","","","Overcast","cloudy","0","0","0","0","0","0","AAXX 27001 33345 32497 82806 10030 20012 39869 40075 57022 886// 333 88710 555 11000"
"2:00 AM EET on November 27, 2016","2016","11","27","02","00","Europe/Kiev","12:00 AM GMT on November 27, 2016","2016","11","27","00","00","UTC","3.0","37.4","1.0","33.8","87","32.4","20.1","-9999.0","-9999.0","250","WSW","10.0","6.2","1006","29.71","-2.8","27.0","-9999","-9999","-9999.00","-9999.00","Scattered Clouds","partlycloudy","0","0","0","0","0","0","METAR UKKK 270000Z 25009MPS 9999 SCT008 03/01 Q1006 R26/190055 NOSIG"
"2:30 AM EET on November 27, 2016","2016","11","27","02","30","Europe/Kiev","12:30 AM GMT on November 27, 2016","2016","11","27","00","30","UTC","3.0","37.4","2.0","35.6","93","28.8","17.9","-9999.0","-9999.0","250","WSW","9.0","5.6","1006","29.71","-2.4","27.6","-9999","-9999","-9999.00","-9999.00","Scattered Clouds","partlycloudy","0","0","0","0","0","0","METAR UKKK 270030Z 25008MPS 9000 SCT007 03/02 Q1006 R26/190055 NOSIG"
"3:00 AM EET on November 27, 2016","2016","11","27","03","00","Europe/Kiev","1:00 AM GMT on November 27, 2016","2016","11","27","01","00","UTC","4.0","39.2","2.0","35.6","87","25.2","15.7","-9999.0","-9999.0","250","WSW","8.0","5.0","1006","29.71","-0.8","30.6","-9999","-9999","-9999.00","-9999.00","Scattered Clouds","partlycloudy","0","0","0","0","0","0","METAR UKKK 270100Z 25007MPS 8000 SCT007 04/02 Q1006 R26/190055 NOSIG"
"3:30 AM EET on November 27, 2016","2016","11","27","03","30","Europe/Kiev","1:30 AM GMT on November 27, 2016","2016","11","27","01","30","UTC","4.0","39.2","3.0","37.4","93","18.0","11.2","-9999.0","-9999.0","240","WSW","8.0","5.0","1005","29.68","0.1","32.2","-9999","-9999","-9999.00","-9999.00","Scattered Clouds","partlycloudy","0","0","0","0","0","0","METAR UKKK 270130Z 24005MPS 8000 SCT008 04/03 Q1005 R26/190055 NOSIG"
"4:00 AM EET on November 27, 2016","2016","11","27","04","00","Europe/Kiev","2:00 AM GMT on November 27, 2016","2016","11","27","02","00","UTC","4.0","39.2","2.0","35.6","87","18.0","11.2","-9999.0","-9999.0","240","WSW","8.0","5.0","1005","29.68","0.1","32.2","-9999","-9999","-9999.00","-9999.00","Mostly Cloudy","mostlycloudy","0","0","0","0","0","0","METAR UKKK 270200Z 24005MPS 8000 BKN010 04/02 Q1005 R26/190055 NOSIG"
"4:30 AM EET on November 27, 2016","2016","11","27","04","30","Europe/Kiev","2:30 AM GMT on November 27, 2016","2016","11","27","02","30","UTC","3.0","37.4","2.0","35.6","93","18.0","11.2","-9999.0","-9999.0","250","WSW","8.0","5.0","1004","29.65","-1.2","29.9","-9999","-9999","-9999.00","-9999.00","Mostly Cloudy","mostlycloudy","0","0","0","0","0","0","METAR UKKK 270230Z 25005MPS 8000 FEW011 BKN110 03/02 Q1004 R26/190055 NOSIG"
"5:00 AM EET on November 27, 2016","2016","11","27","05","00","Europe/Kiev","3:00 AM GMT on November 27, 2016","2016","11","27","03","00","UTC","4","38","2","35","85","18.0","11.2","","","270","West","10","6","1005","29.68","-999","-999","-9999","-9999","","","","","0","0","0","0","0","0","AAXX 27031 33345 42997 02705 10035 20017 39846 40051 57023 555 11100"
"5:00 AM EET on November 27, 2016","2016","11","27","05","00","Europe/Kiev","3:00 AM GMT on November 27, 2016","2016","11","27","03","00","UTC","3.0","37.4","1.0","33.8","87","18.0","11.2","-9999.0","-9999.0","250","WSW","9.0","5.6","1004","29.65","-1.2","29.9","-9999","-9999","-9999.00","-9999.00","Unknown","unknown","0","0","0","0","0","0","METAR UKKK 270300Z 25005MPS 9000 NSC 03/01 Q1004 R26/190055 NOSIG"
"5:30 AM EET on November 27, 2016","2016","11","27","05","30","Europe/Kiev","3:30 AM GMT on November 27, 2016","2016","11","27","03","30","UTC","3.0","37.4","1.0","33.8","87","18.0","11.2","-9999.0","-9999.0","240","WSW","-9999.0","-9999.0","1004","29.65","-1.2","29.9","-9999","-9999","-9999.00","-9999.00","Clear","clear","0","0","0","0","0","0","METAR UKKK 270330Z 24005MPS CAVOK 03/01 Q1004 R26/190055 NOSIG"
"6:00 AM EET on November 27, 2016","2016","11","27","06","00","Europe/Kiev","4:00 AM GMT on November 27, 2016","2016","11","27","04","00","UTC","3.0","37.4","1.0","33.8","87","21.6","13.4","-9999.0","-9999.0","240","WSW","-9999.0","-9999.0","1004","29.65","-1.6","29.1","-9999","-9999","-9999.00","-9999.00","Clear","clear","0","0","0","0","0","0","METAR UKKK 270400Z 24006MPS CAVOK 03/01 Q1004 R26/190055 NOSIG"
"6:30 AM EET on November 27, 2016","2016","11","27","06","30","Europe/Kiev","4:30 AM GMT on November 27, 2016","2016","11","27","04","30","UTC","4.0","39.2","1.0","33.8","81","21.6","13.4","-9999.0","-9999.0","240","WSW","-9999.0","-9999.0","1003","29.62","-0.4","31.3","-9999","-9999","-9999.00","-9999.00","Clear","clear","0","0","0","0","0","0","METAR UKKK 270430Z 24006MPS CAVOK 04/01 Q1003 R26/190055 NOSIG"
"7:00 AM EET on November 27, 2016","2016","11","27","07","00","Europe/Kiev","5:00 AM GMT on November 27, 2016","2016","11","27","05","00","UTC","4.0","39.2","2.0","35.6","87","21.6","13.4","-9999.0","-9999.0","240","WSW","-9999.0","-9999.0","1003","29.62","-0.4","31.3","-9999","-9999","-9999.00","-9999.00","Clear","clear","0","0","0","0","0","0","METAR UKKK 270500Z 24006MPS CAVOK 04/02 Q1003 R26/190055 NOSIG"
"7:30 AM EET on November 27, 2016","2016","11","27","07","30","Europe/Kiev","5:30 AM GMT on November 27, 2016","2016","11","27","05","30","UTC","4.0","39.2","2.0","35.6","87","18.0","11.2","-9999.0","-9999.0","240","WSW","-9999.0","-9999.0","1003","29.62","0.1","32.2","-9999","-9999","-9999.00","-9999.00","Clear","clear","0","0","0","0","0","0","METAR UKKK 270530Z 24005MPS CAVOK 04/02 Q1003 R26/190055 NOSIG"
"8:00 AM EET on November 27, 2016","2016","11","27","08","00","Europe/Kiev","6:00 AM GMT on November 27, 2016","2016","11","27","06","00","UTC","5","40","2","36","79","18.0","11.2","","","270","West","20","12","1004","29.65","-999","-999","-9999","-9999","","","Clear","clear","0","0","0","0","0","0","AAXX 27061 33345 32998 22705 10046 20021 39834 40038 57012 80009 333 20018 555 11000"
"8:00 AM EET on November 27, 2016","2016","11","27","08","00","Europe/Kiev","6:00 AM GMT on November 27, 2016","2016","11","27","06","00","UTC","4.0","39.2","2.0","35.6","87","18.0","11.2","-9999.0","-9999.0","240","WSW","-9999.0","-9999.0","1003","29.62","0.1","32.2","-9999","-9999","-9999.00","-9999.00","Clear","clear","0","0","0","0","0","0","METAR UKKK 270600Z 24005MPS CAVOK 04/02 Q1003 R26/190055 NOSIG"
"8:30 AM EET on November 27, 2016","2016","11","27","08","30","Europe/Kiev","6:30 AM GMT on November 27, 2016","2016","11","27","06","30","UTC","4.0","39.2","2.0","35.6","87","18.0","11.2","-9999.0","-9999.0","250","WSW","9.0","5.6","1003","29.62","0.1","32.2","-9999","-9999","-9999.00","-9999.00","Unknown","unknown","0","0","0","0","0","0","METAR UKKK 270630Z 25005MPS 9000 NSC 04/02 Q1003 R26/190055 NOSIG"
"9:00 AM EET on November 27, 2016","2016","11","27","09","00","Europe/Kiev","7:00 AM GMT on November 27, 2016","2016","11","27","07","00","UTC","5.0","41.0","3.0","37.4","87","18.0","11.2","-9999.0","-9999.0","250","WSW","10.0","6.2","1003","29.62","1.3","34.4","-9999","-9999","-9999.00","-9999.00","Scattered Clouds","partlycloudy","0","0","0","0","0","0","METAR UKKK 270700Z 25005MPS 9999 FEW015 SCT100 05/03 Q1003 R26/190055 NOSIG"
"9:30 AM EET on November 27, 2016","2016","11","27","09","30","Europe/Kiev","7:30 AM GMT on November 27, 2016","2016","11","27","07","30","UTC","6.0","42.8","3.0","37.4","81","25.2","15.7","-9999.0","-9999.0","260","West","9.0","5.6","1003","29.62","1.8","35.2","-9999","-9999","-9999.00","-9999.00","Scattered Clouds","partlycloudy","0","0","0","0","0","0","METAR UKKK 270730Z 26007MPS 9000 FEW017 SCT100 06/03 Q1003 R26/190055 NOSIG"
"10:00 AM EET on November 27, 2016","2016","11","27","10","00","Europe/Kiev","8:00 AM GMT on November 27, 2016","2016","11","27","08","00","UTC","6.0","42.8","3.0","37.4","81","25.2","15.7","-9999.0","-9999.0","260","West","10.0","6.2","1003","29.62","1.8","35.2","-9999","-9999","-9999.00","-9999.00","Partly Cloudy","partlycloudy","0","0","0","0","0","0","METAR UKKK 270800Z 26007MPS 9999 FEW020 06/03 Q1003 R26/190055 NOSIG"
"10:30 AM EET on November 27, 2016","2016","11","27","10","30","Europe/Kiev","8:30 AM GMT on November 27, 2016","2016","11","27","08","30","UTC","7.0","44.6","3.0","37.4","76","25.2","15.7","-9999.0","-9999.0","260","West","10.0","6.2","1003","29.62","3.1","37.6","-9999","-9999","-9999.00","-9999.00","Mostly Cloudy","mostlycloudy","0","0","0","0","0","0","METAR UKKK 270830Z 26007MPS 9999 BKN020 07/03 Q1003 R26/190055 NOSIG"
"11:00 AM EET on November 27, 2016","2016","11","27","11","00","Europe/Kiev","9:00 AM GMT on November 27, 2016","2016","11","27","09","00","UTC","7","45","3","37","66","21.6","13.4","","","280","West","20","12","1003","29.63","-999","-999","-9999","-9999","","","Mostly Cloudy","mostlycloudy","0","0","0","0","0","0","AAXX 27091 33345 42498 72806 10074 20029 39831 40033 57003 86630 333 86717 555 11007"
"11:00 AM EET on November 27, 2016","2016","11","27","11","00","Europe/Kiev","9:00 AM GMT on November 27, 2016","2016","11","27","09","00","UTC","7.0","44.6","3.0","37.4","76","25.2","15.7","-9999.0","-9999.0","260","West","10.0","6.2","1002","29.59","3.1","37.6","-9999","-9999","-9999.00","-9999.00","Mostly Cloudy","mostlycloudy","0","0","0","0","0","0","METAR UKKK 270900Z 26007MPS 9999 BKN019 07/03 Q1002 R26/190055 NOSIG"
"11:30 AM EET on November 27, 2016","2016","11","27","11","30","Europe/Kiev","9:30 AM GMT on November 27, 2016","2016","11","27","09","30","UTC","7.0","44.6","3.0","37.4","76","21.6","13.4","-9999.0","-9999.0","260","West","9.0","5.6","1002","29.59","3.4","38.2","-9999","-9999","-9999.00","-9999.00","Mostly Cloudy","mostlycloudy","0","0","0","0","0","0","METAR UKKK 270930Z 26006MPS 9000 BKN018 07/03 Q1002 R26/190055 NOSIG"
"12:00 PM EET on November 27, 2016","2016","11","27","12","00","Europe/Kiev","10:00 AM GMT on November 27, 2016","2016","11","27","10","00","UTC","7.0","44.6","3.0","37.4","76","21.6","13.4","-9999.0","-9999.0","260","West","9.0","5.6","1002","29.59","3.4","38.2","-9999","-9999","-9999.00","-9999.00","Overcast","cloudy","0","0","0","0","0","0","METAR UKKK 271000Z 26006MPS 9000 OVC018 07/03 Q1002 R26/190055 NOSIG"
"12:30 PM EET on November 27, 2016","2016","11","27","12","30","Europe/Kiev","10:30 AM GMT on November 27, 2016","2016","11","27","10","30","UTC","7.0","44.6","3.0","37.4","76","28.8","17.9","-9999.0","-9999.0","270","West","10.0","6.2","1002","29.59","2.8","37.0","-9999","-9999","-9999.00","-9999.00","Overcast","cloudy","0","0","0","0","0","0","METAR UKKK 271030Z 27008MPS 9999 OVC016 07/03 Q1002 R26/190055 NOSIG"
"1:00 PM EET on November 27, 2016","2016","11","27","13","00","Europe/Kiev","11:00 AM GMT on November 27, 2016","2016","11","27","11","00","UTC","7.0","44.6","3.0","37.4","76","21.6","13.4","-9999.0","-9999.0","270","West","10.0","6.2","1002","29.59","3.4","38.2","-9999","-9999","-9999.00","-9999.00","Overcast","cloudy","0","0","0","0","0","0","METAR UKKK 271100Z 27006MPS 9999 OVC015 07/03 Q1002 R26/190055 NOSIG"
"1:30 PM EET on November 27, 2016","2016","11","27","13","30","Europe/Kiev","11:30 AM GMT on November 27, 2016","2016","11","27","11","30","UTC","6.0","42.8","3.0","37.4","81","25.2","15.7","-9999.0","-9999.0","280","West","9.0","5.6","1001","29.56","1.8","35.2","-9999","-9999","-9999.00","-9999.00","Light Drizzle","rain","0","0","0","0","0","0","METAR UKKK 271130Z 28007MPS 9000 -DZ OVC012 06/03 Q1001 R26/190055 NOSIG"
"2:00 PM EET on November 27, 2016","2016","11","27","14","00","Europe/Kiev","12:00 PM GMT on November 27, 2016","2016","11","27","12","00","UTC","6","43","4","39","81","10.8","6.7","","","290","WNW","20","12","1002","29.60","-999","-999","-9999","-9999","","","Overcast","cloudy","0","0","0","0","0","0","AAXX 27121 33345 32498 82903 10062 20039 39820 40022 57011 885// 333 86713 555 11005"
"2:00 PM EET on November 27, 2016","2016","11","27","14","00","Europe/Kiev","12:00 PM GMT on November 27, 2016","2016","11","27","12","00","UTC","6.0","42.8","4.0","39.2","87","25.2","15.7","-9999.0","-9999.0","270","West","9.0","5.6","1001","29.56","1.8","35.2","-9999","-9999","-9999.00","-9999.00","Light Drizzle","rain","0","0","0","0","0","0","METAR UKKK 271200Z 27007MPS 9000 -DZ OVC010 06/04 Q1001 R26/190055 NOSIG"
"2:30 PM EET on November 27, 2016","2016","11","27","14","30","Europe/Kiev","12:30 PM GMT on November 27, 2016","2016","11","27","12","30","UTC","6.0","42.8","4.0","39.2","87","21.6","13.4","-9999.0","-9999.0","270","West","10.0","6.2","1001","29.56","2.2","35.9","-9999","-9999","-9999.00","-9999.00","Mostly Cloudy","mostlycloudy","0","0","0","0","0","0","METAR UKKK 271230Z 27006MPS 9999 SCT013 BKN037 06/04 Q1001 R26/190055 NOSIG"
"3:00 PM EET on November 27, 2016","2016","11","27","15","00","Europe/Kiev","1:00 PM GMT on November 27, 2016","2016","11","27","13","00","UTC","6.0","42.8","3.0","37.4","81","21.6","13.4","-9999.0","-9999.0","260","West","10.0","6.2","1001","29.56","2.2","35.9","-9999","-9999","-9999.00","-9999.00","Mostly Cloudy","mostlycloudy","0","0","0","0","0","0","METAR UKKK 271300Z 26006MPS 9999 FEW014 SCT037 BKN100 06/03 Q1001 R26/190055 NOSIG"
"3:30 PM EET on November 27, 2016","2016","11","27","15","30","Europe/Kiev","1:30 PM GMT on November 27, 2016","2016","11","27","13","30","UTC","6.0","42.8","3.0","37.4","81","18.0","11.2","-9999.0","-9999.0","270","West","10.0","6.2","1001","29.56","2.6","36.7","-9999","-9999","-9999.00","-9999.00","Mostly Cloudy","mostlycloudy","0","0","0","0","0","0","METAR UKKK 271330Z 27005MPS 9999 SCT019 BKN039 06/03 Q1001 R26/190055 NOSIG"
"4:00 PM EET on November 27, 2016","2016","11","27","16","00","Europe/Kiev","2:00 PM GMT on November 27, 2016","2016","11","27","14","00","UTC","6.0","42.8","3.0","37.4","81","18.0","11.2","-9999.0","-9999.0","260","West","10.0","6.2","1000","29.53","2.6","36.7","-9999","-9999","-9999.00","-9999.00","Mostly Cloudy","mostlycloudy","0","0","0","0","0","0","METAR UKKK 271400Z 26005MPS 9999 BKN031 06/03 Q1000 R26/190055 NOSIG"
"4:30 PM EET on November 27, 2016","2016","11","27","16","30","Europe/Kiev","2:30 PM GMT on November 27, 2016","2016","11","27","14","30","UTC","6.0","42.8","3.0","37.4","81","14.4","8.9","-9999.0","-9999.0","260","West","10.0","6.2","1000","29.53","3.1","37.6","-9999","-9999","-9999.00","-9999.00","Mostly Cloudy","mostlycloudy","0","0","0","0","0","0","METAR UKKK 271430Z 26004MPS 9999 SCT018 BKN100 06/03 Q1000 R26/190055 NOSIG"
"5:00 PM EET on November 27, 2016","2016","11","27","17","00","Europe/Kiev","3:00 PM GMT on November 27, 2016","2016","11","27","15","00","UTC","6","43","3","37","74","14.4","8.9","","","280","West","20","12","1001","29.55","-999","-999","-9999","-9999","","","Overcast","cloudy","0","0","0","0","0","0","AAXX 27151 33345 42498 82804 10059 20030 39804 40006 57016 8361/ 555 11003"
"5:00 PM EET on November 27, 2016","2016","11","27","17","00","Europe/Kiev","3:00 PM GMT on November 27, 2016","2016","11","27","15","00","UTC","6.0","42.8","3.0","37.4","81","14.4","8.9","-9999.0","-9999.0","250","WSW","10.0","6.2","1000","29.53","3.1","37.6","-9999","-9999","-9999.00","-9999.00","Mostly Cloudy","mostlycloudy","0","0","0","0","0","0","METAR UKKK 271500Z 25004MPS 9999 SCT021 BKN076 06/03 Q1000 R26/190055 NOSIG"
"5:30 PM EET on November 27, 2016","2016","11","27","17","30","Europe/Kiev","3:30 PM GMT on November 27, 2016","2016","11","27","15","30","UTC","5.0","41.0","3.0","37.4","87","14.4","8.9","-9999.0","-9999.0","250","WSW","10.0","6.2","1000","29.53","1.9","35.4","-9999","-9999","-9999.00","-9999.00","Mostly Cloudy","mostlycloudy","0","0","0","0","0","0","METAR UKKK 271530Z 25004MPS 9999 SCT021 BKN086 05/03 Q1000 R26/190055 NOSIG"
"6:00 PM EET on November 27, 2016","2016","11","27","18","00","Europe/Kiev","4:00 PM GMT on November 27, 2016","2016","11","27","16","00","UTC","5.0","41.0","3.0","37.4","87","14.4","8.9","-9999.0","-9999.0","240","WSW","9.0","5.6","1000","29.53","1.9","35.4","-9999","-9999","-9999.00","-9999.00","Mostly Cloudy","mostlycloudy","0","0","0","0","0","0","METAR UKKK 271600Z 24004MPS 210V270 9000 FEW019 SCT025 BKN073 05/03 Q1000 R26/190055 NOSIG"
"6:30 PM EET on November 27, 2016","2016","11","27","18","30","Europe/Kiev","4:30 PM GMT on November 27, 2016","2016","11","27","16","30","UTC","5.0","41.0","3.0","37.4","87","10.8","6.7","-9999.0","-9999.0","240","WSW","10.0","6.2","999","29.50","2.5","36.5","-9999","-9999","-9999.00","-9999.00","Light Rain","rain","0","1","0","0","0","0","METAR UKKK 271630Z 24003MPS 9999 -RA SCT018 OVC033 05/03 Q0999 R26/190055 NOSIG"
"7:00 PM EET on November 27, 2016","2016","11","27","19","00","Europe/Kiev","5:00 PM GMT on November 27, 2016","2016","11","27","17","00","UTC","5.0","41.0","3.0","37.4","87","14.4","8.9","-9999.0","-9999.0","270","West","9.0","5.6","999","29.50","1.9","35.4","-9999","-9999","-9999.00","-9999.00","Light Rain","rain","0","1","0","0","0","0","METAR UKKK 271700Z 27004MPS 9000 -RA SCT011 OVC033 05/03 Q0999 R26/290055 NOSIG"
"7:30 PM EET on November 27, 2016","2016","11","27","19","30","Europe/Kiev","5:30 PM GMT on November 27, 2016","2016","11","27","17","30","UTC","4.0","39.2","2.0","35.6","87","21.6","13.4","-9999.0","-9999.0","280","West","6.0","3.7","1000","29.53","-0.4","31.3","-9999","-9999","-9999.00","-9999.00","Light Rain","rain","0","1","0","0","0","0","METAR UKKK 271730Z 28006MPS 6000 -RA SCT010 OVC033 04/02 Q1000 R26/290055 NOSIG"
"8:00 PM EET on November 27, 2016","2016","11","27","20","00","Europe/Kiev","6:00 PM GMT on November 27, 2016","2016","11","27","18","00","UTC","4","39","2","36","85","10.8","6.7","","","280","West","10","6","1000","29.54","-999","-999","-9999","-9999","","","Light Rain","rain","0","1","0","0","0","0","AAXX 27181 33345 11497 82803 10040 20023 39799 40002 57005 60012 76162 8872/ 333 10079 87711 555 11003"
"8:00 PM EET on November 27, 2016","2016","11","27","20","00","Europe/Kiev","6:00 PM GMT on November 27, 2016","2016","11","27","18","00","UTC","4.0","39.2","3.0","37.4","93","10.8","6.7","-9999.0","-9999.0","260","West","10.0","6.2","999","29.50","1.3","34.4","-9999","-9999","-9999.00","-9999.00","Light Rain","rain","0","1","0","0","0","0","METAR UKKK 271800Z 26003MPS 9999 -RA SCT020 OVC042 04/03 Q0999 R26/290355 NOSIG"
"8:30 PM EET on November 27, 2016","2016","11","27","20","30","Europe/Kiev","6:30 PM GMT on November 27, 2016","2016","11","27","18","30","UTC","4.0","39.2","2.0","35.6","87","10.8","6.7","-9999.0","-9999.0","270","West","9.0","5.6","999","29.50","1.3","34.4","-9999","-9999","-9999.00","-9999.00","Mostly Cloudy","mostlycloudy","0","0","0","0","0","0","METAR UKKK 271830Z 27003MPS 9000 SCT026 BKN093 04/02 Q0999 R26/290355 NOSIG"
"9:00 PM EET on November 27, 2016","2016","11","27","21","00","Europe/Kiev","7:00 PM GMT on November 27, 2016","2016","11","27","19","00","UTC","4.0","39.2","2.0","35.6","87","14.4","8.9","-9999.0","-9999.0","280","West","10.0","6.2","999","29.50","0.6","33.1","-9999","-9999","-9999.00","-9999.00","Mostly Cloudy","mostlycloudy","0","0","0","0","0","0","METAR UKKK 271900Z 28004MPS 9999 SCT020 BKN093 04/02 Q0999 R26/290355 NOSIG"
"9:30 PM EET on November 27, 2016","2016","11","27","21","30","Europe/Kiev","7:30 PM GMT on November 27, 2016","2016","11","27","19","30","UTC","4.0","39.2","2.0","35.6","87","14.4","8.9","-9999.0","-9999.0","280","West","10.0","6.2","999","29.50","0.6","33.1","-9999","-9999","-9999.00","-9999.00","Mostly Cloudy","mostlycloudy","0","0","0","0","0","0","METAR UKKK 271930Z 28004MPS 9999 BKN025 04/02 Q0999 R26/290355 NOSIG"
"10:00 PM EET on November 27, 2016","2016","11","27","22","00","Europe/Kiev","8:00 PM GMT on November 27, 2016","2016","11","27","20","00","UTC","3.0","37.4","2.0","35.6","93","14.4","8.9","-9999.0","-9999.0","280","West","10.0","6.2","999","29.50","-0.6","30.9","-9999","-9999","-9999.00","-9999.00","Mostly Cloudy","mostlycloudy","0","0","0","0","0","0","METAR UKKK 272000Z 28004MPS 9999 BKN029 03/02 Q0999 R26/290355 NOSIG"
"10:30 PM EET on November 27, 2016","2016","11","27","22","30","Europe/Kiev","8:30 PM GMT on November 27, 2016","2016","11","27","20","30","UTC","3.0","37.4","2.0","35.6","93","10.8","6.7","-9999.0","-9999.0","260","West","10.0","6.2","999","29.50","0.1","32.2","-9999","-9999","-9999.00","-9999.00","Mostly Cloudy","mostlycloudy","0","0","0","0","0","0","METAR UKKK 272030Z 26003MPS 9999 BKN018 03/02 Q0999 R26/290355 NOSIG"
"11:00 PM EET on November 27, 2016","2016","11","27","23","00","Europe/Kiev","9:00 PM GMT on November 27, 2016","2016","11","27","21","00","UTC","3","38","2","35","84","7.2","4.5","","","280","West","10","6","1000","29.55","-999","-999","-9999","-9999","","","Partly Cloudy","partlycloudy","0","0","0","0","0","0","AAXX 27211 33345 41497 82802 10034 20016 39801 40005 53002 70262 885// 333 87714 555 11002"
"11:00 PM EET on November 27, 2016","2016","11","27","23","00","Europe/Kiev","9:00 PM GMT on November 27, 2016","2016","11","27","21","00","UTC","3.0","37.4","1.0","33.8","87","14.4","8.9","-9999.0","-9999.0","270","West","10.0","6.2","999","29.50","-0.6","30.9","-9999","-9999","-9999.00","-9999.00","Mostly Cloudy","mostlycloudy","0","0","0","0","0","0","METAR UKKK 272100Z 27004MPS 9999 BKN016 BKN026 03/01 Q0999 R26/290355 NOSIG"
"11:30 PM EET on November 27, 2016","2016","11","27","23","30","Europe/Kiev","9:30 PM GMT on November 27, 2016","2016","11","27","21","30","UTC","3.0","37.4","1.0","33.8","87","14.4","8.9","-9999.0","-9999.0","270","West","10.0","6.2","999","29.50","-0.6","30.9","-9999","-9999","-9999.00","-9999.00","Mostly Cloudy","mostlycloudy","0","0","0","0","0","0","METAR UKKK 272130Z 27004MPS 9999 BKN017 BKN030 03/01 Q0999 R26/290355 NOSIG"
"12:00 AM EET on November 28, 2016","2016","11","28","00","00","Europe/Kiev","10:00 PM GMT on November 27, 2016","2016","11","27","22","00","UTC","3.0","37.4","1.0","33.8","87","14.4","8.9","-9999.0","-9999.0","280","West","9.0","5.6","999","29.50","-0.6","30.9","-9999","-9999","-9999.00","-9999.00","Mostly Cloudy","mostlycloudy","0","0","0","0","0","0","METAR UKKK 272200Z 28004MPS 9000 BKN017 BKN030 03/01 Q0999 R26/290355 NOSIG"
"12:30 AM EET on November 28, 2016","2016","11","28","00","30","Europe/Kiev","10:30 PM GMT on November 27, 2016","2016","11","27","22","30","UTC","2.0","35.6","0.0","32.0","87","18.0","11.2","-9999.0","-9999.0","290","WNW","9.0","5.6","999","29.50","-2.4","27.7","-9999","-9999","-9999.00","-9999.00","Mostly Cloudy","mostlycloudy","0","0","0","0","0","0","METAR UKKK 272230Z 29005MPS 9000 SCT017 BKN030 02/00 Q0999 R26/290355 NOSIG"
"1:00 AM EET on November 28, 2016","2016","11","28","01","00","Europe/Kiev","11:00 PM GMT on November 27, 2016","2016","11","27","23","00","UTC","2.0","35.6","0.0","32.0","87","14.4","8.9","-9999.0","-9999.0","270","West","10.0","6.2","999","29.50","-1.8","28.7","-9999","-9999","-9999.00","-9999.00","Mostly Cloudy","mostlycloudy","0","0","0","0","0","0","METAR UKKK 272300Z 27004MPS 9999 SCT017 BKN030 02/M00 Q0999 R26/290255 NOSIG"
"1:30 AM EET on November 28, 2016","2016","11","28","01","30","Europe/Kiev","11:30 PM GMT on November 27, 2016","2016","11","27","23","30","UTC","2.0","35.6","-1.0","30.2","81","14.4","8.9","-9999.0","-9999.0","260","West","10.0","6.2","999","29.50","-1.8","28.7","-9999","-9999","-9999.00","-9999.00","Mostly Cloudy","mostlycloudy","0","0","0","0","0","0","METAR UKKK 272330Z 26004MPS 9999 BKN040 02/M01 Q0999 R26/290255 NOSIG"
"2:00 AM EET on November 28, 2016","2016","11","28","02","00","Europe/Kiev","12:00 AM GMT on November 28, 2016","2016","11","28","00","00","UTC","2","35","-0","31","82","10.8","6.7","","","290","WNW","20","12","1000","29.55","-999","-999","-9999","-9999","","","Partly Cloudy","partlycloudy","0","0","0","0","0","0","AAXX 28001 33345 /1698 42903 10019 21003 39799 40004 58002 70261 84500 333 84647 555 11101 69901"
"2:00 AM EET on November 28, 2016","2016","11","28","02","00","Europe/Kiev","12:00 AM GMT on November 28, 2016","2016","11","28","00","00","UTC","1.0","33.8","-1.0","30.2","87","14.4","8.9","-9999.0","-9999.0","260","West","-9999.0","-9999.0","999","29.50","-3.0","26.5","-9999","-9999","-9999.00","-9999.00","Clear","clear","0","0","0","0","0","0","METAR UKKK 280000Z 26004MPS CAVOK 01/M01 Q0999 R26/290255 NOSIG"
"2:30 AM EET on November 28, 2016","2016","11","28","02","30","Europe/Kiev","12:30 AM GMT on November 28, 2016","2016","11","28","00","30","UTC","2.0","35.6","-1.0","30.2","81","14.4","8.9","-9999.0","-9999.0","260","West","10.0","6.2","999","29.50","-1.8","28.7","-9999","-9999","-9999.00","-9999.00","Mostly Cloudy","mostlycloudy","0","0","0","0","0","0","METAR UKKK 280030Z 26004MPS 9999 SCT019 BKN040 02/M01 Q0999 R26/290255 NOSIG"
"3:00 AM EET on November 28, 2016","2016","11","28","03","00","Europe/Kiev","1:00 AM GMT on November 28, 2016","2016","11","28","01","00","UTC","2.0","35.6","0.0","32.0","87","18.0","11.2","-9999.0","-9999.0","270","West","10.0","6.2","999","29.50","-2.4","27.7","-9999","-9999","-9999.00","-9999.00","Mostly Cloudy","mostlycloudy","0","0","0","0","0","0","METAR UKKK 280100Z 27005MPS 9999 SCT019 BKN040 02/M00 Q0999 R26/290255 NOSIG"
"3:30 AM EET on November 28, 2016","2016","11","28","03","30","Europe/Kiev","1:30 AM GMT on November 28, 2016","2016","11","28","01","30","UTC","2.0","35.6","0.0","32.0","87","18.0","11.2","-9999.0","-9999.0","270","West","10.0","6.2","999","29.50","-2.4","27.7","-9999","-9999","-9999.00","-9999.00","Mostly Cloudy","mostlycloudy","0","0","0","0","0","0","METAR UKKK 280130Z 27005MPS 9999 SCT017 BKN052 02/M00 Q0999 R26/290255 NOSIG"
"4:00 AM EET on November 28, 2016","2016","11","28","04","00","Europe/Kiev","2:00 AM GMT on November 28, 2016","2016","11","28","02","00","UTC","2.0","35.6","0.0","32.0","87","18.0","11.2","-9999.0","-9999.0","270","West","10.0","6.2","999","29.50","-2.4","27.7","-9999","-9999","-9999.00","-9999.00","Mostly Cloudy","mostlycloudy","0","0","0","0","0","0","METAR UKKK 280200Z 27005MPS 9999 SCT017 BKN052 02/00 Q0999 R26/290255 NOSIG"
"4:30 AM EET on November 28, 2016","2016","11","28","04","30","Europe/Kiev","2:30 AM GMT on November 28, 2016","2016","11","28","02","30","UTC","2.0","35.6","0.0","32.0","87","14.4","8.9","-9999.0","-9999.0","270","West","10.0","6.2","1000","29.53","-1.8","28.7","-9999","-9999","-9999.00","-9999.00","Light Rain","rain","0","1","0","0","0","0","METAR UKKK 280230Z 27004MPS 9999 -RA SCT016 OVC038 02/00 Q1000 R26/290255 NOSIG"
"5:00 AM EET on November 28, 2016","2016","11","28","05","00","Europe/Kiev","3:00 AM GMT on November 28, 2016","2016","11","28","03","00","UTC","2","36","-1","31","75","10.8","6.7","","","320","NW","20","12","1001","29.56","-999","-999","-9999","-9999","","","Overcast","cloudy","0","0","0","0","0","0","AAXX 28031 33345 42598 83203 10021 21006 39804 40009 53005 885// 333 88628 555 11001"
"5:00 AM EET on November 28, 2016","2016","11","28","05","00","Europe/Kiev","3:00 AM GMT on November 28, 2016","2016","11","28","03","00","UTC","2.0","35.6","0.0","32.0","87","18.0","11.2","-9999.0","-9999.0","290","WNW","10.0","6.2","1000","29.53","-2.4","27.7","-9999","-9999","-9999.00","-9999.00","Mostly Cloudy","mostlycloudy","0","0","0","0","0","0","METAR UKKK 280300Z 29005MPS 270V340 9999 SCT015 BKN047 02/M00 Q1000 R26/290255 NOSIG"
"5:30 AM EET on November 28, 2016","2016","11","28","05","30","Europe/Kiev","3:30 AM GMT on November 28, 2016","2016","11","28","03","30","UTC","2.0","35.6","-2.0","28.4","75","28.8","17.9","-9999.0","-9999.0","300","WNW","10.0","6.2","1000","29.53","-3.7","25.3","-9999","-9999","-9999.00","-9999.00","Mostly Cloudy","mostlycloudy","0","0","0","0","0","0","METAR UKKK 280330Z 30008MPS 9999 SCT015 BKN045 02/M02 Q1000 R26/290255 NOSIG"
"6:00 AM EET on November 28, 2016","2016","11","28","06","00","Europe/Kiev","4:00 AM GMT on November 28, 2016","2016","11","28","04","00","UTC","2.0","35.6","-2.0","28.4","75","28.8","17.9","-9999.0","-9999.0","300","WNW","10.0","6.2","1001","29.56","-3.7","25.3","-9999","-9999","-9999.00","-9999.00","Mostly Cloudy","mostlycloudy","0","0","0","0","0","0","METAR UKKK 280400Z 30008MPS 9999 BKN036 02/M02 Q1001 R26/290255 NOSIG"
"6:30 AM EET on November 28, 2016","2016","11","28","06","30","Europe/Kiev","4:30 AM GMT on November 28, 2016","2016","11","28","04","30","UTC","1.0","33.8","-2.0","28.4","81","21.6","13.4","-9999.0","-9999.0","290","WNW","10.0","6.2","1001","29.56","-4.2","24.5","-9999","-9999","-9999.00","-9999.00","Mostly Cloudy","mostlycloudy","0","0","0","0","0","0","METAR UKKK 280430Z 29006MPS 9999 BKN027 01/M02 Q1001 R26/290255 NOSIG"
"7:00 AM EET on November 28, 2016","2016","11","28","07","00","Europe/Kiev","5:00 AM GMT on November 28, 2016","2016","11","28","05","00","UTC","1.0","33.8","-3.0","26.6","75","25.2","15.7","-9999.0","-9999.0","280","West","10.0","6.2","1001","29.56","-4.6","23.7","-9999","-9999","-9999.00","-9999.00","Mostly Cloudy","mostlycloudy","0","0","0","0","0","0","METAR UKKK 280500Z 28007MPS 9999 BKN043 01/M03 Q1001 R26/290255 NOSIG"
"7:30 AM EET on November 28, 2016","2016","11","28","07","30","Europe/Kiev","5:30 AM GMT on November 28, 2016","2016","11","28","05","30","UTC","1.0","33.8","-3.0","26.6","75","21.6","13.4","-9999.0","-9999.0","270","West","10.0","6.2","1002","29.59","-4.2","24.5","-9999","-9999","-9999.00","-9999.00","Mostly Cloudy","mostlycloudy","0","0","0","0","0","0","METAR UKKK 280530Z 27006MPS 9999 BKN036 01/M03 Q1002 R26/290255 NOSIG"
"8:00 AM EET on November 28, 2016","2016","11","28","08","00","Europe/Kiev","6:00 AM GMT on November 28, 2016","2016","11","28","06","00","UTC","1","34","-3","27","65","10.8","6.7","","","310","NW","20","12","1004","29.64","-999","-999","-9999","-9999","","","Overcast","cloudy","0","0","0","0","0","0","AAXX 28061 33345 12698 83103 10011 21030 39830 40036 52026 69902 885// 333 20010 88644 555 11000"
"8:00 AM EET on November 28, 2016","2016","11","28","08","00","Europe/Kiev","6:00 AM GMT on November 28, 2016","2016","11","28","06","00","UTC","1.0","33.8","-3.0","26.6","75","21.6","13.4","-9999.0","-9999.0","280","West","10.0","6.2","1002","29.59","-4.2","24.5","-9999","-9999","-9999.00","-9999.00","Mostly Cloudy","mostlycloudy","0","0","0","0","0","0","METAR UKKK 280600Z 28006MPS 9999 BKN044 01/M03 Q1002 R26/290155 NOSIG"
"8:30 AM EET on November 28, 2016","2016","11","28","08","30","Europe/Kiev","6:30 AM GMT on November 28, 2016","2016","11","28","06","30","UTC","1.0","33.8","-4.0","24.8","70","21.6","13.4","-9999.0","-9999.0","290","WNW","-9999.0","-9999.0","1003","29.62","-4.2","24.5","-9999","-9999","-9999.00","-9999.00","Clear","clear","0","0","0","0","0","0","METAR UKKK 280630Z 29006MPS CAVOK 01/M04 Q1003 R26/290155 NOSIG"
"9:00 AM EET on November 28, 2016","2016","11","28","09","00","Europe/Kiev","7:00 AM GMT on November 28, 2016","2016","11","28","07","00","UTC","1.0","33.8","-4.0","24.8","70","21.6","13.4","-9999.0","-9999.0","280","West","-9999.0","-9999.0","1003","29.62","-4.2","24.5","-9999","-9999","-9999.00","-9999.00","Clear","clear","0","0","0","0","0","0","METAR UKKK 280700Z 28006MPS CAVOK 01/M04 Q1003 R26/290155 NOSIG"
"9:30 AM EET on November 28, 2016","2016","11","28","09","30","Europe/Kiev","7:30 AM GMT on November 28, 2016","2016","11","28","07","30","UTC","2.0","35.6","-4.0","24.8","65","28.8","17.9","-9999.0","-9999.0","280","West","10.0","6.2","1004","29.65","-3.7","25.3","-9999","-9999","-9999.00","-9999.00","Mostly Cloudy","mostlycloudy","0","0","0","0","0","0","METAR UKKK 280730Z 28008MPS 9999 BKN046 02/M04 Q1004 R26/290155 NOSIG"
"10:00 AM EET on November 28, 2016","2016","11","28","10","00","Europe/Kiev","8:00 AM GMT on November 28, 2016","2016","11","28","08","00","UTC","1.0","33.8","-4.0","24.8","70","25.2","15.7","-9999.0","-9999.0","290","WNW","10.0","6.2","1004","29.65","-4.6","23.7","-9999","-9999","-9999.00","-9999.00","Mostly Cloudy","mostlycloudy","0","0","0","0","0","0","METAR UKKK 280800Z 29007MPS 9999 BKN026 01/M04 Q1004 R26/290155 NOSIG"
"10:30 AM EET on November 28, 2016","2016","11","28","10","30","Europe/Kiev","8:30 AM GMT on November 28, 2016","2016","11","28","08","30","UTC","1.0","33.8","-4.0","24.8","70","28.8","17.9","-9999.0","-9999.0","280","West","10.0","6.2","1004","29.65","-5.0","23.0","-9999","-9999","-9999.00","-9999.00","Mostly Cloudy","mostlycloudy","0","0","0","0","0","0","METAR UKKK 280830Z 28008MPS 9999 BKN025 01/M04 Q1004 R26/290155 NOSIG"
"11:00 AM EET on November 28, 2016","2016","11","28","11","00","Europe/Kiev","9:00 AM GMT on November 28, 2016","2016","11","28","09","00","UTC","2","36","-4","25","53","18.0","11.2","","","300","WNW","20","12","1006","29.70","-999","-999","-9999","-9999","","","Partly Cloudy","partlycloudy","0","0","0","0","0","0","AAXX 28091 33345 42698 43005 10021 21039 39850 40056 52020 84500 555 11004"
"11:00 AM EET on November 28, 2016","2016","11","28","11","00","Europe/Kiev","9:00 AM GMT on November 28, 2016","2016","11","28","09","00","UTC","2.0","35.6","-5.0","23.0","60","28.8","17.9","-9999.0","-9999.0","280","West","10.0","6.2","1004","29.65","-3.7","25.3","-9999","-9999","-9999.00","-9999.00","Mostly Cloudy","mostlycloudy","0","0","0","0","0","0","METAR UKKK 280900Z 28008MPS 9999 BKN030 02/M05 Q1004 R26/290155 NOSIG"
"11:30 AM EET on November 28, 2016","2016","11","28","11","30","Europe/Kiev","9:30 AM GMT on November 28, 2016","2016","11","28","09","30","UTC","1.0","33.8","-5.0","23.0","65","28.8","17.9","-9999.0","-9999.0","280","West","10.0","6.2","1005","29.68","-5.0","23.0","-9999","-9999","-9999.00","-9999.00","Mostly Cloudy","mostlycloudy","0","0","0","0","0","0","METAR UKKK 280930Z 28008MPS 9999 BKN033 01/M05 Q1005 R26/190060 TEMPO 2100 -SHRASN SCT015CB"
"12:00 PM EET on November 28, 2016","2016","11","28","12","00","Europe/Kiev","10:00 AM GMT on November 28, 2016","2016","11","28","10","00","UTC","1.0","33.8","-5.0","23.0","65","28.8","17.9","-9999.0","-9999.0","280","West","10.0","6.2","1005","29.68","-5.0","23.0","-9999","-9999","-9999.00","-9999.00","Light Snow","snow","0","0","1","0","0","0","METAR UKKK 281000Z 28008MPS 9999 -SN OVC040 01/M05 Q1005 R26/190060 TEMPO 2100 -SHRASN SCT015CB"
"12:30 PM EET on November 28, 2016","2016","11","28","12","30","Europe/Kiev","10:30 AM GMT on November 28, 2016","2016","11","28","10","30","UTC","1.0","33.8","-5.0","23.0","65","32.4","20.1","-9999.0","-9999.0","270","West","10.0","6.2","1005","29.68","-5.4","22.3","-9999","-9999","-9999.00","-9999.00","Mostly Cloudy","mostlycloudy","0","0","0","0","0","0","METAR UKKK 281030Z 27009MPS 9999 BKN040 01/M05 Q1005 R26/190060 TEMPO 2100 -SHRASN SCT015CB"
"1:00 PM EET on November 28, 2016","2016","11","28","13","00","Europe/Kiev","11:00 AM GMT on November 28, 2016","2016","11","28","11","00","UTC","1.0","33.8","-5.0","23.0","65","28.8","17.9","-9999.0","-9999.0","280","West","10.0","6.2","1005","29.68","-5.0","23.0","-9999","-9999","-9999.00","-9999.00","Mostly Cloudy","mostlycloudy","0","0","0","0","0","0","METAR UKKK 281100Z 28008MPS 9999 BKN032 01/M05 Q1005 R26/190060 TEMPO 2100 -SHRASN SCT015CB"
"1:30 PM EET on November 28, 2016","2016","11","28","13","30","Europe/Kiev","11:30 AM GMT on November 28, 2016","2016","11","28","11","30","UTC","1.0","33.8","-5.0","23.0","65","25.2","15.7","-9999.0","-9999.0","290","WNW","10.0","6.2","1006","29.71","-4.6","23.7","-9999","-9999","-9999.00","-9999.00","Mostly Cloudy","mostlycloudy","0","0","0","0","0","0","METAR UKKK 281130Z 29007MPS 9999 BKN031 01/M05 Q1006 R26/190060 TEMPO 2100 -SHRASN SCT015CB"
"2:00 PM EET on November 28, 2016","2016","11","28","14","00","Europe/Kiev","12:00 PM GMT on November 28, 2016","2016","11","28","12","00","UTC","1","35","-4","24","53","14.4","8.9","","","320","NW","20","12","1007","29.75","-999","-999","-9999","-9999","","","Mostly Cloudy","mostlycloudy","0","0","0","0","0","0","AAXX 28121 33345 32698 73204 10014 21044 39865 40072 52015 87500 333 87640 555 11001"
"2:00 PM EET on November 28, 2016","2016","11","28","14","00","Europe/Kiev","12:00 PM GMT on November 28, 2016","2016","11","28","12","00","UTC","1.0","33.8","-5.0","23.0","65","21.6","13.4","-9999.0","-9999.0","290","WNW","10.0","6.2","1006","29.71","-4.2","24.5","-9999","-9999","-9999.00","-9999.00","Mostly Cloudy","mostlycloudy","0","0","0","0","0","0","METAR UKKK 281200Z 29006MPS 9999 BKN040 01/M05 Q1006 R26/190060 TEMPO 2100 -SHRASN SCT015CB"
"2:30 PM EET on November 28, 2016","2016","11","28","14","30","Europe/Kiev","12:30 PM GMT on November 28, 2016","2016","11","28","12","30","UTC","1.0","33.8","-5.0","23.0","65","25.2","15.7","-9999.0","-9999.0","280","West","10.0","6.2","1006","29.71","-4.6","23.7","-9999","-9999","-9999.00","-9999.00","Light Snow","snow","0","0","1","0","0","0","METAR UKKK 281230Z 28007MPS 9999 -SN OVC040 01/M05 Q1006 R26/190060 TEMPO 2100 -SHRASN SCT015CB"
"3:00 PM EET on November 28, 2016","2016","11","28","15","00","Europe/Kiev","1:00 PM GMT on November 28, 2016","2016","11","28","13","00","UTC","1.0","33.8","-5.0","23.0","65","21.6","13.4","-9999.0","-9999.0","280","West","10.0","6.2","1006","29.71","-4.2","24.5","-9999","-9999","-9999.00","-9999.00","Mostly Cloudy","mostlycloudy","0","0","0","0","0","0","METAR UKKK 281300Z 28006MPS 9999 BKN040 01/M05 Q1006 R26/190060 TEMPO 2100 -SHRASN SCT015CB"
"3:30 PM EET on November 28, 2016","2016","11","28","15","30","Europe/Kiev","1:30 PM GMT on November 28, 2016","2016","11","28","13","30","UTC","1.0","33.8","-4.0","24.8","70","18.0","11.2","-9999.0","-9999.0","260","West","10.0","6.2","1007","29.74","-3.7","25.4","-9999","-9999","-9999.00","-9999.00","Mostly Cloudy","mostlycloudy","0","0","0","0","0","0","METAR UKKK 281330Z 26005MPS 9999 BKN030 01/M04 Q1007 R26/190060 TEMPO 2100 -SHRASN SCT015CB"
"4:00 PM EET on November 28, 2016","2016","11","28","16","00","Europe/Kiev","2:00 PM GMT on November 28, 2016","2016","11","28","14","00","UTC","1.0","33.8","-4.0","24.8","70","25.2","15.7","-9999.0","-9999.0","270","West","10.0","6.2","1007","29.74","-4.6","23.7","-9999","-9999","-9999.00","-9999.00","Mostly Cloudy","mostlycloudy","0","0","0","0","0","0","METAR UKKK 281400Z 27007MPS 9999 BKN040 01/M04 Q1007 R26/190060 TEMPO 2100 -SHRASN SCT015CB"
"4:30 PM EET on November 28, 2016","2016","11","28","16","30","Europe/Kiev","2:30 PM GMT on November 28, 2016","2016","11","28","14","30","UTC","1.0","33.8","-4.0","24.8","70","21.6","13.4","-9999.0","-9999.0","270","West","10.0","6.2","1008","29.77","-4.2","24.5","-9999","-9999","-9999.00","-9999.00","Light Snow","snow","0","0","1","0","0","0","METAR UKKK 281430Z 27006MPS 9999 -SN BKN027 01/M04 Q1008 R26/190060 TEMPO 2100 -SHRASN SCT015CB"
"5:00 PM EET on November 28, 2016","2016","11","28","17","00","Europe/Kiev","3:00 PM GMT on November 28, 2016","2016","11","28","15","00","UTC","0","33","-3","26","66","10.8","6.7","","","310","NW","20","12","1009","29.81","-999","-999","-9999","-9999","","","Mostly Cloudy","mostlycloudy","0","0","0","0","0","0","AAXX 28151 33345 42698 63103 10005 21034 39885 40093 52020 86500 555 11100"
"5:00 PM EET on November 28, 2016","2016","11","28","17","00","Europe/Kiev","3:00 PM GMT on November 28, 2016","2016","11","28","15","00","UTC","0.0","32.0","-4.0","24.8","75","21.6","13.4","-9999.0","-9999.0","270","West","10.0","6.2","1008","29.77","-5.4","22.2","-9999","-9999","-9999.00","-9999.00","Light Snow","snow","0","0","1","0","0","0","METAR UKKK 281500Z 27006MPS 9999 -SN OVC040 00/M04 Q1008 R26/190060 TEMPO 2100 -SHRASN SCT015CB"
"5:30 PM EET on November 28, 2016","2016","11","28","17","30","Europe/Kiev","3:30 PM GMT on November 28, 2016","2016","11","28","15","30","UTC","0.0","32.0","-4.0","24.8","75","18.0","11.2","-9999.0","-9999.0","260","West","10.0","6.2","1008","29.77","-4.9","23.2","-9999","-9999","-9999.00","-9999.00","Overcast","cloudy","0","0","0","0","0","0","METAR UKKK 281530Z 26005MPS 9999 OVC040 00/M04 Q1008 R26/190060 TEMPO 2100 -SHRASN SCT015CB"
"6:00 PM EET on November 28, 2016","2016","11","28","18","00","Europe/Kiev","4:00 PM GMT on November 28, 2016","2016","11","28","16","00","UTC","0.0","32.0","-3.0","26.6","80","18.0","11.2","-9999.0","-9999.0","270","West","10.0","6.2","1009","29.80","-4.9","23.2","-9999","-9999","-9999.00","-9999.00","Overcast","cloudy","0","0","0","0","0","0","METAR UKKK 281600Z 27005MPS 9999 OVC040 M00/M03 Q1009 R26/190060 TEMPO 2100 -SHRASN SCT015CB"
"6:30 PM EET on November 28, 2016","2016","11","28","18","30","Europe/Kiev","4:30 PM GMT on November 28, 2016","2016","11","28","16","30","UTC","0.0","32.0","-3.0","26.6","80","18.0","11.2","-9999.0","-9999.0","270","West","10.0","6.2","1009","29.80","-4.9","23.2","-9999","-9999","-9999.00","-9999.00","Overcast","cloudy","0","0","0","0","0","0","METAR UKKK 281630Z 27005MPS 9999 OVC040 M00/M03 Q1009 R26/190060 TEMPO 2100 -SHSN SCT015CB"
"7:00 PM EET on November 28, 2016","2016","11","28","19","00","Europe/Kiev","5:00 PM GMT on November 28, 2016","2016","11","28","17","00","UTC","0.0","32.0","-3.0","26.6","80","18.0","11.2","-9999.0","-9999.0","270","West","10.0","6.2","1009","29.80","-4.9","23.2","-9999","-9999","-9999.00","-9999.00","Overcast","cloudy","0","0","0","0","0","0","METAR UKKK 281700Z 27005MPS 9999 OVC046 M00/M03 Q1009 R26/190060 NOSIG"
"7:30 PM EET on November 28, 2016","2016","11","28","19","30","Europe/Kiev","5:30 PM GMT on November 28, 2016","2016","11","28","17","30","UTC","-1.0","30.2","-3.0","26.6","86","18.0","11.2","-9999.0","-9999.0","280","West","-9999.0","-9999.0","1010","29.83","-6.2","20.9","-9999","-9999","-9999.00","-9999.00","Clear","clear","0","0","0","0","0","0","METAR UKKK 281730Z 28005MPS CAVOK M01/M03 Q1010 R26/190060 NOSIG"
"8:00 PM EET on November 28, 2016","2016","11","28","20","00","Europe/Kiev","6:00 PM GMT on November 28, 2016","2016","11","28","18","00","UTC","-0","31","-4","26","72","10.8","6.7","","","300","WNW","20","12","1011","29.86","-999","-999","-9999","-9999","","","Partly Cloudy","partlycloudy","0","0","0","0","0","0","AAXX 28181 33345 11698 63003 11005 21036 39902 40111 52017 69902 70272 86500 333 10023 86646 555 14101"
"8:00 PM EET on November 28, 2016","2016","11","28","20","00","Europe/Kiev","6:00 PM GMT on November 28, 2016","2016","11","28","18","00","UTC","-1.0","30.2","-3.0","26.6","86","18.0","11.2","-9999.0","-9999.0","270","West","10.0","6.2","1010","29.83","-6.2","20.9","-9999","-9999","-9999.00","-9999.00","Mostly Cloudy","mostlycloudy","0","0","0","0","0","0","METAR UKKK 281800Z 27005MPS 9999 BKN037 M01/M03 Q1010 R26/190060 NOSIG"
"8:30 PM EET on November 28, 2016","2016","11","28","20","30","Europe/Kiev","6:30 PM GMT on November 28, 2016","2016","11","28","18","30","UTC","-1.0","30.2","-4.0","24.8","80","21.6","13.4","-9999.0","-9999.0","280","West","10.0","6.2","1010","29.83","-6.7","19.9","-9999","-9999","-9999.00","-9999.00","Light Snow","snow","0","0","1","0","0","0","METAR UKKK 281830Z 28006MPS 9999 -SN OVC043 M01/M04 Q1010 R26/190060 NOSIG"
"9:00 PM EET on November 28, 2016","2016","11","28","21","00","Europe/Kiev","7:00 PM GMT on November 28, 2016","2016","11","28","19","00","UTC","0.0","32.0","-4.0","24.8","75","21.6","13.4","-9999.0","-9999.0","300","WNW","10.0","6.2","1011","29.86","-5.4","22.2","-9999","-9999","-9999.00","-9999.00","Light Snow","snow","0","0","1","0","0","0","METAR UKKK 281900Z 30006MPS 9999 -SN OVC023 M00/M04 Q1011 R26/190060 NOSIG"
"9:30 PM EET on November 28, 2016","2016","11","28","21","30","Europe/Kiev","7:30 PM GMT on November 28, 2016","2016","11","28","19","30","UTC","0.0","32.0","-5.0","23.0","69","25.2","15.7","-9999.0","-9999.0","310","NW","10.0","6.2","1011","29.86","-5.9","21.4","-9999","-9999","-9999.00","-9999.00","Mostly Cloudy","mostlycloudy","0","0","0","0","0","0","METAR UKKK 281930Z 31007MPS 9999 BKN027 M00/M05 Q1011 R26/190060 NOSIG"
"10:00 PM EET on November 28, 2016","2016","11","28","22","00","Europe/Kiev","8:00 PM GMT on November 28, 2016","2016","11","28","20","00","UTC","-1.0","30.2","-6.0","21.2","69","21.6","13.4","-9999.0","-9999.0","300","WNW","10.0","6.2","1012","29.89","-6.7","19.9","-9999","-9999","-9999.00","-9999.00","Light Snow","snow","0","0","1","0","0","0","METAR UKKK 282000Z 30006MPS 270V330 9999 -SN OVC034 M01/M06 Q1012 R26/190060 NOSIG"
"10:30 PM EET on November 28, 2016","2016","11","28","22","30","Europe/Kiev","8:30 PM GMT on November 28, 2016","2016","11","28","20","30","UTC","-1.0","30.2","-6.0","21.2","69","18.0","11.2","-9999.0","-9999.0","290","WNW","10.0","6.2","1012","29.89","-6.2","20.9","-9999","-9999","-9999.00","-9999.00","Light Snow","snow","0","0","1","0","0","0","METAR UKKK 282030Z 29005MPS 9999 -SN OVC025 M01/M06 Q1012 R26/190060 NOSIG"
"11:00 PM EET on November 28, 2016","2016","11","28","23","00","Europe/Kiev","9:00 PM GMT on November 28, 2016","2016","11","28","21","00","UTC","-1","31","-6","22","59","10.8","6.7","","","330","NNW","20","12","1014","29.94","-999","-999","-9999","-9999","","","Mostly Cloudy","mostlycloudy","0","0","0","0","0","0","AAXX 28211 33345 42598 63303 11007 21055 39928 40138 52026 86500 333 86626 555 14101"
"11:00 PM EET on November 28, 2016","2016","11","28","23","00","Europe/Kiev","9:00 PM GMT on November 28, 2016","2016","11","28","21","00","UTC","-1.0","30.2","-5.0","23.0","75","18.0","11.2","-9999.0","-9999.0","290","WNW","10.0","6.2","1012","29.89","-6.2","20.9","-9999","-9999","-9999.00","-9999.00","Light Snow","snow","0","0","1","0","0","0","METAR UKKK 282100Z 29005MPS 9999 -SN OVC024 M01/M05 Q1012 R26/410145 NOSIG"
"11:30 PM EET on November 28, 2016","2016","11","28","23","30","Europe/Kiev","9:30 PM GMT on November 28, 2016","2016","11","28","21","30","UTC","-1.0","30.2","-5.0","23.0","75","21.6","13.4","-9999.0","-9999.0","300","WNW","9.0","5.6","1013","29.92","-6.7","19.9","-9999","-9999","-9999.00","-9999.00","Light Snow","snow","0","0","1","0","0","0","METAR UKKK 282130Z 30006MPS 9000 -SN OVC025 M01/M05 Q1013 R26/410145 NOSIG"
"12:00 AM EET on November 29, 2016","2016","11","29","00","00","Europe/Kiev","10:00 PM GMT on November 28, 2016","2016","11","28","22","00","UTC","-1.0","30.2","-5.0","23.0","75","14.4","8.9","-9999.0","-9999.0","300","WNW","7.0","4.3","1013","29.92","-5.5","22.1","-9999","-9999","-9999.00","-9999.00","Light Snow Showers","snow","0","0","1","0","0","0","METAR UKKK 282200Z 30004MPS 7000 -SHSN SCT019CB OVC038 M01/M05 Q1013 R26/490240 NOSIG"
"12:07 AM EET on November 29, 2016","2016","11","29","00","07","Europe/Kiev","10:07 PM GMT on November 28, 2016","2016","11","28","22","07","UTC","-1.0","30.2","-5.0","23.0","75","25.2","15.7","43.2","26.8","300","WNW","9.0","5.6","1013","29.92","-7.2","19.1","-9999","-9999","-9999.00","-9999.00","Light Snow Showers","snow","0","0","1","0","0","0","SPECI UKKK 282207Z 30007G12MPS 9000 -SHSN SCT019CB OVC038 M01/M05 Q1013 R26/490240 NOSIG"
"12:30 AM EET on November 29, 2016","2016","11","29","00","30","Europe/Kiev","10:30 PM GMT on November 28, 2016","2016","11","28","22","30","UTC","-2.0","28.4","-5.0","23.0","80","21.6","13.4","-9999.0","-9999.0","310","NW","8.0","5.0","1013","29.92","-8.0","17.6","-9999","-9999","-9999.00","-9999.00","Light Snow Showers","snow","0","0","1","0","0","0","METAR UKKK 282230Z 31006MPS 8000 -SHSN SCT019CB OVC031 M02/M05 Q1013 R26/490240 NOSIG"
"1:00 AM EET on November 29, 2016","2016","11","29","01","00","Europe/Kiev","11:00 PM GMT on November 28, 2016","2016","11","28","23","00","UTC","-2.0","28.4","-5.0","23.0","80","21.6","13.4","-9999.0","-9999.0","290","WNW","9.0","5.6","1013","29.92","-8.0","17.6","-9999","-9999","-9999.00","-9999.00","Light Snow","snow","0","0","1","0","0","0","METAR UKKK 282300Z 29006MPS 9000 -SN FEW016 OVC031 M02/M05 Q1013 R26/490145 NOSIG"
"1:30 AM EET on November 29, 2016","2016","11","29","01","30","Europe/Kiev","11:30 PM GMT on November 28, 2016","2016","11","28","23","30","UTC","-3.0","26.6","-6.0","21.2","80","28.8","17.9","-9999.0","-9999.0","320","NW","6.0","3.7","1014","29.95","-10.2","13.6","-9999","-9999","-9999.00","-9999.00","Light Snow","snow","0","0","1","0","0","0","METAR UKKK 282330Z 32008MPS 6000 -SN FEW014 OVC037 M03/M06 Q1014 R26/490145 TEMPO 1000 SHSN BKN003 BKN012CB"
"2:00 AM EET on November 29, 2016","2016","11","29","02","00","Europe/Kiev","12:00 AM GMT on November 29, 2016","2016","11","29","00","00","UTC","-2","28","-6","22","68","14.4","8.9","","","0","North","20","12","1016","30.00","-999","-999","-9999","-9999","","","Light Snow","snow","0","0","1","0","0","0","AAXX 29001 33345 /1698 73604 11025 21058 39945 40157 52017 72272 87500 333 87640 555 1/101 69941"
"2:00 AM EET on November 29, 2016","2016","11","29","02","00","Europe/Kiev","12:00 AM GMT on November 29, 2016","2016","11","29","00","00","UTC","-3.0","26.6","-6.0","21.2","80","21.6","13.4","-9999.0","-9999.0","320","NW","10.0","6.2","1014","29.95","-9.3","15.3","-9999","-9999","-9999.00","-9999.00","Overcast","cloudy","0","0","0","0","0","0","METAR UKKK 290000Z 32006MPS 9999 OVC043 M03/M06 Q1014 R26/490145 NOSIG"
"2:30 AM EET on November 29, 2016","2016","11","29","02","30","Europe/Kiev","12:30 AM GMT on November 29, 2016","2016","11","29","00","30","UTC","-2.0","28.4","-6.0","21.2","74","21.6","13.4","-9999.0","-9999.0","320","NW","9.0","5.6","1014","29.95","-8.0","17.6","-9999","-9999","-9999.00","-9999.00","Mostly Cloudy","mostlycloudy","0","0","0","0","0","0","METAR UKKK 290030Z 32006MPS 9000 BKN022 M02/M06 Q1014 R26/490145 NOSIG"
"3:00 AM EET on November 29, 2016","2016","11","29","03","00","Europe/Kiev","1:00 AM GMT on November 29, 2016","2016","11","29","01","00","UTC","-3.0","26.6","-7.0","19.4","74","21.6","13.4","-9999.0","-9999.0","310","NW","10.0","6.2","1015","29.98","-9.3","15.3","-9999","-9999","-9999.00","-9999.00","Mostly Cloudy","mostlycloudy","0","0","0","0","0","0","METAR UKKK 290100Z 31006MPS 9999 SCT021 BKN100 M03/M07 Q1015 R26/490145 NOSIG"
"3:30 AM EET on November 29, 2016","2016","11","29","03","30","Europe/Kiev","1:30 AM GMT on November 29, 2016","2016","11","29","01","30","UTC","-3.0","26.6","-9.0","15.8","64","25.2","15.7","-9999.0","-9999.0","330","NNW","10.0","6.2","1015","29.98","-9.8","14.4","-9999","-9999","-9999.00","-9999.00","Light Snow","snow","0","0","1","0","0","0","METAR UKKK 290130Z 33007MPS 9999 -SN SCT019 BKN035 M03/M09 Q1015 R26/490150 NOSIG"
"4:00 AM EET on November 29, 2016","2016","11","29","04","00","Europe/Kiev","2:00 AM GMT on November 29, 2016","2016","11","29","02","00","UTC","-4.0","24.8","-10.0","14.0","64","18.0","11.2","-9999.0","-9999.0","330","NNW","10.0","6.2","1015","29.98","-9.9","14.2","-9999","-9999","-9999.00","-9999.00","Mostly Cloudy","mostlycloudy","0","0","0","0","0","0","METAR UKKK 290200Z 33005MPS 9999 BKN031 M04/M10 Q1015 R26/490150 NOSIG"
"4:30 AM EET on November 29, 2016","2016","11","29","04","30","Europe/Kiev","2:30 AM GMT on November 29, 2016","2016","11","29","02","30","UTC","-5.0","23.0","-10.0","14.0","68","14.4","8.9","-9999.0","-9999.0","320","NW","10.0","6.2","1016","30.01","-10.4","13.2","-9999","-9999","-9999.00","-9999.00","Mostly Cloudy","mostlycloudy","0","0","0","0","0","0","METAR UKKK 290230Z 32004MPS 9999 BKN031 M05/M10 Q1016 R26/490150 NOSIG"
"5:00 AM EET on November 29, 2016","2016","11","29","05","00","Europe/Kiev","3:00 AM GMT on November 29, 2016","2016","11","29","03","00","UTC","-4","25","-10","15","53","7.2","4.5","","","330","NNW","20","12","1017","30.04","-999","-999","-9999","-9999","","","Partly Cloudy","partlycloudy","0","0","0","0","0","0","AAXX 29031 33345 41998 03302 11041 21095 39960 40173 52015 70271 555 1/106"
"5:00 AM EET on November 29, 2016","2016","11","29","05","00","Europe/Kiev","3:00 AM GMT on November 29, 2016","2016","11","29","03","00","UTC","-5.0","23.0","-10.0","14.0","68","7.2","4.5","-9999.0","-9999.0","290","WNW","-9999.0","-9999.0","1016","30.01","-8.3","17.1","-9999","-9999","-9999.00","-9999.00","Clear","clear","0","0","0","0","0","0","METAR UKKK 290300Z 29002MPS CAVOK M05/M10 Q1016 R26/490150 NOSIG"
"5:30 AM EET on November 29, 2016","2016","11","29","05","30","Europe/Kiev","3:30 AM GMT on November 29, 2016","2016","11","29","03","30","UTC","-5.0","23.0","-9.0","15.8","74","18.0","11.2","-9999.0","-9999.0","280","West","-9999.0","-9999.0","1016","30.01","-11.2","11.9","-9999","-9999","-9999.00","-9999.00","Clear","clear","0","0","0","0","0","0","METAR UKKK 290330Z 28005MPS CAVOK M05/M09 Q1016 R26/490150 NOSIG"
"6:00 AM EET on November 29, 2016","2016","11","29","06","00","Europe/Kiev","4:00 AM GMT on November 29, 2016","2016","11","29","04","00","UTC","-5.0","23.0","-10.0","14.0","68","14.4","8.9","-9999.0","-9999.0","270","West","10.0","6.2","1016","30.01","-10.4","13.2","-9999","-9999","-9999.00","-9999.00","Scattered Clouds","partlycloudy","0","0","0","0","0","0","METAR UKKK 290400Z 27004MPS 9999 SCT024 M05/M10 Q1016 R26/490150 NOSIG"
"6:30 AM EET on November 29, 2016","2016","11","29","06","30","Europe/Kiev","4:30 AM GMT on November 29, 2016","2016","11","29","04","30","UTC","-5.0","23.0","-9.0","15.8","74","14.4","8.9","-9999.0","-9999.0","270","West","10.0","6.2","1015","29.98","-10.4","13.2","-9999","-9999","-9999.00","-9999.00","Scattered Clouds","partlycloudy","0","0","0","0","0","0","METAR UKKK 290430Z 27004MPS 9999 SCT023 M05/M09 Q1015 R26/490150 NOSIG"
"7:00 AM EET on November 29, 2016","2016","11","29","07","00","Europe/Kiev","5:00 AM GMT on November 29, 2016","2016","11","29","05","00","UTC","-5.0","23.0","-9.0","15.8","74","14.4","8.9","-9999.0","-9999.0","250","WSW","10.0","6.2","1015","29.98","-10.4","13.2","-9999","-9999","-9999.00","-9999.00","Scattered Clouds","partlycloudy","0","0","0","0","0","0","METAR UKKK 290500Z 25004MPS 9999 FEW020 SCT083 M05/M09 Q1015 R26/490150 NOSIG"
"7:30 AM EET on November 29, 2016","2016","11","29","07","30","Europe/Kiev","5:30 AM GMT on November 29, 2016","2016","11","29","05","30","UTC","-5.0","23.0","-8.0","17.6","80","14.4","8.9","-9999.0","-9999.0","250","WSW","10.0","6.2","1015","29.98","-10.4","13.2","-9999","-9999","-9999.00","-9999.00","Scattered Clouds","partlycloudy","0","0","0","0","0","0","METAR UKKK 290530Z 25004MPS 9999 FEW019 SCT083 M05/M08 Q1015 R26/450150 NOSIG"
"8:00 AM EET on November 29, 2016","2016","11","29","08","00","Europe/Kiev","6:00 AM GMT on November 29, 2016","2016","11","29","06","00","UTC","-5","24","-8","17","66","14.4","8.9","","","270","West","20","12","1016","30.02","-999","-999","-9999","-9999","","","Partly Cloudy","partlycloudy","0","0","0","0","0","0","AAXX 29061 33345 11698 62704 11047 21082 39950 40164 58010 69942 70271 86500 333 21050 47001 555 1/105"
"8:00 AM EET on November 29, 2016","2016","11","29","08","00","Europe/Kiev","6:00 AM GMT on November 29, 2016","2016","11","29","06","00","UTC","-5.0","23.0","-8.0","17.6","80","18.0","11.2","-9999.0","-9999.0","260","West","-9999.0","-9999.0","1015","29.98","-11.2","11.9","-9999","-9999","-9999.00","-9999.00","Clear","clear","0","0","0","0","0","0","METAR UKKK 290600Z 26005MPS CAVOK M05/M08 Q1015 R26/450150 NOSIG"
"8:30 AM EET on November 29, 2016","2016","11","29","08","30","Europe/Kiev","6:30 AM GMT on November 29, 2016","2016","11","29","06","30","UTC","-4.0","24.8","-8.0","17.6","74","18.0","11.2","-9999.0","-9999.0","250","WSW","10.0","6.2","1014","29.95","-9.9","14.2","-9999","-9999","-9999.00","-9999.00","Mostly Cloudy","mostlycloudy","0","0","0","0","0","0","METAR UKKK 290630Z 25005MPS 9999 SCT040 BKN083 M04/M08 Q1014 R26/450150 NOSIG"
"9:00 AM EET on November 29, 2016","2016","11","29","09","00","Europe/Kiev","7:00 AM GMT on November 29, 2016","2016","11","29","07","00","UTC","-4.0","24.8","-7.0","19.4","80","18.0","11.2","36.0","22.4","250","WSW","-9999.0","-9999.0","1013","29.92","-9.9","14.2","-9999","-9999","-9999.00","-9999.00","Light Snow Showers","snow","0","0","1","0","0","0","METAR UKKK 290700Z 25005G10MPS 210V270 3700 -SHSN SCT021CB BKN040 M04/M07 Q1013 R26/450150 TEMPO 0300 +SHSN BKN002 BKN010CB"
"9:13 AM EET on November 29, 2016","2016","11","29","09","13","Europe/Kiev","7:13 AM GMT on November 29, 2016","2016","11","29","07","13","UTC","-4.0","24.8","-7.0","19.4","80","18.0","11.2","-9999.0","-9999.0","240","WSW","1.9","1.2","1013","29.92","-9.9","14.2","-9999","-9999","-9999.00","-9999.00","Snow Showers","snow","0","0","1","0","0","0","SPECI UKKK 290713Z 24005MPS 1900 SHSN SCT012CB BKN030 M04/M07 Q1013 R26/450150 TEMPO 0300 +SHSN BKN002 BKN010CB"
"9:14 AM EET on November 29, 2016","2016","11","29","09","14","Europe/Kiev","7:14 AM GMT on November 29, 2016","2016","11","29","07","14","UTC","-4.0","24.8","-7.0","19.4","80","18.0","11.2","-9999.0","-9999.0","240","WSW","1.8","1.1","1013","29.92","-9.9","14.2","-9999","-9999","-9999.00","-9999.00","Snow Showers","snow","0","0","1","0","0","0","SPECI UKKK 290714Z 24005MPS 1800 SHSN SCT011CB BKN030 M04/M07 Q1013 R26/450150 TEMPO 0300 +SHSN BKN002 BKN010CB"
"9:17 AM EET on November 29, 2016","2016","11","29","09","17","Europe/Kiev","7:17 AM GMT on November 29, 2016","2016","11","29","07","17","UTC","-4.0","24.8","-7.0","19.4","80","18.0","11.2","-9999.0","-9999.0","240","WSW","1.2","0.7","1013","29.92","-9.9","14.2","-9999","-9999","-9999.00","-9999.00","Heavy Snow Showers","snow","0","0","1","0","0","0","SPECI UKKK 290717Z 24005MPS 1200 R26/1200VP2000D +SHSN SCT010CB BKN030 M04/M07 Q1013 R26/450150 TEMPO 0300 +SHSN BKN002 BKN010CB"
"9:30 AM EET on November 29, 2016","2016","11","29","09","30","Europe/Kiev","7:30 AM GMT on November 29, 2016","2016","11","29","07","30","UTC","-4.0","24.8","-6.0","21.2","86","18.0","11.2","-9999.0","-9999.0","250","WSW","-9999.0","-9999.0","1013","29.92","-9.9","14.2","-9999","-9999","-9999.00","-9999.00","Heavy Snow Showers","snow","0","0","1","0","0","0","METAR UKKK 290730Z 25005MPS 0650 R26/1200D +SHSN BKN006 BKN014CB M04/M06 Q1013 R26/490340 TEMPO 0300 +SHSN BKN002 BKN010CB"
"10:00 AM EET on November 29, 2016","2016","11","29","10","00","Europe/Kiev","8:00 AM GMT on November 29, 2016","2016","11","29","08","00","UTC","-4.0","24.8","-6.0","21.2","86","21.6","13.4","-9999.0","-9999.0","250","WSW","1.3","0.8","1013","29.92","-10.5","13.1","-9999","-9999","-9999.00","-9999.00","Snow Showers","snow","0","0","1","0","0","0","METAR UKKK 290800Z 25006MPS 1300 R26/1500N SHSN BKN008 BKN020CB M04/M06 Q1013 RESHSN R26/490340 TEMPO 0300 +SHSN BKN002 BKN010CB"
"10:19 AM EET on November 29, 2016","2016","11","29","10","19","Europe/Kiev","8:19 AM GMT on November 29, 2016","2016","11","29","08","19","UTC","-3.0","26.6","-5.0","23.0","86","21.6","13.4","-9999.0","-9999.0","250","WSW","1.9","1.2","1012","29.89","-9.3","15.3","-9999","-9999","-9999.00","-9999.00","Snow Showers","snow","0","0","1","0","0","0","SPECI UKKK 290819Z 25006MPS 1900 SHSN BKN008 BKN020CB M03/M05 Q1012 R26/490340 TEMPO 0300 +SHSN BKN002 BKN010CB"
"10:30 AM EET on November 29, 2016","2016","11","29","10","30","Europe/Kiev","8:30 AM GMT on November 29, 2016","2016","11","29","08","30","UTC","-3.0","26.6","-5.0","23.0","86","21.6","13.4","-9999.0","-9999.0","250","WSW","1.2","0.7","1012","29.89","-9.3","15.3","-9999","-9999","-9999.00","-9999.00","Snow Showers","snow","0","0","1","0","0","0","METAR UKKK 290830Z 25006MPS 1200 R26/1000V1900D SHSN BKN007 BKN020CB M03/M05 Q1012 R26/490340 TEMPO 0300 +SHSN BKN002 BKN010CB"
"11:00 AM EET on November 29, 2016","2016","11","29","11","00","Europe/Kiev","9:00 AM GMT on November 29, 2016","2016","11","29","09","00","UTC","-3","26","-5","24","87","18.0","11.2","","","280","West","1","1","1014","29.94","-999","-999","-9999","-9999","","","Heavy Snow","snow","0","0","1","0","0","0","AAXX 29091 33345 41/94 92805 11032 21046 39926 40138 57024 77572 555 1/100"
"11:00 AM EET on November 29, 2016","2016","11","29","11","00","Europe/Kiev","9:00 AM GMT on November 29, 2016","2016","11","29","09","00","UTC","-3.0","26.6","-5.0","23.0","86","21.6","13.4","-9999.0","-9999.0","250","WSW","1.6","1.0","1012","29.89","-9.3","15.3","-9999","-9999","-9999.00","-9999.00","Snow Showers","snow","0","0","1","0","0","0","METAR UKKK 290900Z 25006MPS 1600 SHSN BKN008 BKN020CB M03/M05 Q1012 R26/490340 TEMPO 0300 +SHSN BKN002 BKN010CB"
"11:05 AM EET on November 29, 2016","2016","11","29","11","05","Europe/Kiev","9:05 AM GMT on November 29, 2016","2016","11","29","09","05","UTC","-3.0","26.6","-5.0","23.0","86","21.6","13.4","-9999.0","-9999.0","250","WSW","1.2","0.7","1012","29.89","-9.3","15.3","-9999","-9999","-9999.00","-9999.00","Snow Showers","snow","0","0","1","0","0","0","SPECI UKKK 290905Z 25006MPS 1200 R26/1600D SHSN BKN008 BKN020CB M03/M05 Q1012 R26/490340 TEMPO 0300 +SHSN BKN002 BKN010CB"
"11:30 AM EET on November 29, 2016","2016","11","29","11","30","Europe/Kiev","9:30 AM GMT on November 29, 2016","2016","11","29","09","30","UTC","-3.0","26.6","-4.0","24.8","93","21.6","13.4","-9999.0","-9999.0","250","WSW","1.3","0.8","1012","29.89","-9.3","15.3","-9999","-9999","-9999.00","-9999.00","Snow Showers","snow","0","0","1","0","0","0","METAR UKKK 290930Z 25006MPS 1300 R26/1300N SHSN BKN008 BKN020CB M03/M04 Q1012 R26/490340 TEMPO 0300 +SHSN BKN002 BKN010CB"
"11:45 AM EET on November 29, 2016","2016","11","29","11","45","Europe/Kiev","9:45 AM GMT on November 29, 2016","2016","11","29","09","45","UTC","-3.0","26.6","-4.0","24.8","93","21.6","13.4","-9999.0","-9999.0","250","WSW","-9999.0","-9999.0","1012","29.89","-9.3","15.3","-9999","-9999","-9999.00","-9999.00","Light Snow Showers","snow","0","0","1","0","0","0","SPECI UKKK 290945Z 25006MPS 3900 -SHSN BKN008 BKN020CB M03/M04 Q1012 RESHSN R26/490340 TEMPO 0300 +SHSN BKN002 BKN010CB"
"12:00 PM EET on November 29, 2016","2016","11","29","12","00","Europe/Kiev","10:00 AM GMT on November 29, 2016","2016","11","29","10","00","UTC","-2.0","28.4","-4.0","24.8","86","21.6","13.4","-9999.0","-9999.0","260","West","-9999.0","-9999.0","1011","29.86","-8.0","17.6","-9999","-9999","-9999.00","-9999.00","Light Snow","snow","0","0","1","0","0","0","METAR UKKK 291000Z 26006MPS 4700 -SN BKN008 OVC020 M02/M04 Q1011 R26/490340 TEMPO 0300 +SHSN BKN002 BKN010CB"
"12:06 PM EET on November 29, 2016","2016","11","29","12","06","Europe/Kiev","10:06 AM GMT on November 29, 2016","2016","11","29","10","06","UTC","-2.0","28.4","-4.0","24.8","86","21.6","13.4","-9999.0","-9999.0","260","West","1.9","1.2","1011","29.86","-8.0","17.6","-9999","-9999","-9999.00","-9999.00","Snow","snow","0","0","1","0","0","0","SPECI UKKK 291006Z 26006MPS 1900 SN BKN009 OVC020 M02/M04 Q1011 R26/490340 TEMPO 0300 +SHSN BKN002 BKN010CB"
"12:12 PM EET on November 29, 2016","2016","11","29","12","12","Europe/Kiev","10:12 AM GMT on November 29, 2016","2016","11","29","10","12","UTC","-2.0","28.4","-4.0","24.8","86","21.6","13.4","-9999.0","-9999.0","260","West","1.4","0.9","1011","29.86","-8.0","17.6","-9999","-9999","-9999.00","-9999.00","Snow","snow","0","0","1","0","0","0","SPECI UKKK 291012Z 26006MPS 1400 R26/1300VP2000D SN BKN008 OVC020 M02/M04 Q1011 R26/490340 TEMPO 0300 +SHSN BKN002 BKN010CB"
"12:24 PM EET on November 29, 2016","2016","11","29","12","24","Europe/Kiev","10:24 AM GMT on November 29, 2016","2016","11","29","10","24","UTC","-2.0","28.4","-4.0","24.8","86","21.6","13.4","-9999.0","-9999.0","260","West","-9999.0","-9999.0","1011","29.86","-8.0","17.6","-9999","-9999","-9999.00","-9999.00","Heavy Snow","snow","0","0","1","0","0","0","SPECI UKKK 291024Z 26006MPS 0750 R26/0800V1500D +SN BKN006 OVC020 M02/M04 Q1011 R26/490340 TEMPO 0300 +SHSN BKN002 BKN010CB"
"12:30 PM EET on November 29, 2016","2016","11","29","12","30","Europe/Kiev","10:30 AM GMT on November 29, 2016","2016","11","29","10","30","UTC","-2.0","28.4","-4.0","24.8","86","21.6","13.4","-9999.0","-9999.0","260","West","1.1","0.7","1011","29.86","-8.0","17.6","-9999","-9999","-9999.00","-9999.00","Snow","snow","0","0","1","0","0","0","METAR UKKK 291030Z 26006MPS 1100 R26/0800V1400U SN BKN005 OVC020 M02/M04 Q1011 RESN R26/490340 TEMPO 0300 +SHSN BKN002 BKN010CB"
"1:00 PM EET on November 29, 2016","2016","11","29","13","00","Europe/Kiev","11:00 AM GMT on November 29, 2016","2016","11","29","11","00","UTC","-2.0","28.4","-3.0","26.6","93","21.6","13.4","-9999.0","-9999.0","270","West","2.1","1.3","1011","29.86","-8.0","17.6","-9999","-9999","-9999.00","-9999.00","Light Snow","snow","0","0","1","0","0","0","METAR UKKK 291100Z 27006MPS 2100 -SN BKN006 OVC017 M02/M03 Q1011 RESN R26/490530 TEMPO 1000 SHSN BKN005 BKN010CB"
"1:03 PM EET on November 29, 2016","2016","11","29","13","03","Europe/Kiev","11:03 AM GMT on November 29, 2016","2016","11","29","11","03","UTC","-2.0","28.4","-3.0","26.6","93","21.6","13.4","-9999.0","-9999.0","270","West","2.0","1.2","1011","29.86","-8.0","17.6","-9999","-9999","-9999.00","-9999.00","Snow","snow","0","0","1","0","0","0","SPECI UKKK 291103Z 27006MPS 2000 SN BKN006 OVC017 M02/M03 Q1011 R26/490530 TEMPO 1000 SHSN BKN005 BKN010CB"
"1:05 PM EET on November 29, 2016","2016","11","29","13","05","Europe/Kiev","11:05 AM GMT on November 29, 2016","2016","11","29","11","05","UTC","-2.0","28.4","-3.0","26.6","93","21.6","13.4","-9999.0","-9999.0","270","West","1.2","0.7","1011","29.86","-8.0","17.6","-9999","-9999","-9999.00","-9999.00","Snow","snow","0","0","1","0","0","0","SPECI UKKK 291105Z 27006MPS 1200 R26/1400VP2000D SN BKN006 OVC017 M02/M03 Q1011 R26/490530 TEMPO 1000 SHSN BKN005 BKN010CB"
"1:18 PM EET on November 29, 2016","2016","11","29","13","18","Europe/Kiev","11:18 AM GMT on November 29, 2016","2016","11","29","11","18","UTC","-2.0","28.4","-3.0","26.6","93","21.6","13.4","-9999.0","-9999.0","280","West","-9999.0","-9999.0","1011","29.86","-8.0","17.6","-9999","-9999","-9999.00","-9999.00","Heavy Snow","snow","0","0","1","0","0","0","SPECI UKKK 291118Z 28006MPS 0750 R26/0800V1400D +SN BKN006 OVC017 M02/M03 Q1011 R26/490530 TEMPO 0700 +SHSN BKN005 BKN010CB"
"1:26 PM EET on November 29, 2016","2016","11","29","13","26","Europe/Kiev","11:26 AM GMT on November 29, 2016","2016","11","29","11","26","UTC","-2.0","28.4","-3.0","26.6","93","21.6","13.4","-9999.0","-9999.0","280","West","0.9","0.6","1011","29.86","-8.0","17.6","-9999","-9999","-9999.00","-9999.00","Heavy Snow","snow","0","0","1","0","0","0","SPECI UKKK 291126Z 28006MPS 0900 R26/0900U +SN BKN004 OVC024 M02/M03 Q1011 R26/490530 TEMPO 0500 +SHSN BKN005 BKN010CB"
"1:30 PM EET on November 29, 2016","2016","11","29","13","30","Europe/Kiev","11:30 AM GMT on November 29, 2016","2016","11","29","11","30","UTC","-2.0","28.4","-3.0","26.6","93","21.6","13.4","-9999.0","-9999.0","280","West","1.0","0.6","1011","29.86","-8.0","17.6","-9999","-9999","-9999.00","-9999.00","Snow","snow","0","0","1","0","0","0","METAR UKKK 291130Z 28006MPS 1000 R26/1000U SN BKN004 OVC024 M02/M03 Q1011 RESN R26/490530 TEMPO 0500 +SHSN BKN003 BKN010CB"
"1:45 PM EET on November 29, 2016","2016","11","29","13","45","Europe/Kiev","11:45 AM GMT on November 29, 2016","2016","11","29","11","45","UTC","-2.0","28.4","-3.0","26.6","93","18.0","11.2","-9999.0","-9999.0","280","West","1.5","0.9","1011","29.86","-7.4","18.7","-9999","-9999","-9999.00","-9999.00","Snow","snow","0","0","1","0","0","0","SPECI UKKK 291145Z 28005MPS 1500 SN BKN004 OVC024 M02/M03 Q1011 R26/490530 TEMPO 0500 +SHSN BKN003 BKN010CB"
"1:56 PM EET on November 29, 2016","2016","11","29","13","56","Europe/Kiev","11:56 AM GMT on November 29, 2016","2016","11","29","11","56","UTC","-2.0","28.4","-3.0","26.6","93","18.0","11.2","-9999.0","-9999.0","270","West","2.6","1.6","1011","29.86","-7.4","18.7","-9999","-9999","-9999.00","-9999.00","Light Snow","snow","0","0","1","0","0","0","SPECI UKKK 291156Z 27005MPS 2600 -SN BKN006 OVC021 M02/M03 Q1011 RESN R26/490530 TEMPO 1000 SHSN BKN003 BKN010CB"
"2:00 PM EET on November 29, 2016","2016","11","29","14","00","Europe/Kiev","12:00 PM GMT on November 29, 2016","2016","11","29","12","00","UTC","-2","29","-3","27","90","10.8","6.7","","","300","WNW","1","1","1013","29.92","-999","-999","-9999","-9999","","","Snow","snow","0","0","1","0","0","0","AAXX 29121 33345 /1294 83003 11019 21027 39920 40131 57006 77373 8872/ 333 88703 555 1/101 60051"
"2:00 PM EET on November 29, 2016","2016","11","29","14","00","Europe/Kiev","12:00 PM GMT on November 29, 2016","2016","11","29","12","00","UTC","-2.0","28.4","-3.0","26.6","93","18.0","11.2","-9999.0","-9999.0","270","West","2.5","1.6","1011","29.86","-7.4","18.7","-9999","-9999","-9999.00","-9999.00","Light Snow","snow","0","0","1","0","0","0","METAR UKKK 291200Z 27005MPS 2500 -SN BKN006 OVC021 M02/M03 Q1011 R26/490530 TEMPO 1000 SHSN BKN003 BKN010CB"
"2:05 PM EET on November 29, 2016","2016","11","29","14","05","Europe/Kiev","12:05 PM GMT on November 29, 2016","2016","11","29","12","05","UTC","-2.0","28.4","-3.0","26.6","93","18.0","11.2","-9999.0","-9999.0","280","West","1.3","0.8","1012","29.89","-7.4","18.7","-9999","-9999","-9999.00","-9999.00","Snow","snow","0","0","1","0","0","0","SPECI UKKK 291205Z 28005MPS 1300 R26/1400VP2000D SN BKN007 OVC021 M02/M03 Q1012 R26/490530 TEMPO 1000 SHSN BKN003 BKN010CB"
"2:07 PM EET on November 29, 2016","2016","11","29","14","07","Europe/Kiev","12:07 PM GMT on November 29, 2016","2016","11","29","12","07","UTC","-2.0","28.4","-3.0","26.6","93","18.0","11.2","-9999.0","-9999.0","280","West","0.9","0.6","1012","29.89","-7.4","18.7","-9999","-9999","-9999.00","-9999.00","Heavy Snow","snow","0","0","1","0","0","0","SPECI UKKK 291207Z 28005MPS 0900 R26/1100VP2000D +SN BKN005 OVC021 M02/M03 Q1012 R26/490530 TEMPO 1000 SHSN BKN003 BKN010CB"
"2:09 PM EET on November 29, 2016","2016","11","29","14","09","Europe/Kiev","12:09 PM GMT on November 29, 2016","2016","11","29","12","09","UTC","-2.0","28.4","-3.0","26.6","93","18.0","11.2","-9999.0","-9999.0","290","WNW","0.6","0.4","1012","29.89","-7.4","18.7","-9999","-9999","-9999.00","-9999.00","Heavy Snow","snow","0","0","1","0","0","0","SPECI UKKK 291209Z 29005MPS 0600 R26/1000VP2000D +SN BKN002 OVC021 M02/M03 Q1012 R26/490530 TEMPO 0400 +SHSN BKN003 BKN010CB"
"2:11 PM EET on November 29, 2016","2016","11","29","14","11","Europe/Kiev","12:11 PM GMT on November 29, 2016","2016","11","29","12","11","UTC","-2.0","28.4","-3.0","26.6","93","18.0","11.2","-9999.0","-9999.0","300","WNW","0.4","0.2","1012","29.89","-7.4","18.7","-9999","-9999","-9999.00","-9999.00","Heavy Snow","snow","0","0","1","0","0","0","SPECI UKKK 291211Z 30005MPS 280V340 0400 R26/0600V1500D +SN BKN003 OVC021 M02/M03 Q1012 R26/490530 NOSIG"
"2:26 PM EET on November 29, 2016","2016","11","29","14","26","Europe/Kiev","12:26 PM GMT on November 29, 2016","2016","11","29","12","26","UTC","-2.0","28.4","-5.0","23.0","80","21.6","13.4","-9999.0","-9999.0","10","North","-9999.0","-9999.0","1012","29.89","-8.0","17.6","-9999","-9999","-9999.00","-9999.00","Light Snow","snow","0","0","1","0","0","0","SPECI UKKK 291226Z 01006MPS 4700 -SN BKN010 OVC024 M02/M05 Q1012 RESN R26/490530 NOSIG"
"2:30 PM EET on November 29, 2016","2016","11","29","14","30","Europe/Kiev","12:30 PM GMT on November 29, 2016","2016","11","29","12","30","UTC","-3.0","26.6","-5.0","23.0","86","21.6","13.4","-9999.0","-9999.0","10","North","5.0","3.1","1012","29.89","-9.3","15.3","-9999","-9999","-9999.00","-9999.00","Light Snow","snow","0","0","1","0","0","0","METAR UKKK 291230Z 01006MPS 5000 -SN BKN009 OVC024 M03/M05 Q1012 R26/490530 NOSIG"
"3:00 PM EET on November 29, 2016","2016","11","29","15","00","Europe/Kiev","1:00 PM GMT on November 29, 2016","2016","11","29","13","00","UTC","-4.0","24.8","-6.0","21.2","86","21.6","13.4","-9999.0","-9999.0","20","NNE","8.0","5.0","1014","29.95","-10.5","13.1","-9999","-9999","-9999.00","-9999.00","Light Snow","snow","0","0","1","0","0","0","METAR UKKK 291300Z 02006MPS 350V050 8000 -SN BKN013 BKN100 M04/M06 Q1014 R26/590530 TEMPO 32009G14MPS 0400 +SHSN BLSN BKN003 BKN012CB"
"3:30 PM EET on November 29, 2016","2016","11","29","15","30","Europe/Kiev","1:30 PM GMT on November 29, 2016","2016","11","29","13","30","UTC","-4.0","24.8","-7.0","19.4","80","21.6","13.4","-9999.0","-9999.0","360","North","9.0","5.6","1015","29.98","-10.5","13.1","-9999","-9999","-9999.00","-9999.00","Mostly Cloudy","mostlycloudy","0","0","0","0","0","0","METAR UKKK 291330Z 36006MPS 9000 SCT017 BKN100 M04/M07 Q1015 R08/590530 NOSIG"
"4:00 PM EET on November 29, 2016","2016","11","29","16","00","Europe/Kiev","2:00 PM GMT on November 29, 2016","2016","11","29","14","00","UTC","-4.0","24.8","-8.0","17.6","74","21.6","13.4","-9999.0","-9999.0","360","North","10.0","6.2","1015","29.98","-10.5","13.1","-9999","-9999","-9999.00","-9999.00","Mostly Cloudy","mostlycloudy","0","0","0","0","0","0","METAR UKKK 291400Z 36006MPS 9999 SCT025 BKN100 M04/M08 Q1015 R08/590530 NOSIG"
"4:30 PM EET on November 29, 2016","2016","11","29","16","30","Europe/Kiev","2:30 PM GMT on November 29, 2016","2016","11","29","14","30","UTC","-4.0","24.8","-8.0","17.6","74","18.0","11.2","-9999.0","-9999.0","360","North","8.0","5.0","1016","30.01","-9.9","14.2","-9999","-9999","-9999.00","-9999.00","Light Snow Showers","snow","0","0","1","0","0","0","METAR UKKK 291430Z 36005MPS 330V040 8000 -SHSN SCT017CB BKN027 M04/M08 Q1016 R08/890336 NOSIG"
"4:34 PM EET on November 29, 2016","2016","11","29","16","34","Europe/Kiev","2:34 PM GMT on November 29, 2016","2016","11","29","14","34","UTC","-4.0","24.8","-7.0","19.4","80","18.0","11.2","-9999.0","-9999.0","350","North","1.6","1.0","1016","30.01","-9.9","14.2","-9999","-9999","-9999.00","-9999.00","Snow Showers","snow","0","0","1","0","0","0","SPECI UKKK 291434Z 35005MPS 330V030 1600 SHSN SCT016CB BKN027 M04/M07 Q1016 R08/890336 TEMPO 1400 SHSN BKN004 BKN012CB"
"4:36 PM EET on November 29, 2016","2016","11","29","16","36","Europe/Kiev","2:36 PM GMT on November 29, 2016","2016","11","29","14","36","UTC","-4.0","24.8","-7.0","19.4","80","18.0","11.2","-9999.0","-9999.0","350","North","1.2","0.7","1016","30.01","-9.9","14.2","-9999","-9999","-9999.00","-9999.00","Snow Showers","snow","0","0","1","0","0","0","SPECI UKKK 291436Z 35005MPS 1200 R08/1700VP2000D SHSN SCT013CB BKN027 M04/M07 Q1016 R08/890336 TEMPO 1400 SHSN BKN004 BKN012CB"
"4:54 PM EET on November 29, 2016","2016","11","29","16","54","Europe/Kiev","2:54 PM GMT on November 29, 2016","2016","11","29","14","54","UTC","-4.0","24.8","-7.0","19.4","80","18.0","11.2","-9999.0","-9999.0","350","North","7.0","4.3","1017","30.04","-9.9","14.2","-9999","-9999","-9999.00","-9999.00","Light Snow Showers","snow","0","0","1","0","0","0","SPECI UKKK 291454Z 35005MPS 7000 -SHSN SCT015CB BKN033 M04/M07 Q1017 RESHSN R08/890336 TEMPO 1400 SHSN BKN004 BKN012CB"
"5:00 PM EET on November 29, 2016","2016","11","29","17","00","Europe/Kiev","3:00 PM GMT on November 29, 2016","2016","11","29","15","00","UTC","-4","24","-7","20","79","14.4","8.9","","","20","NNE","10","6","1019","30.09","-999","-999","-9999","-9999","","","Partly Cloudy","partlycloudy","0","0","0","0","0","0","AAXX 29151 33345 41497 60204 11043 21066 39974 40188 53054 70272 86500 333 86715 555 1/105"
"5:00 PM EET on November 29, 2016","2016","11","29","17","00","Europe/Kiev","3:00 PM GMT on November 29, 2016","2016","11","29","15","00","UTC","-4.0","24.8","-7.0","19.4","80","21.6","13.4","-9999.0","-9999.0","350","North","9.0","5.6","1017","30.04","-10.5","13.1","-9999","-9999","-9999.00","-9999.00","Light Snow Showers","snow","0","0","1","0","0","0","METAR UKKK 291500Z 35006MPS 9000 -SHSN SCT026CB BKN033 M04/M07 Q1017 R08/590436 TEMPO 1400 SHSN BKN004 BKN012CB"
"5:30 PM EET on November 29, 2016","2016","11","29","17","30","Europe/Kiev","3:30 PM GMT on November 29, 2016","2016","11","29","15","30","UTC","-4.0","24.8","-9.0","15.8","69","21.6","13.4","-9999.0","-9999.0","340","NNW","10.0","6.2","1018","30.06","-10.5","13.1","-9999","-9999","-9999.00","-9999.00","Mostly Cloudy","mostlycloudy","0","0","0","0","0","0","METAR UKKK 291530Z 34006MPS 9999 FEW030CB BKN036 M04/M09 Q1018 R26/590436 TEMPO 1400 SHSN BKN004 BKN012CB"
"6:00 PM EET on November 29, 2016","2016","11","29","18","00","Europe/Kiev","4:00 PM GMT on November 29, 2016","2016","11","29","16","00","UTC","-5.0","23.0","-10.0","14.0","68","21.6","13.4","-9999.0","-9999.0","350","North","10.0","6.2","1018","30.06","-11.8","10.8","-9999","-9999","-9999.00","-9999.00","Light Snow","snow","0","0","1","0","0","0","METAR UKKK 291600Z 35006MPS 9999 -SN OVC037 M05/M10 Q1018 R26/590436 TEMPO 1400 SHSN BKN004 BKN012CB"
"6:30 PM EET on November 29, 2016","2016","11","29","18","30","Europe/Kiev","4:30 PM GMT on November 29, 2016","2016","11","29","16","30","UTC","-5.0","23.0","-8.0","17.6","80","18.0","11.2","-9999.0","-9999.0","340","NNW","8.0","5.0","1019","30.09","-11.2","11.9","-9999","-9999","-9999.00","-9999.00","Light Snow Showers","snow","0","0","1","0","0","0","METAR UKKK 291630Z 34005MPS 310V010 8000 -SHSN SCT026CB OVC033 M05/M08 Q1019 R26/890240 TEMPO 1400 SHSN BKN004 BKN012CB"
"7:00 PM EET on November 29, 2016","2016","11","29","19","00","Europe/Kiev","5:00 PM GMT on November 29, 2016","2016","11","29","17","00","UTC","-5.0","23.0","-9.0","15.8","74","18.0","11.2","-9999.0","-9999.0","350","North","10.0","6.2","1020","30.12","-11.2","11.9","-9999","-9999","-9999.00","-9999.00","Light Snow Showers","snow","0","0","1","0","0","0","METAR UKKK 291700Z 35005MPS 9999 -SHSN SCT017CB OVC036 M05/M09 Q1020 R26/890240 TEMPO 1400 SHSN BKN004 BKN012CB"
"7:30 PM EET on November 29, 2016","2016","11","29","19","30","Europe/Kiev","5:30 PM GMT on November 29, 2016","2016","11","29","17","30","UTC","-5.0","23.0","-8.0","17.6","80","18.0","11.2","-9999.0","-9999.0","330","NNW","9.0","5.6","1020","30.12","-11.2","11.9","-9999","-9999","-9999.00","-9999.00","Light Snow Showers","snow","0","0","1","0","0","0","METAR UKKK 291730Z 33005MPS 9000 -SHSN SCT024CB OVC036 M05/M08 Q1020 R26/890240 NOSIG"
"8:00 PM EET on November 29, 2016","2016","11","29","20","00","Europe/Kiev","6:00 PM GMT on November 29, 2016","2016","11","29","18","00","UTC","-5","24","-8","17","67","14.4","8.9","","","10","North","20","12","1022","30.19","-999","-999","-9999","-9999","","","Partly Cloudy","partlycloudy","0","0","0","0","0","0","AAXX 29181 33345 11698 60104 11046 21081 30007 40222 52033 60062 70272 86500 333 11019 86640 555 1/107"
"8:00 PM EET on November 29, 2016","2016","11","29","20","00","Europe/Kiev","6:00 PM GMT on November 29, 2016","2016","11","29","18","00","UTC","-5.0","23.0","-9.0","15.8","74","21.6","13.4","-9999.0","-9999.0","340","NNW","10.0","6.2","1021","30.15","-11.8","10.8","-9999","-9999","-9999.00","-9999.00","Light Snow Showers","snow","0","0","1","0","0","0","METAR UKKK 291800Z 34006MPS 9999 -SHSN SCT024CB BKN042 M05/M09 Q1021 R26/890240 NOSIG"
"8:30 PM EET on November 29, 2016","2016","11","29","20","30","Europe/Kiev","6:30 PM GMT on November 29, 2016","2016","11","29","18","30","UTC","-5.0","23.0","-9.0","15.8","74","14.4","8.9","-9999.0","-9999.0","330","NNW","10.0","6.2","1021","30.15","-10.4","13.2","-9999","-9999","-9999.00","-9999.00","Scattered Clouds","partlycloudy","0","0","0","0","0","0","METAR UKKK 291830Z 33004MPS 9999 SCT036 M05/M09 Q1021 R26/890240 NOSIG"
"9:00 PM EET on November 29, 2016","2016","11","29","21","00","Europe/Kiev","7:00 PM GMT on November 29, 2016","2016","11","29","19","00","UTC","-6.0","21.2","-10.0","14.0","74","14.4","8.9","-9999.0","-9999.0","330","NNW","9.0","5.6","1022","30.18","-11.6","11.0","-9999","-9999","-9999.00","-9999.00","Partly Cloudy","partlycloudy","0","0","0","0","0","0","METAR UKKK 291900Z 33004MPS 9000 FEW039 M06/M10 Q1022 R26/890240 NOSIG"
"9:30 PM EET on November 29, 2016","2016","11","29","21","30","Europe/Kiev","7:30 PM GMT on November 29, 2016","2016","11","29","19","30","UTC","-6.0","21.2","-10.0","14.0","74","14.4","8.9","-9999.0","-9999.0","330","NNW","10.0","6.2","1022","30.18","-11.6","11.0","-9999","-9999","-9999.00","-9999.00","Mostly Cloudy","mostlycloudy","0","0","0","0","0","0","METAR UKKK 291930Z 33004MPS 9999 BKN032 M06/M10 Q1022 R26/890240 NOSIG"
"10:00 PM EET on November 29, 2016","2016","11","29","22","00","Europe/Kiev","8:00 PM GMT on November 29, 2016","2016","11","29","20","00","UTC","-6.0","21.2","-9.0","15.8","80","18.0","11.2","-9999.0","-9999.0","330","NNW","10.0","6.2","1022","30.18","-12.4","9.7","-9999","-9999","-9999.00","-9999.00","Mostly Cloudy","mostlycloudy","0","0","0","0","0","0","METAR UKKK 292000Z 33005MPS 9999 BKN040 M06/M09 Q1022 R26/890240 NOSIG"
"10:30 PM EET on November 29, 2016","2016","11","29","22","30","Europe/Kiev","8:30 PM GMT on November 29, 2016","2016","11","29","20","30","UTC","-7.0","19.4","-10.0","14.0","80","14.4","8.9","-9999.0","-9999.0","330","NNW","-9999.0","-9999.0","1023","30.21","-12.9","8.8","-9999","-9999","-9999.00","-9999.00","Clear","clear","0","0","0","0","0","0","METAR UKKK 292030Z 33004MPS CAVOK M07/M10 Q1023 R26/890240 NOSIG"
"11:00 PM EET on November 29, 2016","2016","11","29","23","00","Europe/Kiev","9:00 PM GMT on November 29, 2016","2016","11","29","21","00","UTC","-5","23","-9","16","64","10.8","6.7","","","10","North","20","12","1025","30.27","-999","-999","-9999","-9999","","","Partly Cloudy","partlycloudy","0","0","0","0","0","0","AAXX 29211 33345 41698 20103 11052 21089 30033 40249 52026 70271 82500 555 1/111"
"11:00 PM EET on November 29, 2016","2016","11","29","23","00","Europe/Kiev","9:00 PM GMT on November 29, 2016","2016","11","29","21","00","UTC","-7.0","19.4","-10.0","14.0","80","14.4","8.9","-9999.0","-9999.0","340","NNW","9.0","5.6","1023","30.21","-12.9","8.8","-9999","-9999","-9999.00","-9999.00","Partly Cloudy","partlycloudy","0","0","0","0","0","0","METAR UKKK 292100Z 34004MPS 9000 FEW024 M07/M10 Q1023 R26/890240 NOSIG"
"11:30 PM EET on November 29, 2016","2016","11","29","23","30","Europe/Kiev","9:30 PM GMT on November 29, 2016","2016","11","29","21","30","UTC","-8.0","17.6","-10.0","14.0","86","14.4","8.9","-9999.0","-9999.0","330","NNW","-9999.0","-9999.0","1023","30.21","-14.1","6.6","-9999","-9999","-9999.00","-9999.00","Clear","clear","0","0","0","0","0","0","METAR UKKK 292130Z 33004MPS CAVOK M08/M10 Q1023 R26/890240 NOSIG"
"12:00 AM EET on November 30, 2016","2016","11","30","00","00","Europe/Kiev","10:00 PM GMT on November 29, 2016","2016","11","29","22","00","UTC","-8.0","17.6","-10.0","14.0","86","10.8","6.7","-9999.0","-9999.0","320","NW","-9999.0","-9999.0","1023","30.21","-13.1","8.4","-9999","-9999","-9999.00","-9999.00","Clear","clear","0","0","0","0","0","0","METAR UKKK 292200Z 32003MPS CAVOK M08/M10 Q1023 R26/890240 NOSIG"
"12:30 AM EET on November 30, 2016","2016","11","30","00","30","Europe/Kiev","10:30 PM GMT on November 29, 2016","2016","11","29","22","30","UTC","-8.0","17.6","-10.0","14.0","86","10.8","6.7","-9999.0","-9999.0","330","NNW","-9999.0","-9999.0","1023","30.21","-13.1","8.4","-9999","-9999","-9999.00","-9999.00","Clear","clear","0","0","0","0","0","0","METAR UKKK 292230Z 33003MPS 310V020 CAVOK M08/M10 Q1023 R26/890240 NOSIG"
"1:00 AM EET on November 30, 2016","2016","11","30","01","00","Europe/Kiev","11:00 PM GMT on November 29, 2016","2016","11","29","23","00","UTC","-8.0","17.6","-10.0","14.0","86","10.8","6.7","-9999.0","-9999.0","320","NW","10.0","6.2","1024","30.24","-13.1","8.4","-9999","-9999","-9999.00","-9999.00","Scattered Clouds","partlycloudy","0","0","0","0","0","0","METAR UKKK 292300Z 32003MPS 9999 SCT024 M08/M10 Q1024 R26/890240 NOSIG"
"1:30 AM EET on November 30, 2016","2016","11","30","01","30","Europe/Kiev","11:30 PM GMT on November 29, 2016","2016","11","29","23","30","UTC","-9.0","15.8","-11.0","12.2","86","14.4","8.9","-9999.0","-9999.0","320","NW","-9999.0","-9999.0","1024","30.24","-15.3","4.4","-9999","-9999","-9999.00","-9999.00","Clear","clear","0","0","0","0","0","0","METAR UKKK 292330Z 32004MPS CAVOK M09/M11 Q1024 R26/890240 NOSIG"
"2:00 AM EET on November 30, 2016","2016","11","30","02","00","Europe/Kiev","12:00 AM GMT on November 30, 2016","2016","11","30","00","00","UTC","-8","18","-11","13","71","7.2","4.5","","","350","North","20","12","1026","30.30","-999","-999","-9999","-9999","","","Partly Cloudy","partlycloudy","0","0","0","0","0","0","AAXX 30001 33345 /1998 03502 11076 21107 30042 40260 52009 70271 555 1/114 69921"
"2:00 AM EET on November 30, 2016","2016","11","30","02","00","Europe/Kiev","12:00 AM GMT on November 30, 2016","2016","11","30","00","00","UTC","-8.0","17.6","-11.0","12.2","79","14.4","8.9","-9999.0","-9999.0","320","NW","10.0","6.2","1024","30.24","-14.1","6.6","-9999","-9999","-9999.00","-9999.00","Partly Cloudy","partlycloudy","0","0","0","0","0","0","METAR UKKK 300000Z 32004MPS 9999 FEW036 M08/M11 Q1024 R26/890240 NOSIG"
"2:30 AM EET on November 30, 2016","2016","11","30","02","30","Europe/Kiev","12:30 AM GMT on November 30, 2016","2016","11","30","00","30","UTC","-8.0","17.6","-10.0","14.0","86","10.8","6.7","-9999.0","-9999.0","320","NW","9.0","5.6","1024","30.24","-13.1","8.4","-9999","-9999","-9999.00","-9999.00","Light Snow","snow","0","0","1","0","0","0","METAR UKKK 300030Z 32003MPS 9000 -SN BKN030 M08/M10 Q1024 R26/890240 NOSIG"
"3:00 AM EET on November 30, 2016","2016","11","30","03","00","Europe/Kiev","1:00 AM GMT on November 30, 2016","2016","11","30","01","00","UTC","-8.0","17.6","-11.0","12.2","79","10.8","6.7","-9999.0","-9999.0","330","NNW","9.0","5.6","1024","30.24","-13.1","8.4","-9999","-9999","-9999.00","-9999.00","Light Snow","snow","0","0","1","0","0","0","METAR UKKK 300100Z 33003MPS 9000 -SN OVC026 M08/M11 Q1024 R26/890240 NOSIG"
"3:30 AM EET on November 30, 2016","2016","11","30","03","30","Europe/Kiev","1:30 AM GMT on November 30, 2016","2016","11","30","01","30","UTC","-9.0","15.8","-11.0","12.2","86","10.8","6.7","-9999.0","-9999.0","320","NW","10.0","6.2","1024","30.24","-14.3","6.2","-9999","-9999","-9999.00","-9999.00","Mostly Cloudy","mostlycloudy","0","0","0","0","0","0","METAR UKKK 300130Z 32003MPS 9999 BKN030 M09/M11 Q1024 R26/890240 NOSIG"
"4:00 AM EET on November 30, 2016","2016","11","30","04","00","Europe/Kiev","2:00 AM GMT on November 30, 2016","2016","11","30","02","00","UTC","-10.0","14.0","-12.0","10.4","86","7.2","4.5","-9999.0","-9999.0","260","West","10.0","6.2","1024","30.24","-14.1","6.6","-9999","-9999","-9999.00","-9999.00","Partly Cloudy","partlycloudy","0","0","0","0","0","0","METAR UKKK 300200Z 26002MPS 9999 FEW025 M10/M12 Q1024 R26/890240 NOSIG"
"4:30 AM EET on November 30, 2016","2016","11","30","04","30","Europe/Kiev","2:30 AM GMT on November 30, 2016","2016","11","30","02","30","UTC","-10.0","14.0","-11.0","12.2","93","10.8","6.7","-9999.0","-9999.0","290","WNW","9.0","5.6","1024","30.24","-15.5","4.1","-9999","-9999","-9999.00","-9999.00","Partly Cloudy","partlycloudy","0","0","0","0","0","0","METAR UKKK 300230Z 29003MPS 9000 FEW025 M10/M11 Q1024 R26/820250 NOSIG"
"5:00 AM EET on November 30, 2016","2016","11","30","05","00","Europe/Kiev","3:00 AM GMT on November 30, 2016","2016","11","30","03","00","UTC","-8","17","-11","13","76","7.2","4.5","","","340","NNW","20","12","1026","30.31","-999","-999","-9999","-9999","","","","","0","0","0","0","0","0","AAXX 30031 33345 42998 03402 11084 21107 30045 40264 52003 555 1/115"
"5:00 AM EET on November 30, 2016","2016","11","30","05","00","Europe/Kiev","3:00 AM GMT on November 30, 2016","2016","11","30","03","00","UTC","-9.0","15.8","-11.0","12.2","86","18.0","11.2","-9999.0","-9999.0","310","NW","9.0","5.6","1024","30.24","-16.2","2.9","-9999","-9999","-9999.00","-9999.00","Partly Cloudy","partlycloudy","0","0","0","0","0","0","METAR UKKK 300300Z 31005MPS 9000 FEW025 M09/M11 Q1024 R26/820250 NOSIG"
"5:30 AM EET on November 30, 2016","2016","11","30","05","30","Europe/Kiev","3:30 AM GMT on November 30, 2016","2016","11","30","03","30","UTC","-8.0","17.6","-11.0","12.2","79","14.4","8.9","-9999.0","-9999.0","320","NW","10.0","6.2","1024","30.24","-14.1","6.6","-9999","-9999","-9999.00","-9999.00","Light Snow","snow","0","0","1","0","0","0","METAR UKKK 300330Z 32004MPS 9999 -SN BKN023 M08/M11 Q1024 R26/820250 NOSIG"
"6:00 AM EET on November 30, 2016","2016","11","30","06","00","Europe/Kiev","4:00 AM GMT on November 30, 2016","2016","11","30","04","00","UTC","-8.0","17.6","-11.0","12.2","79","10.8","6.7","-9999.0","-9999.0","310","NW","10.0","6.2","1024","30.24","-13.1","8.4","-9999","-9999","-9999.00","-9999.00","Light Snow","snow","0","0","1","0","0","0","METAR UKKK 300400Z 31003MPS 9999 -SN BKN025 M08/M11 Q1024 R26/820250 NOSIG"
"6:30 AM EET on November 30, 2016","2016","11","30","06","30","Europe/Kiev","4:30 AM GMT on November 30, 2016","2016","11","30","04","30","UTC","-9.0","15.8","-11.0","12.2","86","10.8","6.7","-9999.0","-9999.0","300","WNW","9.0","5.6","1024","30.24","-14.3","6.2","-9999","-9999","-9999.00","-9999.00","Light Snow","snow","0","0","1","0","0","0","METAR UKKK 300430Z 30003MPS 9000 -SN BKN025 M09/M11 Q1024 R26/820250 NOSIG"
"7:00 AM EET on November 30, 2016","2016","11","30","07","00","Europe/Kiev","5:00 AM GMT on November 30, 2016","2016","11","30","05","00","UTC","-9.0","15.8","-11.0","12.2","86","10.8","6.7","-9999.0","-9999.0","330","NNW","10.0","6.2","1024","30.24","-14.3","6.2","-9999","-9999","-9999.00","-9999.00","Scattered Clouds","partlycloudy","0","0","0","0","0","0","METAR UKKK 300500Z 33003MPS 9999 SCT020 M09/M11 Q1024 R26/820250 NOSIG"
"7:30 AM EET on November 30, 2016","2016","11","30","07","30","Europe/Kiev","5:30 AM GMT on November 30, 2016","2016","11","30","05","30","UTC","-11.0","12.2","-13.0","8.6","85","3.6","2.2","-9999.0","-9999.0","0","Variable","10.0","6.2","1024","30.24","-999","-999","-9999","-9999","-9999.00","-9999.00","Scattered Clouds","partlycloudy","0","0","0","0","0","0","METAR UKKK 300530Z VRB01MPS 9999 SCT020 M11/M13 Q1024 R26/820250 NOSIG"
"8:00 AM EET on November 30, 2016","2016","11","30","08","00","Europe/Kiev","6:00 AM GMT on November 30, 2016","2016","11","30","06","00","UTC","-9","16","-11","12","79","7.2","4.5","","","310","NW","10","6","1027","30.32","-999","-999","-9999","-9999","","","Scattered Clouds","partlycloudy","0","0","0","0","0","0","AAXX 30061 33345 12697 23102 11089 21109 30048 40267 52003 69922 82500 333 21090 47006 555 1/116"
"8:00 AM EET on November 30, 2016","2016","11","30","08","00","Europe/Kiev","6:00 AM GMT on November 30, 2016","2016","11","30","06","00","UTC","-10.0","14.0","-11.0","12.2","93","7.2","4.5","-9999.0","-9999.0","240","WSW","8.0","5.0","1025","30.27","-14.1","6.6","-9999","-9999","-9999.00","-9999.00","Mostly Cloudy","mostlycloudy","0","0","0","0","0","0","METAR UKKK 300600Z 24002MPS 8000 BKN021 M10/M11 Q1025 R26/820250 NOSIG"
"8:30 AM EET on November 30, 2016","2016","11","30","08","30","Europe/Kiev","6:30 AM GMT on November 30, 2016","2016","11","30","06","30","UTC","-10.0","14.0","-11.0","12.2","93","7.2","4.5","-9999.0","-9999.0","260","West","10.0","6.2","1025","30.27","-14.1","6.6","-9999","-9999","-9999.00","-9999.00","Mostly Cloudy","mostlycloudy","0","0","0","0","0","0","METAR UKKK 300630Z 26002MPS 9999 BKN020 M10/M11 Q1025 R26/820250 NOSIG"
"9:00 AM EET on November 30, 2016","2016","11","30","09","00","Europe/Kiev","7:00 AM GMT on November 30, 2016","2016","11","30","07","00","UTC","-10.0","14.0","-12.0","10.4","86","7.2","4.5","-9999.0","-9999.0","250","WSW","10.0","6.2","1025","30.27","-14.1","6.6","-9999","-9999","-9999.00","-9999.00","Mostly Cloudy","mostlycloudy","0","0","0","0","0","0","METAR UKKK 300700Z 25002MPS 9999 FEW011 BKN200 M10/M12 Q1025 R26/820250 NOSIG"
"9:30 AM EET on November 30, 2016","2016","11","30","09","30","Europe/Kiev","7:30 AM GMT on November 30, 2016","2016","11","30","07","30","UTC","-10.0","14.0","-11.0","12.2","93","10.8","6.7","-9999.0","-9999.0","270","West","-9999.0","-9999.0","1024","30.24","-15.5","4.1","-9999","-9999","-9999.00","-9999.00","Clear","clear","0","0","0","0","0","0","METAR UKKK 300730Z 27003MPS CAVOK M10/M11 Q1024 R26/820250 NOSIG"
"10:00 AM EET on November 30, 2016","2016","11","30","10","00","Europe/Kiev","8:00 AM GMT on November 30, 2016","2016","11","30","08","00","UTC","-9.0","15.8","-11.0","12.2","86","10.8","6.7","-9999.0","-9999.0","270","West","-9999.0","-9999.0","1024","30.24","-14.3","6.2","-9999","-9999","-9999.00","-9999.00","Clear","clear","0","0","0","0","0","0","METAR UKKK 300800Z 27003MPS CAVOK M09/M11 Q1024 R26/820250 NOSIG"
"10:30 AM EET on November 30, 2016","2016","11","30","10","30","Europe/Kiev","8:30 AM GMT on November 30, 2016","2016","11","30","08","30","UTC","-8.0","17.6","-11.0","12.2","79","7.2","4.5","-9999.0","-9999.0","230","SW","10.0","6.2","1024","30.24","-11.8","10.8","-9999","-9999","-9999.00","-9999.00","Scattered Clouds","partlycloudy","0","0","0","0","0","0","METAR UKKK 300830Z 23002MPS 9999 SCT010 M08/M11 Q1024 R26/820250 NOSIG"
"11:00 AM EET on November 30, 2016","2016","11","30","11","00","Europe/Kiev","9:00 AM GMT on November 30, 2016","2016","11","30","09","00","UTC","-6","21","-10","14","63","10.8","6.7","","","280","West","20","12","1026","30.30","-999","-999","-9999","-9999","","","Partly Cloudy","partlycloudy","0","0","0","0","0","0","AAXX 30091 33345 42998 32803 11061 21101 30042 40259 58006 83040 555 1/107"
"11:00 AM EET on November 30, 2016","2016","11","30","11","00","Europe/Kiev","9:00 AM GMT on November 30, 2016","2016","11","30","09","00","UTC","-7.0","19.4","-10.0","14.0","80","10.8","6.7","-9999.0","-9999.0","260","West","10.0","6.2","1024","30.24","-11.9","10.6","-9999","-9999","-9999.00","-9999.00","Scattered Clouds","partlycloudy","0","0","0","0","0","0","METAR UKKK 300900Z 26003MPS 220V280 9999 SCT010 M07/M10 Q1024 R26/820250 NOSIG"
"11:30 AM EET on November 30, 2016","2016","11","30","11","30","Europe/Kiev","9:30 AM GMT on November 30, 2016","2016","11","30","09","30","UTC","-7.0","19.4","-10.0","14.0","80","14.4","8.9","-9999.0","-9999.0","240","WSW","10.0","6.2","1023","30.21","-12.9","8.8","-9999","-9999","-9999.00","-9999.00","Scattered Clouds","partlycloudy","0","0","0","0","0","0","METAR UKKK 300930Z 24004MPS 210V270 9999 SCT013 M07/M10 Q1023 R26/820250 NOSIG"
"12:00 PM EET on November 30, 2016","2016","11","30","12","00","Europe/Kiev","10:00 AM GMT on November 30, 2016","2016","11","30","10","00","UTC","-6.0","21.2","-10.0","14.0","74","14.4","8.9","-9999.0","-9999.0","250","WSW","10.0","6.2","1023","30.21","-11.6","11.0","-9999","-9999","-9999.00","-9999.00","Scattered Clouds","partlycloudy","0","0","0","0","0","0","METAR UKKK 301000Z 25004MPS 9999 SCT013 M06/M10 Q1023 R26/820250 NOSIG"
"12:30 PM EET on November 30, 2016","2016","11","30","12","30","Europe/Kiev","10:30 AM GMT on November 30, 2016","2016","11","30","10","30","UTC","-6.0","21.2","-11.0","12.2","68","14.4","8.9","-9999.0","-9999.0","250","WSW","-9999.0","-9999.0","1023","30.21","-11.6","11.0","-9999","-9999","-9999.00","-9999.00","Clear","clear","0","0","0","0","0","0","METAR UKKK 301030Z 25004MPS CAVOK M06/M11 Q1023 R26/820250 NOSIG"
"1:00 PM EET on November 30, 2016","2016","11","30","13","00","Europe/Kiev","11:00 AM GMT on November 30, 2016","2016","11","30","11","00","UTC","-5.0","23.0","-10.0","14.0","68","14.4","8.9","-9999.0","-9999.0","250","WSW","-9999.0","-9999.0","1022","30.18","-10.4","13.2","-9999","-9999","-9999.00","-9999.00","Clear","clear","0","0","0","0","0","0","METAR UKKK 301100Z 25004MPS CAVOK M05/M10 Q1022 R26/820250 NOSIG"
"1:30 PM EET on November 30, 2016","2016","11","30","13","30","Europe/Kiev","11:30 AM GMT on November 30, 2016","2016","11","30","11","30","UTC","-5.0","23.0","-10.0","14.0","68","10.8","6.7","-9999.0","-9999.0","240","WSW","-9999.0","-9999.0","1021","30.15","-9.5","14.9","-9999","-9999","-9999.00","-9999.00","Clear","clear","0","0","0","0","0","0","METAR UKKK 301130Z 24003MPS 210V270 CAVOK M05/M10 Q1021 R26/820250 NOSIG"
"2:00 PM EET on November 30, 2016","2016","11","30","14","00","Europe/Kiev","12:00 PM GMT on November 30, 2016","2016","11","30","12","00","UTC","-4","25","-9","15","54","14.4","8.9","","","250","WSW","20","12","1023","30.21","-999","-999","-9999","-9999","","","Clear","clear","0","0","0","0","0","0","AAXX 30121 33345 32998 22504 11037 21094 30014 40228 57028 80005 555 1/106"
"2:00 PM EET on November 30, 2016","2016","11","30","14","00","Europe/Kiev","12:00 PM GMT on November 30, 2016","2016","11","30","12","00","UTC","-4.0","24.8","-10.0","14.0","64","14.4","8.9","-9999.0","-9999.0","230","SW","-9999.0","-9999.0","1021","30.15","-9.2","15.5","-9999","-9999","-9999.00","-9999.00","Clear","clear","0","0","0","0","0","0","METAR UKKK 301200Z 23004MPS 200V260 CAVOK M04/M10 Q1021 R26/820250 NOSIG"
"2:30 PM EET on November 30, 2016","2016","11","30","14","30","Europe/Kiev","12:30 PM GMT on November 30, 2016","2016","11","30","12","30","UTC","-5.0","23.0","-10.0","14.0","68","10.8","6.7","-9999.0","-9999.0","230","SW","-9999.0","-9999.0","1020","30.12","-9.5","14.9","-9999","-9999","-9999.00","-9999.00","Clear","clear","0","0","0","0","0","0","METAR UKKK 301230Z 23003MPS CAVOK M05/M10 Q1020 R26/820250 NOSIG"
"3:00 PM EET on November 30, 2016","2016","11","30","15","00","Europe/Kiev","1:00 PM GMT on November 30, 2016","2016","11","30","13","00","UTC","-5.0","23.0","-10.0","14.0","68","10.8","6.7","-9999.0","-9999.0","220","SW","-9999.0","-9999.0","1020","30.12","-9.5","14.9","-9999","-9999","-9999.00","-9999.00","Clear","clear","0","0","0","0","0","0","METAR UKKK 301300Z 22003MPS CAVOK M05/M10 Q1020 R26/820250 NOSIG"
"3:30 PM EET on November 30, 2016","2016","11","30","15","30","Europe/Kiev","1:30 PM GMT on November 30, 2016","2016","11","30","13","30","UTC","-5.0","23.0","-10.0","14.0","68","10.8","6.7","-9999.0","-9999.0","220","SW","-9999.0","-9999.0","1019","30.09","-9.5","14.9","-9999","-9999","-9999.00","-9999.00","Clear","clear","0","0","0","0","0","0","METAR UKKK 301330Z 22003MPS 190V250 CAVOK M05/M10 Q1019 R26/820250 NOSIG"
"4:00 PM EET on November 30, 2016","2016","11","30","16","00","Europe/Kiev","2:00 PM GMT on November 30, 2016","2016","11","30","14","00","UTC","-5.0","23.0","-9.0","15.8","74","10.8","6.7","-9999.0","-9999.0","190","South","-9999.0","-9999.0","1019","30.09","-9.5","14.9","-9999","-9999","-9999.00","-9999.00","Clear","clear","0","0","0","0","0","0","METAR UKKK 301400Z 19003MPS 170V230 CAVOK M05/M09 Q1019 R26/820250 NOSIG"
"4:30 PM EET on November 30, 2016","2016","11","30","16","30","Europe/Kiev","2:30 PM GMT on November 30, 2016","2016","11","30","14","30","UTC","-5.0","23.0","-9.0","15.8","74","10.8","6.7","-9999.0","-9999.0","210","SSW","-9999.0","-9999.0","1018","30.06","-9.5","14.9","-9999","-9999","-9999.00","-9999.00","Clear","clear","0","0","0","0","0","0","METAR UKKK 301430Z 21003MPS 180V240 CAVOK M05/M09 Q1018 R26/820250 NOSIG"
"5:00 PM EET on November 30, 2016","2016","11","30","17","00","Europe/Kiev","3:00 PM GMT on November 30, 2016","2016","11","30","15","00","UTC","-5","23","-8","17","68","10.8","6.7","","","230","SW","20","12","1020","30.12","-999","-999","-9999","-9999","","","Overcast","cloudy","0","0","0","0","0","0","AAXX 30151 33345 42498 82303 11052 21085 39983 40198 57031 886// 333 88715 555 1/107"
"5:00 PM EET on November 30, 2016","2016","11","30","17","00","Europe/Kiev","3:00 PM GMT on November 30, 2016","2016","11","30","15","00","UTC","-4.0","24.8","-8.0","17.6","74","14.4","8.9","-9999.0","-9999.0","220","SW","9.0","5.6","1018","30.06","-9.2","15.5","-9999","-9999","-9999.00","-9999.00","Light Snow","snow","0","0","1","0","0","0","METAR UKKK 301500Z 22004MPS 9000 -SN SCT017 OVC043 M04/M08 Q1018 R26/820250 NOSIG"
"5:30 PM EET on November 30, 2016","2016","11","30","17","30","Europe/Kiev","3:30 PM GMT on November 30, 2016","2016","11","30","15","30","UTC","-4.0","24.8","-7.0","19.4","80","18.0","11.2","-9999.0","-9999.0","230","SW","-9999.0","-9999.0","1017","30.04","-9.9","14.2","-9999","-9999","-9999.00","-9999.00","Light Snow","snow","0","0","1","0","0","0","METAR UKKK 301530Z 23005MPS 3200 -SN OVC020 M04/M07 Q1017 R26/820250 TEMPO 1700 SHSN SCT015CB"
"6:00 PM EET on November 30, 2016","2016","11","30","18","00","Europe/Kiev","4:00 PM GMT on November 30, 2016","2016","11","30","16","00","UTC","-4.0","24.8","-7.0","19.4","80","18.0","11.2","-9999.0","-9999.0","230","SW","9.0","5.6","1017","30.04","-9.9","14.2","-9999","-9999","-9999.00","-9999.00","Light Snow","snow","0","0","1","0","0","0","METAR UKKK 301600Z 23005MPS 9000 -SN BKN015 OVC036 M04/M07 Q1017 R26/490150 NOSIG"
"6:30 PM EET on November 30, 2016","2016","11","30","18","30","Europe/Kiev","4:30 PM GMT on November 30, 2016","2016","11","30","16","30","UTC","-4.0","24.8","-7.0","19.4","80","14.4","8.9","-9999.0","-9999.0","230","SW","10.0","6.2","1017","30.04","-9.2","15.5","-9999","-9999","-9999.00","-9999.00","Overcast","cloudy","0","0","0","0","0","0","METAR UKKK 301630Z 23004MPS 190V250 9999 SCT016 OVC036 M04/M07 Q1017 R26/490150 NOSIG"
"7:00 PM EET on November 30, 2016","2016","11","30","19","00","Europe/Kiev","5:00 PM GMT on November 30, 2016","2016","11","30","17","00","UTC","-4.0","24.8","-6.0","21.2","86","14.4","8.9","-9999.0","-9999.0","220","SW","10.0","6.2","1016","30.01","-9.2","15.5","-9999","-9999","-9999.00","-9999.00","Mostly Cloudy","mostlycloudy","0","0","0","0","0","0","METAR UKKK 301700Z 22004MPS 9999 BKN040 M04/M06 Q1016 R26/490150 NOSIG"
"7:30 PM EET on November 30, 2016","2016","11","30","19","30","Europe/Kiev","5:30 PM GMT on November 30, 2016","2016","11","30","17","30","UTC","-3.0","26.6","-6.0","21.2","80","14.4","8.9","-9999.0","-9999.0","220","SW","10.0","6.2","1016","30.01","-8.0","17.7","-9999","-9999","-9999.00","-9999.00","Mostly Cloudy","mostlycloudy","0","0","0","0","0","0","METAR UKKK 301730Z 22004MPS 9999 BKN046 M03/M06 Q1016 R26/490150 NOSIG"
"8:00 PM EET on November 30, 2016","2016","11","30","20","00","Europe/Kiev","6:00 PM GMT on November 30, 2016","2016","11","30","18","00","UTC","-4","26","-6","21","75","10.8","6.7","","","230","SW","20","12","1017","30.04","-999","-999","-9999","-9999","","","Overcast","cloudy","0","0","0","0","0","0","AAXX 30181 33345 32698 82303 11035 21060 39960 40173 57023 885// 333 11033 88649 555 1/105"
"8:00 PM EET on November 30, 2016","2016","11","30","20","00","Europe/Kiev","6:00 PM GMT on November 30, 2016","2016","11","30","18","00","UTC","-3.0","26.6","-6.0","21.2","80","14.4","8.9","-9999.0","-9999.0","220","SW","-9999.0","-9999.0","1015","29.98","-8.0","17.7","-9999","-9999","-9999.00","-9999.00","Clear","clear","0","0","0","0","0","0","METAR UKKK 301800Z 22004MPS CAVOK M03/M06 Q1015 R26/490150 NOSIG"
"8:30 PM EET on November 30, 2016","2016","11","30","20","30","Europe/Kiev","6:30 PM GMT on November 30, 2016","2016","11","30","18","30","UTC","-3.0","26.6","-6.0","21.2","80","18.0","11.2","-9999.0","-9999.0","220","SW","-9999.0","-9999.0","1015","29.98","-8.7","16.4","-9999","-9999","-9999.00","-9999.00","Clear","clear","0","0","0","0","0","0","METAR UKKK 301830Z 22005MPS CAVOK M03/M06 Q1015 R26/490150 NOSIG"
"9:00 PM EET on November 30, 2016","2016","11","30","21","00","Europe/Kiev","7:00 PM GMT on November 30, 2016","2016","11","30","19","00","UTC","-3.0","26.6","-5.0","23.0","86","14.4","8.9","-9999.0","-9999.0","220","SW","-9999.0","-9999.0","1015","29.98","-8.0","17.7","-9999","-9999","-9999.00","-9999.00","Clear","clear","0","0","0","0","0","0","METAR UKKK 301900Z 22004MPS CAVOK M03/M05 Q1015 R26/490150 NOSIG"
"9:30 PM EET on November 30, 2016","2016","11","30","21","30","Europe/Kiev","7:30 PM GMT on November 30, 2016","2016","11","30","19","30","UTC","-3.0","26.6","-5.0","23.0","86","14.4","8.9","-9999.0","-9999.0","220","SW","-9999.0","-9999.0","1015","29.98","-8.0","17.7","-9999","-9999","-9999.00","-9999.00","Clear","clear","0","0","0","0","0","0","METAR UKKK 301930Z 22004MPS CAVOK M03/M05 Q1015 R26/490150 NOSIG"
"10:00 PM EET on November 30, 2016","2016","11","30","22","00","Europe/Kiev","8:00 PM GMT on November 30, 2016","2016","11","30","20","00","UTC","-2.0","28.4","-5.0","23.0","80","18.0","11.2","-9999.0","-9999.0","230","SW","5.0","3.1","1014","29.95","-7.4","18.7","-9999","-9999","-9999.00","-9999.00","Light Snow","snow","0","0","1","0","0","0","METAR UKKK 302000Z 23005MPS 5000 -SN NSC M02/M05 Q1014 R26/490150 NOSIG"
"10:30 PM EET on November 30, 2016","2016","11","30","22","30","Europe/Kiev","8:30 PM GMT on November 30, 2016","2016","11","30","20","30","UTC","-2.0","28.4","-4.0","24.8","86","14.4","8.9","-9999.0","-9999.0","230","SW","-9999.0","-9999.0","1014","29.95","-6.7","19.9","-9999","-9999","-9999.00","-9999.00","Light Snow","snow","0","0","1","0","0","0","METAR UKKK 302030Z 23004MPS 3300 -SN OVC025 M02/M04 Q1014 R26/490150 TEMPO 1000 -SHSN BR SCT015CB"
"11:00 PM EET on November 30, 2016","2016","11","30","23","00","Europe/Kiev","9:00 PM GMT on November 30, 2016","2016","11","30","21","00","UTC","-2","28","-4","25","84","14.4","8.9","","","250","WSW","10","6","1015","29.98","-999","-999","-9999","-9999","","","Light Snow","snow","0","0","1","0","0","0","AAXX 30211 33345 41497 82504 11025 21038 39939 40151 57021 77172 8872/ 333 88716 555 1/104"
"11:00 PM EET on November 30, 2016","2016","11","30","23","00","Europe/Kiev","9:00 PM GMT on November 30, 2016","2016","11","30","21","00","UTC","-2.0","28.4","-3.0","26.6","93","14.4","8.9","-9999.0","-9999.0","230","SW","2.6","1.6","1013","29.92","-6.7","19.9","-9999","-9999","-9999.00","-9999.00","Light Snow","snow","0","0","1","0","0","0","METAR UKKK 302100Z 23004MPS 2600 -SN OVC037 M02/M03 Q1013 R26/490150 TEMPO 1000 -SHSN BR SCT015CB"
"11:30 PM EET on November 30, 2016","2016","11","30","23","30","Europe/Kiev","9:30 PM GMT on November 30, 2016","2016","11","30","21","30","UTC","-2.0","28.4","-3.0","26.6","93","14.4","8.9","-9999.0","-9999.0","230","SW","3.0","1.9","1013","29.92","-6.7","19.9","-9999","-9999","-9999.00","-9999.00","Light Snow","snow","0","0","1","0","0","0","METAR UKKK 302130Z 23004MPS 3000 -SN SCT011 OVC033 M02/M03 Q1013 R26/490150 TEMPO 1800 -SHSN BR SCT015CB"
