"date.pretty","date.year","date.mon","date.mday","date.hour","date.min","date.tzname","utcdate.pretty","utcdate.year","utcdate.mon","utcdate.mday","utcdate.hour","utcdate.min","utcdate.tzname","tempm","tempi","dewptm","dewpti","hum","wspdm","wspdi","wgustm","wgusti","wdird","wdire","vism","visi","pressurem","pressurei","windchillm","windchilli","heatindexm","heatindexi","precipm","precipi","conds","icon","fog","rain","snow","hail","thunder","tornado","metar"
"12:00 AM EEST on September 01, 2016","2016","09","01","00","00","Europe/Kiev","9:00 PM GMT on August 31, 2016","2016","08","31","21","00","UTC","16","60","9","48","55","3.6","2.2","","","340","NNW","20","12","1022","30.19","-999","-999","-9999","-9999","","","","","0","0","0","0","0","0","AAXX 31211 33345 42998 03401 10156 20090 30025 40224 52008 555 10013"
"12:00 AM EEST on September 01, 2016","2016","09","01","00","00","Europe/Kiev","9:00 PM GMT on August 31, 2016","2016","08","31","21","00","UTC","14.0","57.2","10.0","50.0","77","7.2","4.5","-9999.0","-9999.0","270","West","-9999.0","-9999.0","1022","30.18","-999","-999","-9999","-9999","-9999.00","-9999.00","Clear","clear","0","0","0","0","0","0","METAR UKKK 312100Z 27002MPS CAVOK 14/10 Q1022 R08/CLRD70 NOSIG"
"12:30 AM EEST on September 01, 2016","2016","09","01","00","30","Europe/Kiev","9:30 PM GMT on August 31, 2016","2016","08","31","21","30","UTC","14.0","57.2","9.0","48.2","72","3.6","2.2","-9999.0","-9999.0","0","Variable","-9999.0","-9999.0","1022","30.18","-999","-999","-9999","-9999","-9999.00","-9999.00","Clear","clear","0","0","0","0","0","0","METAR UKKK 312130Z VRB01MPS CAVOK 14/09 Q1022 R08/CLRD70 NOSIG"
"1:00 AM EEST on September 01, 2016","2016","09","01","01","00","Europe/Kiev","10:00 PM GMT on August 31, 2016","2016","08","31","22","00","UTC","12.0","53.6","9.0","48.2","82","3.6","2.2","-9999.0","-9999.0","0","Variable","-9999.0","-9999.0","1022","30.18","-999","-999","-9999","-9999","-9999.00","-9999.00","Clear","clear","0","0","0","0","0","0","METAR UKKK 312200Z VRB01MPS CAVOK 12/09 Q1022 R08/CLRD70 NOSIG"
"1:30 AM EEST on September 01, 2016","2016","09","01","01","30","Europe/Kiev","10:30 PM GMT on August 31, 2016","2016","08","31","22","30","UTC","12.0","53.6","9.0","48.2","82","0.0","0.0","-9999.0","-9999.0","0","North","-9999.0","-9999.0","1023","30.21","-999","-999","-9999","-9999","-9999.00","-9999.00","Clear","clear","0","0","0","0","0","0","METAR UKKK 312230Z 00000MPS CAVOK 12/09 Q1023 R08/CLRD70 NOSIG"
"2:00 AM EEST on September 01, 2016","2016","09","01","02","00","Europe/Kiev","11:00 PM GMT on August 31, 2016","2016","08","31","23","00","UTC","10.0","50.0","9.0","48.2","94","0.0","0.0","-9999.0","-9999.0","0","North","-9999.0","-9999.0","1023","30.21","-999","-999","-9999","-9999","-9999.00","-9999.00","Clear","clear","0","0","0","0","0","0","METAR UKKK 312300Z 00000MPS CAVOK 10/09 Q1023 R08/CLRD70 NOSIG"
"2:30 AM EEST on September 01, 2016","2016","09","01","02","30","Europe/Kiev","11:30 PM GMT on August 31, 2016","2016","08","31","23","30","UTC","10.0","50.0","8.0","46.4","87","3.6","2.2","-9999.0","-9999.0","240","WSW","-9999.0","-9999.0","1023","30.21","-999","-999","-9999","-9999","-9999.00","-9999.00","Clear","clear","0","0","0","0","0","0","METAR UKKK 312330Z 24001MPS CAVOK 10/08 Q1023 R08/CLRD70 NOSIG"
"3:00 AM EEST on September 01, 2016","2016","09","01","03","00","Europe/Kiev","12:00 AM GMT on September 01, 2016","2016","09","01","00","00","UTC","14","58","9","48","61","3.6","2.2","","","350","North","20","12","1023","30.21","-999","-999","-9999","-9999","","","","","0","0","0","0","0","0","AAXX 01001 33345 32998 03501 10144 20089 30030 40230 51005 555 10011"
"3:00 AM EEST on September 01, 2016","2016","09","01","03","00","Europe/Kiev","12:00 AM GMT on September 01, 2016","2016","09","01","00","00","UTC","10.0","50.0","9.0","48.2","94","3.6","2.2","-9999.0","-9999.0","250","WSW","-9999.0","-9999.0","1023","30.21","-999","-999","-9999","-9999","-9999.00","-9999.00","Clear","clear","0","0","0","0","0","0","METAR UKKK 010000Z 25001MPS CAVOK 10/09 Q1023 R08/CLRD70 NOSIG"
"3:30 AM EEST on September 01, 2016","2016","09","01","03","30","Europe/Kiev","12:30 AM GMT on September 01, 2016","2016","09","01","00","30","UTC","9.0","48.2","9.0","48.2","100","0.0","0.0","-9999.0","-9999.0","0","North","-9999.0","-9999.0","1023","30.21","-999","-999","-9999","-9999","-9999.00","-9999.00","Clear","clear","0","0","0","0","0","0","METAR UKKK 010030Z 00000MPS CAVOK 09/09 Q1023 R08/CLRD70 NOSIG"
"4:00 AM EEST on September 01, 2016","2016","09","01","04","00","Europe/Kiev","1:00 AM GMT on September 01, 2016","2016","09","01","01","00","UTC","9.0","48.2","8.0","46.4","93","3.6","2.2","-9999.0","-9999.0","260","West","-9999.0","-9999.0","1023","30.21","-999","-999","-9999","-9999","-9999.00","-9999.00","Clear","clear","0","0","0","0","0","0","METAR UKKK 010100Z 26001MPS CAVOK 09/08 Q1023 R08/CLRD70 NOSIG"
"4:30 AM EEST on September 01, 2016","2016","09","01","04","30","Europe/Kiev","1:30 AM GMT on September 01, 2016","2016","09","01","01","30","UTC","9.0","48.2","9.0","48.2","100","3.6","2.2","-9999.0","-9999.0","250","WSW","-9999.0","-9999.0","1023","30.21","-999","-999","-9999","-9999","-9999.00","-9999.00","Clear","clear","0","0","0","0","0","0","METAR UKKK 010130Z 25001MPS CAVOK 09/09 Q1023 R08/CLRD70 NOSIG"
"5:00 AM EEST on September 01, 2016","2016","09","01","05","00","Europe/Kiev","2:00 AM GMT on September 01, 2016","2016","09","01","02","00","UTC","10.0","50.0","9.0","48.2","94","3.6","2.2","-9999.0","-9999.0","270","West","-9999.0","-9999.0","1023","30.21","-999","-999","-9999","-9999","-9999.00","-9999.00","Clear","clear","0","0","0","0","0","0","METAR UKKK 010200Z 27001MPS CAVOK 10/09 Q1023 R08/CLRD70 NOSIG"
"5:30 AM EEST on September 01, 2016","2016","09","01","05","30","Europe/Kiev","2:30 AM GMT on September 01, 2016","2016","09","01","02","30","UTC","9.0","48.2","8.0","46.4","93","3.6","2.2","-9999.0","-9999.0","230","SW","-9999.0","-9999.0","1023","30.21","-999","-999","-9999","-9999","-9999.00","-9999.00","Clear","clear","0","0","0","0","0","0","METAR UKKK 010230Z 23001MPS CAVOK 09/08 Q1023 R08/CLRD70 NOSIG"
"6:00 AM EEST on September 01, 2016","2016","09","01","06","00","Europe/Kiev","3:00 AM GMT on September 01, 2016","2016","09","01","03","00","UTC","13","56","10","50","73","3.6","2.2","","","320","NW","20","12","1023","30.22","-999","-999","-9999","-9999","","","","","0","0","0","0","0","0","AAXX 01031 33345 42998 03201 10133 20098 30032 40233 53002 555 10010"
"6:00 AM EEST on September 01, 2016","2016","09","01","06","00","Europe/Kiev","3:00 AM GMT on September 01, 2016","2016","09","01","03","00","UTC","9.0","48.2","8.0","46.4","93","3.6","2.2","-9999.0","-9999.0","230","SW","-9999.0","-9999.0","1023","30.21","-999","-999","-9999","-9999","-9999.00","-9999.00","Clear","clear","0","0","0","0","0","0","METAR UKKK 010300Z 23001MPS CAVOK 09/08 Q1023 R08/CLRD70 NOSIG"
"6:30 AM EEST on September 01, 2016","2016","09","01","06","30","Europe/Kiev","3:30 AM GMT on September 01, 2016","2016","09","01","03","30","UTC","8.0","46.4","8.0","46.4","100","0.0","0.0","-9999.0","-9999.0","0","North","-9999.0","-9999.0","1023","30.21","-999","-999","-9999","-9999","-9999.00","-9999.00","Clear","clear","0","0","0","0","0","0","METAR UKKK 010330Z 00000MPS CAVOK 08/08 Q1023 R08/CLRD70 NOSIG"
"7:00 AM EEST on September 01, 2016","2016","09","01","07","00","Europe/Kiev","4:00 AM GMT on September 01, 2016","2016","09","01","04","00","UTC","10.0","50.0","9.0","48.2","94","0.0","0.0","-9999.0","-9999.0","0","North","-9999.0","-9999.0","1023","30.21","-999","-999","-9999","-9999","-9999.00","-9999.00","Clear","clear","0","0","0","0","0","0","METAR UKKK 010400Z 00000MPS CAVOK 10/09 Q1023 R08/CLRD70 NOSIG"
"7:30 AM EEST on September 01, 2016","2016","09","01","07","30","Europe/Kiev","4:30 AM GMT on September 01, 2016","2016","09","01","04","30","UTC","12.0","53.6","10.0","50.0","88","3.6","2.2","-9999.0","-9999.0","230","SW","-9999.0","-9999.0","1023","30.21","-999","-999","-9999","-9999","-9999.00","-9999.00","Clear","clear","0","0","0","0","0","0","METAR UKKK 010430Z 23001MPS CAVOK 12/10 Q1023 R08/CLRD70 NOSIG"
"8:00 AM EEST on September 01, 2016","2016","09","01","08","00","Europe/Kiev","5:00 AM GMT on September 01, 2016","2016","09","01","05","00","UTC","14.0","57.2","11.0","51.8","82","3.6","2.2","-9999.0","-9999.0","0","Variable","9.0","5.6","1023","30.21","-999","-999","-9999","-9999","-9999.00","-9999.00","Clear","clear","0","0","0","0","0","0","METAR UKKK 010500Z VRB01MPS 9000 SKC 14/11 Q1023 R08/CLRD70 NOSIG"
"8:30 AM EEST on September 01, 2016","2016","09","01","08","30","Europe/Kiev","5:30 AM GMT on September 01, 2016","2016","09","01","05","30","UTC","16.0","60.8","11.0","51.8","72","7.2","4.5","-9999.0","-9999.0","260","West","-9999.0","-9999.0","1024","30.24","-999","-999","-9999","-9999","-9999.00","-9999.00","Clear","clear","0","0","0","0","0","0","METAR UKKK 010530Z 26002MPS CAVOK 16/11 Q1024 R26/CLRD70 NOSIG"
"9:00 AM EEST on September 01, 2016","2016","09","01","09","00","Europe/Kiev","6:00 AM GMT on September 01, 2016","2016","09","01","06","00","UTC","18","64","10","51","52","3.6","2.2","","","30","NNE","20","12","1024","30.23","-999","-999","-9999","-9999","","","Scattered Clouds","partlycloudy","0","0","0","0","0","0","AAXX 01061 33345 32898 40301 10177 20104 30038 40236 52006 82039 333 20127 555 10021"
"9:00 AM EEST on September 01, 2016","2016","09","01","09","00","Europe/Kiev","6:00 AM GMT on September 01, 2016","2016","09","01","06","00","UTC","17.0","62.6","11.0","51.8","68","7.2","4.5","-9999.0","-9999.0","270","West","-9999.0","-9999.0","1024","30.24","-999","-999","-9999","-9999","-9999.00","-9999.00","Clear","clear","0","0","0","0","0","0","METAR UKKK 010600Z 27002MPS CAVOK 17/11 Q1024 R26/CLRD70 NOSIG"
"9:30 AM EEST on September 01, 2016","2016","09","01","09","30","Europe/Kiev","6:30 AM GMT on September 01, 2016","2016","09","01","06","30","UTC","19.0","66.2","9.0","48.2","52","7.2","4.5","-9999.0","-9999.0","300","WNW","-9999.0","-9999.0","1024","30.24","-999","-999","-9999","-9999","-9999.00","-9999.00","Clear","clear","0","0","0","0","0","0","METAR UKKK 010630Z 30002MPS 240V340 CAVOK 19/09 Q1024 R26/CLRD70 NOSIG"
"10:00 AM EEST on September 01, 2016","2016","09","01","10","00","Europe/Kiev","7:00 AM GMT on September 01, 2016","2016","09","01","07","00","UTC","19.0","66.2","9.0","48.2","52","7.2","4.5","-9999.0","-9999.0","290","WNW","-9999.0","-9999.0","1024","30.24","-999","-999","-9999","-9999","-9999.00","-9999.00","Clear","clear","0","0","0","0","0","0","METAR UKKK 010700Z 29002MPS 190V360 CAVOK 19/09 Q1024 R26/CLRD70 NOSIG"
"10:30 AM EEST on September 01, 2016","2016","09","01","10","30","Europe/Kiev","7:30 AM GMT on September 01, 2016","2016","09","01","07","30","UTC","20.0","68.0","10.0","50.0","52","3.6","2.2","-9999.0","-9999.0","0","Variable","-9999.0","-9999.0","1024","30.24","-999","-999","-9999","-9999","-9999.00","-9999.00","Clear","clear","0","0","0","0","0","0","METAR UKKK 010730Z VRB01MPS CAVOK 20/10 Q1024 R26/CLRD70 NOSIG"
"11:00 AM EEST on September 01, 2016","2016","09","01","11","00","Europe/Kiev","8:00 AM GMT on September 01, 2016","2016","09","01","08","00","UTC","20.0","68.0","9.0","48.2","49","7.2","4.5","-9999.0","-9999.0","300","WNW","-9999.0","-9999.0","1024","30.24","-999","-999","-9999","-9999","-9999.00","-9999.00","Clear","clear","0","0","0","0","0","0","METAR UKKK 010800Z 30002MPS 260V340 CAVOK 20/09 Q1024 R26/CLRD70 NOSIG"
"11:30 AM EEST on September 01, 2016","2016","09","01","11","30","Europe/Kiev","8:30 AM GMT on September 01, 2016","2016","09","01","08","30","UTC","20.0","68.0","9.0","48.2","49","7.2","4.5","-9999.0","-9999.0","320","NW","10.0","6.2","1024","30.24","-999","-999","-9999","-9999","-9999.00","-9999.00","Mostly Cloudy","mostlycloudy","0","0","0","0","0","0","METAR UKKK 010830Z 32002MPS 220V360 9999 BKN044 20/09 Q1024 R26/CLRD70 NOSIG"
"12:00 PM EEST on September 01, 2016","2016","09","01","12","00","Europe/Kiev","9:00 AM GMT on September 01, 2016","2016","09","01","09","00","UTC","20","68","9","49","39","7.2","4.5","","","30","NNE","20","12","1024","30.23","-999","-999","-9999","-9999","","","Partly Cloudy","partlycloudy","0","0","0","0","0","0","AAXX 01091 33345 42698 60302 10201 20094 30038 40235 54000 84530 555 10029"
"12:00 PM EEST on September 01, 2016","2016","09","01","12","00","Europe/Kiev","9:00 AM GMT on September 01, 2016","2016","09","01","09","00","UTC","21.0","69.8","9.0","48.2","46","7.2","4.5","-9999.0","-9999.0","300","WNW","-9999.0","-9999.0","1024","30.24","-999","-999","-9999","-9999","-9999.00","-9999.00","Clear","clear","0","0","0","0","0","0","METAR UKKK 010900Z 30002MPS 240V010 CAVOK 21/09 Q1024 R26/CLRD70 NOSIG"
"12:30 PM EEST on September 01, 2016","2016","09","01","12","30","Europe/Kiev","9:30 AM GMT on September 01, 2016","2016","09","01","09","30","UTC","20.0","68.0","9.0","48.2","49","3.6","2.2","-9999.0","-9999.0","0","Variable","-9999.0","-9999.0","1023","30.21","-999","-999","-9999","-9999","-9999.00","-9999.00","Clear","clear","0","0","0","0","0","0","METAR UKKK 010930Z VRB01MPS CAVOK 20/09 Q1023 R26/CLRD70 NOSIG"
"1:00 PM EEST on September 01, 2016","2016","09","01","13","00","Europe/Kiev","10:00 AM GMT on September 01, 2016","2016","09","01","10","00","UTC","21.0","69.8","9.0","48.2","46","7.2","4.5","-9999.0","-9999.0","350","North","-9999.0","-9999.0","1023","30.21","-999","-999","-9999","-9999","-9999.00","-9999.00","Clear","clear","0","0","0","0","0","0","METAR UKKK 011000Z 35002MPS CAVOK 21/09 Q1023 R26/CLRD70 NOSIG"
"1:30 PM EEST on September 01, 2016","2016","09","01","13","30","Europe/Kiev","10:30 AM GMT on September 01, 2016","2016","09","01","10","30","UTC","21.0","69.8","9.0","48.2","46","7.2","4.5","-9999.0","-9999.0","270","West","-9999.0","-9999.0","1023","30.21","-999","-999","-9999","-9999","-9999.00","-9999.00","Clear","clear","0","0","0","0","0","0","METAR UKKK 011030Z 27002MPS CAVOK 21/09 Q1023 R26/CLRD70 NOSIG"
"2:00 PM EEST on September 01, 2016","2016","09","01","14","00","Europe/Kiev","11:00 AM GMT on September 01, 2016","2016","09","01","11","00","UTC","22.0","71.6","8.0","46.4","41","10.8","6.7","-9999.0","-9999.0","90","East","-9999.0","-9999.0","1023","30.21","-999","-999","-9999","-9999","-9999.00","-9999.00","Clear","clear","0","0","0","0","0","0","METAR UKKK 011100Z 09003MPS 030V150 CAVOK 22/08 Q1023 R26/CLRD70 NOSIG"
"2:30 PM EEST on September 01, 2016","2016","09","01","14","30","Europe/Kiev","11:30 AM GMT on September 01, 2016","2016","09","01","11","30","UTC","21.0","69.8","8.0","46.4","43","7.2","4.5","-9999.0","-9999.0","10","North","-9999.0","-9999.0","1022","30.18","-999","-999","-9999","-9999","-9999.00","-9999.00","Clear","clear","0","0","0","0","0","0","METAR UKKK 011130Z 01002MPS CAVOK 21/08 Q1022 R26/CLRD70 NOSIG"
"3:00 PM EEST on September 01, 2016","2016","09","01","15","00","Europe/Kiev","12:00 PM GMT on September 01, 2016","2016","09","01","12","00","UTC","22","72","9","48","31","7.2","4.5","","","290","WNW","20","12","1022","30.18","-999","-999","-9999","-9999","","","Partly Cloudy","partlycloudy","0","0","0","0","0","0","AAXX 01121 33345 32698 42902 10222 20087 30025 40220 58013 84500 555 10040"
"3:00 PM EEST on September 01, 2016","2016","09","01","15","00","Europe/Kiev","12:00 PM GMT on September 01, 2016","2016","09","01","12","00","UTC","22.0","71.6","9.0","48.2","43","7.2","4.5","-9999.0","-9999.0","250","WSW","-9999.0","-9999.0","1022","30.18","-999","-999","-9999","-9999","-9999.00","-9999.00","Clear","clear","0","0","0","0","0","0","METAR UKKK 011200Z 25002MPS 190V330 CAVOK 22/09 Q1022 R26/CLRD70 NOSIG"
"3:30 PM EEST on September 01, 2016","2016","09","01","15","30","Europe/Kiev","12:30 PM GMT on September 01, 2016","2016","09","01","12","30","UTC","22.0","71.6","9.0","48.2","43","7.2","4.5","-9999.0","-9999.0","70","ENE","-9999.0","-9999.0","1022","30.18","-999","-999","-9999","-9999","-9999.00","-9999.00","Clear","clear","0","0","0","0","0","0","METAR UKKK 011230Z 07002MPS 030V130 CAVOK 22/09 Q1022 R26/CLRD70 NOSIG"
"4:00 PM EEST on September 01, 2016","2016","09","01","16","00","Europe/Kiev","1:00 PM GMT on September 01, 2016","2016","09","01","13","00","UTC","23.0","73.4","9.0","48.2","41","10.8","6.7","-9999.0","-9999.0","110","ESE","-9999.0","-9999.0","1021","30.15","-999","-999","-9999","-9999","-9999.00","-9999.00","Clear","clear","0","0","0","0","0","0","METAR UKKK 011300Z 11003MPS 040V160 CAVOK 23/09 Q1021 R26/CLRD70 NOSIG"
"4:30 PM EEST on September 01, 2016","2016","09","01","16","30","Europe/Kiev","1:30 PM GMT on September 01, 2016","2016","09","01","13","30","UTC","23.0","73.4","9.0","48.2","41","7.2","4.5","-9999.0","-9999.0","290","WNW","-9999.0","-9999.0","1021","30.15","-999","-999","-9999","-9999","-9999.00","-9999.00","Clear","clear","0","0","0","0","0","0","METAR UKKK 011330Z 29002MPS CAVOK 23/09 Q1021 R26/CLRD70 NOSIG"
"5:00 PM EEST on September 01, 2016","2016","09","01","17","00","Europe/Kiev","2:00 PM GMT on September 01, 2016","2016","09","01","14","00","UTC","23.0","73.4","9.0","48.2","41","3.6","2.2","-9999.0","-9999.0","0","Variable","-9999.0","-9999.0","1021","30.15","-999","-999","-9999","-9999","-9999.00","-9999.00","Clear","clear","0","0","0","0","0","0","METAR UKKK 011400Z VRB01MPS CAVOK 23/09 Q1021 R26/CLRD70 NOSIG"
"5:30 PM EEST on September 01, 2016","2016","09","01","17","30","Europe/Kiev","2:30 PM GMT on September 01, 2016","2016","09","01","14","30","UTC","23.0","73.4","9.0","48.2","41","3.6","2.2","-9999.0","-9999.0","0","Variable","-9999.0","-9999.0","1021","30.15","-999","-999","-9999","-9999","-9999.00","-9999.00","Clear","clear","0","0","0","0","0","0","METAR UKKK 011430Z VRB01MPS CAVOK 23/09 Q1021 R26/CLRD70 NOSIG"
"6:00 PM EEST on September 01, 2016","2016","09","01","18","00","Europe/Kiev","3:00 PM GMT on September 01, 2016","2016","09","01","15","00","UTC","22","72","9","48","31","3.6","2.2","","","40","NE","20","12","1020","30.14","-999","-999","-9999","-9999","","","","","0","0","0","0","0","0","AAXX 01151 33345 42998 00401 10224 20087 30010 40204 57015 555 10029"
"6:00 PM EEST on September 01, 2016","2016","09","01","18","00","Europe/Kiev","3:00 PM GMT on September 01, 2016","2016","09","01","15","00","UTC","22.0","71.6","10.0","50.0","46","3.6","2.2","-9999.0","-9999.0","0","Variable","-9999.0","-9999.0","1021","30.15","-999","-999","-9999","-9999","-9999.00","-9999.00","Clear","clear","0","0","0","0","0","0","METAR UKKK 011500Z VRB01MPS CAVOK 22/10 Q1021 R26/CLRD70 NOSIG"
"6:30 PM EEST on September 01, 2016","2016","09","01","18","30","Europe/Kiev","3:30 PM GMT on September 01, 2016","2016","09","01","15","30","UTC","23.0","73.4","9.0","48.2","41","7.2","4.5","-9999.0","-9999.0","90","East","9.0","5.6","1020","30.12","-999","-999","-9999","-9999","-9999.00","-9999.00","Unknown","unknown","0","0","0","0","0","0","METAR UKKK 011530Z 09002MPS 050V120 9000 NSC 23/09 Q1020 R26/CLRD70 NOSIG"
"7:00 PM EEST on September 01, 2016","2016","09","01","19","00","Europe/Kiev","4:00 PM GMT on September 01, 2016","2016","09","01","16","00","UTC","20.0","68.0","10.0","50.0","52","10.8","6.7","-9999.0","-9999.0","90","East","-9999.0","-9999.0","1020","30.12","-999","-999","-9999","-9999","-9999.00","-9999.00","Clear","clear","0","0","0","0","0","0","METAR UKKK 011600Z 09003MPS CAVOK 20/10 Q1020 R08/CLRD70 NOSIG"
"7:30 PM EEST on September 01, 2016","2016","09","01","19","30","Europe/Kiev","4:30 PM GMT on September 01, 2016","2016","09","01","16","30","UTC","19.0","66.2","10.0","50.0","56","7.2","4.5","-9999.0","-9999.0","120","ESE","-9999.0","-9999.0","1020","30.12","-999","-999","-9999","-9999","-9999.00","-9999.00","Clear","clear","0","0","0","0","0","0","METAR UKKK 011630Z 12002MPS CAVOK 19/10 Q1020 R08/CLRD70 NOSIG"
"8:00 PM EEST on September 01, 2016","2016","09","01","20","00","Europe/Kiev","5:00 PM GMT on September 01, 2016","2016","09","01","17","00","UTC","17.0","62.6","10.0","50.0","63","7.2","4.5","-9999.0","-9999.0","120","ESE","-9999.0","-9999.0","1020","30.12","-999","-999","-9999","-9999","-9999.00","-9999.00","Clear","clear","0","0","0","0","0","0","METAR UKKK 011700Z 12002MPS CAVOK 17/10 Q1020 R08/CLRD70 NOSIG"
"8:30 PM EEST on September 01, 2016","2016","09","01","20","30","Europe/Kiev","5:30 PM GMT on September 01, 2016","2016","09","01","17","30","UTC","16.0","60.8","10.0","50.0","68","7.2","4.5","-9999.0","-9999.0","110","ESE","-9999.0","-9999.0","1020","30.12","-999","-999","-9999","-9999","-9999.00","-9999.00","Clear","clear","0","0","0","0","0","0","METAR UKKK 011730Z 11002MPS CAVOK 16/10 Q1020 R08/CLRD70 NOSIG"
"9:00 PM EEST on September 01, 2016","2016","09","01","21","00","Europe/Kiev","6:00 PM GMT on September 01, 2016","2016","09","01","18","00","UTC","18","64","10","50","49","3.6","2.2","","","180","South","20","12","1021","30.14","-999","-999","-9999","-9999","","","","","0","0","0","0","0","0","AAXX 01181 33345 32998 01801 10177 20098 30008 40206 57002 333 10233 555 10016"
"9:00 PM EEST on September 01, 2016","2016","09","01","21","00","Europe/Kiev","6:00 PM GMT on September 01, 2016","2016","09","01","18","00","UTC","16.0","60.8","10.0","50.0","68","7.2","4.5","-9999.0","-9999.0","120","ESE","-9999.0","-9999.0","1020","30.12","-999","-999","-9999","-9999","-9999.00","-9999.00","Clear","clear","0","0","0","0","0","0","METAR UKKK 011800Z 12002MPS CAVOK 16/10 Q1020 R08/CLRD70 NOSIG"
"9:30 PM EEST on September 01, 2016","2016","09","01","21","30","Europe/Kiev","6:30 PM GMT on September 01, 2016","2016","09","01","18","30","UTC","15.0","59.0","10.0","50.0","72","3.6","2.2","-9999.0","-9999.0","140","SE","-9999.0","-9999.0","1020","30.12","-999","-999","-9999","-9999","-9999.00","-9999.00","Clear","clear","0","0","0","0","0","0","METAR UKKK 011830Z 14001MPS CAVOK 15/10 Q1020 R08/CLRD70 NOSIG"
"10:00 PM EEST on September 01, 2016","2016","09","01","22","00","Europe/Kiev","7:00 PM GMT on September 01, 2016","2016","09","01","19","00","UTC","14.0","57.2","10.0","50.0","77","0.0","0.0","-9999.0","-9999.0","0","North","-9999.0","-9999.0","1020","30.12","-999","-999","-9999","-9999","-9999.00","-9999.00","Clear","clear","0","0","0","0","0","0","METAR UKKK 011900Z 00000MPS CAVOK 14/10 Q1020 R08/CLRD70 NOSIG"
"10:30 PM EEST on September 01, 2016","2016","09","01","22","30","Europe/Kiev","7:30 PM GMT on September 01, 2016","2016","09","01","19","30","UTC","14.0","57.2","10.0","50.0","77","3.6","2.2","-9999.0","-9999.0","70","ENE","-9999.0","-9999.0","1020","30.12","-999","-999","-9999","-9999","-9999.00","-9999.00","Clear","clear","0","0","0","0","0","0","METAR UKKK 011930Z 07001MPS CAVOK 14/10 Q1020 R08/CLRD70 NOSIG"
"11:00 PM EEST on September 01, 2016","2016","09","01","23","00","Europe/Kiev","8:00 PM GMT on September 01, 2016","2016","09","01","20","00","UTC","12.0","53.6","10.0","50.0","88","0.0","0.0","-9999.0","-9999.0","0","North","-9999.0","-9999.0","1020","30.12","-999","-999","-9999","-9999","-9999.00","-9999.00","Clear","clear","0","0","0","0","0","0","METAR UKKK 012000Z 00000MPS CAVOK 12/10 Q1020 R08/CLRD70 NOSIG"
"11:30 PM EEST on September 01, 2016","2016","09","01","23","30","Europe/Kiev","8:30 PM GMT on September 01, 2016","2016","09","01","20","30","UTC","13.0","55.4","9.0","48.2","77","3.6","2.2","-9999.0","-9999.0","80","East","-9999.0","-9999.0","1020","30.12","-999","-999","-9999","-9999","-9999.00","-9999.00","Clear","clear","0","0","0","0","0","0","METAR UKKK 012030Z 08001MPS CAVOK 13/09 Q1020 R08/CLRD70 NOSIG"
"12:00 AM EEST on September 02, 2016","2016","09","02","00","00","Europe/Kiev","9:00 PM GMT on September 01, 2016","2016","09","01","21","00","UTC","15","59","10","49","61","3.6","2.2","","","200","SSW","20","12","1020","30.14","-999","-999","-9999","-9999","","","","","0","0","0","0","0","0","AAXX 01211 33345 42998 02001 10149 20095 30006 40205 57002 555 10013"
"12:00 AM EEST on September 02, 2016","2016","09","02","00","00","Europe/Kiev","9:00 PM GMT on September 01, 2016","2016","09","01","21","00","UTC","12.0","53.6","10.0","50.0","88","0.0","0.0","-9999.0","-9999.0","0","North","-9999.0","-9999.0","1020","30.12","-999","-999","-9999","-9999","-9999.00","-9999.00","Clear","clear","0","0","0","0","0","0","METAR UKKK 012100Z 00000MPS CAVOK 12/10 Q1020 R08/CLRD70 NOSIG"
"12:30 AM EEST on September 02, 2016","2016","09","02","00","30","Europe/Kiev","9:30 PM GMT on September 01, 2016","2016","09","01","21","30","UTC","12.0","53.6","10.0","50.0","88","0.0","0.0","-9999.0","-9999.0","0","North","-9999.0","-9999.0","1020","30.12","-999","-999","-9999","-9999","-9999.00","-9999.00","Clear","clear","0","0","0","0","0","0","METAR UKKK 012130Z 00000MPS CAVOK 12/10 Q1020 R08/CLRD70 NOSIG"
"1:00 AM EEST on September 02, 2016","2016","09","02","01","00","Europe/Kiev","10:00 PM GMT on September 01, 2016","2016","09","01","22","00","UTC","13.0","55.4","10.0","50.0","82","3.6","2.2","-9999.0","-9999.0","0","Variable","-9999.0","-9999.0","1020","30.12","-999","-999","-9999","-9999","-9999.00","-9999.00","Clear","clear","0","0","0","0","0","0","METAR UKKK 012200Z VRB01MPS CAVOK 13/10 Q1020 R08/CLRD70 NOSIG"
"1:30 AM EEST on September 02, 2016","2016","09","02","01","30","Europe/Kiev","10:30 PM GMT on September 01, 2016","2016","09","01","22","30","UTC","12.0","53.6","9.0","48.2","82","0.0","0.0","-9999.0","-9999.0","0","North","-9999.0","-9999.0","1020","30.12","-999","-999","-9999","-9999","-9999.00","-9999.00","Clear","clear","0","0","0","0","0","0","METAR UKKK 012230Z 00000MPS CAVOK 12/09 Q1020 R08/CLRD70 NOSIG"
"2:00 AM EEST on September 02, 2016","2016","09","02","02","00","Europe/Kiev","11:00 PM GMT on September 01, 2016","2016","09","01","23","00","UTC","12.0","53.6","9.0","48.2","82","0.0","0.0","-9999.0","-9999.0","0","North","-9999.0","-9999.0","1020","30.12","-999","-999","-9999","-9999","-9999.00","-9999.00","Clear","clear","0","0","0","0","0","0","METAR UKKK 012300Z 00000MPS CAVOK 12/09 Q1020 R08/CLRD70 NOSIG"
"2:30 AM EEST on September 02, 2016","2016","09","02","02","30","Europe/Kiev","11:30 PM GMT on September 01, 2016","2016","09","01","23","30","UTC","11.0","51.8","9.0","48.2","88","0.0","0.0","-9999.0","-9999.0","0","North","-9999.0","-9999.0","1020","30.12","-999","-999","-9999","-9999","-9999.00","-9999.00","Clear","clear","0","0","0","0","0","0","METAR UKKK 012330Z 00000MPS CAVOK 11/09 Q1020 R08/CLRD70 NOSIG"
"3:00 AM EEST on September 02, 2016","2016","09","02","03","00","Europe/Kiev","12:00 AM GMT on September 02, 2016","2016","09","02","00","00","UTC","16","60","8","47","51","10.8","6.7","","","230","SW","20","12","1020","30.13","-999","-999","-9999","-9999","","","","","0","0","0","0","0","0","AAXX 02001 33345 32998 02303 10155 20082 30002 40201 57004 555 10012"
"3:00 AM EEST on September 02, 2016","2016","09","02","03","00","Europe/Kiev","12:00 AM GMT on September 02, 2016","2016","09","02","00","00","UTC","11.0","51.8","8.0","46.4","82","3.6","2.2","-9999.0","-9999.0","220","SW","-9999.0","-9999.0","1020","30.12","-999","-999","-9999","-9999","-9999.00","-9999.00","Clear","clear","0","0","0","0","0","0","METAR UKKK 020000Z 22001MPS CAVOK 11/08 Q1020 R08/CLRD70 NOSIG"
"3:30 AM EEST on September 02, 2016","2016","09","02","03","30","Europe/Kiev","12:30 AM GMT on September 02, 2016","2016","09","02","00","30","UTC","11.0","51.8","9.0","48.2","88","0.0","0.0","-9999.0","-9999.0","0","North","-9999.0","-9999.0","1020","30.12","-999","-999","-9999","-9999","-9999.00","-9999.00","Clear","clear","0","0","0","0","0","0","METAR UKKK 020030Z 00000MPS CAVOK 11/09 Q1020 R08/CLRD70 NOSIG"
"4:00 AM EEST on September 02, 2016","2016","09","02","04","00","Europe/Kiev","1:00 AM GMT on September 02, 2016","2016","09","02","01","00","UTC","11.0","51.8","8.0","46.4","82","0.0","0.0","-9999.0","-9999.0","0","North","-9999.0","-9999.0","1019","30.09","-999","-999","-9999","-9999","-9999.00","-9999.00","Clear","clear","0","0","0","0","0","0","METAR UKKK 020100Z 00000MPS CAVOK 11/08 Q1019 R08/CLRD70 NOSIG"
"4:30 AM EEST on September 02, 2016","2016","09","02","04","30","Europe/Kiev","1:30 AM GMT on September 02, 2016","2016","09","02","01","30","UTC","10.0","50.0","8.0","46.4","87","0.0","0.0","-9999.0","-9999.0","0","North","-9999.0","-9999.0","1019","30.09","-999","-999","-9999","-9999","-9999.00","-9999.00","Clear","clear","0","0","0","0","0","0","METAR UKKK 020130Z 00000MPS CAVOK 10/08 Q1019 R08/CLRD70 NOSIG"
"5:00 AM EEST on September 02, 2016","2016","09","02","05","00","Europe/Kiev","2:00 AM GMT on September 02, 2016","2016","09","02","02","00","UTC","10.0","50.0","8.0","46.4","87","0.0","0.0","-9999.0","-9999.0","0","North","-9999.0","-9999.0","1019","30.09","-999","-999","-9999","-9999","-9999.00","-9999.00","Clear","clear","0","0","0","0","0","0","METAR UKKK 020200Z 00000MPS CAVOK 10/08 Q1019 R08/CLRD70 NOSIG"
"5:30 AM EEST on September 02, 2016","2016","09","02","05","30","Europe/Kiev","2:30 AM GMT on September 02, 2016","2016","09","02","02","30","UTC","10.0","50.0","8.0","46.4","87","3.6","2.2","-9999.0","-9999.0","200","SSW","-9999.0","-9999.0","1019","30.09","-999","-999","-9999","-9999","-9999.00","-9999.00","Clear","clear","0","0","0","0","0","0","METAR UKKK 020230Z 20001MPS CAVOK 10/08 Q1019 R08/CLRD70 NOSIG"
"6:00 AM EEST on September 02, 2016","2016","09","02","06","00","Europe/Kiev","3:00 AM GMT on September 02, 2016","2016","09","02","03","00","UTC","13","55","8","46","64","7.2","4.5","","","220","SW","20","12","1019","30.10","-999","-999","-9999","-9999","","","","","0","0","0","0","0","0","AAXX 02031 33345 42998 02202 10127 20080 39992 40193 57010 555 10010"
"6:00 AM EEST on September 02, 2016","2016","09","02","06","00","Europe/Kiev","3:00 AM GMT on September 02, 2016","2016","09","02","03","00","UTC","10.0","50.0","8.0","46.4","87","3.6","2.2","-9999.0","-9999.0","0","Variable","-9999.0","-9999.0","1019","30.09","-999","-999","-9999","-9999","-9999.00","-9999.00","Clear","clear","0","0","0","0","0","0","METAR UKKK 020300Z VRB01MPS CAVOK 10/08 Q1019 R08/CLRD70 NOSIG"
"6:30 AM EEST on September 02, 2016","2016","09","02","06","30","Europe/Kiev","3:30 AM GMT on September 02, 2016","2016","09","02","03","30","UTC","11.0","51.8","8.0","46.4","82","0.0","0.0","-9999.0","-9999.0","0","North","-9999.0","-9999.0","1019","30.09","-999","-999","-9999","-9999","-9999.00","-9999.00","Clear","clear","0","0","0","0","0","0","METAR UKKK 020330Z 00000MPS CAVOK 11/08 Q1019 R08/CLRD70 NOSIG"
"7:00 AM EEST on September 02, 2016","2016","09","02","07","00","Europe/Kiev","4:00 AM GMT on September 02, 2016","2016","09","02","04","00","UTC","11.0","51.8","9.0","48.2","88","0.0","0.0","-9999.0","-9999.0","0","North","-9999.0","-9999.0","1019","30.09","-999","-999","-9999","-9999","-9999.00","-9999.00","Clear","clear","0","0","0","0","0","0","METAR UKKK 020400Z 00000MPS CAVOK 11/09 Q1019 R08/CLRD70 NOSIG"
"7:30 AM EEST on September 02, 2016","2016","09","02","07","30","Europe/Kiev","4:30 AM GMT on September 02, 2016","2016","09","02","04","30","UTC","13.0","55.4","10.0","50.0","82","0.0","0.0","-9999.0","-9999.0","0","North","-9999.0","-9999.0","1019","30.09","-999","-999","-9999","-9999","-9999.00","-9999.00","Clear","clear","0","0","0","0","0","0","METAR UKKK 020430Z 00000MPS CAVOK 13/10 Q1019 R08/CLRD70 NOSIG"
"8:00 AM EEST on September 02, 2016","2016","09","02","08","00","Europe/Kiev","5:00 AM GMT on September 02, 2016","2016","09","02","05","00","UTC","15.0","59.0","10.0","50.0","72","0.0","0.0","-9999.0","-9999.0","0","North","-9999.0","-9999.0","1019","30.09","-999","-999","-9999","-9999","-9999.00","-9999.00","Clear","clear","0","0","0","0","0","0","METAR UKKK 020500Z 00000MPS CAVOK 15/10 Q1019 R08/CLRD70 NOSIG"
"8:30 AM EEST on September 02, 2016","2016","09","02","08","30","Europe/Kiev","5:30 AM GMT on September 02, 2016","2016","09","02","05","30","UTC","17.0","62.6","10.0","50.0","63","7.2","4.5","-9999.0","-9999.0","240","WSW","-9999.0","-9999.0","1019","30.09","-999","-999","-9999","-9999","-9999.00","-9999.00","Clear","clear","0","0","0","0","0","0","METAR UKKK 020530Z 24002MPS CAVOK 17/10 Q1019 R26/CLRD70 NOSIG"
"9:00 AM EEST on September 02, 2016","2016","09","02","09","00","Europe/Kiev","6:00 AM GMT on September 02, 2016","2016","09","02","06","00","UTC","17","63","9","49","50","7.2","4.5","","","240","WSW","20","12","1018","30.08","-999","-999","-9999","-9999","","","","","0","0","0","0","0","0","AAXX 02061 33345 32998 02402 10172 20094 39987 40184 57005 333 20117 555 10021"
"9:00 AM EEST on September 02, 2016","2016","09","02","09","00","Europe/Kiev","6:00 AM GMT on September 02, 2016","2016","09","02","06","00","UTC","18.0","64.4","10.0","50.0","59","7.2","4.5","-9999.0","-9999.0","230","SW","-9999.0","-9999.0","1018","30.06","-999","-999","-9999","-9999","-9999.00","-9999.00","Clear","clear","0","0","0","0","0","0","METAR UKKK 020600Z 23002MPS 190V260 CAVOK 18/10 Q1018 R26/CLRD70 NOSIG"
"9:30 AM EEST on September 02, 2016","2016","09","02","09","30","Europe/Kiev","6:30 AM GMT on September 02, 2016","2016","09","02","06","30","UTC","19.0","66.2","10.0","50.0","56","7.2","4.5","-9999.0","-9999.0","230","SW","-9999.0","-9999.0","1018","30.06","-999","-999","-9999","-9999","-9999.00","-9999.00","Clear","clear","0","0","0","0","0","0","METAR UKKK 020630Z 23002MPS 190V280 CAVOK 19/10 Q1018 R26/CLRD70 NOSIG"
"10:00 AM EEST on September 02, 2016","2016","09","02","10","00","Europe/Kiev","7:00 AM GMT on September 02, 2016","2016","09","02","07","00","UTC","20.0","68.0","10.0","50.0","52","3.6","2.2","-9999.0","-9999.0","0","Variable","-9999.0","-9999.0","1018","30.06","-999","-999","-9999","-9999","-9999.00","-9999.00","Clear","clear","0","0","0","0","0","0","METAR UKKK 020700Z VRB01MPS CAVOK 20/10 Q1018 R26/CLRD70 NOSIG"
"10:30 AM EEST on September 02, 2016","2016","09","02","10","30","Europe/Kiev","7:30 AM GMT on September 02, 2016","2016","09","02","07","30","UTC","22.0","71.6","10.0","50.0","46","7.2","4.5","-9999.0","-9999.0","260","West","-9999.0","-9999.0","1018","30.06","-999","-999","-9999","-9999","-9999.00","-9999.00","Clear","clear","0","0","0","0","0","0","METAR UKKK 020730Z 26002MPS 210V330 CAVOK 22/10 Q1018 R26/CLRD70 NOSIG"
"11:00 AM EEST on September 02, 2016","2016","09","02","11","00","Europe/Kiev","8:00 AM GMT on September 02, 2016","2016","09","02","08","00","UTC","23.0","73.4","10.0","50.0","44","7.2","4.5","-9999.0","-9999.0","220","SW","-9999.0","-9999.0","1018","30.06","-999","-999","-9999","-9999","-9999.00","-9999.00","Clear","clear","0","0","0","0","0","0","METAR UKKK 020800Z 22002MPS CAVOK 23/10 Q1018 R26/CLRD70 NOSIG"
"11:30 AM EEST on September 02, 2016","2016","09","02","11","30","Europe/Kiev","8:30 AM GMT on September 02, 2016","2016","09","02","08","30","UTC","23.0","73.4","11.0","51.8","47","7.2","4.5","-9999.0","-9999.0","220","SW","7.0","4.3","1018","30.06","-999","-999","-9999","-9999","-9999.00","-9999.00","Clear","clear","0","0","0","0","0","0","METAR UKKK 020830Z 22002MPS 130V300 7000 SKC 23/11 Q1018 R26/CLRD70 NOSIG"
"12:00 PM EEST on September 02, 2016","2016","09","02","12","00","Europe/Kiev","9:00 AM GMT on September 02, 2016","2016","09","02","09","00","UTC","24","76","11","53","33","10.8","6.7","","","220","SW","20","12","1017","30.04","-999","-999","-9999","-9999","","","","","0","0","0","0","0","0","AAXX 02091 33345 42998 02203 10243 20114 39981 40173 58006 555 10038"
"12:00 PM EEST on September 02, 2016","2016","09","02","12","00","Europe/Kiev","9:00 AM GMT on September 02, 2016","2016","09","02","09","00","UTC","24.0","75.2","10.0","50.0","41","7.2","4.5","-9999.0","-9999.0","240","WSW","10.0","6.2","1018","30.06","-999","-999","-9999","-9999","-9999.00","-9999.00","Partly Cloudy","partlycloudy","0","0","0","0","0","0","METAR UKKK 020900Z 24002MPS 190V310 9999 FEW033 24/10 Q1018 R26/CLRD70 NOSIG"
"12:30 PM EEST on September 02, 2016","2016","09","02","12","30","Europe/Kiev","9:30 AM GMT on September 02, 2016","2016","09","02","09","30","UTC","25.0","77.0","10.0","50.0","39","10.8","6.7","-9999.0","-9999.0","230","SW","-9999.0","-9999.0","1018","30.06","-999","-999","-9999","-9999","-9999.00","-9999.00","Clear","clear","0","0","0","0","0","0","METAR UKKK 020930Z 23003MPS 130V270 CAVOK 25/10 Q1018 R26/CLRD70 NOSIG"
"1:00 PM EEST on September 02, 2016","2016","09","02","13","00","Europe/Kiev","10:00 AM GMT on September 02, 2016","2016","09","02","10","00","UTC","25.0","77.0","10.0","50.0","39","14.4","8.9","-9999.0","-9999.0","230","SW","-9999.0","-9999.0","1017","30.04","-999","-999","-9999","-9999","-9999.00","-9999.00","Clear","clear","0","0","0","0","0","0","METAR UKKK 021000Z 23004MPS 190V290 CAVOK 25/10 Q1017 R26/CLRD70 NOSIG"
"1:30 PM EEST on September 02, 2016","2016","09","02","13","30","Europe/Kiev","10:30 AM GMT on September 02, 2016","2016","09","02","10","30","UTC","25.0","77.0","10.0","50.0","39","7.2","4.5","-9999.0","-9999.0","320","NW","-9999.0","-9999.0","1017","30.04","-999","-999","-9999","-9999","-9999.00","-9999.00","Clear","clear","0","0","0","0","0","0","METAR UKKK 021030Z 32002MPS 290V030 CAVOK 25/10 Q1017 R26/CLRD70 NOSIG"
"2:00 PM EEST on September 02, 2016","2016","09","02","14","00","Europe/Kiev","11:00 AM GMT on September 02, 2016","2016","09","02","11","00","UTC","25.0","77.0","8.0","46.4","34","18.0","11.2","-9999.0","-9999.0","280","West","-9999.0","-9999.0","1017","30.04","-999","-999","-9999","-9999","-9999.00","-9999.00","Clear","clear","0","0","0","0","0","0","METAR UKKK 021100Z 28005MPS 240V310 CAVOK 25/08 Q1017 R26/CLRD70 NOSIG"
"2:30 PM EEST on September 02, 2016","2016","09","02","14","30","Europe/Kiev","11:30 AM GMT on September 02, 2016","2016","09","02","11","30","UTC","26.0","78.8","9.0","48.2","34","10.8","6.7","-9999.0","-9999.0","280","West","-9999.0","-9999.0","1017","30.04","-999","-999","-9999","-9999","-9999.00","-9999.00","Clear","clear","0","0","0","0","0","0","METAR UKKK 021130Z 28003MPS 250V340 CAVOK 26/09 Q1017 R26/CLRD70 NOSIG"
"3:00 PM EEST on September 02, 2016","2016","09","02","15","00","Europe/Kiev","12:00 PM GMT on September 02, 2016","2016","09","02","12","00","UTC","26","79","7","44","19","10.8","6.7","","","300","WNW","20","12","1016","30.01","-999","-999","-9999","-9999","","","Scattered Clouds","partlycloudy","0","0","0","0","0","0","AAXX 02121 33345 32698 23003 10261 20067 39969 40160 57012 82100 555 10042"
"3:00 PM EEST on September 02, 2016","2016","09","02","15","00","Europe/Kiev","12:00 PM GMT on September 02, 2016","2016","09","02","12","00","UTC","26.0","78.8","9.0","48.2","34","10.8","6.7","-9999.0","-9999.0","240","WSW","-9999.0","-9999.0","1016","30.01","-999","-999","-9999","-9999","-9999.00","-9999.00","Clear","clear","0","0","0","0","0","0","METAR UKKK 021200Z 24003MPS 170V310 CAVOK 26/09 Q1016 R26/CLRD70 NOSIG"
"3:30 PM EEST on September 02, 2016","2016","09","02","15","30","Europe/Kiev","12:30 PM GMT on September 02, 2016","2016","09","02","12","30","UTC","27.0","80.6","9.0","48.2","32","10.8","6.7","-9999.0","-9999.0","290","WNW","-9999.0","-9999.0","1016","30.01","-999","-999","-9999","-9999","-9999.00","-9999.00","Clear","clear","0","0","0","0","0","0","METAR UKKK 021230Z 29003MPS 250V350 CAVOK 27/09 Q1016 R26/CLRD70 NOSIG"
"4:00 PM EEST on September 02, 2016","2016","09","02","16","00","Europe/Kiev","1:00 PM GMT on September 02, 2016","2016","09","02","13","00","UTC","26.0","78.8","9.0","48.2","34","10.8","6.7","-9999.0","-9999.0","280","West","-9999.0","-9999.0","1016","30.01","-999","-999","-9999","-9999","-9999.00","-9999.00","Clear","clear","0","0","0","0","0","0","METAR UKKK 021300Z 28003MPS 250V320 CAVOK 26/09 Q1016 R26/CLRD70 NOSIG"
"4:30 PM EEST on September 02, 2016","2016","09","02","16","30","Europe/Kiev","1:30 PM GMT on September 02, 2016","2016","09","02","13","30","UTC","27.0","80.6","9.0","48.2","32","7.2","4.5","-9999.0","-9999.0","280","West","-9999.0","-9999.0","1016","30.01","-999","-999","-9999","-9999","-9999.00","-9999.00","Clear","clear","0","0","0","0","0","0","METAR UKKK 021330Z 28002MPS CAVOK 27/09 Q1016 R26/CLRD70 NOSIG"
"5:00 PM EEST on September 02, 2016","2016","09","02","17","00","Europe/Kiev","2:00 PM GMT on September 02, 2016","2016","09","02","14","00","UTC","26.0","78.8","9.0","48.2","34","7.2","4.5","-9999.0","-9999.0","280","West","-9999.0","-9999.0","1016","30.01","-999","-999","-9999","-9999","-9999.00","-9999.00","Clear","clear","0","0","0","0","0","0","METAR UKKK 021400Z 28002MPS 240V340 CAVOK 26/09 Q1016 R26/CLRD70 NOSIG"
"5:30 PM EEST on September 02, 2016","2016","09","02","17","30","Europe/Kiev","2:30 PM GMT on September 02, 2016","2016","09","02","14","30","UTC","26.0","78.8","8.0","46.4","32","10.8","6.7","-9999.0","-9999.0","280","West","-9999.0","-9999.0","1015","29.98","-999","-999","-9999","-9999","-9999.00","-9999.00","Clear","clear","0","0","0","0","0","0","METAR UKKK 021430Z 28003MPS 240V310 CAVOK 26/08 Q1015 R26/CLRD70 NOSIG"
"6:00 PM EEST on September 02, 2016","2016","09","02","18","00","Europe/Kiev","3:00 PM GMT on September 02, 2016","2016","09","02","15","00","UTC","26","79","8","46","21","3.6","2.2","","","250","WSW","20","12","1015","29.97","-999","-999","-9999","-9999","","","","","0","0","0","0","0","0","AAXX 02151 33345 42998 02501 10260 20077 39957 40148 57012 555 10032"
"6:00 PM EEST on September 02, 2016","2016","09","02","18","00","Europe/Kiev","3:00 PM GMT on September 02, 2016","2016","09","02","15","00","UTC","27.0","80.6","9.0","48.2","32","10.8","6.7","-9999.0","-9999.0","250","WSW","-9999.0","-9999.0","1015","29.98","-999","-999","-9999","-9999","-9999.00","-9999.00","Clear","clear","0","0","0","0","0","0","METAR UKKK 021500Z 25003MPS CAVOK 27/09 Q1015 R26/CLRD70 NOSIG"
"6:30 PM EEST on September 02, 2016","2016","09","02","18","30","Europe/Kiev","3:30 PM GMT on September 02, 2016","2016","09","02","15","30","UTC","26.0","78.8","10.0","50.0","36","0.0","0.0","-9999.0","-9999.0","0","North","-9999.0","-9999.0","1015","29.98","-999","-999","-9999","-9999","-9999.00","-9999.00","Clear","clear","0","0","0","0","0","0","METAR UKKK 021530Z 00000MPS CAVOK 26/10 Q1015 R26/CLRD70 NOSIG"
"7:00 PM EEST on September 02, 2016","2016","09","02","19","00","Europe/Kiev","4:00 PM GMT on September 02, 2016","2016","09","02","16","00","UTC","24.0","75.2","10.0","50.0","41","3.6","2.2","-9999.0","-9999.0","0","Variable","-9999.0","-9999.0","1015","29.98","-999","-999","-9999","-9999","-9999.00","-9999.00","Clear","clear","0","0","0","0","0","0","METAR UKKK 021600Z VRB01MPS CAVOK 24/10 Q1015 R26/CLRD70 NOSIG"
"7:30 PM EEST on September 02, 2016","2016","09","02","19","30","Europe/Kiev","4:30 PM GMT on September 02, 2016","2016","09","02","16","30","UTC","22.0","71.6","9.0","48.2","43","3.6","2.2","-9999.0","-9999.0","130","SE","-9999.0","-9999.0","1015","29.98","-999","-999","-9999","-9999","-9999.00","-9999.00","Clear","clear","0","0","0","0","0","0","METAR UKKK 021630Z 13001MPS CAVOK 22/09 Q1015 R26/CLRD70 NOSIG"
"8:00 PM EEST on September 02, 2016","2016","09","02","20","00","Europe/Kiev","5:00 PM GMT on September 02, 2016","2016","09","02","17","00","UTC","21.0","69.8","9.0","48.2","46","7.2","4.5","-9999.0","-9999.0","120","ESE","-9999.0","-9999.0","1015","29.98","-999","-999","-9999","-9999","-9999.00","-9999.00","Clear","clear","0","0","0","0","0","0","METAR UKKK 021700Z 12002MPS 080V160 CAVOK 21/09 Q1015 R26/CLRD70 NOSIG"
"8:30 PM EEST on September 02, 2016","2016","09","02","20","30","Europe/Kiev","5:30 PM GMT on September 02, 2016","2016","09","02","17","30","UTC","18.0","64.4","11.0","51.8","64","10.8","6.7","-9999.0","-9999.0","90","East","9.0","5.6","1015","29.98","-999","-999","-9999","-9999","-9999.00","-9999.00","Unknown","unknown","0","0","0","0","0","0","METAR UKKK 021730Z 09003MPS 9000 NSC 18/11 Q1015 R26/CLRD70 NOSIG"
"9:00 PM EEST on September 02, 2016","2016","09","02","21","00","Europe/Kiev","6:00 PM GMT on September 02, 2016","2016","09","02","18","00","UTC","20","68","11","53","47","7.2","4.5","","","200","SSW","20","12","1015","29.98","-999","-999","-9999","-9999","","","","","0","0","0","0","0","0","AAXX 02181 33345 32998 02002 10201 20114 39957 40152 55000 333 10272 555 10018"
"9:00 PM EEST on September 02, 2016","2016","09","02","21","00","Europe/Kiev","6:00 PM GMT on September 02, 2016","2016","09","02","18","00","UTC","18.0","64.4","10.0","50.0","59","7.2","4.5","-9999.0","-9999.0","130","SE","10.0","6.2","1015","29.98","-999","-999","-9999","-9999","-9999.00","-9999.00","Unknown","unknown","0","0","0","0","0","0","METAR UKKK 021800Z 13002MPS 9999 NSC 18/10 Q1015 R26/CLRD70 NOSIG"
"9:30 PM EEST on September 02, 2016","2016","09","02","21","30","Europe/Kiev","6:30 PM GMT on September 02, 2016","2016","09","02","18","30","UTC","17.0","62.6","11.0","51.8","68","7.2","4.5","-9999.0","-9999.0","80","East","10.0","6.2","1015","29.98","-999","-999","-9999","-9999","-9999.00","-9999.00","Unknown","unknown","0","0","0","0","0","0","METAR UKKK 021830Z 08002MPS 9999 NSC 17/11 Q1015 R26/CLRD70 NOSIG"
"10:00 PM EEST on September 02, 2016","2016","09","02","22","00","Europe/Kiev","7:00 PM GMT on September 02, 2016","2016","09","02","19","00","UTC","18.0","64.4","11.0","51.8","64","7.2","4.5","-9999.0","-9999.0","80","East","-9999.0","-9999.0","1015","29.98","-999","-999","-9999","-9999","-9999.00","-9999.00","Clear","clear","0","0","0","0","0","0","METAR UKKK 021900Z 08002MPS CAVOK 18/11 Q1015 R08/CLRD70 NOSIG"
"10:30 PM EEST on September 02, 2016","2016","09","02","22","30","Europe/Kiev","7:30 PM GMT on September 02, 2016","2016","09","02","19","30","UTC","18.0","64.4","11.0","51.8","64","7.2","4.5","-9999.0","-9999.0","70","ENE","-9999.0","-9999.0","1015","29.98","-999","-999","-9999","-9999","-9999.00","-9999.00","Clear","clear","0","0","0","0","0","0","METAR UKKK 021930Z 07002MPS CAVOK 18/11 Q1015 R08/CLRD70 NOSIG"
"11:00 PM EEST on September 02, 2016","2016","09","02","23","00","Europe/Kiev","8:00 PM GMT on September 02, 2016","2016","09","02","20","00","UTC","18.0","64.4","11.0","51.8","64","7.2","4.5","-9999.0","-9999.0","90","East","-9999.0","-9999.0","1015","29.98","-999","-999","-9999","-9999","-9999.00","-9999.00","Clear","clear","0","0","0","0","0","0","METAR UKKK 022000Z 09002MPS CAVOK 18/11 Q1015 R08/CLRD70 NOSIG"
"11:30 PM EEST on September 02, 2016","2016","09","02","23","30","Europe/Kiev","8:30 PM GMT on September 02, 2016","2016","09","02","20","30","UTC","16.0","60.8","11.0","51.8","72","3.6","2.2","-9999.0","-9999.0","0","Variable","-9999.0","-9999.0","1015","29.98","-999","-999","-9999","-9999","-9999.00","-9999.00","Clear","clear","0","0","0","0","0","0","METAR UKKK 022030Z VRB01MPS CAVOK 16/11 Q1015 R08/CLRD70 NOSIG"
"12:00 AM EEST on September 03, 2016","2016","09","03","00","00","Europe/Kiev","9:00 PM GMT on September 02, 2016","2016","09","02","21","00","UTC","18","64","11","51","54","0.0","0.0","","","","","20","12","1016","30.00","-999","-999","-9999","-9999","","","","","0","0","0","0","0","0","AAXX 02211 33345 42998 00000 10177 20107 39961 40158 52004 555 10015"
"12:00 AM EEST on September 03, 2016","2016","09","03","00","00","Europe/Kiev","9:00 PM GMT on September 02, 2016","2016","09","02","21","00","UTC","16.0","60.8","11.0","51.8","72","3.6","2.2","-9999.0","-9999.0","0","Variable","9.0","5.6","1016","30.01","-999","-999","-9999","-9999","-9999.00","-9999.00","Unknown","unknown","0","0","0","0","0","0","METAR UKKK 022100Z VRB01MPS 9000 NSC 16/11 Q1016 R08/CLRD70 NOSIG"
"12:30 AM EEST on September 03, 2016","2016","09","03","00","30","Europe/Kiev","9:30 PM GMT on September 02, 2016","2016","09","02","21","30","UTC","15.0","59.0","11.0","51.8","77","7.2","4.5","-9999.0","-9999.0","90","East","9.0","5.6","1016","30.01","-999","-999","-9999","-9999","-9999.00","-9999.00","Unknown","unknown","0","0","0","0","0","0","METAR UKKK 022130Z 09002MPS 9000 NSC 15/11 Q1016 R08/CLRD70 NOSIG"
"1:00 AM EEST on September 03, 2016","2016","09","03","01","00","Europe/Kiev","10:00 PM GMT on September 02, 2016","2016","09","02","22","00","UTC","14.0","57.2","10.0","50.0","77","7.2","4.5","-9999.0","-9999.0","100","East","-9999.0","-9999.0","1015","29.98","-999","-999","-9999","-9999","-9999.00","-9999.00","Clear","clear","0","0","0","0","0","0","METAR UKKK 022200Z 10002MPS CAVOK 14/10 Q1015 R08/CLRD70 NOSIG"
"1:30 AM EEST on September 03, 2016","2016","09","03","01","30","Europe/Kiev","10:30 PM GMT on September 02, 2016","2016","09","02","22","30","UTC","16.0","60.8","11.0","51.8","72","3.6","2.2","-9999.0","-9999.0","0","Variable","-9999.0","-9999.0","1015","29.98","-999","-999","-9999","-9999","-9999.00","-9999.00","Clear","clear","0","0","0","0","0","0","METAR UKKK 022230Z VRB01MPS CAVOK 16/11 Q1015 R08/CLRD70 NOSIG"
"2:00 AM EEST on September 03, 2016","2016","09","03","02","00","Europe/Kiev","11:00 PM GMT on September 02, 2016","2016","09","02","23","00","UTC","16.0","60.8","11.0","51.8","72","3.6","2.2","-9999.0","-9999.0","0","Variable","-9999.0","-9999.0","1015","29.98","-999","-999","-9999","-9999","-9999.00","-9999.00","Clear","clear","0","0","0","0","0","0","METAR UKKK 022300Z VRB01MPS CAVOK 16/11 Q1015 R08/CLRD70 NOSIG"
"2:30 AM EEST on September 03, 2016","2016","09","03","02","30","Europe/Kiev","11:30 PM GMT on September 02, 2016","2016","09","02","23","30","UTC","15.0","59.0","12.0","53.6","82","7.2","4.5","-9999.0","-9999.0","290","WNW","-9999.0","-9999.0","1016","30.01","-999","-999","-9999","-9999","-9999.00","-9999.00","Clear","clear","0","0","0","0","0","0","METAR UKKK 022330Z 29002MPS CAVOK 15/12 Q1016 R08/CLRD70 NOSIG"
"3:00 AM EEST on September 03, 2016","2016","09","03","03","00","Europe/Kiev","12:00 AM GMT on September 03, 2016","2016","09","03","00","00","UTC","17","63","11","52","58","3.6","2.2","","","310","NW","20","12","1016","30.00","-999","-999","-9999","-9999","","","Mostly Cloudy","mostlycloudy","0","0","0","0","0","0","AAXX 03001 33345 32998 73101 10170 20111 39960 40157 58001 87030 555 10016"
"3:00 AM EEST on September 03, 2016","2016","09","03","03","00","Europe/Kiev","12:00 AM GMT on September 03, 2016","2016","09","03","00","00","UTC","16.0","60.8","12.0","53.6","77","7.2","4.5","-9999.0","-9999.0","240","WSW","-9999.0","-9999.0","1016","30.01","-999","-999","-9999","-9999","-9999.00","-9999.00","Clear","clear","0","0","0","0","0","0","METAR UKKK 030000Z 24002MPS CAVOK 16/12 Q1016 R08/CLRD70 NOSIG"
"3:30 AM EEST on September 03, 2016","2016","09","03","03","30","Europe/Kiev","12:30 AM GMT on September 03, 2016","2016","09","03","00","30","UTC","15.0","59.0","12.0","53.6","82","0.0","0.0","-9999.0","-9999.0","0","North","9.0","5.6","1016","30.01","-999","-999","-9999","-9999","-9999.00","-9999.00","Unknown","unknown","0","0","0","0","0","0","METAR UKKK 030030Z 00000MPS 9000 NSC 15/12 Q1016 R08/CLRD70 NOSIG"
"4:00 AM EEST on September 03, 2016","2016","09","03","04","00","Europe/Kiev","1:00 AM GMT on September 03, 2016","2016","09","03","01","00","UTC","15.0","59.0","12.0","53.6","82","0.0","0.0","-9999.0","-9999.0","0","North","-9999.0","-9999.0","1015","29.98","-999","-999","-9999","-9999","-9999.00","-9999.00","Clear","clear","0","0","0","0","0","0","METAR UKKK 030100Z 00000MPS CAVOK 15/12 Q1015 R08/CLRD70 NOSIG"
"4:30 AM EEST on September 03, 2016","2016","09","03","04","30","Europe/Kiev","1:30 AM GMT on September 03, 2016","2016","09","03","01","30","UTC","15.0","59.0","12.0","53.6","82","3.6","2.2","-9999.0","-9999.0","250","WSW","-9999.0","-9999.0","1015","29.98","-999","-999","-9999","-9999","-9999.00","-9999.00","Clear","clear","0","0","0","0","0","0","METAR UKKK 030130Z 25001MPS CAVOK 15/12 Q1015 R08/CLRD70 NOSIG"
"5:00 AM EEST on September 03, 2016","2016","09","03","05","00","Europe/Kiev","2:00 AM GMT on September 03, 2016","2016","09","03","02","00","UTC","15.0","59.0","12.0","53.6","82","7.2","4.5","-9999.0","-9999.0","260","West","-9999.0","-9999.0","1015","29.98","-999","-999","-9999","-9999","-9999.00","-9999.00","Clear","clear","0","0","0","0","0","0","METAR UKKK 030200Z 26002MPS CAVOK 15/12 Q1015 R08/CLRD70 NOSIG"
"5:30 AM EEST on September 03, 2016","2016","09","03","05","30","Europe/Kiev","2:30 AM GMT on September 03, 2016","2016","09","03","02","30","UTC","15.0","59.0","12.0","53.6","82","10.8","6.7","-9999.0","-9999.0","270","West","-9999.0","-9999.0","1016","30.01","-999","-999","-9999","-9999","-9999.00","-9999.00","Clear","clear","0","0","0","0","0","0","METAR UKKK 030230Z 27003MPS CAVOK 15/12 Q1016 R26/CLRD70 NOSIG"
"6:00 AM EEST on September 03, 2016","2016","09","03","06","00","Europe/Kiev","3:00 AM GMT on September 03, 2016","2016","09","03","03","00","UTC","16","62","12","53","63","3.6","2.2","","","350","North","20","12","1016","29.99","-999","-999","-9999","-9999","","","Mostly Cloudy","mostlycloudy","0","0","0","0","0","0","AAXX 03031 33345 42998 53501 10165 20115 39959 40156 57001 85030 555 10015"
"6:00 AM EEST on September 03, 2016","2016","09","03","06","00","Europe/Kiev","3:00 AM GMT on September 03, 2016","2016","09","03","03","00","UTC","14.0","57.2","11.0","51.8","82","10.8","6.7","-9999.0","-9999.0","300","WNW","-9999.0","-9999.0","1016","30.01","-999","-999","-9999","-9999","-9999.00","-9999.00","Clear","clear","0","0","0","0","0","0","METAR UKKK 030300Z 30003MPS CAVOK 14/11 Q1016 R26/CLRD70 NOSIG"
"6:30 AM EEST on September 03, 2016","2016","09","03","06","30","Europe/Kiev","3:30 AM GMT on September 03, 2016","2016","09","03","03","30","UTC","15.0","59.0","11.0","51.8","77","10.8","6.7","-9999.0","-9999.0","300","WNW","-9999.0","-9999.0","1016","30.01","-999","-999","-9999","-9999","-9999.00","-9999.00","Clear","clear","0","0","0","0","0","0","METAR UKKK 030330Z 30003MPS CAVOK 15/11 Q1016 R26/CLRD70 NOSIG"
"7:00 AM EEST on September 03, 2016","2016","09","03","07","00","Europe/Kiev","4:00 AM GMT on September 03, 2016","2016","09","03","04","00","UTC","14.0","57.2","11.0","51.8","82","10.8","6.7","-9999.0","-9999.0","290","WNW","9.0","5.6","1016","30.01","-999","-999","-9999","-9999","-9999.00","-9999.00","Unknown","unknown","0","0","0","0","0","0","METAR UKKK 030400Z 29003MPS 9000 NSC 14/11 Q1016 R26/CLRD70 NOSIG"
"7:30 AM EEST on September 03, 2016","2016","09","03","07","30","Europe/Kiev","4:30 AM GMT on September 03, 2016","2016","09","03","04","30","UTC","14.0","57.2","11.0","51.8","82","10.8","6.7","-9999.0","-9999.0","270","West","-9999.0","-9999.0","1016","30.01","-999","-999","-9999","-9999","-9999.00","-9999.00","Clear","clear","0","0","0","0","0","0","METAR UKKK 030430Z 27003MPS CAVOK 14/11 Q1016 R26/CLRD70 NOSIG"
"8:00 AM EEST on September 03, 2016","2016","09","03","08","00","Europe/Kiev","5:00 AM GMT on September 03, 2016","2016","09","03","05","00","UTC","17.0","62.6","11.0","51.8","68","14.4","8.9","-9999.0","-9999.0","300","WNW","-9999.0","-9999.0","1016","30.01","-999","-999","-9999","-9999","-9999.00","-9999.00","Clear","clear","0","0","0","0","0","0","METAR UKKK 030500Z 30004MPS CAVOK 17/11 Q1016 R26/CLRD70 NOSIG"
"8:30 AM EEST on September 03, 2016","2016","09","03","08","30","Europe/Kiev","5:30 AM GMT on September 03, 2016","2016","09","03","05","30","UTC","18.0","64.4","11.0","51.8","64","14.4","8.9","-9999.0","-9999.0","320","NW","-9999.0","-9999.0","1016","30.01","-999","-999","-9999","-9999","-9999.00","-9999.00","Clear","clear","0","0","0","0","0","0","METAR UKKK 030530Z 32004MPS CAVOK 18/11 Q1016 R26/CLRD70 NOSIG"
"9:00 AM EEST on September 03, 2016","2016","09","03","09","00","Europe/Kiev","6:00 AM GMT on September 03, 2016","2016","09","03","06","00","UTC","18","64","11","52","55","7.2","4.5","","","350","North","20","12","1016","30.01","-999","-999","-9999","-9999","","","Scattered Clouds","partlycloudy","0","0","0","0","0","0","AAXX 03061 33345 32998 13502 10177 20109 39964 40161 53005 81030 333 20159 555 10020"
"9:00 AM EEST on September 03, 2016","2016","09","03","09","00","Europe/Kiev","6:00 AM GMT on September 03, 2016","2016","09","03","06","00","UTC","19.0","66.2","11.0","51.8","60","10.8","6.7","-9999.0","-9999.0","330","NNW","-9999.0","-9999.0","1016","30.01","-999","-999","-9999","-9999","-9999.00","-9999.00","Clear","clear","0","0","0","0","0","0","METAR UKKK 030600Z 33003MPS 300V360 CAVOK 19/11 Q1016 R26/CLRD70 NOSIG"
"9:30 AM EEST on September 03, 2016","2016","09","03","09","30","Europe/Kiev","6:30 AM GMT on September 03, 2016","2016","09","03","06","30","UTC","20.0","68.0","12.0","53.6","60","14.4","8.9","-9999.0","-9999.0","340","NNW","-9999.0","-9999.0","1016","30.01","-999","-999","-9999","-9999","-9999.00","-9999.00","Clear","clear","0","0","0","0","0","0","METAR UKKK 030630Z 34004MPS 300V020 CAVOK 20/12 Q1016 R26/CLRD70 NOSIG"
"10:00 AM EEST on September 03, 2016","2016","09","03","10","00","Europe/Kiev","7:00 AM GMT on September 03, 2016","2016","09","03","07","00","UTC","21.0","69.8","12.0","53.6","56","14.4","8.9","-9999.0","-9999.0","330","NNW","-9999.0","-9999.0","1016","30.01","-999","-999","-9999","-9999","-9999.00","-9999.00","Clear","clear","0","0","0","0","0","0","METAR UKKK 030700Z 33004MPS 300V360 CAVOK 21/12 Q1016 R26/CLRD70 NOSIG"
"10:30 AM EEST on September 03, 2016","2016","09","03","10","30","Europe/Kiev","7:30 AM GMT on September 03, 2016","2016","09","03","07","30","UTC","22.0","71.6","13.0","55.4","57","14.4","8.9","-9999.0","-9999.0","330","NNW","-9999.0","-9999.0","1017","30.04","-999","-999","-9999","-9999","-9999.00","-9999.00","Clear","clear","0","0","0","0","0","0","METAR UKKK 030730Z 33004MPS 300V020 CAVOK 22/13 Q1017 R26/CLRD70 NOSIG"
"11:00 AM EEST on September 03, 2016","2016","09","03","11","00","Europe/Kiev","8:00 AM GMT on September 03, 2016","2016","09","03","08","00","UTC","23.0","73.4","12.0","53.6","50","14.4","8.9","-9999.0","-9999.0","350","North","-9999.0","-9999.0","1016","30.01","-999","-999","-9999","-9999","-9999.00","-9999.00","Clear","clear","0","0","0","0","0","0","METAR UKKK 030800Z 35004MPS 300V030 CAVOK 23/12 Q1016 R26/CLRD70 NOSIG"
"11:30 AM EEST on September 03, 2016","2016","09","03","11","30","Europe/Kiev","8:30 AM GMT on September 03, 2016","2016","09","03","08","30","UTC","23.0","73.4","12.0","53.6","50","14.4","8.9","-9999.0","-9999.0","340","NNW","-9999.0","-9999.0","1017","30.04","-999","-999","-9999","-9999","-9999.00","-9999.00","Clear","clear","0","0","0","0","0","0","METAR UKKK 030830Z 34004MPS 300V050 CAVOK 23/12 Q1017 R26/CLRD70 NOSIG"
"12:00 PM EEST on September 03, 2016","2016","09","03","12","00","Europe/Kiev","9:00 AM GMT on September 03, 2016","2016","09","03","09","00","UTC","24","74","12","53","37","10.8","6.7","","","20","NNE","20","12","1016","30.01","-999","-999","-9999","-9999","","","Scattered Clouds","partlycloudy","0","0","0","0","0","0","AAXX 03091 33345 42698 20203 10236 20116 39968 40161 52004 82100 555 10038"
"12:00 PM EEST on September 03, 2016","2016","09","03","12","00","Europe/Kiev","9:00 AM GMT on September 03, 2016","2016","09","03","09","00","UTC","24.0","75.2","12.0","53.6","47","14.4","8.9","-9999.0","-9999.0","320","NW","-9999.0","-9999.0","1016","30.01","-999","-999","-9999","-9999","-9999.00","-9999.00","Clear","clear","0","0","0","0","0","0","METAR UKKK 030900Z 32004MPS 290V360 CAVOK 24/12 Q1016 R26/CLRD70 NOSIG"
"12:30 PM EEST on September 03, 2016","2016","09","03","12","30","Europe/Kiev","9:30 AM GMT on September 03, 2016","2016","09","03","09","30","UTC","24.0","75.2","12.0","53.6","47","14.4","8.9","-9999.0","-9999.0","340","NNW","-9999.0","-9999.0","1016","30.01","-999","-999","-9999","-9999","-9999.00","-9999.00","Clear","clear","0","0","0","0","0","0","METAR UKKK 030930Z 34004MPS 290V030 CAVOK 24/12 Q1016 R26/CLRD70 NOSIG"
"1:00 PM EEST on September 03, 2016","2016","09","03","13","00","Europe/Kiev","10:00 AM GMT on September 03, 2016","2016","09","03","10","00","UTC","25.0","77.0","12.0","53.6","44","14.4","8.9","-9999.0","-9999.0","340","NNW","-9999.0","-9999.0","1016","30.01","-999","-999","-9999","-9999","-9999.00","-9999.00","Clear","clear","0","0","0","0","0","0","METAR UKKK 031000Z 34004MPS 300V030 CAVOK 25/12 Q1016 R26/CLRD70 NOSIG"
"1:30 PM EEST on September 03, 2016","2016","09","03","13","30","Europe/Kiev","10:30 AM GMT on September 03, 2016","2016","09","03","10","30","UTC","24.0","75.2","12.0","53.6","47","10.8","6.7","-9999.0","-9999.0","340","NNW","-9999.0","-9999.0","1016","30.01","-999","-999","-9999","-9999","-9999.00","-9999.00","Clear","clear","0","0","0","0","0","0","METAR UKKK 031030Z 34003MPS 290V050 CAVOK 24/12 Q1016 R26/CLRD70 NOSIG"
"2:00 PM EEST on September 03, 2016","2016","09","03","14","00","Europe/Kiev","11:00 AM GMT on September 03, 2016","2016","09","03","11","00","UTC","26.0","78.8","10.0","50.0","36","14.4","8.9","-9999.0","-9999.0","340","NNW","-9999.0","-9999.0","1016","30.01","-999","-999","-9999","-9999","-9999.00","-9999.00","Clear","clear","0","0","0","0","0","0","METAR UKKK 031100Z 34004MPS CAVOK 26/10 Q1016 R26/CLRD70 NOSIG"
"2:30 PM EEST on September 03, 2016","2016","09","03","14","30","Europe/Kiev","11:30 AM GMT on September 03, 2016","2016","09","03","11","30","UTC","26.0","78.8","10.0","50.0","36","14.4","8.9","-9999.0","-9999.0","310","NW","-9999.0","-9999.0","1016","30.01","-999","-999","-9999","-9999","-9999.00","-9999.00","Clear","clear","0","0","0","0","0","0","METAR UKKK 031130Z 31004MPS 270V360 CAVOK 26/10 Q1016 R26/CLRD70 NOSIG"
"3:00 PM EEST on September 03, 2016","2016","09","03","15","00","Europe/Kiev","12:00 PM GMT on September 03, 2016","2016","09","03","12","00","UTC","25","76","12","53","34","7.2","4.5","","","70","ENE","20","12","1015","29.99","-999","-999","-9999","-9999","","","Partly Cloudy","partlycloudy","0","0","0","0","0","0","AAXX 03121 33345 32598 60702 10246 20116 39962 40154 58006 84941 555 10041"
"3:00 PM EEST on September 03, 2016","2016","09","03","15","00","Europe/Kiev","12:00 PM GMT on September 03, 2016","2016","09","03","12","00","UTC","26.0","78.8","10.0","50.0","36","10.8","6.7","32.4","20.1","330","NNW","-9999.0","-9999.0","1016","30.01","-999","-999","-9999","-9999","-9999.00","-9999.00","Clear","clear","0","0","0","0","0","0","METAR UKKK 031200Z 33003G09MPS 270V020 CAVOK 26/10 Q1016 R26/CLRD70 NOSIG"
"3:30 PM EEST on September 03, 2016","2016","09","03","15","30","Europe/Kiev","12:30 PM GMT on September 03, 2016","2016","09","03","12","30","UTC","26.0","78.8","10.0","50.0","36","21.6","13.4","-9999.0","-9999.0","320","NW","-9999.0","-9999.0","1016","30.01","-999","-999","-9999","-9999","-9999.00","-9999.00","Clear","clear","0","0","0","0","0","0","METAR UKKK 031230Z 32006MPS 280V360 CAVOK 26/10 Q1016 R26/CLRD70 NOSIG"
"4:00 PM EEST on September 03, 2016","2016","09","03","16","00","Europe/Kiev","1:00 PM GMT on September 03, 2016","2016","09","03","13","00","UTC","26.0","78.8","9.0","48.2","34","14.4","8.9","-9999.0","-9999.0","330","NNW","-9999.0","-9999.0","1016","30.01","-999","-999","-9999","-9999","-9999.00","-9999.00","Clear","clear","0","0","0","0","0","0","METAR UKKK 031300Z 33004MPS 290V020 CAVOK 26/09 Q1016 R26/CLRD70 NOSIG"
"4:30 PM EEST on September 03, 2016","2016","09","03","16","30","Europe/Kiev","1:30 PM GMT on September 03, 2016","2016","09","03","13","30","UTC","25.0","77.0","9.0","48.2","36","14.4","8.9","-9999.0","-9999.0","290","WNW","-9999.0","-9999.0","1016","30.01","-999","-999","-9999","-9999","-9999.00","-9999.00","Clear","clear","0","0","0","0","0","0","METAR UKKK 031330Z 29004MPS 260V330 CAVOK 25/09 Q1016 R26/CLRD70 NOSIG"
"5:00 PM EEST on September 03, 2016","2016","09","03","17","00","Europe/Kiev","2:00 PM GMT on September 03, 2016","2016","09","03","14","00","UTC","25.0","77.0","9.0","48.2","36","18.0","11.2","-9999.0","-9999.0","290","WNW","-9999.0","-9999.0","1016","30.01","-999","-999","-9999","-9999","-9999.00","-9999.00","Clear","clear","0","0","0","0","0","0","METAR UKKK 031400Z 29005MPS CAVOK 25/09 Q1016 R26/CLRD70 NOSIG"
"5:30 PM EEST on September 03, 2016","2016","09","03","17","30","Europe/Kiev","2:30 PM GMT on September 03, 2016","2016","09","03","14","30","UTC","25.0","77.0","9.0","48.2","36","21.6","13.4","-9999.0","-9999.0","310","NW","-9999.0","-9999.0","1016","30.01","-999","-999","-9999","-9999","-9999.00","-9999.00","Clear","clear","0","0","0","0","0","0","METAR UKKK 031430Z 31006MPS CAVOK 25/09 Q1016 R26/CLRD70 NOSIG"
"6:00 PM EEST on September 03, 2016","2016","09","03","18","00","Europe/Kiev","3:00 PM GMT on September 03, 2016","2016","09","03","15","00","UTC","24","76","8","46","24","7.2","4.5","","","340","NNW","20","12","1015","29.98","-999","-999","-9999","-9999","","","Scattered Clouds","partlycloudy","0","0","0","0","0","0","AAXX 03151 33345 42998 63402 10243 20080 39960 40152 57002 82085 555 10029"
"6:00 PM EEST on September 03, 2016","2016","09","03","18","00","Europe/Kiev","3:00 PM GMT on September 03, 2016","2016","09","03","15","00","UTC","24.0","75.2","8.0","46.4","36","10.8","6.7","-9999.0","-9999.0","320","NW","-9999.0","-9999.0","1016","30.01","-999","-999","-9999","-9999","-9999.00","-9999.00","Clear","clear","0","0","0","0","0","0","METAR UKKK 031500Z 32003MPS 300V010 CAVOK 24/08 Q1016 R26/CLRD70 NOSIG"
"6:30 PM EEST on September 03, 2016","2016","09","03","18","30","Europe/Kiev","3:30 PM GMT on September 03, 2016","2016","09","03","15","30","UTC","24.0","75.2","9.0","48.2","38","18.0","11.2","-9999.0","-9999.0","320","NW","9.0","5.6","1016","30.01","-999","-999","-9999","-9999","-9999.00","-9999.00","Unknown","unknown","0","0","0","0","0","0","METAR UKKK 031530Z 32005MPS 9000 NSC 24/09 Q1016 R26/CLRD70 NOSIG"
"7:00 PM EEST on September 03, 2016","2016","09","03","19","00","Europe/Kiev","4:00 PM GMT on September 03, 2016","2016","09","03","16","00","UTC","23.0","73.4","9.0","48.2","41","10.8","6.7","-9999.0","-9999.0","330","NNW","-9999.0","-9999.0","1016","30.01","-999","-999","-9999","-9999","-9999.00","-9999.00","Clear","clear","0","0","0","0","0","0","METAR UKKK 031600Z 33003MPS CAVOK 23/09 Q1016 R26/CLRD70 NOSIG"
"7:30 PM EEST on September 03, 2016","2016","09","03","19","30","Europe/Kiev","4:30 PM GMT on September 03, 2016","2016","09","03","16","30","UTC","22.0","71.6","9.0","48.2","43","10.8","6.7","-9999.0","-9999.0","320","NW","-9999.0","-9999.0","1016","30.01","-999","-999","-9999","-9999","-9999.00","-9999.00","Clear","clear","0","0","0","0","0","0","METAR UKKK 031630Z 32003MPS CAVOK 22/09 Q1016 R26/CLRD70 NOSIG"
"8:00 PM EEST on September 03, 2016","2016","09","03","20","00","Europe/Kiev","5:00 PM GMT on September 03, 2016","2016","09","03","17","00","UTC","20.0","68.0","9.0","48.2","49","10.8","6.7","-9999.0","-9999.0","330","NNW","-9999.0","-9999.0","1016","30.01","-999","-999","-9999","-9999","-9999.00","-9999.00","Clear","clear","0","0","0","0","0","0","METAR UKKK 031700Z 33003MPS CAVOK 20/09 Q1016 R26/CLRD70 NOSIG"
"8:30 PM EEST on September 03, 2016","2016","09","03","20","30","Europe/Kiev","5:30 PM GMT on September 03, 2016","2016","09","03","17","30","UTC","21.0","69.8","9.0","48.2","46","7.2","4.5","-9999.0","-9999.0","330","NNW","-9999.0","-9999.0","1016","30.01","-999","-999","-9999","-9999","-9999.00","-9999.00","Clear","clear","0","0","0","0","0","0","METAR UKKK 031730Z 33002MPS CAVOK 21/09 Q1016 R26/CLRD70 NOSIG"
"9:00 PM EEST on September 03, 2016","2016","09","03","21","00","Europe/Kiev","6:00 PM GMT on September 03, 2016","2016","09","03","18","00","UTC","20","68","10","50","41","3.6","2.2","","","330","NNW","20","12","1016","30.01","-999","-999","-9999","-9999","","","Clear","clear","0","0","0","0","0","0","AAXX 03181 33345 32998 33301 10200 20098 39968 40163 53008 80004 333 10259 555 10018"
"9:00 PM EEST on September 03, 2016","2016","09","03","21","00","Europe/Kiev","6:00 PM GMT on September 03, 2016","2016","09","03","18","00","UTC","20.0","68.0","9.0","48.2","49","10.8","6.7","-9999.0","-9999.0","320","NW","-9999.0","-9999.0","1016","30.01","-999","-999","-9999","-9999","-9999.00","-9999.00","Clear","clear","0","0","0","0","0","0","METAR UKKK 031800Z 32003MPS CAVOK 20/09 Q1016 R26/CLRD70 NOSIG"
"9:30 PM EEST on September 03, 2016","2016","09","03","21","30","Europe/Kiev","6:30 PM GMT on September 03, 2016","2016","09","03","18","30","UTC","17.0","62.6","10.0","50.0","63","7.2","4.5","-9999.0","-9999.0","330","NNW","9.0","5.6","1016","30.01","-999","-999","-9999","-9999","-9999.00","-9999.00","Unknown","unknown","0","0","0","0","0","0","METAR UKKK 031830Z 33002MPS 9000 NSC 17/10 Q1016 R26/CLRD70 NOSIG"
"10:00 PM EEST on September 03, 2016","2016","09","03","22","00","Europe/Kiev","7:00 PM GMT on September 03, 2016","2016","09","03","19","00","UTC","15.0","59.0","10.0","50.0","72","3.6","2.2","-9999.0","-9999.0","290","WNW","7.0","4.3","1017","30.04","-999","-999","-9999","-9999","-9999.00","-9999.00","Unknown","unknown","0","0","0","0","0","0","METAR UKKK 031900Z 29001MPS 7000 NSC 15/10 Q1017 R26/CLRD70 NOSIG"
"10:30 PM EEST on September 03, 2016","2016","09","03","22","30","Europe/Kiev","7:30 PM GMT on September 03, 2016","2016","09","03","19","30","UTC","14.0","57.2","11.0","51.8","82","3.6","2.2","-9999.0","-9999.0","300","WNW","7.0","4.3","1017","30.04","-999","-999","-9999","-9999","-9999.00","-9999.00","Unknown","unknown","0","0","0","0","0","0","METAR UKKK 031930Z 30001MPS 7000 NSC 14/11 Q1017 R26/CLRD70 NOSIG"
"11:00 PM EEST on September 03, 2016","2016","09","03","23","00","Europe/Kiev","8:00 PM GMT on September 03, 2016","2016","09","03","20","00","UTC","13.0","55.4","11.0","51.8","88","3.6","2.2","-9999.0","-9999.0","230","SW","7.0","4.3","1017","30.04","-999","-999","-9999","-9999","-9999.00","-9999.00","Unknown","unknown","0","0","0","0","0","0","METAR UKKK 032000Z 23001MPS 7000 NSC 13/11 Q1017 R08/CLRD70 NOSIG"
"11:30 PM EEST on September 03, 2016","2016","09","03","23","30","Europe/Kiev","8:30 PM GMT on September 03, 2016","2016","09","03","20","30","UTC","13.0","55.4","11.0","51.8","88","0.0","0.0","-9999.0","-9999.0","0","North","5.0","3.1","1017","30.04","-999","-999","-9999","-9999","-9999.00","-9999.00","Mist","hazy","0","0","0","0","0","0","METAR UKKK 032030Z 00000MPS 5000 BR NSC 13/11 Q1017 R08/CLRD70 NOSIG"
"12:00 AM EEST on September 04, 2016","2016","09","04","00","00","Europe/Kiev","9:00 PM GMT on September 03, 2016","2016","09","03","21","00","UTC","18","64","10","49","48","0.0","0.0","","","","","20","12","1017","30.03","-999","-999","-9999","-9999","","","Clear","clear","0","0","0","0","0","0","AAXX 03211 33345 42998 30000 10177 20095 39971 40168 52003 80002 555 10015"
"12:00 AM EEST on September 04, 2016","2016","09","04","00","00","Europe/Kiev","9:00 PM GMT on September 03, 2016","2016","09","03","21","00","UTC","13.0","55.4","10.0","50.0","82","0.0","0.0","-9999.0","-9999.0","0","North","7.0","4.3","1017","30.04","-999","-999","-9999","-9999","-9999.00","-9999.00","Unknown","unknown","0","0","0","0","0","0","METAR UKKK 032100Z 00000MPS 7000 NSC 13/10 Q1017 R08/CLRD70 NOSIG"
"12:30 AM EEST on September 04, 2016","2016","09","04","00","30","Europe/Kiev","9:30 PM GMT on September 03, 2016","2016","09","03","21","30","UTC","12.0","53.6","11.0","51.8","94","7.2","4.5","-9999.0","-9999.0","260","West","6.0","3.7","1017","30.04","-999","-999","-9999","-9999","-9999.00","-9999.00","Unknown","unknown","0","0","0","0","0","0","METAR UKKK 032130Z 26002MPS 6000 NSC 12/11 Q1017 R26/CLRD70 NOSIG"
"1:00 AM EEST on September 04, 2016","2016","09","04","01","00","Europe/Kiev","10:00 PM GMT on September 03, 2016","2016","09","03","22","00","UTC","12.0","53.6","10.0","50.0","88","3.6","2.2","-9999.0","-9999.0","0","Variable","8.0","5.0","1017","30.04","-999","-999","-9999","-9999","-9999.00","-9999.00","Unknown","unknown","0","0","0","0","0","0","METAR UKKK 032200Z VRB01MPS 8000 NSC 12/10 Q1017 R26/CLRD70 NOSIG"
"1:30 AM EEST on September 04, 2016","2016","09","04","01","30","Europe/Kiev","10:30 PM GMT on September 03, 2016","2016","09","03","22","30","UTC","12.0","53.6","10.0","50.0","88","7.2","4.5","-9999.0","-9999.0","250","WSW","9.0","5.6","1017","30.04","-999","-999","-9999","-9999","-9999.00","-9999.00","Unknown","unknown","0","0","0","0","0","0","METAR UKKK 032230Z 25002MPS 9000 NSC 12/10 Q1017 R26/CLRD70 NOSIG"
"2:00 AM EEST on September 04, 2016","2016","09","04","02","00","Europe/Kiev","11:00 PM GMT on September 03, 2016","2016","09","03","23","00","UTC","11.0","51.8","10.0","50.0","94","7.2","4.5","-9999.0","-9999.0","250","WSW","8.0","5.0","1017","30.04","-999","-999","-9999","-9999","-9999.00","-9999.00","Unknown","unknown","0","0","0","0","0","0","METAR UKKK 032300Z 25002MPS 8000 NSC 11/10 Q1017 R26/CLRD70 NOSIG"
"2:30 AM EEST on September 04, 2016","2016","09","04","02","30","Europe/Kiev","11:30 PM GMT on September 03, 2016","2016","09","03","23","30","UTC","11.0","51.8","10.0","50.0","94","7.2","4.5","-9999.0","-9999.0","260","West","7.0","4.3","1017","30.04","-999","-999","-9999","-9999","-9999.00","-9999.00","Unknown","unknown","0","0","0","0","0","0","METAR UKKK 032330Z 26002MPS 7000 NSC 11/10 Q1017 R26/CLRD70 NOSIG"
"3:00 AM EEST on September 04, 2016","2016","09","04","03","00","Europe/Kiev","12:00 AM GMT on September 04, 2016","2016","09","04","00","00","UTC","16","61","10","50","57","3.6","2.2","","","310","NW","20","12","1017","30.03","-999","-999","-9999","-9999","","","","","0","0","0","0","0","0","AAXX 04001 33345 32998 03101 10163 20098 39970 40168 58001 555 10013"
"3:00 AM EEST on September 04, 2016","2016","09","04","03","00","Europe/Kiev","12:00 AM GMT on September 04, 2016","2016","09","04","00","00","UTC","11.0","51.8","10.0","50.0","94","7.2","4.5","-9999.0","-9999.0","250","WSW","8.0","5.0","1017","30.04","-999","-999","-9999","-9999","-9999.00","-9999.00","Unknown","unknown","0","0","0","0","0","0","METAR UKKK 040000Z 25002MPS 8000 NSC 11/10 Q1017 R26/CLRD70 NOSIG"
"3:30 AM EEST on September 04, 2016","2016","09","04","03","30","Europe/Kiev","12:30 AM GMT on September 04, 2016","2016","09","04","00","30","UTC","11.0","51.8","10.0","50.0","94","7.2","4.5","-9999.0","-9999.0","240","WSW","7.0","4.3","1017","30.04","-999","-999","-9999","-9999","-9999.00","-9999.00","Unknown","unknown","0","0","0","0","0","0","METAR UKKK 040030Z 24002MPS 7000 NSC 11/10 Q1017 R26/CLRD70 NOSIG"
"4:00 AM EEST on September 04, 2016","2016","09","04","04","00","Europe/Kiev","1:00 AM GMT on September 04, 2016","2016","09","04","01","00","UTC","11.0","51.8","10.0","50.0","94","7.2","4.5","-9999.0","-9999.0","240","WSW","8.0","5.0","1017","30.04","-999","-999","-9999","-9999","-9999.00","-9999.00","Unknown","unknown","0","0","0","0","0","0","METAR UKKK 040100Z 24002MPS 8000 NSC 11/10 Q1017 R26/CLRD70 NOSIG"
"4:30 AM EEST on September 04, 2016","2016","09","04","04","30","Europe/Kiev","1:30 AM GMT on September 04, 2016","2016","09","04","01","30","UTC","11.0","51.8","10.0","50.0","94","7.2","4.5","-9999.0","-9999.0","270","West","9.0","5.6","1017","30.04","-999","-999","-9999","-9999","-9999.00","-9999.00","Unknown","unknown","0","0","0","0","0","0","METAR UKKK 040130Z 27002MPS 9000 NSC 11/10 Q1017 R26/CLRD70 NOSIG"
"5:00 AM EEST on September 04, 2016","2016","09","04","05","00","Europe/Kiev","2:00 AM GMT on September 04, 2016","2016","09","04","02","00","UTC","11.0","51.8","10.0","50.0","94","7.2","4.5","-9999.0","-9999.0","230","SW","9.0","5.6","1016","30.01","-999","-999","-9999","-9999","-9999.00","-9999.00","Unknown","unknown","0","0","0","0","0","0","METAR UKKK 040200Z 23002MPS 9000 NSC 11/10 Q1016 R26/CLRD70 NOSIG"
"5:30 AM EEST on September 04, 2016","2016","09","04","05","30","Europe/Kiev","2:30 AM GMT on September 04, 2016","2016","09","04","02","30","UTC","10.0","50.0","10.0","50.0","100","7.2","4.5","-9999.0","-9999.0","260","West","9.0","5.6","1016","30.01","-999","-999","-9999","-9999","-9999.00","-9999.00","Unknown","unknown","0","0","0","0","0","0","METAR UKKK 040230Z 26002MPS 9000 NSC 10/10 Q1016 R26/CLRD70 NOSIG"
"6:00 AM EEST on September 04, 2016","2016","09","04","06","00","Europe/Kiev","3:00 AM GMT on September 04, 2016","2016","09","04","03","00","UTC","14","57","10","50","70","3.6","2.2","","","300","WNW","20","12","1017","30.03","-999","-999","-9999","-9999","","","Scattered Clouds","partlycloudy","0","0","0","0","0","0","AAXX 04031 33345 42998 43001 10138 20099 39968 40167 57002 82032 555 10012"
"6:00 AM EEST on September 04, 2016","2016","09","04","06","00","Europe/Kiev","3:00 AM GMT on September 04, 2016","2016","09","04","03","00","UTC","10.0","50.0","9.0","48.2","94","7.2","4.5","-9999.0","-9999.0","250","WSW","9.0","5.6","1016","30.01","-999","-999","-9999","-9999","-9999.00","-9999.00","Unknown","unknown","0","0","0","0","0","0","METAR UKKK 040300Z 25002MPS 9000 NSC 10/09 Q1016 R26/CLRD70 NOSIG"
"6:30 AM EEST on September 04, 2016","2016","09","04","06","30","Europe/Kiev","3:30 AM GMT on September 04, 2016","2016","09","04","03","30","UTC","11.0","51.8","10.0","50.0","94","7.2","4.5","-9999.0","-9999.0","250","WSW","9.0","5.6","1017","30.04","-999","-999","-9999","-9999","-9999.00","-9999.00","Unknown","unknown","0","0","0","0","0","0","METAR UKKK 040330Z 25002MPS 9000 NSC 11/10 Q1017 R26/CLRD70 NOSIG"
"7:00 AM EEST on September 04, 2016","2016","09","04","07","00","Europe/Kiev","4:00 AM GMT on September 04, 2016","2016","09","04","04","00","UTC","11.0","51.8","10.0","50.0","94","7.2","4.5","-9999.0","-9999.0","250","WSW","-9999.0","-9999.0","1017","30.04","-999","-999","-9999","-9999","-9999.00","-9999.00","Clear","clear","0","0","0","0","0","0","METAR UKKK 040400Z 25002MPS CAVOK 11/10 Q1017 R26/CLRD70 NOSIG"
"7:30 AM EEST on September 04, 2016","2016","09","04","07","30","Europe/Kiev","4:30 AM GMT on September 04, 2016","2016","09","04","04","30","UTC","14.0","57.2","10.0","50.0","77","7.2","4.5","-9999.0","-9999.0","230","SW","9.0","5.6","1017","30.04","-999","-999","-9999","-9999","-9999.00","-9999.00","Unknown","unknown","0","0","0","0","0","0","METAR UKKK 040430Z 23002MPS 9000 NSC 14/10 Q1017 R26/CLRD70 NOSIG"
"8:00 AM EEST on September 04, 2016","2016","09","04","08","00","Europe/Kiev","5:00 AM GMT on September 04, 2016","2016","09","04","05","00","UTC","15.0","59.0","12.0","53.6","82","3.6","2.2","-9999.0","-9999.0","0","Variable","6.0","3.7","1017","30.04","-999","-999","-9999","-9999","-9999.00","-9999.00","Unknown","unknown","0","0","0","0","0","0","METAR UKKK 040500Z VRB01MPS 6000 NSC 15/12 Q1017 R26/CLRD70 NOSIG"
"8:30 AM EEST on September 04, 2016","2016","09","04","08","30","Europe/Kiev","5:30 AM GMT on September 04, 2016","2016","09","04","05","30","UTC","17.0","62.6","12.0","53.6","72","7.2","4.5","-9999.0","-9999.0","260","West","-9999.0","-9999.0","1017","30.04","-999","-999","-9999","-9999","-9999.00","-9999.00","Clear","clear","0","0","0","0","0","0","METAR UKKK 040530Z 26002MPS CAVOK 17/12 Q1017 R26/CLRD70 NOSIG"
"9:00 AM EEST on September 04, 2016","2016","09","04","09","00","Europe/Kiev","6:00 AM GMT on September 04, 2016","2016","09","04","06","00","UTC","20","68","11","52","46","3.6","2.2","","","260","West","20","12","1017","30.02","-999","-999","-9999","-9999","","","Clear","clear","0","0","0","0","0","0","AAXX 04061 33345 32998 72601 10199 20110 39971 40166 53003 80005 333 20137 555 10023"
"9:00 AM EEST on September 04, 2016","2016","09","04","09","00","Europe/Kiev","6:00 AM GMT on September 04, 2016","2016","09","04","06","00","UTC","19.0","66.2","11.0","51.8","60","7.2","4.5","-9999.0","-9999.0","250","WSW","-9999.0","-9999.0","1017","30.04","-999","-999","-9999","-9999","-9999.00","-9999.00","Clear","clear","0","0","0","0","0","0","METAR UKKK 040600Z 25002MPS CAVOK 19/11 Q1017 R26/CLRD70 NOSIG"
"9:30 AM EEST on September 04, 2016","2016","09","04","09","30","Europe/Kiev","6:30 AM GMT on September 04, 2016","2016","09","04","06","30","UTC","20.0","68.0","11.0","51.8","56","10.8","6.7","-9999.0","-9999.0","250","WSW","-9999.0","-9999.0","1017","30.04","-999","-999","-9999","-9999","-9999.00","-9999.00","Clear","clear","0","0","0","0","0","0","METAR UKKK 040630Z 25003MPS 210V270 CAVOK 20/11 Q1017 R26/CLRD70 NOSIG"
"10:00 AM EEST on September 04, 2016","2016","09","04","10","00","Europe/Kiev","7:00 AM GMT on September 04, 2016","2016","09","04","07","00","UTC","21.0","69.8","12.0","53.6","56","10.8","6.7","-9999.0","-9999.0","250","WSW","-9999.0","-9999.0","1017","30.04","-999","-999","-9999","-9999","-9999.00","-9999.00","Clear","clear","0","0","0","0","0","0","METAR UKKK 040700Z 25003MPS 210V270 CAVOK 21/12 Q1017 R26/CLRD70 NOSIG"
"10:30 AM EEST on September 04, 2016","2016","09","04","10","30","Europe/Kiev","7:30 AM GMT on September 04, 2016","2016","09","04","07","30","UTC","22.0","71.6","11.0","51.8","50","14.4","8.9","-9999.0","-9999.0","260","West","-9999.0","-9999.0","1017","30.04","-999","-999","-9999","-9999","-9999.00","-9999.00","Clear","clear","0","0","0","0","0","0","METAR UKKK 040730Z 26004MPS CAVOK 22/11 Q1017 R26/CLRD70 NOSIG"
"11:00 AM EEST on September 04, 2016","2016","09","04","11","00","Europe/Kiev","8:00 AM GMT on September 04, 2016","2016","09","04","08","00","UTC","23.0","73.4","12.0","53.6","50","14.4","8.9","-9999.0","-9999.0","250","WSW","-9999.0","-9999.0","1017","30.04","-999","-999","-9999","-9999","-9999.00","-9999.00","Clear","clear","0","0","0","0","0","0","METAR UKKK 040800Z 25004MPS 220V280 CAVOK 23/12 Q1017 R26/CLRD70 NOSIG"
"11:30 AM EEST on September 04, 2016","2016","09","04","11","30","Europe/Kiev","8:30 AM GMT on September 04, 2016","2016","09","04","08","30","UTC","24.0","75.2","12.0","53.6","47","14.4","8.9","-9999.0","-9999.0","240","WSW","-9999.0","-9999.0","1016","30.01","-999","-999","-9999","-9999","-9999.00","-9999.00","Clear","clear","0","0","0","0","0","0","METAR UKKK 040830Z 24004MPS 200V290 CAVOK 24/12 Q1016 R26/CLRD70 NOSIG"
"12:00 PM EEST on September 04, 2016","2016","09","04","12","00","Europe/Kiev","9:00 AM GMT on September 04, 2016","2016","09","04","09","00","UTC","25","76","11","51","31","14.4","8.9","","","260","West","20","12","1016","29.99","-999","-999","-9999","-9999","","","Clear","clear","0","0","0","0","0","0","AAXX 04091 33345 42998 72604 10246 20107 39964 40156 58007 80009 555 10037"
"12:00 PM EEST on September 04, 2016","2016","09","04","12","00","Europe/Kiev","9:00 AM GMT on September 04, 2016","2016","09","04","09","00","UTC","25.0","77.0","12.0","53.6","44","14.4","8.9","-9999.0","-9999.0","260","West","-9999.0","-9999.0","1016","30.01","-999","-999","-9999","-9999","-9999.00","-9999.00","Clear","clear","0","0","0","0","0","0","METAR UKKK 040900Z 26004MPS 220V300 CAVOK 25/12 Q1016 R26/70D NOSIG"
"12:30 PM EEST on September 04, 2016","2016","09","04","12","30","Europe/Kiev","9:30 AM GMT on September 04, 2016","2016","09","04","09","30","UTC","25.0","77.0","11.0","51.8","41","14.4","8.9","-9999.0","-9999.0","250","WSW","-9999.0","-9999.0","1016","30.01","-999","-999","-9999","-9999","-9999.00","-9999.00","Clear","clear","0","0","0","0","0","0","METAR UKKK 040930Z 25004MPS CAVOK 25/11 Q1016 R26/CLRD70 NOSIG"
"1:00 PM EEST on September 04, 2016","2016","09","04","13","00","Europe/Kiev","10:00 AM GMT on September 04, 2016","2016","09","04","10","00","UTC","25.0","77.0","12.0","53.6","44","18.0","11.2","-9999.0","-9999.0","260","West","-9999.0","-9999.0","1016","30.01","-999","-999","-9999","-9999","-9999.00","-9999.00","Clear","clear","0","0","0","0","0","0","METAR UKKK 041000Z 26005MPS 220V290 CAVOK 25/12 Q1016 R26/CLRD70 NOSIG"
"1:30 PM EEST on September 04, 2016","2016","09","04","13","30","Europe/Kiev","10:30 AM GMT on September 04, 2016","2016","09","04","10","30","UTC","26.0","78.8","12.0","53.6","42","18.0","11.2","-9999.0","-9999.0","240","WSW","-9999.0","-9999.0","1016","30.01","-999","-999","-9999","-9999","-9999.00","-9999.00","Clear","clear","0","0","0","0","0","0","METAR UKKK 041030Z 24005MPS 220V280 CAVOK 26/12 Q1016 R26/CLRD70 NOSIG"
"2:00 PM EEST on September 04, 2016","2016","09","04","14","00","Europe/Kiev","11:00 AM GMT on September 04, 2016","2016","09","04","11","00","UTC","26.0","78.8","12.0","53.6","42","18.0","11.2","-9999.0","-9999.0","230","SW","-9999.0","-9999.0","1015","29.98","-999","-999","-9999","-9999","-9999.00","-9999.00","Clear","clear","0","0","0","0","0","0","METAR UKKK 041100Z 23005MPS 200V270 CAVOK 26/12 Q1015 R26/CLRD70 NOSIG"
"2:30 PM EEST on September 04, 2016","2016","09","04","14","30","Europe/Kiev","11:30 AM GMT on September 04, 2016","2016","09","04","11","30","UTC","26.0","78.8","12.0","53.6","42","18.0","11.2","-9999.0","-9999.0","240","WSW","-9999.0","-9999.0","1015","29.98","-999","-999","-9999","-9999","-9999.00","-9999.00","Clear","clear","0","0","0","0","0","0","METAR UKKK 041130Z 24005MPS 210V300 CAVOK 26/12 Q1015 R26/CLRD70 NOSIG"
"3:00 PM EEST on September 04, 2016","2016","09","04","15","00","Europe/Kiev","12:00 PM GMT on September 04, 2016","2016","09","04","12","00","UTC","27","81","10","50","23","14.4","8.9","","","260","West","20","12","1014","29.95","-999","-999","-9999","-9999","","","Scattered Clouds","partlycloudy","0","0","0","0","0","0","AAXX 04121 33345 32598 62604 10272 20099 39951 40141 57013 81109 555 10041"
"3:00 PM EEST on September 04, 2016","2016","09","04","15","00","Europe/Kiev","12:00 PM GMT on September 04, 2016","2016","09","04","12","00","UTC","27.0","80.6","11.0","51.8","37","21.6","13.4","-9999.0","-9999.0","260","West","-9999.0","-9999.0","1015","29.98","-999","-999","-9999","-9999","-9999.00","-9999.00","Clear","clear","0","0","0","0","0","0","METAR UKKK 041200Z 26006MPS 230V290 CAVOK 27/11 Q1015 R26/CLRD70 NOSIG"
"3:30 PM EEST on September 04, 2016","2016","09","04","15","30","Europe/Kiev","12:30 PM GMT on September 04, 2016","2016","09","04","12","30","UTC","27.0","80.6","10.0","50.0","34","14.4","8.9","-9999.0","-9999.0","250","WSW","-9999.0","-9999.0","1015","29.98","-999","-999","-9999","-9999","-9999.00","-9999.00","Clear","clear","0","0","0","0","0","0","METAR UKKK 041230Z 25004MPS 210V280 CAVOK 27/10 Q1015 R26/CLRD70 NOSIG"
"4:00 PM EEST on September 04, 2016","2016","09","04","16","00","Europe/Kiev","1:00 PM GMT on September 04, 2016","2016","09","04","13","00","UTC","26.0","78.8","10.0","50.0","36","14.4","8.9","-9999.0","-9999.0","240","WSW","-9999.0","-9999.0","1014","29.95","-999","-999","-9999","-9999","-9999.00","-9999.00","Clear","clear","0","0","0","0","0","0","METAR UKKK 041300Z 24004MPS 180V280 CAVOK 26/10 Q1014 R26/CLRD70 NOSIG"
"4:30 PM EEST on September 04, 2016","2016","09","04","16","30","Europe/Kiev","1:30 PM GMT on September 04, 2016","2016","09","04","13","30","UTC","26.0","78.8","10.0","50.0","36","18.0","11.2","-9999.0","-9999.0","260","West","-9999.0","-9999.0","1014","29.95","-999","-999","-9999","-9999","-9999.00","-9999.00","Clear","clear","0","0","0","0","0","0","METAR UKKK 041330Z 26005MPS 220V290 CAVOK 26/10 Q1014 R26/CLRD70 NOSIG"
"5:00 PM EEST on September 04, 2016","2016","09","04","17","00","Europe/Kiev","2:00 PM GMT on September 04, 2016","2016","09","04","14","00","UTC","27.0","80.6","11.0","51.8","37","18.0","11.2","-9999.0","-9999.0","250","WSW","-9999.0","-9999.0","1014","29.95","-999","-999","-9999","-9999","-9999.00","-9999.00","Clear","clear","0","0","0","0","0","0","METAR UKKK 041400Z 25005MPS 220V300 CAVOK 27/11 Q1014 R26/CLRD70 NOSIG"
"5:30 PM EEST on September 04, 2016","2016","09","04","17","30","Europe/Kiev","2:30 PM GMT on September 04, 2016","2016","09","04","14","30","UTC","26.0","78.8","10.0","50.0","36","14.4","8.9","-9999.0","-9999.0","240","WSW","-9999.0","-9999.0","1014","29.95","-999","-999","-9999","-9999","-9999.00","-9999.00","Clear","clear","0","0","0","0","0","0","METAR UKKK 041430Z 24004MPS 210V270 CAVOK 26/10 Q1014 R26/CLRD70 NOSIG"
"6:00 PM EEST on September 04, 2016","2016","09","04","18","00","Europe/Kiev","3:00 PM GMT on September 04, 2016","2016","09","04","15","00","UTC","26","79","9","48","23","7.2","4.5","","","260","West","20","12","1013","29.93","-999","-999","-9999","-9999","","","Clear","clear","0","0","0","0","0","0","AAXX 04151 33345 42998 72602 10262 20088 39943 40134 57008 80006 555 10030"
"6:00 PM EEST on September 04, 2016","2016","09","04","18","00","Europe/Kiev","3:00 PM GMT on September 04, 2016","2016","09","04","15","00","UTC","25.0","77.0","10.0","50.0","39","10.8","6.7","-9999.0","-9999.0","250","WSW","-9999.0","-9999.0","1014","29.95","-999","-999","-9999","-9999","-9999.00","-9999.00","Clear","clear","0","0","0","0","0","0","METAR UKKK 041500Z 25003MPS CAVOK 25/10 Q1014 R26/CLRD70 NOSIG"
"6:30 PM EEST on September 04, 2016","2016","09","04","18","30","Europe/Kiev","3:30 PM GMT on September 04, 2016","2016","09","04","15","30","UTC","25.0","77.0","11.0","51.8","41","7.2","4.5","-9999.0","-9999.0","240","WSW","-9999.0","-9999.0","1014","29.95","-999","-999","-9999","-9999","-9999.00","-9999.00","Clear","clear","0","0","0","0","0","0","METAR UKKK 041530Z 24002MPS CAVOK 25/11 Q1014 R26/CLRD70 NOSIG"
"7:00 PM EEST on September 04, 2016","2016","09","04","19","00","Europe/Kiev","4:00 PM GMT on September 04, 2016","2016","09","04","16","00","UTC","24.0","75.2","11.0","51.8","44","7.2","4.5","-9999.0","-9999.0","240","WSW","-9999.0","-9999.0","1014","29.95","-999","-999","-9999","-9999","-9999.00","-9999.00","Clear","clear","0","0","0","0","0","0","METAR UKKK 041600Z 24002MPS CAVOK 24/11 Q1014 R26/CLRD70 NOSIG"
"7:30 PM EEST on September 04, 2016","2016","09","04","19","30","Europe/Kiev","4:30 PM GMT on September 04, 2016","2016","09","04","16","30","UTC","22.0","71.6","11.0","51.8","50","7.2","4.5","-9999.0","-9999.0","210","SSW","-9999.0","-9999.0","1014","29.95","-999","-999","-9999","-9999","-9999.00","-9999.00","Clear","clear","0","0","0","0","0","0","METAR UKKK 041630Z 21002MPS CAVOK 22/11 Q1014 R26/CLRD70 NOSIG"
"8:00 PM EEST on September 04, 2016","2016","09","04","20","00","Europe/Kiev","5:00 PM GMT on September 04, 2016","2016","09","04","17","00","UTC","22.0","71.6","11.0","51.8","50","7.2","4.5","-9999.0","-9999.0","210","SSW","9.0","5.6","1014","29.95","-999","-999","-9999","-9999","-9999.00","-9999.00","Unknown","unknown","0","0","0","0","0","0","METAR UKKK 041700Z 21002MPS 9000 NSC 22/11 Q1014 R26/CLRD70 NOSIG"
"8:30 PM EEST on September 04, 2016","2016","09","04","20","30","Europe/Kiev","5:30 PM GMT on September 04, 2016","2016","09","04","17","30","UTC","19.0","66.2","12.0","53.6","64","3.6","2.2","-9999.0","-9999.0","190","South","9.0","5.6","1014","29.95","-999","-999","-9999","-9999","-9999.00","-9999.00","Unknown","unknown","0","0","0","0","0","0","METAR UKKK 041730Z 19001MPS 9000 NSC 19/12 Q1014 R08/CLRD70 NOSIG"
"9:00 PM EEST on September 04, 2016","2016","09","04","21","00","Europe/Kiev","6:00 PM GMT on September 04, 2016","2016","09","04","18","00","UTC","21","71","9","49","34","7.2","4.5","","","240","WSW","20","12","1013","29.93","-999","-999","-9999","-9999","","","Clear","clear","0","0","0","0","0","0","AAXX 04181 33345 32998 62402 10214 20093 39940 40134 56003 80005 333 10278 555 10018"
"9:00 PM EEST on September 04, 2016","2016","09","04","21","00","Europe/Kiev","6:00 PM GMT on September 04, 2016","2016","09","04","18","00","UTC","20.0","68.0","11.0","51.8","56","7.2","4.5","-9999.0","-9999.0","190","South","-9999.0","-9999.0","1014","29.95","-999","-999","-9999","-9999","-9999.00","-9999.00","Clear","clear","0","0","0","0","0","0","METAR UKKK 041800Z 19002MPS 170V230 CAVOK 20/11 Q1014 R08/CLRD70 NOSIG"
"9:30 PM EEST on September 04, 2016","2016","09","04","21","30","Europe/Kiev","6:30 PM GMT on September 04, 2016","2016","09","04","18","30","UTC","18.0","64.4","11.0","51.8","64","3.6","2.2","-9999.0","-9999.0","0","Variable","-9999.0","-9999.0","1013","29.92","-999","-999","-9999","-9999","-9999.00","-9999.00","Clear","clear","0","0","0","0","0","0","METAR UKKK 041830Z VRB01MPS CAVOK 18/11 Q1013 R08/CLRD70 NOSIG"
"10:00 PM EEST on September 04, 2016","2016","09","04","22","00","Europe/Kiev","7:00 PM GMT on September 04, 2016","2016","09","04","19","00","UTC","17.0","62.6","11.0","51.8","68","3.6","2.2","-9999.0","-9999.0","0","Variable","-9999.0","-9999.0","1013","29.92","-999","-999","-9999","-9999","-9999.00","-9999.00","Clear","clear","0","0","0","0","0","0","METAR UKKK 041900Z VRB01MPS CAVOK 17/11 Q1013 R08/CLRD70 NOSIG"
"10:30 PM EEST on September 04, 2016","2016","09","04","22","30","Europe/Kiev","7:30 PM GMT on September 04, 2016","2016","09","04","19","30","UTC","19.0","66.2","9.0","48.2","52","3.6","2.2","-9999.0","-9999.0","0","Variable","-9999.0","-9999.0","1013","29.92","-999","-999","-9999","-9999","-9999.00","-9999.00","Clear","clear","0","0","0","0","0","0","METAR UKKK 041930Z VRB01MPS CAVOK 19/09 Q1013 R08/CLRD70 NOSIG"
"11:00 PM EEST on September 04, 2016","2016","09","04","23","00","Europe/Kiev","8:00 PM GMT on September 04, 2016","2016","09","04","20","00","UTC","20.0","68.0","9.0","48.2","49","7.2","4.5","-9999.0","-9999.0","200","SSW","-9999.0","-9999.0","1013","29.92","-999","-999","-9999","-9999","-9999.00","-9999.00","Clear","clear","0","0","0","0","0","0","METAR UKKK 042000Z 20002MPS 160V220 CAVOK 20/09 Q1013 R08/CLRD70 NOSIG"
"11:30 PM EEST on September 04, 2016","2016","09","04","23","30","Europe/Kiev","8:30 PM GMT on September 04, 2016","2016","09","04","20","30","UTC","19.0","66.2","9.0","48.2","52","10.8","6.7","-9999.0","-9999.0","210","SSW","-9999.0","-9999.0","1013","29.92","-999","-999","-9999","-9999","-9999.00","-9999.00","Clear","clear","0","0","0","0","0","0","METAR UKKK 042030Z 21003MPS CAVOK 19/09 Q1013 R26/CLRD70 NOSIG"
"12:00 AM EEST on September 05, 2016","2016","09","05","00","00","Europe/Kiev","9:00 PM GMT on September 04, 2016","2016","09","04","21","00","UTC","20","68","9","48","37","7.2","4.5","","","230","SW","20","12","1013","29.91","-999","-999","-9999","-9999","","","Clear","clear","0","0","0","0","0","0","AAXX 04211 33345 42998 22302 10200 20088 39931 40126 58009 80001 555 10016"
"12:00 AM EEST on September 05, 2016","2016","09","05","00","00","Europe/Kiev","9:00 PM GMT on September 04, 2016","2016","09","04","21","00","UTC","19.0","66.2","10.0","50.0","56","10.8","6.7","-9999.0","-9999.0","210","SSW","-9999.0","-9999.0","1013","29.92","-999","-999","-9999","-9999","-9999.00","-9999.00","Clear","clear","0","0","0","0","0","0","METAR UKKK 042100Z 21003MPS 190V250 CAVOK 19/10 Q1013 R26/CLRD70 NOSIG"
"12:30 AM EEST on September 05, 2016","2016","09","05","00","30","Europe/Kiev","9:30 PM GMT on September 04, 2016","2016","09","04","21","30","UTC","18.0","64.4","10.0","50.0","59","10.8","6.7","-9999.0","-9999.0","220","SW","-9999.0","-9999.0","1012","29.89","-999","-999","-9999","-9999","-9999.00","-9999.00","Clear","clear","0","0","0","0","0","0","METAR UKKK 042130Z 22003MPS 190V250 CAVOK 18/10 Q1012 R26/CLRD70 NOSIG"
"1:00 AM EEST on September 05, 2016","2016","09","05","01","00","Europe/Kiev","10:00 PM GMT on September 04, 2016","2016","09","04","22","00","UTC","16.0","60.8","10.0","50.0","68","10.8","6.7","-9999.0","-9999.0","230","SW","-9999.0","-9999.0","1012","29.89","-999","-999","-9999","-9999","-9999.00","-9999.00","Clear","clear","0","0","0","0","0","0","METAR UKKK 042200Z 23003MPS CAVOK 16/10 Q1012 R26/CLRD70 NOSIG"
"1:30 AM EEST on September 05, 2016","2016","09","05","01","30","Europe/Kiev","10:30 PM GMT on September 04, 2016","2016","09","04","22","30","UTC","17.0","62.6","10.0","50.0","63","10.8","6.7","-9999.0","-9999.0","230","SW","-9999.0","-9999.0","1012","29.89","-999","-999","-9999","-9999","-9999.00","-9999.00","Clear","clear","0","0","0","0","0","0","METAR UKKK 042230Z 23003MPS 200V260 CAVOK 17/10 Q1012 R26/CLRD70 NOSIG"
"2:00 AM EEST on September 05, 2016","2016","09","05","02","00","Europe/Kiev","11:00 PM GMT on September 04, 2016","2016","09","04","23","00","UTC","18.0","64.4","10.0","50.0","59","10.8","6.7","-9999.0","-9999.0","220","SW","-9999.0","-9999.0","1012","29.89","-999","-999","-9999","-9999","-9999.00","-9999.00","Clear","clear","0","0","0","0","0","0","METAR UKKK 042300Z 22003MPS CAVOK 18/10 Q1012 R26/CLRD70 NOSIG"
"2:30 AM EEST on September 05, 2016","2016","09","05","02","30","Europe/Kiev","11:30 PM GMT on September 04, 2016","2016","09","04","23","30","UTC","18.0","64.4","10.0","50.0","59","10.8","6.7","-9999.0","-9999.0","230","SW","-9999.0","-9999.0","1012","29.89","-999","-999","-9999","-9999","-9999.00","-9999.00","Clear","clear","0","0","0","0","0","0","METAR UKKK 042330Z 23003MPS CAVOK 18/10 Q1012 R26/CLRD70 NOSIG"
"3:00 AM EEST on September 05, 2016","2016","09","05","03","00","Europe/Kiev","12:00 AM GMT on September 05, 2016","2016","09","05","00","00","UTC","19","66","9","49","43","10.8","6.7","","","250","WSW","20","12","1012","29.88","-999","-999","-9999","-9999","","","Scattered Clouds","partlycloudy","0","0","0","0","0","0","AAXX 05001 33345 32998 22503 10191 20093 39923 40118 57008 82030 555 10016"
"3:00 AM EEST on September 05, 2016","2016","09","05","03","00","Europe/Kiev","12:00 AM GMT on September 05, 2016","2016","09","05","00","00","UTC","17.0","62.6","10.0","50.0","63","10.8","6.7","-9999.0","-9999.0","230","SW","-9999.0","-9999.0","1012","29.89","-999","-999","-9999","-9999","-9999.00","-9999.00","Clear","clear","0","0","0","0","0","0","METAR UKKK 050000Z 23003MPS 200V260 CAVOK 17/10 Q1012 R26/CLRD70 NOSIG"
"3:30 AM EEST on September 05, 2016","2016","09","05","03","30","Europe/Kiev","12:30 AM GMT on September 05, 2016","2016","09","05","00","30","UTC","15.0","59.0","10.0","50.0","72","7.2","4.5","-9999.0","-9999.0","250","WSW","-9999.0","-9999.0","1012","29.89","-999","-999","-9999","-9999","-9999.00","-9999.00","Clear","clear","0","0","0","0","0","0","METAR UKKK 050030Z 25002MPS CAVOK 15/10 Q1012 R26/CLRD70 NOSIG"
"4:00 AM EEST on September 05, 2016","2016","09","05","04","00","Europe/Kiev","1:00 AM GMT on September 05, 2016","2016","09","05","01","00","UTC","17.0","62.6","10.0","50.0","63","10.8","6.7","-9999.0","-9999.0","240","WSW","-9999.0","-9999.0","1012","29.89","-999","-999","-9999","-9999","-9999.00","-9999.00","Clear","clear","0","0","0","0","0","0","METAR UKKK 050100Z 24003MPS CAVOK 17/10 Q1012 R26/CLRD70 NOSIG"
"4:30 AM EEST on September 05, 2016","2016","09","05","04","30","Europe/Kiev","1:30 AM GMT on September 05, 2016","2016","09","05","01","30","UTC","18.0","64.4","10.0","50.0","59","10.8","6.7","-9999.0","-9999.0","230","SW","-9999.0","-9999.0","1012","29.89","-999","-999","-9999","-9999","-9999.00","-9999.00","Clear","clear","0","0","0","0","0","0","METAR UKKK 050130Z 23003MPS CAVOK 18/10 Q1012 R26/CLRD70 NOSIG"
"5:00 AM EEST on September 05, 2016","2016","09","05","05","00","Europe/Kiev","2:00 AM GMT on September 05, 2016","2016","09","05","02","00","UTC","18.0","64.4","10.0","50.0","59","10.8","6.7","-9999.0","-9999.0","230","SW","-9999.0","-9999.0","1011","29.86","-999","-999","-9999","-9999","-9999.00","-9999.00","Clear","clear","0","0","0","0","0","0","METAR UKKK 050200Z 23003MPS CAVOK 18/10 Q1011 R26/CLRD70 NOSIG"
"5:30 AM EEST on September 05, 2016","2016","09","05","05","30","Europe/Kiev","2:30 AM GMT on September 05, 2016","2016","09","05","02","30","UTC","17.0","62.6","10.0","50.0","63","10.8","6.7","-9999.0","-9999.0","220","SW","-9999.0","-9999.0","1011","29.86","-999","-999","-9999","-9999","-9999.00","-9999.00","Clear","clear","0","0","0","0","0","0","METAR UKKK 050230Z 22003MPS 200V260 CAVOK 17/10 Q1011 R26/CLRD70 NOSIG"
"6:00 AM EEST on September 05, 2016","2016","09","05","06","00","Europe/Kiev","3:00 AM GMT on September 05, 2016","2016","09","05","03","00","UTC","18","65","9","49","45","10.8","6.7","","","250","WSW","20","12","1011","29.86","-999","-999","-9999","-9999","","","Clear","clear","0","0","0","0","0","0","AAXX 05031 33345 42998 42503 10182 20093 39917 40112 57006 80005 555 10018"
"6:00 AM EEST on September 05, 2016","2016","09","05","06","00","Europe/Kiev","3:00 AM GMT on September 05, 2016","2016","09","05","03","00","UTC","16.0","60.8","10.0","50.0","68","7.2","4.5","-9999.0","-9999.0","250","WSW","-9999.0","-9999.0","1011","29.86","-999","-999","-9999","-9999","-9999.00","-9999.00","Clear","clear","0","0","0","0","0","0","METAR UKKK 050300Z 25002MPS CAVOK 16/10 Q1011 R26/CLRD70 NOSIG"
"6:30 AM EEST on September 05, 2016","2016","09","05","06","30","Europe/Kiev","3:30 AM GMT on September 05, 2016","2016","09","05","03","30","UTC","17.0","62.6","10.0","50.0","63","10.8","6.7","-9999.0","-9999.0","230","SW","-9999.0","-9999.0","1011","29.86","-999","-999","-9999","-9999","-9999.00","-9999.00","Clear","clear","0","0","0","0","0","0","METAR UKKK 050330Z 23003MPS CAVOK 17/10 Q1011 R26/CLRD70 NOSIG"
"7:00 AM EEST on September 05, 2016","2016","09","05","07","00","Europe/Kiev","4:00 AM GMT on September 05, 2016","2016","09","05","04","00","UTC","17.0","62.6","10.0","50.0","63","10.8","6.7","-9999.0","-9999.0","230","SW","-9999.0","-9999.0","1011","29.86","-999","-999","-9999","-9999","-9999.00","-9999.00","Clear","clear","0","0","0","0","0","0","METAR UKKK 050400Z 23003MPS 200V260 CAVOK 17/10 Q1011 R26/CLRD70 NOSIG"
"7:30 AM EEST on September 05, 2016","2016","09","05","07","30","Europe/Kiev","4:30 AM GMT on September 05, 2016","2016","09","05","04","30","UTC","18.0","64.4","10.0","50.0","59","10.8","6.7","-9999.0","-9999.0","230","SW","-9999.0","-9999.0","1011","29.86","-999","-999","-9999","-9999","-9999.00","-9999.00","Clear","clear","0","0","0","0","0","0","METAR UKKK 050430Z 23003MPS CAVOK 18/10 Q1011 R26/CLRD70 NOSIG"
"8:00 AM EEST on September 05, 2016","2016","09","05","08","00","Europe/Kiev","5:00 AM GMT on September 05, 2016","2016","09","05","05","00","UTC","18.0","64.4","11.0","51.8","64","10.8","6.7","-9999.0","-9999.0","240","WSW","-9999.0","-9999.0","1011","29.86","-999","-999","-9999","-9999","-9999.00","-9999.00","Clear","clear","0","0","0","0","0","0","METAR UKKK 050500Z 24003MPS CAVOK 18/11 Q1011 R26/CLRD70 NOSIG"
"8:30 AM EEST on September 05, 2016","2016","09","05","08","30","Europe/Kiev","5:30 AM GMT on September 05, 2016","2016","09","05","05","30","UTC","19.0","66.2","11.0","51.8","60","10.8","6.7","-9999.0","-9999.0","240","WSW","-9999.0","-9999.0","1011","29.86","-999","-999","-9999","-9999","-9999.00","-9999.00","Clear","clear","0","0","0","0","0","0","METAR UKKK 050530Z 24003MPS CAVOK 19/11 Q1011 R26/CLRD70 NOSIG"
"9:00 AM EEST on September 05, 2016","2016","09","05","09","00","Europe/Kiev","6:00 AM GMT on September 05, 2016","2016","09","05","06","00","UTC","20","68","10","51","43","7.2","4.5","","","230","SW","20","12","1011","29.85","-999","-999","-9999","-9999","","","Clear","clear","0","0","0","0","0","0","AAXX 05061 33345 32998 72302 10198 20104 39914 40108 57003 80009 333 20178 555 10022"
"9:00 AM EEST on September 05, 2016","2016","09","05","09","00","Europe/Kiev","6:00 AM GMT on September 05, 2016","2016","09","05","06","00","UTC","20.0","68.0","11.0","51.8","56","7.2","4.5","-9999.0","-9999.0","230","SW","-9999.0","-9999.0","1011","29.86","-999","-999","-9999","-9999","-9999.00","-9999.00","Clear","clear","0","0","0","0","0","0","METAR UKKK 050600Z 23002MPS CAVOK 20/11 Q1011 R26/CLRD70 NOSIG"
"9:30 AM EEST on September 05, 2016","2016","09","05","09","30","Europe/Kiev","6:30 AM GMT on September 05, 2016","2016","09","05","06","30","UTC","21.0","69.8","11.0","51.8","53","14.4","8.9","-9999.0","-9999.0","230","SW","-9999.0","-9999.0","1011","29.86","-999","-999","-9999","-9999","-9999.00","-9999.00","Clear","clear","0","0","0","0","0","0","METAR UKKK 050630Z 23004MPS CAVOK 21/11 Q1011 R26/CLRD70 NOSIG"
"10:00 AM EEST on September 05, 2016","2016","09","05","10","00","Europe/Kiev","7:00 AM GMT on September 05, 2016","2016","09","05","07","00","UTC","22.0","71.6","11.0","51.8","50","14.4","8.9","-9999.0","-9999.0","220","SW","-9999.0","-9999.0","1010","29.83","-999","-999","-9999","-9999","-9999.00","-9999.00","Clear","clear","0","0","0","0","0","0","METAR UKKK 050700Z 22004MPS 170V250 CAVOK 22/11 Q1010 R26/CLRD70 NOSIG"
"10:30 AM EEST on September 05, 2016","2016","09","05","10","30","Europe/Kiev","7:30 AM GMT on September 05, 2016","2016","09","05","07","30","UTC","24.0","75.2","11.0","51.8","44","18.0","11.2","-9999.0","-9999.0","210","SSW","-9999.0","-9999.0","1010","29.83","-999","-999","-9999","-9999","-9999.00","-9999.00","Clear","clear","0","0","0","0","0","0","METAR UKKK 050730Z 21005MPS CAVOK 24/11 Q1010 R26/CLRD70 NOSIG"
"11:00 AM EEST on September 05, 2016","2016","09","05","11","00","Europe/Kiev","8:00 AM GMT on September 05, 2016","2016","09","05","08","00","UTC","25.0","77.0","12.0","53.6","44","14.4","8.9","-9999.0","-9999.0","220","SW","-9999.0","-9999.0","1010","29.83","-999","-999","-9999","-9999","-9999.00","-9999.00","Clear","clear","0","0","0","0","0","0","METAR UKKK 050800Z 22004MPS 170V250 CAVOK 25/12 Q1010 R26/CLRD70 NOSIG"
"11:30 AM EEST on September 05, 2016","2016","09","05","11","30","Europe/Kiev","8:30 AM GMT on September 05, 2016","2016","09","05","08","30","UTC","26.0","78.8","12.0","53.6","42","18.0","11.2","-9999.0","-9999.0","240","WSW","-9999.0","-9999.0","1010","29.83","-999","-999","-9999","-9999","-9999.00","-9999.00","Clear","clear","0","0","0","0","0","0","METAR UKKK 050830Z 24005MPS 210V270 CAVOK 26/12 Q1010 R26/CLRD70 NOSIG"
"12:00 PM EEST on September 05, 2016","2016","09","05","12","00","Europe/Kiev","9:00 AM GMT on September 05, 2016","2016","09","05","09","00","UTC","27","81","12","53","27","18.0","11.2","","","230","SW","20","12","1009","29.81","-999","-999","-9999","-9999","","","Clear","clear","0","0","0","0","0","0","AAXX 05091 33345 42998 42305 10274 20117 39905 40094 57009 80009 555 10040"
"12:00 PM EEST on September 05, 2016","2016","09","05","12","00","Europe/Kiev","9:00 AM GMT on September 05, 2016","2016","09","05","09","00","UTC","27.0","80.6","13.0","55.4","42","14.4","8.9","-9999.0","-9999.0","230","SW","-9999.0","-9999.0","1010","29.83","-999","-999","27.0","80.5","-9999.00","-9999.00","Clear","clear","0","0","0","0","0","0","METAR UKKK 050900Z 23004MPS 190V250 CAVOK 27/13 Q1010 R26/CLRD70 NOSIG"
"12:30 PM EEST on September 05, 2016","2016","09","05","12","30","Europe/Kiev","9:30 AM GMT on September 05, 2016","2016","09","05","09","30","UTC","28.0","82.4","13.0","55.4","39","18.0","11.2","-9999.0","-9999.0","230","SW","-9999.0","-9999.0","1010","29.83","-999","-999","27.6","81.7","-9999.00","-9999.00","Clear","clear","0","0","0","0","0","0","METAR UKKK 050930Z 23005MPS 180V260 CAVOK 28/13 Q1010 R26/CLRD70 NOSIG"
"1:00 PM EEST on September 05, 2016","2016","09","05","13","00","Europe/Kiev","10:00 AM GMT on September 05, 2016","2016","09","05","10","00","UTC","27.0","80.6","12.0","53.6","39","10.8","6.7","-9999.0","-9999.0","220","SW","-9999.0","-9999.0","1010","29.83","-999","-999","26.8","80.3","-9999.00","-9999.00","Clear","clear","0","0","0","0","0","0","METAR UKKK 051000Z 22003MPS 170V260 CAVOK 27/12 Q1010 R26/CLRD70 NOSIG"
"1:30 PM EEST on September 05, 2016","2016","09","05","13","30","Europe/Kiev","10:30 AM GMT on September 05, 2016","2016","09","05","10","30","UTC","27.0","80.6","12.0","53.6","39","18.0","11.2","-9999.0","-9999.0","240","WSW","-9999.0","-9999.0","1010","29.83","-999","-999","26.8","80.3","-9999.00","-9999.00","Clear","clear","0","0","0","0","0","0","METAR UKKK 051030Z 24005MPS 210V270 CAVOK 27/12 Q1010 R26/CLRD70 NOSIG"
"2:00 PM EEST on September 05, 2016","2016","09","05","14","00","Europe/Kiev","11:00 AM GMT on September 05, 2016","2016","09","05","11","00","UTC","28.0","82.4","13.0","55.4","39","14.4","8.9","-9999.0","-9999.0","240","WSW","-9999.0","-9999.0","1010","29.83","-999","-999","27.6","81.7","-9999.00","-9999.00","Clear","clear","0","0","0","0","0","0","METAR UKKK 051100Z 24004MPS 200V270 CAVOK 28/13 Q1010 R26/CLRD70 NOSIG"
"2:30 PM EEST on September 05, 2016","2016","09","05","14","30","Europe/Kiev","11:30 AM GMT on September 05, 2016","2016","09","05","11","30","UTC","27.0","80.6","12.0","53.6","39","14.4","8.9","-9999.0","-9999.0","250","WSW","-9999.0","-9999.0","1009","29.80","-999","-999","26.8","80.3","-9999.00","-9999.00","Clear","clear","0","0","0","0","0","0","METAR UKKK 051130Z 25004MPS CAVOK 27/12 Q1009 R26/CLRD70 NOSIG"
"3:00 PM EEST on September 05, 2016","2016","09","05","15","00","Europe/Kiev","12:00 PM GMT on September 05, 2016","2016","09","05","12","00","UTC","28","82","12","54","27","10.8","6.7","","","280","West","20","12","1009","29.80","-999","-999","-9999","-9999","","","Partly Cloudy","partlycloudy","0","0","0","0","0","0","AAXX 05121 33345 32998 72803 10280 20121 39900 40089 57005 84075 555 10034"
"3:00 PM EEST on September 05, 2016","2016","09","05","15","00","Europe/Kiev","12:00 PM GMT on September 05, 2016","2016","09","05","12","00","UTC","28.0","82.4","13.0","55.4","39","14.4","8.9","-9999.0","-9999.0","250","WSW","-9999.0","-9999.0","1009","29.80","-999","-999","27.6","81.7","-9999.00","-9999.00","Clear","clear","0","0","0","0","0","0","METAR UKKK 051200Z 25004MPS 220V280 CAVOK 28/13 Q1009 R26/CLRD70 NOSIG"
"3:30 PM EEST on September 05, 2016","2016","09","05","15","30","Europe/Kiev","12:30 PM GMT on September 05, 2016","2016","09","05","12","30","UTC","28.0","82.4","12.0","53.6","37","14.4","8.9","-9999.0","-9999.0","260","West","-9999.0","-9999.0","1009","29.80","-999","-999","27.5","81.4","-9999.00","-9999.00","Clear","clear","0","0","0","0","0","0","METAR UKKK 051230Z 26004MPS CAVOK 28/12 Q1009 R26/CLRD70 NOSIG"
"4:00 PM EEST on September 05, 2016","2016","09","05","16","00","Europe/Kiev","1:00 PM GMT on September 05, 2016","2016","09","05","13","00","UTC","28.0","82.4","13.0","55.4","39","18.0","11.2","-9999.0","-9999.0","260","West","-9999.0","-9999.0","1009","29.80","-999","-999","27.6","81.7","-9999.00","-9999.00","Clear","clear","0","0","0","0","0","0","METAR UKKK 051300Z 26005MPS 220V300 CAVOK 28/13 Q1009 R26/CLRD70 NOSIG"
"4:30 PM EEST on September 05, 2016","2016","09","05","16","30","Europe/Kiev","1:30 PM GMT on September 05, 2016","2016","09","05","13","30","UTC","28.0","82.4","13.0","55.4","39","14.4","8.9","-9999.0","-9999.0","250","WSW","-9999.0","-9999.0","1010","29.83","-999","-999","27.6","81.7","-9999.00","-9999.00","Clear","clear","0","0","0","0","0","0","METAR UKKK 051330Z 25004MPS 220V280 CAVOK 28/13 Q1010 R26/CLRD70 NOSIG"
"5:00 PM EEST on September 05, 2016","2016","09","05","17","00","Europe/Kiev","2:00 PM GMT on September 05, 2016","2016","09","05","14","00","UTC","28.0","82.4","12.0","53.6","37","10.8","6.7","-9999.0","-9999.0","270","West","-9999.0","-9999.0","1009","29.80","-999","-999","27.5","81.4","-9999.00","-9999.00","Clear","clear","0","0","0","0","0","0","METAR UKKK 051400Z 27003MPS 220V290 CAVOK 28/12 Q1009 R26/CLRD70 NOSIG"
"5:30 PM EEST on September 05, 2016","2016","09","05","17","30","Europe/Kiev","2:30 PM GMT on September 05, 2016","2016","09","05","14","30","UTC","27.0","80.6","13.0","55.4","42","10.8","6.7","-9999.0","-9999.0","280","West","-9999.0","-9999.0","1009","29.80","-999","-999","27.0","80.5","-9999.00","-9999.00","Clear","clear","0","0","0","0","0","0","METAR UKKK 051430Z 28003MPS CAVOK 27/13 Q1009 R26/CLRD70 NOSIG"
"6:00 PM EEST on September 05, 2016","2016","09","05","18","00","Europe/Kiev","3:00 PM GMT on September 05, 2016","2016","09","05","15","00","UTC","28","83","12","53","25","3.6","2.2","","","340","NNW","20","12","1009","29.79","-999","-999","-9999","-9999","","","Scattered Clouds","partlycloudy","0","0","0","0","0","0","AAXX 05151 33345 42998 63401 10281 20115 39899 40087 56001 82079 555 10030"
"6:00 PM EEST on September 05, 2016","2016","09","05","18","00","Europe/Kiev","3:00 PM GMT on September 05, 2016","2016","09","05","15","00","UTC","27.0","80.6","13.0","55.4","42","7.2","4.5","-9999.0","-9999.0","270","West","-9999.0","-9999.0","1009","29.80","-999","-999","27.0","80.5","-9999.00","-9999.00","Clear","clear","0","0","0","0","0","0","METAR UKKK 051500Z 27002MPS CAVOK 27/13 Q1009 R26/CLRD70 NOSIG"
"6:30 PM EEST on September 05, 2016","2016","09","05","18","30","Europe/Kiev","3:30 PM GMT on September 05, 2016","2016","09","05","15","30","UTC","27.0","80.6","12.0","53.6","39","14.4","8.9","-9999.0","-9999.0","320","NW","-9999.0","-9999.0","1010","29.83","-999","-999","26.8","80.3","-9999.00","-9999.00","Clear","clear","0","0","0","0","0","0","METAR UKKK 051530Z 32004MPS CAVOK 27/12 Q1010 R26/CLRD70 NOSIG"
"7:00 PM EEST on September 05, 2016","2016","09","05","19","00","Europe/Kiev","4:00 PM GMT on September 05, 2016","2016","09","05","16","00","UTC","26.0","78.8","12.0","53.6","42","7.2","4.5","-9999.0","-9999.0","320","NW","8.0","5.0","1010","29.83","-999","-999","-9999","-9999","-9999.00","-9999.00","Unknown","unknown","0","0","0","0","0","0","METAR UKKK 051600Z 32002MPS 8000 NSC 26/12 Q1010 R26/CLRD70 NOSIG"
"7:30 PM EEST on September 05, 2016","2016","09","05","19","30","Europe/Kiev","4:30 PM GMT on September 05, 2016","2016","09","05","16","30","UTC","24.0","75.2","13.0","55.4","50","3.6","2.2","-9999.0","-9999.0","0","Variable","9.0","5.6","1010","29.83","-999","-999","-9999","-9999","-9999.00","-9999.00","Unknown","unknown","0","0","0","0","0","0","METAR UKKK 051630Z VRB01MPS 9000 NSC 24/13 Q1010 R26/CLRD70 TEMPO 2000 FU"
"7:45 PM EEST on September 05, 2016","2016","09","05","19","45","Europe/Kiev","4:45 PM GMT on September 05, 2016","2016","09","05","16","45","UTC","22.0","71.6","14.0","57.2","60","3.6","2.2","-9999.0","-9999.0","310","NW","0.5","0.3","1010","29.83","-999","-999","-9999","-9999","-9999.00","-9999.00","Smoke","hazy","0","0","0","0","0","0","SPECI UKKK 051645Z 31001MPS 0500 R26/P2000N FU NSC 22/14 Q1010 R26/CLRD70 TEMPO 2000 FU"
"8:00 PM EEST on September 05, 2016","2016","09","05","20","00","Europe/Kiev","5:00 PM GMT on September 05, 2016","2016","09","05","17","00","UTC","21.0","69.8","14.0","57.2","64","3.6","2.2","-9999.0","-9999.0","0","Variable","10.0","6.2","1010","29.83","-999","-999","-9999","-9999","-9999.00","-9999.00","Unknown","unknown","0","0","0","0","0","0","METAR UKKK 051700Z VRB01MPS 9999 NSC 21/14 Q1010 R26/CLRD70 TEMPO 2000 FU"
"8:30 PM EEST on September 05, 2016","2016","09","05","20","30","Europe/Kiev","5:30 PM GMT on September 05, 2016","2016","09","05","17","30","UTC","20.0","68.0","14.0","57.2","68","7.2","4.5","-9999.0","-9999.0","310","NW","-9999.0","-9999.0","1011","29.86","-999","-999","-9999","-9999","-9999.00","-9999.00","Smoke","hazy","0","0","0","0","0","0","METAR UKKK 051730Z 31002MPS 3800 FU NSC 20/14 Q1011 R26/CLRD70 TEMPO 1000 FU"
"9:00 PM EEST on September 05, 2016","2016","09","05","21","00","Europe/Kiev","6:00 PM GMT on September 05, 2016","2016","09","05","18","00","UTC","23","73","14","57","46","0.0","0.0","","","","","20","12","1011","29.85","-999","-999","-9999","-9999","","","","","0","0","0","0","0","0","AAXX 05181 33345 32998 00000 10229 20137 39916 40108 53017 333 10299 555 10021"
"9:00 PM EEST on September 05, 2016","2016","09","05","21","00","Europe/Kiev","6:00 PM GMT on September 05, 2016","2016","09","05","18","00","UTC","19.0","66.2","14.0","57.2","73","3.6","2.2","-9999.0","-9999.0","0","Variable","6.0","3.7","1011","29.86","-999","-999","-9999","-9999","-9999.00","-9999.00","Unknown","unknown","0","0","0","0","0","0","METAR UKKK 051800Z VRB01MPS 6000 NSC 19/14 Q1011 R26/CLRD70 TEMPO 1000 FU"
"9:30 PM EEST on September 05, 2016","2016","09","05","21","30","Europe/Kiev","6:30 PM GMT on September 05, 2016","2016","09","05","18","30","UTC","19.0","66.2","14.0","57.2","73","3.6","2.2","-9999.0","-9999.0","0","Variable","5.0","3.1","1011","29.86","-999","-999","-9999","-9999","-9999.00","-9999.00","Smoke","hazy","0","0","0","0","0","0","METAR UKKK 051830Z VRB01MPS 5000 FU NSC 19/14 Q1011 R26/CLRD70 TEMPO 1000 FU"
"10:00 PM EEST on September 05, 2016","2016","09","05","22","00","Europe/Kiev","7:00 PM GMT on September 05, 2016","2016","09","05","19","00","UTC","18.0","64.4","15.0","59.0","83","7.2","4.5","-9999.0","-9999.0","90","East","10.0","6.2","1011","29.86","-999","-999","-9999","-9999","-9999.00","-9999.00","Unknown","unknown","0","0","0","0","0","0","METAR UKKK 051900Z 09002MPS 9999 NSC 18/15 Q1011 R26/CLRD70 NOSIG"
"10:30 PM EEST on September 05, 2016","2016","09","05","22","30","Europe/Kiev","7:30 PM GMT on September 05, 2016","2016","09","05","19","30","UTC","21.0","69.8","14.0","57.2","64","14.4","8.9","-9999.0","-9999.0","40","NE","10.0","6.2","1012","29.89","-999","-999","-9999","-9999","-9999.00","-9999.00","Unknown","unknown","0","0","0","0","0","0","METAR UKKK 051930Z 04004MPS 9999 NSC 21/14 Q1012 R26/CLRD70 NOSIG"
"11:00 PM EEST on September 05, 2016","2016","09","05","23","00","Europe/Kiev","8:00 PM GMT on September 05, 2016","2016","09","05","20","00","UTC","23.0","73.4","14.0","57.2","57","18.0","11.2","-9999.0","-9999.0","50","NE","-9999.0","-9999.0","1012","29.89","-999","-999","-9999","-9999","-9999.00","-9999.00","Clear","clear","0","0","0","0","0","0","METAR UKKK 052000Z 05005MPS CAVOK 23/14 Q1012 R08/CLRD70 NOSIG"
"11:30 PM EEST on September 05, 2016","2016","09","05","23","30","Europe/Kiev","8:30 PM GMT on September 05, 2016","2016","09","05","20","30","UTC","21.0","69.8","14.0","57.2","64","10.8","6.7","-9999.0","-9999.0","70","ENE","-9999.0","-9999.0","1012","29.89","-999","-999","-9999","-9999","-9999.00","-9999.00","Clear","clear","0","0","0","0","0","0","METAR UKKK 052030Z 07003MPS CAVOK 21/14 Q1012 R08/CLRD70 NOSIG"
"12:00 AM EEST on September 06, 2016","2016","09","06","00","00","Europe/Kiev","9:00 PM GMT on September 05, 2016","2016","09","05","21","00","UTC","22","71","15","58","55","7.2","4.5","","","50","NE","20","12","1012","29.89","-999","-999","-9999","-9999","","","","","0","0","0","0","0","0","AAXX 05211 33345 42998 00502 10219 20146 39929 40122 52013 555 10019"
"12:00 AM EEST on September 06, 2016","2016","09","06","00","00","Europe/Kiev","9:00 PM GMT on September 05, 2016","2016","09","05","21","00","UTC","21.0","69.8","14.0","57.2","64","14.4","8.9","-9999.0","-9999.0","50","NE","-9999.0","-9999.0","1012","29.89","-999","-999","-9999","-9999","-9999.00","-9999.00","Clear","clear","0","0","0","0","0","0","METAR UKKK 052100Z 05004MPS CAVOK 21/14 Q1012 R08/CLRD70 NOSIG"
"12:30 AM EEST on September 06, 2016","2016","09","06","00","30","Europe/Kiev","9:30 PM GMT on September 05, 2016","2016","09","05","21","30","UTC","20.0","68.0","14.0","57.2","68","10.8","6.7","-9999.0","-9999.0","40","NE","-9999.0","-9999.0","1013","29.92","-999","-999","-9999","-9999","-9999.00","-9999.00","Clear","clear","0","0","0","0","0","0","METAR UKKK 052130Z 04003MPS CAVOK 20/14 Q1013 R08/CLRD70 NOSIG"
"1:00 AM EEST on September 06, 2016","2016","09","06","01","00","Europe/Kiev","10:00 PM GMT on September 05, 2016","2016","09","05","22","00","UTC","19.0","66.2","14.0","57.2","73","10.8","6.7","-9999.0","-9999.0","50","NE","-9999.0","-9999.0","1013","29.92","-999","-999","-9999","-9999","-9999.00","-9999.00","Clear","clear","0","0","0","0","0","0","METAR UKKK 052200Z 05003MPS CAVOK 19/14 Q1013 R08/CLRD70 NOSIG"
"1:30 AM EEST on September 06, 2016","2016","09","06","01","30","Europe/Kiev","10:30 PM GMT on September 05, 2016","2016","09","05","22","30","UTC","17.0","62.6","14.0","57.2","82","14.4","8.9","-9999.0","-9999.0","60","ENE","-9999.0","-9999.0","1013","29.92","-999","-999","-9999","-9999","-9999.00","-9999.00","Clear","clear","0","0","0","0","0","0","METAR UKKK 052230Z 06004MPS CAVOK 17/14 Q1013 R08/CLRD70 NOSIG"
"2:00 AM EEST on September 06, 2016","2016","09","06","02","00","Europe/Kiev","11:00 PM GMT on September 05, 2016","2016","09","05","23","00","UTC","17.0","62.6","14.0","57.2","82","10.8","6.7","-9999.0","-9999.0","70","ENE","-9999.0","-9999.0","1013","29.92","-999","-999","-9999","-9999","-9999.00","-9999.00","Clear","clear","0","0","0","0","0","0","METAR UKKK 052300Z 07003MPS CAVOK 17/14 Q1013 R08/CLRD70 NOSIG"
"2:30 AM EEST on September 06, 2016","2016","09","06","02","30","Europe/Kiev","11:30 PM GMT on September 05, 2016","2016","09","05","23","30","UTC","17.0","62.6","15.0","59.0","88","10.8","6.7","-9999.0","-9999.0","80","East","-9999.0","-9999.0","1014","29.95","-999","-999","-9999","-9999","-9999.00","-9999.00","Clear","clear","0","0","0","0","0","0","METAR UKKK 052330Z 08003MPS CAVOK 17/15 Q1014 R08/CLRD70 NOSIG"
"3:00 AM EEST on September 06, 2016","2016","09","06","03","00","Europe/Kiev","12:00 AM GMT on September 06, 2016","2016","09","06","00","00","UTC","19","66","15","58","70","3.6","2.2","","","90","East","20","12","1014","29.94","-999","-999","-9999","-9999","","","","","0","0","0","0","0","0","AAXX 06001 33345 32998 00901 10191 20147 39943 40138 52014 555 10017"
"3:00 AM EEST on September 06, 2016","2016","09","06","03","00","Europe/Kiev","12:00 AM GMT on September 06, 2016","2016","09","06","00","00","UTC","17.0","62.6","14.0","57.2","82","10.8","6.7","-9999.0","-9999.0","80","East","-9999.0","-9999.0","1014","29.95","-999","-999","-9999","-9999","-9999.00","-9999.00","Clear","clear","0","0","0","0","0","0","METAR UKKK 060000Z 08003MPS CAVOK 17/14 Q1014 R08/CLRD70 NOSIG"
"3:30 AM EEST on September 06, 2016","2016","09","06","03","30","Europe/Kiev","12:30 AM GMT on September 06, 2016","2016","09","06","00","30","UTC","17.0","62.6","14.0","57.2","82","7.2","4.5","-9999.0","-9999.0","60","ENE","-9999.0","-9999.0","1014","29.95","-999","-999","-9999","-9999","-9999.00","-9999.00","Clear","clear","0","0","0","0","0","0","METAR UKKK 060030Z 06002MPS CAVOK 17/14 Q1014 R08/CLRD70 NOSIG"
"4:00 AM EEST on September 06, 2016","2016","09","06","04","00","Europe/Kiev","1:00 AM GMT on September 06, 2016","2016","09","06","01","00","UTC","17.0","62.6","14.0","57.2","82","10.8","6.7","-9999.0","-9999.0","60","ENE","-9999.0","-9999.0","1015","29.98","-999","-999","-9999","-9999","-9999.00","-9999.00","Clear","clear","0","0","0","0","0","0","METAR UKKK 060100Z 06003MPS CAVOK 17/14 Q1015 R08/CLRD70 NOSIG"
"4:30 AM EEST on September 06, 2016","2016","09","06","04","30","Europe/Kiev","1:30 AM GMT on September 06, 2016","2016","09","06","01","30","UTC","18.0","64.4","15.0","59.0","83","14.4","8.9","-9999.0","-9999.0","60","ENE","-9999.0","-9999.0","1015","29.98","-999","-999","-9999","-9999","-9999.00","-9999.00","Clear","clear","0","0","0","0","0","0","METAR UKKK 060130Z 06004MPS CAVOK 18/15 Q1015 R08/CLRD70 NOSIG"
"5:00 AM EEST on September 06, 2016","2016","09","06","05","00","Europe/Kiev","2:00 AM GMT on September 06, 2016","2016","09","06","02","00","UTC","18.0","64.4","15.0","59.0","83","10.8","6.7","-9999.0","-9999.0","60","ENE","-9999.0","-9999.0","1015","29.98","-999","-999","-9999","-9999","-9999.00","-9999.00","Clear","clear","0","0","0","0","0","0","METAR UKKK 060200Z 06003MPS CAVOK 18/15 Q1015 R08/CLRD70 NOSIG"
"5:30 AM EEST on September 06, 2016","2016","09","06","05","30","Europe/Kiev","2:30 AM GMT on September 06, 2016","2016","09","06","02","30","UTC","17.0","62.6","15.0","59.0","88","10.8","6.7","-9999.0","-9999.0","60","ENE","-9999.0","-9999.0","1016","30.01","-999","-999","-9999","-9999","-9999.00","-9999.00","Clear","clear","0","0","0","0","0","0","METAR UKKK 060230Z 06003MPS CAVOK 17/15 Q1016 R08/CLRD70 NOSIG"
"6:00 AM EEST on September 06, 2016","2016","09","06","06","00","Europe/Kiev","3:00 AM GMT on September 06, 2016","2016","09","06","03","00","UTC","17","63","15","60","85","7.2","4.5","","","60","ENE","20","12","1016","30.01","-999","-999","-9999","-9999","","","","","0","0","0","0","0","0","AAXX 06031 33345 42998 00602 10172 20153 39964 40161 52021 555 10015"
"6:00 AM EEST on September 06, 2016","2016","09","06","06","00","Europe/Kiev","3:00 AM GMT on September 06, 2016","2016","09","06","03","00","UTC","17.0","62.6","15.0","59.0","88","14.4","8.9","-9999.0","-9999.0","60","ENE","-9999.0","-9999.0","1016","30.01","-999","-999","-9999","-9999","-9999.00","-9999.00","Clear","clear","0","0","0","0","0","0","METAR UKKK 060300Z 06004MPS CAVOK 17/15 Q1016 R08/CLRD70 NOSIG"
"6:30 AM EEST on September 06, 2016","2016","09","06","06","30","Europe/Kiev","3:30 AM GMT on September 06, 2016","2016","09","06","03","30","UTC","17.0","62.6","15.0","59.0","88","14.4","8.9","-9999.0","-9999.0","70","ENE","-9999.0","-9999.0","1016","30.01","-999","-999","-9999","-9999","-9999.00","-9999.00","Clear","clear","0","0","0","0","0","0","METAR UKKK 060330Z 07004MPS CAVOK 17/15 Q1016 R08/CLRD70 NOSIG"
"7:00 AM EEST on September 06, 2016","2016","09","06","07","00","Europe/Kiev","4:00 AM GMT on September 06, 2016","2016","09","06","04","00","UTC","17.0","62.6","16.0","60.8","94","10.8","6.7","-9999.0","-9999.0","50","NE","-9999.0","-9999.0","1017","30.04","-999","-999","-9999","-9999","-9999.00","-9999.00","Clear","clear","0","0","0","0","0","0","METAR UKKK 060400Z 05003MPS CAVOK 17/16 Q1017 R08/CLRD70 NOSIG"
"7:30 AM EEST on September 06, 2016","2016","09","06","07","30","Europe/Kiev","4:30 AM GMT on September 06, 2016","2016","09","06","04","30","UTC","18.0","64.4","16.0","60.8","88","14.4","8.9","-9999.0","-9999.0","40","NE","-9999.0","-9999.0","1017","30.04","-999","-999","-9999","-9999","-9999.00","-9999.00","Clear","clear","0","0","0","0","0","0","METAR UKKK 060430Z 04004MPS CAVOK 18/16 Q1017 R08/CLRD70 NOSIG"
"8:00 AM EEST on September 06, 2016","2016","09","06","08","00","Europe/Kiev","5:00 AM GMT on September 06, 2016","2016","09","06","05","00","UTC","18.0","64.4","16.0","60.8","88","14.4","8.9","-9999.0","-9999.0","50","NE","-9999.0","-9999.0","1018","30.06","-999","-999","-9999","-9999","-9999.00","-9999.00","Clear","clear","0","0","0","0","0","0","METAR UKKK 060500Z 05004MPS CAVOK 18/16 Q1018 R08/CLRD70 NOSIG"
"8:30 AM EEST on September 06, 2016","2016","09","06","08","30","Europe/Kiev","5:30 AM GMT on September 06, 2016","2016","09","06","05","30","UTC","18.0","64.4","16.0","60.8","88","18.0","11.2","-9999.0","-9999.0","40","NE","10.0","6.2","1018","30.06","-999","-999","-9999","-9999","-9999.00","-9999.00","Mostly Cloudy","mostlycloudy","0","0","0","0","0","0","METAR UKKK 060530Z 04005MPS 9999 FEW007 BKN200 18/16 Q1018 R08/CLRD70 NOSIG"
"9:00 AM EEST on September 06, 2016","2016","09","06","09","00","Europe/Kiev","6:00 AM GMT on September 06, 2016","2016","09","06","06","00","UTC","18","65","15","60","78","10.8","6.7","","","50","NE","20","12","1018","30.08","-999","-999","-9999","-9999","","","Clear","clear","0","0","0","0","0","0","AAXX 06061 33345 32998 40503 10181 20154 39988 40184 52024 80009 333 20169 555 10023"
"9:00 AM EEST on September 06, 2016","2016","09","06","09","00","Europe/Kiev","6:00 AM GMT on September 06, 2016","2016","09","06","06","00","UTC","18.0","64.4","16.0","60.8","88","14.4","8.9","-9999.0","-9999.0","50","NE","10.0","6.2","1018","30.06","-999","-999","-9999","-9999","-9999.00","-9999.00","Mostly Cloudy","mostlycloudy","0","0","0","0","0","0","METAR UKKK 060600Z 05004MPS 9999 FEW007 BKN076 18/16 Q1018 R08/CLRD70 NOSIG"
"9:30 AM EEST on September 06, 2016","2016","09","06","09","30","Europe/Kiev","6:30 AM GMT on September 06, 2016","2016","09","06","06","30","UTC","19.0","66.2","16.0","60.8","83","14.4","8.9","-9999.0","-9999.0","40","NE","-9999.0","-9999.0","1019","30.09","-999","-999","-9999","-9999","-9999.00","-9999.00","Clear","clear","0","0","0","0","0","0","METAR UKKK 060630Z 04004MPS CAVOK 19/16 Q1019 R08/CLRD70 NOSIG"
"10:00 AM EEST on September 06, 2016","2016","09","06","10","00","Europe/Kiev","7:00 AM GMT on September 06, 2016","2016","09","06","07","00","UTC","20.0","68.0","16.0","60.8","78","10.8","6.7","-9999.0","-9999.0","40","NE","-9999.0","-9999.0","1019","30.09","-999","-999","-9999","-9999","-9999.00","-9999.00","Clear","clear","0","0","0","0","0","0","METAR UKKK 060700Z 04003MPS CAVOK 20/16 Q1019 R08/CLRD70 NOSIG"
"10:30 AM EEST on September 06, 2016","2016","09","06","10","30","Europe/Kiev","7:30 AM GMT on September 06, 2016","2016","09","06","07","30","UTC","20.0","68.0","16.0","60.8","78","18.0","11.2","-9999.0","-9999.0","40","NE","-9999.0","-9999.0","1019","30.09","-999","-999","-9999","-9999","-9999.00","-9999.00","Clear","clear","0","0","0","0","0","0","METAR UKKK 060730Z 04005MPS CAVOK 20/16 Q1019 R08/CLRD70 NOSIG"
"11:00 AM EEST on September 06, 2016","2016","09","06","11","00","Europe/Kiev","8:00 AM GMT on September 06, 2016","2016","09","06","08","00","UTC","22.0","71.6","17.0","62.6","73","18.0","11.2","-9999.0","-9999.0","20","NNE","-9999.0","-9999.0","1020","30.12","-999","-999","-9999","-9999","-9999.00","-9999.00","Clear","clear","0","0","0","0","0","0","METAR UKKK 060800Z 02005MPS CAVOK 22/17 Q1020 R08/CLRD70 NOSIG"
"11:30 AM EEST on September 06, 2016","2016","09","06","11","30","Europe/Kiev","8:30 AM GMT on September 06, 2016","2016","09","06","08","30","UTC","22.0","71.6","16.0","60.8","69","18.0","11.2","-9999.0","-9999.0","30","NNE","-9999.0","-9999.0","1020","30.12","-999","-999","-9999","-9999","-9999.00","-9999.00","Clear","clear","0","0","0","0","0","0","METAR UKKK 060830Z 03005MPS 010V070 CAVOK 22/16 Q1020 R08/CLRD70 NOSIG"
"12:00 PM EEST on September 06, 2016","2016","09","06","12","00","Europe/Kiev","9:00 AM GMT on September 06, 2016","2016","09","06","09","00","UTC","23","73","16","61","58","10.8","6.7","","","60","ENE","20","12","1020","30.12","-999","-999","-9999","-9999","","","Clear","clear","0","0","0","0","0","0","AAXX 06091 33345 42998 10603 10226 20162 30005 40199 52017 80002 555 10037"
"12:00 PM EEST on September 06, 2016","2016","09","06","12","00","Europe/Kiev","9:00 AM GMT on September 06, 2016","2016","09","06","09","00","UTC","23.0","73.4","16.0","60.8","65","18.0","11.2","-9999.0","-9999.0","40","NE","-9999.0","-9999.0","1020","30.12","-999","-999","-9999","-9999","-9999.00","-9999.00","Clear","clear","0","0","0","0","0","0","METAR UKKK 060900Z 04005MPS CAVOK 23/16 Q1020 R08/CLRD70 NOSIG"
"12:30 PM EEST on September 06, 2016","2016","09","06","12","30","Europe/Kiev","9:30 AM GMT on September 06, 2016","2016","09","06","09","30","UTC","24.0","75.2","16.0","60.8","61","18.0","11.2","-9999.0","-9999.0","30","NNE","-9999.0","-9999.0","1020","30.12","-999","-999","-9999","-9999","-9999.00","-9999.00","Clear","clear","0","0","0","0","0","0","METAR UKKK 060930Z 03005MPS CAVOK 24/16 Q1020 R08/CLRD70 NOSIG"
"1:00 PM EEST on September 06, 2016","2016","09","06","13","00","Europe/Kiev","10:00 AM GMT on September 06, 2016","2016","09","06","10","00","UTC","24.0","75.2","15.0","59.0","57","21.6","13.4","-9999.0","-9999.0","40","NE","-9999.0","-9999.0","1020","30.12","-999","-999","-9999","-9999","-9999.00","-9999.00","Clear","clear","0","0","0","0","0","0","METAR UKKK 061000Z 04006MPS 010V080 CAVOK 24/15 Q1020 R08/CLRD70 NOSIG"
"1:30 PM EEST on September 06, 2016","2016","09","06","13","30","Europe/Kiev","10:30 AM GMT on September 06, 2016","2016","09","06","10","30","UTC","24.0","75.2","15.0","59.0","57","21.6","13.4","-9999.0","-9999.0","50","NE","-9999.0","-9999.0","1020","30.12","-999","-999","-9999","-9999","-9999.00","-9999.00","Clear","clear","0","0","0","0","0","0","METAR UKKK 061030Z 05006MPS CAVOK 24/15 Q1020 R08/CLRD70 NOSIG"
"2:00 PM EEST on September 06, 2016","2016","09","06","14","00","Europe/Kiev","11:00 AM GMT on September 06, 2016","2016","09","06","11","00","UTC","25.0","77.0","16.0","60.8","57","18.0","11.2","-9999.0","-9999.0","20","NNE","-9999.0","-9999.0","1021","30.15","-999","-999","-9999","-9999","-9999.00","-9999.00","Clear","clear","0","0","0","0","0","0","METAR UKKK 061100Z 02005MPS CAVOK 25/16 Q1021 R08/CLRD70 NOSIG"
"2:30 PM EEST on September 06, 2016","2016","09","06","14","30","Europe/Kiev","11:30 AM GMT on September 06, 2016","2016","09","06","11","30","UTC","26.0","78.8","16.0","60.8","54","18.0","11.2","-9999.0","-9999.0","20","NNE","-9999.0","-9999.0","1021","30.15","-999","-999","-9999","-9999","-9999.00","-9999.00","Clear","clear","0","0","0","0","0","0","METAR UKKK 061130Z 02005MPS 360V060 CAVOK 26/16 Q1021 R08/CLRD70 NOSIG"
"3:00 PM EEST on September 06, 2016","2016","09","06","15","00","Europe/Kiev","12:00 PM GMT on September 06, 2016","2016","09","06","12","00","UTC","25","78","14","58","40","14.4","8.9","","","40","NE","20","12","1020","30.12","-999","-999","-9999","-9999","","","Clear","clear","0","0","0","0","0","0","AAXX 06121 33345 32998 50404 10253 20144 30008 40200 52003 80001 555 10041"
"3:00 PM EEST on September 06, 2016","2016","09","06","15","00","Europe/Kiev","12:00 PM GMT on September 06, 2016","2016","09","06","12","00","UTC","26.0","78.8","16.0","60.8","54","18.0","11.2","-9999.0","-9999.0","20","NNE","-9999.0","-9999.0","1021","30.15","-999","-999","-9999","-9999","-9999.00","-9999.00","Clear","clear","0","0","0","0","0","0","METAR UKKK 061200Z 02005MPS 360V060 CAVOK 26/16 Q1021 R08/CLRD70 NOSIG"
"3:30 PM EEST on September 06, 2016","2016","09","06","15","30","Europe/Kiev","12:30 PM GMT on September 06, 2016","2016","09","06","12","30","UTC","26.0","78.8","15.0","59.0","51","18.0","11.2","-9999.0","-9999.0","30","NNE","-9999.0","-9999.0","1021","30.15","-999","-999","-9999","-9999","-9999.00","-9999.00","Clear","clear","0","0","0","0","0","0","METAR UKKK 061230Z 03005MPS 360V060 CAVOK 26/15 Q1021 R08/CLRD70 NOSIG"
"4:00 PM EEST on September 06, 2016","2016","09","06","16","00","Europe/Kiev","1:00 PM GMT on September 06, 2016","2016","09","06","13","00","UTC","26.0","78.8","16.0","60.8","54","18.0","11.2","-9999.0","-9999.0","40","NE","-9999.0","-9999.0","1021","30.15","-999","-999","-9999","-9999","-9999.00","-9999.00","Clear","clear","0","0","0","0","0","0","METAR UKKK 061300Z 04005MPS 360V080 CAVOK 26/16 Q1021 R08/CLRD70 NOSIG"
"4:30 PM EEST on September 06, 2016","2016","09","06","16","30","Europe/Kiev","1:30 PM GMT on September 06, 2016","2016","09","06","13","30","UTC","26.0","78.8","15.0","59.0","51","18.0","11.2","-9999.0","-9999.0","10","North","-9999.0","-9999.0","1021","30.15","-999","-999","-9999","-9999","-9999.00","-9999.00","Clear","clear","0","0","0","0","0","0","METAR UKKK 061330Z 01005MPS 330V040 CAVOK 26/15 Q1021 R08/CLRD70 NOSIG"
"5:00 PM EEST on September 06, 2016","2016","09","06","17","00","Europe/Kiev","2:00 PM GMT on September 06, 2016","2016","09","06","14","00","UTC","26.0","78.8","15.0","59.0","51","18.0","11.2","-9999.0","-9999.0","10","North","-9999.0","-9999.0","1021","30.15","-999","-999","-9999","-9999","-9999.00","-9999.00","Clear","clear","0","0","0","0","0","0","METAR UKKK 061400Z 01005MPS CAVOK 26/15 Q1021 R08/CLRD70 NOSIG"
"5:30 PM EEST on September 06, 2016","2016","09","06","17","30","Europe/Kiev","2:30 PM GMT on September 06, 2016","2016","09","06","14","30","UTC","25.0","77.0","16.0","60.8","57","14.4","8.9","-9999.0","-9999.0","10","North","-9999.0","-9999.0","1021","30.15","-999","-999","-9999","-9999","-9999.00","-9999.00","Clear","clear","0","0","0","0","0","0","METAR UKKK 061430Z 01004MPS 350V050 CAVOK 25/16 Q1021 R08/CLRD70 NOSIG"
"6:00 PM EEST on September 06, 2016","2016","09","06","18","00","Europe/Kiev","3:00 PM GMT on September 06, 2016","2016","09","06","15","00","UTC","25","76","16","60","48","7.2","4.5","","","40","NE","20","12","1021","30.15","-999","-999","-9999","-9999","","","Clear","clear","0","0","0","0","0","0","AAXX 06151 33345 42998 10402 10246 20155 30017 40210 52009 80001 555 10031"
"6:00 PM EEST on September 06, 2016","2016","09","06","18","00","Europe/Kiev","3:00 PM GMT on September 06, 2016","2016","09","06","15","00","UTC","24.0","75.2","15.0","59.0","57","14.4","8.9","-9999.0","-9999.0","30","NNE","-9999.0","-9999.0","1021","30.15","-999","-999","-9999","-9999","-9999.00","-9999.00","Clear","clear","0","0","0","0","0","0","METAR UKKK 061500Z 03004MPS CAVOK 24/15 Q1021 R08/CLRD70 NOSIG"
"6:30 PM EEST on September 06, 2016","2016","09","06","18","30","Europe/Kiev","3:30 PM GMT on September 06, 2016","2016","09","06","15","30","UTC","24.0","75.2","15.0","59.0","57","14.4","8.9","-9999.0","-9999.0","10","North","-9999.0","-9999.0","1022","30.18","-999","-999","-9999","-9999","-9999.00","-9999.00","Clear","clear","0","0","0","0","0","0","METAR UKKK 061530Z 01004MPS CAVOK 24/15 Q1022 R08/CLRD70 NOSIG"
"7:00 PM EEST on September 06, 2016","2016","09","06","19","00","Europe/Kiev","4:00 PM GMT on September 06, 2016","2016","09","06","16","00","UTC","23.0","73.4","15.0","59.0","61","14.4","8.9","-9999.0","-9999.0","30","NNE","-9999.0","-9999.0","1022","30.18","-999","-999","-9999","-9999","-9999.00","-9999.00","Clear","clear","0","0","0","0","0","0","METAR UKKK 061600Z 03004MPS CAVOK 23/15 Q1022 R08/CLRD70 NOSIG"
"7:30 PM EEST on September 06, 2016","2016","09","06","19","30","Europe/Kiev","4:30 PM GMT on September 06, 2016","2016","09","06","16","30","UTC","22.0","71.6","14.0","57.2","60","14.4","8.9","-9999.0","-9999.0","10","North","-9999.0","-9999.0","1022","30.18","-999","-999","-9999","-9999","-9999.00","-9999.00","Clear","clear","0","0","0","0","0","0","METAR UKKK 061630Z 01004MPS CAVOK 22/14 Q1022 R08/CLRD70 NOSIG"
"8:00 PM EEST on September 06, 2016","2016","09","06","20","00","Europe/Kiev","5:00 PM GMT on September 06, 2016","2016","09","06","17","00","UTC","21.0","69.8","13.0","55.4","60","10.8","6.7","-9999.0","-9999.0","20","NNE","-9999.0","-9999.0","1022","30.18","-999","-999","-9999","-9999","-9999.00","-9999.00","Clear","clear","0","0","0","0","0","0","METAR UKKK 061700Z 02003MPS CAVOK 21/13 Q1022 R08/CLRD70 NOSIG"
"8:30 PM EEST on September 06, 2016","2016","09","06","20","30","Europe/Kiev","5:30 PM GMT on September 06, 2016","2016","09","06","17","30","UTC","21.0","69.8","13.0","55.4","60","14.4","8.9","-9999.0","-9999.0","20","NNE","-9999.0","-9999.0","1023","30.21","-999","-999","-9999","-9999","-9999.00","-9999.00","Clear","clear","0","0","0","0","0","0","METAR UKKK 061730Z 02004MPS CAVOK 21/13 Q1023 R08/CLRD70 NOSIG"
"9:00 PM EEST on September 06, 2016","2016","09","06","21","00","Europe/Kiev","6:00 PM GMT on September 06, 2016","2016","09","06","18","00","UTC","20","69","14","58","59","3.6","2.2","","","60","ENE","20","12","1023","30.21","-999","-999","-9999","-9999","","","","","0","0","0","0","0","0","AAXX 06181 33345 32998 00601 10204 20144 30033 40229 52016 333 10262 555 10019"
"9:00 PM EEST on September 06, 2016","2016","09","06","21","00","Europe/Kiev","6:00 PM GMT on September 06, 2016","2016","09","06","18","00","UTC","20.0","68.0","14.0","57.2","68","10.8","6.7","-9999.0","-9999.0","30","NNE","-9999.0","-9999.0","1023","30.21","-999","-999","-9999","-9999","-9999.00","-9999.00","Clear","clear","0","0","0","0","0","0","METAR UKKK 061800Z 03003MPS CAVOK 20/14 Q1023 R08/CLRD70 NOSIG"
"9:30 PM EEST on September 06, 2016","2016","09","06","21","30","Europe/Kiev","6:30 PM GMT on September 06, 2016","2016","09","06","18","30","UTC","19.0","66.2","14.0","57.2","73","7.2","4.5","-9999.0","-9999.0","60","ENE","-9999.0","-9999.0","1023","30.21","-999","-999","-9999","-9999","-9999.00","-9999.00","Clear","clear","0","0","0","0","0","0","METAR UKKK 061830Z 06002MPS CAVOK 19/14 Q1023 R08/CLRD70 NOSIG"
"10:00 PM EEST on September 06, 2016","2016","09","06","22","00","Europe/Kiev","7:00 PM GMT on September 06, 2016","2016","09","06","19","00","UTC","18.0","64.4","13.0","55.4","73","7.2","4.5","-9999.0","-9999.0","60","ENE","-9999.0","-9999.0","1023","30.21","-999","-999","-9999","-9999","-9999.00","-9999.00","Clear","clear","0","0","0","0","0","0","METAR UKKK 061900Z 06002MPS CAVOK 18/13 Q1023 R08/CLRD70 NOSIG"
"10:30 PM EEST on September 06, 2016","2016","09","06","22","30","Europe/Kiev","7:30 PM GMT on September 06, 2016","2016","09","06","19","30","UTC","18.0","64.4","13.0","55.4","73","10.8","6.7","-9999.0","-9999.0","60","ENE","-9999.0","-9999.0","1024","30.24","-999","-999","-9999","-9999","-9999.00","-9999.00","Clear","clear","0","0","0","0","0","0","METAR UKKK 061930Z 06003MPS CAVOK 18/13 Q1024 R08/CLRD70 NOSIG"
"11:00 PM EEST on September 06, 2016","2016","09","06","23","00","Europe/Kiev","8:00 PM GMT on September 06, 2016","2016","09","06","20","00","UTC","18.0","64.4","13.0","55.4","73","7.2","4.5","-9999.0","-9999.0","70","ENE","-9999.0","-9999.0","1024","30.24","-999","-999","-9999","-9999","-9999.00","-9999.00","Clear","clear","0","0","0","0","0","0","METAR UKKK 062000Z 07002MPS CAVOK 18/13 Q1024 R08/CLRD70 NOSIG"
"11:30 PM EEST on September 06, 2016","2016","09","06","23","30","Europe/Kiev","8:30 PM GMT on September 06, 2016","2016","09","06","20","30","UTC","17.0","62.6","12.0","53.6","72","7.2","4.5","-9999.0","-9999.0","80","East","-9999.0","-9999.0","1024","30.24","-999","-999","-9999","-9999","-9999.00","-9999.00","Clear","clear","0","0","0","0","0","0","METAR UKKK 062030Z 08002MPS CAVOK 17/12 Q1024 R08/CLRD70 NOSIG"
"12:00 AM EEST on September 07, 2016","2016","09","07","00","00","Europe/Kiev","9:00 PM GMT on September 06, 2016","2016","09","06","21","00","UTC","18","65","12","54","58","0.0","0.0","","","","","20","12","1024","30.24","-999","-999","-9999","-9999","","","","","0","0","0","0","0","0","AAXX 06211 33345 42998 00000 10184 20121 30041 40239 52008 555 10016"
"12:00 AM EEST on September 07, 2016","2016","09","07","00","00","Europe/Kiev","9:00 PM GMT on September 06, 2016","2016","09","06","21","00","UTC","17.0","62.6","12.0","53.6","72","7.2","4.5","-9999.0","-9999.0","100","East","-9999.0","-9999.0","1024","30.24","-999","-999","-9999","-9999","-9999.00","-9999.00","Clear","clear","0","0","0","0","0","0","METAR UKKK 062100Z 10002MPS CAVOK 17/12 Q1024 R08/CLRD70 NOSIG"
"12:30 AM EEST on September 07, 2016","2016","09","07","00","30","Europe/Kiev","9:30 PM GMT on September 06, 2016","2016","09","06","21","30","UTC","15.0","59.0","12.0","53.6","82","0.0","0.0","-9999.0","-9999.0","0","North","-9999.0","-9999.0","1024","30.24","-999","-999","-9999","-9999","-9999.00","-9999.00","Clear","clear","0","0","0","0","0","0","METAR UKKK 062130Z 00000MPS CAVOK 15/12 Q1024 R08/CLRD70 NOSIG"
"1:00 AM EEST on September 07, 2016","2016","09","07","01","00","Europe/Kiev","10:00 PM GMT on September 06, 2016","2016","09","06","22","00","UTC","15.0","59.0","12.0","53.6","82","0.0","0.0","-9999.0","-9999.0","0","North","-9999.0","-9999.0","1024","30.24","-999","-999","-9999","-9999","-9999.00","-9999.00","Clear","clear","0","0","0","0","0","0","METAR UKKK 062200Z 00000MPS CAVOK 15/12 Q1024 R08/CLRD70 NOSIG"
"1:30 AM EEST on September 07, 2016","2016","09","07","01","30","Europe/Kiev","10:30 PM GMT on September 06, 2016","2016","09","06","22","30","UTC","14.0","57.2","12.0","53.6","88","0.0","0.0","-9999.0","-9999.0","0","North","-9999.0","-9999.0","1024","30.24","-999","-999","-9999","-9999","-9999.00","-9999.00","Clear","clear","0","0","0","0","0","0","METAR UKKK 062230Z 00000MPS CAVOK 14/12 Q1024 R08/CLRD70 NOSIG"
"2:00 AM EEST on September 07, 2016","2016","09","07","02","00","Europe/Kiev","11:00 PM GMT on September 06, 2016","2016","09","06","23","00","UTC","14.0","57.2","12.0","53.6","88","0.0","0.0","-9999.0","-9999.0","0","North","-9999.0","-9999.0","1024","30.24","-999","-999","-9999","-9999","-9999.00","-9999.00","Clear","clear","0","0","0","0","0","0","METAR UKKK 062300Z 00000MPS CAVOK 14/12 Q1024 R08/CLRD70 NOSIG"
"2:30 AM EEST on September 07, 2016","2016","09","07","02","30","Europe/Kiev","11:30 PM GMT on September 06, 2016","2016","09","06","23","30","UTC","14.0","57.2","11.0","51.8","82","3.6","2.2","-9999.0","-9999.0","90","East","-9999.0","-9999.0","1024","30.24","-999","-999","-9999","-9999","-9999.00","-9999.00","Clear","clear","0","0","0","0","0","0","METAR UKKK 062330Z 09001MPS CAVOK 14/11 Q1024 R08/CLRD70 TEMPO 2000 BR"
"3:00 AM EEST on September 07, 2016","2016","09","07","03","00","Europe/Kiev","12:00 AM GMT on September 07, 2016","2016","09","07","00","00","UTC","17","62","11","51","59","0.0","0.0","","","","","20","12","1025","30.26","-999","-999","-9999","-9999","","","","","0","0","0","0","0","0","AAXX 07001 33345 32998 00000 10166 20108 30047 40246 57006 555 10014"
"3:00 AM EEST on September 07, 2016","2016","09","07","03","00","Europe/Kiev","12:00 AM GMT on September 07, 2016","2016","09","07","00","00","UTC","14.0","57.2","12.0","53.6","88","0.0","0.0","-9999.0","-9999.0","0","North","-9999.0","-9999.0","1025","30.27","-999","-999","-9999","-9999","-9999.00","-9999.00","Clear","clear","0","0","0","0","0","0","METAR UKKK 070000Z 00000MPS CAVOK 14/12 Q1025 R08/CLRD70 TEMPO 2000 BR"
"3:30 AM EEST on September 07, 2016","2016","09","07","03","30","Europe/Kiev","12:30 AM GMT on September 07, 2016","2016","09","07","00","30","UTC","13.0","55.4","11.0","51.8","88","0.0","0.0","-9999.0","-9999.0","0","North","-9999.0","-9999.0","1024","30.24","-999","-999","-9999","-9999","-9999.00","-9999.00","Clear","clear","0","0","0","0","0","0","METAR UKKK 070030Z 00000MPS CAVOK 13/11 Q1024 R08/CLRD70 TEMPO 2000 BR"
"4:00 AM EEST on September 07, 2016","2016","09","07","04","00","Europe/Kiev","1:00 AM GMT on September 07, 2016","2016","09","07","01","00","UTC","13.0","55.4","12.0","53.6","94","0.0","0.0","-9999.0","-9999.0","0","North","-9999.0","-9999.0","1024","30.24","-999","-999","-9999","-9999","-9999.00","-9999.00","Clear","clear","0","0","0","0","0","0","METAR UKKK 070100Z 00000MPS CAVOK 13/12 Q1024 R08/CLRD70 TEMPO 2000 BR"
"4:30 AM EEST on September 07, 2016","2016","09","07","04","30","Europe/Kiev","1:30 AM GMT on September 07, 2016","2016","09","07","01","30","UTC","12.0","53.6","12.0","53.6","100","0.0","0.0","-9999.0","-9999.0","0","North","-9999.0","-9999.0","1025","30.27","-999","-999","-9999","-9999","-9999.00","-9999.00","Clear","clear","0","0","0","0","0","0","METAR UKKK 070130Z 00000MPS CAVOK 12/12 Q1025 R08/CLRD70 TEMPO 2000 BR"
"5:00 AM EEST on September 07, 2016","2016","09","07","05","00","Europe/Kiev","2:00 AM GMT on September 07, 2016","2016","09","07","02","00","UTC","12.0","53.6","11.0","51.8","94","0.0","0.0","-9999.0","-9999.0","0","North","-9999.0","-9999.0","1025","30.27","-999","-999","-9999","-9999","-9999.00","-9999.00","Clear","clear","0","0","0","0","0","0","METAR UKKK 070200Z 00000MPS CAVOK 12/11 Q1025 R08/CLRD70 TEMPO 1000 BR"
"5:30 AM EEST on September 07, 2016","2016","09","07","05","30","Europe/Kiev","2:30 AM GMT on September 07, 2016","2016","09","07","02","30","UTC","12.0","53.6","11.0","51.8","94","0.0","0.0","-9999.0","-9999.0","0","North","-9999.0","-9999.0","1025","30.27","-999","-999","-9999","-9999","-9999.00","-9999.00","Clear","clear","0","0","0","0","0","0","METAR UKKK 070230Z 00000MPS CAVOK 12/11 Q1025 R08/CLRD70 TEMPO 1000 BR"
"6:00 AM EEST on September 07, 2016","2016","09","07","06","00","Europe/Kiev","3:00 AM GMT on September 07, 2016","2016","09","07","03","00","UTC","15","60","12","53","71","3.6","2.2","","","340","NNW","20","12","1025","30.27","-999","-999","-9999","-9999","","","","","0","0","0","0","0","0","AAXX 07031 33345 42998 03401 10154 20117 30050 40250 52003 555 10012"
"6:00 AM EEST on September 07, 2016","2016","09","07","06","00","Europe/Kiev","3:00 AM GMT on September 07, 2016","2016","09","07","03","00","UTC","12.0","53.6","11.0","51.8","94","0.0","0.0","-9999.0","-9999.0","0","North","-9999.0","-9999.0","1025","30.27","-999","-999","-9999","-9999","-9999.00","-9999.00","Clear","clear","0","0","0","0","0","0","METAR UKKK 070300Z 00000MPS CAVOK 12/11 Q1025 R08/CLRD70 TEMPO 1000 BR"
"6:30 AM EEST on September 07, 2016","2016","09","07","06","30","Europe/Kiev","3:30 AM GMT on September 07, 2016","2016","09","07","03","30","UTC","12.0","53.6","12.0","53.6","100","0.0","0.0","-9999.0","-9999.0","0","North","6.0","3.7","1025","30.27","-999","-999","-9999","-9999","-9999.00","-9999.00","Shallow Fog","fog","1","0","0","0","0","0","METAR UKKK 070330Z 00000MPS 6000 MIFG NSC 12/12 Q1025 R08/CLRD70 TEMPO 1000 BR"
"7:00 AM EEST on September 07, 2016","2016","09","07","07","00","Europe/Kiev","4:00 AM GMT on September 07, 2016","2016","09","07","04","00","UTC","14.0","57.2","13.0","55.4","94","0.0","0.0","-9999.0","-9999.0","0","North","9.0","5.6","1025","30.27","-999","-999","-9999","-9999","-9999.00","-9999.00","Shallow Fog","fog","1","0","0","0","0","0","METAR UKKK 070400Z 00000MPS 9000 MIFG NSC 14/13 Q1025 R08/CLRD70 NOSIG"
"7:30 AM EEST on September 07, 2016","2016","09","07","07","30","Europe/Kiev","4:30 AM GMT on September 07, 2016","2016","09","07","04","30","UTC","15.0","59.0","14.0","57.2","94","3.6","2.2","-9999.0","-9999.0","0","Variable","-9999.0","-9999.0","1025","30.27","-999","-999","-9999","-9999","-9999.00","-9999.00","Clear","clear","0","0","0","0","0","0","METAR UKKK 070430Z VRB01MPS CAVOK 15/14 Q1025 R08/CLRD70 NOSIG"
"8:00 AM EEST on September 07, 2016","2016","09","07","08","00","Europe/Kiev","5:00 AM GMT on September 07, 2016","2016","09","07","05","00","UTC","16.0","60.8","14.0","57.2","88","3.6","2.2","-9999.0","-9999.0","230","SW","-9999.0","-9999.0","1025","30.27","-999","-999","-9999","-9999","-9999.00","-9999.00","Clear","clear","0","0","0","0","0","0","METAR UKKK 070500Z 23001MPS CAVOK 16/14 Q1025 R08/CLRD70 NOSIG"
"8:30 AM EEST on September 07, 2016","2016","09","07","08","30","Europe/Kiev","5:30 AM GMT on September 07, 2016","2016","09","07","05","30","UTC","18.0","64.4","14.0","57.2","77","3.6","2.2","-9999.0","-9999.0","0","Variable","-9999.0","-9999.0","1025","30.27","-999","-999","-9999","-9999","-9999.00","-9999.00","Clear","clear","0","0","0","0","0","0","METAR UKKK 070530Z VRB01MPS CAVOK 18/14 Q1025 R26/CLRD70 NOSIG"
"9:00 AM EEST on September 07, 2016","2016","09","07","09","00","Europe/Kiev","6:00 AM GMT on September 07, 2016","2016","09","07","06","00","UTC","19","66","12","53","53","3.6","2.2","","","10","North","20","12","1025","30.27","-999","-999","-9999","-9999","","","Mostly Cloudy","mostlycloudy","0","0","0","0","0","0","AAXX 07061 33345 32998 60101 10191 20115 30051 40248 51001 85000 333 20149 555 10024"
"9:00 AM EEST on September 07, 2016","2016","09","07","09","00","Europe/Kiev","6:00 AM GMT on September 07, 2016","2016","09","07","06","00","UTC","19.0","66.2","12.0","53.6","64","3.6","2.2","-9999.0","-9999.0","0","Variable","9.0","5.6","1025","30.27","-999","-999","-9999","-9999","-9999.00","-9999.00","Unknown","unknown","0","0","0","0","0","0","METAR UKKK 070600Z VRB01MPS 9000 NSC 19/12 Q1025 R26/CLRD70 NOSIG"
"9:30 AM EEST on September 07, 2016","2016","09","07","09","30","Europe/Kiev","6:30 AM GMT on September 07, 2016","2016","09","07","06","30","UTC","21.0","69.8","12.0","53.6","56","3.6","2.2","-9999.0","-9999.0","0","Variable","-9999.0","-9999.0","1025","30.27","-999","-999","-9999","-9999","-9999.00","-9999.00","Clear","clear","0","0","0","0","0","0","METAR UKKK 070630Z VRB01MPS CAVOK 21/12 Q1025 R26/CLRD70 NOSIG"
"10:00 AM EEST on September 07, 2016","2016","09","07","10","00","Europe/Kiev","7:00 AM GMT on September 07, 2016","2016","09","07","07","00","UTC","22.0","71.6","11.0","51.8","50","7.2","4.5","-9999.0","-9999.0","290","WNW","-9999.0","-9999.0","1025","30.27","-999","-999","-9999","-9999","-9999.00","-9999.00","Clear","clear","0","0","0","0","0","0","METAR UKKK 070700Z 29002MPS CAVOK 22/11 Q1025 R26/CLRD70 NOSIG"
"10:30 AM EEST on September 07, 2016","2016","09","07","10","30","Europe/Kiev","7:30 AM GMT on September 07, 2016","2016","09","07","07","30","UTC","22.0","71.6","11.0","51.8","50","7.2","4.5","-9999.0","-9999.0","340","NNW","-9999.0","-9999.0","1025","30.27","-999","-999","-9999","-9999","-9999.00","-9999.00","Clear","clear","0","0","0","0","0","0","METAR UKKK 070730Z 34002MPS 290V030 CAVOK 22/11 Q1025 R26/CLRD70 NOSIG"
"11:00 AM EEST on September 07, 2016","2016","09","07","11","00","Europe/Kiev","8:00 AM GMT on September 07, 2016","2016","09","07","08","00","UTC","23.0","73.4","11.0","51.8","47","10.8","6.7","-9999.0","-9999.0","330","NNW","10.0","6.2","1025","30.27","-999","-999","-9999","-9999","-9999.00","-9999.00","Partly Cloudy","partlycloudy","0","0","0","0","0","0","METAR UKKK 070800Z 33003MPS 290V020 9999 FEW044 23/11 Q1025 R26/CLRD70 NOSIG"
"11:30 AM EEST on September 07, 2016","2016","09","07","11","30","Europe/Kiev","8:30 AM GMT on September 07, 2016","2016","09","07","08","30","UTC","23.0","73.4","12.0","53.6","50","10.8","6.7","-9999.0","-9999.0","300","WNW","10.0","6.2","1025","30.27","-999","-999","-9999","-9999","-9999.00","-9999.00","Scattered Clouds","partlycloudy","0","0","0","0","0","0","METAR UKKK 070830Z 30003MPS 270V350 9999 SCT043 23/12 Q1025 R26/CLRD70 NOSIG"
"12:00 PM EEST on September 07, 2016","2016","09","07","12","00","Europe/Kiev","9:00 AM GMT on September 07, 2016","2016","09","07","09","00","UTC","23","73","12","54","40","7.2","4.5","","","30","NNE","20","12","1024","30.25","-999","-999","-9999","-9999","","","Partly Cloudy","partlycloudy","0","0","0","0","0","0","AAXX 07091 33345 42598 50302 10228 20120 30046 40241 58005 83801 555 10035"
"12:00 PM EEST on September 07, 2016","2016","09","07","12","00","Europe/Kiev","9:00 AM GMT on September 07, 2016","2016","09","07","09","00","UTC","23.0","73.4","12.0","53.6","50","10.8","6.7","-9999.0","-9999.0","320","NW","10.0","6.2","1024","30.24","-999","-999","-9999","-9999","-9999.00","-9999.00","Mostly Cloudy","mostlycloudy","0","0","0","0","0","0","METAR UKKK 070900Z 32003MPS 9999 BKN043 23/12 Q1024 R26/CLRD70 NOSIG"
"12:30 PM EEST on September 07, 2016","2016","09","07","12","30","Europe/Kiev","9:30 AM GMT on September 07, 2016","2016","09","07","09","30","UTC","24.0","75.2","12.0","53.6","47","7.2","4.5","-9999.0","-9999.0","20","NNE","10.0","6.2","1024","30.24","-999","-999","-9999","-9999","-9999.00","-9999.00","Mostly Cloudy","mostlycloudy","0","0","0","0","0","0","METAR UKKK 070930Z 02002MPS 9999 BKN047 24/12 Q1024 R26/CLRD70 NOSIG"
"1:00 PM EEST on September 07, 2016","2016","09","07","13","00","Europe/Kiev","10:00 AM GMT on September 07, 2016","2016","09","07","10","00","UTC","24.0","75.2","11.0","51.8","44","18.0","11.2","-9999.0","-9999.0","310","NW","10.0","6.2","1024","30.24","-999","-999","-9999","-9999","-9999.00","-9999.00","Mostly Cloudy","mostlycloudy","0","0","0","0","0","0","METAR UKKK 071000Z 31005MPS 270V360 9999 BKN047 24/11 Q1024 R26/CLRD70 NOSIG"
"1:30 PM EEST on September 07, 2016","2016","09","07","13","30","Europe/Kiev","10:30 AM GMT on September 07, 2016","2016","09","07","10","30","UTC","24.0","75.2","10.0","50.0","41","14.4","8.9","-9999.0","-9999.0","260","West","-9999.0","-9999.0","1024","30.24","-999","-999","-9999","-9999","-9999.00","-9999.00","Clear","clear","0","0","0","0","0","0","METAR UKKK 071030Z 26004MPS CAVOK 24/10 Q1024 R26/CLRD70 NOSIG"
"2:00 PM EEST on September 07, 2016","2016","09","07","14","00","Europe/Kiev","11:00 AM GMT on September 07, 2016","2016","09","07","11","00","UTC","25.0","77.0","11.0","51.8","41","18.0","11.2","-9999.0","-9999.0","300","WNW","-9999.0","-9999.0","1024","30.24","-999","-999","-9999","-9999","-9999.00","-9999.00","Clear","clear","0","0","0","0","0","0","METAR UKKK 071100Z 30005MPS 270V340 CAVOK 25/11 Q1024 R26/CLRD70 NOSIG"
"2:30 PM EEST on September 07, 2016","2016","09","07","14","30","Europe/Kiev","11:30 AM GMT on September 07, 2016","2016","09","07","11","30","UTC","25.0","77.0","10.0","50.0","39","18.0","11.2","-9999.0","-9999.0","340","NNW","-9999.0","-9999.0","1023","30.21","-999","-999","-9999","-9999","-9999.00","-9999.00","Clear","clear","0","0","0","0","0","0","METAR UKKK 071130Z 34005MPS 290V020 CAVOK 25/10 Q1023 R26/CLRD70 NOSIG"
"3:00 PM EEST on September 07, 2016","2016","09","07","15","00","Europe/Kiev","12:00 PM GMT on September 07, 2016","2016","09","07","12","00","UTC","25","77","12","53","32","10.8","6.7","","","20","NNE","20","12","1023","30.20","-999","-999","-9999","-9999","","","Clear","clear","0","0","0","0","0","0","AAXX 07121 33345 32998 20203 10250 20116 30033 40226 57013 80005 555 10043"
"3:00 PM EEST on September 07, 2016","2016","09","07","15","00","Europe/Kiev","12:00 PM GMT on September 07, 2016","2016","09","07","12","00","UTC","25.0","77.0","10.0","50.0","39","10.8","6.7","-9999.0","-9999.0","310","NW","-9999.0","-9999.0","1023","30.21","-999","-999","-9999","-9999","-9999.00","-9999.00","Clear","clear","0","0","0","0","0","0","METAR UKKK 071200Z 31003MPS CAVOK 25/10 Q1023 R26/CLRD70 NOSIG"
"3:30 PM EEST on September 07, 2016","2016","09","07","15","30","Europe/Kiev","12:30 PM GMT on September 07, 2016","2016","09","07","12","30","UTC","25.0","77.0","9.0","48.2","36","10.8","6.7","-9999.0","-9999.0","280","West","-9999.0","-9999.0","1023","30.21","-999","-999","-9999","-9999","-9999.00","-9999.00","Clear","clear","0","0","0","0","0","0","METAR UKKK 071230Z 28003MPS 240V320 CAVOK 25/09 Q1023 R26/CLRD70 NOSIG"
"4:00 PM EEST on September 07, 2016","2016","09","07","16","00","Europe/Kiev","1:00 PM GMT on September 07, 2016","2016","09","07","13","00","UTC","25.0","77.0","9.0","48.2","36","10.8","6.7","-9999.0","-9999.0","320","NW","-9999.0","-9999.0","1022","30.18","-999","-999","-9999","-9999","-9999.00","-9999.00","Clear","clear","0","0","0","0","0","0","METAR UKKK 071300Z 32003MPS 280V020 CAVOK 25/09 Q1022 R26/CLRD70 NOSIG"
"4:30 PM EEST on September 07, 2016","2016","09","07","16","30","Europe/Kiev","1:30 PM GMT on September 07, 2016","2016","09","07","13","30","UTC","26.0","78.8","9.0","48.2","34","14.4","8.9","-9999.0","-9999.0","320","NW","-9999.0","-9999.0","1022","30.18","-999","-999","-9999","-9999","-9999.00","-9999.00","Clear","clear","0","0","0","0","0","0","METAR UKKK 071330Z 32004MPS 280V020 CAVOK 26/09 Q1022 R26/CLRD70 NOSIG"
"5:00 PM EEST on September 07, 2016","2016","09","07","17","00","Europe/Kiev","2:00 PM GMT on September 07, 2016","2016","09","07","14","00","UTC","26.0","78.8","9.0","48.2","34","14.4","8.9","-9999.0","-9999.0","310","NW","-9999.0","-9999.0","1022","30.18","-999","-999","-9999","-9999","-9999.00","-9999.00","Clear","clear","0","0","0","0","0","0","METAR UKKK 071400Z 31004MPS 280V340 CAVOK 26/09 Q1022 R26/CLRD70 NOSIG"
"5:30 PM EEST on September 07, 2016","2016","09","07","17","30","Europe/Kiev","2:30 PM GMT on September 07, 2016","2016","09","07","14","30","UTC","26.0","78.8","9.0","48.2","34","14.4","8.9","-9999.0","-9999.0","330","NNW","-9999.0","-9999.0","1022","30.18","-999","-999","-9999","-9999","-9999.00","-9999.00","Clear","clear","0","0","0","0","0","0","METAR UKKK 071430Z 33004MPS 300V030 CAVOK 26/09 Q1022 R26/CLRD70 NOSIG"
"6:00 PM EEST on September 07, 2016","2016","09","07","18","00","Europe/Kiev","3:00 PM GMT on September 07, 2016","2016","09","07","15","00","UTC","25","77","10","50","28","3.6","2.2","","","20","NNE","20","12","1021","30.15","-999","-999","-9999","-9999","","","Clear","clear","0","0","0","0","0","0","AAXX 07151 33345 42998 30201 10251 20099 30017 40210 57016 80005 555 10032"
"6:00 PM EEST on September 07, 2016","2016","09","07","18","00","Europe/Kiev","3:00 PM GMT on September 07, 2016","2016","09","07","15","00","UTC","25.0","77.0","8.0","46.4","34","14.4","8.9","-9999.0","-9999.0","310","NW","-9999.0","-9999.0","1021","30.15","-999","-999","-9999","-9999","-9999.00","-9999.00","Clear","clear","0","0","0","0","0","0","METAR UKKK 071500Z 31004MPS 290V350 CAVOK 25/08 Q1021 R26/CLRD70 NOSIG"
"6:30 PM EEST on September 07, 2016","2016","09","07","18","30","Europe/Kiev","3:30 PM GMT on September 07, 2016","2016","09","07","15","30","UTC","25.0","77.0","7.0","44.6","32","14.4","8.9","-9999.0","-9999.0","290","WNW","-9999.0","-9999.0","1021","30.15","-999","-999","-9999","-9999","-9999.00","-9999.00","Clear","clear","0","0","0","0","0","0","METAR UKKK 071530Z 29004MPS 260V330 CAVOK 25/07 Q1021 R26/CLRD70 NOSIG"
"7:00 PM EEST on September 07, 2016","2016","09","07","19","00","Europe/Kiev","4:00 PM GMT on September 07, 2016","2016","09","07","16","00","UTC","24.0","75.2","7.0","44.6","34","14.4","8.9","-9999.0","-9999.0","300","WNW","-9999.0","-9999.0","1021","30.15","-999","-999","-9999","-9999","-9999.00","-9999.00","Clear","clear","0","0","0","0","0","0","METAR UKKK 071600Z 30004MPS CAVOK 24/07 Q1021 R26/CLRD70 NOSIG"
"7:30 PM EEST on September 07, 2016","2016","09","07","19","30","Europe/Kiev","4:30 PM GMT on September 07, 2016","2016","09","07","16","30","UTC","23.0","73.4","7.0","44.6","36","10.8","6.7","-9999.0","-9999.0","310","NW","-9999.0","-9999.0","1021","30.15","-999","-999","-9999","-9999","-9999.00","-9999.00","Clear","clear","0","0","0","0","0","0","METAR UKKK 071630Z 31003MPS CAVOK 23/07 Q1021 R26/CLRD70 NOSIG"
"8:00 PM EEST on September 07, 2016","2016","09","07","20","00","Europe/Kiev","5:00 PM GMT on September 07, 2016","2016","09","07","17","00","UTC","20.0","68.0","8.0","46.4","46","7.2","4.5","-9999.0","-9999.0","320","NW","-9999.0","-9999.0","1021","30.15","-999","-999","-9999","-9999","-9999.00","-9999.00","Clear","clear","0","0","0","0","0","0","METAR UKKK 071700Z 32002MPS 270V340 CAVOK 20/08 Q1021 R26/CLRD70 NOSIG"
"8:30 PM EEST on September 07, 2016","2016","09","07","20","30","Europe/Kiev","5:30 PM GMT on September 07, 2016","2016","09","07","17","30","UTC","17.0","62.6","9.0","48.2","59","3.6","2.2","-9999.0","-9999.0","270","West","-9999.0","-9999.0","1021","30.15","-999","-999","-9999","-9999","-9999.00","-9999.00","Clear","clear","0","0","0","0","0","0","METAR UKKK 071730Z 27001MPS CAVOK 17/09 Q1021 R26/CLRD70 NOSIG"
"9:00 PM EEST on September 07, 2016","2016","09","07","21","00","Europe/Kiev","6:00 PM GMT on September 07, 2016","2016","09","07","18","00","UTC","19","65","11","51","51","0.0","0.0","","","","","20","12","1021","30.15","-999","-999","-9999","-9999","","","","","0","0","0","0","0","0","AAXX 07181 33345 32998 00000 10186 20106 30013 40210 56004 333 10262 555 10017"
"9:00 PM EEST on September 07, 2016","2016","09","07","21","00","Europe/Kiev","6:00 PM GMT on September 07, 2016","2016","09","07","18","00","UTC","15.0","59.0","10.0","50.0","72","3.6","2.2","-9999.0","-9999.0","270","West","-9999.0","-9999.0","1021","30.15","-999","-999","-9999","-9999","-9999.00","-9999.00","Clear","clear","0","0","0","0","0","0","METAR UKKK 071800Z 27001MPS CAVOK 15/10 Q1021 R26/CLRD70 NOSIG"
"9:30 PM EEST on September 07, 2016","2016","09","07","21","30","Europe/Kiev","6:30 PM GMT on September 07, 2016","2016","09","07","18","30","UTC","15.0","59.0","9.0","48.2","67","0.0","0.0","-9999.0","-9999.0","0","North","-9999.0","-9999.0","1021","30.15","-999","-999","-9999","-9999","-9999.00","-9999.00","Clear","clear","0","0","0","0","0","0","METAR UKKK 071830Z 00000MPS CAVOK 15/09 Q1021 R08/CLRD70 NOSIG"
"10:00 PM EEST on September 07, 2016","2016","09","07","22","00","Europe/Kiev","7:00 PM GMT on September 07, 2016","2016","09","07","19","00","UTC","14.0","57.2","10.0","50.0","77","3.6","2.2","-9999.0","-9999.0","220","SW","-9999.0","-9999.0","1021","30.15","-999","-999","-9999","-9999","-9999.00","-9999.00","Clear","clear","0","0","0","0","0","0","METAR UKKK 071900Z 22001MPS CAVOK 14/10 Q1021 R08/CLRD70 NOSIG"
"10:30 PM EEST on September 07, 2016","2016","09","07","22","30","Europe/Kiev","7:30 PM GMT on September 07, 2016","2016","09","07","19","30","UTC","14.0","57.2","10.0","50.0","77","0.0","0.0","-9999.0","-9999.0","0","North","-9999.0","-9999.0","1021","30.15","-999","-999","-9999","-9999","-9999.00","-9999.00","Clear","clear","0","0","0","0","0","0","METAR UKKK 071930Z 00000MPS CAVOK 14/10 Q1021 R08/CLRD70 NOSIG"
"11:00 PM EEST on September 07, 2016","2016","09","07","23","00","Europe/Kiev","8:00 PM GMT on September 07, 2016","2016","09","07","20","00","UTC","14.0","57.2","10.0","50.0","77","0.0","0.0","-9999.0","-9999.0","0","North","-9999.0","-9999.0","1021","30.15","-999","-999","-9999","-9999","-9999.00","-9999.00","Clear","clear","0","0","0","0","0","0","METAR UKKK 072000Z 00000MPS CAVOK 14/10 Q1021 R08/CLRD70 NOSIG"
"11:30 PM EEST on September 07, 2016","2016","09","07","23","30","Europe/Kiev","8:30 PM GMT on September 07, 2016","2016","09","07","20","30","UTC","13.0","55.4","10.0","50.0","82","7.2","4.5","-9999.0","-9999.0","260","West","9.0","5.6","1021","30.15","-999","-999","-9999","-9999","-9999.00","-9999.00","Unknown","unknown","0","0","0","0","0","0","METAR UKKK 072030Z 26002MPS 9000 NSC 13/10 Q1021 R26/CLRD70 NOSIG"
"12:00 AM EEST on September 08, 2016","2016","09","08","00","00","Europe/Kiev","9:00 PM GMT on September 07, 2016","2016","09","07","21","00","UTC","18","65","9","48","43","3.6","2.2","","","320","NW","20","12","1020","30.14","-999","-999","-9999","-9999","","","","","0","0","0","0","0","0","AAXX 07211 33345 42998 03201 10185 20087 30008 40205 57005 555 10015"
"12:00 AM EEST on September 08, 2016","2016","09","08","00","00","Europe/Kiev","9:00 PM GMT on September 07, 2016","2016","09","07","21","00","UTC","12.0","53.6","9.0","48.2","82","7.2","4.5","-9999.0","-9999.0","260","West","-9999.0","-9999.0","1021","30.15","-999","-999","-9999","-9999","-9999.00","-9999.00","Clear","clear","0","0","0","0","0","0","METAR UKKK 072100Z 26002MPS CAVOK 12/09 Q1021 R26/CLRD70 NOSIG"
"12:30 AM EEST on September 08, 2016","2016","09","08","00","30","Europe/Kiev","9:30 PM GMT on September 07, 2016","2016","09","07","21","30","UTC","12.0","53.6","9.0","48.2","82","7.2","4.5","-9999.0","-9999.0","260","West","-9999.0","-9999.0","1020","30.12","-999","-999","-9999","-9999","-9999.00","-9999.00","Clear","clear","0","0","0","0","0","0","METAR UKKK 072130Z 26002MPS CAVOK 12/09 Q1020 R26/CLRD70 NOSIG"
"1:00 AM EEST on September 08, 2016","2016","09","08","01","00","Europe/Kiev","10:00 PM GMT on September 07, 2016","2016","09","07","22","00","UTC","11.0","51.8","9.0","48.2","88","7.2","4.5","-9999.0","-9999.0","260","West","-9999.0","-9999.0","1021","30.15","-999","-999","-9999","-9999","-9999.00","-9999.00","Clear","clear","0","0","0","0","0","0","METAR UKKK 072200Z 26002MPS CAVOK 11/09 Q1021 R26/CLRD70 NOSIG"
"1:30 AM EEST on September 08, 2016","2016","09","08","01","30","Europe/Kiev","10:30 PM GMT on September 07, 2016","2016","09","07","22","30","UTC","11.0","51.8","9.0","48.2","88","7.2","4.5","-9999.0","-9999.0","260","West","-9999.0","-9999.0","1020","30.12","-999","-999","-9999","-9999","-9999.00","-9999.00","Clear","clear","0","0","0","0","0","0","METAR UKKK 072230Z 26002MPS CAVOK 11/09 Q1020 R26/CLRD70 NOSIG"
"2:00 AM EEST on September 08, 2016","2016","09","08","02","00","Europe/Kiev","11:00 PM GMT on September 07, 2016","2016","09","07","23","00","UTC","11.0","51.8","10.0","50.0","94","7.2","4.5","-9999.0","-9999.0","260","West","-9999.0","-9999.0","1020","30.12","-999","-999","-9999","-9999","-9999.00","-9999.00","Clear","clear","0","0","0","0","0","0","METAR UKKK 072300Z 26002MPS CAVOK 11/10 Q1020 R26/CLRD70 NOSIG"
"2:30 AM EEST on September 08, 2016","2016","09","08","02","30","Europe/Kiev","11:30 PM GMT on September 07, 2016","2016","09","07","23","30","UTC","12.0","53.6","9.0","48.2","82","7.2","4.5","-9999.0","-9999.0","250","WSW","-9999.0","-9999.0","1020","30.12","-999","-999","-9999","-9999","-9999.00","-9999.00","Clear","clear","0","0","0","0","0","0","METAR UKKK 072330Z 25002MPS CAVOK 12/09 Q1020 R26/CLRD70 NOSIG"
"3:00 AM EEST on September 08, 2016","2016","09","08","03","00","Europe/Kiev","12:00 AM GMT on September 08, 2016","2016","09","08","00","00","UTC","17","62","9","49","52","7.2","4.5","","","310","NW","20","12","1020","30.13","-999","-999","-9999","-9999","","","","","0","0","0","0","0","0","AAXX 08001 33345 32998 03102 10167 20094 30003 40201 57005 555 10013"
"3:00 AM EEST on September 08, 2016","2016","09","08","03","00","Europe/Kiev","12:00 AM GMT on September 08, 2016","2016","09","08","00","00","UTC","11.0","51.8","9.0","48.2","88","10.8","6.7","-9999.0","-9999.0","260","West","9.0","5.6","1020","30.12","-999","-999","-9999","-9999","-9999.00","-9999.00","Unknown","unknown","0","0","0","0","0","0","METAR UKKK 080000Z 26003MPS 9000 NSC 11/09 Q1020 R26/CLRD70 NOSIG"
"3:30 AM EEST on September 08, 2016","2016","09","08","03","30","Europe/Kiev","12:30 AM GMT on September 08, 2016","2016","09","08","00","30","UTC","10.0","50.0","9.0","48.2","94","7.2","4.5","-9999.0","-9999.0","270","West","9.0","5.6","1020","30.12","-999","-999","-9999","-9999","-9999.00","-9999.00","Unknown","unknown","0","0","0","0","0","0","METAR UKKK 080030Z 27002MPS 9000 NSC 10/09 Q1020 R26/CLRD70 NOSIG"
"4:00 AM EEST on September 08, 2016","2016","09","08","04","00","Europe/Kiev","1:00 AM GMT on September 08, 2016","2016","09","08","01","00","UTC","11.0","51.8","10.0","50.0","94","10.8","6.7","-9999.0","-9999.0","250","WSW","-9999.0","-9999.0","1020","30.12","-999","-999","-9999","-9999","-9999.00","-9999.00","Clear","clear","0","0","0","0","0","0","METAR UKKK 080100Z 25003MPS CAVOK 11/10 Q1020 R26/CLRD70 NOSIG"
"4:30 AM EEST on September 08, 2016","2016","09","08","04","30","Europe/Kiev","1:30 AM GMT on September 08, 2016","2016","09","08","01","30","UTC","11.0","51.8","9.0","48.2","88","7.2","4.5","-9999.0","-9999.0","250","WSW","-9999.0","-9999.0","1020","30.12","-999","-999","-9999","-9999","-9999.00","-9999.00","Clear","clear","0","0","0","0","0","0","METAR UKKK 080130Z 25002MPS CAVOK 11/09 Q1020 R26/CLRD70 NOSIG"
"5:00 AM EEST on September 08, 2016","2016","09","08","05","00","Europe/Kiev","2:00 AM GMT on September 08, 2016","2016","09","08","02","00","UTC","11.0","51.8","9.0","48.2","88","10.8","6.7","-9999.0","-9999.0","250","WSW","-9999.0","-9999.0","1020","30.12","-999","-999","-9999","-9999","-9999.00","-9999.00","Clear","clear","0","0","0","0","0","0","METAR UKKK 080200Z 25003MPS CAVOK 11/09 Q1020 R26/CLRD70 NOSIG"
"5:30 AM EEST on September 08, 2016","2016","09","08","05","30","Europe/Kiev","2:30 AM GMT on September 08, 2016","2016","09","08","02","30","UTC","10.0","50.0","9.0","48.2","94","7.2","4.5","-9999.0","-9999.0","250","WSW","-9999.0","-9999.0","1020","30.12","-999","-999","-9999","-9999","-9999.00","-9999.00","Clear","clear","0","0","0","0","0","0","METAR UKKK 080230Z 25002MPS CAVOK 10/09 Q1020 R26/CLRD70 NOSIG"
"6:00 AM EEST on September 08, 2016","2016","09","08","06","00","Europe/Kiev","3:00 AM GMT on September 08, 2016","2016","09","08","03","00","UTC","15","59","9","49","59","7.2","4.5","","","330","NNW","20","12","1019","30.11","-999","-999","-9999","-9999","","","Clear","clear","0","0","0","0","0","0","AAXX 08031 33345 42998 33302 10150 20092 39995 40194 57008 80005 555 10012"
"6:00 AM EEST on September 08, 2016","2016","09","08","06","00","Europe/Kiev","3:00 AM GMT on September 08, 2016","2016","09","08","03","00","UTC","10.0","50.0","9.0","48.2","94","7.2","4.5","-9999.0","-9999.0","250","WSW","-9999.0","-9999.0","1019","30.09","-999","-999","-9999","-9999","-9999.00","-9999.00","Clear","clear","0","0","0","0","0","0","METAR UKKK 080300Z 25002MPS CAVOK 10/09 Q1019 R26/CLRD70 NOSIG"
"6:30 AM EEST on September 08, 2016","2016","09","08","06","30","Europe/Kiev","3:30 AM GMT on September 08, 2016","2016","09","08","03","30","UTC","11.0","51.8","9.0","48.2","88","7.2","4.5","-9999.0","-9999.0","250","WSW","-9999.0","-9999.0","1019","30.09","-999","-999","-9999","-9999","-9999.00","-9999.00","Clear","clear","0","0","0","0","0","0","METAR UKKK 080330Z 25002MPS CAVOK 11/09 Q1019 R26/CLRD70 NOSIG"
"7:00 AM EEST on September 08, 2016","2016","09","08","07","00","Europe/Kiev","4:00 AM GMT on September 08, 2016","2016","09","08","04","00","UTC","10.0","50.0","9.0","48.2","94","10.8","6.7","-9999.0","-9999.0","260","West","-9999.0","-9999.0","1019","30.09","-999","-999","-9999","-9999","-9999.00","-9999.00","Clear","clear","0","0","0","0","0","0","METAR UKKK 080400Z 26003MPS CAVOK 10/09 Q1019 R26/CLRD70 NOSIG"
"7:30 AM EEST on September 08, 2016","2016","09","08","07","30","Europe/Kiev","4:30 AM GMT on September 08, 2016","2016","09","08","04","30","UTC","13.0","55.4","10.0","50.0","82","10.8","6.7","-9999.0","-9999.0","260","West","-9999.0","-9999.0","1019","30.09","-999","-999","-9999","-9999","-9999.00","-9999.00","Clear","clear","0","0","0","0","0","0","METAR UKKK 080430Z 26003MPS CAVOK 13/10 Q1019 R26/CLRD70 NOSIG"
"8:00 AM EEST on September 08, 2016","2016","09","08","08","00","Europe/Kiev","5:00 AM GMT on September 08, 2016","2016","09","08","05","00","UTC","14.0","57.2","11.0","51.8","82","10.8","6.7","-9999.0","-9999.0","260","West","-9999.0","-9999.0","1019","30.09","-999","-999","-9999","-9999","-9999.00","-9999.00","Clear","clear","0","0","0","0","0","0","METAR UKKK 080500Z 26003MPS CAVOK 14/11 Q1019 R26/CLRD70 NOSIG"
"8:30 AM EEST on September 08, 2016","2016","09","08","08","30","Europe/Kiev","5:30 AM GMT on September 08, 2016","2016","09","08","05","30","UTC","16.0","60.8","11.0","51.8","72","10.8","6.7","-9999.0","-9999.0","260","West","-9999.0","-9999.0","1019","30.09","-999","-999","-9999","-9999","-9999.00","-9999.00","Clear","clear","0","0","0","0","0","0","METAR UKKK 080530Z 26003MPS CAVOK 16/11 Q1019 R26/CLRD70 NOSIG"
"9:00 AM EEST on September 08, 2016","2016","09","08","09","00","Europe/Kiev","6:00 AM GMT on September 08, 2016","2016","09","08","06","00","UTC","18","64","11","51","53","7.2","4.5","","","310","NW","20","12","1019","30.09","-999","-999","-9999","-9999","","","Scattered Clouds","partlycloudy","0","0","0","0","0","0","AAXX 08061 33345 32998 53102 10177 20106 39990 40187 57005 82069 333 20144 555 10021"
"9:00 AM EEST on September 08, 2016","2016","09","08","09","00","Europe/Kiev","6:00 AM GMT on September 08, 2016","2016","09","08","06","00","UTC","15.0","59.0","11.0","51.8","77","10.8","6.7","-9999.0","-9999.0","260","West","-9999.0","-9999.0","1019","30.09","-999","-999","-9999","-9999","-9999.00","-9999.00","Clear","clear","0","0","0","0","0","0","METAR UKKK 080600Z 26003MPS CAVOK 15/11 Q1019 R26/CLRD70 NOSIG"
"9:30 AM EEST on September 08, 2016","2016","09","08","09","30","Europe/Kiev","6:30 AM GMT on September 08, 2016","2016","09","08","06","30","UTC","18.0","64.4","12.0","53.6","68","10.8","6.7","-9999.0","-9999.0","260","West","-9999.0","-9999.0","1019","30.09","-999","-999","-9999","-9999","-9999.00","-9999.00","Clear","clear","0","0","0","0","0","0","METAR UKKK 080630Z 26003MPS CAVOK 18/12 Q1019 R26/CLRD70 NOSIG"
"10:00 AM EEST on September 08, 2016","2016","09","08","10","00","Europe/Kiev","7:00 AM GMT on September 08, 2016","2016","09","08","07","00","UTC","19.0","66.2","11.0","51.8","60","10.8","6.7","-9999.0","-9999.0","260","West","-9999.0","-9999.0","1019","30.09","-999","-999","-9999","-9999","-9999.00","-9999.00","Clear","clear","0","0","0","0","0","0","METAR UKKK 080700Z 26003MPS CAVOK 19/11 Q1019 R26/CLRD70 NOSIG"
"11:00 AM EEST on September 08, 2016","2016","09","08","11","00","Europe/Kiev","8:00 AM GMT on September 08, 2016","2016","09","08","08","00","UTC","22.0","71.6","11.0","51.8","50","18.0","11.2","-9999.0","-9999.0","290","WNW","-9999.0","-9999.0","1018","30.06","-999","-999","-9999","-9999","-9999.00","-9999.00","Clear","clear","0","0","0","0","0","0","METAR UKKK 080800Z 29005MPS CAVOK 22/11 Q1018 R26/CLRD70 NOSIG"
"11:30 AM EEST on September 08, 2016","2016","09","08","11","30","Europe/Kiev","8:30 AM GMT on September 08, 2016","2016","09","08","08","30","UTC","23.0","73.4","11.0","51.8","47","21.6","13.4","-9999.0","-9999.0","310","NW","-9999.0","-9999.0","1018","30.06","-999","-999","-9999","-9999","-9999.00","-9999.00","Clear","clear","0","0","0","0","0","0","METAR UKKK 080830Z 31006MPS 270V330 CAVOK 23/11 Q1018 R26/CLRD70 NOSIG"
"12:00 PM EEST on September 08, 2016","2016","09","08","12","00","Europe/Kiev","9:00 AM GMT on September 08, 2016","2016","09","08","09","00","UTC","23","74","10","51","33","10.8","6.7","","","320","NW","20","12","1017","30.04","-999","-999","-9999","-9999","","","Clear","clear","0","0","0","0","0","0","AAXX 08091 33345 42998 23203 10232 20103 39977 40170 57013 80001 555 10038"
"12:00 PM EEST on September 08, 2016","2016","09","08","12","00","Europe/Kiev","9:00 AM GMT on September 08, 2016","2016","09","08","09","00","UTC","24.0","75.2","11.0","51.8","44","21.6","13.4","-9999.0","-9999.0","310","NW","-9999.0","-9999.0","1017","30.04","-999","-999","-9999","-9999","-9999.00","-9999.00","Clear","clear","0","0","0","0","0","0","METAR UKKK 080900Z 31006MPS CAVOK 24/11 Q1017 R26/CLRD70 NOSIG"
"12:30 PM EEST on September 08, 2016","2016","09","08","12","30","Europe/Kiev","9:30 AM GMT on September 08, 2016","2016","09","08","09","30","UTC","24.0","75.2","10.0","50.0","41","21.6","13.4","-9999.0","-9999.0","310","NW","-9999.0","-9999.0","1017","30.04","-999","-999","-9999","-9999","-9999.00","-9999.00","Clear","clear","0","0","0","0","0","0","METAR UKKK 080930Z 31006MPS 230V350 CAVOK 24/10 Q1017 R26/CLRD70 NOSIG"
"1:00 PM EEST on September 08, 2016","2016","09","08","13","00","Europe/Kiev","10:00 AM GMT on September 08, 2016","2016","09","08","10","00","UTC","24.0","75.2","10.0","50.0","41","18.0","11.2","-9999.0","-9999.0","300","WNW","-9999.0","-9999.0","1017","30.04","-999","-999","-9999","-9999","-9999.00","-9999.00","Clear","clear","0","0","0","0","0","0","METAR UKKK 081000Z 30005MPS 270V340 CAVOK 24/10 Q1017 R26/CLRD70 NOSIG"
"1:30 PM EEST on September 08, 2016","2016","09","08","13","30","Europe/Kiev","10:30 AM GMT on September 08, 2016","2016","09","08","10","30","UTC","25.0","77.0","10.0","50.0","39","18.0","11.2","-9999.0","-9999.0","300","WNW","-9999.0","-9999.0","1016","30.01","-999","-999","-9999","-9999","-9999.00","-9999.00","Clear","clear","0","0","0","0","0","0","METAR UKKK 081030Z 30005MPS 270V340 CAVOK 25/10 Q1016 R26/CLRD70 NOSIG"
"2:00 PM EEST on September 08, 2016","2016","09","08","14","00","Europe/Kiev","11:00 AM GMT on September 08, 2016","2016","09","08","11","00","UTC","25.0","77.0","8.0","46.4","34","21.6","13.4","-9999.0","-9999.0","310","NW","-9999.0","-9999.0","1016","30.01","-999","-999","-9999","-9999","-9999.00","-9999.00","Clear","clear","0","0","0","0","0","0","METAR UKKK 081100Z 31006MPS CAVOK 25/08 Q1016 R26/CLRD70 NOSIG"
"2:30 PM EEST on September 08, 2016","2016","09","08","14","30","Europe/Kiev","11:30 AM GMT on September 08, 2016","2016","09","08","11","30","UTC","26.0","78.8","8.0","46.4","32","18.0","11.2","-9999.0","-9999.0","330","NNW","-9999.0","-9999.0","1016","30.01","-999","-999","-9999","-9999","-9999.00","-9999.00","Clear","clear","0","0","0","0","0","0","METAR UKKK 081130Z 33005MPS 280V010 CAVOK 26/08 Q1016 R26/CLRD70 NOSIG"
"3:00 PM EEST on September 08, 2016","2016","09","08","15","00","Europe/Kiev","12:00 PM GMT on September 08, 2016","2016","09","08","12","00","UTC","26","80","7","45","19","10.8","6.7","","","350","North","20","12","1015","29.97","-999","-999","-9999","-9999","","","Clear","clear","0","0","0","0","0","0","AAXX 08121 33345 32998 43503 10264 20073 39958 40149 57019 80004 555 10042"
"3:00 PM EEST on September 08, 2016","2016","09","08","15","00","Europe/Kiev","12:00 PM GMT on September 08, 2016","2016","09","08","12","00","UTC","26.0","78.8","7.0","44.6","30","25.2","15.7","-9999.0","-9999.0","310","NW","-9999.0","-9999.0","1015","29.98","-999","-999","-9999","-9999","-9999.00","-9999.00","Clear","clear","0","0","0","0","0","0","METAR UKKK 081200Z 31007MPS CAVOK 26/07 Q1015 R26/CLRD70 NOSIG"
"3:30 PM EEST on September 08, 2016","2016","09","08","15","30","Europe/Kiev","12:30 PM GMT on September 08, 2016","2016","09","08","12","30","UTC","27.0","80.6","7.0","44.6","28","21.6","13.4","-9999.0","-9999.0","320","NW","-9999.0","-9999.0","1015","29.98","-999","-999","-9999","-9999","-9999.00","-9999.00","Clear","clear","0","0","0","0","0","0","METAR UKKK 081230Z 32006MPS 290V350 CAVOK 27/07 Q1015 R26/CLRD70 NOSIG"
"4:00 PM EEST on September 08, 2016","2016","09","08","16","00","Europe/Kiev","1:00 PM GMT on September 08, 2016","2016","09","08","13","00","UTC","26.0","78.8","7.0","44.6","30","21.6","13.4","-9999.0","-9999.0","320","NW","-9999.0","-9999.0","1015","29.98","-999","-999","-9999","-9999","-9999.00","-9999.00","Clear","clear","0","0","0","0","0","0","METAR UKKK 081300Z 32006MPS 290V360 CAVOK 26/07 Q1015 R26/CLRD70 NOSIG"
"4:30 PM EEST on September 08, 2016","2016","09","08","16","30","Europe/Kiev","1:30 PM GMT on September 08, 2016","2016","09","08","13","30","UTC","27.0","80.6","7.0","44.6","28","18.0","11.2","-9999.0","-9999.0","320","NW","-9999.0","-9999.0","1015","29.98","-999","-999","-9999","-9999","-9999.00","-9999.00","Clear","clear","0","0","0","0","0","0","METAR UKKK 081330Z 32005MPS 290V360 CAVOK 27/07 Q1015 R26/CLRD70 NOSIG"
"5:00 PM EEST on September 08, 2016","2016","09","08","17","00","Europe/Kiev","2:00 PM GMT on September 08, 2016","2016","09","08","14","00","UTC","26.0","78.8","7.0","44.6","30","21.6","13.4","-9999.0","-9999.0","320","NW","-9999.0","-9999.0","1015","29.98","-999","-999","-9999","-9999","-9999.00","-9999.00","Clear","clear","0","0","0","0","0","0","METAR UKKK 081400Z 32006MPS CAVOK 26/07 Q1015 R26/CLRD70 NOSIG"
"5:30 PM EEST on September 08, 2016","2016","09","08","17","30","Europe/Kiev","2:30 PM GMT on September 08, 2016","2016","09","08","14","30","UTC","26.0","78.8","7.0","44.6","30","21.6","13.4","-9999.0","-9999.0","310","NW","-9999.0","-9999.0","1014","29.95","-999","-999","-9999","-9999","-9999.00","-9999.00","Clear","clear","0","0","0","0","0","0","METAR UKKK 081430Z 31006MPS 260V330 CAVOK 26/07 Q1014 R26/CLRD70 NOSIG"
"6:00 PM EEST on September 08, 2016","2016","09","08","18","00","Europe/Kiev","3:00 PM GMT on September 08, 2016","2016","09","08","15","00","UTC","26","78","6","44","19","7.2","4.5","","","0","North","20","12","1014","29.94","-999","-999","-9999","-9999","","","Clear","clear","0","0","0","0","0","0","AAXX 08151 33345 42998 23602 10258 20065 39947 40138 57011 80001 555 10030"
"6:00 PM EEST on September 08, 2016","2016","09","08","18","00","Europe/Kiev","3:00 PM GMT on September 08, 2016","2016","09","08","15","00","UTC","26.0","78.8","7.0","44.6","30","14.4","8.9","-9999.0","-9999.0","320","NW","-9999.0","-9999.0","1014","29.95","-999","-999","-9999","-9999","-9999.00","-9999.00","Clear","clear","0","0","0","0","0","0","METAR UKKK 081500Z 32004MPS CAVOK 26/07 Q1014 R26/CLRD70 NOSIG"
"6:30 PM EEST on September 08, 2016","2016","09","08","18","30","Europe/Kiev","3:30 PM GMT on September 08, 2016","2016","09","08","15","30","UTC","25.0","77.0","6.0","42.8","29","18.0","11.2","-9999.0","-9999.0","320","NW","-9999.0","-9999.0","1014","29.95","-999","-999","-9999","-9999","-9999.00","-9999.00","Clear","clear","0","0","0","0","0","0","METAR UKKK 081530Z 32005MPS CAVOK 25/06 Q1014 R26/CLRD70 NOSIG"
"7:00 PM EEST on September 08, 2016","2016","09","08","19","00","Europe/Kiev","4:00 PM GMT on September 08, 2016","2016","09","08","16","00","UTC","24.0","75.2","6.0","42.8","31","10.8","6.7","-9999.0","-9999.0","330","NNW","-9999.0","-9999.0","1014","29.95","-999","-999","-9999","-9999","-9999.00","-9999.00","Clear","clear","0","0","0","0","0","0","METAR UKKK 081600Z 33003MPS CAVOK 24/06 Q1014 R26/CLRD70 TEMPO 2000 FU"
"7:30 PM EEST on September 08, 2016","2016","09","08","19","30","Europe/Kiev","4:30 PM GMT on September 08, 2016","2016","09","08","16","30","UTC","23.0","73.4","6.0","42.8","33","10.8","6.7","-9999.0","-9999.0","310","NW","-9999.0","-9999.0","1014","29.95","-999","-999","-9999","-9999","-9999.00","-9999.00","Clear","clear","0","0","0","0","0","0","METAR UKKK 081630Z 31003MPS CAVOK 23/06 Q1014 R26/CLRD70 NOSIG"
"8:00 PM EEST on September 08, 2016","2016","09","08","20","00","Europe/Kiev","5:00 PM GMT on September 08, 2016","2016","09","08","17","00","UTC","19.0","66.2","7.0","44.6","46","7.2","4.5","-9999.0","-9999.0","310","NW","-9999.0","-9999.0","1014","29.95","-999","-999","-9999","-9999","-9999.00","-9999.00","Clear","clear","0","0","0","0","0","0","METAR UKKK 081700Z 31002MPS 280V340 CAVOK 19/07 Q1014 R26/CLRD70 NOSIG"
"8:30 PM EEST on September 08, 2016","2016","09","08","20","30","Europe/Kiev","5:30 PM GMT on September 08, 2016","2016","09","08","17","30","UTC","18.0","64.4","9.0","48.2","56","3.6","2.2","-9999.0","-9999.0","0","Variable","-9999.0","-9999.0","1014","29.95","-999","-999","-9999","-9999","-9999.00","-9999.00","Clear","clear","0","0","0","0","0","0","METAR UKKK 081730Z VRB01MPS CAVOK 18/09 Q1014 R26/CLRD70 NOSIG"
"9:00 PM EEST on September 08, 2016","2016","09","08","21","00","Europe/Kiev","6:00 PM GMT on September 08, 2016","2016","09","08","18","00","UTC","20","68","7","44","31","3.6","2.2","","","330","NNW","20","12","1014","29.95","-999","-999","-9999","-9999","","","Clear","clear","0","0","0","0","0","0","AAXX 08181 33345 32998 23301 10200 20068 39947 40142 54000 80004 333 10269 555 10017"
"9:00 PM EEST on September 08, 2016","2016","09","08","21","00","Europe/Kiev","6:00 PM GMT on September 08, 2016","2016","09","08","18","00","UTC","16.0","60.8","8.0","46.4","59","7.2","4.5","-9999.0","-9999.0","300","WNW","9.0","5.6","1014","29.95","-999","-999","-9999","-9999","-9999.00","-9999.00","Unknown","unknown","0","0","0","0","0","0","METAR UKKK 081800Z 30002MPS 9000 NSC 16/08 Q1014 R26/CLRD70 NOSIG"
"9:30 PM EEST on September 08, 2016","2016","09","08","21","30","Europe/Kiev","6:30 PM GMT on September 08, 2016","2016","09","08","18","30","UTC","14.0","57.2","9.0","48.2","72","7.2","4.5","-9999.0","-9999.0","300","WNW","6.0","3.7","1014","29.95","-999","-999","-9999","-9999","-9999.00","-9999.00","Unknown","unknown","0","0","0","0","0","0","METAR UKKK 081830Z 30002MPS 6000 NSC 14/09 Q1014 R26/CLRD70 NOSIG"
"10:00 PM EEST on September 08, 2016","2016","09","08","22","00","Europe/Kiev","7:00 PM GMT on September 08, 2016","2016","09","08","19","00","UTC","14.0","57.2","9.0","48.2","72","7.2","4.5","-9999.0","-9999.0","280","West","6.0","3.7","1014","29.95","-999","-999","-9999","-9999","-9999.00","-9999.00","Unknown","unknown","0","0","0","0","0","0","METAR UKKK 081900Z 28002MPS 6000 NSC 14/09 Q1014 R26/CLRD70 NOSIG"
"10:30 PM EEST on September 08, 2016","2016","09","08","22","30","Europe/Kiev","7:30 PM GMT on September 08, 2016","2016","09","08","19","30","UTC","14.0","57.2","9.0","48.2","72","7.2","4.5","-9999.0","-9999.0","310","NW","7.0","4.3","1014","29.95","-999","-999","-9999","-9999","-9999.00","-9999.00","Unknown","unknown","0","0","0","0","0","0","METAR UKKK 081930Z 31002MPS 7000 NSC 14/09 Q1014 R26/CLRD70 NOSIG"
"11:00 PM EEST on September 08, 2016","2016","09","08","23","00","Europe/Kiev","8:00 PM GMT on September 08, 2016","2016","09","08","20","00","UTC","15.0","59.0","9.0","48.2","67","7.2","4.5","-9999.0","-9999.0","290","WNW","9.0","5.6","1014","29.95","-999","-999","-9999","-9999","-9999.00","-9999.00","Unknown","unknown","0","0","0","0","0","0","METAR UKKK 082000Z 29002MPS 9000 NSC 15/09 Q1014 R26/CLRD70 NOSIG"
"11:30 PM EEST on September 08, 2016","2016","09","08","23","30","Europe/Kiev","8:30 PM GMT on September 08, 2016","2016","09","08","20","30","UTC","13.0","55.4","9.0","48.2","77","7.2","4.5","-9999.0","-9999.0","300","WNW","9.0","5.6","1014","29.95","-999","-999","-9999","-9999","-9999.00","-9999.00","Unknown","unknown","0","0","0","0","0","0","METAR UKKK 082030Z 30002MPS 9000 NSC 13/09 Q1014 R26/CLRD70 NOSIG"
"12:00 AM EEST on September 09, 2016","2016","09","09","00","00","Europe/Kiev","9:00 PM GMT on September 08, 2016","2016","09","08","21","00","UTC","18","65","8","47","41","3.6","2.2","","","310","NW","10","6","1014","29.95","-999","-999","-9999","-9999","","","","","0","0","0","0","0","0","AAXX 08211 33345 42997 03101 10183 20082 39946 40142 58001 555 10015"
"12:00 AM EEST on September 09, 2016","2016","09","09","00","00","Europe/Kiev","9:00 PM GMT on September 08, 2016","2016","09","08","21","00","UTC","12.0","53.6","9.0","48.2","82","7.2","4.5","-9999.0","-9999.0","310","NW","-9999.0","-9999.0","1014","29.95","-999","-999","-9999","-9999","-9999.00","-9999.00","Clear","clear","0","0","0","0","0","0","METAR UKKK 082100Z 31002MPS CAVOK 12/09 Q1014 R26/CLRD70 NOSIG"
"12:30 AM EEST on September 09, 2016","2016","09","09","00","30","Europe/Kiev","9:30 PM GMT on September 08, 2016","2016","09","08","21","30","UTC","12.0","53.6","9.0","48.2","82","3.6","2.2","-9999.0","-9999.0","280","West","-9999.0","-9999.0","1014","29.95","-999","-999","-9999","-9999","-9999.00","-9999.00","Clear","clear","0","0","0","0","0","0","METAR UKKK 082130Z 28001MPS CAVOK 12/09 Q1014 R26/CLRD70 NOSIG"
"1:00 AM EEST on September 09, 2016","2016","09","09","01","00","Europe/Kiev","10:00 PM GMT on September 08, 2016","2016","09","08","22","00","UTC","12.0","53.6","9.0","48.2","82","3.6","2.2","-9999.0","-9999.0","250","WSW","-9999.0","-9999.0","1014","29.95","-999","-999","-9999","-9999","-9999.00","-9999.00","Clear","clear","0","0","0","0","0","0","METAR UKKK 082200Z 25001MPS CAVOK 12/09 Q1014 R26/CLRD70 NOSIG"
"1:30 AM EEST on September 09, 2016","2016","09","09","01","30","Europe/Kiev","10:30 PM GMT on September 08, 2016","2016","09","08","22","30","UTC","12.0","53.6","9.0","48.2","82","7.2","4.5","-9999.0","-9999.0","260","West","-9999.0","-9999.0","1014","29.95","-999","-999","-9999","-9999","-9999.00","-9999.00","Clear","clear","0","0","0","0","0","0","METAR UKKK 082230Z 26002MPS CAVOK 12/09 Q1014 R26/CLRD70 NOSIG"
"2:00 AM EEST on September 09, 2016","2016","09","09","02","00","Europe/Kiev","11:00 PM GMT on September 08, 2016","2016","09","08","23","00","UTC","12.0","53.6","9.0","48.2","82","0.0","0.0","-9999.0","-9999.0","0","North","8.0","5.0","1015","29.98","-999","-999","-9999","-9999","-9999.00","-9999.00","Unknown","unknown","0","0","0","0","0","0","METAR UKKK 082300Z 00000MPS 8000 NSC 12/09 Q1015 R26/CLRD70 NOSIG"
"2:30 AM EEST on September 09, 2016","2016","09","09","02","30","Europe/Kiev","11:30 PM GMT on September 08, 2016","2016","09","08","23","30","UTC","11.0","51.8","9.0","48.2","88","7.2","4.5","-9999.0","-9999.0","260","West","9.0","5.6","1015","29.98","-999","-999","-9999","-9999","-9999.00","-9999.00","Clear","clear","0","0","0","0","0","0","METAR UKKK 082330Z 26002MPS 9000 SKC 11/09 Q1015 R26/CLRD70 NOSIG"
"3:00 AM EEST on September 09, 2016","2016","09","09","03","00","Europe/Kiev","12:00 AM GMT on September 09, 2016","2016","09","09","00","00","UTC","16","62","10","49","53","3.6","2.2","","","0","North","20","12","1015","29.96","-999","-999","-9999","-9999","","","","","0","0","0","0","0","0","AAXX 09001 33345 32998 03601 10164 20095 39949 40146 53003 555 10013"
"3:00 AM EEST on September 09, 2016","2016","09","09","03","00","Europe/Kiev","12:00 AM GMT on September 09, 2016","2016","09","09","00","00","UTC","11.0","51.8","9.0","48.2","88","3.6","2.2","-9999.0","-9999.0","230","SW","-9999.0","-9999.0","1015","29.98","-999","-999","-9999","-9999","-9999.00","-9999.00","Clear","clear","0","0","0","0","0","0","METAR UKKK 090000Z 23001MPS CAVOK 11/09 Q1015 R26/CLRD70 NOSIG"
"3:30 AM EEST on September 09, 2016","2016","09","09","03","30","Europe/Kiev","12:30 AM GMT on September 09, 2016","2016","09","09","00","30","UTC","11.0","51.8","9.0","48.2","88","7.2","4.5","-9999.0","-9999.0","270","West","9.0","5.6","1015","29.98","-999","-999","-9999","-9999","-9999.00","-9999.00","Clear","clear","0","0","0","0","0","0","METAR UKKK 090030Z 27002MPS 9000 SKC 11/09 Q1015 R26/CLRD70 NOSIG"
"4:00 AM EEST on September 09, 2016","2016","09","09","04","00","Europe/Kiev","1:00 AM GMT on September 09, 2016","2016","09","09","01","00","UTC","11.0","51.8","9.0","48.2","88","7.2","4.5","-9999.0","-9999.0","270","West","6.0","3.7","1015","29.98","-999","-999","-9999","-9999","-9999.00","-9999.00","Clear","clear","0","0","0","0","0","0","METAR UKKK 090100Z 27002MPS 6000 SKC 11/09 Q1015 R26/CLRD70 NOSIG"
"4:30 AM EEST on September 09, 2016","2016","09","09","04","30","Europe/Kiev","1:30 AM GMT on September 09, 2016","2016","09","09","01","30","UTC","11.0","51.8","9.0","48.2","88","7.2","4.5","-9999.0","-9999.0","250","WSW","5.0","3.1","1015","29.98","-999","-999","-9999","-9999","-9999.00","-9999.00","Smoke","hazy","0","0","0","0","0","0","METAR UKKK 090130Z 25002MPS 5000 FU SKC 11/09 Q1015 R26/CLRD70 NOSIG"
"5:00 AM EEST on September 09, 2016","2016","09","09","05","00","Europe/Kiev","2:00 AM GMT on September 09, 2016","2016","09","09","02","00","UTC","10.0","50.0","8.0","46.4","87","7.2","4.5","-9999.0","-9999.0","240","WSW","-9999.0","-9999.0","1015","29.98","-999","-999","-9999","-9999","-9999.00","-9999.00","Clear","clear","0","0","0","0","0","0","METAR UKKK 090200Z 24002MPS CAVOK 10/08 Q1015 R26/CLRD70 NOSIG"
"5:30 AM EEST on September 09, 2016","2016","09","09","05","30","Europe/Kiev","2:30 AM GMT on September 09, 2016","2016","09","09","02","30","UTC","11.0","51.8","9.0","48.2","88","7.2","4.5","-9999.0","-9999.0","250","WSW","7.0","4.3","1015","29.98","-999","-999","-9999","-9999","-9999.00","-9999.00","Clear","clear","0","0","0","0","0","0","METAR UKKK 090230Z 25002MPS 7000 SKC 11/09 Q1015 R26/CLRD70 NOSIG"
"6:00 AM EEST on September 09, 2016","2016","09","09","06","00","Europe/Kiev","3:00 AM GMT on September 09, 2016","2016","09","09","03","00","UTC","14","58","10","51","69","7.2","4.5","","","40","NE","20","12","1016","29.99","-999","-999","-9999","-9999","","","","","0","0","0","0","0","0","AAXX 09031 33345 42998 00402 10145 20103 39956 40155 52007 555 10012"
"6:00 AM EEST on September 09, 2016","2016","09","09","06","00","Europe/Kiev","3:00 AM GMT on September 09, 2016","2016","09","09","03","00","UTC","10.0","50.0","8.0","46.4","87","7.2","4.5","-9999.0","-9999.0","270","West","-9999.0","-9999.0","1015","29.98","-999","-999","-9999","-9999","-9999.00","-9999.00","Clear","clear","0","0","0","0","0","0","METAR UKKK 090300Z 27002MPS 250V320 CAVOK 10/08 Q1015 R26/CLRD70 NOSIG"
"6:30 AM EEST on September 09, 2016","2016","09","09","06","30","Europe/Kiev","3:30 AM GMT on September 09, 2016","2016","09","09","03","30","UTC","10.0","50.0","9.0","48.2","94","0.0","0.0","-9999.0","-9999.0","0","North","9.0","5.6","1016","30.01","-999","-999","-9999","-9999","-9999.00","-9999.00","Clear","clear","0","0","0","0","0","0","METAR UKKK 090330Z 00000MPS 9000 SKC 10/09 Q1016 R26/CLRD70 NOSIG"
"7:00 AM EEST on September 09, 2016","2016","09","09","07","00","Europe/Kiev","4:00 AM GMT on September 09, 2016","2016","09","09","04","00","UTC","10.0","50.0","9.0","48.2","94","3.6","2.2","-9999.0","-9999.0","0","Variable","-9999.0","-9999.0","1016","30.01","-999","-999","-9999","-9999","-9999.00","-9999.00","Clear","clear","0","0","0","0","0","0","METAR UKKK 090400Z VRB01MPS CAVOK 10/09 Q1016 R26/CLRD70 NOSIG"
"7:30 AM EEST on September 09, 2016","2016","09","09","07","30","Europe/Kiev","4:30 AM GMT on September 09, 2016","2016","09","09","04","30","UTC","13.0","55.4","10.0","50.0","82","7.2","4.5","-9999.0","-9999.0","290","WNW","-9999.0","-9999.0","1016","30.01","-999","-999","-9999","-9999","-9999.00","-9999.00","Clear","clear","0","0","0","0","0","0","METAR UKKK 090430Z 29002MPS 270V340 CAVOK 13/10 Q1016 R26/CLRD70 NOSIG"
"8:00 AM EEST on September 09, 2016","2016","09","09","08","00","Europe/Kiev","5:00 AM GMT on September 09, 2016","2016","09","09","05","00","UTC","15.0","59.0","12.0","53.6","82","0.0","0.0","-9999.0","-9999.0","0","North","-9999.0","-9999.0","1016","30.01","-999","-999","-9999","-9999","-9999.00","-9999.00","Clear","clear","0","0","0","0","0","0","METAR UKKK 090500Z 00000MPS CAVOK 15/12 Q1016 R26/CLRD70 NOSIG"
"8:30 AM EEST on September 09, 2016","2016","09","09","08","30","Europe/Kiev","5:30 AM GMT on September 09, 2016","2016","09","09","05","30","UTC","18.0","64.4","14.0","57.2","77","3.6","2.2","-9999.0","-9999.0","0","Variable","-9999.0","-9999.0","1016","30.01","-999","-999","-9999","-9999","-9999.00","-9999.00","Clear","clear","0","0","0","0","0","0","METAR UKKK 090530Z VRB01MPS CAVOK 18/14 Q1016 R26/CLRD70 NOSIG"
"9:00 AM EEST on September 09, 2016","2016","09","09","09","00","Europe/Kiev","6:00 AM GMT on September 09, 2016","2016","09","09","06","00","UTC","19.0","66.2","13.0","55.4","68","3.6","2.2","-9999.0","-9999.0","0","Variable","-9999.0","-9999.0","1016","30.01","-999","-999","-9999","-9999","-9999.00","-9999.00","Clear","clear","0","0","0","0","0","0","METAR UKKK 090600Z VRB01MPS CAVOK 19/13 Q1016 R26/CLRD70 NOSIG"
"9:30 AM EEST on September 09, 2016","2016","09","09","09","30","Europe/Kiev","6:30 AM GMT on September 09, 2016","2016","09","09","06","30","UTC","19.0","66.2","13.0","55.4","68","3.6","2.2","-9999.0","-9999.0","0","Variable","-9999.0","-9999.0","1016","30.01","-999","-999","-9999","-9999","-9999.00","-9999.00","Clear","clear","0","0","0","0","0","0","METAR UKKK 090630Z VRB01MPS CAVOK 19/13 Q1016 R26/CLRD70 NOSIG"
"10:00 AM EEST on September 09, 2016","2016","09","09","10","00","Europe/Kiev","7:00 AM GMT on September 09, 2016","2016","09","09","07","00","UTC","20.0","68.0","13.0","55.4","64","7.2","4.5","-9999.0","-9999.0","340","NNW","-9999.0","-9999.0","1017","30.04","-999","-999","-9999","-9999","-9999.00","-9999.00","Clear","clear","0","0","0","0","0","0","METAR UKKK 090700Z 34002MPS 270V070 CAVOK 20/13 Q1017 R26/CLRD70 NOSIG"
"10:30 AM EEST on September 09, 2016","2016","09","09","10","30","Europe/Kiev","7:30 AM GMT on September 09, 2016","2016","09","09","07","30","UTC","21.0","69.8","14.0","57.2","64","7.2","4.5","-9999.0","-9999.0","330","NNW","-9999.0","-9999.0","1017","30.04","-999","-999","-9999","-9999","-9999.00","-9999.00","Clear","clear","0","0","0","0","0","0","METAR UKKK 090730Z 33002MPS CAVOK 21/14 Q1017 R26/CLRD70 NOSIG"
"11:00 AM EEST on September 09, 2016","2016","09","09","11","00","Europe/Kiev","8:00 AM GMT on September 09, 2016","2016","09","09","08","00","UTC","22.0","71.6","13.0","55.4","57","10.8","6.7","-9999.0","-9999.0","290","WNW","-9999.0","-9999.0","1017","30.04","-999","-999","-9999","-9999","-9999.00","-9999.00","Clear","clear","0","0","0","0","0","0","METAR UKKK 090800Z 29003MPS 250V340 CAVOK 22/13 Q1017 R26/CLRD70 NOSIG"
"11:30 AM EEST on September 09, 2016","2016","09","09","11","30","Europe/Kiev","8:30 AM GMT on September 09, 2016","2016","09","09","08","30","UTC","22.0","71.6","14.0","57.2","60","10.8","6.7","-9999.0","-9999.0","340","NNW","10.0","6.2","1017","30.04","-999","-999","-9999","-9999","-9999.00","-9999.00","Scattered Clouds","partlycloudy","0","0","0","0","0","0","METAR UKKK 090830Z 34003MPS 9999 SCT040 22/14 Q1017 R26/CLRD70 NOSIG"
"12:00 PM EEST on September 09, 2016","2016","09","09","12","00","Europe/Kiev","9:00 AM GMT on September 09, 2016","2016","09","09","09","00","UTC","22","72","13","55","44","7.2","4.5","","","40","NE","20","12","1017","30.03","-999","-999","-9999","-9999","","","Partly Cloudy","partlycloudy","0","0","0","0","0","0","AAXX 09091 33345 42598 30402 10221 20127 39974 40168 52007 83200 555 10035"
"12:00 PM EEST on September 09, 2016","2016","09","09","12","00","Europe/Kiev","9:00 AM GMT on September 09, 2016","2016","09","09","09","00","UTC","23.0","73.4","13.0","55.4","53","10.8","6.7","-9999.0","-9999.0","340","NNW","-9999.0","-9999.0","1017","30.04","-999","-999","-9999","-9999","-9999.00","-9999.00","Clear","clear","0","0","0","0","0","0","METAR UKKK 090900Z 34003MPS 290V020 CAVOK 23/13 Q1017 R26/CLRD70 NOSIG"
"12:30 PM EEST on September 09, 2016","2016","09","09","12","30","Europe/Kiev","9:30 AM GMT on September 09, 2016","2016","09","09","09","30","UTC","22.0","71.6","13.0","55.4","57","10.8","6.7","-9999.0","-9999.0","360","North","-9999.0","-9999.0","1017","30.04","-999","-999","-9999","-9999","-9999.00","-9999.00","Clear","clear","0","0","0","0","0","0","METAR UKKK 090930Z 36003MPS 330V050 CAVOK 22/13 Q1017 R26/CLRD70 NOSIG"
"1:00 PM EEST on September 09, 2016","2016","09","09","13","00","Europe/Kiev","10:00 AM GMT on September 09, 2016","2016","09","09","10","00","UTC","23.0","73.4","14.0","57.2","57","10.8","6.7","-9999.0","-9999.0","10","North","10.0","6.2","1017","30.04","-999","-999","-9999","-9999","-9999.00","-9999.00","Scattered Clouds","partlycloudy","0","0","0","0","0","0","METAR UKKK 091000Z 01003MPS 320V040 9999 SCT036 23/14 Q1017 R26/CLRD70 NOSIG"
"1:30 PM EEST on September 09, 2016","2016","09","09","13","30","Europe/Kiev","10:30 AM GMT on September 09, 2016","2016","09","09","10","30","UTC","24.0","75.2","12.0","53.6","47","10.8","6.7","-9999.0","-9999.0","340","NNW","10.0","6.2","1017","30.04","-999","-999","-9999","-9999","-9999.00","-9999.00","Scattered Clouds","partlycloudy","0","0","0","0","0","0","METAR UKKK 091030Z 34003MPS 260V040 9999 SCT046 24/12 Q1017 R26/CLRD70 NOSIG"
"2:00 PM EEST on September 09, 2016","2016","09","09","14","00","Europe/Kiev","11:00 AM GMT on September 09, 2016","2016","09","09","11","00","UTC","24.0","75.2","11.0","51.8","44","7.2","4.5","-9999.0","-9999.0","360","North","-9999.0","-9999.0","1017","30.04","-999","-999","-9999","-9999","-9999.00","-9999.00","Clear","clear","0","0","0","0","0","0","METAR UKKK 091100Z 36002MPS CAVOK 24/11 Q1017 R26/CLRD70 NOSIG"
"2:30 PM EEST on September 09, 2016","2016","09","09","14","30","Europe/Kiev","11:30 AM GMT on September 09, 2016","2016","09","09","11","30","UTC","24.0","75.2","9.0","48.2","38","14.4","8.9","-9999.0","-9999.0","20","NNE","-9999.0","-9999.0","1017","30.04","-999","-999","-9999","-9999","-9999.00","-9999.00","Clear","clear","0","0","0","0","0","0","METAR UKKK 091130Z 02004MPS 330V080 CAVOK 24/09 Q1017 R26/CLRD70 NOSIG"
"3:00 PM EEST on September 09, 2016","2016","09","09","15","00","Europe/Kiev","12:00 PM GMT on September 09, 2016","2016","09","09","12","00","UTC","24","74","9","49","30","14.4","8.9","","","20","NNE","20","12","1017","30.04","-999","-999","-9999","-9999","","","Scattered Clouds","partlycloudy","0","0","0","0","0","0","AAXX 09121 33345 32598 60204 10236 20092 39977 40170 52003 82230 555 10037"
"3:00 PM EEST on September 09, 2016","2016","09","09","15","00","Europe/Kiev","12:00 PM GMT on September 09, 2016","2016","09","09","12","00","UTC","24.0","75.2","9.0","48.2","38","14.4","8.9","-9999.0","-9999.0","10","North","-9999.0","-9999.0","1017","30.04","-999","-999","-9999","-9999","-9999.00","-9999.00","Clear","clear","0","0","0","0","0","0","METAR UKKK 091200Z 01004MPS 340V050 CAVOK 24/09 Q1017 R26/CLRD70 NOSIG"
"3:30 PM EEST on September 09, 2016","2016","09","09","15","30","Europe/Kiev","12:30 PM GMT on September 09, 2016","2016","09","09","12","30","UTC","24.0","75.2","10.0","50.0","41","14.4","8.9","-9999.0","-9999.0","10","North","-9999.0","-9999.0","1017","30.04","-999","-999","-9999","-9999","-9999.00","-9999.00","Clear","clear","0","0","0","0","0","0","METAR UKKK 091230Z 01004MPS 330V050 CAVOK 24/10 Q1017 R26/CLRD70 NOSIG"
"4:00 PM EEST on September 09, 2016","2016","09","09","16","00","Europe/Kiev","1:00 PM GMT on September 09, 2016","2016","09","09","13","00","UTC","23.0","73.4","10.0","50.0","44","14.4","8.9","-9999.0","-9999.0","360","North","-9999.0","-9999.0","1017","30.04","-999","-999","-9999","-9999","-9999.00","-9999.00","Clear","clear","0","0","0","0","0","0","METAR UKKK 091300Z 36004MPS 340V040 CAVOK 23/10 Q1017 R26/CLRD70 NOSIG"
"4:30 PM EEST on September 09, 2016","2016","09","09","16","30","Europe/Kiev","1:30 PM GMT on September 09, 2016","2016","09","09","13","30","UTC","24.0","75.2","10.0","50.0","41","14.4","8.9","-9999.0","-9999.0","360","North","-9999.0","-9999.0","1017","30.04","-999","-999","-9999","-9999","-9999.00","-9999.00","Clear","clear","0","0","0","0","0","0","METAR UKKK 091330Z 36004MPS 330V050 CAVOK 24/10 Q1017 R26/CLRD70 NOSIG"
"5:00 PM EEST on September 09, 2016","2016","09","09","17","00","Europe/Kiev","2:00 PM GMT on September 09, 2016","2016","09","09","14","00","UTC","24.0","75.2","11.0","51.8","44","10.8","6.7","-9999.0","-9999.0","360","North","-9999.0","-9999.0","1017","30.04","-999","-999","-9999","-9999","-9999.00","-9999.00","Clear","clear","0","0","0","0","0","0","METAR UKKK 091400Z 36003MPS 330V030 CAVOK 24/11 Q1017 R26/CLRD70 NOSIG"
"5:30 PM EEST on September 09, 2016","2016","09","09","17","30","Europe/Kiev","2:30 PM GMT on September 09, 2016","2016","09","09","14","30","UTC","24.0","75.2","11.0","51.8","44","10.8","6.7","-9999.0","-9999.0","340","NNW","-9999.0","-9999.0","1017","30.04","-999","-999","-9999","-9999","-9999.00","-9999.00","Clear","clear","0","0","0","0","0","0","METAR UKKK 091430Z 34003MPS 310V010 CAVOK 24/11 Q1017 R26/CLRD70 NOSIG"
"6:00 PM EEST on September 09, 2016","2016","09","09","18","00","Europe/Kiev","3:00 PM GMT on September 09, 2016","2016","09","09","15","00","UTC","23","74","10","49","31","10.8","6.7","","","40","NE","20","12","1017","30.04","-999","-999","-9999","-9999","","","","","0","0","0","0","0","0","AAXX 09151 33345 42998 00403 10234 20097 39979 40172 52002 555 10029"
"6:00 PM EEST on September 09, 2016","2016","09","09","18","00","Europe/Kiev","3:00 PM GMT on September 09, 2016","2016","09","09","15","00","UTC","24.0","75.2","11.0","51.8","44","10.8","6.7","-9999.0","-9999.0","340","NNW","-9999.0","-9999.0","1018","30.06","-999","-999","-9999","-9999","-9999.00","-9999.00","Clear","clear","0","0","0","0","0","0","METAR UKKK 091500Z 34003MPS 310V030 CAVOK 24/11 Q1018 R26/CLRD70 NOSIG"
"6:30 PM EEST on September 09, 2016","2016","09","09","18","30","Europe/Kiev","3:30 PM GMT on September 09, 2016","2016","09","09","15","30","UTC","23.0","73.4","11.0","51.8","47","10.8","6.7","-9999.0","-9999.0","350","North","-9999.0","-9999.0","1018","30.06","-999","-999","-9999","-9999","-9999.00","-9999.00","Clear","clear","0","0","0","0","0","0","METAR UKKK 091530Z 35003MPS CAVOK 23/11 Q1018 R26/CLRD70 NOSIG"
"7:00 PM EEST on September 09, 2016","2016","09","09","19","00","Europe/Kiev","4:00 PM GMT on September 09, 2016","2016","09","09","16","00","UTC","21.0","69.8","11.0","51.8","53","10.8","6.7","-9999.0","-9999.0","10","North","-9999.0","-9999.0","1018","30.06","-999","-999","-9999","-9999","-9999.00","-9999.00","Clear","clear","0","0","0","0","0","0","METAR UKKK 091600Z 01003MPS 340V040 CAVOK 21/11 Q1018 R26/CLRD70 NOSIG"
"7:30 PM EEST on September 09, 2016","2016","09","09","19","30","Europe/Kiev","4:30 PM GMT on September 09, 2016","2016","09","09","16","30","UTC","21.0","69.8","10.0","50.0","49","7.2","4.5","-9999.0","-9999.0","20","NNE","-9999.0","-9999.0","1018","30.06","-999","-999","-9999","-9999","-9999.00","-9999.00","Clear","clear","0","0","0","0","0","0","METAR UKKK 091630Z 02002MPS 330V070 CAVOK 21/10 Q1018 R26/CLRD70 NOSIG"
"8:00 PM EEST on September 09, 2016","2016","09","09","20","00","Europe/Kiev","5:00 PM GMT on September 09, 2016","2016","09","09","17","00","UTC","21.0","69.8","11.0","51.8","53","7.2","4.5","-9999.0","-9999.0","360","North","-9999.0","-9999.0","1018","30.06","-999","-999","-9999","-9999","-9999.00","-9999.00","Clear","clear","0","0","0","0","0","0","METAR UKKK 091700Z 36002MPS 310V050 CAVOK 21/11 Q1018 R26/CLRD70 NOSIG"
"8:30 PM EEST on September 09, 2016","2016","09","09","20","30","Europe/Kiev","5:30 PM GMT on September 09, 2016","2016","09","09","17","30","UTC","19.0","66.2","11.0","51.8","60","7.2","4.5","-9999.0","-9999.0","10","North","-9999.0","-9999.0","1019","30.09","-999","-999","-9999","-9999","-9999.00","-9999.00","Clear","clear","0","0","0","0","0","0","METAR UKKK 091730Z 01002MPS CAVOK 19/11 Q1019 R26/CLRD70 NOSIG"
"9:00 PM EEST on September 09, 2016","2016","09","09","21","00","Europe/Kiev","6:00 PM GMT on September 09, 2016","2016","09","09","18","00","UTC","19","67","12","53","51","3.6","2.2","","","60","ENE","20","12","1019","30.08","-999","-999","-9999","-9999","","","","","0","0","0","0","0","0","AAXX 09181 33345 32998 00601 10193 20117 39990 40186 53011 333 10245 555 10017"
"9:00 PM EEST on September 09, 2016","2016","09","09","21","00","Europe/Kiev","6:00 PM GMT on September 09, 2016","2016","09","09","18","00","UTC","16.0","60.8","11.0","51.8","72","0.0","0.0","-9999.0","-9999.0","0","North","-9999.0","-9999.0","1019","30.09","-999","-999","-9999","-9999","-9999.00","-9999.00","Clear","clear","0","0","0","0","0","0","METAR UKKK 091800Z 00000MPS CAVOK 16/11 Q1019 R26/CLRD70 NOSIG"
"9:30 PM EEST on September 09, 2016","2016","09","09","21","30","Europe/Kiev","6:30 PM GMT on September 09, 2016","2016","09","09","18","30","UTC","15.0","59.0","11.0","51.8","77","3.6","2.2","-9999.0","-9999.0","150","SSE","-9999.0","-9999.0","1019","30.09","-999","-999","-9999","-9999","-9999.00","-9999.00","Clear","clear","0","0","0","0","0","0","METAR UKKK 091830Z 15001MPS CAVOK 15/11 Q1019 R26/CLRD70 NOSIG"
"10:00 PM EEST on September 09, 2016","2016","09","09","22","00","Europe/Kiev","7:00 PM GMT on September 09, 2016","2016","09","09","19","00","UTC","15.0","59.0","11.0","51.8","77","3.6","2.2","-9999.0","-9999.0","110","ESE","-9999.0","-9999.0","1019","30.09","-999","-999","-9999","-9999","-9999.00","-9999.00","Clear","clear","0","0","0","0","0","0","METAR UKKK 091900Z 11001MPS CAVOK 15/11 Q1019 R26/CLRD70 NOSIG"
"10:30 PM EEST on September 09, 2016","2016","09","09","22","30","Europe/Kiev","7:30 PM GMT on September 09, 2016","2016","09","09","19","30","UTC","14.0","57.2","11.0","51.8","82","10.8","6.7","-9999.0","-9999.0","110","ESE","-9999.0","-9999.0","1019","30.09","-999","-999","-9999","-9999","-9999.00","-9999.00","Clear","clear","0","0","0","0","0","0","METAR UKKK 091930Z 11003MPS CAVOK 14/11 Q1019 R26/CLRD70 NOSIG"
"11:00 PM EEST on September 09, 2016","2016","09","09","23","00","Europe/Kiev","8:00 PM GMT on September 09, 2016","2016","09","09","20","00","UTC","16.0","60.8","10.0","50.0","68","7.2","4.5","-9999.0","-9999.0","110","ESE","-9999.0","-9999.0","1020","30.12","-999","-999","-9999","-9999","-9999.00","-9999.00","Clear","clear","0","0","0","0","0","0","METAR UKKK 092000Z 11002MPS CAVOK 16/10 Q1020 R08/CLRD70 NOSIG"
"11:30 PM EEST on September 09, 2016","2016","09","09","23","30","Europe/Kiev","8:30 PM GMT on September 09, 2016","2016","09","09","20","30","UTC","17.0","62.6","9.0","48.2","59","7.2","4.5","-9999.0","-9999.0","120","ESE","-9999.0","-9999.0","1020","30.12","-999","-999","-9999","-9999","-9999.00","-9999.00","Clear","clear","0","0","0","0","0","0","METAR UKKK 092030Z 12002MPS CAVOK 17/09 Q1020 R08/CLRD70 NOSIG"
"12:00 AM EEST on September 10, 2016","2016","09","10","00","00","Europe/Kiev","9:00 PM GMT on September 09, 2016","2016","09","09","21","00","UTC","17","62","10","49","53","3.6","2.2","","","200","SSW","20","12","1020","30.13","-999","-999","-9999","-9999","","","","","0","0","0","0","0","0","AAXX 09211 33345 42998 02001 10166 20095 30003 40201 52013 555 10014"
"12:00 AM EEST on September 10, 2016","2016","09","10","00","00","Europe/Kiev","9:00 PM GMT on September 09, 2016","2016","09","09","21","00","UTC","14.0","57.2","9.0","48.2","72","7.2","4.5","-9999.0","-9999.0","110","ESE","-9999.0","-9999.0","1020","30.12","-999","-999","-9999","-9999","-9999.00","-9999.00","Clear","clear","0","0","0","0","0","0","METAR UKKK 092100Z 11002MPS CAVOK 14/09 Q1020 R08/CLRD70 NOSIG"
"12:30 AM EEST on September 10, 2016","2016","09","10","00","30","Europe/Kiev","9:30 PM GMT on September 09, 2016","2016","09","09","21","30","UTC","14.0","57.2","9.0","48.2","72","7.2","4.5","-9999.0","-9999.0","80","East","-9999.0","-9999.0","1020","30.12","-999","-999","-9999","-9999","-9999.00","-9999.00","Clear","clear","0","0","0","0","0","0","METAR UKKK 092130Z 08002MPS CAVOK 14/09 Q1020 R08/CLRD70 NOSIG"
"1:00 AM EEST on September 10, 2016","2016","09","10","01","00","Europe/Kiev","10:00 PM GMT on September 09, 2016","2016","09","09","22","00","UTC","13.0","55.4","9.0","48.2","77","3.6","2.2","-9999.0","-9999.0","80","East","-9999.0","-9999.0","1020","30.12","-999","-999","-9999","-9999","-9999.00","-9999.00","Clear","clear","0","0","0","0","0","0","METAR UKKK 092200Z 08001MPS CAVOK 13/09 Q1020 R08/CLRD70 NOSIG"
"1:30 AM EEST on September 10, 2016","2016","09","10","01","30","Europe/Kiev","10:30 PM GMT on September 09, 2016","2016","09","09","22","30","UTC","13.0","55.4","9.0","48.2","77","3.6","2.2","-9999.0","-9999.0","70","ENE","-9999.0","-9999.0","1020","30.12","-999","-999","-9999","-9999","-9999.00","-9999.00","Clear","clear","0","0","0","0","0","0","METAR UKKK 092230Z 07001MPS CAVOK 13/09 Q1020 R08/CLRD70 NOSIG"
"2:00 AM EEST on September 10, 2016","2016","09","10","02","00","Europe/Kiev","11:00 PM GMT on September 09, 2016","2016","09","09","23","00","UTC","13.0","55.4","9.0","48.2","77","3.6","2.2","-9999.0","-9999.0","70","ENE","-9999.0","-9999.0","1020","30.12","-999","-999","-9999","-9999","-9999.00","-9999.00","Clear","clear","0","0","0","0","0","0","METAR UKKK 092300Z 07001MPS CAVOK 13/09 Q1020 R08/CLRD70 NOSIG"
"2:30 AM EEST on September 10, 2016","2016","09","10","02","30","Europe/Kiev","11:30 PM GMT on September 09, 2016","2016","09","09","23","30","UTC","13.0","55.4","9.0","48.2","77","7.2","4.5","-9999.0","-9999.0","80","East","-9999.0","-9999.0","1020","30.12","-999","-999","-9999","-9999","-9999.00","-9999.00","Clear","clear","0","0","0","0","0","0","METAR UKKK 092330Z 08002MPS CAVOK 13/09 Q1020 R08/CLRD70 NOSIG"
"3:00 AM EEST on September 10, 2016","2016","09","10","03","00","Europe/Kiev","12:00 AM GMT on September 10, 2016","2016","09","10","00","00","UTC","15","58","9","48","60","0.0","0.0","","","","","20","12","1021","30.14","-999","-999","-9999","-9999","","","","","0","0","0","0","0","0","AAXX 10001 33345 32998 00000 10147 20088 30007 40207 51004 555 10012"
"3:00 AM EEST on September 10, 2016","2016","09","10","03","00","Europe/Kiev","12:00 AM GMT on September 10, 2016","2016","09","10","00","00","UTC","13.0","55.4","9.0","48.2","77","7.2","4.5","-9999.0","-9999.0","80","East","-9999.0","-9999.0","1020","30.12","-999","-999","-9999","-9999","-9999.00","-9999.00","Clear","clear","0","0","0","0","0","0","METAR UKKK 100000Z 08002MPS CAVOK 13/09 Q1020 R08/CLRD70 NOSIG"
"3:30 AM EEST on September 10, 2016","2016","09","10","03","30","Europe/Kiev","12:30 AM GMT on September 10, 2016","2016","09","10","00","30","UTC","12.0","53.6","9.0","48.2","82","3.6","2.2","-9999.0","-9999.0","70","ENE","-9999.0","-9999.0","1020","30.12","-999","-999","-9999","-9999","-9999.00","-9999.00","Clear","clear","0","0","0","0","0","0","METAR UKKK 100030Z 07001MPS CAVOK 12/09 Q1020 R08/CLRD70 NOSIG"
"4:00 AM EEST on September 10, 2016","2016","09","10","04","00","Europe/Kiev","1:00 AM GMT on September 10, 2016","2016","09","10","01","00","UTC","11.0","51.8","9.0","48.2","88","3.6","2.2","-9999.0","-9999.0","90","East","-9999.0","-9999.0","1020","30.12","-999","-999","-9999","-9999","-9999.00","-9999.00","Clear","clear","0","0","0","0","0","0","METAR UKKK 100100Z 09001MPS CAVOK 11/09 Q1020 R08/CLRD70 NOSIG"
"4:30 AM EEST on September 10, 2016","2016","09","10","04","30","Europe/Kiev","1:30 AM GMT on September 10, 2016","2016","09","10","01","30","UTC","11.0","51.8","9.0","48.2","88","0.0","0.0","-9999.0","-9999.0","0","North","-9999.0","-9999.0","1020","30.12","-999","-999","-9999","-9999","-9999.00","-9999.00","Clear","clear","0","0","0","0","0","0","METAR UKKK 100130Z 00000MPS CAVOK 11/09 Q1020 R08/CLRD70 NOSIG"
"5:00 AM EEST on September 10, 2016","2016","09","10","05","00","Europe/Kiev","2:00 AM GMT on September 10, 2016","2016","09","10","02","00","UTC","11.0","51.8","9.0","48.2","88","0.0","0.0","-9999.0","-9999.0","0","North","-9999.0","-9999.0","1020","30.12","-999","-999","-9999","-9999","-9999.00","-9999.00","Clear","clear","0","0","0","0","0","0","METAR UKKK 100200Z 00000MPS CAVOK 11/09 Q1020 R08/CLRD70 NOSIG"
"5:30 AM EEST on September 10, 2016","2016","09","10","05","30","Europe/Kiev","2:30 AM GMT on September 10, 2016","2016","09","10","02","30","UTC","10.0","50.0","9.0","48.2","94","0.0","0.0","-9999.0","-9999.0","0","North","-9999.0","-9999.0","1020","30.12","-999","-999","-9999","-9999","-9999.00","-9999.00","Clear","clear","0","0","0","0","0","0","METAR UKKK 100230Z 00000MPS CAVOK 10/09 Q1020 R08/CLRD70 NOSIG"
"6:00 AM EEST on September 10, 2016","2016","09","10","06","00","Europe/Kiev","3:00 AM GMT on September 10, 2016","2016","09","10","03","00","UTC","13","56","9","48","66","0.0","0.0","","","","","20","12","1021","30.15","-999","-999","-9999","-9999","","","Mostly Cloudy","mostlycloudy","0","0","0","0","0","0","AAXX 10031 33345 42998 70000 10131 20087 30008 40209 52001 87030 555 10013"
"6:00 AM EEST on September 10, 2016","2016","09","10","06","00","Europe/Kiev","3:00 AM GMT on September 10, 2016","2016","09","10","03","00","UTC","12.0","53.6","10.0","50.0","88","0.0","0.0","-9999.0","-9999.0","0","North","-9999.0","-9999.0","1020","30.12","-999","-999","-9999","-9999","-9999.00","-9999.00","Clear","clear","0","0","0","0","0","0","METAR UKKK 100300Z 00000MPS CAVOK 12/10 Q1020 R08/CLRD70 NOSIG"
"6:30 AM EEST on September 10, 2016","2016","09","10","06","30","Europe/Kiev","3:30 AM GMT on September 10, 2016","2016","09","10","03","30","UTC","13.0","55.4","10.0","50.0","82","0.0","0.0","-9999.0","-9999.0","0","North","-9999.0","-9999.0","1020","30.12","-999","-999","-9999","-9999","-9999.00","-9999.00","Clear","clear","0","0","0","0","0","0","METAR UKKK 100330Z 00000MPS CAVOK 13/10 Q1020 R08/CLRD70 NOSIG"
"7:00 AM EEST on September 10, 2016","2016","09","10","07","00","Europe/Kiev","4:00 AM GMT on September 10, 2016","2016","09","10","04","00","UTC","14.0","57.2","11.0","51.8","82","3.6","2.2","-9999.0","-9999.0","0","Variable","-9999.0","-9999.0","1020","30.12","-999","-999","-9999","-9999","-9999.00","-9999.00","Clear","clear","0","0","0","0","0","0","METAR UKKK 100400Z VRB01MPS CAVOK 14/11 Q1020 R08/CLRD70 NOSIG"
"7:30 AM EEST on September 10, 2016","2016","09","10","07","30","Europe/Kiev","4:30 AM GMT on September 10, 2016","2016","09","10","04","30","UTC","15.0","59.0","10.0","50.0","72","3.6","2.2","-9999.0","-9999.0","0","Variable","-9999.0","-9999.0","1021","30.15","-999","-999","-9999","-9999","-9999.00","-9999.00","Clear","clear","0","0","0","0","0","0","METAR UKKK 100430Z VRB01MPS CAVOK 15/10 Q1021 R08/CLRD70 NOSIG"
"8:00 AM EEST on September 10, 2016","2016","09","10","08","00","Europe/Kiev","5:00 AM GMT on September 10, 2016","2016","09","10","05","00","UTC","15.0","59.0","11.0","51.8","77","0.0","0.0","-9999.0","-9999.0","0","North","-9999.0","-9999.0","1021","30.15","-999","-999","-9999","-9999","-9999.00","-9999.00","Clear","clear","0","0","0","0","0","0","METAR UKKK 100500Z 00000MPS CAVOK 15/11 Q1021 R08/CLRD70 NOSIG"
"8:30 AM EEST on September 10, 2016","2016","09","10","08","30","Europe/Kiev","5:30 AM GMT on September 10, 2016","2016","09","10","05","30","UTC","17.0","62.6","11.0","51.8","68","0.0","0.0","-9999.0","-9999.0","0","North","-9999.0","-9999.0","1021","30.15","-999","-999","-9999","-9999","-9999.00","-9999.00","Clear","clear","0","0","0","0","0","0","METAR UKKK 100530Z 00000MPS CAVOK 17/11 Q1021 R08/CLRD70 NOSIG"
"9:00 AM EEST on September 10, 2016","2016","09","10","09","00","Europe/Kiev","6:00 AM GMT on September 10, 2016","2016","09","10","06","00","UTC","16","61","12","54","71","0.0","0.0","","","","","20","12","1021","30.15","-999","-999","-9999","-9999","","","Mostly Cloudy","mostlycloudy","0","0","0","0","0","0","AAXX 10061 33345 32998 70000 10160 20122 30010 40209 52002 87030 333 20129 555 10020"
"9:00 AM EEST on September 10, 2016","2016","09","10","09","00","Europe/Kiev","6:00 AM GMT on September 10, 2016","2016","09","10","06","00","UTC","18.0","64.4","10.0","50.0","59","3.6","2.2","-9999.0","-9999.0","0","Variable","-9999.0","-9999.0","1021","30.15","-999","-999","-9999","-9999","-9999.00","-9999.00","Clear","clear","0","0","0","0","0","0","METAR UKKK 100600Z VRB01MPS CAVOK 18/10 Q1021 R08/CLRD70 NOSIG"
"9:30 AM EEST on September 10, 2016","2016","09","10","09","30","Europe/Kiev","6:30 AM GMT on September 10, 2016","2016","09","10","06","30","UTC","19.0","66.2","11.0","51.8","60","3.6","2.2","-9999.0","-9999.0","0","Variable","-9999.0","-9999.0","1021","30.15","-999","-999","-9999","-9999","-9999.00","-9999.00","Clear","clear","0","0","0","0","0","0","METAR UKKK 100630Z VRB01MPS CAVOK 19/11 Q1021 R08/CLRD70 NOSIG"
"10:00 AM EEST on September 10, 2016","2016","09","10","10","00","Europe/Kiev","7:00 AM GMT on September 10, 2016","2016","09","10","07","00","UTC","19.0","66.2","10.0","50.0","56","7.2","4.5","-9999.0","-9999.0","210","SSW","-9999.0","-9999.0","1021","30.15","-999","-999","-9999","-9999","-9999.00","-9999.00","Clear","clear","0","0","0","0","0","0","METAR UKKK 100700Z 21002MPS 170V250 CAVOK 19/10 Q1021 R08/CLRD70 NOSIG"
"10:30 AM EEST on September 10, 2016","2016","09","10","10","30","Europe/Kiev","7:30 AM GMT on September 10, 2016","2016","09","10","07","30","UTC","20.0","68.0","11.0","51.8","56","3.6","2.2","-9999.0","-9999.0","0","Variable","-9999.0","-9999.0","1021","30.15","-999","-999","-9999","-9999","-9999.00","-9999.00","Clear","clear","0","0","0","0","0","0","METAR UKKK 100730Z VRB01MPS CAVOK 20/11 Q1021 R08/CLRD70 NOSIG"
"11:00 AM EEST on September 10, 2016","2016","09","10","11","00","Europe/Kiev","8:00 AM GMT on September 10, 2016","2016","09","10","08","00","UTC","21.0","69.8","11.0","51.8","53","7.2","4.5","-9999.0","-9999.0","230","SW","-9999.0","-9999.0","1021","30.15","-999","-999","-9999","-9999","-9999.00","-9999.00","Clear","clear","0","0","0","0","0","0","METAR UKKK 100800Z 23002MPS 170V300 CAVOK 21/11 Q1021 R08/CLRD70 NOSIG"
"11:30 AM EEST on September 10, 2016","2016","09","10","11","30","Europe/Kiev","8:30 AM GMT on September 10, 2016","2016","09","10","08","30","UTC","22.0","71.6","12.0","53.6","53","3.6","2.2","-9999.0","-9999.0","0","Variable","-9999.0","-9999.0","1021","30.15","-999","-999","-9999","-9999","-9999.00","-9999.00","Clear","clear","0","0","0","0","0","0","METAR UKKK 100830Z VRB01MPS CAVOK 22/12 Q1021 R08/CLRD70 NOSIG"
"12:00 PM EEST on September 10, 2016","2016","09","10","12","00","Europe/Kiev","9:00 AM GMT on September 10, 2016","2016","09","10","09","00","UTC","22","71","13","56","49","7.2","4.5","","","130","SE","20","12","1021","30.14","-999","-999","-9999","-9999","","","Mostly Cloudy","mostlycloudy","0","0","0","0","0","0","AAXX 10091 33345 42798 71302 10215 20133 30012 40207 51002 87500 555 10031"
"12:00 PM EEST on September 10, 2016","2016","09","10","12","00","Europe/Kiev","9:00 AM GMT on September 10, 2016","2016","09","10","09","00","UTC","23.0","73.4","12.0","53.6","50","7.2","4.5","-9999.0","-9999.0","250","WSW","-9999.0","-9999.0","1021","30.15","-999","-999","-9999","-9999","-9999.00","-9999.00","Clear","clear","0","0","0","0","0","0","METAR UKKK 100900Z 25002MPS 220V290 CAVOK 23/12 Q1021 R08/CLRD70 NOSIG"
"12:30 PM EEST on September 10, 2016","2016","09","10","12","30","Europe/Kiev","9:30 AM GMT on September 10, 2016","2016","09","10","09","30","UTC","23.0","73.4","12.0","53.6","50","7.2","4.5","-9999.0","-9999.0","270","West","-9999.0","-9999.0","1021","30.15","-999","-999","-9999","-9999","-9999.00","-9999.00","Clear","clear","0","0","0","0","0","0","METAR UKKK 100930Z 27002MPS CAVOK 23/12 Q1021 R08/CLRD70 NOSIG"
"1:00 PM EEST on September 10, 2016","2016","09","10","13","00","Europe/Kiev","10:00 AM GMT on September 10, 2016","2016","09","10","10","00","UTC","24.0","75.2","12.0","53.6","47","3.6","2.2","-9999.0","-9999.0","0","Variable","-9999.0","-9999.0","1020","30.12","-999","-999","-9999","-9999","-9999.00","-9999.00","Clear","clear","0","0","0","0","0","0","METAR UKKK 101000Z VRB01MPS CAVOK 24/12 Q1020 R08/CLRD70 NOSIG"
"1:30 PM EEST on September 10, 2016","2016","09","10","13","30","Europe/Kiev","10:30 AM GMT on September 10, 2016","2016","09","10","10","30","UTC","25.0","77.0","12.0","53.6","44","7.2","4.5","-9999.0","-9999.0","330","NNW","-9999.0","-9999.0","1020","30.12","-999","-999","-9999","-9999","-9999.00","-9999.00","Clear","clear","0","0","0","0","0","0","METAR UKKK 101030Z 33002MPS CAVOK 25/12 Q1020 R08/CLRD70 NOSIG"
"2:00 PM EEST on September 10, 2016","2016","09","10","14","00","Europe/Kiev","11:00 AM GMT on September 10, 2016","2016","09","10","11","00","UTC","25.0","77.0","12.0","53.6","44","7.2","4.5","-9999.0","-9999.0","170","South","-9999.0","-9999.0","1020","30.12","-999","-999","-9999","-9999","-9999.00","-9999.00","Clear","clear","0","0","0","0","0","0","METAR UKKK 101100Z 17002MPS 120V230 CAVOK 25/12 Q1020 R26/CLRD70 NOSIG"
"2:30 PM EEST on September 10, 2016","2016","09","10","14","30","Europe/Kiev","11:30 AM GMT on September 10, 2016","2016","09","10","11","30","UTC","25.0","77.0","11.0","51.8","41","10.8","6.7","-9999.0","-9999.0","160","SSE","-9999.0","-9999.0","1020","30.12","-999","-999","-9999","-9999","-9999.00","-9999.00","Clear","clear","0","0","0","0","0","0","METAR UKKK 101130Z 16003MPS 120V230 CAVOK 25/11 Q1020 R26/CLRD70 NOSIG"
"3:00 PM EEST on September 10, 2016","2016","09","10","15","00","Europe/Kiev","12:00 PM GMT on September 10, 2016","2016","09","10","12","00","UTC","26","78","11","53","30","3.6","2.2","","","100","East","20","12","1019","30.09","-999","-999","-9999","-9999","","","Mostly Cloudy","mostlycloudy","0","0","0","0","0","0","AAXX 10121 33345 32698 51001 10258 20114 39998 40190 58014 85200 555 10043"
"3:00 PM EEST on September 10, 2016","2016","09","10","15","00","Europe/Kiev","12:00 PM GMT on September 10, 2016","2016","09","10","12","00","UTC","25.0","77.0","12.0","53.6","44","10.8","6.7","-9999.0","-9999.0","190","South","-9999.0","-9999.0","1019","30.09","-999","-999","-9999","-9999","-9999.00","-9999.00","Clear","clear","0","0","0","0","0","0","METAR UKKK 101200Z 19003MPS 150V230 CAVOK 25/12 Q1019 R26/CLRD70 NOSIG"
"3:30 PM EEST on September 10, 2016","2016","09","10","15","30","Europe/Kiev","12:30 PM GMT on September 10, 2016","2016","09","10","12","30","UTC","25.0","77.0","11.0","51.8","41","7.2","4.5","-9999.0","-9999.0","210","SSW","-9999.0","-9999.0","1019","30.09","-999","-999","-9999","-9999","-9999.00","-9999.00","Clear","clear","0","0","0","0","0","0","METAR UKKK 101230Z 21002MPS 160V260 CAVOK 25/11 Q1019 R26/CLRD70 NOSIG"
"4:00 PM EEST on September 10, 2016","2016","09","10","16","00","Europe/Kiev","1:00 PM GMT on September 10, 2016","2016","09","10","13","00","UTC","24.0","75.2","11.0","51.8","44","10.8","6.7","-9999.0","-9999.0","290","WNW","-9999.0","-9999.0","1019","30.09","-999","-999","-9999","-9999","-9999.00","-9999.00","Clear","clear","0","0","0","0","0","0","METAR UKKK 101300Z 29003MPS 230V340 CAVOK 24/11 Q1019 R26/CLRD70 NOSIG"
"4:30 PM EEST on September 10, 2016","2016","09","10","16","30","Europe/Kiev","1:30 PM GMT on September 10, 2016","2016","09","10","13","30","UTC","25.0","77.0","11.0","51.8","41","3.6","2.2","-9999.0","-9999.0","0","Variable","-9999.0","-9999.0","1019","30.09","-999","-999","-9999","-9999","-9999.00","-9999.00","Clear","clear","0","0","0","0","0","0","METAR UKKK 101330Z VRB01MPS CAVOK 25/11 Q1019 R26/CLRD70 NOSIG"
"5:00 PM EEST on September 10, 2016","2016","09","10","17","00","Europe/Kiev","2:00 PM GMT on September 10, 2016","2016","09","10","14","00","UTC","26.0","78.8","11.0","51.8","39","3.6","2.2","-9999.0","-9999.0","0","Variable","-9999.0","-9999.0","1019","30.09","-999","-999","-9999","-9999","-9999.00","-9999.00","Clear","clear","0","0","0","0","0","0","METAR UKKK 101400Z VRB01MPS CAVOK 26/11 Q1019 R26/CLRD70 NOSIG"
"5:30 PM EEST on September 10, 2016","2016","09","10","17","30","Europe/Kiev","2:30 PM GMT on September 10, 2016","2016","09","10","14","30","UTC","26.0","78.8","11.0","51.8","39","3.6","2.2","-9999.0","-9999.0","0","Variable","-9999.0","-9999.0","1019","30.09","-999","-999","-9999","-9999","-9999.00","-9999.00","Clear","clear","0","0","0","0","0","0","METAR UKKK 101430Z VRB01MPS CAVOK 26/11 Q1019 R26/CLRD70 NOSIG"
"6:00 PM EEST on September 10, 2016","2016","09","10","18","00","Europe/Kiev","3:00 PM GMT on September 10, 2016","2016","09","10","15","00","UTC","25","76","11","51","31","7.2","4.5","","","190","South","20","12","1018","30.07","-999","-999","-9999","-9999","","","","","0","0","0","0","0","0","AAXX 10151 33345 42998 01902 10246 20106 39989 40181 57009 555 10029"
"6:00 PM EEST on September 10, 2016","2016","09","10","18","00","Europe/Kiev","3:00 PM GMT on September 10, 2016","2016","09","10","15","00","UTC","25.0","77.0","11.0","51.8","41","7.2","4.5","-9999.0","-9999.0","160","SSE","9.0","5.6","1019","30.09","-999","-999","-9999","-9999","-9999.00","-9999.00","Unknown","unknown","0","0","0","0","0","0","METAR UKKK 101500Z 16002MPS 100V240 9000 NSC 25/11 Q1019 R26/CLRD70 NOSIG"
"6:30 PM EEST on September 10, 2016","2016","09","10","18","30","Europe/Kiev","3:30 PM GMT on September 10, 2016","2016","09","10","15","30","UTC","23.0","73.4","12.0","53.6","50","7.2","4.5","-9999.0","-9999.0","140","SE","9.0","5.6","1019","30.09","-999","-999","-9999","-9999","-9999.00","-9999.00","Unknown","unknown","0","0","0","0","0","0","METAR UKKK 101530Z 14002MPS 9000 NSC 23/12 Q1019 R26/CLRD70 NOSIG"
"7:00 PM EEST on September 10, 2016","2016","09","10","19","00","Europe/Kiev","4:00 PM GMT on September 10, 2016","2016","09","10","16","00","UTC","21.0","69.8","12.0","53.6","56","7.2","4.5","-9999.0","-9999.0","100","East","9.0","5.6","1018","30.06","-999","-999","-9999","-9999","-9999.00","-9999.00","Unknown","unknown","0","0","0","0","0","0","METAR UKKK 101600Z 10002MPS 9000 NSC 21/12 Q1018 R26/CLRD70 NOSIG"
"7:30 PM EEST on September 10, 2016","2016","09","10","19","30","Europe/Kiev","4:30 PM GMT on September 10, 2016","2016","09","10","16","30","UTC","20.0","68.0","12.0","53.6","60","7.2","4.5","-9999.0","-9999.0","120","ESE","-9999.0","-9999.0","1019","30.09","-999","-999","-9999","-9999","-9999.00","-9999.00","Clear","clear","0","0","0","0","0","0","METAR UKKK 101630Z 12002MPS CAVOK 20/12 Q1019 R08/CLRD70 NOSIG"
"8:00 PM EEST on September 10, 2016","2016","09","10","20","00","Europe/Kiev","5:00 PM GMT on September 10, 2016","2016","09","10","17","00","UTC","20.0","68.0","12.0","53.6","60","3.6","2.2","-9999.0","-9999.0","130","SE","-9999.0","-9999.0","1019","30.09","-999","-999","-9999","-9999","-9999.00","-9999.00","Clear","clear","0","0","0","0","0","0","METAR UKKK 101700Z 13001MPS CAVOK 20/12 Q1019 R08/CLRD70 NOSIG"
"8:30 PM EEST on September 10, 2016","2016","09","10","20","30","Europe/Kiev","5:30 PM GMT on September 10, 2016","2016","09","10","17","30","UTC","18.0","64.4","11.0","51.8","64","7.2","4.5","-9999.0","-9999.0","110","ESE","9.0","5.6","1019","30.09","-999","-999","-9999","-9999","-9999.00","-9999.00","Unknown","unknown","0","0","0","0","0","0","METAR UKKK 101730Z 11002MPS 9000 NSC 18/11 Q1019 R08/CLRD70 NOSIG"
"9:00 PM EEST on September 10, 2016","2016","09","10","21","00","Europe/Kiev","6:00 PM GMT on September 10, 2016","2016","09","10","18","00","UTC","20","68","12","54","51","3.6","2.2","","","180","South","20","12","1019","30.10","-999","-999","-9999","-9999","","","","","0","0","0","0","0","0","AAXX 10181 33345 32998 01801 10198 20121 39995 40191 53006 333 10267 555 10018"
"9:00 PM EEST on September 10, 2016","2016","09","10","21","00","Europe/Kiev","6:00 PM GMT on September 10, 2016","2016","09","10","18","00","UTC","18.0","64.4","12.0","53.6","68","7.2","4.5","-9999.0","-9999.0","120","ESE","-9999.0","-9999.0","1019","30.09","-999","-999","-9999","-9999","-9999.00","-9999.00","Clear","clear","0","0","0","0","0","0","METAR UKKK 101800Z 12002MPS CAVOK 18/12 Q1019 R08/CLRD70 NOSIG"
"9:30 PM EEST on September 10, 2016","2016","09","10","21","30","Europe/Kiev","6:30 PM GMT on September 10, 2016","2016","09","10","18","30","UTC","16.0","60.8","12.0","53.6","77","3.6","2.2","-9999.0","-9999.0","120","ESE","9.0","5.6","1019","30.09","-999","-999","-9999","-9999","-9999.00","-9999.00","Unknown","unknown","0","0","0","0","0","0","METAR UKKK 101830Z 12001MPS 9000 NSC 16/12 Q1019 R08/CLRD70 NOSIG"
"10:00 PM EEST on September 10, 2016","2016","09","10","22","00","Europe/Kiev","7:00 PM GMT on September 10, 2016","2016","09","10","19","00","UTC","17.0","62.6","11.0","51.8","68","3.6","2.2","-9999.0","-9999.0","0","Variable","-9999.0","-9999.0","1019","30.09","-999","-999","-9999","-9999","-9999.00","-9999.00","Clear","clear","0","0","0","0","0","0","METAR UKKK 101900Z VRB01MPS CAVOK 17/11 Q1019 R08/CLRD70 NOSIG"
"10:30 PM EEST on September 10, 2016","2016","09","10","22","30","Europe/Kiev","7:30 PM GMT on September 10, 2016","2016","09","10","19","30","UTC","16.0","60.8","11.0","51.8","72","0.0","0.0","-9999.0","-9999.0","0","North","-9999.0","-9999.0","1019","30.09","-999","-999","-9999","-9999","-9999.00","-9999.00","Clear","clear","0","0","0","0","0","0","METAR UKKK 101930Z 00000MPS CAVOK 16/11 Q1019 R08/CLRD70 NOSIG"
"11:00 PM EEST on September 10, 2016","2016","09","10","23","00","Europe/Kiev","8:00 PM GMT on September 10, 2016","2016","09","10","20","00","UTC","16.0","60.8","11.0","51.8","72","0.0","0.0","-9999.0","-9999.0","0","North","-9999.0","-9999.0","1019","30.09","-999","-999","-9999","-9999","-9999.00","-9999.00","Clear","clear","0","0","0","0","0","0","METAR UKKK 102000Z 00000MPS CAVOK 16/11 Q1019 R08/CLRD70 NOSIG"
"11:30 PM EEST on September 10, 2016","2016","09","10","23","30","Europe/Kiev","8:30 PM GMT on September 10, 2016","2016","09","10","20","30","UTC","15.0","59.0","11.0","51.8","77","0.0","0.0","-9999.0","-9999.0","0","North","-9999.0","-9999.0","1019","30.09","-999","-999","-9999","-9999","-9999.00","-9999.00","Clear","clear","0","0","0","0","0","0","METAR UKKK 102030Z 00000MPS CAVOK 15/11 Q1019 R08/CLRD70 NOSIG"
"12:00 AM EEST on September 11, 2016","2016","09","11","00","00","Europe/Kiev","9:00 PM GMT on September 10, 2016","2016","09","10","21","00","UTC","18","64","11","52","56","7.2","4.5","","","230","SW","20","12","1019","30.11","-999","-999","-9999","-9999","","","","","0","0","0","0","0","0","AAXX 10211 33345 42998 02302 10176 20112 39997 40194 52002 555 10015"
"12:00 AM EEST on September 11, 2016","2016","09","11","00","00","Europe/Kiev","9:00 PM GMT on September 10, 2016","2016","09","10","21","00","UTC","14.0","57.2","11.0","51.8","82","3.6","2.2","-9999.0","-9999.0","200","SSW","-9999.0","-9999.0","1019","30.09","-999","-999","-9999","-9999","-9999.00","-9999.00","Clear","clear","0","0","0","0","0","0","METAR UKKK 102100Z 20001MPS CAVOK 14/11 Q1019 R08/CLRD70 NOSIG"
"12:30 AM EEST on September 11, 2016","2016","09","11","00","30","Europe/Kiev","9:30 PM GMT on September 10, 2016","2016","09","10","21","30","UTC","13.0","55.4","11.0","51.8","88","3.6","2.2","-9999.0","-9999.0","0","Variable","-9999.0","-9999.0","1019","30.09","-999","-999","-9999","-9999","-9999.00","-9999.00","Clear","clear","0","0","0","0","0","0","METAR UKKK 102130Z VRB01MPS CAVOK 13/11 Q1019 R08/CLRD70 NOSIG"
"1:00 AM EEST on September 11, 2016","2016","09","11","01","00","Europe/Kiev","10:00 PM GMT on September 10, 2016","2016","09","10","22","00","UTC","15.0","59.0","11.0","51.8","77","3.6","2.2","-9999.0","-9999.0","210","SSW","-9999.0","-9999.0","1019","30.09","-999","-999","-9999","-9999","-9999.00","-9999.00","Clear","clear","0","0","0","0","0","0","METAR UKKK 102200Z 21001MPS CAVOK 15/11 Q1019 R08/CLRD70 NOSIG"
"1:30 AM EEST on September 11, 2016","2016","09","11","01","30","Europe/Kiev","10:30 PM GMT on September 10, 2016","2016","09","10","22","30","UTC","14.0","57.2","10.0","50.0","77","0.0","0.0","-9999.0","-9999.0","0","North","-9999.0","-9999.0","1019","30.09","-999","-999","-9999","-9999","-9999.00","-9999.00","Clear","clear","0","0","0","0","0","0","METAR UKKK 102230Z 00000MPS CAVOK 14/10 Q1019 R08/CLRD70 NOSIG"
"2:00 AM EEST on September 11, 2016","2016","09","11","02","00","Europe/Kiev","11:00 PM GMT on September 10, 2016","2016","09","10","23","00","UTC","13.0","55.4","10.0","50.0","82","0.0","0.0","-9999.0","-9999.0","0","North","-9999.0","-9999.0","1019","30.09","-999","-999","-9999","-9999","-9999.00","-9999.00","Clear","clear","0","0","0","0","0","0","METAR UKKK 102300Z 00000MPS CAVOK 13/10 Q1019 R08/CLRD70 NOSIG"
"2:30 AM EEST on September 11, 2016","2016","09","11","02","30","Europe/Kiev","11:30 PM GMT on September 10, 2016","2016","09","10","23","30","UTC","14.0","57.2","10.0","50.0","77","0.0","0.0","-9999.0","-9999.0","0","North","-9999.0","-9999.0","1019","30.09","-999","-999","-9999","-9999","-9999.00","-9999.00","Clear","clear","0","0","0","0","0","0","METAR UKKK 102330Z 00000MPS CAVOK 14/10 Q1019 R08/CLRD70 NOSIG"
"3:00 AM EEST on September 11, 2016","2016","09","11","03","00","Europe/Kiev","12:00 AM GMT on September 11, 2016","2016","09","11","00","00","UTC","18","65","9","48","43","7.2","4.5","","","250","WSW","20","12","1019","30.10","-999","-999","-9999","-9999","","","","","0","0","0","0","0","0","AAXX 11001 33345 32998 02502 10182 20088 39995 40192 58002 555 10014"
"3:00 AM EEST on September 11, 2016","2016","09","11","03","00","Europe/Kiev","12:00 AM GMT on September 11, 2016","2016","09","11","00","00","UTC","13.0","55.4","10.0","50.0","82","0.0","0.0","-9999.0","-9999.0","0","North","-9999.0","-9999.0","1019","30.09","-999","-999","-9999","-9999","-9999.00","-9999.00","Clear","clear","0","0","0","0","0","0","METAR UKKK 110000Z 00000MPS CAVOK 13/10 Q1019 R08/CLRD70 NOSIG"
"3:30 AM EEST on September 11, 2016","2016","09","11","03","30","Europe/Kiev","12:30 AM GMT on September 11, 2016","2016","09","11","00","30","UTC","13.0","55.4","9.0","48.2","77","0.0","0.0","-9999.0","-9999.0","0","North","-9999.0","-9999.0","1019","30.09","-999","-999","-9999","-9999","-9999.00","-9999.00","Clear","clear","0","0","0","0","0","0","METAR UKKK 110030Z 00000MPS CAVOK 13/09 Q1019 R08/CLRD70 NOSIG"
"4:00 AM EEST on September 11, 2016","2016","09","11","04","00","Europe/Kiev","1:00 AM GMT on September 11, 2016","2016","09","11","01","00","UTC","12.0","53.6","10.0","50.0","88","0.0","0.0","-9999.0","-9999.0","0","North","-9999.0","-9999.0","1019","30.09","-999","-999","-9999","-9999","-9999.00","-9999.00","Clear","clear","0","0","0","0","0","0","METAR UKKK 110100Z 00000MPS CAVOK 12/10 Q1019 R08/CLRD70 NOSIG"
"4:30 AM EEST on September 11, 2016","2016","09","11","04","30","Europe/Kiev","1:30 AM GMT on September 11, 2016","2016","09","11","01","30","UTC","11.0","51.8","9.0","48.2","88","0.0","0.0","-9999.0","-9999.0","0","North","-9999.0","-9999.0","1019","30.09","-999","-999","-9999","-9999","-9999.00","-9999.00","Clear","clear","0","0","0","0","0","0","METAR UKKK 110130Z 00000MPS CAVOK 11/09 Q1019 R08/CLRD70 NOSIG"
"5:00 AM EEST on September 11, 2016","2016","09","11","05","00","Europe/Kiev","2:00 AM GMT on September 11, 2016","2016","09","11","02","00","UTC","12.0","53.6","9.0","48.2","82","0.0","0.0","-9999.0","-9999.0","0","North","-9999.0","-9999.0","1019","30.09","-999","-999","-9999","-9999","-9999.00","-9999.00","Clear","clear","0","0","0","0","0","0","METAR UKKK 110200Z 00000MPS CAVOK 12/09 Q1019 R08/CLRD70 NOSIG"
"5:30 AM EEST on September 11, 2016","2016","09","11","05","30","Europe/Kiev","2:30 AM GMT on September 11, 2016","2016","09","11","02","30","UTC","11.0","51.8","9.0","48.2","88","7.2","4.5","-9999.0","-9999.0","240","WSW","-9999.0","-9999.0","1019","30.09","-999","-999","-9999","-9999","-9999.00","-9999.00","Clear","clear","0","0","0","0","0","0","METAR UKKK 110230Z 24002MPS CAVOK 11/09 Q1019 R26/CLRD70 NOSIG"
"6:00 AM EEST on September 11, 2016","2016","09","11","06","00","Europe/Kiev","3:00 AM GMT on September 11, 2016","2016","09","11","03","00","UTC","14","58","10","49","64","0.0","0.0","","","","","20","12","1020","30.11","-999","-999","-9999","-9999","","","","","0","0","0","0","0","0","AAXX 11031 33345 42998 00000 10142 20095 39995 40195 54000 555 10012"
"6:00 AM EEST on September 11, 2016","2016","09","11","06","00","Europe/Kiev","3:00 AM GMT on September 11, 2016","2016","09","11","03","00","UTC","11.0","51.8","10.0","50.0","94","7.2","4.5","-9999.0","-9999.0","240","WSW","-9999.0","-9999.0","1019","30.09","-999","-999","-9999","-9999","-9999.00","-9999.00","Clear","clear","0","0","0","0","0","0","METAR UKKK 110300Z 24002MPS CAVOK 11/10 Q1019 R26/CLRD70 NOSIG"
"6:30 AM EEST on September 11, 2016","2016","09","11","06","30","Europe/Kiev","3:30 AM GMT on September 11, 2016","2016","09","11","03","30","UTC","11.0","51.8","9.0","48.2","88","7.2","4.5","-9999.0","-9999.0","240","WSW","-9999.0","-9999.0","1019","30.09","-999","-999","-9999","-9999","-9999.00","-9999.00","Clear","clear","0","0","0","0","0","0","METAR UKKK 110330Z 24002MPS CAVOK 11/09 Q1019 R26/CLRD70 NOSIG"
"7:00 AM EEST on September 11, 2016","2016","09","11","07","00","Europe/Kiev","4:00 AM GMT on September 11, 2016","2016","09","11","04","00","UTC","11.0","51.8","10.0","50.0","94","7.2","4.5","-9999.0","-9999.0","240","WSW","-9999.0","-9999.0","1019","30.09","-999","-999","-9999","-9999","-9999.00","-9999.00","Clear","clear","0","0","0","0","0","0","METAR UKKK 110400Z 24002MPS CAVOK 11/10 Q1019 R26/CLRD70 NOSIG"
"7:30 AM EEST on September 11, 2016","2016","09","11","07","30","Europe/Kiev","4:30 AM GMT on September 11, 2016","2016","09","11","04","30","UTC","13.0","55.4","11.0","51.8","88","7.2","4.5","-9999.0","-9999.0","250","WSW","-9999.0","-9999.0","1019","30.09","-999","-999","-9999","-9999","-9999.00","-9999.00","Clear","clear","0","0","0","0","0","0","METAR UKKK 110430Z 25002MPS CAVOK 13/11 Q1019 R26/CLRD70 NOSIG"
"8:00 AM EEST on September 11, 2016","2016","09","11","08","00","Europe/Kiev","5:00 AM GMT on September 11, 2016","2016","09","11","05","00","UTC","15.0","59.0","13.0","55.4","88","7.2","4.5","-9999.0","-9999.0","260","West","-9999.0","-9999.0","1019","30.09","-999","-999","-9999","-9999","-9999.00","-9999.00","Clear","clear","0","0","0","0","0","0","METAR UKKK 110500Z 26002MPS CAVOK 15/13 Q1019 R26/CLRD70 NOSIG"
"8:30 AM EEST on September 11, 2016","2016","09","11","08","30","Europe/Kiev","5:30 AM GMT on September 11, 2016","2016","09","11","05","30","UTC","18.0","64.4","11.0","51.8","64","7.2","4.5","-9999.0","-9999.0","250","WSW","-9999.0","-9999.0","1019","30.09","-999","-999","-9999","-9999","-9999.00","-9999.00","Clear","clear","0","0","0","0","0","0","METAR UKKK 110530Z 25002MPS CAVOK 18/11 Q1019 R26/CLRD70 NOSIG"
"9:00 AM EEST on September 11, 2016","2016","09","11","09","00","Europe/Kiev","6:00 AM GMT on September 11, 2016","2016","09","11","06","00","UTC","20","69","8","47","33","10.8","6.7","","","280","West","20","12","1019","30.11","-999","-999","-9999","-9999","","","","","0","0","0","0","0","0","AAXX 11061 33345 32998 02803 10204 20081 39998 40194 53003 333 20139 555 10022"
"9:00 AM EEST on September 11, 2016","2016","09","11","09","00","Europe/Kiev","6:00 AM GMT on September 11, 2016","2016","09","11","06","00","UTC","20.0","68.0","10.0","50.0","52","10.8","6.7","-9999.0","-9999.0","260","West","-9999.0","-9999.0","1020","30.12","-999","-999","-9999","-9999","-9999.00","-9999.00","Clear","clear","0","0","0","0","0","0","METAR UKKK 110600Z 26003MPS CAVOK 20/10 Q1020 R26/CLRD70 NOSIG"
"9:30 AM EEST on September 11, 2016","2016","09","11","09","30","Europe/Kiev","6:30 AM GMT on September 11, 2016","2016","09","11","06","30","UTC","21.0","69.8","10.0","50.0","49","10.8","6.7","-9999.0","-9999.0","260","West","-9999.0","-9999.0","1020","30.12","-999","-999","-9999","-9999","-9999.00","-9999.00","Clear","clear","0","0","0","0","0","0","METAR UKKK 110630Z 26003MPS CAVOK 21/10 Q1020 R26/CLRD70 NOSIG"
"10:00 AM EEST on September 11, 2016","2016","09","11","10","00","Europe/Kiev","7:00 AM GMT on September 11, 2016","2016","09","11","07","00","UTC","23.0","73.4","9.0","48.2","41","14.4","8.9","-9999.0","-9999.0","270","West","-9999.0","-9999.0","1020","30.12","-999","-999","-9999","-9999","-9999.00","-9999.00","Clear","clear","0","0","0","0","0","0","METAR UKKK 110700Z 27004MPS CAVOK 23/09 Q1020 R26/CLRD70 NOSIG"
"10:30 AM EEST on September 11, 2016","2016","09","11","10","30","Europe/Kiev","7:30 AM GMT on September 11, 2016","2016","09","11","07","30","UTC","24.0","75.2","9.0","48.2","38","10.8","6.7","-9999.0","-9999.0","260","West","-9999.0","-9999.0","1020","30.12","-999","-999","-9999","-9999","-9999.00","-9999.00","Clear","clear","0","0","0","0","0","0","METAR UKKK 110730Z 26003MPS 230V290 CAVOK 24/09 Q1020 R26/CLRD70 NOSIG"
"11:00 AM EEST on September 11, 2016","2016","09","11","11","00","Europe/Kiev","8:00 AM GMT on September 11, 2016","2016","09","11","08","00","UTC","25.0","77.0","9.0","48.2","36","14.4","8.9","-9999.0","-9999.0","260","West","-9999.0","-9999.0","1020","30.12","-999","-999","-9999","-9999","-9999.00","-9999.00","Clear","clear","0","0","0","0","0","0","METAR UKKK 110800Z 26004MPS 230V290 CAVOK 25/09 Q1020 R26/CLRD70 NOSIG"
"11:30 AM EEST on September 11, 2016","2016","09","11","11","30","Europe/Kiev","8:30 AM GMT on September 11, 2016","2016","09","11","08","30","UTC","25.0","77.0","9.0","48.2","36","10.8","6.7","-9999.0","-9999.0","260","West","-9999.0","-9999.0","1020","30.12","-999","-999","-9999","-9999","-9999.00","-9999.00","Clear","clear","0","0","0","0","0","0","METAR UKKK 110830Z 26003MPS 230V300 CAVOK 25/09 Q1020 R26/CLRD70 NOSIG"
"12:00 PM EEST on September 11, 2016","2016","09","11","12","00","Europe/Kiev","9:00 AM GMT on September 11, 2016","2016","09","11","09","00","UTC","27","80","9","48","22","10.8","6.7","","","300","WNW","20","12","1019","30.10","-999","-999","-9999","-9999","","","Scattered Clouds","partlycloudy","0","0","0","0","0","0","AAXX 11091 33345 42998 23003 10267 20090 30001 40192 52003 82032 555 10039"
"12:00 PM EEST on September 11, 2016","2016","09","11","12","00","Europe/Kiev","9:00 AM GMT on September 11, 2016","2016","09","11","09","00","UTC","26.0","78.8","10.0","50.0","36","14.4","8.9","-9999.0","-9999.0","280","West","-9999.0","-9999.0","1020","30.12","-999","-999","-9999","-9999","-9999.00","-9999.00","Clear","clear","0","0","0","0","0","0","METAR UKKK 110900Z 28004MPS 240V310 CAVOK 26/10 Q1020 R26/CLRD70 NOSIG"
"12:30 PM EEST on September 11, 2016","2016","09","11","12","30","Europe/Kiev","9:30 AM GMT on September 11, 2016","2016","09","11","09","30","UTC","27.0","80.6","11.0","51.8","37","14.4","8.9","-9999.0","-9999.0","270","West","-9999.0","-9999.0","1020","30.12","-999","-999","-9999","-9999","-9999.00","-9999.00","Clear","clear","0","0","0","0","0","0","METAR UKKK 110930Z 27004MPS 220V310 CAVOK 27/11 Q1020 R26/CLRD70 NOSIG"
"1:00 PM EEST on September 11, 2016","2016","09","11","13","00","Europe/Kiev","10:00 AM GMT on September 11, 2016","2016","09","11","10","00","UTC","27.0","80.6","10.0","50.0","34","10.8","6.7","-9999.0","-9999.0","240","WSW","-9999.0","-9999.0","1020","30.12","-999","-999","-9999","-9999","-9999.00","-9999.00","Clear","clear","0","0","0","0","0","0","METAR UKKK 111000Z 24003MPS 180V280 CAVOK 27/10 Q1020 R26/CLRD70 NOSIG"
"1:30 PM EEST on September 11, 2016","2016","09","11","13","30","Europe/Kiev","10:30 AM GMT on September 11, 2016","2016","09","11","10","30","UTC","27.0","80.6","11.0","51.8","37","10.8","6.7","-9999.0","-9999.0","290","WNW","-9999.0","-9999.0","1020","30.12","-999","-999","-9999","-9999","-9999.00","-9999.00","Clear","clear","0","0","0","0","0","0","METAR UKKK 111030Z 29003MPS 260V340 CAVOK 27/11 Q1020 R26/CLRD70 NOSIG"
"2:00 PM EEST on September 11, 2016","2016","09","11","14","00","Europe/Kiev","11:00 AM GMT on September 11, 2016","2016","09","11","11","00","UTC","27.0","80.6","10.0","50.0","34","7.2","4.5","-9999.0","-9999.0","290","WNW","-9999.0","-9999.0","1019","30.09","-999","-999","-9999","-9999","-9999.00","-9999.00","Clear","clear","0","0","0","0","0","0","METAR UKKK 111100Z 29002MPS CAVOK 27/10 Q1019 R26/CLRD70 NOSIG"
"2:30 PM EEST on September 11, 2016","2016","09","11","14","30","Europe/Kiev","11:30 AM GMT on September 11, 2016","2016","09","11","11","30","UTC","28.0","82.4","10.0","50.0","32","7.2","4.5","-9999.0","-9999.0","270","West","-9999.0","-9999.0","1019","30.09","-999","-999","-9999","-9999","-9999.00","-9999.00","Clear","clear","0","0","0","0","0","0","METAR UKKK 111130Z 27002MPS 190V320 CAVOK 28/10 Q1019 R26/CLRD70 NOSIG"
"3:00 PM EEST on September 11, 2016","2016","09","11","15","00","Europe/Kiev","12:00 PM GMT on September 11, 2016","2016","09","11","12","00","UTC","28","83","10","50","22","7.2","4.5","","","310","NW","20","12","1018","30.08","-999","-999","-9999","-9999","","","Scattered Clouds","partlycloudy","0","0","0","0","0","0","AAXX 11121 33345 32698 53102 10285 20101 39995 40185 58006 82149 555 10043"
"3:00 PM EEST on September 11, 2016","2016","09","11","15","00","Europe/Kiev","12:00 PM GMT on September 11, 2016","2016","09","11","12","00","UTC","28.0","82.4","10.0","50.0","32","7.2","4.5","-9999.0","-9999.0","360","North","-9999.0","-9999.0","1019","30.09","-999","-999","-9999","-9999","-9999.00","-9999.00","Clear","clear","0","0","0","0","0","0","METAR UKKK 111200Z 36002MPS 330V050 CAVOK 28/10 Q1019 R26/CLRD70 NOSIG"
"3:30 PM EEST on September 11, 2016","2016","09","11","15","30","Europe/Kiev","12:30 PM GMT on September 11, 2016","2016","09","11","12","30","UTC","28.0","82.4","10.0","50.0","32","7.2","4.5","-9999.0","-9999.0","250","WSW","-9999.0","-9999.0","1019","30.09","-999","-999","-9999","-9999","-9999.00","-9999.00","Clear","clear","0","0","0","0","0","0","METAR UKKK 111230Z 25002MPS CAVOK 28/10 Q1019 R26/CLRD70 NOSIG"
"4:00 PM EEST on September 11, 2016","2016","09","11","16","00","Europe/Kiev","1:00 PM GMT on September 11, 2016","2016","09","11","13","00","UTC","28.0","82.4","10.0","50.0","32","7.2","4.5","-9999.0","-9999.0","210","SSW","-9999.0","-9999.0","1019","30.09","-999","-999","-9999","-9999","-9999.00","-9999.00","Clear","clear","0","0","0","0","0","0","METAR UKKK 111300Z 21002MPS 160V280 CAVOK 28/10 Q1019 R26/CLRD70 NOSIG"
"4:30 PM EEST on September 11, 2016","2016","09","11","16","30","Europe/Kiev","1:30 PM GMT on September 11, 2016","2016","09","11","13","30","UTC","29.0","84.2","10.0","50.0","30","3.6","2.2","-9999.0","-9999.0","0","Variable","-9999.0","-9999.0","1019","30.09","-999","-999","-9999","-9999","-9999.00","-9999.00","Clear","clear","0","0","0","0","0","0","METAR UKKK 111330Z VRB01MPS CAVOK 29/10 Q1019 R08/CLRD70 NOSIG"
"5:00 PM EEST on September 11, 2016","2016","09","11","17","00","Europe/Kiev","2:00 PM GMT on September 11, 2016","2016","09","11","14","00","UTC","28.0","82.4","10.0","50.0","32","3.6","2.2","-9999.0","-9999.0","0","Variable","-9999.0","-9999.0","1019","30.09","-999","-999","-9999","-9999","-9999.00","-9999.00","Clear","clear","0","0","0","0","0","0","METAR UKKK 111400Z VRB01MPS CAVOK 28/10 Q1019 R08/CLRD70 NOSIG"
"5:30 PM EEST on September 11, 2016","2016","09","11","17","30","Europe/Kiev","2:30 PM GMT on September 11, 2016","2016","09","11","14","30","UTC","28.0","82.4","10.0","50.0","32","3.6","2.2","-9999.0","-9999.0","0","Variable","-9999.0","-9999.0","1019","30.09","-999","-999","-9999","-9999","-9999.00","-9999.00","Clear","clear","0","0","0","0","0","0","METAR UKKK 111430Z VRB01MPS CAVOK 28/10 Q1019 R08/CLRD70 NOSIG"
"6:00 PM EEST on September 11, 2016","2016","09","11","18","00","Europe/Kiev","3:00 PM GMT on September 11, 2016","2016","09","11","15","00","UTC","28","82","10","51","23","3.6","2.2","","","90","East","20","12","1018","30.07","-999","-999","-9999","-9999","","","Partly Cloudy","partlycloudy","0","0","0","0","0","0","AAXX 11151 33345 42698 60901 10278 20103 39991 40181 57004 83545 555 10033"
"6:00 PM EEST on September 11, 2016","2016","09","11","18","00","Europe/Kiev","3:00 PM GMT on September 11, 2016","2016","09","11","15","00","UTC","28.0","82.4","10.0","50.0","32","7.2","4.5","-9999.0","-9999.0","70","ENE","-9999.0","-9999.0","1019","30.09","-999","-999","-9999","-9999","-9999.00","-9999.00","Clear","clear","0","0","0","0","0","0","METAR UKKK 111500Z 07002MPS 340V100 CAVOK 28/10 Q1019 R08/CLRD70 NOSIG"
"6:30 PM EEST on September 11, 2016","2016","09","11","18","30","Europe/Kiev","3:30 PM GMT on September 11, 2016","2016","09","11","15","30","UTC","28.0","82.4","10.0","50.0","32","3.6","2.2","-9999.0","-9999.0","0","Variable","-9999.0","-9999.0","1019","30.09","-999","-999","-9999","-9999","-9999.00","-9999.00","Clear","clear","0","0","0","0","0","0","METAR UKKK 111530Z VRB01MPS CAVOK 28/10 Q1019 R08/CLRD70 NOSIG"
"7:00 PM EEST on September 11, 2016","2016","09","11","19","00","Europe/Kiev","4:00 PM GMT on September 11, 2016","2016","09","11","16","00","UTC","24.0","75.2","12.0","53.6","47","10.8","6.7","-9999.0","-9999.0","90","East","-9999.0","-9999.0","1019","30.09","-999","-999","-9999","-9999","-9999.00","-9999.00","Clear","clear","0","0","0","0","0","0","METAR UKKK 111600Z 09003MPS CAVOK 24/12 Q1019 R08/CLRD70 NOSIG"
"7:30 PM EEST on September 11, 2016","2016","09","11","19","30","Europe/Kiev","4:30 PM GMT on September 11, 2016","2016","09","11","16","30","UTC","23.0","73.4","12.0","53.6","50","7.2","4.5","-9999.0","-9999.0","100","East","-9999.0","-9999.0","1019","30.09","-999","-999","-9999","-9999","-9999.00","-9999.00","Clear","clear","0","0","0","0","0","0","METAR UKKK 111630Z 10002MPS CAVOK 23/12 Q1019 R08/CLRD70 NOSIG"
"8:00 PM EEST on September 11, 2016","2016","09","11","20","00","Europe/Kiev","5:00 PM GMT on September 11, 2016","2016","09","11","17","00","UTC","21.0","69.8","13.0","55.4","60","3.6","2.2","-9999.0","-9999.0","100","East","-9999.0","-9999.0","1019","30.09","-999","-999","-9999","-9999","-9999.00","-9999.00","Clear","clear","0","0","0","0","0","0","METAR UKKK 111700Z 10001MPS CAVOK 21/13 Q1019 R08/CLRD70 NOSIG"
"8:30 PM EEST on September 11, 2016","2016","09","11","20","30","Europe/Kiev","5:30 PM GMT on September 11, 2016","2016","09","11","17","30","UTC","20.0","68.0","13.0","55.4","64","0.0","0.0","-9999.0","-9999.0","0","North","-9999.0","-9999.0","1019","30.09","-999","-999","-9999","-9999","-9999.00","-9999.00","Clear","clear","0","0","0","0","0","0","METAR UKKK 111730Z 00000MPS CAVOK 20/13 Q1019 R08/CLRD70 NOSIG"
"9:00 PM EEST on September 11, 2016","2016","09","11","21","00","Europe/Kiev","6:00 PM GMT on September 11, 2016","2016","09","11","18","00","UTC","22","71","13","56","49","0.0","0.0","","","","","20","12","1019","30.10","-999","-999","-9999","-9999","","","Partly Cloudy","partlycloudy","0","0","0","0","0","0","AAXX 11181 33345 32998 60000 10218 20133 39998 40192 53007 84079 333 10295 555 10019"
"9:00 PM EEST on September 11, 2016","2016","09","11","21","00","Europe/Kiev","6:00 PM GMT on September 11, 2016","2016","09","11","18","00","UTC","19.0","66.2","13.0","55.4","68","0.0","0.0","-9999.0","-9999.0","0","North","-9999.0","-9999.0","1020","30.12","-999","-999","-9999","-9999","-9999.00","-9999.00","Clear","clear","0","0","0","0","0","0","METAR UKKK 111800Z 00000MPS CAVOK 19/13 Q1020 R08/CLRD70 NOSIG"
"9:30 PM EEST on September 11, 2016","2016","09","11","21","30","Europe/Kiev","6:30 PM GMT on September 11, 2016","2016","09","11","18","30","UTC","18.0","64.4","13.0","55.4","73","0.0","0.0","-9999.0","-9999.0","0","North","9.0","5.6","1020","30.12","-999","-999","-9999","-9999","-9999.00","-9999.00","Unknown","unknown","0","0","0","0","0","0","METAR UKKK 111830Z 00000MPS 9000 NSC 18/13 Q1020 R08/CLRD70 NOSIG"
"10:00 PM EEST on September 11, 2016","2016","09","11","22","00","Europe/Kiev","7:00 PM GMT on September 11, 2016","2016","09","11","19","00","UTC","17.0","62.6","13.0","55.4","77","0.0","0.0","-9999.0","-9999.0","0","North","9.0","5.6","1020","30.12","-999","-999","-9999","-9999","-9999.00","-9999.00","Unknown","unknown","0","0","0","0","0","0","METAR UKKK 111900Z 00000MPS 9000 NSC 17/13 Q1020 R08/CLRD70 NOSIG"
"10:30 PM EEST on September 11, 2016","2016","09","11","22","30","Europe/Kiev","7:30 PM GMT on September 11, 2016","2016","09","11","19","30","UTC","17.0","62.6","13.0","55.4","77","3.6","2.2","-9999.0","-9999.0","80","East","-9999.0","-9999.0","1020","30.12","-999","-999","-9999","-9999","-9999.00","-9999.00","Clear","clear","0","0","0","0","0","0","METAR UKKK 111930Z 08001MPS CAVOK 17/13 Q1020 R08/CLRD70 NOSIG"
"11:00 PM EEST on September 11, 2016","2016","09","11","23","00","Europe/Kiev","8:00 PM GMT on September 11, 2016","2016","09","11","20","00","UTC","17.0","62.6","13.0","55.4","77","0.0","0.0","-9999.0","-9999.0","0","North","9.0","5.6","1020","30.12","-999","-999","-9999","-9999","-9999.00","-9999.00","Unknown","unknown","0","0","0","0","0","0","METAR UKKK 112000Z 00000MPS 9000 NSC 17/13 Q1020 R08/CLRD70 NOSIG"
"11:30 PM EEST on September 11, 2016","2016","09","11","23","30","Europe/Kiev","8:30 PM GMT on September 11, 2016","2016","09","11","20","30","UTC","16.0","60.8","13.0","55.4","82","0.0","0.0","-9999.0","-9999.0","0","North","-9999.0","-9999.0","1020","30.12","-999","-999","-9999","-9999","-9999.00","-9999.00","Clear","clear","0","0","0","0","0","0","METAR UKKK 112030Z 00000MPS CAVOK 16/13 Q1020 R08/CLRD70 NOSIG"
"12:00 AM EEST on September 12, 2016","2016","09","12","00","00","Europe/Kiev","9:00 PM GMT on September 11, 2016","2016","09","11","21","00","UTC","19","67","12","53","51","0.0","0.0","","","","","20","12","1020","30.12","-999","-999","-9999","-9999","","","Clear","clear","0","0","0","0","0","0","AAXX 11211 33345 42998 20000 10193 20117 30003 40199 52005 80002 555 10017"
"12:00 AM EEST on September 12, 2016","2016","09","12","00","00","Europe/Kiev","9:00 PM GMT on September 11, 2016","2016","09","11","21","00","UTC","15.0","59.0","13.0","55.4","88","0.0","0.0","-9999.0","-9999.0","0","North","9.0","5.6","1020","30.12","-999","-999","-9999","-9999","-9999.00","-9999.00","Unknown","unknown","0","0","0","0","0","0","METAR UKKK 112100Z 00000MPS 9000 NSC 15/13 Q1020 R08/CLRD70 NOSIG"
"12:30 AM EEST on September 12, 2016","2016","09","12","00","30","Europe/Kiev","9:30 PM GMT on September 11, 2016","2016","09","11","21","30","UTC","15.0","59.0","13.0","55.4","88","0.0","0.0","-9999.0","-9999.0","0","North","9.0","5.6","1020","30.12","-999","-999","-9999","-9999","-9999.00","-9999.00","Unknown","unknown","0","0","0","0","0","0","METAR UKKK 112130Z 00000MPS 9000 NSC 15/13 Q1020 R08/CLRD70 NOSIG"
"1:00 AM EEST on September 12, 2016","2016","09","12","01","00","Europe/Kiev","10:00 PM GMT on September 11, 2016","2016","09","11","22","00","UTC","15.0","59.0","13.0","55.4","88","0.0","0.0","-9999.0","-9999.0","0","North","-9999.0","-9999.0","1020","30.12","-999","-999","-9999","-9999","-9999.00","-9999.00","Clear","clear","0","0","0","0","0","0","METAR UKKK 112200Z 00000MPS CAVOK 15/13 Q1020 R08/CLRD70 NOSIG"
"1:30 AM EEST on September 12, 2016","2016","09","12","01","30","Europe/Kiev","10:30 PM GMT on September 11, 2016","2016","09","11","22","30","UTC","14.0","57.2","13.0","55.4","94","0.0","0.0","-9999.0","-9999.0","0","North","-9999.0","-9999.0","1020","30.12","-999","-999","-9999","-9999","-9999.00","-9999.00","Clear","clear","0","0","0","0","0","0","METAR UKKK 112230Z 00000MPS CAVOK 14/13 Q1020 R08/CLRD70 NOSIG"
"2:00 AM EEST on September 12, 2016","2016","09","12","02","00","Europe/Kiev","11:00 PM GMT on September 11, 2016","2016","09","11","23","00","UTC","14.0","57.2","12.0","53.6","88","0.0","0.0","-9999.0","-9999.0","0","North","-9999.0","-9999.0","1020","30.12","-999","-999","-9999","-9999","-9999.00","-9999.00","Clear","clear","0","0","0","0","0","0","METAR UKKK 112300Z 00000MPS CAVOK 14/12 Q1020 R08/CLRD70 NOSIG"
"2:30 AM EEST on September 12, 2016","2016","09","12","02","30","Europe/Kiev","11:30 PM GMT on September 11, 2016","2016","09","11","23","30","UTC","14.0","57.2","12.0","53.6","88","3.6","2.2","-9999.0","-9999.0","230","SW","-9999.0","-9999.0","1020","30.12","-999","-999","-9999","-9999","-9999.00","-9999.00","Clear","clear","0","0","0","0","0","0","METAR UKKK 112330Z 23001MPS CAVOK 14/12 Q1020 R08/CLRD70 NOSIG"
"3:00 AM EEST on September 12, 2016","2016","09","12","03","00","Europe/Kiev","12:00 AM GMT on September 12, 2016","2016","09","12","00","00","UTC","20","69","10","51","41","7.2","4.5","","","320","NW","20","12","1020","30.12","-999","-999","-9999","-9999","","","","","0","0","0","0","0","0","AAXX 12001 33345 32998 03202 10203 20104 30003 40199 54000 555 10016"
"3:00 AM EEST on September 12, 2016","2016","09","12","03","00","Europe/Kiev","12:00 AM GMT on September 12, 2016","2016","09","12","00","00","UTC","13.0","55.4","12.0","53.6","94","3.6","2.2","-9999.0","-9999.0","230","SW","9.0","5.6","1020","30.12","-999","-999","-9999","-9999","-9999.00","-9999.00","Unknown","unknown","0","0","0","0","0","0","METAR UKKK 120000Z 23001MPS 9000 NSC 13/12 Q1020 R08/CLRD70 NOSIG"
"3:30 AM EEST on September 12, 2016","2016","09","12","03","30","Europe/Kiev","12:30 AM GMT on September 12, 2016","2016","09","12","00","30","UTC","13.0","55.4","12.0","53.6","94","3.6","2.2","-9999.0","-9999.0","240","WSW","-9999.0","-9999.0","1020","30.12","-999","-999","-9999","-9999","-9999.00","-9999.00","Clear","clear","0","0","0","0","0","0","METAR UKKK 120030Z 24001MPS CAVOK 13/12 Q1020 R08/CLRD70 NOSIG"
"4:00 AM EEST on September 12, 2016","2016","09","12","04","00","Europe/Kiev","1:00 AM GMT on September 12, 2016","2016","09","12","01","00","UTC","14.0","57.2","12.0","53.6","88","3.6","2.2","-9999.0","-9999.0","250","WSW","-9999.0","-9999.0","1020","30.12","-999","-999","-9999","-9999","-9999.00","-9999.00","Clear","clear","0","0","0","0","0","0","METAR UKKK 120100Z 25001MPS CAVOK 14/12 Q1020 R08/CLRD70 NOSIG"
"4:30 AM EEST on September 12, 2016","2016","09","12","04","30","Europe/Kiev","1:30 AM GMT on September 12, 2016","2016","09","12","01","30","UTC","14.0","57.2","12.0","53.6","88","3.6","2.2","-9999.0","-9999.0","230","SW","-9999.0","-9999.0","1020","30.12","-999","-999","-9999","-9999","-9999.00","-9999.00","Clear","clear","0","0","0","0","0","0","METAR UKKK 120130Z 23001MPS CAVOK 14/12 Q1020 R08/CLRD70 NOSIG"
"5:00 AM EEST on September 12, 2016","2016","09","12","05","00","Europe/Kiev","2:00 AM GMT on September 12, 2016","2016","09","12","02","00","UTC","13.0","55.4","12.0","53.6","94","7.2","4.5","-9999.0","-9999.0","240","WSW","-9999.0","-9999.0","1020","30.12","-999","-999","-9999","-9999","-9999.00","-9999.00","Clear","clear","0","0","0","0","0","0","METAR UKKK 120200Z 24002MPS CAVOK 13/12 Q1020 R08/CLRD70 NOSIG"
"5:30 AM EEST on September 12, 2016","2016","09","12","05","30","Europe/Kiev","2:30 AM GMT on September 12, 2016","2016","09","12","02","30","UTC","13.0","55.4","11.0","51.8","88","3.6","2.2","-9999.0","-9999.0","230","SW","-9999.0","-9999.0","1021","30.15","-999","-999","-9999","-9999","-9999.00","-9999.00","Clear","clear","0","0","0","0","0","0","METAR UKKK 120230Z 23001MPS CAVOK 13/11 Q1021 R08/CLRD70 NOSIG"
"6:00 AM EEST on September 12, 2016","2016","09","12","06","00","Europe/Kiev","3:00 AM GMT on September 12, 2016","2016","09","12","03","00","UTC","18","65","10","51","49","7.2","4.5","","","300","WNW","20","12","1020","30.14","-999","-999","-9999","-9999","","","Scattered Clouds","partlycloudy","0","0","0","0","0","0","AAXX 12031 33345 42998 23002 10185 20103 30008 40205 53005 82080 555 10015"
"6:00 AM EEST on September 12, 2016","2016","09","12","06","00","Europe/Kiev","3:00 AM GMT on September 12, 2016","2016","09","12","03","00","UTC","13.0","55.4","12.0","53.6","94","7.2","4.5","-9999.0","-9999.0","260","West","-9999.0","-9999.0","1021","30.15","-999","-999","-9999","-9999","-9999.00","-9999.00","Clear","clear","0","0","0","0","0","0","METAR UKKK 120300Z 26002MPS CAVOK 13/12 Q1021 R26/CLRD70 NOSIG"
"6:30 AM EEST on September 12, 2016","2016","09","12","06","30","Europe/Kiev","3:30 AM GMT on September 12, 2016","2016","09","12","03","30","UTC","13.0","55.4","12.0","53.6","94","7.2","4.5","-9999.0","-9999.0","260","West","-9999.0","-9999.0","1021","30.15","-999","-999","-9999","-9999","-9999.00","-9999.00","Clear","clear","0","0","0","0","0","0","METAR UKKK 120330Z 26002MPS CAVOK 13/12 Q1021 R26/CLRD70 NOSIG"
"7:00 AM EEST on September 12, 2016","2016","09","12","07","00","Europe/Kiev","4:00 AM GMT on September 12, 2016","2016","09","12","04","00","UTC","12.0","53.6","12.0","53.6","100","7.2","4.5","-9999.0","-9999.0","260","West","-9999.0","-9999.0","1021","30.15","-999","-999","-9999","-9999","-9999.00","-9999.00","Clear","clear","0","0","0","0","0","0","METAR UKKK 120400Z 26002MPS CAVOK 12/12 Q1021 R26/CLRD70 NOSIG"
"7:30 AM EEST on September 12, 2016","2016","09","12","07","30","Europe/Kiev","4:30 AM GMT on September 12, 2016","2016","09","12","04","30","UTC","14.0","57.2","12.0","53.6","88","7.2","4.5","-9999.0","-9999.0","250","WSW","9.0","5.6","1021","30.15","-999","-999","-9999","-9999","-9999.00","-9999.00","Unknown","unknown","0","0","0","0","0","0","METAR UKKK 120430Z 25002MPS 9000 NSC 14/12 Q1021 R26/CLRD70 NOSIG"
"8:00 AM EEST on September 12, 2016","2016","09","12","08","00","Europe/Kiev","5:00 AM GMT on September 12, 2016","2016","09","12","05","00","UTC","17.0","62.6","12.0","53.6","72","7.2","4.5","-9999.0","-9999.0","260","West","-9999.0","-9999.0","1021","30.15","-999","-999","-9999","-9999","-9999.00","-9999.00","Clear","clear","0","0","0","0","0","0","METAR UKKK 120500Z 26002MPS CAVOK 17/12 Q1021 R26/CLRD70 NOSIG"
"8:30 AM EEST on September 12, 2016","2016","09","12","08","30","Europe/Kiev","5:30 AM GMT on September 12, 2016","2016","09","12","05","30","UTC","19.0","66.2","13.0","55.4","68","7.2","4.5","-9999.0","-9999.0","250","WSW","-9999.0","-9999.0","1021","30.15","-999","-999","-9999","-9999","-9999.00","-9999.00","Clear","clear","0","0","0","0","0","0","METAR UKKK 120530Z 25002MPS CAVOK 19/13 Q1021 R26/CLRD70 NOSIG"
"9:00 AM EEST on September 12, 2016","2016","09","12","09","00","Europe/Kiev","6:00 AM GMT on September 12, 2016","2016","09","12","06","00","UTC","21","70","12","53","45","7.2","4.5","","","330","NNW","20","12","1021","30.14","-999","-999","-9999","-9999","","","","","0","0","0","0","0","0","AAXX 12061 33345 32998 03302 10212 20119 30012 40207 52004 333 20184 555 10023"
"9:00 AM EEST on September 12, 2016","2016","09","12","09","00","Europe/Kiev","6:00 AM GMT on September 12, 2016","2016","09","12","06","00","UTC","20.0","68.0","12.0","53.6","60","7.2","4.5","-9999.0","-9999.0","260","West","9.0","5.6","1021","30.15","-999","-999","-9999","-9999","-9999.00","-9999.00","Unknown","unknown","0","0","0","0","0","0","METAR UKKK 120600Z 26002MPS 9000 NSC 20/12 Q1021 R26/CLRD70 NOSIG"
"9:30 AM EEST on September 12, 2016","2016","09","12","09","30","Europe/Kiev","6:30 AM GMT on September 12, 2016","2016","09","12","06","30","UTC","22.0","71.6","13.0","55.4","57","7.2","4.5","-9999.0","-9999.0","260","West","-9999.0","-9999.0","1021","30.15","-999","-999","-9999","-9999","-9999.00","-9999.00","Clear","clear","0","0","0","0","0","0","METAR UKKK 120630Z 26002MPS CAVOK 22/13 Q1021 R26/CLRD70 NOSIG"
"10:00 AM EEST on September 12, 2016","2016","09","12","10","00","Europe/Kiev","7:00 AM GMT on September 12, 2016","2016","09","12","07","00","UTC","24.0","75.2","14.0","57.2","53","10.8","6.7","-9999.0","-9999.0","20","NNE","-9999.0","-9999.0","1021","30.15","-999","-999","-9999","-9999","-9999.00","-9999.00","Clear","clear","0","0","0","0","0","0","METAR UKKK 120700Z 02003MPS 350V060 CAVOK 24/14 Q1021 R26/CLRD70 NOSIG"
"11:00 AM EEST on September 12, 2016","2016","09","12","11","00","Europe/Kiev","8:00 AM GMT on September 12, 2016","2016","09","12","08","00","UTC","25.0","77.0","15.0","59.0","54","10.8","6.7","-9999.0","-9999.0","350","North","-9999.0","-9999.0","1021","30.15","-999","-999","-9999","-9999","-9999.00","-9999.00","Clear","clear","0","0","0","0","0","0","METAR UKKK 120800Z 35003MPS CAVOK 25/15 Q1021 R26/CLRD70 NOSIG"
"11:30 AM EEST on September 12, 2016","2016","09","12","11","30","Europe/Kiev","8:30 AM GMT on September 12, 2016","2016","09","12","08","30","UTC","26.0","78.8","15.0","59.0","51","10.8","6.7","-9999.0","-9999.0","30","NNE","-9999.0","-9999.0","1021","30.15","-999","-999","-9999","-9999","-9999.00","-9999.00","Clear","clear","0","0","0","0","0","0","METAR UKKK 120830Z 03003MPS 360V060 CAVOK 26/15 Q1021 R26/CLRD70 NOSIG"
"12:00 PM EEST on September 12, 2016","2016","09","12","12","00","Europe/Kiev","9:00 AM GMT on September 12, 2016","2016","09","12","09","00","UTC","26","80","14","57","35","7.2","4.5","","","350","North","20","12","1021","30.14","-999","-999","-9999","-9999","","","","","0","0","0","0","0","0","AAXX 12091 33345 42998 03502 10265 20139 30015 40207 51003 555 10040"
"12:00 PM EEST on September 12, 2016","2016","09","12","12","00","Europe/Kiev","9:00 AM GMT on September 12, 2016","2016","09","12","09","00","UTC","27.0","80.6","15.0","59.0","48","10.8","6.7","-9999.0","-9999.0","360","North","-9999.0","-9999.0","1021","30.15","-999","-999","27.3","81.1","-9999.00","-9999.00","Clear","clear","0","0","0","0","0","0","METAR UKKK 120900Z 36003MPS 310V050 CAVOK 27/15 Q1021 R08/CLRD70 NOSIG"
"12:30 PM EEST on September 12, 2016","2016","09","12","12","30","Europe/Kiev","9:30 AM GMT on September 12, 2016","2016","09","12","09","30","UTC","27.0","80.6","15.0","59.0","48","10.8","6.7","-9999.0","-9999.0","10","North","-9999.0","-9999.0","1021","30.15","-999","-999","27.3","81.1","-9999.00","-9999.00","Clear","clear","0","0","0","0","0","0","METAR UKKK 120930Z 01003MPS 300V060 CAVOK 27/15 Q1021 R08/CLRD70 NOSIG"
"1:00 PM EEST on September 12, 2016","2016","09","12","13","00","Europe/Kiev","10:00 AM GMT on September 12, 2016","2016","09","12","10","00","UTC","28.0","82.4","14.0","57.2","42","14.4","8.9","-9999.0","-9999.0","320","NW","-9999.0","-9999.0","1021","30.15","-999","-999","27.8","82.0","-9999.00","-9999.00","Clear","clear","0","0","0","0","0","0","METAR UKKK 121000Z 32004MPS 290V060 CAVOK 28/14 Q1021 R08/CLRD70 NOSIG"
"1:30 PM EEST on September 12, 2016","2016","09","12","13","30","Europe/Kiev","10:30 AM GMT on September 12, 2016","2016","09","12","10","30","UTC","28.0","82.4","14.0","57.2","42","10.8","6.7","-9999.0","-9999.0","320","NW","-9999.0","-9999.0","1021","30.15","-999","-999","27.8","82.0","-9999.00","-9999.00","Clear","clear","0","0","0","0","0","0","METAR UKKK 121030Z 32003MPS 260V360 CAVOK 28/14 Q1021 R08/CLRD70 NOSIG"
"2:00 PM EEST on September 12, 2016","2016","09","12","14","00","Europe/Kiev","11:00 AM GMT on September 12, 2016","2016","09","12","11","00","UTC","28.0","82.4","14.0","57.2","42","14.4","8.9","-9999.0","-9999.0","330","NNW","-9999.0","-9999.0","1020","30.12","-999","-999","27.8","82.0","-9999.00","-9999.00","Clear","clear","0","0","0","0","0","0","METAR UKKK 121100Z 33004MPS 290V360 CAVOK 28/14 Q1020 R08/CLRD70 NOSIG"
"2:30 PM EEST on September 12, 2016","2016","09","12","14","30","Europe/Kiev","11:30 AM GMT on September 12, 2016","2016","09","12","11","30","UTC","28.0","82.4","14.0","57.2","42","10.8","6.7","-9999.0","-9999.0","350","North","-9999.0","-9999.0","1020","30.12","-999","-999","27.8","82.0","-9999.00","-9999.00","Clear","clear","0","0","0","0","0","0","METAR UKKK 121130Z 35003MPS 280V040 CAVOK 28/14 Q1020 R08/CLRD70 NOSIG"
"3:00 PM EEST on September 12, 2016","2016","09","12","15","00","Europe/Kiev","12:00 PM GMT on September 12, 2016","2016","09","12","12","00","UTC","27","81","14","57","33","10.8","6.7","","","40","NE","20","12","1020","30.11","-999","-999","-9999","-9999","","","Partly Cloudy","partlycloudy","0","0","0","0","0","0","AAXX 12121 33345 32698 30403 10272 20138 30004 40195 51011 83200 555 10039"
"3:00 PM EEST on September 12, 2016","2016","09","12","15","00","Europe/Kiev","12:00 PM GMT on September 12, 2016","2016","09","12","12","00","UTC","27.0","80.6","15.0","59.0","48","14.4","8.9","-9999.0","-9999.0","40","NE","-9999.0","-9999.0","1020","30.12","-999","-999","27.3","81.1","-9999.00","-9999.00","Clear","clear","0","0","0","0","0","0","METAR UKKK 121200Z 04004MPS 010V080 CAVOK 27/15 Q1020 R08/CLRD70 NOSIG"
"3:30 PM EEST on September 12, 2016","2016","09","12","15","30","Europe/Kiev","12:30 PM GMT on September 12, 2016","2016","09","12","12","30","UTC","28.0","82.4","15.0","59.0","45","7.2","4.5","-9999.0","-9999.0","100","East","-9999.0","-9999.0","1020","30.12","-999","-999","28.0","82.5","-9999.00","-9999.00","Clear","clear","0","0","0","0","0","0","METAR UKKK 121230Z 10002MPS CAVOK 28/15 Q1020 R08/CLRD70 NOSIG"
"4:00 PM EEST on September 12, 2016","2016","09","12","16","00","Europe/Kiev","1:00 PM GMT on September 12, 2016","2016","09","12","13","00","UTC","28.0","82.4","14.0","57.2","42","7.2","4.5","-9999.0","-9999.0","20","NNE","-9999.0","-9999.0","1020","30.12","-999","-999","27.8","82.0","-9999.00","-9999.00","Clear","clear","0","0","0","0","0","0","METAR UKKK 121300Z 02002MPS CAVOK 28/14 Q1020 R08/CLRD70 NOSIG"
"4:30 PM EEST on September 12, 2016","2016","09","12","16","30","Europe/Kiev","1:30 PM GMT on September 12, 2016","2016","09","12","13","30","UTC","28.0","82.4","14.0","57.2","42","10.8","6.7","-9999.0","-9999.0","40","NE","-9999.0","-9999.0","1020","30.12","-999","-999","27.8","82.0","-9999.00","-9999.00","Clear","clear","0","0","0","0","0","0","METAR UKKK 121330Z 04003MPS 350V080 CAVOK 28/14 Q1020 R08/CLRD70 NOSIG"
"5:00 PM EEST on September 12, 2016","2016","09","12","17","00","Europe/Kiev","2:00 PM GMT on September 12, 2016","2016","09","12","14","00","UTC","28.0","82.4","14.0","57.2","42","10.8","6.7","-9999.0","-9999.0","20","NNE","-9999.0","-9999.0","1020","30.12","-999","-999","27.8","82.0","-9999.00","-9999.00","Clear","clear","0","0","0","0","0","0","METAR UKKK 121400Z 02003MPS 350V050 CAVOK 28/14 Q1020 R08/CLRD70 NOSIG"
"5:30 PM EEST on September 12, 2016","2016","09","12","17","30","Europe/Kiev","2:30 PM GMT on September 12, 2016","2016","09","12","14","30","UTC","27.0","80.6","13.0","55.4","42","14.4","8.9","-9999.0","-9999.0","60","ENE","-9999.0","-9999.0","1019","30.09","-999","-999","27.0","80.5","-9999.00","-9999.00","Clear","clear","0","0","0","0","0","0","METAR UKKK 121430Z 06004MPS 030V090 CAVOK 27/13 Q1019 R08/CLRD70 NOSIG"
"6:00 PM EEST on September 12, 2016","2016","09","12","18","00","Europe/Kiev","3:00 PM GMT on September 12, 2016","2016","09","12","15","00","UTC","27","81","13","55","31","7.2","4.5","","","40","NE","20","12","1019","30.09","-999","-999","-9999","-9999","","","","","0","0","0","0","0","0","AAXX 12151 33345 42998 00402 10272 20129 39997 40188 57007 555 10030"
"6:00 PM EEST on September 12, 2016","2016","09","12","18","00","Europe/Kiev","3:00 PM GMT on September 12, 2016","2016","09","12","15","00","UTC","27.0","80.6","13.0","55.4","42","10.8","6.7","-9999.0","-9999.0","30","NNE","-9999.0","-9999.0","1019","30.09","-999","-999","27.0","80.5","-9999.00","-9999.00","Clear","clear","0","0","0","0","0","0","METAR UKKK 121500Z 03003MPS CAVOK 27/13 Q1019 R08/CLRD70 NOSIG"
"6:30 PM EEST on September 12, 2016","2016","09","12","18","30","Europe/Kiev","3:30 PM GMT on September 12, 2016","2016","09","12","15","30","UTC","26.0","78.8","13.0","55.4","44","10.8","6.7","-9999.0","-9999.0","30","NNE","-9999.0","-9999.0","1019","30.09","-999","-999","-9999","-9999","-9999.00","-9999.00","Clear","clear","0","0","0","0","0","0","METAR UKKK 121530Z 03003MPS CAVOK 26/13 Q1019 R08/CLRD70 NOSIG"
"7:00 PM EEST on September 12, 2016","2016","09","12","19","00","Europe/Kiev","4:00 PM GMT on September 12, 2016","2016","09","12","16","00","UTC","25.0","77.0","13.0","55.4","47","7.2","4.5","-9999.0","-9999.0","20","NNE","-9999.0","-9999.0","1019","30.09","-999","-999","-9999","-9999","-9999.00","-9999.00","Clear","clear","0","0","0","0","0","0","METAR UKKK 121600Z 02002MPS CAVOK 25/13 Q1019 R08/CLRD70 NOSIG"
"7:30 PM EEST on September 12, 2016","2016","09","12","19","30","Europe/Kiev","4:30 PM GMT on September 12, 2016","2016","09","12","16","30","UTC","22.0","71.6","13.0","55.4","57","7.2","4.5","-9999.0","-9999.0","40","NE","-9999.0","-9999.0","1019","30.09","-999","-999","-9999","-9999","-9999.00","-9999.00","Clear","clear","0","0","0","0","0","0","METAR UKKK 121630Z 04002MPS CAVOK 22/13 Q1019 R08/CLRD70 NOSIG"
"8:00 PM EEST on September 12, 2016","2016","09","12","20","00","Europe/Kiev","5:00 PM GMT on September 12, 2016","2016","09","12","17","00","UTC","21.0","69.8","14.0","57.2","64","0.0","0.0","-9999.0","-9999.0","0","North","-9999.0","-9999.0","1019","30.09","-999","-999","-9999","-9999","-9999.00","-9999.00","Clear","clear","0","0","0","0","0","0","METAR UKKK 121700Z 00000MPS CAVOK 21/14 Q1019 R08/CLRD70 NOSIG"
"8:30 PM EEST on September 12, 2016","2016","09","12","20","30","Europe/Kiev","5:30 PM GMT on September 12, 2016","2016","09","12","17","30","UTC","19.0","66.2","14.0","57.2","73","0.0","0.0","-9999.0","-9999.0","0","North","9.0","5.6","1019","30.09","-999","-999","-9999","-9999","-9999.00","-9999.00","Clear","clear","0","0","0","0","0","0","METAR UKKK 121730Z 00000MPS 9000 SKC 19/14 Q1019 R08/CLRD70 NOSIG"
"9:00 PM EEST on September 12, 2016","2016","09","12","21","00","Europe/Kiev","6:00 PM GMT on September 12, 2016","2016","09","12","18","00","UTC","22","71","13","56","49","0.0","0.0","","","","","20","12","1019","30.09","-999","-999","-9999","-9999","","","","","0","0","0","0","0","0","AAXX 12181 33345 32998 00000 10216 20133 39994 40188 57003 333 10287 555 10019"
"9:00 PM EEST on September 12, 2016","2016","09","12","21","00","Europe/Kiev","6:00 PM GMT on September 12, 2016","2016","09","12","18","00","UTC","18.0","64.4","14.0","57.2","77","0.0","0.0","-9999.0","-9999.0","0","North","-9999.0","-9999.0","1019","30.09","-999","-999","-9999","-9999","-9999.00","-9999.00","Smoke","hazy","0","0","0","0","0","0","METAR UKKK 121800Z 00000MPS 4700 FU SKC 18/14 Q1019 R08/CLRD70 NOSIG"
"9:30 PM EEST on September 12, 2016","2016","09","12","21","30","Europe/Kiev","6:30 PM GMT on September 12, 2016","2016","09","12","18","30","UTC","17.0","62.6","14.0","57.2","82","0.0","0.0","-9999.0","-9999.0","0","North","6.0","3.7","1019","30.09","-999","-999","-9999","-9999","-9999.00","-9999.00","Clear","clear","0","0","0","0","0","0","METAR UKKK 121830Z 00000MPS 6000 SKC 17/14 Q1019 R08/CLRD70 NOSIG"
"10:00 PM EEST on September 12, 2016","2016","09","12","22","00","Europe/Kiev","7:00 PM GMT on September 12, 2016","2016","09","12","19","00","UTC","17.0","62.6","13.0","55.4","77","0.0","0.0","-9999.0","-9999.0","0","North","8.0","5.0","1019","30.09","-999","-999","-9999","-9999","-9999.00","-9999.00","Clear","clear","0","0","0","0","0","0","METAR UKKK 121900Z 00000MPS 8000 SKC 17/13 Q1019 R08/CLRD70 NOSIG"
"10:30 PM EEST on September 12, 2016","2016","09","12","22","30","Europe/Kiev","7:30 PM GMT on September 12, 2016","2016","09","12","19","30","UTC","16.0","60.8","13.0","55.4","82","0.0","0.0","-9999.0","-9999.0","0","North","8.0","5.0","1019","30.09","-999","-999","-9999","-9999","-9999.00","-9999.00","Clear","clear","0","0","0","0","0","0","METAR UKKK 121930Z 00000MPS 8000 SKC 16/13 Q1019 R08/CLRD70 NOSIG"
"11:00 PM EEST on September 12, 2016","2016","09","12","23","00","Europe/Kiev","8:00 PM GMT on September 12, 2016","2016","09","12","20","00","UTC","16.0","60.8","14.0","57.2","88","0.0","0.0","-9999.0","-9999.0","0","North","6.0","3.7","1019","30.09","-999","-999","-9999","-9999","-9999.00","-9999.00","Clear","clear","0","0","0","0","0","0","METAR UKKK 122000Z 00000MPS 6000 SKC 16/14 Q1019 R08/CLRD70 NOSIG"
"11:30 PM EEST on September 12, 2016","2016","09","12","23","30","Europe/Kiev","8:30 PM GMT on September 12, 2016","2016","09","12","20","30","UTC","16.0","60.8","14.0","57.2","88","0.0","0.0","-9999.0","-9999.0","0","North","7.0","4.3","1019","30.09","-999","-999","-9999","-9999","-9999.00","-9999.00","Clear","clear","0","0","0","0","0","0","METAR UKKK 122030Z 00000MPS 7000 SKC 16/14 Q1019 R08/CLRD70 NOSIG"
"12:00 AM EEST on September 13, 2016","2016","09","13","00","00","Europe/Kiev","9:00 PM GMT on September 12, 2016","2016","09","12","21","00","UTC","20","67","13","56","59","0.0","0.0","","","","","20","12","1019","30.09","-999","-999","-9999","-9999","","","","","0","0","0","0","0","0","AAXX 12211 33345 42998 00000 10196 20133 39991 40187 57003 555 10016"
"12:00 AM EEST on September 13, 2016","2016","09","13","00","00","Europe/Kiev","9:00 PM GMT on September 12, 2016","2016","09","12","21","00","UTC","15.0","59.0","14.0","57.2","94","0.0","0.0","-9999.0","-9999.0","0","North","5.0","3.1","1019","30.09","-999","-999","-9999","-9999","-9999.00","-9999.00","Smoke","hazy","0","0","0","0","0","0","METAR UKKK 122100Z 00000MPS 5000 FU SKC 15/14 Q1019 R08/CLRD70 NOSIG"
"12:30 AM EEST on September 13, 2016","2016","09","13","00","30","Europe/Kiev","9:30 PM GMT on September 12, 2016","2016","09","12","21","30","UTC","15.0","59.0","14.0","57.2","94","0.0","0.0","-9999.0","-9999.0","0","North","6.0","3.7","1019","30.09","-999","-999","-9999","-9999","-9999.00","-9999.00","Clear","clear","0","0","0","0","0","0","METAR UKKK 122130Z 00000MPS 6000 SKC 15/14 Q1019 R08/CLRD70 NOSIG"
"1:00 AM EEST on September 13, 2016","2016","09","13","01","00","Europe/Kiev","10:00 PM GMT on September 12, 2016","2016","09","12","22","00","UTC","15.0","59.0","14.0","57.2","94","3.6","2.2","-9999.0","-9999.0","240","WSW","6.0","3.7","1019","30.09","-999","-999","-9999","-9999","-9999.00","-9999.00","Clear","clear","0","0","0","0","0","0","METAR UKKK 122200Z 24001MPS 6000 SKC 15/14 Q1019 R08/CLRD70 NOSIG"
"1:30 AM EEST on September 13, 2016","2016","09","13","01","30","Europe/Kiev","10:30 PM GMT on September 12, 2016","2016","09","12","22","30","UTC","14.0","57.2","13.0","55.4","94","3.6","2.2","-9999.0","-9999.0","220","SW","6.0","3.7","1019","30.09","-999","-999","-9999","-9999","-9999.00","-9999.00","Clear","clear","0","0","0","0","0","0","METAR UKKK 122230Z 22001MPS 6000 SKC 14/13 Q1019 R08/CLRD70 NOSIG"
"2:00 AM EEST on September 13, 2016","2016","09","13","02","00","Europe/Kiev","11:00 PM GMT on September 12, 2016","2016","09","12","23","00","UTC","14.0","57.2","13.0","55.4","94","0.0","0.0","-9999.0","-9999.0","0","North","6.0","3.7","1018","30.06","-999","-999","-9999","-9999","-9999.00","-9999.00","Clear","clear","0","0","0","0","0","0","METAR UKKK 122300Z 00000MPS 6000 SKC 14/13 Q1018 R08/CLRD70 NOSIG"
"2:30 AM EEST on September 13, 2016","2016","09","13","02","30","Europe/Kiev","11:30 PM GMT on September 12, 2016","2016","09","12","23","30","UTC","13.0","55.4","12.0","53.6","94","3.6","2.2","-9999.0","-9999.0","220","SW","-9999.0","-9999.0","1018","30.06","-999","-999","-9999","-9999","-9999.00","-9999.00","Smoke","hazy","0","0","0","0","0","0","METAR UKKK 122330Z 22001MPS 4900 FU SKC 13/12 Q1018 R08/CLRD70 NOSIG"
"3:00 AM EEST on September 13, 2016","2016","09","13","03","00","Europe/Kiev","12:00 AM GMT on September 13, 2016","2016","09","13","00","00","UTC","19","66","13","55","60","7.2","4.5","","","320","NW","20","12","1018","30.07","-999","-999","-9999","-9999","","","","","0","0","0","0","0","0","AAXX 13001 33345 32998 03202 10189 20129 39986 40182 57005 555 10014"
"3:00 AM EEST on September 13, 2016","2016","09","13","03","00","Europe/Kiev","12:00 AM GMT on September 13, 2016","2016","09","13","00","00","UTC","13.0","55.4","12.0","53.6","94","3.6","2.2","-9999.0","-9999.0","240","WSW","4.5","2.8","1018","30.06","-999","-999","-9999","-9999","-9999.00","-9999.00","Smoke","hazy","0","0","0","0","0","0","METAR UKKK 130000Z 24001MPS 4500 FU SKC 13/12 Q1018 R08/CLRD70 NOSIG"
"3:30 AM EEST on September 13, 2016","2016","09","13","03","30","Europe/Kiev","12:30 AM GMT on September 13, 2016","2016","09","13","00","30","UTC","14.0","57.2","13.0","55.4","94","7.2","4.5","-9999.0","-9999.0","240","WSW","2.2","1.4","1018","30.06","-999","-999","-9999","-9999","-9999.00","-9999.00","Smoke","hazy","0","0","0","0","0","0","METAR UKKK 130030Z 24002MPS 2200 FU SKC 14/13 Q1018 R08/CLRD70 NOSIG"
"4:00 AM EEST on September 13, 2016","2016","09","13","04","00","Europe/Kiev","1:00 AM GMT on September 13, 2016","2016","09","13","01","00","UTC","14.0","57.2","13.0","55.4","94","3.6","2.2","-9999.0","-9999.0","240","WSW","-9999.0","-9999.0","1018","30.06","-999","-999","-9999","-9999","-9999.00","-9999.00","Smoke","hazy","0","0","0","0","0","0","METAR UKKK 130100Z 24001MPS 4300 FU SKC 14/13 Q1018 R08/CLRD70 NOSIG"
"4:30 AM EEST on September 13, 2016","2016","09","13","04","30","Europe/Kiev","1:30 AM GMT on September 13, 2016","2016","09","13","01","30","UTC","13.0","55.4","13.0","55.4","100","3.6","2.2","-9999.0","-9999.0","230","SW","3.5","2.2","1018","30.06","-999","-999","-9999","-9999","-9999.00","-9999.00","Smoke","hazy","0","0","0","0","0","0","METAR UKKK 130130Z 23001MPS 3500 FU SKC 13/13 Q1018 R08/CLRD70 NOSIG"
"5:00 AM EEST on September 13, 2016","2016","09","13","05","00","Europe/Kiev","2:00 AM GMT on September 13, 2016","2016","09","13","02","00","UTC","13.0","55.4","12.0","53.6","94","3.6","2.2","-9999.0","-9999.0","240","WSW","-9999.0","-9999.0","1018","30.06","-999","-999","-9999","-9999","-9999.00","-9999.00","Smoke","hazy","0","0","0","0","0","0","METAR UKKK 130200Z 24001MPS 4700 FU SKC 13/12 Q1018 R08/CLRD70 NOSIG"
"5:30 AM EEST on September 13, 2016","2016","09","13","05","30","Europe/Kiev","2:30 AM GMT on September 13, 2016","2016","09","13","02","30","UTC","14.0","57.2","13.0","55.4","94","7.2","4.5","-9999.0","-9999.0","250","WSW","5.0","3.1","1018","30.06","-999","-999","-9999","-9999","-9999.00","-9999.00","Smoke","hazy","0","0","0","0","0","0","METAR UKKK 130230Z 25002MPS 5000 FU SKC 14/13 Q1018 R08/CLRD70 NOSIG"
"6:00 AM EEST on September 13, 2016","2016","09","13","06","00","Europe/Kiev","3:00 AM GMT on September 13, 2016","2016","09","13","03","00","UTC","18","64","13","55","64","7.2","4.5","","","320","NW","20","12","1017","30.05","-999","-999","-9999","-9999","","","","","0","0","0","0","0","0","AAXX 13031 33345 42998 03202 10176 20126 39977 40174 57009 555 10014"
"6:00 AM EEST on September 13, 2016","2016","09","13","06","00","Europe/Kiev","3:00 AM GMT on September 13, 2016","2016","09","13","03","00","UTC","14.0","57.2","12.0","53.6","88","3.6","2.2","-9999.0","-9999.0","250","WSW","5.0","3.1","1017","30.04","-999","-999","-9999","-9999","-9999.00","-9999.00","Smoke","hazy","0","0","0","0","0","0","METAR UKKK 130300Z 25001MPS 5000 FU SKC 14/12 Q1017 R08/CLRD70 NOSIG"
"6:30 AM EEST on September 13, 2016","2016","09","13","06","30","Europe/Kiev","3:30 AM GMT on September 13, 2016","2016","09","13","03","30","UTC","13.0","55.4","12.0","53.6","94","7.2","4.5","-9999.0","-9999.0","250","WSW","6.0","3.7","1017","30.04","-999","-999","-9999","-9999","-9999.00","-9999.00","Clear","clear","0","0","0","0","0","0","METAR UKKK 130330Z 25002MPS 6000 SKC 13/12 Q1017 R08/CLRD70 NOSIG"
"7:00 AM EEST on September 13, 2016","2016","09","13","07","00","Europe/Kiev","4:00 AM GMT on September 13, 2016","2016","09","13","04","00","UTC","14.0","57.2","12.0","53.6","88","7.2","4.5","-9999.0","-9999.0","260","West","6.0","3.7","1017","30.04","-999","-999","-9999","-9999","-9999.00","-9999.00","Clear","clear","0","0","0","0","0","0","METAR UKKK 130400Z 26002MPS 6000 SKC 14/12 Q1017 R26/CLRD70 NOSIG"
"7:30 AM EEST on September 13, 2016","2016","09","13","07","30","Europe/Kiev","4:30 AM GMT on September 13, 2016","2016","09","13","04","30","UTC","14.0","57.2","13.0","55.4","94","7.2","4.5","-9999.0","-9999.0","260","West","7.0","4.3","1017","30.04","-999","-999","-9999","-9999","-9999.00","-9999.00","Clear","clear","0","0","0","0","0","0","METAR UKKK 130430Z 26002MPS 7000 SKC 14/13 Q1017 R26/CLRD70 NOSIG"
"8:00 AM EEST on September 13, 2016","2016","09","13","08","00","Europe/Kiev","5:00 AM GMT on September 13, 2016","2016","09","13","05","00","UTC","16.0","60.8","14.0","57.2","88","7.2","4.5","-9999.0","-9999.0","260","West","7.0","4.3","1017","30.04","-999","-999","-9999","-9999","-9999.00","-9999.00","Clear","clear","0","0","0","0","0","0","METAR UKKK 130500Z 26002MPS 7000 SKC 16/14 Q1017 R26/CLRD70 NOSIG"
"8:30 AM EEST on September 13, 2016","2016","09","13","08","30","Europe/Kiev","5:30 AM GMT on September 13, 2016","2016","09","13","05","30","UTC","18.0","64.4","14.0","57.2","77","7.2","4.5","-9999.0","-9999.0","270","West","8.0","5.0","1017","30.04","-999","-999","-9999","-9999","-9999.00","-9999.00","Clear","clear","0","0","0","0","0","0","METAR UKKK 130530Z 27002MPS 8000 SKC 18/14 Q1017 R26/CLRD70 NOSIG"
"9:00 AM EEST on September 13, 2016","2016","09","13","09","00","Europe/Kiev","6:00 AM GMT on September 13, 2016","2016","09","13","06","00","UTC","21","69","14","57","57","3.6","2.2","","","330","NNW","20","12","1017","30.03","-999","-999","-9999","-9999","","","","","0","0","0","0","0","0","AAXX 13061 33345 32998 03301 10208 20139 39974 40168 57003 333 20171 555 10023"
"9:30 AM EEST on September 13, 2016","2016","09","13","09","30","Europe/Kiev","6:30 AM GMT on September 13, 2016","2016","09","13","06","30","UTC","21.0","69.8","15.0","59.0","68","10.8","6.7","-9999.0","-9999.0","270","West","9.0","5.6","1017","30.04","-999","-999","-9999","-9999","-9999.00","-9999.00","Clear","clear","0","0","0","0","0","0","METAR UKKK 130630Z 27003MPS 9000 SKC 21/15 Q1017 R26/CLRD70 NOSIG"
"10:00 AM EEST on September 13, 2016","2016","09","13","10","00","Europe/Kiev","7:00 AM GMT on September 13, 2016","2016","09","13","07","00","UTC","23.0","73.4","15.0","59.0","61","10.8","6.7","-9999.0","-9999.0","310","NW","9.0","5.6","1017","30.04","-999","-999","-9999","-9999","-9999.00","-9999.00","Clear","clear","0","0","0","0","0","0","METAR UKKK 130700Z 31003MPS 9000 SKC 23/15 Q1017 R26/CLRD70 NOSIG"
"10:30 AM EEST on September 13, 2016","2016","09","13","10","30","Europe/Kiev","7:30 AM GMT on September 13, 2016","2016","09","13","07","30","UTC","24.0","75.2","14.0","57.2","53","14.4","8.9","-9999.0","-9999.0","310","NW","-9999.0","-9999.0","1017","30.04","-999","-999","-9999","-9999","-9999.00","-9999.00","Clear","clear","0","0","0","0","0","0","METAR UKKK 130730Z 31004MPS 290V350 CAVOK 24/14 Q1017 R26/CLRD70 NOSIG"
"11:00 AM EEST on September 13, 2016","2016","09","13","11","00","Europe/Kiev","8:00 AM GMT on September 13, 2016","2016","09","13","08","00","UTC","25.0","77.0","14.0","57.2","50","14.4","8.9","-9999.0","-9999.0","300","WNW","-9999.0","-9999.0","1017","30.04","-999","-999","-9999","-9999","-9999.00","-9999.00","Clear","clear","0","0","0","0","0","0","METAR UKKK 130800Z 30004MPS 270V330 CAVOK 25/14 Q1017 R26/CLRD70 NOSIG"
"11:30 AM EEST on September 13, 2016","2016","09","13","11","30","Europe/Kiev","8:30 AM GMT on September 13, 2016","2016","09","13","08","30","UTC","25.0","77.0","15.0","59.0","54","21.6","13.4","-9999.0","-9999.0","320","NW","-9999.0","-9999.0","1017","30.04","-999","-999","-9999","-9999","-9999.00","-9999.00","Clear","clear","0","0","0","0","0","0","METAR UKKK 130830Z 32006MPS CAVOK 25/15 Q1017 R26/CLRD70 NOSIG"
"12:00 PM EEST on September 13, 2016","2016","09","13","12","00","Europe/Kiev","9:00 AM GMT on September 13, 2016","2016","09","13","09","00","UTC","26","79","14","57","36","10.8","6.7","","","350","North","20","12","1016","30.00","-999","-999","-9999","-9999","","","","","0","0","0","0","0","0","AAXX 13091 33345 42998 03503 10259 20138 39968 40159 57006 555 10039"
"12:00 PM EEST on September 13, 2016","2016","09","13","12","00","Europe/Kiev","9:00 AM GMT on September 13, 2016","2016","09","13","09","00","UTC","26.0","78.8","15.0","59.0","51","18.0","11.2","-9999.0","-9999.0","330","NNW","-9999.0","-9999.0","1016","30.01","-999","-999","-9999","-9999","-9999.00","-9999.00","Clear","clear","0","0","0","0","0","0","METAR UKKK 130900Z 33005MPS 300V010 CAVOK 26/15 Q1016 R26/CLRD70 NOSIG"
"12:30 PM EEST on September 13, 2016","2016","09","13","12","30","Europe/Kiev","9:30 AM GMT on September 13, 2016","2016","09","13","09","30","UTC","26.0","78.8","14.0","57.2","47","21.6","13.4","-9999.0","-9999.0","320","NW","-9999.0","-9999.0","1016","30.01","-999","-999","-9999","-9999","-9999.00","-9999.00","Clear","clear","0","0","0","0","0","0","METAR UKKK 130930Z 32006MPS 290V360 CAVOK 26/14 Q1016 R26/CLRD70 NOSIG"
"1:00 PM EEST on September 13, 2016","2016","09","13","13","00","Europe/Kiev","10:00 AM GMT on September 13, 2016","2016","09","13","10","00","UTC","27.0","80.6","14.0","57.2","45","25.2","15.7","-9999.0","-9999.0","310","NW","10.0","6.2","1016","30.01","-999","-999","27.1","80.8","-9999.00","-9999.00","Partly Cloudy","partlycloudy","0","0","0","0","0","0","METAR UKKK 131000Z 31007MPS 280V340 9999 FEW046 27/14 Q1016 R26/CLRD70 NOSIG"
"1:30 PM EEST on September 13, 2016","2016","09","13","13","30","Europe/Kiev","10:30 AM GMT on September 13, 2016","2016","09","13","10","30","UTC","27.0","80.6","13.0","55.4","42","21.6","13.4","-9999.0","-9999.0","330","NNW","10.0","6.2","1016","30.01","-999","-999","27.0","80.5","-9999.00","-9999.00","Partly Cloudy","partlycloudy","0","0","0","0","0","0","METAR UKKK 131030Z 33006MPS 9999 FEW046 27/13 Q1016 R26/CLRD70 NOSIG"
"2:00 PM EEST on September 13, 2016","2016","09","13","14","00","Europe/Kiev","11:00 AM GMT on September 13, 2016","2016","09","13","11","00","UTC","27.0","80.6","12.0","53.6","39","18.0","11.2","-9999.0","-9999.0","330","NNW","-9999.0","-9999.0","1015","29.98","-999","-999","26.8","80.3","-9999.00","-9999.00","Clear","clear","0","0","0","0","0","0","METAR UKKK 131100Z 33005MPS 290V010 CAVOK 27/12 Q1015 R26/CLRD70 NOSIG"
"2:30 PM EEST on September 13, 2016","2016","09","13","14","30","Europe/Kiev","11:30 AM GMT on September 13, 2016","2016","09","13","11","30","UTC","28.0","82.4","13.0","55.4","39","25.2","15.7","-9999.0","-9999.0","320","NW","-9999.0","-9999.0","1015","29.98","-999","-999","27.6","81.7","-9999.00","-9999.00","Clear","clear","0","0","0","0","0","0","METAR UKKK 131130Z 32007MPS 290V350 CAVOK 28/13 Q1015 R26/CLRD70 NOSIG"
"3:00 PM EEST on September 13, 2016","2016","09","13","15","00","Europe/Kiev","12:00 PM GMT on September 13, 2016","2016","09","13","12","00","UTC","28","82","12","54","28","14.4","8.9","","","40","NE","20","12","1014","29.94","-999","-999","-9999","-9999","","","Scattered Clouds","partlycloudy","0","0","0","0","0","0","AAXX 13121 33345 32698 20404 10280 20125 39950 40139 57018 82100 555 10043"
"3:00 PM EEST on September 13, 2016","2016","09","13","15","00","Europe/Kiev","12:00 PM GMT on September 13, 2016","2016","09","13","12","00","UTC","28.0","82.4","12.0","53.6","37","25.2","15.7","-9999.0","-9999.0","320","NW","-9999.0","-9999.0","1015","29.98","-999","-999","27.5","81.4","-9999.00","-9999.00","Clear","clear","0","0","0","0","0","0","METAR UKKK 131200Z 32007MPS 300V010 CAVOK 28/12 Q1015 R26/CLRD70 NOSIG"
"3:30 PM EEST on September 13, 2016","2016","09","13","15","30","Europe/Kiev","12:30 PM GMT on September 13, 2016","2016","09","13","12","30","UTC","28.0","82.4","12.0","53.6","37","25.2","15.7","-9999.0","-9999.0","340","NNW","-9999.0","-9999.0","1014","29.95","-999","-999","27.5","81.4","-9999.00","-9999.00","Clear","clear","0","0","0","0","0","0","METAR UKKK 131230Z 34007MPS 310V010 CAVOK 28/12 Q1014 R26/CLRD70 NOSIG"
"4:00 PM EEST on September 13, 2016","2016","09","13","16","00","Europe/Kiev","1:00 PM GMT on September 13, 2016","2016","09","13","13","00","UTC","28.0","82.4","11.0","51.8","35","14.4","8.9","-9999.0","-9999.0","10","North","-9999.0","-9999.0","1014","29.95","-999","-999","-9999","-9999","-9999.00","-9999.00","Clear","clear","0","0","0","0","0","0","METAR UKKK 131300Z 01004MPS 320V060 CAVOK 28/11 Q1014 R26/CLRD70 NOSIG"
"4:10 PM EEST on September 13, 2016","2016","09","13","16","10","Europe/Kiev","1:10 PM GMT on September 13, 2016","2016","09","13","13","10","UTC","27.0","80.6","13.0","55.4","42","25.2","15.7","46.8","29.1","10","North","-9999.0","-9999.0","1014","29.95","-999","-999","27.0","80.5","-9999.00","-9999.00","Clear","clear","0","0","0","0","0","0","SPECI UKKK 131310Z 01007G13MPS 320V050 CAVOK 27/13 Q1014 R08/CLRD70 NOSIG"
"4:30 PM EEST on September 13, 2016","2016","09","13","16","30","Europe/Kiev","1:30 PM GMT on September 13, 2016","2016","09","13","13","30","UTC","27.0","80.6","9.0","48.2","32","21.6","13.4","43.2","26.8","350","North","-9999.0","-9999.0","1014","29.95","-999","-999","-9999","-9999","-9999.00","-9999.00","Clear","clear","0","0","0","0","0","0","METAR UKKK 131330Z 35006G12MPS 310V030 CAVOK 27/09 Q1014 R08/CLRD70 NOSIG"
"5:00 PM EEST on September 13, 2016","2016","09","13","17","00","Europe/Kiev","2:00 PM GMT on September 13, 2016","2016","09","13","14","00","UTC","27.0","80.6","10.0","50.0","34","14.4","8.9","-9999.0","-9999.0","10","North","-9999.0","-9999.0","1014","29.95","-999","-999","-9999","-9999","-9999.00","-9999.00","Clear","clear","0","0","0","0","0","0","METAR UKKK 131400Z 01004MPS 320V040 CAVOK 27/10 Q1014 R26/CLRD70 NOSIG"
"5:30 PM EEST on September 13, 2016","2016","09","13","17","30","Europe/Kiev","2:30 PM GMT on September 13, 2016","2016","09","13","14","30","UTC","25.0","77.0","9.0","48.2","36","25.2","15.7","-9999.0","-9999.0","20","NNE","-9999.0","-9999.0","1014","29.95","-999","-999","-9999","-9999","-9999.00","-9999.00","Clear","clear","0","0","0","0","0","0","METAR UKKK 131430Z 02007MPS CAVOK 25/09 Q1014 R08/CLRD70 NOSIG"
"6:00 PM EEST on September 13, 2016","2016","09","13","18","00","Europe/Kiev","3:00 PM GMT on September 13, 2016","2016","09","13","15","00","UTC","24.0","75.2","8.0","46.4","36","18.0","11.2","-9999.0","-9999.0","10","North","-9999.0","-9999.0","1014","29.95","-999","-999","-9999","-9999","-9999.00","-9999.00","Clear","clear","0","0","0","0","0","0","METAR UKKK 131500Z 01005MPS CAVOK 24/08 Q1014 R08/CLRD70 NOSIG"
"6:30 PM EEST on September 13, 2016","2016","09","13","18","30","Europe/Kiev","3:30 PM GMT on September 13, 2016","2016","09","13","15","30","UTC","23.0","73.4","9.0","48.2","41","18.0","11.2","-9999.0","-9999.0","10","North","9.0","5.6","1014","29.95","-999","-999","-9999","-9999","-9999.00","-9999.00","Unknown","unknown","0","0","0","0","0","0","METAR UKKK 131530Z 01005MPS 9000 NSC 23/09 Q1014 R08/CLRD70 NOSIG"
"7:00 PM EEST on September 13, 2016","2016","09","13","19","00","Europe/Kiev","4:00 PM GMT on September 13, 2016","2016","09","13","16","00","UTC","22.0","71.6","9.0","48.2","43","14.4","8.9","-9999.0","-9999.0","10","North","-9999.0","-9999.0","1014","29.95","-999","-999","-9999","-9999","-9999.00","-9999.00","Clear","clear","0","0","0","0","0","0","METAR UKKK 131600Z 01004MPS CAVOK 22/09 Q1014 R08/CLRD70 NOSIG"
"7:30 PM EEST on September 13, 2016","2016","09","13","19","30","Europe/Kiev","4:30 PM GMT on September 13, 2016","2016","09","13","16","30","UTC","21.0","69.8","9.0","48.2","46","18.0","11.2","-9999.0","-9999.0","10","North","-9999.0","-9999.0","1014","29.95","-999","-999","-9999","-9999","-9999.00","-9999.00","Clear","clear","0","0","0","0","0","0","METAR UKKK 131630Z 01005MPS CAVOK 21/09 Q1014 R08/CLRD70 NOSIG"
"8:00 PM EEST on September 13, 2016","2016","09","13","20","00","Europe/Kiev","5:00 PM GMT on September 13, 2016","2016","09","13","17","00","UTC","21.0","69.8","9.0","48.2","46","18.0","11.2","-9999.0","-9999.0","20","NNE","-9999.0","-9999.0","1014","29.95","-999","-999","-9999","-9999","-9999.00","-9999.00","Clear","clear","0","0","0","0","0","0","METAR UKKK 131700Z 02005MPS CAVOK 21/09 Q1014 R08/CLRD70 NOSIG"
"8:30 PM EEST on September 13, 2016","2016","09","13","20","30","Europe/Kiev","5:30 PM GMT on September 13, 2016","2016","09","13","17","30","UTC","20.0","68.0","10.0","50.0","52","18.0","11.2","-9999.0","-9999.0","20","NNE","-9999.0","-9999.0","1015","29.98","-999","-999","-9999","-9999","-9999.00","-9999.00","Clear","clear","0","0","0","0","0","0","METAR UKKK 131730Z 02005MPS CAVOK 20/10 Q1015 R08/CLRD70 NOSIG"
"9:00 PM EEST on September 13, 2016","2016","09","13","21","00","Europe/Kiev","6:00 PM GMT on September 13, 2016","2016","09","13","18","00","UTC","21","69","10","49","38","14.4","8.9","","","40","NE","20","12","1014","29.96","-999","-999","-9999","-9999","","","","","0","0","0","0","0","0","AAXX 13181 33345 32998 00404 10207 20095 39950 40144 53007 333 10281 555 10018"
"9:00 PM EEST on September 13, 2016","2016","09","13","21","00","Europe/Kiev","6:00 PM GMT on September 13, 2016","2016","09","13","18","00","UTC","19.0","66.2","11.0","51.8","60","14.4","8.9","-9999.0","-9999.0","20","NNE","-9999.0","-9999.0","1015","29.98","-999","-999","-9999","-9999","-9999.00","-9999.00","Clear","clear","0","0","0","0","0","0","METAR UKKK 131800Z 02004MPS CAVOK 19/11 Q1015 R08/CLRD70 NOSIG"
"9:30 PM EEST on September 13, 2016","2016","09","13","21","30","Europe/Kiev","6:30 PM GMT on September 13, 2016","2016","09","13","18","30","UTC","19.0","66.2","11.0","51.8","60","14.4","8.9","-9999.0","-9999.0","20","NNE","-9999.0","-9999.0","1015","29.98","-999","-999","-9999","-9999","-9999.00","-9999.00","Clear","clear","0","0","0","0","0","0","METAR UKKK 131830Z 02004MPS CAVOK 19/11 Q1015 R08/CLRD70 NOSIG"
"10:00 PM EEST on September 13, 2016","2016","09","13","22","00","Europe/Kiev","7:00 PM GMT on September 13, 2016","2016","09","13","19","00","UTC","18.0","64.4","10.0","50.0","59","14.4","8.9","-9999.0","-9999.0","20","NNE","-9999.0","-9999.0","1015","29.98","-999","-999","-9999","-9999","-9999.00","-9999.00","Clear","clear","0","0","0","0","0","0","METAR UKKK 131900Z 02004MPS CAVOK 18/10 Q1015 R08/CLRD70 NOSIG"
"10:30 PM EEST on September 13, 2016","2016","09","13","22","30","Europe/Kiev","7:30 PM GMT on September 13, 2016","2016","09","13","19","30","UTC","18.0","64.4","10.0","50.0","59","14.4","8.9","-9999.0","-9999.0","20","NNE","-9999.0","-9999.0","1015","29.98","-999","-999","-9999","-9999","-9999.00","-9999.00","Clear","clear","0","0","0","0","0","0","METAR UKKK 131930Z 02004MPS CAVOK 18/10 Q1015 R08/CLRD70 NOSIG"
"11:00 PM EEST on September 13, 2016","2016","09","13","23","00","Europe/Kiev","8:00 PM GMT on September 13, 2016","2016","09","13","20","00","UTC","17.0","62.6","10.0","50.0","63","10.8","6.7","-9999.0","-9999.0","20","NNE","-9999.0","-9999.0","1015","29.98","-999","-999","-9999","-9999","-9999.00","-9999.00","Clear","clear","0","0","0","0","0","0","METAR UKKK 132000Z 02003MPS CAVOK 17/10 Q1015 R08/CLRD70 NOSIG"
"11:30 PM EEST on September 13, 2016","2016","09","13","23","30","Europe/Kiev","8:30 PM GMT on September 13, 2016","2016","09","13","20","30","UTC","17.0","62.6","10.0","50.0","63","10.8","6.7","-9999.0","-9999.0","20","NNE","-9999.0","-9999.0","1015","29.98","-999","-999","-9999","-9999","-9999.00","-9999.00","Clear","clear","0","0","0","0","0","0","METAR UKKK 132030Z 02003MPS CAVOK 17/10 Q1015 R08/CLRD70 NOSIG"
"12:00 AM EEST on September 14, 2016","2016","09","14","00","00","Europe/Kiev","9:00 PM GMT on September 13, 2016","2016","09","13","21","00","UTC","19","66","9","48","41","14.4","8.9","","","30","NNE","20","12","1015","29.97","-999","-999","-9999","-9999","","","","","0","0","0","0","0","0","AAXX 13211 33345 42998 00304 10189 20088 39953 40149 52003 555 10015"
"12:00 AM EEST on September 14, 2016","2016","09","14","00","00","Europe/Kiev","9:00 PM GMT on September 13, 2016","2016","09","13","21","00","UTC","15.0","59.0","10.0","50.0","72","3.6","2.2","-9999.0","-9999.0","0","Variable","-9999.0","-9999.0","1015","29.98","-999","-999","-9999","-9999","-9999.00","-9999.00","Clear","clear","0","0","0","0","0","0","METAR UKKK 132100Z VRB01MPS CAVOK 15/10 Q1015 R08/CLRD70 NOSIG"
"12:30 AM EEST on September 14, 2016","2016","09","14","00","30","Europe/Kiev","9:30 PM GMT on September 13, 2016","2016","09","13","21","30","UTC","17.0","62.6","10.0","50.0","63","18.0","11.2","-9999.0","-9999.0","20","NNE","-9999.0","-9999.0","1015","29.98","-999","-999","-9999","-9999","-9999.00","-9999.00","Clear","clear","0","0","0","0","0","0","METAR UKKK 132130Z 02005MPS CAVOK 17/10 Q1015 R08/CLRD70 NOSIG"
"1:00 AM EEST on September 14, 2016","2016","09","14","01","00","Europe/Kiev","10:00 PM GMT on September 13, 2016","2016","09","13","22","00","UTC","17.0","62.6","9.0","48.2","59","14.4","8.9","-9999.0","-9999.0","30","NNE","-9999.0","-9999.0","1015","29.98","-999","-999","-9999","-9999","-9999.00","-9999.00","Clear","clear","0","0","0","0","0","0","METAR UKKK 132200Z 03004MPS CAVOK 17/09 Q1015 R08/CLRD70 NOSIG"
"1:30 AM EEST on September 14, 2016","2016","09","14","01","30","Europe/Kiev","10:30 PM GMT on September 13, 2016","2016","09","13","22","30","UTC","16.0","60.8","8.0","46.4","59","10.8","6.7","-9999.0","-9999.0","30","NNE","-9999.0","-9999.0","1015","29.98","-999","-999","-9999","-9999","-9999.00","-9999.00","Clear","clear","0","0","0","0","0","0","METAR UKKK 132230Z 03003MPS CAVOK 16/08 Q1015 R08/CLRD70 NOSIG"
"2:00 AM EEST on September 14, 2016","2016","09","14","02","00","Europe/Kiev","11:00 PM GMT on September 13, 2016","2016","09","13","23","00","UTC","15.0","59.0","8.0","46.4","63","10.8","6.7","-9999.0","-9999.0","40","NE","-9999.0","-9999.0","1015","29.98","-999","-999","-9999","-9999","-9999.00","-9999.00","Clear","clear","0","0","0","0","0","0","METAR UKKK 132300Z 04003MPS CAVOK 15/08 Q1015 R08/CLRD70 NOSIG"
"2:30 AM EEST on September 14, 2016","2016","09","14","02","30","Europe/Kiev","11:30 PM GMT on September 13, 2016","2016","09","13","23","30","UTC","15.0","59.0","8.0","46.4","63","14.4","8.9","-9999.0","-9999.0","40","NE","-9999.0","-9999.0","1015","29.98","-999","-999","-9999","-9999","-9999.00","-9999.00","Clear","clear","0","0","0","0","0","0","METAR UKKK 132330Z 04004MPS CAVOK 15/08 Q1015 R08/CLRD70 NOSIG"
"3:00 AM EEST on September 14, 2016","2016","09","14","03","00","Europe/Kiev","12:00 AM GMT on September 14, 2016","2016","09","14","00","00","UTC","15","60","9","47","53","3.6","2.2","","","50","NE","20","12","1015","29.97","-999","-999","-9999","-9999","","","","","0","0","0","0","0","0","AAXX 14001 33345 32998 00501 10153 20086 39951 40149 58002 555 10012"
"3:00 AM EEST on September 14, 2016","2016","09","14","03","00","Europe/Kiev","12:00 AM GMT on September 14, 2016","2016","09","14","00","00","UTC","14.0","57.2","8.0","46.4","67","10.8","6.7","-9999.0","-9999.0","30","NNE","-9999.0","-9999.0","1015","29.98","-999","-999","-9999","-9999","-9999.00","-9999.00","Clear","clear","0","0","0","0","0","0","METAR UKKK 140000Z 03003MPS CAVOK 14/08 Q1015 R08/CLRD70 NOSIG"
"3:30 AM EEST on September 14, 2016","2016","09","14","03","30","Europe/Kiev","12:30 AM GMT on September 14, 2016","2016","09","14","00","30","UTC","13.0","55.4","8.0","46.4","72","3.6","2.2","-9999.0","-9999.0","0","Variable","-9999.0","-9999.0","1015","29.98","-999","-999","-9999","-9999","-9999.00","-9999.00","Clear","clear","0","0","0","0","0","0","METAR UKKK 140030Z VRB01MPS CAVOK 13/08 Q1015 R08/CLRD70 NOSIG"
"4:00 AM EEST on September 14, 2016","2016","09","14","04","00","Europe/Kiev","1:00 AM GMT on September 14, 2016","2016","09","14","01","00","UTC","12.0","53.6","8.0","46.4","77","0.0","0.0","-9999.0","-9999.0","0","North","-9999.0","-9999.0","1015","29.98","-999","-999","-9999","-9999","-9999.00","-9999.00","Clear","clear","0","0","0","0","0","0","METAR UKKK 140100Z 00000MPS CAVOK 12/08 Q1015 R08/CLRD70 NOSIG"
"4:30 AM EEST on September 14, 2016","2016","09","14","04","30","Europe/Kiev","1:30 AM GMT on September 14, 2016","2016","09","14","01","30","UTC","10.0","50.0","8.0","46.4","87","3.6","2.2","-9999.0","-9999.0","250","WSW","-9999.0","-9999.0","1014","29.95","-999","-999","-9999","-9999","-9999.00","-9999.00","Clear","clear","0","0","0","0","0","0","METAR UKKK 140130Z 25001MPS CAVOK 10/08 Q1014 R08/CLRD70 NOSIG"
"5:00 AM EEST on September 14, 2016","2016","09","14","05","00","Europe/Kiev","2:00 AM GMT on September 14, 2016","2016","09","14","02","00","UTC","10.0","50.0","8.0","46.4","87","7.2","4.5","-9999.0","-9999.0","260","West","-9999.0","-9999.0","1014","29.95","-999","-999","-9999","-9999","-9999.00","-9999.00","Clear","clear","0","0","0","0","0","0","METAR UKKK 140200Z 26002MPS CAVOK 10/08 Q1014 R08/CLRD70 NOSIG"
"5:30 AM EEST on September 14, 2016","2016","09","14","05","30","Europe/Kiev","2:30 AM GMT on September 14, 2016","2016","09","14","02","30","UTC","10.0","50.0","9.0","48.2","94","7.2","4.5","-9999.0","-9999.0","250","WSW","-9999.0","-9999.0","1014","29.95","-999","-999","-9999","-9999","-9999.00","-9999.00","Clear","clear","0","0","0","0","0","0","METAR UKKK 140230Z 25002MPS CAVOK 10/09 Q1014 R08/CLRD70 NOSIG"
"6:00 AM EEST on September 14, 2016","2016","09","14","06","00","Europe/Kiev","3:00 AM GMT on September 14, 2016","2016","09","14","03","00","UTC","14","56","9","48","66","7.2","4.5","","","20","NNE","20","12","1015","29.96","-999","-999","-9999","-9999","","","","","0","0","0","0","0","0","AAXX 14031 33345 42998 00202 10136 20087 39947 40146 57004 555 10010"
"6:00 AM EEST on September 14, 2016","2016","09","14","06","00","Europe/Kiev","3:00 AM GMT on September 14, 2016","2016","09","14","03","00","UTC","10.0","50.0","8.0","46.4","87","7.2","4.5","-9999.0","-9999.0","270","West","9.0","5.6","1014","29.95","-999","-999","-9999","-9999","-9999.00","-9999.00","Unknown","unknown","0","0","0","0","0","0","METAR UKKK 140300Z 27002MPS 9000 NSC 10/08 Q1014 R26/CLRD70 NOSIG"
"6:30 AM EEST on September 14, 2016","2016","09","14","06","30","Europe/Kiev","3:30 AM GMT on September 14, 2016","2016","09","14","03","30","UTC","10.0","50.0","8.0","46.4","87","7.2","4.5","-9999.0","-9999.0","280","West","-9999.0","-9999.0","1014","29.95","-999","-999","-9999","-9999","-9999.00","-9999.00","Clear","clear","0","0","0","0","0","0","METAR UKKK 140330Z 28002MPS CAVOK 10/08 Q1014 R26/CLRD70 NOSIG"
"7:00 AM EEST on September 14, 2016","2016","09","14","07","00","Europe/Kiev","4:00 AM GMT on September 14, 2016","2016","09","14","04","00","UTC","11.0","51.8","9.0","48.2","88","7.2","4.5","-9999.0","-9999.0","280","West","-9999.0","-9999.0","1015","29.98","-999","-999","-9999","-9999","-9999.00","-9999.00","Clear","clear","0","0","0","0","0","0","METAR UKKK 140400Z 28002MPS CAVOK 11/09 Q1015 R26/CLRD70 NOSIG"
"7:30 AM EEST on September 14, 2016","2016","09","14","07","30","Europe/Kiev","4:30 AM GMT on September 14, 2016","2016","09","14","04","30","UTC","12.0","53.6","9.0","48.2","82","7.2","4.5","-9999.0","-9999.0","290","WNW","-9999.0","-9999.0","1015","29.98","-999","-999","-9999","-9999","-9999.00","-9999.00","Clear","clear","0","0","0","0","0","0","METAR UKKK 140430Z 29002MPS CAVOK 12/09 Q1015 R26/CLRD70 NOSIG"
"8:00 AM EEST on September 14, 2016","2016","09","14","08","00","Europe/Kiev","5:00 AM GMT on September 14, 2016","2016","09","14","05","00","UTC","13.0","55.4","10.0","50.0","82","7.2","4.5","-9999.0","-9999.0","290","WNW","-9999.0","-9999.0","1015","29.98","-999","-999","-9999","-9999","-9999.00","-9999.00","Clear","clear","0","0","0","0","0","0","METAR UKKK 140500Z 29002MPS CAVOK 13/10 Q1015 R26/CLRD70 NOSIG"
"8:30 AM EEST on September 14, 2016","2016","09","14","08","30","Europe/Kiev","5:30 AM GMT on September 14, 2016","2016","09","14","05","30","UTC","14.0","57.2","10.0","50.0","77","7.2","4.5","-9999.0","-9999.0","300","WNW","-9999.0","-9999.0","1014","29.95","-999","-999","-9999","-9999","-9999.00","-9999.00","Clear","clear","0","0","0","0","0","0","METAR UKKK 140530Z 30002MPS CAVOK 14/10 Q1014 R26/CLRD70 NOSIG"
"9:00 AM EEST on September 14, 2016","2016","09","14","09","00","Europe/Kiev","6:00 AM GMT on September 14, 2016","2016","09","14","06","00","UTC","15","60","10","50","61","7.2","4.5","","","0","North","20","12","1015","29.97","-999","-999","-9999","-9999","","","","","0","0","0","0","0","0","AAXX 14061 33345 32998 03602 10153 20100 39949 40147 53002 333 20129 555 10019"
"9:00 AM EEST on September 14, 2016","2016","09","14","09","00","Europe/Kiev","6:00 AM GMT on September 14, 2016","2016","09","14","06","00","UTC","15.0","59.0","11.0","51.8","77","10.8","6.7","-9999.0","-9999.0","340","NNW","-9999.0","-9999.0","1015","29.98","-999","-999","-9999","-9999","-9999.00","-9999.00","Clear","clear","0","0","0","0","0","0","METAR UKKK 140600Z 34003MPS 310V010 CAVOK 15/11 Q1015 R26/CLRD70 NOSIG"
"9:30 AM EEST on September 14, 2016","2016","09","14","09","30","Europe/Kiev","6:30 AM GMT on September 14, 2016","2016","09","14","06","30","UTC","16.0","60.8","10.0","50.0","68","14.4","8.9","-9999.0","-9999.0","330","NNW","-9999.0","-9999.0","1015","29.98","-999","-999","-9999","-9999","-9999.00","-9999.00","Clear","clear","0","0","0","0","0","0","METAR UKKK 140630Z 33004MPS CAVOK 16/10 Q1015 R26/CLRD70 NOSIG"
"10:00 AM EEST on September 14, 2016","2016","09","14","10","00","Europe/Kiev","7:00 AM GMT on September 14, 2016","2016","09","14","07","00","UTC","17.0","62.6","10.0","50.0","63","14.4","8.9","-9999.0","-9999.0","350","North","-9999.0","-9999.0","1015","29.98","-999","-999","-9999","-9999","-9999.00","-9999.00","Clear","clear","0","0","0","0","0","0","METAR UKKK 140700Z 35004MPS 320V020 CAVOK 17/10 Q1015 R26/CLRD70 NOSIG"
"10:30 AM EEST on September 14, 2016","2016","09","14","10","30","Europe/Kiev","7:30 AM GMT on September 14, 2016","2016","09","14","07","30","UTC","18.0","64.4","9.0","48.2","56","14.4","8.9","-9999.0","-9999.0","340","NNW","-9999.0","-9999.0","1015","29.98","-999","-999","-9999","-9999","-9999.00","-9999.00","Clear","clear","0","0","0","0","0","0","METAR UKKK 140730Z 34004MPS 300V020 CAVOK 18/09 Q1015 R26/CLRD70 NOSIG"
"11:00 AM EEST on September 14, 2016","2016","09","14","11","00","Europe/Kiev","8:00 AM GMT on September 14, 2016","2016","09","14","08","00","UTC","19.0","66.2","9.0","48.2","52","18.0","11.2","-9999.0","-9999.0","350","North","10.0","6.2","1015","29.98","-999","-999","-9999","-9999","-9999.00","-9999.00","Scattered Clouds","partlycloudy","0","0","0","0","0","0","METAR UKKK 140800Z 35005MPS 320V030 9999 SCT033 19/09 Q1015 R26/CLRD70 NOSIG"
"11:30 AM EEST on September 14, 2016","2016","09","14","11","30","Europe/Kiev","8:30 AM GMT on September 14, 2016","2016","09","14","08","30","UTC","19.0","66.2","7.0","44.6","46","21.6","13.4","-9999.0","-9999.0","350","North","10.0","6.2","1015","29.98","-999","-999","-9999","-9999","-9999.00","-9999.00","Partly Cloudy","partlycloudy","0","0","0","0","0","0","METAR UKKK 140830Z 35006MPS 9999 FEW033 19/07 Q1015 R26/CLRD70 NOSIG"
"12:00 PM EEST on September 14, 2016","2016","09","14","12","00","Europe/Kiev","9:00 AM GMT on September 14, 2016","2016","09","14","09","00","UTC","18","64","6","43","35","18.0","11.2","","","20","NNE","20","12","1015","29.97","-999","-999","-9999","-9999","","","Scattered Clouds","partlycloudy","0","0","0","0","0","0","AAXX 14091 33345 42698 10205 10180 20061 39952 40148 52003 81100 555 12033"
"12:00 PM EEST on September 14, 2016","2016","09","14","12","00","Europe/Kiev","9:00 AM GMT on September 14, 2016","2016","09","14","09","00","UTC","19.0","66.2","8.0","46.4","49","21.6","13.4","-9999.0","-9999.0","360","North","10.0","6.2","1015","29.98","-999","-999","-9999","-9999","-9999.00","-9999.00","Partly Cloudy","partlycloudy","0","0","0","0","0","0","METAR UKKK 140900Z 36006MPS 340V060 9999 FEW033 19/08 Q1015 R26/CLRD70 NOSIG"
"12:30 PM EEST on September 14, 2016","2016","09","14","12","30","Europe/Kiev","9:30 AM GMT on September 14, 2016","2016","09","14","09","30","UTC","19.0","66.2","7.0","44.6","46","21.6","13.4","-9999.0","-9999.0","10","North","10.0","6.2","1015","29.98","-999","-999","-9999","-9999","-9999.00","-9999.00","Scattered Clouds","partlycloudy","0","0","0","0","0","0","METAR UKKK 140930Z 01006MPS 330V060 9999 FEW033 SCT100 19/07 Q1015 R26/CLRD70 NOSIG"
"1:00 PM EEST on September 14, 2016","2016","09","14","13","00","Europe/Kiev","10:00 AM GMT on September 14, 2016","2016","09","14","10","00","UTC","20.0","68.0","7.0","44.6","43","21.6","13.4","-9999.0","-9999.0","360","North","10.0","6.2","1015","29.98","-999","-999","-9999","-9999","-9999.00","-9999.00","Scattered Clouds","partlycloudy","0","0","0","0","0","0","METAR UKKK 141000Z 36006MPS 320V030 9999 FEW046 SCT200 20/07 Q1015 R26/CLRD70 NOSIG"
"1:30 PM EEST on September 14, 2016","2016","09","14","13","30","Europe/Kiev","10:30 AM GMT on September 14, 2016","2016","09","14","10","30","UTC","20.0","68.0","9.0","48.2","49","14.4","8.9","-9999.0","-9999.0","10","North","10.0","6.2","1015","29.98","-999","-999","-9999","-9999","-9999.00","-9999.00","Scattered Clouds","partlycloudy","0","0","0","0","0","0","METAR UKKK 141030Z 01004MPS 330V060 9999 FEW043 SCT200 20/09 Q1015 R26/CLRD70 NOSIG"
"2:00 PM EEST on September 14, 2016","2016","09","14","14","00","Europe/Kiev","11:00 AM GMT on September 14, 2016","2016","09","14","11","00","UTC","20.0","68.0","8.0","46.4","46","18.0","11.2","-9999.0","-9999.0","20","NNE","10.0","6.2","1015","29.98","-999","-999","-9999","-9999","-9999.00","-9999.00","Scattered Clouds","partlycloudy","0","0","0","0","0","0","METAR UKKK 141100Z 02005MPS 350V070 9999 SCT043 20/08 Q1015 R26/CLRD70 NOSIG"
"2:30 PM EEST on September 14, 2016","2016","09","14","14","30","Europe/Kiev","11:30 AM GMT on September 14, 2016","2016","09","14","11","30","UTC","20.0","68.0","8.0","46.4","46","14.4","8.9","-9999.0","-9999.0","20","NNE","10.0","6.2","1015","29.98","-999","-999","-9999","-9999","-9999.00","-9999.00","Scattered Clouds","partlycloudy","0","0","0","0","0","0","METAR UKKK 141130Z 02004MPS 330V060 9999 SCT043 20/08 Q1015 R26/CLRD70 NOSIG"
"3:00 PM EEST on September 14, 2016","2016","09","14","15","00","Europe/Kiev","12:00 PM GMT on September 14, 2016","2016","09","14","12","00","UTC","20","68","8","47","36","10.8","6.7","","","20","NNE","20","12","1015","29.98","-999","-999","-9999","-9999","","","Scattered Clouds","partlycloudy","0","0","0","0","0","0","AAXX 14121 33345 32698 20203 10201 20085 39955 40150 52003 82100 555 10037"
"3:00 PM EEST on September 14, 2016","2016","09","14","15","00","Europe/Kiev","12:00 PM GMT on September 14, 2016","2016","09","14","12","00","UTC","20.0","68.0","8.0","46.4","46","18.0","11.2","-9999.0","-9999.0","20","NNE","10.0","6.2","1015","29.98","-999","-999","-9999","-9999","-9999.00","-9999.00","Scattered Clouds","partlycloudy","0","0","0","0","0","0","METAR UKKK 141200Z 02005MPS 340V060 9999 SCT043 20/08 Q1015 R26/CLRD70 NOSIG"
"3:30 PM EEST on September 14, 2016","2016","09","14","15","30","Europe/Kiev","12:30 PM GMT on September 14, 2016","2016","09","14","12","30","UTC","20.0","68.0","8.0","46.4","46","18.0","11.2","-9999.0","-9999.0","30","NNE","10.0","6.2","1015","29.98","-999","-999","-9999","-9999","-9999.00","-9999.00","Scattered Clouds","partlycloudy","0","0","0","0","0","0","METAR UKKK 141230Z 03005MPS 330V060 9999 SCT043 20/08 Q1015 R26/CLRD70 NOSIG"
"4:00 PM EEST on September 14, 2016","2016","09","14","16","00","Europe/Kiev","1:00 PM GMT on September 14, 2016","2016","09","14","13","00","UTC","20.0","68.0","7.0","44.6","43","18.0","11.2","-9999.0","-9999.0","10","North","-9999.0","-9999.0","1015","29.98","-999","-999","-9999","-9999","-9999.00","-9999.00","Clear","clear","0","0","0","0","0","0","METAR UKKK 141300Z 01005MPS 320V060 CAVOK 20/07 Q1015 R26/CLRD70 NOSIG"
"4:30 PM EEST on September 14, 2016","2016","09","14","16","30","Europe/Kiev","1:30 PM GMT on September 14, 2016","2016","09","14","13","30","UTC","20.0","68.0","7.0","44.6","43","18.0","11.2","-9999.0","-9999.0","10","North","-9999.0","-9999.0","1015","29.98","-999","-999","-9999","-9999","-9999.00","-9999.00","Clear","clear","0","0","0","0","0","0","METAR UKKK 141330Z 01005MPS 340V040 CAVOK 20/07 Q1015 R26/CLRD70 NOSIG"
"5:00 PM EEST on September 14, 2016","2016","09","14","17","00","Europe/Kiev","2:00 PM GMT on September 14, 2016","2016","09","14","14","00","UTC","20.0","68.0","6.0","42.8","40","18.0","11.2","-9999.0","-9999.0","360","North","-9999.0","-9999.0","1015","29.98","-999","-999","-9999","-9999","-9999.00","-9999.00","Clear","clear","0","0","0","0","0","0","METAR UKKK 141400Z 36005MPS 320V050 CAVOK 20/06 Q1015 R08/CLRD70 NOSIG"
"5:30 PM EEST on September 14, 2016","2016","09","14","17","30","Europe/Kiev","2:30 PM GMT on September 14, 2016","2016","09","14","14","30","UTC","20.0","68.0","6.0","42.8","40","18.0","11.2","-9999.0","-9999.0","10","North","-9999.0","-9999.0","1015","29.98","-999","-999","-9999","-9999","-9999.00","-9999.00","Clear","clear","0","0","0","0","0","0","METAR UKKK 141430Z 01005MPS CAVOK 20/06 Q1015 R08/CLRD70 NOSIG"
"6:00 PM EEST on September 14, 2016","2016","09","14","18","00","Europe/Kiev","3:00 PM GMT on September 14, 2016","2016","09","14","15","00","UTC","20","67","5","42","28","14.4","8.9","","","40","NE","20","12","1015","29.99","-999","-999","-9999","-9999","","","Scattered Clouds","partlycloudy","0","0","0","0","0","0","AAXX 14151 33345 42698 20404 10196 20054 39958 40153 52003 82200 555 10025"
"6:00 PM EEST on September 14, 2016","2016","09","14","18","00","Europe/Kiev","3:00 PM GMT on September 14, 2016","2016","09","14","15","00","UTC","19.0","66.2","5.0","41.0","40","21.6","13.4","-9999.0","-9999.0","10","North","-9999.0","-9999.0","1015","29.98","-999","-999","-9999","-9999","-9999.00","-9999.00","Clear","clear","0","0","0","0","0","0","METAR UKKK 141500Z 01006MPS CAVOK 19/05 Q1015 R08/CLRD70 NOSIG"
"6:30 PM EEST on September 14, 2016","2016","09","14","18","30","Europe/Kiev","3:30 PM GMT on September 14, 2016","2016","09","14","15","30","UTC","19.0","66.2","6.0","42.8","43","21.6","13.4","-9999.0","-9999.0","10","North","-9999.0","-9999.0","1016","30.01","-999","-999","-9999","-9999","-9999.00","-9999.00","Clear","clear","0","0","0","0","0","0","METAR UKKK 141530Z 01006MPS CAVOK 19/06 Q1016 R08/CLRD70 NOSIG"
"7:00 PM EEST on September 14, 2016","2016","09","14","19","00","Europe/Kiev","4:00 PM GMT on September 14, 2016","2016","09","14","16","00","UTC","18.0","64.4","5.0","41.0","42","18.0","11.2","-9999.0","-9999.0","360","North","-9999.0","-9999.0","1016","30.01","-999","-999","-9999","-9999","-9999.00","-9999.00","Clear","clear","0","0","0","0","0","0","METAR UKKK 141600Z 36005MPS CAVOK 18/05 Q1016 R08/CLRD70 NOSIG"
"7:30 PM EEST on September 14, 2016","2016","09","14","19","30","Europe/Kiev","4:30 PM GMT on September 14, 2016","2016","09","14","16","30","UTC","17.0","62.6","5.0","41.0","45","14.4","8.9","-9999.0","-9999.0","20","NNE","-9999.0","-9999.0","1016","30.01","-999","-999","-9999","-9999","-9999.00","-9999.00","Clear","clear","0","0","0","0","0","0","METAR UKKK 141630Z 02004MPS CAVOK 17/05 Q1016 R08/CLRD70 NOSIG"
"8:00 PM EEST on September 14, 2016","2016","09","14","20","00","Europe/Kiev","5:00 PM GMT on September 14, 2016","2016","09","14","17","00","UTC","16.0","60.8","6.0","42.8","52","10.8","6.7","-9999.0","-9999.0","20","NNE","-9999.0","-9999.0","1016","30.01","-999","-999","-9999","-9999","-9999.00","-9999.00","Clear","clear","0","0","0","0","0","0","METAR UKKK 141700Z 02003MPS CAVOK 16/06 Q1016 R08/CLRD70 NOSIG"
"8:30 PM EEST on September 14, 2016","2016","09","14","20","30","Europe/Kiev","5:30 PM GMT on September 14, 2016","2016","09","14","17","30","UTC","15.0","59.0","5.0","41.0","51","10.8","6.7","-9999.0","-9999.0","50","NE","-9999.0","-9999.0","1017","30.04","-999","-999","-9999","-9999","-9999.00","-9999.00","Clear","clear","0","0","0","0","0","0","METAR UKKK 141730Z 05003MPS CAVOK 15/05 Q1017 R08/CLRD70 NOSIG"
"9:00 PM EEST on September 14, 2016","2016","09","14","21","00","Europe/Kiev","6:00 PM GMT on September 14, 2016","2016","09","14","18","00","UTC","16","60","5","41","38","7.2","4.5","","","70","ENE","20","12","1017","30.04","-999","-999","-9999","-9999","","","","","0","0","0","0","0","0","AAXX 14181 33345 32998 00702 10158 20051 39974 40172 52016 333 10206 555 10014"
"9:00 PM EEST on September 14, 2016","2016","09","14","21","00","Europe/Kiev","6:00 PM GMT on September 14, 2016","2016","09","14","18","00","UTC","15.0","59.0","5.0","41.0","51","18.0","11.2","-9999.0","-9999.0","70","ENE","-9999.0","-9999.0","1017","30.04","-999","-999","-9999","-9999","-9999.00","-9999.00","Clear","clear","0","0","0","0","0","0","METAR UKKK 141800Z 07005MPS CAVOK 15/05 Q1017 R08/CLRD70 NOSIG"
"9:30 PM EEST on September 14, 2016","2016","09","14","21","30","Europe/Kiev","6:30 PM GMT on September 14, 2016","2016","09","14","18","30","UTC","15.0","59.0","5.0","41.0","51","14.4","8.9","-9999.0","-9999.0","60","ENE","-9999.0","-9999.0","1017","30.04","-999","-999","-9999","-9999","-9999.00","-9999.00","Clear","clear","0","0","0","0","0","0","METAR UKKK 141830Z 06004MPS CAVOK 15/05 Q1017 R08/CLRD70 NOSIG"
"10:00 PM EEST on September 14, 2016","2016","09","14","22","00","Europe/Kiev","7:00 PM GMT on September 14, 2016","2016","09","14","19","00","UTC","14.0","57.2","5.0","41.0","55","14.4","8.9","-9999.0","-9999.0","60","ENE","-9999.0","-9999.0","1017","30.04","-999","-999","-9999","-9999","-9999.00","-9999.00","Clear","clear","0","0","0","0","0","0","METAR UKKK 141900Z 06004MPS CAVOK 14/05 Q1017 R08/CLRD70 NOSIG"
"10:30 PM EEST on September 14, 2016","2016","09","14","22","30","Europe/Kiev","7:30 PM GMT on September 14, 2016","2016","09","14","19","30","UTC","14.0","57.2","5.0","41.0","55","14.4","8.9","-9999.0","-9999.0","60","ENE","-9999.0","-9999.0","1018","30.06","-999","-999","-9999","-9999","-9999.00","-9999.00","Clear","clear","0","0","0","0","0","0","METAR UKKK 141930Z 06004MPS CAVOK 14/05 Q1018 R08/CLRD70 NOSIG"
"11:00 PM EEST on September 14, 2016","2016","09","14","23","00","Europe/Kiev","8:00 PM GMT on September 14, 2016","2016","09","14","20","00","UTC","12.0","53.6","5.0","41.0","62","10.8","6.7","-9999.0","-9999.0","70","ENE","-9999.0","-9999.0","1018","30.06","-999","-999","-9999","-9999","-9999.00","-9999.00","Clear","clear","0","0","0","0","0","0","METAR UKKK 142000Z 07003MPS CAVOK 12/05 Q1018 R08/CLRD70 NOSIG"
"11:30 PM EEST on September 14, 2016","2016","09","14","23","30","Europe/Kiev","8:30 PM GMT on September 14, 2016","2016","09","14","20","30","UTC","11.0","51.8","5.0","41.0","67","10.8","6.7","-9999.0","-9999.0","60","ENE","-9999.0","-9999.0","1018","30.06","-999","-999","-9999","-9999","-9999.00","-9999.00","Clear","clear","0","0","0","0","0","0","METAR UKKK 142030Z 06003MPS CAVOK 11/05 Q1018 R08/CLRD70 NOSIG"
"12:00 AM EEST on September 15, 2016","2016","09","15","00","00","Europe/Kiev","9:00 PM GMT on September 14, 2016","2016","09","14","21","00","UTC","13","55","5","42","50","7.2","4.5","","","80","East","20","12","1018","30.08","-999","-999","-9999","-9999","","","Clear","clear","0","0","0","0","0","0","AAXX 14211 33345 42998 20802 10130 20053 39984 40185 52010 80001 555 10011"
"12:00 AM EEST on September 15, 2016","2016","09","15","00","00","Europe/Kiev","9:00 PM GMT on September 14, 2016","2016","09","14","21","00","UTC","12.0","53.6","5.0","41.0","62","7.2","4.5","-9999.0","-9999.0","70","ENE","-9999.0","-9999.0","1018","30.06","-999","-999","-9999","-9999","-9999.00","-9999.00","Clear","clear","0","0","0","0","0","0","METAR UKKK 142100Z 07002MPS CAVOK 12/05 Q1018 R08/CLRD70 NOSIG"
"12:30 AM EEST on September 15, 2016","2016","09","15","00","30","Europe/Kiev","9:30 PM GMT on September 14, 2016","2016","09","14","21","30","UTC","12.0","53.6","5.0","41.0","62","3.6","2.2","-9999.0","-9999.0","80","East","-9999.0","-9999.0","1018","30.06","-999","-999","-9999","-9999","-9999.00","-9999.00","Clear","clear","0","0","0","0","0","0","METAR UKKK 142130Z 08001MPS CAVOK 12/05 Q1018 R08/CLRD70 NOSIG"
"1:00 AM EEST on September 15, 2016","2016","09","15","01","00","Europe/Kiev","10:00 PM GMT on September 14, 2016","2016","09","14","22","00","UTC","12.0","53.6","5.0","41.0","62","3.6","2.2","-9999.0","-9999.0","90","East","-9999.0","-9999.0","1018","30.06","-999","-999","-9999","-9999","-9999.00","-9999.00","Clear","clear","0","0","0","0","0","0","METAR UKKK 142200Z 09001MPS CAVOK 12/05 Q1018 R08/CLRD70 NOSIG"
"1:30 AM EEST on September 15, 2016","2016","09","15","01","30","Europe/Kiev","10:30 PM GMT on September 14, 2016","2016","09","14","22","30","UTC","9.0","48.2","6.0","42.8","82","3.6","2.2","-9999.0","-9999.0","90","East","-9999.0","-9999.0","1018","30.06","-999","-999","-9999","-9999","-9999.00","-9999.00","Clear","clear","0","0","0","0","0","0","METAR UKKK 142230Z 09001MPS CAVOK 09/06 Q1018 R08/CLRD70 NOSIG"
"2:00 AM EEST on September 15, 2016","2016","09","15","02","00","Europe/Kiev","11:00 PM GMT on September 14, 2016","2016","09","14","23","00","UTC","9.0","48.2","5.0","41.0","76","0.0","0.0","-9999.0","-9999.0","0","North","-9999.0","-9999.0","1018","30.06","-999","-999","-9999","-9999","-9999.00","-9999.00","Clear","clear","0","0","0","0","0","0","METAR UKKK 142300Z 00000MPS CAVOK 09/05 Q1018 R08/CLRD70 NOSIG"
"2:30 AM EEST on September 15, 2016","2016","09","15","02","30","Europe/Kiev","11:30 PM GMT on September 14, 2016","2016","09","14","23","30","UTC","8.0","46.4","5.0","41.0","81","0.0","0.0","-9999.0","-9999.0","0","North","-9999.0","-9999.0","1018","30.06","-999","-999","-9999","-9999","-9999.00","-9999.00","Clear","clear","0","0","0","0","0","0","METAR UKKK 142330Z 00000MPS CAVOK 08/05 Q1018 R08/CLRD70 NOSIG"
"3:00 AM EEST on September 15, 2016","2016","09","15","03","00","Europe/Kiev","12:00 AM GMT on September 15, 2016","2016","09","15","00","00","UTC","10","51","6","43","65","0.0","0.0","","","","","20","12","1019","30.09","-999","-999","-9999","-9999","","","","","0","0","0","0","0","0","AAXX 15001 33345 32998 00000 10103 20060 39987 40190 52003 555 10008"
"3:00 AM EEST on September 15, 2016","2016","09","15","03","00","Europe/Kiev","12:00 AM GMT on September 15, 2016","2016","09","15","00","00","UTC","7.0","44.6","5.0","41.0","87","0.0","0.0","-9999.0","-9999.0","0","North","-9999.0","-9999.0","1018","30.06","-999","-999","-9999","-9999","-9999.00","-9999.00","Clear","clear","0","0","0","0","0","0","METAR UKKK 150000Z 00000MPS CAVOK 07/05 Q1018 R08/CLRD70 NOSIG"
"3:30 AM EEST on September 15, 2016","2016","09","15","03","30","Europe/Kiev","12:30 AM GMT on September 15, 2016","2016","09","15","00","30","UTC","7.0","44.6","6.0","42.8","93","3.6","2.2","-9999.0","-9999.0","260","West","-9999.0","-9999.0","1018","30.06","-999","-999","-9999","-9999","-9999.00","-9999.00","Clear","clear","0","0","0","0","0","0","METAR UKKK 150030Z 26001MPS CAVOK 07/06 Q1018 R08/CLRD70 NOSIG"
"4:00 AM EEST on September 15, 2016","2016","09","15","04","00","Europe/Kiev","1:00 AM GMT on September 15, 2016","2016","09","15","01","00","UTC","7.0","44.6","5.0","41.0","87","3.6","2.2","-9999.0","-9999.0","260","West","-9999.0","-9999.0","1019","30.09","-999","-999","-9999","-9999","-9999.00","-9999.00","Clear","clear","0","0","0","0","0","0","METAR UKKK 150100Z 26001MPS CAVOK 07/05 Q1019 R08/CLRD70 NOSIG"
"4:30 AM EEST on September 15, 2016","2016","09","15","04","30","Europe/Kiev","1:30 AM GMT on September 15, 2016","2016","09","15","01","30","UTC","7.0","44.6","5.0","41.0","87","3.6","2.2","-9999.0","-9999.0","240","WSW","-9999.0","-9999.0","1019","30.09","-999","-999","-9999","-9999","-9999.00","-9999.00","Clear","clear","0","0","0","0","0","0","METAR UKKK 150130Z 24001MPS CAVOK 07/05 Q1019 R08/CLRD70 NOSIG"
"5:00 AM EEST on September 15, 2016","2016","09","15","05","00","Europe/Kiev","2:00 AM GMT on September 15, 2016","2016","09","15","02","00","UTC","6.0","42.8","5.0","41.0","93","7.2","4.5","-9999.0","-9999.0","250","WSW","-9999.0","-9999.0","1019","30.09","4.5","40.2","-9999","-9999","-9999.00","-9999.00","Clear","clear","0","0","0","0","0","0","METAR UKKK 150200Z 25002MPS CAVOK 06/05 Q1019 R08/CLRD70 NOSIG"
"5:30 AM EEST on September 15, 2016","2016","09","15","05","30","Europe/Kiev","2:30 AM GMT on September 15, 2016","2016","09","15","02","30","UTC","7.0","44.6","5.0","41.0","87","7.2","4.5","-9999.0","-9999.0","250","WSW","-9999.0","-9999.0","1019","30.09","5.7","42.3","-9999","-9999","-9999.00","-9999.00","Clear","clear","0","0","0","0","0","0","METAR UKKK 150230Z 25002MPS CAVOK 07/05 Q1019 R08/CLRD70 NOSIG"
"6:00 AM EEST on September 15, 2016","2016","09","15","06","00","Europe/Kiev","3:00 AM GMT on September 15, 2016","2016","09","15","03","00","UTC","7.0","44.6","6.0","42.8","93","7.2","4.5","-9999.0","-9999.0","250","WSW","-9999.0","-9999.0","1019","30.09","5.7","42.3","-9999","-9999","-9999.00","-9999.00","Clear","clear","0","0","0","0","0","0","METAR UKKK 150300Z 25002MPS CAVOK 07/06 Q1019 R08/CLRD70 NOSIG"
"6:30 AM EEST on September 15, 2016","2016","09","15","06","30","Europe/Kiev","3:30 AM GMT on September 15, 2016","2016","09","15","03","30","UTC","7.0","44.6","6.0","42.8","93","3.6","2.2","-9999.0","-9999.0","250","WSW","-9999.0","-9999.0","1019","30.09","-999","-999","-9999","-9999","-9999.00","-9999.00","Clear","clear","0","0","0","0","0","0","METAR UKKK 150330Z 25001MPS CAVOK 07/06 Q1019 R08/CLRD70 NOSIG"
"7:00 AM EEST on September 15, 2016","2016","09","15","07","00","Europe/Kiev","4:00 AM GMT on September 15, 2016","2016","09","15","04","00","UTC","6.0","42.8","6.0","42.8","100","3.6","2.2","-9999.0","-9999.0","230","SW","9.0","5.6","1019","30.09","-999","-999","-9999","-9999","-9999.00","-9999.00","Unknown","unknown","0","0","0","0","0","0","METAR UKKK 150400Z 23001MPS 9000 NSC 06/06 Q1019 R08/CLRD70 NOSIG"
"7:30 AM EEST on September 15, 2016","2016","09","15","07","30","Europe/Kiev","4:30 AM GMT on September 15, 2016","2016","09","15","04","30","UTC","8.0","46.4","6.0","42.8","87","3.6","2.2","-9999.0","-9999.0","0","Variable","-9999.0","-9999.0","1019","30.09","-999","-999","-9999","-9999","-9999.00","-9999.00","Clear","clear","0","0","0","0","0","0","METAR UKKK 150430Z VRB01MPS CAVOK 08/06 Q1019 R08/CLRD70 NOSIG"
"8:00 AM EEST on September 15, 2016","2016","09","15","08","00","Europe/Kiev","5:00 AM GMT on September 15, 2016","2016","09","15","05","00","UTC","10.0","50.0","7.0","44.6","82","3.6","2.2","-9999.0","-9999.0","230","SW","-9999.0","-9999.0","1019","30.09","-999","-999","-9999","-9999","-9999.00","-9999.00","Clear","clear","0","0","0","0","0","0","METAR UKKK 150500Z 23001MPS CAVOK 10/07 Q1019 R08/CLRD70 NOSIG"
"8:30 AM EEST on September 15, 2016","2016","09","15","08","30","Europe/Kiev","5:30 AM GMT on September 15, 2016","2016","09","15","05","30","UTC","12.0","53.6","8.0","46.4","77","0.0","0.0","-9999.0","-9999.0","0","North","-9999.0","-9999.0","1019","30.09","-999","-999","-9999","-9999","-9999.00","-9999.00","Clear","clear","0","0","0","0","0","0","METAR UKKK 150530Z 00000MPS CAVOK 12/08 Q1019 R08/CLRD70 NOSIG"
"9:00 AM EEST on September 15, 2016","2016","09","15","09","00","Europe/Kiev","6:00 AM GMT on September 15, 2016","2016","09","15","06","00","UTC","14","56","6","43","50","7.2","4.5","","","330","NNW","20","12","1020","30.11","-999","-999","-9999","-9999","","","Clear","clear","0","0","0","0","0","0","AAXX 15061 33345 32998 63302 10135 20059 39996 40196 52006 80001 333 20099 555 10018"
"9:00 AM EEST on September 15, 2016","2016","09","15","09","00","Europe/Kiev","6:00 AM GMT on September 15, 2016","2016","09","15","06","00","UTC","14.0","57.2","7.0","44.6","63","10.8","6.7","-9999.0","-9999.0","300","WNW","-9999.0","-9999.0","1019","30.09","-999","-999","-9999","-9999","-9999.00","-9999.00","Clear","clear","0","0","0","0","0","0","METAR UKKK 150600Z 30003MPS 260V320 CAVOK 14/07 Q1019 R08/CLRD70 NOSIG"
"9:30 AM EEST on September 15, 2016","2016","09","15","09","30","Europe/Kiev","6:30 AM GMT on September 15, 2016","2016","09","15","06","30","UTC","15.0","59.0","6.0","42.8","55","18.0","11.2","-9999.0","-9999.0","300","WNW","-9999.0","-9999.0","1020","30.12","-999","-999","-9999","-9999","-9999.00","-9999.00","Clear","clear","0","0","0","0","0","0","METAR UKKK 150630Z 30005MPS CAVOK 15/06 Q1020 R26/CLRD70 NOSIG"
"10:00 AM EEST on September 15, 2016","2016","09","15","10","00","Europe/Kiev","7:00 AM GMT on September 15, 2016","2016","09","15","07","00","UTC","16.0","60.8","6.0","42.8","52","14.4","8.9","-9999.0","-9999.0","290","WNW","-9999.0","-9999.0","1020","30.12","-999","-999","-9999","-9999","-9999.00","-9999.00","Clear","clear","0","0","0","0","0","0","METAR UKKK 150700Z 29004MPS CAVOK 16/06 Q1020 R26/CLRD70 NOSIG"
"10:30 AM EEST on September 15, 2016","2016","09","15","10","30","Europe/Kiev","7:30 AM GMT on September 15, 2016","2016","09","15","07","30","UTC","16.0","60.8","7.0","44.6","55","18.0","11.2","-9999.0","-9999.0","320","NW","-9999.0","-9999.0","1020","30.12","-999","-999","-9999","-9999","-9999.00","-9999.00","Clear","clear","0","0","0","0","0","0","METAR UKKK 150730Z 32005MPS 290V350 CAVOK 16/07 Q1020 R26/CLRD70 NOSIG"
"11:00 AM EEST on September 15, 2016","2016","09","15","11","00","Europe/Kiev","8:00 AM GMT on September 15, 2016","2016","09","15","08","00","UTC","17.0","62.6","7.0","44.6","52","18.0","11.2","-9999.0","-9999.0","340","NNW","10.0","6.2","1020","30.12","-999","-999","-9999","-9999","-9999.00","-9999.00","Partly Cloudy","partlycloudy","0","0","0","0","0","0","METAR UKKK 150800Z 34005MPS 300V020 9999 FEW033 17/07 Q1020 R26/CLRD70 NOSIG"
"11:30 AM EEST on September 15, 2016","2016","09","15","11","30","Europe/Kiev","8:30 AM GMT on September 15, 2016","2016","09","15","08","30","UTC","18.0","64.4","6.0","42.8","45","18.0","11.2","-9999.0","-9999.0","310","NW","10.0","6.2","1019","30.09","-999","-999","-9999","-9999","-9999.00","-9999.00","Partly Cloudy","partlycloudy","0","0","0","0","0","0","METAR UKKK 150830Z 31005MPS 290V350 9999 FEW040 18/06 Q1019 R26/CLRD70 NOSIG"
"12:00 PM EEST on September 15, 2016","2016","09","15","12","00","Europe/Kiev","9:00 AM GMT on September 15, 2016","2016","09","15","09","00","UTC","17","63","6","44","38","14.4","8.9","","","40","NE","20","12","1019","30.10","-999","-999","-9999","-9999","","","Scattered Clouds","partlycloudy","0","0","0","0","0","0","AAXX 15091 33345 42598 40404 10173 20064 39995 40193 58001 82801 555 10033"
"12:00 PM EEST on September 15, 2016","2016","09","15","12","00","Europe/Kiev","9:00 AM GMT on September 15, 2016","2016","09","15","09","00","UTC","18.0","64.4","6.0","42.8","45","18.0","11.2","-9999.0","-9999.0","320","NW","10.0","6.2","1019","30.09","-999","-999","-9999","-9999","-9999.00","-9999.00","Scattered Clouds","partlycloudy","0","0","0","0","0","0","METAR UKKK 150900Z 32005MPS 270V030 9999 SCT040 18/06 Q1019 R26/CLRD70 NOSIG"
"12:30 PM EEST on September 15, 2016","2016","09","15","12","30","Europe/Kiev","9:30 AM GMT on September 15, 2016","2016","09","15","09","30","UTC","18.0","64.4","6.0","42.8","45","14.4","8.9","32.4","20.1","320","NW","10.0","6.2","1019","30.09","-999","-999","-9999","-9999","-9999.00","-9999.00","Scattered Clouds","partlycloudy","0","0","0","0","0","0","METAR UKKK 150930Z 32004G09MPS 290V010 9999 SCT040 18/06 Q1019 R26/CLRD70 NOSIG"
"1:00 PM EEST on September 15, 2016","2016","09","15","13","00","Europe/Kiev","10:00 AM GMT on September 15, 2016","2016","09","15","10","00","UTC","19.0","66.2","6.0","42.8","43","14.4","8.9","32.4","20.1","330","NNW","10.0","6.2","1019","30.09","-999","-999","-9999","-9999","-9999.00","-9999.00","Scattered Clouds","partlycloudy","0","0","0","0","0","0","METAR UKKK 151000Z 33004G09MPS 270V040 9999 SCT045 19/06 Q1019 R26/CLRD70 NOSIG"
"1:30 PM EEST on September 15, 2016","2016","09","15","13","30","Europe/Kiev","10:30 AM GMT on September 15, 2016","2016","09","15","10","30","UTC","19.0","66.2","7.0","44.6","46","14.4","8.9","-9999.0","-9999.0","330","NNW","10.0","6.2","1019","30.09","-999","-999","-9999","-9999","-9999.00","-9999.00","Scattered Clouds","partlycloudy","0","0","0","0","0","0","METAR UKKK 151030Z 33004MPS 9999 SCT045 19/07 Q1019 R26/CLRD70 NOSIG"
"2:00 PM EEST on September 15, 2016","2016","09","15","14","00","Europe/Kiev","11:00 AM GMT on September 15, 2016","2016","09","15","11","00","UTC","19.0","66.2","7.0","44.6","46","10.8","6.7","-9999.0","-9999.0","360","North","10.0","6.2","1019","30.09","-999","-999","-9999","-9999","-9999.00","-9999.00","Scattered Clouds","partlycloudy","0","0","0","0","0","0","METAR UKKK 151100Z 36003MPS 9999 SCT045 19/07 Q1019 R26/CLRD70 NOSIG"
"2:30 PM EEST on September 15, 2016","2016","09","15","14","30","Europe/Kiev","11:30 AM GMT on September 15, 2016","2016","09","15","11","30","UTC","20.0","68.0","7.0","44.6","43","14.4","8.9","-9999.0","-9999.0","20","NNE","10.0","6.2","1018","30.06","-999","-999","-9999","-9999","-9999.00","-9999.00","Scattered Clouds","partlycloudy","0","0","0","0","0","0","METAR UKKK 151130Z 02004MPS 9999 SCT045 20/07 Q1018 R26/CLRD70 NOSIG"
"3:00 PM EEST on September 15, 2016","2016","09","15","15","00","Europe/Kiev","12:00 PM GMT on September 15, 2016","2016","09","15","12","00","UTC","19","66","7","45","35","10.8","6.7","","","20","NNE","20","12","1018","30.08","-999","-999","-9999","-9999","","","Scattered Clouds","partlycloudy","0","0","0","0","0","0","AAXX 15121 33345 32698 30203 10188 20072 39988 40185 57007 82801 555 10037"
"3:00 PM EEST on September 15, 2016","2016","09","15","15","00","Europe/Kiev","12:00 PM GMT on September 15, 2016","2016","09","15","12","00","UTC","19.0","66.2","7.0","44.6","46","14.4","8.9","-9999.0","-9999.0","40","NE","-9999.0","-9999.0","1018","30.06","-999","-999","-9999","-9999","-9999.00","-9999.00","Clear","clear","0","0","0","0","0","0","METAR UKKK 151200Z 04004MPS 340V080 CAVOK 19/07 Q1018 R26/CLRD70 NOSIG"
"3:20 PM EEST on September 15, 2016","2016","09","15","15","20","Europe/Kiev","12:20 PM GMT on September 15, 2016","2016","09","15","12","20","UTC","20.0","68.0","7.0","44.6","43","18.0","11.2","-9999.0","-9999.0","300","WNW","-9999.0","-9999.0","1018","30.06","-999","-999","-9999","-9999","-9999.00","-9999.00","Clear","clear","0","0","0","0","0","0","SPECI UKKK 151220Z 30005MPS 250V060 CAVOK 20/07 Q1018 R26/CLRD70 NOSIG"
"3:30 PM EEST on September 15, 2016","2016","09","15","15","30","Europe/Kiev","12:30 PM GMT on September 15, 2016","2016","09","15","12","30","UTC","20.0","68.0","6.0","42.8","40","10.8","6.7","-9999.0","-9999.0","10","North","-9999.0","-9999.0","1018","30.06","-999","-999","-9999","-9999","-9999.00","-9999.00","Clear","clear","0","0","0","0","0","0","METAR UKKK 151230Z 01003MPS 330V090 CAVOK 20/06 Q1018 R26/CLRD70 NOSIG"
"4:00 PM EEST on September 15, 2016","2016","09","15","16","00","Europe/Kiev","1:00 PM GMT on September 15, 2016","2016","09","15","13","00","UTC","20.0","68.0","7.0","44.6","43","10.8","6.7","28.8","17.9","320","NW","-9999.0","-9999.0","1018","30.06","-999","-999","-9999","-9999","-9999.00","-9999.00","Clear","clear","0","0","0","0","0","0","METAR UKKK 151300Z 32003G08MPS 260V360 CAVOK 20/07 Q1018 R26/CLRD70 NOSIG"
"4:30 PM EEST on September 15, 2016","2016","09","15","16","30","Europe/Kiev","1:30 PM GMT on September 15, 2016","2016","09","15","13","30","UTC","20.0","68.0","6.0","42.8","40","21.6","13.4","-9999.0","-9999.0","310","NW","-9999.0","-9999.0","1018","30.06","-999","-999","-9999","-9999","-9999.00","-9999.00","Clear","clear","0","0","0","0","0","0","METAR UKKK 151330Z 31006MPS CAVOK 20/06 Q1018 R26/CLRD70 NOSIG"
"5:00 PM EEST on September 15, 2016","2016","09","15","17","00","Europe/Kiev","2:00 PM GMT on September 15, 2016","2016","09","15","14","00","UTC","20.0","68.0","8.0","46.4","46","7.2","4.5","-9999.0","-9999.0","40","NE","-9999.0","-9999.0","1018","30.06","-999","-999","-9999","-9999","-9999.00","-9999.00","Clear","clear","0","0","0","0","0","0","METAR UKKK 151400Z 04002MPS CAVOK 20/08 Q1018 R26/CLRD70 NOSIG"
"5:30 PM EEST on September 15, 2016","2016","09","15","17","30","Europe/Kiev","2:30 PM GMT on September 15, 2016","2016","09","15","14","30","UTC","20.0","68.0","7.0","44.6","43","10.8","6.7","-9999.0","-9999.0","10","North","-9999.0","-9999.0","1018","30.06","-999","-999","-9999","-9999","-9999.00","-9999.00","Clear","clear","0","0","0","0","0","0","METAR UKKK 151430Z 01003MPS 320V050 CAVOK 20/07 Q1018 R26/CLRD70 NOSIG"
"6:00 PM EEST on September 15, 2016","2016","09","15","18","00","Europe/Kiev","3:00 PM GMT on September 15, 2016","2016","09","15","15","00","UTC","19","66","8","46","37","10.8","6.7","","","40","NE","20","12","1018","30.06","-999","-999","-9999","-9999","","","","","0","0","0","0","0","0","AAXX 15151 33345 42998 00403 10190 20077 39981 40177 57007 555 10025"
"6:00 PM EEST on September 15, 2016","2016","09","15","18","00","Europe/Kiev","3:00 PM GMT on September 15, 2016","2016","09","15","15","00","UTC","20.0","68.0","7.0","44.6","43","7.2","4.5","-9999.0","-9999.0","350","North","-9999.0","-9999.0","1018","30.06","-999","-999","-9999","-9999","-9999.00","-9999.00","Clear","clear","0","0","0","0","0","0","METAR UKKK 151500Z 35002MPS 310V050 CAVOK 20/07 Q1018 R26/CLRD70 NOSIG"
"6:30 PM EEST on September 15, 2016","2016","09","15","18","30","Europe/Kiev","3:30 PM GMT on September 15, 2016","2016","09","15","15","30","UTC","18.0","64.4","8.0","46.4","52","10.8","6.7","-9999.0","-9999.0","50","NE","-9999.0","-9999.0","1018","30.06","-999","-999","-9999","-9999","-9999.00","-9999.00","Clear","clear","0","0","0","0","0","0","METAR UKKK 151530Z 05003MPS CAVOK 18/08 Q1018 R26/CLRD70 NOSIG"
"7:00 PM EEST on September 15, 2016","2016","09","15","19","00","Europe/Kiev","4:00 PM GMT on September 15, 2016","2016","09","15","16","00","UTC","16.0","60.8","8.0","46.4","59","7.2","4.5","-9999.0","-9999.0","20","NNE","-9999.0","-9999.0","1018","30.06","-999","-999","-9999","-9999","-9999.00","-9999.00","Clear","clear","0","0","0","0","0","0","METAR UKKK 151600Z 02002MPS CAVOK 16/08 Q1018 R26/CLRD70 NOSIG"
"7:30 PM EEST on September 15, 2016","2016","09","15","19","30","Europe/Kiev","4:30 PM GMT on September 15, 2016","2016","09","15","16","30","UTC","16.0","60.8","8.0","46.4","59","7.2","4.5","-9999.0","-9999.0","10","North","-9999.0","-9999.0","1018","30.06","-999","-999","-9999","-9999","-9999.00","-9999.00","Clear","clear","0","0","0","0","0","0","METAR UKKK 151630Z 01002MPS CAVOK 16/08 Q1018 R26/CLRD70 NOSIG"
"8:00 PM EEST on September 15, 2016","2016","09","15","20","00","Europe/Kiev","5:00 PM GMT on September 15, 2016","2016","09","15","17","00","UTC","15.0","59.0","7.0","44.6","59","7.2","4.5","-9999.0","-9999.0","20","NNE","-9999.0","-9999.0","1018","30.06","-999","-999","-9999","-9999","-9999.00","-9999.00","Clear","clear","0","0","0","0","0","0","METAR UKKK 151700Z 02002MPS 340V070 CAVOK 15/07 Q1018 R26/CLRD70 NOSIG"
"8:30 PM EEST on September 15, 2016","2016","09","15","20","30","Europe/Kiev","5:30 PM GMT on September 15, 2016","2016","09","15","17","30","UTC","13.0","55.4","7.0","44.6","67","7.2","4.5","-9999.0","-9999.0","50","NE","-9999.0","-9999.0","1018","30.06","-999","-999","-9999","-9999","-9999.00","-9999.00","Clear","clear","0","0","0","0","0","0","METAR UKKK 151730Z 05002MPS CAVOK 13/07 Q1018 R26/CLRD70 NOSIG"
"9:00 PM EEST on September 15, 2016","2016","09","15","21","00","Europe/Kiev","6:00 PM GMT on September 15, 2016","2016","09","15","18","00","UTC","15","58","7","45","52","3.6","2.2","","","60","ENE","20","12","1018","30.08","-999","-999","-9999","-9999","","","","","0","0","0","0","0","0","AAXX 15181 33345 32998 00601 10146 20073 39985 40184 53004 333 10200 555 10012"
"9:00 PM EEST on September 15, 2016","2016","09","15","21","00","Europe/Kiev","6:00 PM GMT on September 15, 2016","2016","09","15","18","00","UTC","13.0","55.4","8.0","46.4","72","7.2","4.5","-9999.0","-9999.0","90","East","-9999.0","-9999.0","1018","30.06","-999","-999","-9999","-9999","-9999.00","-9999.00","Clear","clear","0","0","0","0","0","0","METAR UKKK 151800Z 09002MPS CAVOK 13/08 Q1018 R08/CLRD70 NOSIG"
"9:30 PM EEST on September 15, 2016","2016","09","15","21","30","Europe/Kiev","6:30 PM GMT on September 15, 2016","2016","09","15","18","30","UTC","11.0","51.8","7.0","44.6","76","3.6","2.2","-9999.0","-9999.0","0","Variable","-9999.0","-9999.0","1018","30.06","-999","-999","-9999","-9999","-9999.00","-9999.00","Clear","clear","0","0","0","0","0","0","METAR UKKK 151830Z VRB01MPS CAVOK 11/07 Q1018 R08/CLRD70 NOSIG"
"10:00 PM EEST on September 15, 2016","2016","09","15","22","00","Europe/Kiev","7:00 PM GMT on September 15, 2016","2016","09","15","19","00","UTC","10.0","50.0","7.0","44.6","82","0.0","0.0","-9999.0","-9999.0","0","North","-9999.0","-9999.0","1018","30.06","-999","-999","-9999","-9999","-9999.00","-9999.00","Clear","clear","0","0","0","0","0","0","METAR UKKK 151900Z 00000MPS CAVOK 10/07 Q1018 R08/CLRD70 NOSIG"
"10:30 PM EEST on September 15, 2016","2016","09","15","22","30","Europe/Kiev","7:30 PM GMT on September 15, 2016","2016","09","15","19","30","UTC","10.0","50.0","7.0","44.6","82","0.0","0.0","-9999.0","-9999.0","0","North","9.0","5.6","1018","30.06","-999","-999","-9999","-9999","-9999.00","-9999.00","Clear","clear","0","0","0","0","0","0","METAR UKKK 151930Z 00000MPS 9000 SKC 10/07 Q1018 R08/CLRD70 NOSIG"
"11:00 PM EEST on September 15, 2016","2016","09","15","23","00","Europe/Kiev","8:00 PM GMT on September 15, 2016","2016","09","15","20","00","UTC","10.0","50.0","7.0","44.6","82","0.0","0.0","-9999.0","-9999.0","0","North","-9999.0","-9999.0","1018","30.06","-999","-999","-9999","-9999","-9999.00","-9999.00","Clear","clear","0","0","0","0","0","0","METAR UKKK 152000Z 00000MPS CAVOK 10/07 Q1018 R08/CLRD70 NOSIG"
"11:30 PM EEST on September 15, 2016","2016","09","15","23","30","Europe/Kiev","8:30 PM GMT on September 15, 2016","2016","09","15","20","30","UTC","8.0","46.4","7.0","44.6","93","0.0","0.0","-9999.0","-9999.0","0","North","9.0","5.6","1018","30.06","-999","-999","-9999","-9999","-9999.00","-9999.00","Clear","clear","0","0","0","0","0","0","METAR UKKK 152030Z 00000MPS 9000 SKC 08/07 Q1018 R08/CLRD70 NOSIG"
"12:00 AM EEST on September 16, 2016","2016","09","16","00","00","Europe/Kiev","9:00 PM GMT on September 15, 2016","2016","09","15","21","00","UTC","12","53","7","44","64","0.0","0.0","","","","","20","12","1019","30.09","-999","-999","-9999","-9999","","","","","0","0","0","0","0","0","AAXX 15211 33345 42998 00000 10119 20069 39987 40188 52002 555 10010"
"12:00 AM EEST on September 16, 2016","2016","09","16","00","00","Europe/Kiev","9:00 PM GMT on September 15, 2016","2016","09","15","21","00","UTC","8.0","46.4","7.0","44.6","93","0.0","0.0","-9999.0","-9999.0","0","North","-9999.0","-9999.0","1018","30.06","-999","-999","-9999","-9999","-9999.00","-9999.00","Clear","clear","0","0","0","0","0","0","METAR UKKK 152100Z 00000MPS CAVOK 08/07 Q1018 R08/CLRD70 NOSIG"
"12:30 AM EEST on September 16, 2016","2016","09","16","00","30","Europe/Kiev","9:30 PM GMT on September 15, 2016","2016","09","15","21","30","UTC","9.0","48.2","7.0","44.6","87","0.0","0.0","-9999.0","-9999.0","0","North","7.0","4.3","1018","30.06","-999","-999","-9999","-9999","-9999.00","-9999.00","Clear","clear","0","0","0","0","0","0","METAR UKKK 152130Z 00000MPS 7000 SKC 09/07 Q1018 R08/CLRD70 NOSIG"
"1:00 AM EEST on September 16, 2016","2016","09","16","01","00","Europe/Kiev","10:00 PM GMT on September 15, 2016","2016","09","15","22","00","UTC","9.0","48.2","7.0","44.6","87","0.0","0.0","-9999.0","-9999.0","0","North","-9999.0","-9999.0","1018","30.06","-999","-999","-9999","-9999","-9999.00","-9999.00","Clear","clear","0","0","0","0","0","0","METAR UKKK 152200Z 00000MPS CAVOK 09/07 Q1018 R08/CLRD70 NOSIG"
"1:30 AM EEST on September 16, 2016","2016","09","16","01","30","Europe/Kiev","10:30 PM GMT on September 15, 2016","2016","09","15","22","30","UTC","8.0","46.4","6.0","42.8","87","0.0","0.0","-9999.0","-9999.0","0","North","-9999.0","-9999.0","1018","30.06","-999","-999","-9999","-9999","-9999.00","-9999.00","Clear","clear","0","0","0","0","0","0","METAR UKKK 152230Z 00000MPS CAVOK 08/06 Q1018 R08/CLRD70 NOSIG"
"2:00 AM EEST on September 16, 2016","2016","09","16","02","00","Europe/Kiev","11:00 PM GMT on September 15, 2016","2016","09","15","23","00","UTC","7.0","44.6","6.0","42.8","93","0.0","0.0","-9999.0","-9999.0","0","North","-9999.0","-9999.0","1018","30.06","-999","-999","-9999","-9999","-9999.00","-9999.00","Clear","clear","0","0","0","0","0","0","METAR UKKK 152300Z 00000MPS CAVOK 07/06 Q1018 R08/CLRD70 NOSIG"
"2:30 AM EEST on September 16, 2016","2016","09","16","02","30","Europe/Kiev","11:30 PM GMT on September 15, 2016","2016","09","15","23","30","UTC","7.0","44.6","7.0","44.6","100","0.0","0.0","-9999.0","-9999.0","0","North","-9999.0","-9999.0","1018","30.06","-999","-999","-9999","-9999","-9999.00","-9999.00","Clear","clear","0","0","0","0","0","0","METAR UKKK 152330Z 00000MPS CAVOK 07/07 Q1018 R08/CLRD70 NOSIG"
"3:00 AM EEST on September 16, 2016","2016","09","16","03","00","Europe/Kiev","12:00 AM GMT on September 16, 2016","2016","09","16","00","00","UTC","11","51","7","45","72","0.0","0.0","","","","","20","12","1018","30.08","-999","-999","-9999","-9999","","","","","0","0","0","0","0","0","AAXX 16001 33345 32998 00000 10106 20070 39982 40184 58005 555 10008"
"3:00 AM EEST on September 16, 2016","2016","09","16","03","00","Europe/Kiev","12:00 AM GMT on September 16, 2016","2016","09","16","00","00","UTC","7.0","44.6","7.0","44.6","100","0.0","0.0","-9999.0","-9999.0","0","North","-9999.0","-9999.0","1018","30.06","-999","-999","-9999","-9999","-9999.00","-9999.00","Clear","clear","0","0","0","0","0","0","METAR UKKK 160000Z 00000MPS CAVOK 07/07 Q1018 R08/CLRD70 NOSIG"
"3:30 AM EEST on September 16, 2016","2016","09","16","03","30","Europe/Kiev","12:30 AM GMT on September 16, 2016","2016","09","16","00","30","UTC","7.0","44.6","6.0","42.8","93","0.0","0.0","-9999.0","-9999.0","0","North","-9999.0","-9999.0","1018","30.06","-999","-999","-9999","-9999","-9999.00","-9999.00","Clear","clear","0","0","0","0","0","0","METAR UKKK 160030Z 00000MPS CAVOK 07/06 Q1018 R08/CLRD70 NOSIG"
"4:00 AM EEST on September 16, 2016","2016","09","16","04","00","Europe/Kiev","1:00 AM GMT on September 16, 2016","2016","09","16","01","00","UTC","8.0","46.4","7.0","44.6","93","7.2","4.5","-9999.0","-9999.0","220","SW","-9999.0","-9999.0","1018","30.06","6.9","44.4","-9999","-9999","-9999.00","-9999.00","Clear","clear","0","0","0","0","0","0","METAR UKKK 160100Z 22002MPS CAVOK 08/07 Q1018 R08/CLRD70 NOSIG"
"4:30 AM EEST on September 16, 2016","2016","09","16","04","30","Europe/Kiev","1:30 AM GMT on September 16, 2016","2016","09","16","01","30","UTC","7.0","44.6","7.0","44.6","100","3.6","2.2","-9999.0","-9999.0","220","SW","-9999.0","-9999.0","1017","30.04","-999","-999","-9999","-9999","-9999.00","-9999.00","Clear","clear","0","0","0","0","0","0","METAR UKKK 160130Z 22001MPS CAVOK 07/07 Q1017 R08/CLRD70 NOSIG"
"5:00 AM EEST on September 16, 2016","2016","09","16","05","00","Europe/Kiev","2:00 AM GMT on September 16, 2016","2016","09","16","02","00","UTC","6.0","42.8","6.0","42.8","100","7.2","4.5","-9999.0","-9999.0","220","SW","-9999.0","-9999.0","1017","30.04","4.5","40.2","-9999","-9999","-9999.00","-9999.00","Clear","clear","0","0","0","0","0","0","METAR UKKK 160200Z 22002MPS CAVOK 06/06 Q1017 R08/CLRD70 NOSIG"
"5:30 AM EEST on September 16, 2016","2016","09","16","05","30","Europe/Kiev","2:30 AM GMT on September 16, 2016","2016","09","16","02","30","UTC","7.0","44.6","6.0","42.8","93","3.6","2.2","-9999.0","-9999.0","230","SW","9.0","5.6","1017","30.04","-999","-999","-9999","-9999","-9999.00","-9999.00","Clear","clear","0","0","0","0","0","0","METAR UKKK 160230Z 23001MPS 9000 SKC 07/06 Q1017 R08/CLRD70 NOSIG"
"6:00 AM EEST on September 16, 2016","2016","09","16","06","00","Europe/Kiev","3:00 AM GMT on September 16, 2016","2016","09","16","03","00","UTC","10","50","7","44","74","3.6","2.2","","","270","West","20","12","1017","30.05","-999","-999","-9999","-9999","","","","","0","0","0","0","0","0","AAXX 16031 33345 42998 02701 10100 20068 39972 40174 57010 555 10007"
"6:00 AM EEST on September 16, 2016","2016","09","16","06","00","Europe/Kiev","3:00 AM GMT on September 16, 2016","2016","09","16","03","00","UTC","5.0","41.0","5.0","41.0","100","3.6","2.2","-9999.0","-9999.0","210","SSW","-9999.0","-9999.0","1017","30.04","-999","-999","-9999","-9999","-9999.00","-9999.00","Clear","clear","0","0","0","0","0","0","METAR UKKK 160300Z 21001MPS CAVOK 05/05 Q1017 R08/CLRD70 NOSIG"
"6:30 AM EEST on September 16, 2016","2016","09","16","06","30","Europe/Kiev","3:30 AM GMT on September 16, 2016","2016","09","16","03","30","UTC","6.0","42.8","6.0","42.8","100","7.2","4.5","-9999.0","-9999.0","250","WSW","9.0","5.6","1017","30.04","4.5","40.2","-9999","-9999","-9999.00","-9999.00","Clear","clear","0","0","0","0","0","0","METAR UKKK 160330Z 25002MPS 9000 SKC 06/06 Q1017 R26/CLRD70 NOSIG"
"7:00 AM EEST on September 16, 2016","2016","09","16","07","00","Europe/Kiev","4:00 AM GMT on September 16, 2016","2016","09","16","04","00","UTC","6.0","42.8","6.0","42.8","100","3.6","2.2","-9999.0","-9999.0","260","West","6.0","3.7","1017","30.04","-999","-999","-9999","-9999","-9999.00","-9999.00","Clear","clear","0","0","0","0","0","0","METAR UKKK 160400Z 26001MPS 6000 SKC 06/06 Q1017 R26/CLRD70 NOSIG"
"7:30 AM EEST on September 16, 2016","2016","09","16","07","30","Europe/Kiev","4:30 AM GMT on September 16, 2016","2016","09","16","04","30","UTC","8.0","46.4","7.0","44.6","93","3.6","2.2","-9999.0","-9999.0","270","West","-9999.0","-9999.0","1017","30.04","-999","-999","-9999","-9999","-9999.00","-9999.00","Clear","clear","0","0","0","0","0","0","METAR UKKK 160430Z 27001MPS CAVOK 08/07 Q1017 R26/CLRD70 NOSIG"
"8:00 AM EEST on September 16, 2016","2016","09","16","08","00","Europe/Kiev","5:00 AM GMT on September 16, 2016","2016","09","16","05","00","UTC","12.0","53.6","9.0","48.2","82","7.2","4.5","-9999.0","-9999.0","250","WSW","-9999.0","-9999.0","1017","30.04","-999","-999","-9999","-9999","-9999.00","-9999.00","Clear","clear","0","0","0","0","0","0","METAR UKKK 160500Z 25002MPS CAVOK 12/09 Q1017 R26/CLRD70 NOSIG"
"8:30 AM EEST on September 16, 2016","2016","09","16","08","30","Europe/Kiev","5:30 AM GMT on September 16, 2016","2016","09","16","05","30","UTC","13.0","55.4","8.0","46.4","72","7.2","4.5","-9999.0","-9999.0","270","West","-9999.0","-9999.0","1017","30.04","-999","-999","-9999","-9999","-9999.00","-9999.00","Clear","clear","0","0","0","0","0","0","METAR UKKK 160530Z 27002MPS CAVOK 13/08 Q1017 R26/CLRD70 NOSIG"
"9:00 AM EEST on September 16, 2016","2016","09","16","09","00","Europe/Kiev","6:00 AM GMT on September 16, 2016","2016","09","16","06","00","UTC","15","59","7","45","50","7.2","4.5","","","310","NW","20","12","1017","30.03","-999","-999","-9999","-9999","","","","","0","0","0","0","0","0","AAXX 16061 33345 32998 03102 10152 20073 39969 40168 57003 333 20094 555 10018 52005"
"9:00 AM EEST on September 16, 2016","2016","09","16","09","00","Europe/Kiev","6:00 AM GMT on September 16, 2016","2016","09","16","06","00","UTC","14.0","57.2","8.0","46.4","67","14.4","8.9","-9999.0","-9999.0","260","West","-9999.0","-9999.0","1016","30.01","-999","-999","-9999","-9999","-9999.00","-9999.00","Clear","clear","0","0","0","0","0","0","METAR UKKK 160600Z 26004MPS CAVOK 14/08 Q1016 R26/CLRD70 NOSIG"
"9:30 AM EEST on September 16, 2016","2016","09","16","09","30","Europe/Kiev","6:30 AM GMT on September 16, 2016","2016","09","16","06","30","UTC","16.0","60.8","8.0","46.4","59","14.4","8.9","-9999.0","-9999.0","290","WNW","-9999.0","-9999.0","1016","30.01","-999","-999","-9999","-9999","-9999.00","-9999.00","Clear","clear","0","0","0","0","0","0","METAR UKKK 160630Z 29004MPS CAVOK 16/08 Q1016 R26/CLRD70 NOSIG"
"10:00 AM EEST on September 16, 2016","2016","09","16","10","00","Europe/Kiev","7:00 AM GMT on September 16, 2016","2016","09","16","07","00","UTC","17.0","62.6","7.0","44.6","52","14.4","8.9","-9999.0","-9999.0","300","WNW","-9999.0","-9999.0","1017","30.04","-999","-999","-9999","-9999","-9999.00","-9999.00","Clear","clear","0","0","0","0","0","0","METAR UKKK 160700Z 30004MPS CAVOK 17/07 Q1017 R26/CLRD70 NOSIG"
"10:30 AM EEST on September 16, 2016","2016","09","16","10","30","Europe/Kiev","7:30 AM GMT on September 16, 2016","2016","09","16","07","30","UTC","18.0","64.4","7.0","44.6","49","14.4","8.9","-9999.0","-9999.0","320","NW","-9999.0","-9999.0","1016","30.01","-999","-999","-9999","-9999","-9999.00","-9999.00","Clear","clear","0","0","0","0","0","0","METAR UKKK 160730Z 32004MPS 280V340 CAVOK 18/07 Q1016 R26/CLRD70 NOSIG"
"11:00 AM EEST on September 16, 2016","2016","09","16","11","00","Europe/Kiev","8:00 AM GMT on September 16, 2016","2016","09","16","08","00","UTC","19.0","66.2","7.0","44.6","46","14.4","8.9","-9999.0","-9999.0","310","NW","-9999.0","-9999.0","1016","30.01","-999","-999","-9999","-9999","-9999.00","-9999.00","Clear","clear","0","0","0","0","0","0","METAR UKKK 160800Z 31004MPS 270V340 CAVOK 19/07 Q1016 R26/CLRD70 NOSIG"
"11:30 AM EEST on September 16, 2016","2016","09","16","11","30","Europe/Kiev","8:30 AM GMT on September 16, 2016","2016","09","16","08","30","UTC","20.0","68.0","7.0","44.6","43","14.4","8.9","-9999.0","-9999.0","310","NW","-9999.0","-9999.0","1016","30.01","-999","-999","-9999","-9999","-9999.00","-9999.00","Clear","clear","0","0","0","0","0","0","METAR UKKK 160830Z 31004MPS 270V350 CAVOK 20/07 Q1016 R26/CLRD70 NOSIG"
"12:00 PM EEST on September 16, 2016","2016","09","16","12","00","Europe/Kiev","9:00 AM GMT on September 16, 2016","2016","09","16","09","00","UTC","21","69","7","45","30","10.8","6.7","","","300","WNW","20","12","1015","29.98","-999","-999","-9999","-9999","","","","","0","0","0","0","0","0","AAXX 16091 33345 42998 03003 10207 20070 39957 40152 57012 555 10034"
"12:00 PM EEST on September 16, 2016","2016","09","16","12","00","Europe/Kiev","9:00 AM GMT on September 16, 2016","2016","09","16","09","00","UTC","20.0","68.0","7.0","44.6","43","10.8","6.7","-9999.0","-9999.0","330","NNW","-9999.0","-9999.0","1015","29.98","-999","-999","-9999","-9999","-9999.00","-9999.00","Clear","clear","0","0","0","0","0","0","METAR UKKK 160900Z 33003MPS 280V020 CAVOK 20/07 Q1015 R26/CLRD70 NOSIG"
"12:30 PM EEST on September 16, 2016","2016","09","16","12","30","Europe/Kiev","9:30 AM GMT on September 16, 2016","2016","09","16","09","30","UTC","21.0","69.8","6.0","42.8","38","14.4","8.9","-9999.0","-9999.0","290","WNW","-9999.0","-9999.0","1015","29.98","-999","-999","-9999","-9999","-9999.00","-9999.00","Clear","clear","0","0","0","0","0","0","METAR UKKK 160930Z 29004MPS 230V340 CAVOK 21/06 Q1015 R26/CLRD70 NOSIG"
"1:00 PM EEST on September 16, 2016","2016","09","16","13","00","Europe/Kiev","10:00 AM GMT on September 16, 2016","2016","09","16","10","00","UTC","21.0","69.8","7.0","44.6","40","18.0","11.2","-9999.0","-9999.0","310","NW","-9999.0","-9999.0","1015","29.98","-999","-999","-9999","-9999","-9999.00","-9999.00","Clear","clear","0","0","0","0","0","0","METAR UKKK 161000Z 31005MPS CAVOK 21/07 Q1015 R26/CLRD70 NOSIG"
"1:30 PM EEST on September 16, 2016","2016","09","16","13","30","Europe/Kiev","10:30 AM GMT on September 16, 2016","2016","09","16","10","30","UTC","22.0","71.6","7.0","44.6","38","14.4","8.9","-9999.0","-9999.0","320","NW","-9999.0","-9999.0","1014","29.95","-999","-999","-9999","-9999","-9999.00","-9999.00","Clear","clear","0","0","0","0","0","0","METAR UKKK 161030Z 32004MPS 230V020 CAVOK 22/07 Q1014 R26/CLRD70 NOSIG"
"2:00 PM EEST on September 16, 2016","2016","09","16","14","00","Europe/Kiev","11:00 AM GMT on September 16, 2016","2016","09","16","11","00","UTC","23.0","73.4","7.0","44.6","36","14.4","8.9","-9999.0","-9999.0","300","WNW","-9999.0","-9999.0","1014","29.95","-999","-999","-9999","-9999","-9999.00","-9999.00","Clear","clear","0","0","0","0","0","0","METAR UKKK 161100Z 30004MPS 270V330 CAVOK 23/07 Q1014 R26/CLRD70 NOSIG"
"2:30 PM EEST on September 16, 2016","2016","09","16","14","30","Europe/Kiev","11:30 AM GMT on September 16, 2016","2016","09","16","11","30","UTC","23.0","73.4","6.0","42.8","33","18.0","11.2","-9999.0","-9999.0","280","West","-9999.0","-9999.0","1013","29.92","-999","-999","-9999","-9999","-9999.00","-9999.00","Clear","clear","0","0","0","0","0","0","METAR UKKK 161130Z 28005MPS CAVOK 23/06 Q1013 R26/CLRD70 NOSIG"
"3:00 PM EEST on September 16, 2016","2016","09","16","15","00","Europe/Kiev","12:00 PM GMT on September 16, 2016","2016","09","16","12","00","UTC","23","74","5","40","19","10.8","6.7","","","300","WNW","20","12","1013","29.91","-999","-999","-9999","-9999","","","","","0","0","0","0","0","0","AAXX 16121 33345 32998 03003 10233 20047 39934 40127 57023 555 10038"
"3:00 PM EEST on September 16, 2016","2016","09","16","15","00","Europe/Kiev","12:00 PM GMT on September 16, 2016","2016","09","16","12","00","UTC","23.0","73.4","6.0","42.8","33","21.6","13.4","-9999.0","-9999.0","290","WNW","-9999.0","-9999.0","1013","29.92","-999","-999","-9999","-9999","-9999.00","-9999.00","Clear","clear","0","0","0","0","0","0","METAR UKKK 161200Z 29006MPS CAVOK 23/06 Q1013 R26/CLRD70 NOSIG"
"3:30 PM EEST on September 16, 2016","2016","09","16","15","30","Europe/Kiev","12:30 PM GMT on September 16, 2016","2016","09","16","12","30","UTC","24.0","75.2","6.0","42.8","31","21.6","13.4","-9999.0","-9999.0","290","WNW","-9999.0","-9999.0","1013","29.92","-999","-999","-9999","-9999","-9999.00","-9999.00","Clear","clear","0","0","0","0","0","0","METAR UKKK 161230Z 29006MPS 260V320 CAVOK 24/06 Q1013 R26/CLRD70 NOSIG"
"4:00 PM EEST on September 16, 2016","2016","09","16","16","00","Europe/Kiev","1:00 PM GMT on September 16, 2016","2016","09","16","13","00","UTC","24.0","75.2","5.0","41.0","29","14.4","8.9","-9999.0","-9999.0","290","WNW","-9999.0","-9999.0","1012","29.89","-999","-999","-9999","-9999","-9999.00","-9999.00","Clear","clear","0","0","0","0","0","0","METAR UKKK 161300Z 29004MPS 250V330 CAVOK 24/05 Q1012 R26/CLRD70 NOSIG"
"4:30 PM EEST on September 16, 2016","2016","09","16","16","30","Europe/Kiev","1:30 PM GMT on September 16, 2016","2016","09","16","13","30","UTC","24.0","75.2","5.0","41.0","29","21.6","13.4","-9999.0","-9999.0","300","WNW","-9999.0","-9999.0","1012","29.89","-999","-999","-9999","-9999","-9999.00","-9999.00","Clear","clear","0","0","0","0","0","0","METAR UKKK 161330Z 30006MPS 270V330 CAVOK 24/05 Q1012 R26/CLRD70 NOSIG"
"5:00 PM EEST on September 16, 2016","2016","09","16","17","00","Europe/Kiev","2:00 PM GMT on September 16, 2016","2016","09","16","14","00","UTC","23.0","73.4","5.0","41.0","31","18.0","11.2","-9999.0","-9999.0","290","WNW","-9999.0","-9999.0","1012","29.89","-999","-999","-9999","-9999","-9999.00","-9999.00","Clear","clear","0","0","0","0","0","0","METAR UKKK 161400Z 29005MPS CAVOK 23/05 Q1012 R26/CLRD70 NOSIG"
"5:30 PM EEST on September 16, 2016","2016","09","16","17","30","Europe/Kiev","2:30 PM GMT on September 16, 2016","2016","09","16","14","30","UTC","23.0","73.4","5.0","41.0","31","21.6","13.4","-9999.0","-9999.0","290","WNW","-9999.0","-9999.0","1012","29.89","-999","-999","-9999","-9999","-9999.00","-9999.00","Clear","clear","0","0","0","0","0","0","METAR UKKK 161430Z 29006MPS CAVOK 23/05 Q1012 R26/CLRD70 NOSIG"
"6:00 PM EEST on September 16, 2016","2016","09","16","18","00","Europe/Kiev","3:00 PM GMT on September 16, 2016","2016","09","16","15","00","UTC","23","74","5","41","20","10.8","6.7","","","310","NW","20","12","1011","29.87","-999","-999","-9999","-9999","","","","","0","0","0","0","0","0","AAXX 16151 33345 42998 03103 10233 20050 39922 40114 56012 555 10025"
"6:00 PM EEST on September 16, 2016","2016","09","16","18","00","Europe/Kiev","3:00 PM GMT on September 16, 2016","2016","09","16","15","00","UTC","23.0","73.4","5.0","41.0","31","18.0","11.2","-9999.0","-9999.0","290","WNW","-9999.0","-9999.0","1012","29.89","-999","-999","-9999","-9999","-9999.00","-9999.00","Clear","clear","0","0","0","0","0","0","METAR UKKK 161500Z 29005MPS CAVOK 23/05 Q1012 R26/CLRD70 NOSIG"
"6:30 PM EEST on September 16, 2016","2016","09","16","18","30","Europe/Kiev","3:30 PM GMT on September 16, 2016","2016","09","16","15","30","UTC","22.0","71.6","5.0","41.0","33","14.4","8.9","-9999.0","-9999.0","290","WNW","-9999.0","-9999.0","1012","29.89","-999","-999","-9999","-9999","-9999.00","-9999.00","Clear","clear","0","0","0","0","0","0","METAR UKKK 161530Z 29004MPS CAVOK 22/05 Q1012 R26/CLRD70 NOSIG"
"7:00 PM EEST on September 16, 2016","2016","09","16","19","00","Europe/Kiev","4:00 PM GMT on September 16, 2016","2016","09","16","16","00","UTC","20.0","68.0","5.0","41.0","37","10.8","6.7","-9999.0","-9999.0","300","WNW","-9999.0","-9999.0","1012","29.89","-999","-999","-9999","-9999","-9999.00","-9999.00","Clear","clear","0","0","0","0","0","0","METAR UKKK 161600Z 30003MPS CAVOK 20/05 Q1012 R26/CLRD70 NOSIG"
"7:30 PM EEST on September 16, 2016","2016","09","16","19","30","Europe/Kiev","4:30 PM GMT on September 16, 2016","2016","09","16","16","30","UTC","19.0","66.2","6.0","42.8","43","10.8","6.7","-9999.0","-9999.0","320","NW","-9999.0","-9999.0","1012","29.89","-999","-999","-9999","-9999","-9999.00","-9999.00","Clear","clear","0","0","0","0","0","0","METAR UKKK 161630Z 32003MPS CAVOK 19/06 Q1012 R26/CLRD70 NOSIG"
"8:00 PM EEST on September 16, 2016","2016","09","16","20","00","Europe/Kiev","5:00 PM GMT on September 16, 2016","2016","09","16","17","00","UTC","18.0","64.4","6.0","42.8","45","7.2","4.5","-9999.0","-9999.0","290","WNW","8.0","5.0","1012","29.89","-999","-999","-9999","-9999","-9999.00","-9999.00","Clear","clear","0","0","0","0","0","0","METAR UKKK 161700Z 29002MPS 8000 SKC 18/06 Q1012 R26/CLRD70 NOSIG"
"8:30 PM EEST on September 16, 2016","2016","09","16","20","30","Europe/Kiev","5:30 PM GMT on September 16, 2016","2016","09","16","17","30","UTC","19.0","66.2","6.0","42.8","43","14.4","8.9","-9999.0","-9999.0","320","NW","-9999.0","-9999.0","1012","29.89","-999","-999","-9999","-9999","-9999.00","-9999.00","Clear","clear","0","0","0","0","0","0","METAR UKKK 161730Z 32004MPS CAVOK 19/06 Q1012 R26/CLRD70 TEMPO 2000 FU"
"9:00 PM EEST on September 16, 2016","2016","09","16","21","00","Europe/Kiev","6:00 PM GMT on September 16, 2016","2016","09","16","18","00","UTC","19","66","6","43","31","7.2","4.5","","","0","North","20","12","1012","29.90","-999","-999","-9999","-9999","","","","","0","0","0","0","0","0","AAXX 16181 33345 32998 03602 10187 20060 39929 40124 53007 333 10241 555 10014"
"9:00 PM EEST on September 16, 2016","2016","09","16","21","00","Europe/Kiev","6:00 PM GMT on September 16, 2016","2016","09","16","18","00","UTC","19.0","66.2","6.0","42.8","43","10.8","6.7","-9999.0","-9999.0","340","NNW","-9999.0","-9999.0","1012","29.89","-999","-999","-9999","-9999","-9999.00","-9999.00","Clear","clear","0","0","0","0","0","0","METAR UKKK 161800Z 34003MPS CAVOK 19/06 Q1012 R26/CLRD70 TEMPO 2000 FU"
"9:30 PM EEST on September 16, 2016","2016","09","16","21","30","Europe/Kiev","6:30 PM GMT on September 16, 2016","2016","09","16","18","30","UTC","18.0","64.4","6.0","42.8","45","10.8","6.7","-9999.0","-9999.0","340","NNW","-9999.0","-9999.0","1012","29.89","-999","-999","-9999","-9999","-9999.00","-9999.00","Clear","clear","0","0","0","0","0","0","METAR UKKK 161830Z 34003MPS CAVOK 18/06 Q1012 R26/CLRD70 TEMPO 2000 FU"
"10:00 PM EEST on September 16, 2016","2016","09","16","22","00","Europe/Kiev","7:00 PM GMT on September 16, 2016","2016","09","16","19","00","UTC","14.0","57.2","7.0","44.6","63","7.2","4.5","-9999.0","-9999.0","320","NW","-9999.0","-9999.0","1012","29.89","-999","-999","-9999","-9999","-9999.00","-9999.00","Clear","clear","0","0","0","0","0","0","METAR UKKK 161900Z 32002MPS CAVOK 14/07 Q1012 R26/CLRD70 TEMPO 2000 FU"
"10:30 PM EEST on September 16, 2016","2016","09","16","22","30","Europe/Kiev","7:30 PM GMT on September 16, 2016","2016","09","16","19","30","UTC","16.0","60.8","6.0","42.8","52","7.2","4.5","-9999.0","-9999.0","320","NW","-9999.0","-9999.0","1012","29.89","-999","-999","-9999","-9999","-9999.00","-9999.00","Clear","clear","0","0","0","0","0","0","METAR UKKK 161930Z 32002MPS CAVOK 16/06 Q1012 R26/CLRD70 TEMPO 2000 FU"
"11:00 PM EEST on September 16, 2016","2016","09","16","23","00","Europe/Kiev","8:00 PM GMT on September 16, 2016","2016","09","16","20","00","UTC","15.0","59.0","6.0","42.8","55","10.8","6.7","-9999.0","-9999.0","330","NNW","-9999.0","-9999.0","1012","29.89","-999","-999","-9999","-9999","-9999.00","-9999.00","Clear","clear","0","0","0","0","0","0","METAR UKKK 162000Z 33003MPS CAVOK 15/06 Q1012 R26/CLRD70 TEMPO 2000 FU"
"11:30 PM EEST on September 16, 2016","2016","09","16","23","30","Europe/Kiev","8:30 PM GMT on September 16, 2016","2016","09","16","20","30","UTC","16.0","60.8","7.0","44.6","55","14.4","8.9","-9999.0","-9999.0","360","North","-9999.0","-9999.0","1013","29.92","-999","-999","-9999","-9999","-9999.00","-9999.00","Clear","clear","0","0","0","0","0","0","METAR UKKK 162030Z 36004MPS CAVOK 16/07 Q1013 R26/CLRD70 TEMPO 2000 FU"
"12:00 AM EEST on September 17, 2016","2016","09","17","00","00","Europe/Kiev","9:00 PM GMT on September 16, 2016","2016","09","16","21","00","UTC","17","62","8","46","46","7.2","4.5","","","50","NE","20","12","1013","29.91","-999","-999","-9999","-9999","","","","","0","0","0","0","0","0","AAXX 16211 33345 42998 00502 10168 20080 39932 40129 52003 555 10013"
"12:00 AM EEST on September 17, 2016","2016","09","17","00","00","Europe/Kiev","9:00 PM GMT on September 16, 2016","2016","09","16","21","00","UTC","16.0","60.8","8.0","46.4","59","18.0","11.2","-9999.0","-9999.0","40","NE","-9999.0","-9999.0","1013","29.92","-999","-999","-9999","-9999","-9999.00","-9999.00","Clear","clear","0","0","0","0","0","0","METAR UKKK 162100Z 04005MPS CAVOK 16/08 Q1013 R08/CLRD70 TEMPO 2000 FU"
"12:30 AM EEST on September 17, 2016","2016","09","17","00","30","Europe/Kiev","9:30 PM GMT on September 16, 2016","2016","09","16","21","30","UTC","14.0","57.2","8.0","46.4","67","10.8","6.7","-9999.0","-9999.0","60","ENE","-9999.0","-9999.0","1013","29.92","-999","-999","-9999","-9999","-9999.00","-9999.00","Clear","clear","0","0","0","0","0","0","METAR UKKK 162130Z 06003MPS CAVOK 14/08 Q1013 R08/CLRD70 TEMPO 2000 FU"
"1:00 AM EEST on September 17, 2016","2016","09","17","01","00","Europe/Kiev","10:00 PM GMT on September 16, 2016","2016","09","16","22","00","UTC","15.0","59.0","9.0","48.2","67","10.8","6.7","-9999.0","-9999.0","40","NE","-9999.0","-9999.0","1013","29.92","-999","-999","-9999","-9999","-9999.00","-9999.00","Clear","clear","0","0","0","0","0","0","METAR UKKK 162200Z 04003MPS CAVOK 15/09 Q1013 R08/CLRD70 TEMPO 2000 FU"
"1:30 AM EEST on September 17, 2016","2016","09","17","01","30","Europe/Kiev","10:30 PM GMT on September 16, 2016","2016","09","16","22","30","UTC","14.0","57.2","9.0","48.2","72","7.2","4.5","-9999.0","-9999.0","40","NE","-9999.0","-9999.0","1013","29.92","-999","-999","-9999","-9999","-9999.00","-9999.00","Clear","clear","0","0","0","0","0","0","METAR UKKK 162230Z 04002MPS CAVOK 14/09 Q1013 R08/CLRD70 TEMPO 2000 FU"
"2:00 AM EEST on September 17, 2016","2016","09","17","02","00","Europe/Kiev","11:00 PM GMT on September 16, 2016","2016","09","16","23","00","UTC","14.0","57.2","9.0","48.2","72","10.8","6.7","-9999.0","-9999.0","30","NNE","-9999.0","-9999.0","1013","29.92","-999","-999","-9999","-9999","-9999.00","-9999.00","Clear","clear","0","0","0","0","0","0","METAR UKKK 162300Z 03003MPS CAVOK 14/09 Q1013 R08/CLRD70 TEMPO 2000 FU"
"2:30 AM EEST on September 17, 2016","2016","09","17","02","30","Europe/Kiev","11:30 PM GMT on September 16, 2016","2016","09","16","23","30","UTC","13.0","55.4","10.0","50.0","82","3.6","2.2","-9999.0","-9999.0","0","Variable","-9999.0","-9999.0","1013","29.92","-999","-999","-9999","-9999","-9999.00","-9999.00","Clear","clear","0","0","0","0","0","0","METAR UKKK 162330Z VRB01MPS CAVOK 13/10 Q1013 R08/CLRD70 TEMPO 2000 FU"
"3:00 AM EEST on September 17, 2016","2016","09","17","03","00","Europe/Kiev","12:00 AM GMT on September 17, 2016","2016","09","17","00","00","UTC","14","58","10","50","68","3.6","2.2","","","50","NE","20","12","1013","29.93","-999","-999","-9999","-9999","","","Mostly Cloudy","mostlycloudy","0","0","0","0","0","0","AAXX 17001 33345 32998 60501 10143 20101 39935 40133 52003 86030 555 10012"
"3:00 AM EEST on September 17, 2016","2016","09","17","03","00","Europe/Kiev","12:00 AM GMT on September 17, 2016","2016","09","17","00","00","UTC","12.0","53.6","9.0","48.2","82","7.2","4.5","-9999.0","-9999.0","70","ENE","-9999.0","-9999.0","1013","29.92","-999","-999","-9999","-9999","-9999.00","-9999.00","Clear","clear","0","0","0","0","0","0","METAR UKKK 170000Z 07002MPS CAVOK 12/09 Q1013 R08/CLRD70 TEMPO 2000 FU"
"3:30 AM EEST on September 17, 2016","2016","09","17","03","30","Europe/Kiev","12:30 AM GMT on September 17, 2016","2016","09","17","00","30","UTC","11.0","51.8","9.0","48.2","88","0.0","0.0","-9999.0","-9999.0","0","North","-9999.0","-9999.0","1013","29.92","-999","-999","-9999","-9999","-9999.00","-9999.00","Clear","clear","0","0","0","0","0","0","METAR UKKK 170030Z 00000MPS CAVOK 11/09 Q1013 R08/CLRD70 TEMPO 2000 FU"
"4:00 AM EEST on September 17, 2016","2016","09","17","04","00","Europe/Kiev","1:00 AM GMT on September 17, 2016","2016","09","17","01","00","UTC","11.0","51.8","10.0","50.0","94","0.0","0.0","-9999.0","-9999.0","0","North","-9999.0","-9999.0","1013","29.92","-999","-999","-9999","-9999","-9999.00","-9999.00","Clear","clear","0","0","0","0","0","0","METAR UKKK 170100Z 00000MPS CAVOK 11/10 Q1013 R08/CLRD70 TEMPO 2000 FU"
"4:30 AM EEST on September 17, 2016","2016","09","17","04","30","Europe/Kiev","1:30 AM GMT on September 17, 2016","2016","09","17","01","30","UTC","10.0","50.0","9.0","48.2","94","3.6","2.2","-9999.0","-9999.0","270","West","-9999.0","-9999.0","1013","29.92","-999","-999","-9999","-9999","-9999.00","-9999.00","Clear","clear","0","0","0","0","0","0","METAR UKKK 170130Z 27001MPS CAVOK 10/09 Q1013 R08/CLRD70 TEMPO 2000 FU"
"5:00 AM EEST on September 17, 2016","2016","09","17","05","00","Europe/Kiev","2:00 AM GMT on September 17, 2016","2016","09","17","02","00","UTC","9.0","48.2","8.0","46.4","93","3.6","2.2","-9999.0","-9999.0","280","West","-9999.0","-9999.0","1013","29.92","-999","-999","-9999","-9999","-9999.00","-9999.00","Clear","clear","0","0","0","0","0","0","METAR UKKK 170200Z 28001MPS CAVOK 09/08 Q1013 R26/CLRD70 TEMPO 2000 FU"
"5:30 AM EEST on September 17, 2016","2016","09","17","05","30","Europe/Kiev","2:30 AM GMT on September 17, 2016","2016","09","17","02","30","UTC","10.0","50.0","9.0","48.2","94","7.2","4.5","-9999.0","-9999.0","260","West","-9999.0","-9999.0","1014","29.95","-999","-999","-9999","-9999","-9999.00","-9999.00","Clear","clear","0","0","0","0","0","0","METAR UKKK 170230Z 26002MPS CAVOK 10/09 Q1014 R26/CLRD70 NOSIG"
"6:00 AM EEST on September 17, 2016","2016","09","17","06","00","Europe/Kiev","3:00 AM GMT on September 17, 2016","2016","09","17","03","00","UTC","12","54","10","50","80","0.0","0.0","","","","","20","12","1014","29.95","-999","-999","-9999","-9999","","","Scattered Clouds","partlycloudy","0","0","0","0","0","0","AAXX 17031 33345 42998 20000 10125 20098 39940 40140 52005 82040 555 10009"
"6:00 AM EEST on September 17, 2016","2016","09","17","06","00","Europe/Kiev","3:00 AM GMT on September 17, 2016","2016","09","17","03","00","UTC","10.0","50.0","9.0","48.2","94","7.2","4.5","-9999.0","-9999.0","280","West","-9999.0","-9999.0","1014","29.95","-999","-999","-9999","-9999","-9999.00","-9999.00","Clear","clear","0","0","0","0","0","0","METAR UKKK 170300Z 28002MPS CAVOK 10/09 Q1014 R26/CLRD70 NOSIG"
"6:30 AM EEST on September 17, 2016","2016","09","17","06","30","Europe/Kiev","3:30 AM GMT on September 17, 2016","2016","09","17","03","30","UTC","9.0","48.2","8.0","46.4","93","7.2","4.5","-9999.0","-9999.0","270","West","-9999.0","-9999.0","1014","29.95","-999","-999","-9999","-9999","-9999.00","-9999.00","Clear","clear","0","0","0","0","0","0","METAR UKKK 170330Z 27002MPS CAVOK 09/08 Q1014 R26/CLRD70 NOSIG"
"7:00 AM EEST on September 17, 2016","2016","09","17","07","00","Europe/Kiev","4:00 AM GMT on September 17, 2016","2016","09","17","04","00","UTC","8.0","46.4","8.0","46.4","100","7.2","4.5","-9999.0","-9999.0","270","West","9.0","5.6","1014","29.95","6.9","44.4","-9999","-9999","-9999.00","-9999.00","Clear","clear","0","0","0","0","0","0","METAR UKKK 170400Z 27002MPS 9000 SKC 08/08 Q1014 R26/CLRD70 NOSIG"
"7:30 AM EEST on September 17, 2016","2016","09","17","07","30","Europe/Kiev","4:30 AM GMT on September 17, 2016","2016","09","17","04","30","UTC","10.0","50.0","9.0","48.2","94","7.2","4.5","-9999.0","-9999.0","280","West","-9999.0","-9999.0","1014","29.95","-999","-999","-9999","-9999","-9999.00","-9999.00","Clear","clear","0","0","0","0","0","0","METAR UKKK 170430Z 28002MPS CAVOK 10/09 Q1014 R26/CLRD70 NOSIG"
"8:00 AM EEST on September 17, 2016","2016","09","17","08","00","Europe/Kiev","5:00 AM GMT on September 17, 2016","2016","09","17","05","00","UTC","13.0","55.4","11.0","51.8","88","3.6","2.2","-9999.0","-9999.0","0","Variable","-9999.0","-9999.0","1014","29.95","-999","-999","-9999","-9999","-9999.00","-9999.00","Clear","clear","0","0","0","0","0","0","METAR UKKK 170500Z VRB01MPS CAVOK 13/11 Q1014 R26/CLRD70 NOSIG"
"8:30 AM EEST on September 17, 2016","2016","09","17","08","30","Europe/Kiev","5:30 AM GMT on September 17, 2016","2016","09","17","05","30","UTC","14.0","57.2","11.0","51.8","82","7.2","4.5","-9999.0","-9999.0","360","North","-9999.0","-9999.0","1014","29.95","-999","-999","-9999","-9999","-9999.00","-9999.00","Clear","clear","0","0","0","0","0","0","METAR UKKK 170530Z 36002MPS 270V040 CAVOK 14/11 Q1014 R26/CLRD70 NOSIG"
"9:00 AM EEST on September 17, 2016","2016","09","17","09","00","Europe/Kiev","6:00 AM GMT on September 17, 2016","2016","09","17","06","00","UTC","14","58","10","50","67","7.2","4.5","","","30","NNE","20","12","1015","29.97","-999","-999","-9999","-9999","","","","","0","0","0","0","0","0","AAXX 17061 33345 32998 00302 10144 20100 39948 40147 52008 333 20119 555 10018"
"9:00 AM EEST on September 17, 2016","2016","09","17","09","00","Europe/Kiev","6:00 AM GMT on September 17, 2016","2016","09","17","06","00","UTC","15.0","59.0","11.0","51.8","77","10.8","6.7","-9999.0","-9999.0","30","NNE","-9999.0","-9999.0","1014","29.95","-999","-999","-9999","-9999","-9999.00","-9999.00","Clear","clear","0","0","0","0","0","0","METAR UKKK 170600Z 03003MPS 340V060 CAVOK 15/11 Q1014 R26/CLRD70 NOSIG"
"9:30 AM EEST on September 17, 2016","2016","09","17","09","30","Europe/Kiev","6:30 AM GMT on September 17, 2016","2016","09","17","06","30","UTC","15.0","59.0","10.0","50.0","72","10.8","6.7","-9999.0","-9999.0","20","NNE","-9999.0","-9999.0","1014","29.95","-999","-999","-9999","-9999","-9999.00","-9999.00","Clear","clear","0","0","0","0","0","0","METAR UKKK 170630Z 02003MPS 350V050 CAVOK 15/10 Q1014 R26/CLRD70 NOSIG"
"10:00 AM EEST on September 17, 2016","2016","09","17","10","00","Europe/Kiev","7:00 AM GMT on September 17, 2016","2016","09","17","07","00","UTC","16.0","60.8","10.0","50.0","68","10.8","6.7","-9999.0","-9999.0","360","North","-9999.0","-9999.0","1015","29.98","-999","-999","-9999","-9999","-9999.00","-9999.00","Clear","clear","0","0","0","0","0","0","METAR UKKK 170700Z 36003MPS 320V070 CAVOK 16/10 Q1015 R26/CLRD70 NOSIG"
"10:30 AM EEST on September 17, 2016","2016","09","17","10","30","Europe/Kiev","7:30 AM GMT on September 17, 2016","2016","09","17","07","30","UTC","16.0","60.8","9.0","48.2","63","14.4","8.9","-9999.0","-9999.0","10","North","-9999.0","-9999.0","1015","29.98","-999","-999","-9999","-9999","-9999.00","-9999.00","Clear","clear","0","0","0","0","0","0","METAR UKKK 170730Z 01004MPS 330V060 CAVOK 16/09 Q1015 R26/CLRD70 NOSIG"
"11:00 AM EEST on September 17, 2016","2016","09","17","11","00","Europe/Kiev","8:00 AM GMT on September 17, 2016","2016","09","17","08","00","UTC","17.0","62.6","9.0","48.2","59","14.4","8.9","-9999.0","-9999.0","30","NNE","-9999.0","-9999.0","1015","29.98","-999","-999","-9999","-9999","-9999.00","-9999.00","Clear","clear","0","0","0","0","0","0","METAR UKKK 170800Z 03004MPS 320V080 CAVOK 17/09 Q1015 R26/CLRD70 NOSIG"
"11:30 AM EEST on September 17, 2016","2016","09","17","11","30","Europe/Kiev","8:30 AM GMT on September 17, 2016","2016","09","17","08","30","UTC","16.0","60.8","8.0","46.4","59","14.4","8.9","-9999.0","-9999.0","30","NNE","-9999.0","-9999.0","1015","29.98","-999","-999","-9999","-9999","-9999.00","-9999.00","Clear","clear","0","0","0","0","0","0","METAR UKKK 170830Z 03004MPS 330V090 CAVOK 16/08 Q1015 R26/CLRD70 NOSIG"
"12:00 PM EEST on September 17, 2016","2016","09","17","12","00","Europe/Kiev","9:00 AM GMT on September 17, 2016","2016","09","17","09","00","UTC","18","64","8","47","43","10.8","6.7","","","30","NNE","20","12","1015","29.96","-999","-999","-9999","-9999","","","Partly Cloudy","partlycloudy","0","0","0","0","0","0","AAXX 17091 33345 42598 30303 10178 20083 39950 40146 51002 83200 555 10033"
"12:00 PM EEST on September 17, 2016","2016","09","17","12","00","Europe/Kiev","9:00 AM GMT on September 17, 2016","2016","09","17","09","00","UTC","18.0","64.4","8.0","46.4","52","14.4","8.9","-9999.0","-9999.0","10","North","10.0","6.2","1015","29.98","-999","-999","-9999","-9999","-9999.00","-9999.00","Scattered Clouds","partlycloudy","0","0","0","0","0","0","METAR UKKK 170900Z 01004MPS 320V060 9999 SCT036 18/08 Q1015 R26/CLRD70 NOSIG"
"12:30 PM EEST on September 17, 2016","2016","09","17","12","30","Europe/Kiev","9:30 AM GMT on September 17, 2016","2016","09","17","09","30","UTC","17.0","62.6","8.0","46.4","55","14.4","8.9","-9999.0","-9999.0","10","North","10.0","6.2","1015","29.98","-999","-999","-9999","-9999","-9999.00","-9999.00","Scattered Clouds","partlycloudy","0","0","0","0","0","0","METAR UKKK 170930Z 01004MPS 340V040 9999 SCT043 17/08 Q1015 R26/CLRD70 NOSIG"
"1:00 PM EEST on September 17, 2016","2016","09","17","13","00","Europe/Kiev","10:00 AM GMT on September 17, 2016","2016","09","17","10","00","UTC","18.0","64.4","7.0","44.6","49","18.0","11.2","-9999.0","-9999.0","20","NNE","10.0","6.2","1015","29.98","-999","-999","-9999","-9999","-9999.00","-9999.00","Scattered Clouds","partlycloudy","0","0","0","0","0","0","METAR UKKK 171000Z 02005MPS 330V050 9999 SCT043 18/07 Q1015 R26/CLRD70 NOSIG"
"1:30 PM EEST on September 17, 2016","2016","09","17","13","30","Europe/Kiev","10:30 AM GMT on September 17, 2016","2016","09","17","10","30","UTC","18.0","64.4","7.0","44.6","49","14.4","8.9","-9999.0","-9999.0","10","North","10.0","6.2","1015","29.98","-999","-999","-9999","-9999","-9999.00","-9999.00","Scattered Clouds","partlycloudy","0","0","0","0","0","0","METAR UKKK 171030Z 01004MPS 330V060 9999 SCT046 18/07 Q1015 R26/CLRD70 NOSIG"
"2:00 PM EEST on September 17, 2016","2016","09","17","14","00","Europe/Kiev","11:00 AM GMT on September 17, 2016","2016","09","17","11","00","UTC","19.0","66.2","7.0","44.6","46","14.4","8.9","-9999.0","-9999.0","20","NNE","10.0","6.2","1015","29.98","-999","-999","-9999","-9999","-9999.00","-9999.00","Scattered Clouds","partlycloudy","0","0","0","0","0","0","METAR UKKK 171100Z 02004MPS 320V060 9999 SCT045 19/07 Q1015 R26/CLRD70 NOSIG"
"2:30 PM EEST on September 17, 2016","2016","09","17","14","30","Europe/Kiev","11:30 AM GMT on September 17, 2016","2016","09","17","11","30","UTC","19.0","66.2","7.0","44.6","46","14.4","8.9","-9999.0","-9999.0","350","North","10.0","6.2","1014","29.95","-999","-999","-9999","-9999","-9999.00","-9999.00","Scattered Clouds","partlycloudy","0","0","0","0","0","0","METAR UKKK 171130Z 35004MPS 310V060 9999 SCT046 19/07 Q1014 R08/CLRD70 NOSIG"
"3:00 PM EEST on September 17, 2016","2016","09","17","15","00","Europe/Kiev","12:00 PM GMT on September 17, 2016","2016","09","17","12","00","UTC","18","64","6","42","33","10.8","6.7","","","40","NE","20","12","1014","29.96","-999","-999","-9999","-9999","","","Scattered Clouds","partlycloudy","0","0","0","0","0","0","AAXX 17121 33345 32598 20403 10180 20055 39948 40144 58002 82200 555 10035"
"3:00 PM EEST on September 17, 2016","2016","09","17","15","00","Europe/Kiev","12:00 PM GMT on September 17, 2016","2016","09","17","12","00","UTC","18.0","64.4","7.0","44.6","49","14.4","8.9","-9999.0","-9999.0","40","NE","10.0","6.2","1014","29.95","-999","-999","-9999","-9999","-9999.00","-9999.00","Scattered Clouds","partlycloudy","0","0","0","0","0","0","METAR UKKK 171200Z 04004MPS 350V090 9999 SCT046 18/07 Q1014 R08/CLRD70 NOSIG"
"3:30 PM EEST on September 17, 2016","2016","09","17","15","30","Europe/Kiev","12:30 PM GMT on September 17, 2016","2016","09","17","12","30","UTC","18.0","64.4","6.0","42.8","45","10.8","6.7","-9999.0","-9999.0","40","NE","-9999.0","-9999.0","1015","29.98","-999","-999","-9999","-9999","-9999.00","-9999.00","Clear","clear","0","0","0","0","0","0","METAR UKKK 171230Z 04003MPS 010V110 CAVOK 18/06 Q1015 R08/CLRD70 NOSIG"
"4:00 PM EEST on September 17, 2016","2016","09","17","16","00","Europe/Kiev","1:00 PM GMT on September 17, 2016","2016","09","17","13","00","UTC","18.0","64.4","6.0","42.8","45","14.4","8.9","-9999.0","-9999.0","20","NNE","-9999.0","-9999.0","1015","29.98","-999","-999","-9999","-9999","-9999.00","-9999.00","Clear","clear","0","0","0","0","0","0","METAR UKKK 171300Z 02004MPS 320V060 CAVOK 18/06 Q1015 R08/CLRD70 NOSIG"
"4:30 PM EEST on September 17, 2016","2016","09","17","16","30","Europe/Kiev","1:30 PM GMT on September 17, 2016","2016","09","17","13","30","UTC","19.0","66.2","6.0","42.8","43","18.0","11.2","-9999.0","-9999.0","10","North","-9999.0","-9999.0","1014","29.95","-999","-999","-9999","-9999","-9999.00","-9999.00","Clear","clear","0","0","0","0","0","0","METAR UKKK 171330Z 01005MPS CAVOK 19/06 Q1014 R08/CLRD70 NOSIG"
"5:00 PM EEST on September 17, 2016","2016","09","17","17","00","Europe/Kiev","2:00 PM GMT on September 17, 2016","2016","09","17","14","00","UTC","18.0","64.4","6.0","42.8","45","18.0","11.2","36.0","22.4","20","NNE","-9999.0","-9999.0","1015","29.98","-999","-999","-9999","-9999","-9999.00","-9999.00","Clear","clear","0","0","0","0","0","0","METAR UKKK 171400Z 02005G10MPS 340V050 CAVOK 18/06 Q1015 R08/CLRD70 NOSIG"
"5:30 PM EEST on September 17, 2016","2016","09","17","17","30","Europe/Kiev","2:30 PM GMT on September 17, 2016","2016","09","17","14","30","UTC","18.0","64.4","6.0","42.8","45","14.4","8.9","-9999.0","-9999.0","360","North","-9999.0","-9999.0","1015","29.98","-999","-999","-9999","-9999","-9999.00","-9999.00","Clear","clear","0","0","0","0","0","0","METAR UKKK 171430Z 36004MPS 330V030 CAVOK 18/06 Q1015 R08/CLRD70 NOSIG"
"6:00 PM EEST on September 17, 2016","2016","09","17","18","00","Europe/Kiev","3:00 PM GMT on September 17, 2016","2016","09","17","15","00","UTC","18","64","5","40","30","7.2","4.5","","","40","NE","20","12","1015","29.97","-999","-999","-9999","-9999","","","Scattered Clouds","partlycloudy","0","0","0","0","0","0","AAXX 17151 33345 42998 20402 10176 20046 39952 40149 53004 82060 555 10022"
"6:00 PM EEST on September 17, 2016","2016","09","17","18","00","Europe/Kiev","3:00 PM GMT on September 17, 2016","2016","09","17","15","00","UTC","17.0","62.6","6.0","42.8","48","14.4","8.9","-9999.0","-9999.0","20","NNE","-9999.0","-9999.0","1015","29.98","-999","-999","-9999","-9999","-9999.00","-9999.00","Clear","clear","0","0","0","0","0","0","METAR UKKK 171500Z 02004MPS CAVOK 17/06 Q1015 R08/CLRD70 NOSIG"
"6:30 PM EEST on September 17, 2016","2016","09","17","18","30","Europe/Kiev","3:30 PM GMT on September 17, 2016","2016","09","17","15","30","UTC","17.0","62.6","5.0","41.0","45","10.8","6.7","-9999.0","-9999.0","360","North","-9999.0","-9999.0","1015","29.98","-999","-999","-9999","-9999","-9999.00","-9999.00","Clear","clear","0","0","0","0","0","0","METAR UKKK 171530Z 36003MPS 330V030 CAVOK 17/05 Q1015 R08/CLRD70 NOSIG"
"7:00 PM EEST on September 17, 2016","2016","09","17","19","00","Europe/Kiev","4:00 PM GMT on September 17, 2016","2016","09","17","16","00","UTC","15.0","59.0","5.0","41.0","51","10.8","6.7","-9999.0","-9999.0","360","North","-9999.0","-9999.0","1015","29.98","-999","-999","-9999","-9999","-9999.00","-9999.00","Clear","clear","0","0","0","0","0","0","METAR UKKK 171600Z 36003MPS 340V040 CAVOK 15/05 Q1015 R08/CLRD70 NOSIG"
"7:30 PM EEST on September 17, 2016","2016","09","17","19","30","Europe/Kiev","4:30 PM GMT on September 17, 2016","2016","09","17","16","30","UTC","14.0","57.2","6.0","42.8","59","10.8","6.7","-9999.0","-9999.0","20","NNE","-9999.0","-9999.0","1015","29.98","-999","-999","-9999","-9999","-9999.00","-9999.00","Clear","clear","0","0","0","0","0","0","METAR UKKK 171630Z 02003MPS CAVOK 14/06 Q1015 R08/CLRD70 NOSIG"
"8:00 PM EEST on September 17, 2016","2016","09","17","20","00","Europe/Kiev","5:00 PM GMT on September 17, 2016","2016","09","17","17","00","UTC","15.0","59.0","6.0","42.8","55","18.0","11.2","-9999.0","-9999.0","50","NE","-9999.0","-9999.0","1015","29.98","-999","-999","-9999","-9999","-9999.00","-9999.00","Clear","clear","0","0","0","0","0","0","METAR UKKK 171700Z 05005MPS CAVOK 15/06 Q1015 R08/CLRD70 NOSIG"
"8:30 PM EEST on September 17, 2016","2016","09","17","20","30","Europe/Kiev","5:30 PM GMT on September 17, 2016","2016","09","17","17","30","UTC","14.0","57.2","7.0","44.6","63","14.4","8.9","-9999.0","-9999.0","70","ENE","-9999.0","-9999.0","1015","29.98","-999","-999","-9999","-9999","-9999.00","-9999.00","Clear","clear","0","0","0","0","0","0","METAR UKKK 171730Z 07004MPS CAVOK 14/07 Q1015 R08/CLRD70 NOSIG"
"9:00 PM EEST on September 17, 2016","2016","09","17","21","00","Europe/Kiev","6:00 PM GMT on September 17, 2016","2016","09","17","18","00","UTC","14","57","7","45","55","10.8","6.7","","","90","East","20","12","1016","30.00","-999","-999","-9999","-9999","","","","","0","0","0","0","0","0","AAXX 17181 33345 32998 00903 10140 20073 39959 40158 52007 333 10187 555 10013"
"9:00 PM EEST on September 17, 2016","2016","09","17","21","00","Europe/Kiev","6:00 PM GMT on September 17, 2016","2016","09","17","18","00","UTC","12.0","53.6","7.0","44.6","72","14.4","8.9","-9999.0","-9999.0","80","East","-9999.0","-9999.0","1015","29.98","-999","-999","-9999","-9999","-9999.00","-9999.00","Clear","clear","0","0","0","0","0","0","METAR UKKK 171800Z 08004MPS CAVOK 12/07 Q1015 R08/CLRD70 NOSIG"
"9:30 PM EEST on September 17, 2016","2016","09","17","21","30","Europe/Kiev","6:30 PM GMT on September 17, 2016","2016","09","17","18","30","UTC","12.0","53.6","7.0","44.6","72","10.8","6.7","-9999.0","-9999.0","70","ENE","-9999.0","-9999.0","1016","30.01","-999","-999","-9999","-9999","-9999.00","-9999.00","Clear","clear","0","0","0","0","0","0","METAR UKKK 171830Z 07003MPS CAVOK 12/07 Q1016 R08/CLRD70 NOSIG"
"10:00 PM EEST on September 17, 2016","2016","09","17","22","00","Europe/Kiev","7:00 PM GMT on September 17, 2016","2016","09","17","19","00","UTC","12.0","53.6","8.0","46.4","77","10.8","6.7","-9999.0","-9999.0","80","East","-9999.0","-9999.0","1016","30.01","-999","-999","-9999","-9999","-9999.00","-9999.00","Clear","clear","0","0","0","0","0","0","METAR UKKK 171900Z 08003MPS CAVOK 12/08 Q1016 R08/CLRD70 NOSIG"
"10:30 PM EEST on September 17, 2016","2016","09","17","22","30","Europe/Kiev","7:30 PM GMT on September 17, 2016","2016","09","17","19","30","UTC","11.0","51.8","7.0","44.6","76","7.2","4.5","-9999.0","-9999.0","80","East","-9999.0","-9999.0","1016","30.01","-999","-999","-9999","-9999","-9999.00","-9999.00","Clear","clear","0","0","0","0","0","0","METAR UKKK 171930Z 08002MPS CAVOK 11/07 Q1016 R08/CLRD70 NOSIG"
"11:00 PM EEST on September 17, 2016","2016","09","17","23","00","Europe/Kiev","8:00 PM GMT on September 17, 2016","2016","09","17","20","00","UTC","10.0","50.0","7.0","44.6","82","7.2","4.5","-9999.0","-9999.0","70","ENE","-9999.0","-9999.0","1016","30.01","-999","-999","-9999","-9999","-9999.00","-9999.00","Clear","clear","0","0","0","0","0","0","METAR UKKK 172000Z 07002MPS CAVOK 10/07 Q1016 R08/CLRD70 NOSIG"
"11:30 PM EEST on September 17, 2016","2016","09","17","23","30","Europe/Kiev","8:30 PM GMT on September 17, 2016","2016","09","17","20","30","UTC","11.0","51.8","8.0","46.4","82","7.2","4.5","-9999.0","-9999.0","100","East","9.0","5.6","1016","30.01","-999","-999","-9999","-9999","-9999.00","-9999.00","Clear","clear","0","0","0","0","0","0","METAR UKKK 172030Z 10002MPS 9000 SKC 11/08 Q1016 R08/CLRD70 NOSIG"
"12:00 AM EEST on September 18, 2016","2016","09","18","00","00","Europe/Kiev","9:00 PM GMT on September 17, 2016","2016","09","17","21","00","UTC","12","53","8","47","73","0.0","0.0","","","","","20","12","1017","30.03","-999","-999","-9999","-9999","","","","","0","0","0","0","0","0","AAXX 17211 33345 42998 00000 10119 20083 39967 40168 52008 555 10010"
"12:00 AM EEST on September 18, 2016","2016","09","18","00","00","Europe/Kiev","9:00 PM GMT on September 17, 2016","2016","09","17","21","00","UTC","10.0","50.0","8.0","46.4","87","7.2","4.5","-9999.0","-9999.0","80","East","-9999.0","-9999.0","1016","30.01","-999","-999","-9999","-9999","-9999.00","-9999.00","Clear","clear","0","0","0","0","0","0","METAR UKKK 172100Z 08002MPS CAVOK 10/08 Q1016 R08/CLRD70 NOSIG"
"12:30 AM EEST on September 18, 2016","2016","09","18","00","30","Europe/Kiev","9:30 PM GMT on September 17, 2016","2016","09","17","21","30","UTC","10.0","50.0","8.0","46.4","87","7.2","4.5","-9999.0","-9999.0","80","East","-9999.0","-9999.0","1016","30.01","-999","-999","-9999","-9999","-9999.00","-9999.00","Clear","clear","0","0","0","0","0","0","METAR UKKK 172130Z 08002MPS CAVOK 10/08 Q1016 R08/CLRD70 NOSIG"
"1:00 AM EEST on September 18, 2016","2016","09","18","01","00","Europe/Kiev","10:00 PM GMT on September 17, 2016","2016","09","17","22","00","UTC","10.0","50.0","8.0","46.4","87","7.2","4.5","-9999.0","-9999.0","100","East","8.0","5.0","1016","30.01","-999","-999","-9999","-9999","-9999.00","-9999.00","Unknown","unknown","0","0","0","0","0","0","METAR UKKK 172200Z 10002MPS 8000 NSC 10/08 Q1016 R08/CLRD70 NOSIG"
"1:30 AM EEST on September 18, 2016","2016","09","18","01","30","Europe/Kiev","10:30 PM GMT on September 17, 2016","2016","09","17","22","30","UTC","8.0","46.4","7.0","44.6","93","7.2","4.5","-9999.0","-9999.0","80","East","8.0","5.0","1016","30.01","6.9","44.4","-9999","-9999","-9999.00","-9999.00","Unknown","unknown","0","0","0","0","0","0","METAR UKKK 172230Z 08002MPS 8000 NSC 08/07 Q1016 R08/CLRD70 TEMPO 2000 FU"
"2:00 AM EEST on September 18, 2016","2016","09","18","02","00","Europe/Kiev","11:00 PM GMT on September 17, 2016","2016","09","17","23","00","UTC","9.0","48.2","8.0","46.4","93","7.2","4.5","-9999.0","-9999.0","70","ENE","-9999.0","-9999.0","1016","30.01","-999","-999","-9999","-9999","-9999.00","-9999.00","Clear","clear","0","0","0","0","0","0","METAR UKKK 172300Z 07002MPS CAVOK 09/08 Q1016 R08/CLRD70 TEMPO 2000 FU"
"2:30 AM EEST on September 18, 2016","2016","09","18","02","30","Europe/Kiev","11:30 PM GMT on September 17, 2016","2016","09","17","23","30","UTC","10.0","50.0","8.0","46.4","87","7.2","4.5","-9999.0","-9999.0","70","ENE","-9999.0","-9999.0","1017","30.04","-999","-999","-9999","-9999","-9999.00","-9999.00","Clear","clear","0","0","0","0","0","0","METAR UKKK 172330Z 07002MPS CAVOK 10/08 Q1017 R08/CLRD70 TEMPO 2000 BR"
"3:00 AM EEST on September 18, 2016","2016","09","18","03","00","Europe/Kiev","12:00 AM GMT on September 18, 2016","2016","09","18","00","00","UTC","10","50","8","47","84","3.6","2.2","","","70","ENE","10","6","1017","30.04","-999","-999","-9999","-9999","","","","","0","0","0","0","0","0","AAXX 18001 33345 32997 00701 10100 20081 39970 40172 52003 555 10008"
"3:00 AM EEST on September 18, 2016","2016","09","18","03","00","Europe/Kiev","12:00 AM GMT on September 18, 2016","2016","09","18","00","00","UTC","9.0","48.2","8.0","46.4","93","10.8","6.7","-9999.0","-9999.0","50","NE","-9999.0","-9999.0","1017","30.04","-999","-999","-9999","-9999","-9999.00","-9999.00","Clear","clear","0","0","0","0","0","0","METAR UKKK 180000Z 05003MPS CAVOK 09/08 Q1017 R08/CLRD70 TEMPO 2000 BR"
"3:30 AM EEST on September 18, 2016","2016","09","18","03","30","Europe/Kiev","12:30 AM GMT on September 18, 2016","2016","09","18","00","30","UTC","9.0","48.2","7.0","44.6","87","7.2","4.5","-9999.0","-9999.0","70","ENE","-9999.0","-9999.0","1017","30.04","-999","-999","-9999","-9999","-9999.00","-9999.00","Clear","clear","0","0","0","0","0","0","METAR UKKK 180030Z 07002MPS CAVOK 09/07 Q1017 R08/CLRD70 TEMPO 2000 BR"
"4:00 AM EEST on September 18, 2016","2016","09","18","04","00","Europe/Kiev","1:00 AM GMT on September 18, 2016","2016","09","18","01","00","UTC","8.0","46.4","7.0","44.6","93","7.2","4.5","-9999.0","-9999.0","70","ENE","-9999.0","-9999.0","1017","30.04","6.9","44.4","-9999","-9999","-9999.00","-9999.00","Clear","clear","0","0","0","0","0","0","METAR UKKK 180100Z 07002MPS CAVOK 08/07 Q1017 R08/CLRD70 TEMPO 2000 BR"
"4:30 AM EEST on September 18, 2016","2016","09","18","04","30","Europe/Kiev","1:30 AM GMT on September 18, 2016","2016","09","18","01","30","UTC","8.0","46.4","7.0","44.6","93","10.8","6.7","-9999.0","-9999.0","50","NE","-9999.0","-9999.0","1017","30.04","6.1","43.0","-9999","-9999","-9999.00","-9999.00","Clear","clear","0","0","0","0","0","0","METAR UKKK 180130Z 05003MPS CAVOK 08/07 Q1017 R08/CLRD70 TEMPO 2000 BR"
"5:00 AM EEST on September 18, 2016","2016","09","18","05","00","Europe/Kiev","2:00 AM GMT on September 18, 2016","2016","09","18","02","00","UTC","8.0","46.4","7.0","44.6","93","10.8","6.7","-9999.0","-9999.0","60","ENE","-9999.0","-9999.0","1017","30.04","6.1","43.0","-9999","-9999","-9999.00","-9999.00","Clear","clear","0","0","0","0","0","0","METAR UKKK 180200Z 06003MPS CAVOK 08/07 Q1017 R08/CLRD70 TEMPO 2000 BR"
"5:30 AM EEST on September 18, 2016","2016","09","18","05","30","Europe/Kiev","2:30 AM GMT on September 18, 2016","2016","09","18","02","30","UTC","8.0","46.4","7.0","44.6","93","7.2","4.5","-9999.0","-9999.0","80","East","10.0","6.2","1017","30.04","6.9","44.4","-9999","-9999","-9999.00","-9999.00","Scattered Clouds","partlycloudy","0","0","0","0","0","0","METAR UKKK 180230Z 08002MPS 9999 SCT031 08/07 Q1017 R08/CLRD70 TEMPO 2000 BR"
"6:00 AM EEST on September 18, 2016","2016","09","18","06","00","Europe/Kiev","3:00 AM GMT on September 18, 2016","2016","09","18","03","00","UTC","8","47","7","45","88","0.0","0.0","","","","","10","6","1018","30.06","-999","-999","-9999","-9999","","","","","0","0","0","0","0","0","AAXX 18031 33345 42997 00000 10083 20070 39973 40177 52003 555 10007"
"6:00 AM EEST on September 18, 2016","2016","09","18","06","00","Europe/Kiev","3:00 AM GMT on September 18, 2016","2016","09","18","03","00","UTC","8.0","46.4","7.0","44.6","93","7.2","4.5","-9999.0","-9999.0","90","East","10.0","6.2","1017","30.04","6.9","44.4","-9999","-9999","-9999.00","-9999.00","Scattered Clouds","partlycloudy","0","0","0","0","0","0","METAR UKKK 180300Z 09002MPS 9999 SCT040 08/07 Q1017 R08/CLRD70 TEMPO 1000 BR"
"6:30 AM EEST on September 18, 2016","2016","09","18","06","30","Europe/Kiev","3:30 AM GMT on September 18, 2016","2016","09","18","03","30","UTC","7.0","44.6","7.0","44.6","100","7.2","4.5","-9999.0","-9999.0","10","North","10.0","6.2","1017","30.04","5.7","42.3","-9999","-9999","-9999.00","-9999.00","Mostly Cloudy","mostlycloudy","0","0","0","0","0","0","METAR UKKK 180330Z 01002MPS 330V070 9999 BKN032 07/07 Q1017 R08/CLRD70 TEMPO 1000 BR"
"7:00 AM EEST on September 18, 2016","2016","09","18","07","00","Europe/Kiev","4:00 AM GMT on September 18, 2016","2016","09","18","04","00","UTC","9.0","48.2","8.0","46.4","93","7.2","4.5","-9999.0","-9999.0","50","NE","10.0","6.2","1017","30.04","-999","-999","-9999","-9999","-9999.00","-9999.00","Mostly Cloudy","mostlycloudy","0","0","0","0","0","0","METAR UKKK 180400Z 05002MPS 9999 BKN036 09/08 Q1017 R08/CLRD70 NOSIG"
"7:30 AM EEST on September 18, 2016","2016","09","18","07","30","Europe/Kiev","4:30 AM GMT on September 18, 2016","2016","09","18","04","30","UTC","10.0","50.0","9.0","48.2","94","7.2","4.5","-9999.0","-9999.0","60","ENE","10.0","6.2","1017","30.04","-999","-999","-9999","-9999","-9999.00","-9999.00","Mostly Cloudy","mostlycloudy","0","0","0","0","0","0","METAR UKKK 180430Z 06002MPS 9999 BKN030 10/09 Q1017 R08/CLRD70 NOSIG"
"8:00 AM EEST on September 18, 2016","2016","09","18","08","00","Europe/Kiev","5:00 AM GMT on September 18, 2016","2016","09","18","05","00","UTC","10.0","50.0","9.0","48.2","94","10.8","6.7","-9999.0","-9999.0","50","NE","-9999.0","-9999.0","1017","30.04","-999","-999","-9999","-9999","-9999.00","-9999.00","Clear","clear","0","0","0","0","0","0","METAR UKKK 180500Z 05003MPS CAVOK 10/09 Q1017 R08/CLRD70 NOSIG"
"8:30 AM EEST on September 18, 2016","2016","09","18","08","30","Europe/Kiev","5:30 AM GMT on September 18, 2016","2016","09","18","05","30","UTC","11.0","51.8","9.0","48.2","88","10.8","6.7","-9999.0","-9999.0","50","NE","-9999.0","-9999.0","1017","30.04","-999","-999","-9999","-9999","-9999.00","-9999.00","Clear","clear","0","0","0","0","0","0","METAR UKKK 180530Z 05003MPS CAVOK 11/09 Q1017 R08/CLRD70 NOSIG"
"9:00 AM EEST on September 18, 2016","2016","09","18","09","00","Europe/Kiev","6:00 AM GMT on September 18, 2016","2016","09","18","06","00","UTC","10","51","7","45","74","3.6","2.2","","","60","ENE","20","12","1018","30.06","-999","-999","-9999","-9999","","","Partly Cloudy","partlycloudy","0","0","0","0","0","0","AAXX 18061 33345 32698 40601 10104 20073 39975 40177 52002 84500 333 20080 555 10014 52004"
"9:00 AM EEST on September 18, 2016","2016","09","18","09","00","Europe/Kiev","6:00 AM GMT on September 18, 2016","2016","09","18","06","00","UTC","12.0","53.6","8.0","46.4","77","10.8","6.7","-9999.0","-9999.0","60","ENE","-9999.0","-9999.0","1017","30.04","-999","-999","-9999","-9999","-9999.00","-9999.00","Clear","clear","0","0","0","0","0","0","METAR UKKK 180600Z 06003MPS 030V100 CAVOK 12/08 Q1017 R08/CLRD70 NOSIG"
"9:30 AM EEST on September 18, 2016","2016","09","18","09","30","Europe/Kiev","6:30 AM GMT on September 18, 2016","2016","09","18","06","30","UTC","13.0","55.4","6.0","42.8","63","18.0","11.2","-9999.0","-9999.0","70","ENE","-9999.0","-9999.0","1017","30.04","-999","-999","-9999","-9999","-9999.00","-9999.00","Clear","clear","0","0","0","0","0","0","METAR UKKK 180630Z 07005MPS CAVOK 13/06 Q1017 R08/CLRD70 NOSIG"
"10:00 AM EEST on September 18, 2016","2016","09","18","10","00","Europe/Kiev","7:00 AM GMT on September 18, 2016","2016","09","18","07","00","UTC","13.0","55.4","5.0","41.0","58","18.0","11.2","-9999.0","-9999.0","70","ENE","-9999.0","-9999.0","1017","30.04","-999","-999","-9999","-9999","-9999.00","-9999.00","Clear","clear","0","0","0","0","0","0","METAR UKKK 180700Z 07005MPS CAVOK 13/05 Q1017 R08/CLRD70 NOSIG"
"10:30 AM EEST on September 18, 2016","2016","09","18","10","30","Europe/Kiev","7:30 AM GMT on September 18, 2016","2016","09","18","07","30","UTC","14.0","57.2","6.0","42.8","59","18.0","11.2","-9999.0","-9999.0","70","ENE","10.0","6.2","1017","30.04","-999","-999","-9999","-9999","-9999.00","-9999.00","Scattered Clouds","partlycloudy","0","0","0","0","0","0","METAR UKKK 180730Z 07005MPS 030V110 9999 FEW033 SCT100 14/06 Q1017 R08/CLRD70 NOSIG"
"11:00 AM EEST on September 18, 2016","2016","09","18","11","00","Europe/Kiev","8:00 AM GMT on September 18, 2016","2016","09","18","08","00","UTC","15.0","59.0","6.0","42.8","55","14.4","8.9","-9999.0","-9999.0","70","ENE","10.0","6.2","1017","30.04","-999","-999","-9999","-9999","-9999.00","-9999.00","Scattered Clouds","partlycloudy","0","0","0","0","0","0","METAR UKKK 180800Z 07004MPS 040V100 9999 FEW033 SCT100 15/06 Q1017 R08/CLRD70 NOSIG"
"11:30 AM EEST on September 18, 2016","2016","09","18","11","30","Europe/Kiev","8:30 AM GMT on September 18, 2016","2016","09","18","08","30","UTC","14.0","57.2","4.0","39.2","51","14.4","8.9","-9999.0","-9999.0","30","NNE","10.0","6.2","1018","30.06","-999","-999","-9999","-9999","-9999.00","-9999.00","Mostly Cloudy","mostlycloudy","0","0","0","0","0","0","METAR UKKK 180830Z 03004MPS 360V060 9999 BKN040 14/04 Q1018 R08/CLRD70 NOSIG"
"12:00 PM EEST on September 18, 2016","2016","09","18","12","00","Europe/Kiev","9:00 AM GMT on September 18, 2016","2016","09","18","09","00","UTC","15","58","3","37","34","7.2","4.5","","","70","ENE","20","12","1018","30.05","-999","-999","-9999","-9999","","","Mostly Cloudy","mostlycloudy","0","0","0","0","0","0","AAXX 18091 33345 42598 60702 10146 20028 39977 40176 52002 86500 555 10025"
"12:00 PM EEST on September 18, 2016","2016","09","18","12","00","Europe/Kiev","9:00 AM GMT on September 18, 2016","2016","09","18","09","00","UTC","16.0","60.8","4.0","39.2","45","14.4","8.9","-9999.0","-9999.0","80","East","10.0","6.2","1017","30.04","-999","-999","-9999","-9999","-9999.00","-9999.00","Mostly Cloudy","mostlycloudy","0","0","0","0","0","0","METAR UKKK 180900Z 08004MPS 350V130 9999 BKN046 16/04 Q1017 R08/CLRD70 NOSIG"
"12:30 PM EEST on September 18, 2016","2016","09","18","12","30","Europe/Kiev","9:30 AM GMT on September 18, 2016","2016","09","18","09","30","UTC","15.0","59.0","3.0","37.4","45","14.4","8.9","-9999.0","-9999.0","40","NE","10.0","6.2","1017","30.04","-999","-999","-9999","-9999","-9999.00","-9999.00","Mostly Cloudy","mostlycloudy","0","0","0","0","0","0","METAR UKKK 180930Z 04004MPS 9999 BKN046 15/03 Q1017 R08/CLRD70 NOSIG"
"1:00 PM EEST on September 18, 2016","2016","09","18","13","00","Europe/Kiev","10:00 AM GMT on September 18, 2016","2016","09","18","10","00","UTC","16.0","60.8","4.0","39.2","45","14.4","8.9","-9999.0","-9999.0","60","ENE","10.0","6.2","1017","30.04","-999","-999","-9999","-9999","-9999.00","-9999.00","Mostly Cloudy","mostlycloudy","0","0","0","0","0","0","METAR UKKK 181000Z 06004MPS 350V110 9999 BKN046 16/04 Q1017 R08/CLRD70 NOSIG"
"1:30 PM EEST on September 18, 2016","2016","09","18","13","30","Europe/Kiev","10:30 AM GMT on September 18, 2016","2016","09","18","10","30","UTC","16.0","60.8","3.0","37.4","42","14.4","8.9","-9999.0","-9999.0","30","NNE","-9999.0","-9999.0","1017","30.04","-999","-999","-9999","-9999","-9999.00","-9999.00","Clear","clear","0","0","0","0","0","0","METAR UKKK 181030Z 03004MPS 320V090 CAVOK 16/03 Q1017 R08/CLRD70 NOSIG"
"2:00 PM EEST on September 18, 2016","2016","09","18","14","00","Europe/Kiev","11:00 AM GMT on September 18, 2016","2016","09","18","11","00","UTC","16.0","60.8","4.0","39.2","45","10.8","6.7","-9999.0","-9999.0","50","NE","-9999.0","-9999.0","1017","30.04","-999","-999","-9999","-9999","-9999.00","-9999.00","Clear","clear","0","0","0","0","0","0","METAR UKKK 181100Z 05003MPS CAVOK 16/04 Q1017 R08/CLRD70 NOSIG"
"2:30 PM EEST on September 18, 2016","2016","09","18","14","30","Europe/Kiev","11:30 AM GMT on September 18, 2016","2016","09","18","11","30","UTC","16.0","60.8","3.0","37.4","42","10.8","6.7","-9999.0","-9999.0","60","ENE","-9999.0","-9999.0","1017","30.04","-999","-999","-9999","-9999","-9999.00","-9999.00","Clear","clear","0","0","0","0","0","0","METAR UKKK 181130Z 06003MPS CAVOK 16/03 Q1017 R08/CLRD70 NOSIG"
"3:00 PM EEST on September 18, 2016","2016","09","18","15","00","Europe/Kiev","12:00 PM GMT on September 18, 2016","2016","09","18","12","00","UTC","16","60","2","35","27","3.6","2.2","","","120","ESE","20","12","1017","30.04","-999","-999","-9999","-9999","","","Scattered Clouds","partlycloudy","0","0","0","0","0","0","AAXX 18121 33345 32698 21201 10155 20017 39974 40173 58003 81101 555 10028"
"3:00 PM EEST on September 18, 2016","2016","09","18","15","00","Europe/Kiev","12:00 PM GMT on September 18, 2016","2016","09","18","12","00","UTC","16.0","60.8","2.0","35.6","39","10.8","6.7","-9999.0","-9999.0","50","NE","-9999.0","-9999.0","1017","30.04","-999","-999","-9999","-9999","-9999.00","-9999.00","Clear","clear","0","0","0","0","0","0","METAR UKKK 181200Z 05003MPS 010V080 CAVOK 16/02 Q1017 R08/CLRD70 NOSIG"
"3:30 PM EEST on September 18, 2016","2016","09","18","15","30","Europe/Kiev","12:30 PM GMT on September 18, 2016","2016","09","18","12","30","UTC","17.0","62.6","2.0","35.6","37","7.2","4.5","-9999.0","-9999.0","90","East","-9999.0","-9999.0","1017","30.04","-999","-999","-9999","-9999","-9999.00","-9999.00","Clear","clear","0","0","0","0","0","0","METAR UKKK 181230Z 09002MPS CAVOK 17/02 Q1017 R08/CLRD70 NOSIG"
"4:00 PM EEST on September 18, 2016","2016","09","18","16","00","Europe/Kiev","1:00 PM GMT on September 18, 2016","2016","09","18","13","00","UTC","16.0","60.8","2.0","35.6","39","7.2","4.5","-9999.0","-9999.0","90","East","-9999.0","-9999.0","1017","30.04","-999","-999","-9999","-9999","-9999.00","-9999.00","Clear","clear","0","0","0","0","0","0","METAR UKKK 181300Z 09002MPS CAVOK 16/02 Q1017 R08/CLRD70 NOSIG"
"4:30 PM EEST on September 18, 2016","2016","09","18","16","30","Europe/Kiev","1:30 PM GMT on September 18, 2016","2016","09","18","13","30","UTC","16.0","60.8","2.0","35.6","39","7.2","4.5","-9999.0","-9999.0","360","North","-9999.0","-9999.0","1017","30.04","-999","-999","-9999","-9999","-9999.00","-9999.00","Clear","clear","0","0","0","0","0","0","METAR UKKK 181330Z 36002MPS 330V040 CAVOK 16/02 Q1017 R08/CLRD70 NOSIG"
"5:00 PM EEST on September 18, 2016","2016","09","18","17","00","Europe/Kiev","2:00 PM GMT on September 18, 2016","2016","09","18","14","00","UTC","17.0","62.6","2.0","35.6","37","10.8","6.7","-9999.0","-9999.0","10","North","-9999.0","-9999.0","1017","30.04","-999","-999","-9999","-9999","-9999.00","-9999.00","Clear","clear","0","0","0","0","0","0","METAR UKKK 181400Z 01003MPS 320V060 CAVOK 17/02 Q1017 R08/CLRD70 NOSIG"
"5:30 PM EEST on September 18, 2016","2016","09","18","17","30","Europe/Kiev","2:30 PM GMT on September 18, 2016","2016","09","18","14","30","UTC","16.0","60.8","2.0","35.6","39","10.8","6.7","-9999.0","-9999.0","40","NE","-9999.0","-9999.0","1016","30.01","-999","-999","-9999","-9999","-9999.00","-9999.00","Clear","clear","0","0","0","0","0","0","METAR UKKK 181430Z 04003MPS 360V070 CAVOK 16/02 Q1016 R08/CLRD70 NOSIG"
"6:00 PM EEST on September 18, 2016","2016","09","18","18","00","Europe/Kiev","3:00 PM GMT on September 18, 2016","2016","09","18","15","00","UTC","16","61","3","37","29","7.2","4.5","","","80","East","20","12","1017","30.03","-999","-999","-9999","-9999","","","Clear","clear","0","0","0","0","0","0","AAXX 18151 33345 42998 20802 10159 20029 39969 40167 57005 80001 555 10019"
"6:00 PM EEST on September 18, 2016","2016","09","18","18","00","Europe/Kiev","3:00 PM GMT on September 18, 2016","2016","09","18","15","00","UTC","16.0","60.8","2.0","35.6","39","14.4","8.9","-9999.0","-9999.0","40","NE","-9999.0","-9999.0","1016","30.01","-999","-999","-9999","-9999","-9999.00","-9999.00","Clear","clear","0","0","0","0","0","0","METAR UKKK 181500Z 04004MPS CAVOK 16/02 Q1016 R08/CLRD70 NOSIG"
"6:30 PM EEST on September 18, 2016","2016","09","18","18","30","Europe/Kiev","3:30 PM GMT on September 18, 2016","2016","09","18","15","30","UTC","14.0","57.2","2.0","35.6","44","14.4","8.9","-9999.0","-9999.0","10","North","-9999.0","-9999.0","1016","30.01","-999","-999","-9999","-9999","-9999.00","-9999.00","Clear","clear","0","0","0","0","0","0","METAR UKKK 181530Z 01004MPS CAVOK 14/02 Q1016 R08/CLRD70 NOSIG"
"7:00 PM EEST on September 18, 2016","2016","09","18","19","00","Europe/Kiev","4:00 PM GMT on September 18, 2016","2016","09","18","16","00","UTC","14.0","57.2","3.0","37.4","48","14.4","8.9","-9999.0","-9999.0","30","NNE","-9999.0","-9999.0","1017","30.04","-999","-999","-9999","-9999","-9999.00","-9999.00","Clear","clear","0","0","0","0","0","0","METAR UKKK 181600Z 03004MPS CAVOK 14/03 Q1017 R08/CLRD70 NOSIG"
"7:30 PM EEST on September 18, 2016","2016","09","18","19","30","Europe/Kiev","4:30 PM GMT on September 18, 2016","2016","09","18","16","30","UTC","13.0","55.4","3.0","37.4","51","14.4","8.9","-9999.0","-9999.0","50","NE","-9999.0","-9999.0","1017","30.04","-999","-999","-9999","-9999","-9999.00","-9999.00","Clear","clear","0","0","0","0","0","0","METAR UKKK 181630Z 05004MPS CAVOK 13/03 Q1017 R08/CLRD70 NOSIG"
"8:00 PM EEST on September 18, 2016","2016","09","18","20","00","Europe/Kiev","5:00 PM GMT on September 18, 2016","2016","09","18","17","00","UTC","11.0","51.8","3.0","37.4","58","10.8","6.7","-9999.0","-9999.0","60","ENE","-9999.0","-9999.0","1017","30.04","-999","-999","-9999","-9999","-9999.00","-9999.00","Clear","clear","0","0","0","0","0","0","METAR UKKK 181700Z 06003MPS CAVOK 11/03 Q1017 R08/CLRD70 NOSIG"
"8:30 PM EEST on September 18, 2016","2016","09","18","20","30","Europe/Kiev","5:30 PM GMT on September 18, 2016","2016","09","18","17","30","UTC","11.0","51.8","3.0","37.4","58","10.8","6.7","-9999.0","-9999.0","70","ENE","-9999.0","-9999.0","1017","30.04","-999","-999","-9999","-9999","-9999.00","-9999.00","Clear","clear","0","0","0","0","0","0","METAR UKKK 181730Z 07003MPS 040V100 CAVOK 11/03 Q1017 R08/CLRD70 NOSIG"
"9:00 PM EEST on September 18, 2016","2016","09","18","21","00","Europe/Kiev","6:00 PM GMT on September 18, 2016","2016","09","18","18","00","UTC","12","53","3","38","44","3.6","2.2","","","80","East","20","12","1018","30.06","-999","-999","-9999","-9999","","","","","0","0","0","0","0","0","AAXX 18181 33345 32998 00801 10117 20031 39976 40177 53007 333 10179 555 10009"
"9:00 PM EEST on September 18, 2016","2016","09","18","21","00","Europe/Kiev","6:00 PM GMT on September 18, 2016","2016","09","18","18","00","UTC","11.0","51.8","3.0","37.4","58","7.2","4.5","-9999.0","-9999.0","70","ENE","-9999.0","-9999.0","1017","30.04","-999","-999","-9999","-9999","-9999.00","-9999.00","Clear","clear","0","0","0","0","0","0","METAR UKKK 181800Z 07002MPS CAVOK 11/03 Q1017 R08/CLRD70 NOSIG"
"9:30 PM EEST on September 18, 2016","2016","09","18","21","30","Europe/Kiev","6:30 PM GMT on September 18, 2016","2016","09","18","18","30","UTC","10.0","50.0","3.0","37.4","62","7.2","4.5","-9999.0","-9999.0","70","ENE","-9999.0","-9999.0","1017","30.04","-999","-999","-9999","-9999","-9999.00","-9999.00","Clear","clear","0","0","0","0","0","0","METAR UKKK 181830Z 07002MPS CAVOK 10/03 Q1017 R08/CLRD70 NOSIG"
"10:00 PM EEST on September 18, 2016","2016","09","18","22","00","Europe/Kiev","7:00 PM GMT on September 18, 2016","2016","09","18","19","00","UTC","9.0","48.2","3.0","37.4","66","7.2","4.5","-9999.0","-9999.0","70","ENE","-9999.0","-9999.0","1017","30.04","-999","-999","-9999","-9999","-9999.00","-9999.00","Clear","clear","0","0","0","0","0","0","METAR UKKK 181900Z 07002MPS CAVOK 09/03 Q1017 R08/CLRD70 NOSIG"
"10:30 PM EEST on September 18, 2016","2016","09","18","22","30","Europe/Kiev","7:30 PM GMT on September 18, 2016","2016","09","18","19","30","UTC","9.0","48.2","3.0","37.4","66","7.2","4.5","-9999.0","-9999.0","70","ENE","-9999.0","-9999.0","1017","30.04","-999","-999","-9999","-9999","-9999.00","-9999.00","Clear","clear","0","0","0","0","0","0","METAR UKKK 181930Z 07002MPS CAVOK 09/03 Q1017 R08/CLRD70 NOSIG"
"11:00 PM EEST on September 18, 2016","2016","09","18","23","00","Europe/Kiev","8:00 PM GMT on September 18, 2016","2016","09","18","20","00","UTC","9.0","48.2","3.0","37.4","66","7.2","4.5","-9999.0","-9999.0","90","East","-9999.0","-9999.0","1017","30.04","-999","-999","-9999","-9999","-9999.00","-9999.00","Clear","clear","0","0","0","0","0","0","METAR UKKK 182000Z 09002MPS CAVOK 09/03 Q1017 R08/CLRD70 NOSIG"
"11:30 PM EEST on September 18, 2016","2016","09","18","23","30","Europe/Kiev","8:30 PM GMT on September 18, 2016","2016","09","18","20","30","UTC","9.0","48.2","3.0","37.4","66","7.2","4.5","-9999.0","-9999.0","90","East","-9999.0","-9999.0","1017","30.04","-999","-999","-9999","-9999","-9999.00","-9999.00","Clear","clear","0","0","0","0","0","0","METAR UKKK 182030Z 09002MPS CAVOK 09/03 Q1017 R08/CLRD70 NOSIG"
"12:00 AM EEST on September 19, 2016","2016","09","19","00","00","Europe/Kiev","9:00 PM GMT on September 18, 2016","2016","09","18","21","00","UTC","12","53","3","38","44","3.6","2.2","","","80","East","20","12","1018","30.07","-999","-999","-9999","-9999","","","","","0","0","0","0","0","0","AAXX 18211 33345 42998 00801 10117 20031 39980 40181 52004 555 10008"
"12:00 AM EEST on September 19, 2016","2016","09","19","00","00","Europe/Kiev","9:00 PM GMT on September 18, 2016","2016","09","18","21","00","UTC","9.0","48.2","3.0","37.4","66","7.2","4.5","-9999.0","-9999.0","70","ENE","-9999.0","-9999.0","1017","30.04","-999","-999","-9999","-9999","-9999.00","-9999.00","Clear","clear","0","0","0","0","0","0","METAR UKKK 182100Z 07002MPS CAVOK 09/03 Q1017 R08/CLRD70 NOSIG"
"12:30 AM EEST on September 19, 2016","2016","09","19","00","30","Europe/Kiev","9:30 PM GMT on September 18, 2016","2016","09","18","21","30","UTC","9.0","48.2","3.0","37.4","66","10.8","6.7","-9999.0","-9999.0","80","East","-9999.0","-9999.0","1018","30.06","-999","-999","-9999","-9999","-9999.00","-9999.00","Clear","clear","0","0","0","0","0","0","METAR UKKK 182130Z 08003MPS CAVOK 09/03 Q1018 R08/CLRD70 NOSIG"
"1:00 AM EEST on September 19, 2016","2016","09","19","01","00","Europe/Kiev","10:00 PM GMT on September 18, 2016","2016","09","18","22","00","UTC","8.0","46.4","3.0","37.4","71","10.8","6.7","-9999.0","-9999.0","70","ENE","-9999.0","-9999.0","1017","30.04","6.1","43.0","-9999","-9999","-9999.00","-9999.00","Clear","clear","0","0","0","0","0","0","METAR UKKK 182200Z 07003MPS CAVOK 08/03 Q1017 R08/CLRD70 NOSIG"
"1:30 AM EEST on September 19, 2016","2016","09","19","01","30","Europe/Kiev","10:30 PM GMT on September 18, 2016","2016","09","18","22","30","UTC","8.0","46.4","3.0","37.4","71","7.2","4.5","-9999.0","-9999.0","90","East","-9999.0","-9999.0","1017","30.04","6.9","44.4","-9999","-9999","-9999.00","-9999.00","Clear","clear","0","0","0","0","0","0","METAR UKKK 182230Z 09002MPS CAVOK 08/03 Q1017 R08/CLRD70 NOSIG"
"2:00 AM EEST on September 19, 2016","2016","09","19","02","00","Europe/Kiev","11:00 PM GMT on September 18, 2016","2016","09","18","23","00","UTC","7.0","44.6","3.0","37.4","76","7.2","4.5","-9999.0","-9999.0","70","ENE","-9999.0","-9999.0","1017","30.04","5.7","42.3","-9999","-9999","-9999.00","-9999.00","Clear","clear","0","0","0","0","0","0","METAR UKKK 182300Z 07002MPS CAVOK 07/03 Q1017 R08/CLRD70 NOSIG"
"2:30 AM EEST on September 19, 2016","2016","09","19","02","30","Europe/Kiev","11:30 PM GMT on September 18, 2016","2016","09","18","23","30","UTC","5.0","41.0","3.0","37.4","87","7.2","4.5","-9999.0","-9999.0","80","East","-9999.0","-9999.0","1017","30.04","3.4","38.1","-9999","-9999","-9999.00","-9999.00","Clear","clear","0","0","0","0","0","0","METAR UKKK 182330Z 08002MPS CAVOK 05/03 Q1017 R08/CLRD70 NOSIG"
"3:00 AM EEST on September 19, 2016","2016","09","19","03","00","Europe/Kiev","12:00 AM GMT on September 19, 2016","2016","09","19","00","00","UTC","8","46","4","39","70","0.0","0.0","","","","","20","12","1018","30.06","-999","-999","-9999","-9999","","","","","0","0","0","0","0","0","AAXX 19001 33345 32998 00000 10078 20041 39975 40179 58005 555 10005"
"3:00 AM EEST on September 19, 2016","2016","09","19","03","00","Europe/Kiev","12:00 AM GMT on September 19, 2016","2016","09","19","00","00","UTC","4.0","39.2","2.0","35.6","87","3.6","2.2","-9999.0","-9999.0","110","ESE","-9999.0","-9999.0","1017","30.04","-999","-999","-9999","-9999","-9999.00","-9999.00","Clear","clear","0","0","0","0","0","0","METAR UKKK 190000Z 11001MPS CAVOK 04/02 Q1017 R08/CLRD70 NOSIG"
"3:30 AM EEST on September 19, 2016","2016","09","19","03","30","Europe/Kiev","12:30 AM GMT on September 19, 2016","2016","09","19","00","30","UTC","4.0","39.2","3.0","37.4","93","0.0","0.0","-9999.0","-9999.0","0","North","9.0","5.6","1017","30.04","-999","-999","-9999","-9999","-9999.00","-9999.00","Clear","clear","0","0","0","0","0","0","METAR UKKK 190030Z 00000MPS 9000 SKC 04/03 Q1017 R08/CLRD70 NOSIG"
"4:00 AM EEST on September 19, 2016","2016","09","19","04","00","Europe/Kiev","1:00 AM GMT on September 19, 2016","2016","09","19","01","00","UTC","5.0","41.0","3.0","37.4","87","0.0","0.0","-9999.0","-9999.0","0","North","-9999.0","-9999.0","1017","30.04","-999","-999","-9999","-9999","-9999.00","-9999.00","Clear","clear","0","0","0","0","0","0","METAR UKKK 190100Z 00000MPS CAVOK 05/03 Q1017 R08/CLRD70 NOSIG"
"4:30 AM EEST on September 19, 2016","2016","09","19","04","30","Europe/Kiev","1:30 AM GMT on September 19, 2016","2016","09","19","01","30","UTC","5.0","41.0","3.0","37.4","87","3.6","2.2","-9999.0","-9999.0","0","Variable","9.0","5.6","1017","30.04","-999","-999","-9999","-9999","-9999.00","-9999.00","Clear","clear","0","0","0","0","0","0","METAR UKKK 190130Z VRB01MPS 9000 SKC 05/03 Q1017 R08/CLRD70 NOSIG"
"5:00 AM EEST on September 19, 2016","2016","09","19","05","00","Europe/Kiev","2:00 AM GMT on September 19, 2016","2016","09","19","02","00","UTC","4.0","39.2","2.0","35.6","87","0.0","0.0","-9999.0","-9999.0","0","North","9.0","5.6","1017","30.04","-999","-999","-9999","-9999","-9999.00","-9999.00","Clear","clear","0","0","0","0","0","0","METAR UKKK 190200Z 00000MPS 9000 SKC 04/02 Q1017 R08/CLRD70 NOSIG"
"5:30 AM EEST on September 19, 2016","2016","09","19","05","30","Europe/Kiev","2:30 AM GMT on September 19, 2016","2016","09","19","02","30","UTC","3.0","37.4","3.0","37.4","100","0.0","0.0","-9999.0","-9999.0","0","North","9.0","5.6","1017","30.04","-999","-999","-9999","-9999","-9999.00","-9999.00","Clear","clear","0","0","0","0","0","0","METAR UKKK 190230Z 00000MPS 9000 SKC 03/03 Q1017 R08/CLRD70 NOSIG"
"6:00 AM EEST on September 19, 2016","2016","09","19","06","00","Europe/Kiev","3:00 AM GMT on September 19, 2016","2016","09","19","03","00","UTC","6","44","4","40","79","0.0","0.0","","","","","20","12","1018","30.06","-999","-999","-9999","-9999","","","","","0","0","0","0","0","0","AAXX 19031 33345 42998 00000 10064 20043 39973 40178 56002 555 10004"
"6:00 AM EEST on September 19, 2016","2016","09","19","06","00","Europe/Kiev","3:00 AM GMT on September 19, 2016","2016","09","19","03","00","UTC","3.0","37.4","2.0","35.6","93","0.0","0.0","-9999.0","-9999.0","0","North","9.0","5.6","1017","30.04","-999","-999","-9999","-9999","-9999.00","-9999.00","Clear","clear","0","0","0","0","0","0","METAR UKKK 190300Z 00000MPS 9000 SKC 03/02 Q1017 R08/CLRD70 NOSIG"
"6:30 AM EEST on September 19, 2016","2016","09","19","06","30","Europe/Kiev","3:30 AM GMT on September 19, 2016","2016","09","19","03","30","UTC","3.0","37.4","3.0","37.4","100","0.0","0.0","-9999.0","-9999.0","0","North","9.0","5.6","1017","30.04","-999","-999","-9999","-9999","-9999.00","-9999.00","Clear","clear","0","0","0","0","0","0","METAR UKKK 190330Z 00000MPS 9000 SKC 03/03 Q1017 R08/CLRD70 NOSIG"
"7:00 AM EEST on September 19, 2016","2016","09","19","07","00","Europe/Kiev","4:00 AM GMT on September 19, 2016","2016","09","19","04","00","UTC","3.0","37.4","2.0","35.6","93","0.0","0.0","-9999.0","-9999.0","0","North","6.0","3.7","1017","30.04","-999","-999","-9999","-9999","-9999.00","-9999.00","Clear","clear","0","0","0","0","0","0","METAR UKKK 190400Z 00000MPS 6000 SKC 03/02 Q1017 R08/CLRD70 TEMPO 0400 FG VV001"
"7:30 AM EEST on September 19, 2016","2016","09","19","07","30","Europe/Kiev","4:30 AM GMT on September 19, 2016","2016","09","19","04","30","UTC","5.0","41.0","4.0","39.2","93","3.6","2.2","-9999.0","-9999.0","0","Variable","-9999.0","-9999.0","1017","30.04","-999","-999","-9999","-9999","-9999.00","-9999.00","Clear","clear","0","0","0","0","0","0","METAR UKKK 190430Z VRB01MPS CAVOK 05/04 Q1017 R08/CLRD70 NOSIG"
"8:00 AM EEST on September 19, 2016","2016","09","19","08","00","Europe/Kiev","5:00 AM GMT on September 19, 2016","2016","09","19","05","00","UTC","8.0","46.4","6.0","42.8","87","7.2","4.5","-9999.0","-9999.0","70","ENE","-9999.0","-9999.0","1017","30.04","6.9","44.4","-9999","-9999","-9999.00","-9999.00","Clear","clear","0","0","0","0","0","0","METAR UKKK 190500Z 07002MPS CAVOK 08/06 Q1017 R08/CLRD70 NOSIG"
"8:30 AM EEST on September 19, 2016","2016","09","19","08","30","Europe/Kiev","5:30 AM GMT on September 19, 2016","2016","09","19","05","30","UTC","11.0","51.8","6.0","42.8","71","7.2","4.5","-9999.0","-9999.0","40","NE","-9999.0","-9999.0","1017","30.04","-999","-999","-9999","-9999","-9999.00","-9999.00","Clear","clear","0","0","0","0","0","0","METAR UKKK 190530Z 04002MPS CAVOK 11/06 Q1017 R08/CLRD70 NOSIG"
"9:00 AM EEST on September 19, 2016","2016","09","19","09","00","Europe/Kiev","6:00 AM GMT on September 19, 2016","2016","09","19","06","00","UTC","10","51","5","42","61","7.2","4.5","","","70","ENE","20","12","1017","30.04","-999","-999","-9999","-9999","","","Clear","clear","0","0","0","0","0","0","AAXX 19061 33345 32998 20702 10103 20053 39969 40171 58004 80001 333 20061 555 10014 30003 52001"
"9:00 AM EEST on September 19, 2016","2016","09","19","09","00","Europe/Kiev","6:00 AM GMT on September 19, 2016","2016","09","19","06","00","UTC","12.0","53.6","6.0","42.8","67","7.2","4.5","-9999.0","-9999.0","60","ENE","-9999.0","-9999.0","1016","30.01","-999","-999","-9999","-9999","-9999.00","-9999.00","Clear","clear","0","0","0","0","0","0","METAR UKKK 190600Z 06002MPS CAVOK 12/06 Q1016 R08/CLRD70 NOSIG"
"9:30 AM EEST on September 19, 2016","2016","09","19","09","30","Europe/Kiev","6:30 AM GMT on September 19, 2016","2016","09","19","06","30","UTC","13.0","55.4","5.0","41.0","58","10.8","6.7","-9999.0","-9999.0","50","NE","-9999.0","-9999.0","1016","30.01","-999","-999","-9999","-9999","-9999.00","-9999.00","Clear","clear","0","0","0","0","0","0","METAR UKKK 190630Z 05003MPS 030V090 CAVOK 13/05 Q1016 R08/CLRD70 NOSIG"
"10:00 AM EEST on September 19, 2016","2016","09","19","10","00","Europe/Kiev","7:00 AM GMT on September 19, 2016","2016","09","19","07","00","UTC","14.0","57.2","5.0","41.0","55","14.4","8.9","-9999.0","-9999.0","50","NE","-9999.0","-9999.0","1016","30.01","-999","-999","-9999","-9999","-9999.00","-9999.00","Clear","clear","0","0","0","0","0","0","METAR UKKK 190700Z 05004MPS CAVOK 14/05 Q1016 R08/CLRD70 NOSIG"
"10:30 AM EEST on September 19, 2016","2016","09","19","10","30","Europe/Kiev","7:30 AM GMT on September 19, 2016","2016","09","19","07","30","UTC","14.0","57.2","3.0","37.4","48","14.4","8.9","-9999.0","-9999.0","40","NE","-9999.0","-9999.0","1017","30.04","-999","-999","-9999","-9999","-9999.00","-9999.00","Clear","clear","0","0","0","0","0","0","METAR UKKK 190730Z 04004MPS 010V070 CAVOK 14/03 Q1017 R08/CLRD70 NOSIG"
"11:00 AM EEST on September 19, 2016","2016","09","19","11","00","Europe/Kiev","8:00 AM GMT on September 19, 2016","2016","09","19","08","00","UTC","14.0","57.2","3.0","37.4","48","14.4","8.9","-9999.0","-9999.0","40","NE","-9999.0","-9999.0","1017","30.04","-999","-999","-9999","-9999","-9999.00","-9999.00","Clear","clear","0","0","0","0","0","0","METAR UKKK 190800Z 04004MPS 010V070 CAVOK 14/03 Q1017 R08/CLRD70 NOSIG"
"11:30 AM EEST on September 19, 2016","2016","09","19","11","30","Europe/Kiev","8:30 AM GMT on September 19, 2016","2016","09","19","08","30","UTC","14.0","57.2","3.0","37.4","48","14.4","8.9","-9999.0","-9999.0","50","NE","-9999.0","-9999.0","1016","30.01","-999","-999","-9999","-9999","-9999.00","-9999.00","Clear","clear","0","0","0","0","0","0","METAR UKKK 190830Z 05004MPS 360V080 CAVOK 14/03 Q1016 R08/CLRD70 NOSIG"
"12:00 PM EEST on September 19, 2016","2016","09","19","12","00","Europe/Kiev","9:00 AM GMT on September 19, 2016","2016","09","19","09","00","UTC","15","60","2","35","28","10.8","6.7","","","60","ENE","20","12","1016","30.02","-999","-999","-9999","-9999","","","Mostly Cloudy","mostlycloudy","0","0","0","0","0","0","AAXX 19091 33345 42698 60603 10154 20019 39966 40165 57003 85101 555 10033"
"12:00 PM EEST on September 19, 2016","2016","09","19","12","00","Europe/Kiev","9:00 AM GMT on September 19, 2016","2016","09","19","09","00","UTC","15.0","59.0","2.0","35.6","42","10.8","6.7","-9999.0","-9999.0","30","NNE","-9999.0","-9999.0","1016","30.01","-999","-999","-9999","-9999","-9999.00","-9999.00","Clear","clear","0","0","0","0","0","0","METAR UKKK 190900Z 03003MPS 320V080 CAVOK 15/02 Q1016 R08/CLRD70 NOSIG"
"12:30 PM EEST on September 19, 2016","2016","09","19","12","30","Europe/Kiev","9:30 AM GMT on September 19, 2016","2016","09","19","09","30","UTC","16.0","60.8","3.0","37.4","42","7.2","4.5","-9999.0","-9999.0","100","East","-9999.0","-9999.0","1016","30.01","-999","-999","-9999","-9999","-9999.00","-9999.00","Clear","clear","0","0","0","0","0","0","METAR UKKK 190930Z 10002MPS CAVOK 16/03 Q1016 R08/CLRD70 NOSIG"
"1:00 PM EEST on September 19, 2016","2016","09","19","13","00","Europe/Kiev","10:00 AM GMT on September 19, 2016","2016","09","19","10","00","UTC","16.0","60.8","2.0","35.6","39","14.4","8.9","-9999.0","-9999.0","360","North","-9999.0","-9999.0","1016","30.01","-999","-999","-9999","-9999","-9999.00","-9999.00","Clear","clear","0","0","0","0","0","0","METAR UKKK 191000Z 36004MPS 330V030 CAVOK 16/02 Q1016 R08/CLRD70 NOSIG"
"1:30 PM EEST on September 19, 2016","2016","09","19","13","30","Europe/Kiev","10:30 AM GMT on September 19, 2016","2016","09","19","10","30","UTC","16.0","60.8","2.0","35.6","39","7.2","4.5","-9999.0","-9999.0","360","North","-9999.0","-9999.0","1015","29.98","-999","-999","-9999","-9999","-9999.00","-9999.00","Clear","clear","0","0","0","0","0","0","METAR UKKK 191030Z 36002MPS 330V080 CAVOK 16/02 Q1015 R08/CLRD70 NOSIG"
"2:00 PM EEST on September 19, 2016","2016","09","19","14","00","Europe/Kiev","11:00 AM GMT on September 19, 2016","2016","09","19","11","00","UTC","17.0","62.6","2.0","35.6","37","3.6","2.2","-9999.0","-9999.0","0","Variable","-9999.0","-9999.0","1015","29.98","-999","-999","-9999","-9999","-9999.00","-9999.00","Clear","clear","0","0","0","0","0","0","METAR UKKK 191100Z VRB01MPS CAVOK 17/02 Q1015 R08/CLRD70 NOSIG"
"2:30 PM EEST on September 19, 2016","2016","09","19","14","30","Europe/Kiev","11:30 AM GMT on September 19, 2016","2016","09","19","11","30","UTC","15.0","59.0","2.0","35.6","42","10.8","6.7","-9999.0","-9999.0","10","North","-9999.0","-9999.0","1015","29.98","-999","-999","-9999","-9999","-9999.00","-9999.00","Clear","clear","0","0","0","0","0","0","METAR UKKK 191130Z 01003MPS 320V070 CAVOK 15/02 Q1015 R08/CLRD70 NOSIG"
"3:00 PM EEST on September 19, 2016","2016","09","19","15","00","Europe/Kiev","12:00 PM GMT on September 19, 2016","2016","09","19","12","00","UTC","15","60","2","36","29","3.6","2.2","","","350","North","20","12","1015","29.99","-999","-999","-9999","-9999","","","Mostly Cloudy","mostlycloudy","0","0","0","0","0","0","AAXX 19121 33345 32698 63501 10154 20022 39955 40153 57011 85404 555 10022"
"3:00 PM EEST on September 19, 2016","2016","09","19","15","00","Europe/Kiev","12:00 PM GMT on September 19, 2016","2016","09","19","12","00","UTC","17.0","62.6","2.0","35.6","37","10.8","6.7","-9999.0","-9999.0","360","North","-9999.0","-9999.0","1015","29.98","-999","-999","-9999","-9999","-9999.00","-9999.00","Clear","clear","0","0","0","0","0","0","METAR UKKK 191200Z 36003MPS 310V030 CAVOK 17/02 Q1015 R08/CLRD70 NOSIG"
"3:30 PM EEST on September 19, 2016","2016","09","19","15","30","Europe/Kiev","12:30 PM GMT on September 19, 2016","2016","09","19","12","30","UTC","17.0","62.6","2.0","35.6","37","3.6","2.2","-9999.0","-9999.0","0","Variable","-9999.0","-9999.0","1015","29.98","-999","-999","-9999","-9999","-9999.00","-9999.00","Clear","clear","0","0","0","0","0","0","METAR UKKK 191230Z VRB01MPS CAVOK 17/02 Q1015 R26/CLRD70 NOSIG"
"4:00 PM EEST on September 19, 2016","2016","09","19","16","00","Europe/Kiev","1:00 PM GMT on September 19, 2016","2016","09","19","13","00","UTC","17.0","62.6","3.0","37.4","39","10.8","6.7","-9999.0","-9999.0","50","NE","-9999.0","-9999.0","1014","29.95","-999","-999","-9999","-9999","-9999.00","-9999.00","Clear","clear","0","0","0","0","0","0","METAR UKKK 191300Z 05003MPS 010V080 CAVOK 17/03 Q1014 R26/CLRD70 NOSIG"
"4:30 PM EEST on September 19, 2016","2016","09","19","16","30","Europe/Kiev","1:30 PM GMT on September 19, 2016","2016","09","19","13","30","UTC","15.0","59.0","3.0","37.4","45","14.4","8.9","-9999.0","-9999.0","40","NE","-9999.0","-9999.0","1014","29.95","-999","-999","-9999","-9999","-9999.00","-9999.00","Clear","clear","0","0","0","0","0","0","METAR UKKK 191330Z 04004MPS 010V070 CAVOK 15/03 Q1014 R08/CLRD70 NOSIG"
"5:00 PM EEST on September 19, 2016","2016","09","19","17","00","Europe/Kiev","2:00 PM GMT on September 19, 2016","2016","09","19","14","00","UTC","16.0","60.8","3.0","37.4","42","10.8","6.7","-9999.0","-9999.0","30","NNE","-9999.0","-9999.0","1014","29.95","-999","-999","-9999","-9999","-9999.00","-9999.00","Clear","clear","0","0","0","0","0","0","METAR UKKK 191400Z 03003MPS CAVOK 16/03 Q1014 R08/CLRD70 NOSIG"
"5:30 PM EEST on September 19, 2016","2016","09","19","17","30","Europe/Kiev","2:30 PM GMT on September 19, 2016","2016","09","19","14","30","UTC","16.0","60.8","3.0","37.4","42","10.8","6.7","-9999.0","-9999.0","30","NNE","-9999.0","-9999.0","1014","29.95","-999","-999","-9999","-9999","-9999.00","-9999.00","Clear","clear","0","0","0","0","0","0","METAR UKKK 191430Z 03003MPS 340V070 CAVOK 16/03 Q1014 R08/CLRD70 NOSIG"
"6:00 PM EEST on September 19, 2016","2016","09","19","18","00","Europe/Kiev","3:00 PM GMT on September 19, 2016","2016","09","19","15","00","UTC","15","60","2","36","28","7.2","4.5","","","60","ENE","20","12","1014","29.94","-999","-999","-9999","-9999","","","Clear","clear","0","0","0","0","0","0","AAXX 19151 33345 42998 20602 10153 20020 39940 40138 57015 80009 555 10018"
"6:00 PM EEST on September 19, 2016","2016","09","19","18","00","Europe/Kiev","3:00 PM GMT on September 19, 2016","2016","09","19","15","00","UTC","15.0","59.0","3.0","37.4","45","10.8","6.7","-9999.0","-9999.0","40","NE","-9999.0","-9999.0","1014","29.95","-999","-999","-9999","-9999","-9999.00","-9999.00","Clear","clear","0","0","0","0","0","0","METAR UKKK 191500Z 04003MPS 010V070 CAVOK 15/03 Q1014 R08/CLRD70 NOSIG"
"6:30 PM EEST on September 19, 2016","2016","09","19","18","30","Europe/Kiev","3:30 PM GMT on September 19, 2016","2016","09","19","15","30","UTC","14.0","57.2","3.0","37.4","48","14.4","8.9","-9999.0","-9999.0","20","NNE","-9999.0","-9999.0","1014","29.95","-999","-999","-9999","-9999","-9999.00","-9999.00","Clear","clear","0","0","0","0","0","0","METAR UKKK 191530Z 02004MPS CAVOK 14/03 Q1014 R08/CLRD70 NOSIG"
"7:00 PM EEST on September 19, 2016","2016","09","19","19","00","Europe/Kiev","4:00 PM GMT on September 19, 2016","2016","09","19","16","00","UTC","13.0","55.4","3.0","37.4","51","14.4","8.9","-9999.0","-9999.0","20","NNE","-9999.0","-9999.0","1013","29.92","-999","-999","-9999","-9999","-9999.00","-9999.00","Clear","clear","0","0","0","0","0","0","METAR UKKK 191600Z 02004MPS CAVOK 13/03 Q1013 R08/CLRD70 NOSIG"
"7:30 PM EEST on September 19, 2016","2016","09","19","19","30","Europe/Kiev","4:30 PM GMT on September 19, 2016","2016","09","19","16","30","UTC","12.0","53.6","3.0","37.4","54","14.4","8.9","-9999.0","-9999.0","20","NNE","-9999.0","-9999.0","1014","29.95","-999","-999","-9999","-9999","-9999.00","-9999.00","Clear","clear","0","0","0","0","0","0","METAR UKKK 191630Z 02004MPS CAVOK 12/03 Q1014 R08/CLRD70 NOSIG"
"8:00 PM EEST on September 19, 2016","2016","09","19","20","00","Europe/Kiev","5:00 PM GMT on September 19, 2016","2016","09","19","17","00","UTC","12.0","53.6","3.0","37.4","54","14.4","8.9","-9999.0","-9999.0","40","NE","-9999.0","-9999.0","1014","29.95","-999","-999","-9999","-9999","-9999.00","-9999.00","Clear","clear","0","0","0","0","0","0","METAR UKKK 191700Z 04004MPS 010V070 CAVOK 12/03 Q1014 R08/CLRD70 NOSIG"
"8:30 PM EEST on September 19, 2016","2016","09","19","20","30","Europe/Kiev","5:30 PM GMT on September 19, 2016","2016","09","19","17","30","UTC","12.0","53.6","3.0","37.4","54","14.4","8.9","-9999.0","-9999.0","40","NE","-9999.0","-9999.0","1014","29.95","-999","-999","-9999","-9999","-9999.00","-9999.00","Clear","clear","0","0","0","0","0","0","METAR UKKK 191730Z 04004MPS CAVOK 12/03 Q1014 R08/CLRD70 NOSIG"
"9:00 PM EEST on September 19, 2016","2016","09","19","21","00","Europe/Kiev","6:00 PM GMT on September 19, 2016","2016","09","19","18","00","UTC","12","53","2","36","40","10.8","6.7","","","70","ENE","20","12","1014","29.96","-999","-999","-9999","-9999","","","","","0","0","0","0","0","0","AAXX 19181 33345 32998 00703 10115 20022 39942 40143 53002 333 10172 555 10009"
"9:00 PM EEST on September 19, 2016","2016","09","19","21","00","Europe/Kiev","6:00 PM GMT on September 19, 2016","2016","09","19","18","00","UTC","11.0","51.8","2.0","35.6","54","21.6","13.4","-9999.0","-9999.0","60","ENE","-9999.0","-9999.0","1014","29.95","-999","-999","-9999","-9999","-9999.00","-9999.00","Clear","clear","0","0","0","0","0","0","METAR UKKK 191800Z 06006MPS CAVOK 11/02 Q1014 R08/CLRD70 NOSIG"
"9:30 PM EEST on September 19, 2016","2016","09","19","21","30","Europe/Kiev","6:30 PM GMT on September 19, 2016","2016","09","19","18","30","UTC","11.0","51.8","2.0","35.6","54","25.2","15.7","-9999.0","-9999.0","50","NE","-9999.0","-9999.0","1014","29.95","-999","-999","-9999","-9999","-9999.00","-9999.00","Clear","clear","0","0","0","0","0","0","METAR UKKK 191830Z 05007MPS CAVOK 11/02 Q1014 R08/CLRD70 NOSIG"
"10:00 PM EEST on September 19, 2016","2016","09","19","22","00","Europe/Kiev","7:00 PM GMT on September 19, 2016","2016","09","19","19","00","UTC","10.0","50.0","2.0","35.6","58","18.0","11.2","-9999.0","-9999.0","60","ENE","-9999.0","-9999.0","1014","29.95","-999","-999","-9999","-9999","-9999.00","-9999.00","Clear","clear","0","0","0","0","0","0","METAR UKKK 191900Z 06005MPS CAVOK 10/02 Q1014 R08/CLRD70 NOSIG"
"10:30 PM EEST on September 19, 2016","2016","09","19","22","30","Europe/Kiev","7:30 PM GMT on September 19, 2016","2016","09","19","19","30","UTC","9.0","48.2","2.0","35.6","62","18.0","11.2","-9999.0","-9999.0","60","ENE","-9999.0","-9999.0","1014","29.95","-999","-999","-9999","-9999","-9999.00","-9999.00","Clear","clear","0","0","0","0","0","0","METAR UKKK 191930Z 06005MPS CAVOK 09/02 Q1014 R08/CLRD70 NOSIG"
"11:00 PM EEST on September 19, 2016","2016","09","19","23","00","Europe/Kiev","8:00 PM GMT on September 19, 2016","2016","09","19","20","00","UTC","9.0","48.2","2.0","35.6","62","18.0","11.2","-9999.0","-9999.0","70","ENE","-9999.0","-9999.0","1014","29.95","-999","-999","-9999","-9999","-9999.00","-9999.00","Clear","clear","0","0","0","0","0","0","METAR UKKK 192000Z 07005MPS CAVOK 09/02 Q1014 R08/CLRD70 NOSIG"
"11:30 PM EEST on September 19, 2016","2016","09","19","23","30","Europe/Kiev","8:30 PM GMT on September 19, 2016","2016","09","19","20","30","UTC","9.0","48.2","2.0","35.6","62","18.0","11.2","-9999.0","-9999.0","70","ENE","-9999.0","-9999.0","1014","29.95","-999","-999","-9999","-9999","-9999.00","-9999.00","Clear","clear","0","0","0","0","0","0","METAR UKKK 192030Z 07005MPS CAVOK 09/02 Q1014 R08/CLRD70 NOSIG"
"12:00 AM EEST on September 20, 2016","2016","09","20","00","00","Europe/Kiev","9:00 PM GMT on September 19, 2016","2016","09","19","21","00","UTC","9","48","2","36","52","7.2","4.5","","","100","East","20","12","1015","29.97","-999","-999","-9999","-9999","","","Clear","clear","0","0","0","0","0","0","AAXX 19211 33345 42998 51002 10088 20021 39944 40147 51002 80009 555 10007"
"12:00 AM EEST on September 20, 2016","2016","09","20","00","00","Europe/Kiev","9:00 PM GMT on September 19, 2016","2016","09","19","21","00","UTC","8.0","46.4","2.0","35.6","66","14.4","8.9","-9999.0","-9999.0","90","East","-9999.0","-9999.0","1014","29.95","5.6","42.0","-9999","-9999","-9999.00","-9999.00","Clear","clear","0","0","0","0","0","0","METAR UKKK 192100Z 09004MPS CAVOK 08/02 Q1014 R08/CLRD70 NOSIG"
"12:30 AM EEST on September 20, 2016","2016","09","20","00","30","Europe/Kiev","9:30 PM GMT on September 19, 2016","2016","09","19","21","30","UTC","8.0","46.4","2.0","35.6","66","14.4","8.9","-9999.0","-9999.0","90","East","-9999.0","-9999.0","1014","29.95","5.6","42.0","-9999","-9999","-9999.00","-9999.00","Clear","clear","0","0","0","0","0","0","METAR UKKK 192130Z 09004MPS CAVOK 08/02 Q1014 R08/CLRD70 NOSIG"
"1:00 AM EEST on September 20, 2016","2016","09","20","01","00","Europe/Kiev","10:00 PM GMT on September 19, 2016","2016","09","19","22","00","UTC","7.0","44.6","2.0","35.6","71","10.8","6.7","-9999.0","-9999.0","80","East","-9999.0","-9999.0","1014","29.95","4.9","40.8","-9999","-9999","-9999.00","-9999.00","Clear","clear","0","0","0","0","0","0","METAR UKKK 192200Z 08003MPS CAVOK 07/02 Q1014 R08/CLRD70 NOSIG"
"1:30 AM EEST on September 20, 2016","2016","09","20","01","30","Europe/Kiev","10:30 PM GMT on September 19, 2016","2016","09","19","22","30","UTC","7.0","44.6","2.0","35.6","71","10.8","6.7","-9999.0","-9999.0","90","East","-9999.0","-9999.0","1013","29.92","4.9","40.8","-9999","-9999","-9999.00","-9999.00","Clear","clear","0","0","0","0","0","0","METAR UKKK 192230Z 09003MPS CAVOK 07/02 Q1013 R08/CLRD70 NOSIG"
"2:00 AM EEST on September 20, 2016","2016","09","20","02","00","Europe/Kiev","11:00 PM GMT on September 19, 2016","2016","09","19","23","00","UTC","6.0","42.8","2.0","35.6","76","10.8","6.7","-9999.0","-9999.0","90","East","-9999.0","-9999.0","1013","29.92","3.7","38.7","-9999","-9999","-9999.00","-9999.00","Clear","clear","0","0","0","0","0","0","METAR UKKK 192300Z 09003MPS CAVOK 06/02 Q1013 R08/CLRD70 NOSIG"
"2:30 AM EEST on September 20, 2016","2016","09","20","02","30","Europe/Kiev","11:30 PM GMT on September 19, 2016","2016","09","19","23","30","UTC","6.0","42.8","2.0","35.6","76","7.2","4.5","-9999.0","-9999.0","80","East","-9999.0","-9999.0","1013","29.92","4.5","40.2","-9999","-9999","-9999.00","-9999.00","Clear","clear","0","0","0","0","0","0","METAR UKKK 192330Z 08002MPS CAVOK 06/02 Q1013 R08/CLRD70 NOSIG"
"3:00 AM EEST on September 20, 2016","2016","09","20","03","00","Europe/Kiev","12:00 AM GMT on September 20, 2016","2016","09","20","00","00","UTC","7","44","2","36","63","3.6","2.2","","","160","SSE","20","12","1013","29.93","-999","-999","-9999","-9999","","","Mostly Cloudy","mostlycloudy","0","0","0","0","0","0","AAXX 20001 33345 32998 61601 10066 20020 39930 40134 58014 86030 555 10006"
"3:00 AM EEST on September 20, 2016","2016","09","20","03","00","Europe/Kiev","12:00 AM GMT on September 20, 2016","2016","09","20","00","00","UTC","6.0","42.8","2.0","35.6","76","7.2","4.5","-9999.0","-9999.0","90","East","-9999.0","-9999.0","1012","29.89","4.5","40.2","-9999","-9999","-9999.00","-9999.00","Clear","clear","0","0","0","0","0","0","METAR UKKK 200000Z 09002MPS CAVOK 06/02 Q1012 R08/CLRD70 NOSIG"
"3:30 AM EEST on September 20, 2016","2016","09","20","03","30","Europe/Kiev","12:30 AM GMT on September 20, 2016","2016","09","20","00","30","UTC","7.0","44.6","3.0","37.4","76","7.2","4.5","-9999.0","-9999.0","100","East","-9999.0","-9999.0","1012","29.89","5.7","42.3","-9999","-9999","-9999.00","-9999.00","Clear","clear","0","0","0","0","0","0","METAR UKKK 200030Z 10002MPS CAVOK 07/03 Q1012 R08/CLRD70 NOSIG"
"4:00 AM EEST on September 20, 2016","2016","09","20","04","00","Europe/Kiev","1:00 AM GMT on September 20, 2016","2016","09","20","01","00","UTC","7.0","44.6","3.0","37.4","76","7.2","4.5","-9999.0","-9999.0","90","East","-9999.0","-9999.0","1012","29.89","5.7","42.3","-9999","-9999","-9999.00","-9999.00","Clear","clear","0","0","0","0","0","0","METAR UKKK 200100Z 09002MPS CAVOK 07/03 Q1012 R08/CLRD70 NOSIG"
"4:30 AM EEST on September 20, 2016","2016","09","20","04","30","Europe/Kiev","1:30 AM GMT on September 20, 2016","2016","09","20","01","30","UTC","7.0","44.6","3.0","37.4","76","7.2","4.5","-9999.0","-9999.0","90","East","-9999.0","-9999.0","1012","29.89","5.7","42.3","-9999","-9999","-9999.00","-9999.00","Clear","clear","0","0","0","0","0","0","METAR UKKK 200130Z 09002MPS CAVOK 07/03 Q1012 R08/CLRD70 NOSIG"
"5:00 AM EEST on September 20, 2016","2016","09","20","05","00","Europe/Kiev","2:00 AM GMT on September 20, 2016","2016","09","20","02","00","UTC","7.0","44.6","3.0","37.4","76","7.2","4.5","-9999.0","-9999.0","60","ENE","-9999.0","-9999.0","1012","29.89","5.7","42.3","-9999","-9999","-9999.00","-9999.00","Clear","clear","0","0","0","0","0","0","METAR UKKK 200200Z 06002MPS CAVOK 07/03 Q1012 R08/CLRD70 NOSIG"
"5:30 AM EEST on September 20, 2016","2016","09","20","05","30","Europe/Kiev","2:30 AM GMT on September 20, 2016","2016","09","20","02","30","UTC","7.0","44.6","3.0","37.4","76","7.2","4.5","-9999.0","-9999.0","80","East","-9999.0","-9999.0","1012","29.89","5.7","42.3","-9999","-9999","-9999.00","-9999.00","Clear","clear","0","0","0","0","0","0","METAR UKKK 200230Z 08002MPS CAVOK 07/03 Q1012 R08/CLRD70 NOSIG"
"6:00 AM EEST on September 20, 2016","2016","09","20","06","00","Europe/Kiev","3:00 AM GMT on September 20, 2016","2016","09","20","03","00","UTC","8","46","3","37","61","3.6","2.2","","","60","ENE","20","12","1012","29.90","-999","-999","-9999","-9999","","","Mostly Cloudy","mostlycloudy","0","0","0","0","0","0","AAXX 20031 33345 42798 70601 10077 20027 39920 40123 57010 87500 333 87650 555 10008"
"6:00 AM EEST on September 20, 2016","2016","09","20","06","00","Europe/Kiev","3:00 AM GMT on September 20, 2016","2016","09","20","03","00","UTC","7.0","44.6","3.0","37.4","76","7.2","4.5","-9999.0","-9999.0","70","ENE","-9999.0","-9999.0","1011","29.86","5.7","42.3","-9999","-9999","-9999.00","-9999.00","Clear","clear","0","0","0","0","0","0","METAR UKKK 200300Z 07002MPS CAVOK 07/03 Q1011 R08/CLRD70 NOSIG"
"6:30 AM EEST on September 20, 2016","2016","09","20","06","30","Europe/Kiev","3:30 AM GMT on September 20, 2016","2016","09","20","03","30","UTC","8.0","46.4","3.0","37.4","71","10.8","6.7","-9999.0","-9999.0","50","NE","-9999.0","-9999.0","1011","29.86","6.1","43.0","-9999","-9999","-9999.00","-9999.00","Clear","clear","0","0","0","0","0","0","METAR UKKK 200330Z 05003MPS CAVOK 08/03 Q1011 R08/CLRD70 NOSIG"
"7:00 AM EEST on September 20, 2016","2016","09","20","07","00","Europe/Kiev","4:00 AM GMT on September 20, 2016","2016","09","20","04","00","UTC","8.0","46.4","3.0","37.4","71","7.2","4.5","-9999.0","-9999.0","60","ENE","-9999.0","-9999.0","1011","29.86","6.9","44.4","-9999","-9999","-9999.00","-9999.00","Clear","clear","0","0","0","0","0","0","METAR UKKK 200400Z 06002MPS CAVOK 08/03 Q1011 R08/CLRD70 NOSIG"
"7:30 AM EEST on September 20, 2016","2016","09","20","07","30","Europe/Kiev","4:30 AM GMT on September 20, 2016","2016","09","20","04","30","UTC","9.0","48.2","2.0","35.6","62","7.2","4.5","-9999.0","-9999.0","40","NE","-9999.0","-9999.0","1011","29.86","-999","-999","-9999","-9999","-9999.00","-9999.00","Clear","clear","0","0","0","0","0","0","METAR UKKK 200430Z 04002MPS CAVOK 09/02 Q1011 R08/CLRD70 NOSIG"
"8:00 AM EEST on September 20, 2016","2016","09","20","08","00","Europe/Kiev","5:00 AM GMT on September 20, 2016","2016","09","20","05","00","UTC","9.0","48.2","2.0","35.6","62","7.2","4.5","-9999.0","-9999.0","60","ENE","-9999.0","-9999.0","1011","29.86","-999","-999","-9999","-9999","-9999.00","-9999.00","Clear","clear","0","0","0","0","0","0","METAR UKKK 200500Z 06002MPS CAVOK 09/02 Q1011 R08/CLRD70 NOSIG"
"8:30 AM EEST on September 20, 2016","2016","09","20","08","30","Europe/Kiev","5:30 AM GMT on September 20, 2016","2016","09","20","05","30","UTC","9.0","48.2","2.0","35.6","62","10.8","6.7","-9999.0","-9999.0","60","ENE","-9999.0","-9999.0","1011","29.86","-999","-999","-9999","-9999","-9999.00","-9999.00","Clear","clear","0","0","0","0","0","0","METAR UKKK 200530Z 06003MPS CAVOK 09/02 Q1011 R08/CLRD70 NOSIG"
"9:00 AM EEST on September 20, 2016","2016","09","20","09","00","Europe/Kiev","6:00 AM GMT on September 20, 2016","2016","09","20","06","00","UTC","9","48","3","38","57","7.2","4.5","","","60","ENE","20","12","1012","29.89","-999","-999","-9999","-9999","","","Overcast","cloudy","0","0","0","0","0","0","AAXX 20061 33345 32798 80602 10087 20031 39919 40121 56001 8655/ 333 20064 86650 555 10011 30004 52003"
"9:00 AM EEST on September 20, 2016","2016","09","20","09","00","Europe/Kiev","6:00 AM GMT on September 20, 2016","2016","09","20","06","00","UTC","9.0","48.2","3.0","37.4","66","10.8","6.7","-9999.0","-9999.0","20","NNE","-9999.0","-9999.0","1011","29.86","-999","-999","-9999","-9999","-9999.00","-9999.00","Clear","clear","0","0","0","0","0","0","METAR UKKK 200600Z 02003MPS CAVOK 09/03 Q1011 R08/CLRD70 NOSIG"
"9:30 AM EEST on September 20, 2016","2016","09","20","09","30","Europe/Kiev","6:30 AM GMT on September 20, 2016","2016","09","20","06","30","UTC","9.0","48.2","2.0","35.6","62","10.8","6.7","-9999.0","-9999.0","10","North","-9999.0","-9999.0","1011","29.86","-999","-999","-9999","-9999","-9999.00","-9999.00","Clear","clear","0","0","0","0","0","0","METAR UKKK 200630Z 01003MPS 340V040 CAVOK 09/02 Q1011 R08/CLRD70 NOSIG"
"10:00 AM EEST on September 20, 2016","2016","09","20","10","00","Europe/Kiev","7:00 AM GMT on September 20, 2016","2016","09","20","07","00","UTC","10.0","50.0","1.0","33.8","54","10.8","6.7","-9999.0","-9999.0","30","NNE","-9999.0","-9999.0","1011","29.86","-999","-999","-9999","-9999","-9999.00","-9999.00","Clear","clear","0","0","0","0","0","0","METAR UKKK 200700Z 03003MPS 360V070 CAVOK 10/01 Q1011 R08/CLRD70 NOSIG"
"10:30 AM EEST on September 20, 2016","2016","09","20","10","30","Europe/Kiev","7:30 AM GMT on September 20, 2016","2016","09","20","07","30","UTC","11.0","51.8","0.0","32.0","47","18.0","11.2","-9999.0","-9999.0","40","NE","-9999.0","-9999.0","1011","29.86","-999","-999","-9999","-9999","-9999.00","-9999.00","Clear","clear","0","0","0","0","0","0","METAR UKKK 200730Z 04005MPS CAVOK 11/00 Q1011 R08/CLRD70 NOSIG"
"11:00 AM EEST on September 20, 2016","2016","09","20","11","00","Europe/Kiev","8:00 AM GMT on September 20, 2016","2016","09","20","08","00","UTC","12.0","53.6","0.0","32.0","44","18.0","11.2","-9999.0","-9999.0","40","NE","-9999.0","-9999.0","1011","29.86","-999","-999","-9999","-9999","-9999.00","-9999.00","Clear","clear","0","0","0","0","0","0","METAR UKKK 200800Z 04005MPS 010V080 CAVOK 12/00 Q1011 R08/CLRD70 NOSIG"
"11:30 AM EEST on September 20, 2016","2016","09","20","11","30","Europe/Kiev","8:30 AM GMT on September 20, 2016","2016","09","20","08","30","UTC","11.0","51.8","0.0","32.0","47","18.0","11.2","-9999.0","-9999.0","20","NNE","-9999.0","-9999.0","1011","29.86","-999","-999","-9999","-9999","-9999.00","-9999.00","Clear","clear","0","0","0","0","0","0","METAR UKKK 200830Z 02005MPS CAVOK 11/M00 Q1011 R08/CLRD70 NOSIG"
"12:00 PM EEST on September 20, 2016","2016","09","20","12","00","Europe/Kiev","9:00 AM GMT on September 20, 2016","2016","09","20","09","00","UTC","11","52","1","34","38","10.8","6.7","","","30","NNE","20","12","1011","29.85","-999","-999","-9999","-9999","","","Overcast","cloudy","0","0","0","0","0","0","AAXX 20091 33345 42598 80303 10112 20012 39908 40108 58011 8495/ 555 10020"
"12:00 PM EEST on September 20, 2016","2016","09","20","12","00","Europe/Kiev","9:00 AM GMT on September 20, 2016","2016","09","20","09","00","UTC","11.0","51.8","0.0","32.0","47","18.0","11.2","-9999.0","-9999.0","50","NE","-9999.0","-9999.0","1010","29.83","-999","-999","-9999","-9999","-9999.00","-9999.00","Clear","clear","0","0","0","0","0","0","METAR UKKK 200900Z 05005MPS CAVOK 11/M00 Q1010 R08/CLRD70 NOSIG"
"12:30 PM EEST on September 20, 2016","2016","09","20","12","30","Europe/Kiev","9:30 AM GMT on September 20, 2016","2016","09","20","09","30","UTC","12.0","53.6","0.0","32.0","44","14.4","8.9","-9999.0","-9999.0","30","NNE","-9999.0","-9999.0","1010","29.83","-999","-999","-9999","-9999","-9999.00","-9999.00","Clear","clear","0","0","0","0","0","0","METAR UKKK 200930Z 03004MPS 360V060 CAVOK 12/00 Q1010 R08/CLRD70 NOSIG"
"1:00 PM EEST on September 20, 2016","2016","09","20","13","00","Europe/Kiev","10:00 AM GMT on September 20, 2016","2016","09","20","10","00","UTC","12.0","53.6","0.0","32.0","44","18.0","11.2","-9999.0","-9999.0","20","NNE","10.0","6.2","1010","29.83","-999","-999","-9999","-9999","-9999.00","-9999.00","Mostly Cloudy","mostlycloudy","0","0","0","0","0","0","METAR UKKK 201000Z 02005MPS 340V040 9999 BKN049 12/M00 Q1010 R08/CLRD70 NOSIG"
"1:30 PM EEST on September 20, 2016","2016","09","20","13","30","Europe/Kiev","10:30 AM GMT on September 20, 2016","2016","09","20","10","30","UTC","12.0","53.6","0.0","32.0","44","18.0","11.2","-9999.0","-9999.0","20","NNE","-9999.0","-9999.0","1010","29.83","-999","-999","-9999","-9999","-9999.00","-9999.00","Clear","clear","0","0","0","0","0","0","METAR UKKK 201030Z 02005MPS 340V050 CAVOK 12/M00 Q1010 R08/CLRD70 NOSIG"
"2:00 PM EEST on September 20, 2016","2016","09","20","14","00","Europe/Kiev","11:00 AM GMT on September 20, 2016","2016","09","20","11","00","UTC","12.0","53.6","1.0","33.8","47","18.0","11.2","-9999.0","-9999.0","360","North","10.0","6.2","1010","29.83","-999","-999","-9999","-9999","-9999.00","-9999.00","Mostly Cloudy","mostlycloudy","0","0","0","0","0","0","METAR UKKK 201100Z 36005MPS 320V030 9999 BKN043 12/01 Q1010 R08/CLRD70 NOSIG"
"2:30 PM EEST on September 20, 2016","2016","09","20","14","30","Europe/Kiev","11:30 AM GMT on September 20, 2016","2016","09","20","11","30","UTC","12.0","53.6","1.0","33.8","47","18.0","11.2","-9999.0","-9999.0","360","North","10.0","6.2","1009","29.80","-999","-999","-9999","-9999","-9999.00","-9999.00","Mostly Cloudy","mostlycloudy","0","0","0","0","0","0","METAR UKKK 201130Z 36005MPS 9999 BKN049 12/01 Q1009 R08/CLRD70 NOSIG"
"3:00 PM EEST on September 20, 2016","2016","09","20","15","00","Europe/Kiev","12:00 PM GMT on September 20, 2016","2016","09","20","12","00","UTC","12","53","-0","31","31","10.8","6.7","","","40","NE","20","12","1010","29.82","-999","-999","-9999","-9999","","","Mostly Cloudy","mostlycloudy","0","0","0","0","0","0","AAXX 20121 33345 32598 70403 10117 21003 39898 40098 57010 86970 555 10019"
"3:00 PM EEST on September 20, 2016","2016","09","20","15","00","Europe/Kiev","12:00 PM GMT on September 20, 2016","2016","09","20","12","00","UTC","12.0","53.6","2.0","35.6","51","10.8","6.7","-9999.0","-9999.0","10","North","10.0","6.2","1009","29.80","-999","-999","-9999","-9999","-9999.00","-9999.00","Mostly Cloudy","mostlycloudy","0","0","0","0","0","0","METAR UKKK 201200Z 01003MPS 300V040 9999 BKN042 12/02 Q1009 R08/CLRD70 NOSIG"
"3:30 PM EEST on September 20, 2016","2016","09","20","15","30","Europe/Kiev","12:30 PM GMT on September 20, 2016","2016","09","20","12","30","UTC","12.0","53.6","1.0","33.8","47","18.0","11.2","-9999.0","-9999.0","360","North","-9999.0","-9999.0","1009","29.80","-999","-999","-9999","-9999","-9999.00","-9999.00","Clear","clear","0","0","0","0","0","0","METAR UKKK 201230Z 36005MPS 310V030 CAVOK 12/01 Q1009 R08/CLRD70 NOSIG"
"4:00 PM EEST on September 20, 2016","2016","09","20","16","00","Europe/Kiev","1:00 PM GMT on September 20, 2016","2016","09","20","13","00","UTC","12.0","53.6","1.0","33.8","47","18.0","11.2","-9999.0","-9999.0","20","NNE","-9999.0","-9999.0","1009","29.80","-999","-999","-9999","-9999","-9999.00","-9999.00","Clear","clear","0","0","0","0","0","0","METAR UKKK 201300Z 02005MPS CAVOK 12/01 Q1009 R08/CLRD70 NOSIG"
"4:30 PM EEST on September 20, 2016","2016","09","20","16","30","Europe/Kiev","1:30 PM GMT on September 20, 2016","2016","09","20","13","30","UTC","12.0","53.6","1.0","33.8","47","14.4","8.9","-9999.0","-9999.0","350","North","-9999.0","-9999.0","1009","29.80","-999","-999","-9999","-9999","-9999.00","-9999.00","Clear","clear","0","0","0","0","0","0","METAR UKKK 201330Z 35004MPS CAVOK 12/01 Q1009 R08/CLRD70 NOSIG"
"5:00 PM EEST on September 20, 2016","2016","09","20","17","00","Europe/Kiev","2:00 PM GMT on September 20, 2016","2016","09","20","14","00","UTC","12.0","53.6","1.0","33.8","47","14.4","8.9","-9999.0","-9999.0","350","North","-9999.0","-9999.0","1009","29.80","-999","-999","-9999","-9999","-9999.00","-9999.00","Clear","clear","0","0","0","0","0","0","METAR UKKK 201400Z 35004MPS 330V030 CAVOK 12/01 Q1009 R08/CLRD70 NOSIG"
"5:30 PM EEST on September 20, 2016","2016","09","20","17","30","Europe/Kiev","2:30 PM GMT on September 20, 2016","2016","09","20","14","30","UTC","12.0","53.6","2.0","35.6","51","18.0","11.2","-9999.0","-9999.0","350","North","10.0","6.2","1009","29.80","-999","-999","-9999","-9999","-9999.00","-9999.00","Mostly Cloudy","mostlycloudy","0","0","0","0","0","0","METAR UKKK 201430Z 35005MPS 9999 BKN044 12/02 Q1009 R08/CLRD70 NOSIG"
"6:00 PM EEST on September 20, 2016","2016","09","20","18","00","Europe/Kiev","3:00 PM GMT on September 20, 2016","2016","09","20","15","00","UTC","11","53","2","35","38","14.4","8.9","","","30","NNE","20","12","1009","29.81","-999","-999","-9999","-9999","","","Overcast","cloudy","0","0","0","0","0","0","AAXX 20151 33345 42798 80304 10114 20015 39892 40092 57006 8657/ 555 10013"
"6:00 PM EEST on September 20, 2016","2016","09","20","18","00","Europe/Kiev","3:00 PM GMT on September 20, 2016","2016","09","20","15","00","UTC","11.0","51.8","2.0","35.6","54","14.4","8.9","-9999.0","-9999.0","360","North","-9999.0","-9999.0","1009","29.80","-999","-999","-9999","-9999","-9999.00","-9999.00","Clear","clear","0","0","0","0","0","0","METAR UKKK 201500Z 36004MPS CAVOK 11/02 Q1009 R08/CLRD70 NOSIG"
"6:30 PM EEST on September 20, 2016","2016","09","20","18","30","Europe/Kiev","3:30 PM GMT on September 20, 2016","2016","09","20","15","30","UTC","11.0","51.8","2.0","35.6","54","14.4","8.9","-9999.0","-9999.0","20","NNE","-9999.0","-9999.0","1009","29.80","-999","-999","-9999","-9999","-9999.00","-9999.00","Clear","clear","0","0","0","0","0","0","METAR UKKK 201530Z 02004MPS CAVOK 11/02 Q1009 R08/CLRD70 NOSIG"
"7:00 PM EEST on September 20, 2016","2016","09","20","19","00","Europe/Kiev","4:00 PM GMT on September 20, 2016","2016","09","20","16","00","UTC","11.0","51.8","2.0","35.6","54","14.4","8.9","-9999.0","-9999.0","350","North","10.0","6.2","1009","29.80","-999","-999","-9999","-9999","-9999.00","-9999.00","Mostly Cloudy","mostlycloudy","0","0","0","0","0","0","METAR UKKK 201600Z 35004MPS 9999 BKN038 11/02 Q1009 R08/CLRD70 NOSIG"
"7:30 PM EEST on September 20, 2016","2016","09","20","19","30","Europe/Kiev","4:30 PM GMT on September 20, 2016","2016","09","20","16","30","UTC","11.0","51.8","3.0","37.4","58","10.8","6.7","-9999.0","-9999.0","350","North","-9999.0","-9999.0","1009","29.80","-999","-999","-9999","-9999","-9999.00","-9999.00","Clear","clear","0","0","0","0","0","0","METAR UKKK 201630Z 35003MPS CAVOK 11/03 Q1009 R08/CLRD70 NOSIG"
"8:00 PM EEST on September 20, 2016","2016","09","20","20","00","Europe/Kiev","5:00 PM GMT on September 20, 2016","2016","09","20","17","00","UTC","11.0","51.8","3.0","37.4","58","21.6","13.4","-9999.0","-9999.0","20","NNE","10.0","6.2","1009","29.80","-999","-999","-9999","-9999","-9999.00","-9999.00","Mostly Cloudy","mostlycloudy","0","0","0","0","0","0","METAR UKKK 201700Z 02006MPS 9999 BKN038 11/03 Q1009 R08/CLRD70 NOSIG"
"8:30 PM EEST on September 20, 2016","2016","09","20","20","30","Europe/Kiev","5:30 PM GMT on September 20, 2016","2016","09","20","17","30","UTC","11.0","51.8","3.0","37.4","58","18.0","11.2","-9999.0","-9999.0","20","NNE","10.0","6.2","1010","29.83","-999","-999","-9999","-9999","-9999.00","-9999.00","Mostly Cloudy","mostlycloudy","0","0","0","0","0","0","METAR UKKK 201730Z 02005MPS 330V050 9999 BKN038 11/03 Q1010 R08/CLRD70 NOSIG"
"9:00 PM EEST on September 20, 2016","2016","09","20","21","00","Europe/Kiev","6:00 PM GMT on September 20, 2016","2016","09","20","18","00","UTC","10","51","2","36","46","10.8","6.7","","","40","NE","20","12","1010","29.83","-999","-999","-9999","-9999","","","Overcast","cloudy","0","0","0","0","0","0","AAXX 20181 33345 32998 80403 10104 20025 39900 40101 53008 8807/ 333 10123 555 10010"
"9:00 PM EEST on September 20, 2016","2016","09","20","21","00","Europe/Kiev","6:00 PM GMT on September 20, 2016","2016","09","20","18","00","UTC","10.0","50.0","2.0","35.6","58","18.0","11.2","-9999.0","-9999.0","30","NNE","-9999.0","-9999.0","1010","29.83","-999","-999","-9999","-9999","-9999.00","-9999.00","Clear","clear","0","0","0","0","0","0","METAR UKKK 201800Z 03005MPS CAVOK 10/02 Q1010 R08/CLRD70 NOSIG"
"9:30 PM EEST on September 20, 2016","2016","09","20","21","30","Europe/Kiev","6:30 PM GMT on September 20, 2016","2016","09","20","18","30","UTC","10.0","50.0","3.0","37.4","62","14.4","8.9","-9999.0","-9999.0","20","NNE","-9999.0","-9999.0","1010","29.83","-999","-999","-9999","-9999","-9999.00","-9999.00","Clear","clear","0","0","0","0","0","0","METAR UKKK 201830Z 02004MPS CAVOK 10/03 Q1010 R08/CLRD70 NOSIG"
"10:00 PM EEST on September 20, 2016","2016","09","20","22","00","Europe/Kiev","7:00 PM GMT on September 20, 2016","2016","09","20","19","00","UTC","10.0","50.0","3.0","37.4","62","18.0","11.2","-9999.0","-9999.0","20","NNE","-9999.0","-9999.0","1009","29.80","-999","-999","-9999","-9999","-9999.00","-9999.00","Clear","clear","0","0","0","0","0","0","METAR UKKK 201900Z 02005MPS CAVOK 10/03 Q1009 R08/CLRD70 NOSIG"
"10:30 PM EEST on September 20, 2016","2016","09","20","22","30","Europe/Kiev","7:30 PM GMT on September 20, 2016","2016","09","20","19","30","UTC","10.0","50.0","3.0","37.4","62","14.4","8.9","-9999.0","-9999.0","20","NNE","10.0","6.2","1010","29.83","-999","-999","-9999","-9999","-9999.00","-9999.00","Mostly Cloudy","mostlycloudy","0","0","0","0","0","0","METAR UKKK 201930Z 02004MPS 9999 BKN048 10/03 Q1010 R08/CLRD70 NOSIG"
"11:00 PM EEST on September 20, 2016","2016","09","20","23","00","Europe/Kiev","8:00 PM GMT on September 20, 2016","2016","09","20","20","00","UTC","10.0","50.0","3.0","37.4","62","14.4","8.9","-9999.0","-9999.0","10","North","10.0","6.2","1010","29.83","-999","-999","-9999","-9999","-9999.00","-9999.00","Mostly Cloudy","mostlycloudy","0","0","0","0","0","0","METAR UKKK 202000Z 01004MPS 9999 BKN048 10/03 Q1010 R08/CLRD70 NOSIG"
"11:30 PM EEST on September 20, 2016","2016","09","20","23","30","Europe/Kiev","8:30 PM GMT on September 20, 2016","2016","09","20","20","30","UTC","10.0","50.0","3.0","37.4","62","10.8","6.7","-9999.0","-9999.0","10","North","-9999.0","-9999.0","1010","29.83","-999","-999","-9999","-9999","-9999.00","-9999.00","Clear","clear","0","0","0","0","0","0","METAR UKKK 202030Z 01003MPS CAVOK 10/03 Q1010 R08/CLRD70 NOSIG"
"12:00 AM EEST on September 21, 2016","2016","09","21","00","00","Europe/Kiev","9:00 PM GMT on September 20, 2016","2016","09","20","21","00","UTC","10","50","3","37","50","14.4","8.9","","","40","NE","20","12","1010","29.84","-999","-999","-9999","-9999","","","Mostly Cloudy","mostlycloudy","0","0","0","0","0","0","AAXX 20211 33345 42698 70404 10099 20027 39904 40105 52004 86570 333 86647 555 10010"
"12:00 AM EEST on September 21, 2016","2016","09","21","00","00","Europe/Kiev","9:00 PM GMT on September 20, 2016","2016","09","20","21","00","UTC","10.0","50.0","2.0","35.6","58","14.4","8.9","-9999.0","-9999.0","10","North","-9999.0","-9999.0","1010","29.83","-999","-999","-9999","-9999","-9999.00","-9999.00","Clear","clear","0","0","0","0","0","0","METAR UKKK 202100Z 01004MPS CAVOK 10/02 Q1010 R08/CLRD70 NOSIG"
"12:30 AM EEST on September 21, 2016","2016","09","21","00","30","Europe/Kiev","9:30 PM GMT on September 20, 2016","2016","09","20","21","30","UTC","9.0","48.2","3.0","37.4","66","18.0","11.2","-9999.0","-9999.0","10","North","10.0","6.2","1010","29.83","-999","-999","-9999","-9999","-9999.00","-9999.00","Mostly Cloudy","mostlycloudy","0","0","0","0","0","0","METAR UKKK 202130Z 01005MPS 9999 BKN047 09/03 Q1010 R08/CLRD70 NOSIG"
"1:00 AM EEST on September 21, 2016","2016","09","21","01","00","Europe/Kiev","10:00 PM GMT on September 20, 2016","2016","09","20","22","00","UTC","10.0","50.0","3.0","37.4","62","14.4","8.9","-9999.0","-9999.0","20","NNE","10.0","6.2","1010","29.83","-999","-999","-9999","-9999","-9999.00","-9999.00","Mostly Cloudy","mostlycloudy","0","0","0","0","0","0","METAR UKKK 202200Z 02004MPS 9999 BKN047 10/03 Q1010 R08/CLRD70 NOSIG"
"1:30 AM EEST on September 21, 2016","2016","09","21","01","30","Europe/Kiev","10:30 PM GMT on September 20, 2016","2016","09","20","22","30","UTC","10.0","50.0","3.0","37.4","62","14.4","8.9","-9999.0","-9999.0","360","North","-9999.0","-9999.0","1010","29.83","-999","-999","-9999","-9999","-9999.00","-9999.00","Clear","clear","0","0","0","0","0","0","METAR UKKK 202230Z 36004MPS 310V030 CAVOK 10/03 Q1010 R08/CLRD70 NOSIG"
"2:00 AM EEST on September 21, 2016","2016","09","21","02","00","Europe/Kiev","11:00 PM GMT on September 20, 2016","2016","09","20","23","00","UTC","9.0","48.2","3.0","37.4","66","10.8","6.7","-9999.0","-9999.0","330","NNW","-9999.0","-9999.0","1010","29.83","-999","-999","-9999","-9999","-9999.00","-9999.00","Clear","clear","0","0","0","0","0","0","METAR UKKK 202300Z 33003MPS CAVOK 09/03 Q1010 R08/CLRD70 NOSIG"
"2:30 AM EEST on September 21, 2016","2016","09","21","02","30","Europe/Kiev","11:30 PM GMT on September 20, 2016","2016","09","20","23","30","UTC","9.0","48.2","4.0","39.2","71","10.8","6.7","-9999.0","-9999.0","340","NNW","-9999.0","-9999.0","1010","29.83","-999","-999","-9999","-9999","-9999.00","-9999.00","Clear","clear","0","0","0","0","0","0","METAR UKKK 202330Z 34003MPS CAVOK 09/04 Q1010 R08/CLRD70 NOSIG"
"3:00 AM EEST on September 21, 2016","2016","09","21","03","00","Europe/Kiev","12:00 AM GMT on September 21, 2016","2016","09","21","00","00","UTC","9","49","4","38","57","10.8","6.7","","","50","NE","20","12","1010","29.83","-999","-999","-9999","-9999","","","Mostly Cloudy","mostlycloudy","0","0","0","0","0","0","AAXX 21001 33345 32798 70503 10092 20035 39900 40102 58004 86530 555 10009"
"3:00 AM EEST on September 21, 2016","2016","09","21","03","00","Europe/Kiev","12:00 AM GMT on September 21, 2016","2016","09","21","00","00","UTC","9.0","48.2","4.0","39.2","71","10.8","6.7","-9999.0","-9999.0","330","NNW","-9999.0","-9999.0","1010","29.83","-999","-999","-9999","-9999","-9999.00","-9999.00","Clear","clear","0","0","0","0","0","0","METAR UKKK 210000Z 33003MPS CAVOK 09/04 Q1010 R08/CLRD70 NOSIG"
"3:30 AM EEST on September 21, 2016","2016","09","21","03","30","Europe/Kiev","12:30 AM GMT on September 21, 2016","2016","09","21","00","30","UTC","9.0","48.2","4.0","39.2","71","10.8","6.7","-9999.0","-9999.0","330","NNW","-9999.0","-9999.0","1010","29.83","-999","-999","-9999","-9999","-9999.00","-9999.00","Clear","clear","0","0","0","0","0","0","METAR UKKK 210030Z 33003MPS CAVOK 09/04 Q1010 R08/CLRD70 NOSIG"
"4:00 AM EEST on September 21, 2016","2016","09","21","04","00","Europe/Kiev","1:00 AM GMT on September 21, 2016","2016","09","21","01","00","UTC","9.0","48.2","4.0","39.2","71","10.8","6.7","-9999.0","-9999.0","330","NNW","-9999.0","-9999.0","1010","29.83","-999","-999","-9999","-9999","-9999.00","-9999.00","Clear","clear","0","0","0","0","0","0","METAR UKKK 210100Z 33003MPS CAVOK 09/04 Q1010 R08/CLRD70 NOSIG"
"4:30 AM EEST on September 21, 2016","2016","09","21","04","30","Europe/Kiev","1:30 AM GMT on September 21, 2016","2016","09","21","01","30","UTC","8.0","46.4","4.0","39.2","76","10.8","6.7","-9999.0","-9999.0","330","NNW","-9999.0","-9999.0","1010","29.83","6.1","43.0","-9999","-9999","-9999.00","-9999.00","Clear","clear","0","0","0","0","0","0","METAR UKKK 210130Z 33003MPS CAVOK 08/04 Q1010 R26/CLRD70 NOSIG"
"5:00 AM EEST on September 21, 2016","2016","09","21","05","00","Europe/Kiev","2:00 AM GMT on September 21, 2016","2016","09","21","02","00","UTC","8.0","46.4","4.0","39.2","76","14.4","8.9","-9999.0","-9999.0","330","NNW","10.0","6.2","1010","29.83","5.6","42.0","-9999","-9999","-9999.00","-9999.00","Mostly Cloudy","mostlycloudy","0","0","0","0","0","0","METAR UKKK 210200Z 33004MPS 9999 BKN046 08/04 Q1010 R26/CLRD70 NOSIG"
"5:30 AM EEST on September 21, 2016","2016","09","21","05","30","Europe/Kiev","2:30 AM GMT on September 21, 2016","2016","09","21","02","30","UTC","8.0","46.4","4.0","39.2","76","10.8","6.7","-9999.0","-9999.0","330","NNW","-9999.0","-9999.0","1010","29.83","6.1","43.0","-9999","-9999","-9999.00","-9999.00","Clear","clear","0","0","0","0","0","0","METAR UKKK 210230Z 33003MPS CAVOK 08/04 Q1010 R26/CLRD70 NOSIG"
"6:00 AM EEST on September 21, 2016","2016","09","21","06","00","Europe/Kiev","3:00 AM GMT on September 21, 2016","2016","09","21","03","00","UTC","8","47","4","39","65","7.2","4.5","","","350","North","20","12","1010","29.84","-999","-999","-9999","-9999","","","Overcast","cloudy","0","0","0","0","0","0","AAXX 21031 33345 42698 83502 10085 20039 39903 40105 53003 8657/ 333 86643 555 10008"
"6:00 AM EEST on September 21, 2016","2016","09","21","06","00","Europe/Kiev","3:00 AM GMT on September 21, 2016","2016","09","21","03","00","UTC","8.0","46.4","4.0","39.2","76","10.8","6.7","-9999.0","-9999.0","320","NW","10.0","6.2","1010","29.83","6.1","43.0","-9999","-9999","-9999.00","-9999.00","Mostly Cloudy","mostlycloudy","0","0","0","0","0","0","METAR UKKK 210300Z 32003MPS 300V010 9999 BKN041 08/04 Q1010 R26/CLRD70 NOSIG"
"6:30 AM EEST on September 21, 2016","2016","09","21","06","30","Europe/Kiev","3:30 AM GMT on September 21, 2016","2016","09","21","03","30","UTC","8.0","46.4","4.0","39.2","76","14.4","8.9","-9999.0","-9999.0","330","NNW","10.0","6.2","1010","29.83","5.6","42.0","-9999","-9999","-9999.00","-9999.00","Overcast","cloudy","0","0","0","0","0","0","METAR UKKK 210330Z 33004MPS 9999 OVC037 08/04 Q1010 R26/CLRD70 NOSIG"
"7:00 AM EEST on September 21, 2016","2016","09","21","07","00","Europe/Kiev","4:00 AM GMT on September 21, 2016","2016","09","21","04","00","UTC","8.0","46.4","4.0","39.2","76","14.4","8.9","-9999.0","-9999.0","330","NNW","10.0","6.2","1010","29.83","5.6","42.0","-9999","-9999","-9999.00","-9999.00","Overcast","cloudy","0","0","0","0","0","0","METAR UKKK 210400Z 33004MPS 9999 OVC034 08/04 Q1010 R26/CLRD70 NOSIG"
"7:30 AM EEST on September 21, 2016","2016","09","21","07","30","Europe/Kiev","4:30 AM GMT on September 21, 2016","2016","09","21","04","30","UTC","8.0","46.4","4.0","39.2","76","14.4","8.9","-9999.0","-9999.0","330","NNW","10.0","6.2","1010","29.83","5.6","42.0","-9999","-9999","-9999.00","-9999.00","Light Rain Showers","rain","0","1","0","0","0","0","METAR UKKK 210430Z 33004MPS 9999 -SHRA FEW030CB OVC043 08/04 Q1010 R26/CLRD70 NOSIG"
"8:00 AM EEST on September 21, 2016","2016","09","21","08","00","Europe/Kiev","5:00 AM GMT on September 21, 2016","2016","09","21","05","00","UTC","7.0","44.6","6.0","42.8","93","14.4","8.9","-9999.0","-9999.0","320","NW","7.0","4.3","1010","29.83","4.3","39.8","-9999","-9999","-9999.00","-9999.00","Light Rain Showers","rain","0","1","0","0","0","0","METAR UKKK 210500Z 32004MPS 7000 -SHRA FEW013 SCT028CB OVC043 07/06 Q1010 R26/CLRD70 NOSIG"
"8:30 AM EEST on September 21, 2016","2016","09","21","08","30","Europe/Kiev","5:30 AM GMT on September 21, 2016","2016","09","21","05","30","UTC","8.0","46.4","6.0","42.8","87","10.8","6.7","-9999.0","-9999.0","330","NNW","10.0","6.2","1010","29.83","6.1","43.0","-9999","-9999","-9999.00","-9999.00","Mostly Cloudy","mostlycloudy","0","0","0","0","0","0","METAR UKKK 210530Z 33003MPS 9999 SCT012 BKN046 08/06 Q1010 R26/290058 NOSIG"
"9:00 AM EEST on September 21, 2016","2016","09","21","09","00","Europe/Kiev","6:00 AM GMT on September 21, 2016","2016","09","21","06","00","UTC","9","49","6","43","71","10.8","6.7","","","0","North","20","12","1010","29.84","-999","-999","-9999","-9999","","","Partly Cloudy","partlycloudy","0","0","0","0","0","0","AAXX 21061 33345 32598 63603 10094 20059 39904 40105 52001 84949 333 20082 555 10016"
"9:00 AM EEST on September 21, 2016","2016","09","21","09","00","Europe/Kiev","6:00 AM GMT on September 21, 2016","2016","09","21","06","00","UTC","9.0","48.2","7.0","44.6","87","10.8","6.7","-9999.0","-9999.0","330","NNW","10.0","6.2","1010","29.83","-999","-999","-9999","-9999","-9999.00","-9999.00","Mostly Cloudy","mostlycloudy","0","0","0","0","0","0","METAR UKKK 210600Z 33003MPS 300V360 9999 SCT011 BKN053 09/07 Q1010 R26/290058 NOSIG"
"9:30 AM EEST on September 21, 2016","2016","09","21","09","30","Europe/Kiev","6:30 AM GMT on September 21, 2016","2016","09","21","06","30","UTC","9.0","48.2","7.0","44.6","87","14.4","8.9","-9999.0","-9999.0","330","NNW","10.0","6.2","1010","29.83","-999","-999","-9999","-9999","-9999.00","-9999.00","Mostly Cloudy","mostlycloudy","0","0","0","0","0","0","METAR UKKK 210630Z 33004MPS 9999 SCT011 BKN053 09/07 Q1010 R26/290058 NOSIG"
"10:00 AM EEST on September 21, 2016","2016","09","21","10","00","Europe/Kiev","7:00 AM GMT on September 21, 2016","2016","09","21","07","00","UTC","10.0","50.0","7.0","44.6","82","14.4","8.9","-9999.0","-9999.0","350","North","10.0","6.2","1010","29.83","-999","-999","-9999","-9999","-9999.00","-9999.00","Mostly Cloudy","mostlycloudy","0","0","0","0","0","0","METAR UKKK 210700Z 35004MPS 310V030 9999 SCT014 BKN048 10/07 Q1010 R26/290058 NOSIG"
"10:30 AM EEST on September 21, 2016","2016","09","21","10","30","Europe/Kiev","7:30 AM GMT on September 21, 2016","2016","09","21","07","30","UTC","11.0","51.8","7.0","44.6","76","7.2","4.5","-9999.0","-9999.0","360","North","10.0","6.2","1010","29.83","-999","-999","-9999","-9999","-9999.00","-9999.00","Mostly Cloudy","mostlycloudy","0","0","0","0","0","0","METAR UKKK 210730Z 36002MPS 320V040 9999 BKN021 11/07 Q1010 R26/290058 NOSIG"
"11:00 AM EEST on September 21, 2016","2016","09","21","11","00","Europe/Kiev","8:00 AM GMT on September 21, 2016","2016","09","21","08","00","UTC","12.0","53.6","6.0","42.8","67","14.4","8.9","-9999.0","-9999.0","340","NNW","10.0","6.2","1010","29.83","-999","-999","-9999","-9999","-9999.00","-9999.00","Mostly Cloudy","mostlycloudy","0","0","0","0","0","0","METAR UKKK 210800Z 34004MPS 310V020 9999 BKN044 12/06 Q1010 R08/290058 NOSIG"
"11:30 AM EEST on September 21, 2016","2016","09","21","11","30","Europe/Kiev","8:30 AM GMT on September 21, 2016","2016","09","21","08","30","UTC","12.0","53.6","5.0","41.0","62","14.4","8.9","-9999.0","-9999.0","350","North","10.0","6.2","1010","29.83","-999","-999","-9999","-9999","-9999.00","-9999.00","Mostly Cloudy","mostlycloudy","0","0","0","0","0","0","METAR UKKK 210830Z 35004MPS 310V030 9999 BKN040 12/05 Q1010 R08/290058 NOSIG"
"12:00 PM EEST on September 21, 2016","2016","09","21","12","00","Europe/Kiev","9:00 AM GMT on September 21, 2016","2016","09","21","09","00","UTC","12","54","5","40","49","10.8","6.7","","","50","NE","20","12","1010","29.84","-999","-999","-9999","-9999","","","Mostly Cloudy","mostlycloudy","0","0","0","0","0","0","AAXX 21091 33345 42598 70503 10120 20046 39905 40105 52001 86930 555 10020"
"12:00 PM EEST on September 21, 2016","2016","09","21","12","00","Europe/Kiev","9:00 AM GMT on September 21, 2016","2016","09","21","09","00","UTC","13.0","55.4","5.0","41.0","58","14.4","8.9","-9999.0","-9999.0","340","NNW","10.0","6.2","1010","29.83","-999","-999","-9999","-9999","-9999.00","-9999.00","Mostly Cloudy","mostlycloudy","0","0","0","0","0","0","METAR UKKK 210900Z 34004MPS 310V010 9999 BKN041 13/05 Q1010 R08/150060 NOSIG"
"12:30 PM EEST on September 21, 2016","2016","09","21","12","30","Europe/Kiev","9:30 AM GMT on September 21, 2016","2016","09","21","09","30","UTC","12.0","53.6","4.0","39.2","58","14.4","8.9","-9999.0","-9999.0","330","NNW","10.0","6.2","1010","29.83","-999","-999","-9999","-9999","-9999.00","-9999.00","Mostly Cloudy","mostlycloudy","0","0","0","0","0","0","METAR UKKK 210930Z 33004MPS 9999 BKN033 12/04 Q1010 R08/150060 NOSIG"
"1:00 PM EEST on September 21, 2016","2016","09","21","13","00","Europe/Kiev","10:00 AM GMT on September 21, 2016","2016","09","21","10","00","UTC","12.0","53.6","4.0","39.2","58","18.0","11.2","-9999.0","-9999.0","320","NW","10.0","6.2","1010","29.83","-999","-999","-9999","-9999","-9999.00","-9999.00","Mostly Cloudy","mostlycloudy","0","0","0","0","0","0","METAR UKKK 211000Z 32005MPS 280V340 9999 SCT023CB BKN053 12/04 Q1010 R08/150060 TEMPO 2100 -SHRA SCT015CB"
"1:30 PM EEST on September 21, 2016","2016","09","21","13","30","Europe/Kiev","10:30 AM GMT on September 21, 2016","2016","09","21","10","30","UTC","12.0","53.6","5.0","41.0","62","10.8","6.7","-9999.0","-9999.0","310","NW","10.0","6.2","1010","29.83","-999","-999","-9999","-9999","-9999.00","-9999.00","Light Rain Showers","rain","0","1","0","0","0","0","METAR UKKK 211030Z 31003MPS 9999 -SHRA SCT023CB BKN053 12/05 Q1010 R08/150060 TEMPO 2100 -SHRA SCT015CB"
"2:00 PM EEST on September 21, 2016","2016","09","21","14","00","Europe/Kiev","11:00 AM GMT on September 21, 2016","2016","09","21","11","00","UTC","12.0","53.6","7.0","44.6","72","14.4","8.9","-9999.0","-9999.0","360","North","9.0","5.6","1010","29.83","-999","-999","-9999","-9999","-9999.00","-9999.00","Light Rain Showers","rain","0","1","0","0","0","0","METAR UKKK 211100Z 36004MPS 9000 -SHRA SCT023CB BKN053 12/07 Q1010 R08/190060 TEMPO 2100 -SHRA SCT015CB"
"2:30 PM EEST on September 21, 2016","2016","09","21","14","30","Europe/Kiev","11:30 AM GMT on September 21, 2016","2016","09","21","11","30","UTC","12.0","53.6","5.0","41.0","62","18.0","11.2","-9999.0","-9999.0","330","NNW","10.0","6.2","1010","29.83","-999","-999","-9999","-9999","-9999.00","-9999.00","Light Rain Showers","rain","0","1","0","0","0","0","METAR UKKK 211130Z 33005MPS 300V360 9999 -SHRA SCT023CB BKN053 12/05 Q1010 R08/190060 TEMPO 2100 -SHRA SCT015CB"
"3:00 PM EEST on September 21, 2016","2016","09","21","15","00","Europe/Kiev","12:00 PM GMT on September 21, 2016","2016","09","21","12","00","UTC","12","54","6","42","55","10.8","6.7","","","10","North","20","12","1011","29.85","-999","-999","-9999","-9999","","","Light Rain Showers","rain","0","1","0","0","0","0","AAXX 21121 33345 /1598 60103 10120 20058 39906 40106 52001 72582 86910 555 10019 69901"
"3:00 PM EEST on September 21, 2016","2016","09","21","15","00","Europe/Kiev","12:00 PM GMT on September 21, 2016","2016","09","21","12","00","UTC","11.0","51.8","5.0","41.0","67","25.2","15.7","-9999.0","-9999.0","330","NNW","9.0","5.6","1010","29.83","-999","-999","-9999","-9999","-9999.00","-9999.00","Light Rain Showers","rain","0","1","0","0","0","0","METAR UKKK 211200Z 33007MPS 9000 -SHRA SCT027CB BKN053 11/05 Q1010 R26/190060 TEMPO 2100 -SHRA SCT015CB"
"3:30 PM EEST on September 21, 2016","2016","09","21","15","30","Europe/Kiev","12:30 PM GMT on September 21, 2016","2016","09","21","12","30","UTC","11.0","51.8","6.0","42.8","71","14.4","8.9","-9999.0","-9999.0","340","NNW","9.0","5.6","1010","29.83","-999","-999","-9999","-9999","-9999.00","-9999.00","Light Rain Showers","rain","0","1","0","0","0","0","METAR UKKK 211230Z 34004MPS 300V360 9000 -SHRA SCT027CB BKN053 11/06 Q1010 R26/290058 TEMPO 2100 -SHRA SCT015CB"
"4:00 PM EEST on September 21, 2016","2016","09","21","16","00","Europe/Kiev","1:00 PM GMT on September 21, 2016","2016","09","21","13","00","UTC","12.0","53.6","7.0","44.6","72","7.2","4.5","-9999.0","-9999.0","340","NNW","10.0","6.2","1010","29.83","-999","-999","-9999","-9999","-9999.00","-9999.00","Mostly Cloudy","mostlycloudy","0","0","0","0","0","0","METAR UKKK 211300Z 34002MPS 300V020 9999 SCT025CB BKN053 12/07 Q1010 R26/290058 TEMPO 2100 -SHRA SCT015CB"
"4:30 PM EEST on September 21, 2016","2016","09","21","16","30","Europe/Kiev","1:30 PM GMT on September 21, 2016","2016","09","21","13","30","UTC","10.0","50.0","7.0","44.6","82","14.4","8.9","-9999.0","-9999.0","30","NNE","7.0","4.3","1010","29.83","-999","-999","-9999","-9999","-9999.00","-9999.00","Light Rain Showers","rain","0","1","0","0","0","0","METAR UKKK 211330Z 03004MPS 350V070 7000 -SHRA SCT025CB BKN040 10/07 Q1010 R26/290058 TEMPO 2100 -SHRA SCT015CB"
"5:00 PM EEST on September 21, 2016","2016","09","21","17","00","Europe/Kiev","2:00 PM GMT on September 21, 2016","2016","09","21","14","00","UTC","9.0","48.2","8.0","46.4","93","7.2","4.5","-9999.0","-9999.0","270","West","10.0","6.2","1010","29.83","-999","-999","-9999","-9999","-9999.00","-9999.00","Light Rain Showers","rain","0","1","0","0","0","0","METAR UKKK 211400Z 27002MPS 240V310 9999 -SHRA SCT025CB BKN040 09/08 Q1010 R26/290157 NOSIG"
"5:30 PM EEST on September 21, 2016","2016","09","21","17","30","Europe/Kiev","2:30 PM GMT on September 21, 2016","2016","09","21","14","30","UTC","10.0","50.0","8.0","46.4","87","7.2","4.5","-9999.0","-9999.0","280","West","10.0","6.2","1010","29.83","-999","-999","-9999","-9999","-9999.00","-9999.00","Mostly Cloudy","mostlycloudy","0","0","0","0","0","0","METAR UKKK 211430Z 28002MPS 9999 SCT025CB BKN040 10/08 Q1010 R26/290157 NOSIG"
"6:00 PM EEST on September 21, 2016","2016","09","21","18","00","Europe/Kiev","3:00 PM GMT on September 21, 2016","2016","09","21","15","00","UTC","10","49","8","46","83","7.2","4.5","","","0","North","20","12","1011","29.86","-999","-999","-9999","-9999","","","Light Rain Showers","rain","0","1","0","0","0","0","AAXX 21151 33345 41598 63602 10096 20075 39909 40110 52003 78082 86300 555 11012"
"6:00 PM EEST on September 21, 2016","2016","09","21","18","00","Europe/Kiev","3:00 PM GMT on September 21, 2016","2016","09","21","15","00","UTC","11.0","51.8","8.0","46.4","82","14.4","8.9","-9999.0","-9999.0","350","North","9.0","5.6","1010","29.83","-999","-999","-9999","-9999","-9999.00","-9999.00","Light Rain Showers","rain","0","1","0","0","0","0","METAR UKKK 211500Z 35004MPS 320V020 9000 -SHRA SCT021CB BKN040 11/08 Q1010 R26/290157 TEMPO 2100 -SHRA BKN015CB"
"6:30 PM EEST on September 21, 2016","2016","09","21","18","30","Europe/Kiev","3:30 PM GMT on September 21, 2016","2016","09","21","15","30","UTC","10.0","50.0","7.0","44.6","82","14.4","8.9","-9999.0","-9999.0","340","NNW","10.0","6.2","1011","29.86","-999","-999","-9999","-9999","-9999.00","-9999.00","Light Rain Showers","rain","0","1","0","0","0","0","METAR UKKK 211530Z 34004MPS 9999 -SHRA SCT021CB BKN043 10/07 Q1011 R26/290157 TEMPO 2100 -SHRA BKN015CB"
"7:00 PM EEST on September 21, 2016","2016","09","21","19","00","Europe/Kiev","4:00 PM GMT on September 21, 2016","2016","09","21","16","00","UTC","9.0","48.2","7.0","44.6","87","14.4","8.9","-9999.0","-9999.0","330","NNW","10.0","6.2","1011","29.86","-999","-999","-9999","-9999","-9999.00","-9999.00","Light Rain Showers","rain","0","1","0","0","0","0","METAR UKKK 211600Z 33004MPS 9999 -SHRA SCT030CB BKN046 09/07 Q1011 R26/290157 TEMPO 2100 -SHRA BKN015CB"
"7:30 PM EEST on September 21, 2016","2016","09","21","19","30","Europe/Kiev","4:30 PM GMT on September 21, 2016","2016","09","21","16","30","UTC","9.0","48.2","7.0","44.6","87","14.4","8.9","-9999.0","-9999.0","320","NW","9.0","5.6","1011","29.86","-999","-999","-9999","-9999","-9999.00","-9999.00","Mostly Cloudy","mostlycloudy","0","0","0","0","0","0","METAR UKKK 211630Z 32004MPS 9000 SCT019 BKN060 09/07 Q1011 R26/290157 TEMPO 2100 -SHRA BKN015CB"
"8:00 PM EEST on September 21, 2016","2016","09","21","20","00","Europe/Kiev","5:00 PM GMT on September 21, 2016","2016","09","21","17","00","UTC","9.0","48.2","7.0","44.6","87","10.8","6.7","-9999.0","-9999.0","360","North","10.0","6.2","1011","29.86","-999","-999","-9999","-9999","-9999.00","-9999.00","Mostly Cloudy","mostlycloudy","0","0","0","0","0","0","METAR UKKK 211700Z 36003MPS 330V040 9999 SCT036 BKN100 09/07 Q1011 R26/290157 TEMPO 2100 -SHRA BKN015CB"
"8:30 PM EEST on September 21, 2016","2016","09","21","20","30","Europe/Kiev","5:30 PM GMT on September 21, 2016","2016","09","21","17","30","UTC","9.0","48.2","7.0","44.6","87","10.8","6.7","-9999.0","-9999.0","330","NNW","-9999.0","-9999.0","1011","29.86","-999","-999","-9999","-9999","-9999.00","-9999.00","Clear","clear","0","0","0","0","0","0","METAR UKKK 211730Z 33003MPS 300V360 CAVOK 09/07 Q1011 R26/290157 TEMPO 2100 -SHRA BKN015CB"
"9:00 PM EEST on September 21, 2016","2016","09","21","21","00","Europe/Kiev","6:00 PM GMT on September 21, 2016","2016","09","21","18","00","UTC","8","47","6","43","81","3.6","2.2","","","0","North","20","12","1012","29.88","-999","-999","-9999","-9999","","","Partly Cloudy","partlycloudy","0","0","0","0","0","0","AAXX 21181 33345 11998 53601 10083 20061 39916 40118 52007 60022 70282 85040 333 10140 555 11007"
"9:00 PM EEST on September 21, 2016","2016","09","21","21","00","Europe/Kiev","6:00 PM GMT on September 21, 2016","2016","09","21","18","00","UTC","9.0","48.2","7.0","44.6","87","7.2","4.5","-9999.0","-9999.0","320","NW","10.0","6.2","1011","29.86","-999","-999","-9999","-9999","-9999.00","-9999.00","Mostly Cloudy","mostlycloudy","0","0","0","0","0","0","METAR UKKK 211800Z 32002MPS 9999 SCT041 BKN100 09/07 Q1011 R26/290157 TEMPO 2100 -SHRA BKN015CB"
"9:30 PM EEST on September 21, 2016","2016","09","21","21","30","Europe/Kiev","6:30 PM GMT on September 21, 2016","2016","09","21","18","30","UTC","9.0","48.2","7.0","44.6","87","7.2","4.5","-9999.0","-9999.0","300","WNW","10.0","6.2","1011","29.86","-999","-999","-9999","-9999","-9999.00","-9999.00","Mostly Cloudy","mostlycloudy","0","0","0","0","0","0","METAR UKKK 211830Z 30002MPS 9999 SCT043 BKN100 09/07 Q1011 R26/290157 NOSIG"
"10:00 PM EEST on September 21, 2016","2016","09","21","22","00","Europe/Kiev","7:00 PM GMT on September 21, 2016","2016","09","21","19","00","UTC","8.0","46.4","7.0","44.6","93","10.8","6.7","-9999.0","-9999.0","300","WNW","10.0","6.2","1011","29.86","6.1","43.0","-9999","-9999","-9999.00","-9999.00","Mostly Cloudy","mostlycloudy","0","0","0","0","0","0","METAR UKKK 211900Z 30003MPS 9999 SCT043 BKN100 08/07 Q1011 R26/290157 NOSIG"
"10:30 PM EEST on September 21, 2016","2016","09","21","22","30","Europe/Kiev","7:30 PM GMT on September 21, 2016","2016","09","21","19","30","UTC","9.0","48.2","7.0","44.6","87","10.8","6.7","-9999.0","-9999.0","290","WNW","10.0","6.2","1011","29.86","-999","-999","-9999","-9999","-9999.00","-9999.00","Mostly Cloudy","mostlycloudy","0","0","0","0","0","0","METAR UKKK 211930Z 29003MPS 9999 SCT043 BKN100 09/07 Q1011 R26/290157 NOSIG"
"11:00 PM EEST on September 21, 2016","2016","09","21","23","00","Europe/Kiev","8:00 PM GMT on September 21, 2016","2016","09","21","20","00","UTC","9.0","48.2","8.0","46.4","93","10.8","6.7","-9999.0","-9999.0","300","WNW","10.0","6.2","1011","29.86","-999","-999","-9999","-9999","-9999.00","-9999.00","Mostly Cloudy","mostlycloudy","0","0","0","0","0","0","METAR UKKK 212000Z 30003MPS 9999 SCT041 BKN100 09/08 Q1011 R26/290157 NOSIG"
"11:30 PM EEST on September 21, 2016","2016","09","21","23","30","Europe/Kiev","8:30 PM GMT on September 21, 2016","2016","09","21","20","30","UTC","9.0","48.2","7.0","44.6","87","10.8","6.7","-9999.0","-9999.0","310","NW","10.0","6.2","1011","29.86","-999","-999","-9999","-9999","-9999.00","-9999.00","Mostly Cloudy","mostlycloudy","0","0","0","0","0","0","METAR UKKK 212030Z 31003MPS 9999 SCT038 BKN100 09/07 Q1011 R26/290058 NOSIG"
"12:00 AM EEST on September 22, 2016","2016","09","22","00","00","Europe/Kiev","9:00 PM GMT on September 21, 2016","2016","09","21","21","00","UTC","8","47","7","45","88","3.6","2.2","","","340","NNW","10","6","1012","29.88","-999","-999","-9999","-9999","","","Light Rain","rain","0","1","0","0","0","0","AAXX 21211 33345 41697 83401 10085 20070 39917 40119 51001 76162 8652/ 333 86641 555 11008"
"12:00 AM EEST on September 22, 2016","2016","09","22","00","00","Europe/Kiev","9:00 PM GMT on September 21, 2016","2016","09","21","21","00","UTC","9.0","48.2","7.0","44.6","87","10.8","6.7","-9999.0","-9999.0","300","WNW","9.0","5.6","1011","29.86","-999","-999","-9999","-9999","-9999.00","-9999.00","Light Rain","rain","0","1","0","0","0","0","METAR UKKK 212100Z 30003MPS 9000 -RA OVC038 09/07 Q1011 R26/290058 NOSIG"
"12:30 AM EEST on September 22, 2016","2016","09","22","00","30","Europe/Kiev","9:30 PM GMT on September 21, 2016","2016","09","21","21","30","UTC","8.0","46.4","7.0","44.6","93","7.2","4.5","-9999.0","-9999.0","280","West","10.0","6.2","1011","29.86","6.9","44.4","-9999","-9999","-9999.00","-9999.00","Light Rain","rain","0","1","0","0","0","0","METAR UKKK 212130Z 28002MPS 9999 -RA OVC032 08/07 Q1011 R26/290058 NOSIG"
"1:00 AM EEST on September 22, 2016","2016","09","22","01","00","Europe/Kiev","10:00 PM GMT on September 21, 2016","2016","09","21","22","00","UTC","8.0","46.4","7.0","44.6","93","7.2","4.5","-9999.0","-9999.0","280","West","10.0","6.2","1011","29.86","6.9","44.4","-9999","-9999","-9999.00","-9999.00","Light Rain","rain","0","1","0","0","0","0","METAR UKKK 212200Z 28002MPS 9999 -RA FEW008 OVC029 08/07 Q1011 R26/290058 NOSIG"
"1:30 AM EEST on September 22, 2016","2016","09","22","01","30","Europe/Kiev","10:30 PM GMT on September 21, 2016","2016","09","21","22","30","UTC","8.0","46.4","7.0","44.6","93","10.8","6.7","-9999.0","-9999.0","290","WNW","10.0","6.2","1011","29.86","6.1","43.0","-9999","-9999","-9999.00","-9999.00","Light Rain","rain","0","1","0","0","0","0","METAR UKKK 212230Z 29003MPS 9999 -RA FEW008 OVC029 08/07 Q1011 R26/290058 NOSIG"
"2:00 AM EEST on September 22, 2016","2016","09","22","02","00","Europe/Kiev","11:00 PM GMT on September 21, 2016","2016","09","21","23","00","UTC","8.0","46.4","8.0","46.4","100","10.8","6.7","-9999.0","-9999.0","300","WNW","10.0","6.2","1011","29.86","6.1","43.0","-9999","-9999","-9999.00","-9999.00","Light Rain","rain","0","1","0","0","0","0","METAR UKKK 212300Z 30003MPS 9999 -RA FEW006 OVC043 08/08 Q1011 R26/290058 NOSIG"
"2:30 AM EEST on September 22, 2016","2016","09","22","02","30","Europe/Kiev","11:30 PM GMT on September 21, 2016","2016","09","21","23","30","UTC","8.0","46.4","8.0","46.4","100","10.8","6.7","-9999.0","-9999.0","300","WNW","10.0","6.2","1011","29.86","6.1","43.0","-9999","-9999","-9999.00","-9999.00","Light Rain","rain","0","1","0","0","0","0","METAR UKKK 212330Z 30003MPS 9999 -RA SCT007 OVC043 08/08 Q1011 R26/290058 TEMPO BKN005"
"3:00 AM EEST on September 22, 2016","2016","09","22","03","00","Europe/Kiev","12:00 AM GMT on September 22, 2016","2016","09","22","00","00","UTC","8","47","7","44","86","3.6","2.2","","","340","NNW","10","6","1011","29.87","-999","-999","-9999","-9999","","","Light Rain","rain","0","1","0","0","0","0","AAXX 22001 33345 /1497 83401 10082 20067 39912 40114 58005 76162 8872/ 333 88711 555 11008 69961"
"3:00 AM EEST on September 22, 2016","2016","09","22","03","00","Europe/Kiev","12:00 AM GMT on September 22, 2016","2016","09","22","00","00","UTC","8.0","46.4","8.0","46.4","100","10.8","6.7","-9999.0","-9999.0","290","WNW","9.0","5.6","1011","29.86","6.1","43.0","-9999","-9999","-9999.00","-9999.00","Light Rain","rain","0","1","0","0","0","0","METAR UKKK 220000Z 29003MPS 9000 -RA SCT007 OVC043 08/08 Q1011 R26/290058 TEMPO BKN005"
"3:30 AM EEST on September 22, 2016","2016","09","22","03","30","Europe/Kiev","12:30 AM GMT on September 22, 2016","2016","09","22","00","30","UTC","8.0","46.4","7.0","44.6","93","7.2","4.5","-9999.0","-9999.0","280","West","9.0","5.6","1011","29.86","6.9","44.4","-9999","-9999","-9999.00","-9999.00","Light Rain Showers","rain","0","1","0","0","0","0","METAR UKKK 220030Z 28002MPS 9000 -SHRA FEW006 SCT030CB BKN056 08/07 Q1011 R26/290256 TEMPO BKN005"
"4:00 AM EEST on September 22, 2016","2016","09","22","04","00","Europe/Kiev","1:00 AM GMT on September 22, 2016","2016","09","22","01","00","UTC","8.0","46.4","7.0","44.6","93","10.8","6.7","-9999.0","-9999.0","290","WNW","9.0","5.6","1011","29.86","6.1","43.0","-9999","-9999","-9999.00","-9999.00","Light Rain Showers","rain","0","1","0","0","0","0","METAR UKKK 220100Z 29003MPS 9000 -SHRA FEW006 SCT026CB BKN053 08/07 Q1011 R26/290256 TEMPO BKN005"
"4:30 AM EEST on September 22, 2016","2016","09","22","04","30","Europe/Kiev","1:30 AM GMT on September 22, 2016","2016","09","22","01","30","UTC","8.0","46.4","7.0","44.6","93","10.8","6.7","-9999.0","-9999.0","290","WNW","8.0","5.0","1011","29.86","6.1","43.0","-9999","-9999","-9999.00","-9999.00","Light Rain","rain","0","1","0","0","0","0","METAR UKKK 220130Z 29003MPS 8000 -RA SCT004 OVC033 08/07 Q1011 R26/290256 TEMPO BKN003"
"5:00 AM EEST on September 22, 2016","2016","09","22","05","00","Europe/Kiev","2:00 AM GMT on September 22, 2016","2016","09","22","02","00","UTC","8.0","46.4","7.0","44.6","93","10.8","6.7","-9999.0","-9999.0","280","West","7.0","4.3","1010","29.83","6.1","43.0","-9999","-9999","-9999.00","-9999.00","Light Rain","rain","0","1","0","0","0","0","METAR UKKK 220200Z 28003MPS 7000 -RA SCT004 OVC033 08/07 Q1010 R26/290256 TEMPO BKN003"
"5:30 AM EEST on September 22, 2016","2016","09","22","05","30","Europe/Kiev","2:30 AM GMT on September 22, 2016","2016","09","22","02","30","UTC","8.0","46.4","7.0","44.6","93","10.8","6.7","-9999.0","-9999.0","290","WNW","10.0","6.2","1010","29.83","6.1","43.0","-9999","-9999","-9999.00","-9999.00","Light Rain","rain","0","1","0","0","0","0","METAR UKKK 220230Z 29003MPS 9999 -RA OVC004 08/07 Q1010 R26/290256 TEMPO BKN003"
"6:00 AM EEST on September 22, 2016","2016","09","22","06","00","Europe/Kiev","3:00 AM GMT on September 22, 2016","2016","09","22","03","00","UTC","8","46","7","44","92","3.6","2.2","","","310","NW","4","2","1011","29.86","-999","-999","-9999","-9999","","","Light Rain","rain","0","1","0","0","0","0","AAXX 22031 33345 41396 83101 10078 20069 39906 40109 57006 76166 8872/ 333 88707 555 11009"
"6:00 AM EEST on September 22, 2016","2016","09","22","06","00","Europe/Kiev","3:00 AM GMT on September 22, 2016","2016","09","22","03","00","UTC","8.0","46.4","7.0","44.6","93","14.4","8.9","-9999.0","-9999.0","290","WNW","10.0","6.2","1010","29.83","5.6","42.0","-9999","-9999","-9999.00","-9999.00","Light Rain","rain","0","1","0","0","0","0","METAR UKKK 220300Z 29004MPS 9999 -RA OVC004 08/07 Q1010 R26/290256 TEMPO BKN003"
"6:30 AM EEST on September 22, 2016","2016","09","22","06","30","Europe/Kiev","3:30 AM GMT on September 22, 2016","2016","09","22","03","30","UTC","8.0","46.4","7.0","44.6","93","10.8","6.7","-9999.0","-9999.0","300","WNW","10.0","6.2","1010","29.83","6.1","43.0","-9999","-9999","-9999.00","-9999.00","Light Rain","rain","0","1","0","0","0","0","METAR UKKK 220330Z 30003MPS 9999 -RA OVC004 08/07 Q1010 R26/290256 TEMPO BKN003"
"7:00 AM EEST on September 22, 2016","2016","09","22","07","00","Europe/Kiev","4:00 AM GMT on September 22, 2016","2016","09","22","04","00","UTC","8.0","46.4","7.0","44.6","93","10.8","6.7","-9999.0","-9999.0","300","WNW","10.0","6.2","1010","29.83","6.1","43.0","-9999","-9999","-9999.00","-9999.00","Mostly Cloudy","mostlycloudy","0","0","0","0","0","0","METAR UKKK 220400Z 30003MPS 9999 SCT006 BKN056 08/07 Q1010 R26/290256 TEMPO BKN005"
"7:30 AM EEST on September 22, 2016","2016","09","22","07","30","Europe/Kiev","4:30 AM GMT on September 22, 2016","2016","09","22","04","30","UTC","8.0","46.4","7.0","44.6","93","10.8","6.7","-9999.0","-9999.0","300","WNW","10.0","6.2","1010","29.83","6.1","43.0","-9999","-9999","-9999.00","-9999.00","Mostly Cloudy","mostlycloudy","0","0","0","0","0","0","METAR UKKK 220430Z 30003MPS 9999 SCT006 BKN030 08/07 Q1010 R26/290157 TEMPO BKN005"
"8:00 AM EEST on September 22, 2016","2016","09","22","08","00","Europe/Kiev","5:00 AM GMT on September 22, 2016","2016","09","22","05","00","UTC","8.0","46.4","7.0","44.6","93","14.4","8.9","-9999.0","-9999.0","300","WNW","9.0","5.6","1010","29.83","5.6","42.0","-9999","-9999","-9999.00","-9999.00","Light Rain","rain","0","1","0","0","0","0","METAR UKKK 220500Z 30004MPS 9000 -RA SCT004 OVC033 08/07 Q1010 R26/290157 TEMPO BKN003"
"8:30 AM EEST on September 22, 2016","2016","09","22","08","30","Europe/Kiev","5:30 AM GMT on September 22, 2016","2016","09","22","05","30","UTC","8.0","46.4","8.0","46.4","100","14.4","8.9","-9999.0","-9999.0","290","WNW","10.0","6.2","1010","29.83","5.6","42.0","-9999","-9999","-9999.00","-9999.00","Light Rain","rain","0","1","0","0","0","0","METAR UKKK 220530Z 29004MPS 9999 -RA SCT005 OVC033 08/08 Q1010 R26/290157 TEMPO BKN003"
"9:00 AM EEST on September 22, 2016","2016","09","22","09","00","Europe/Kiev","6:00 AM GMT on September 22, 2016","2016","09","22","06","00","UTC","8","47","8","46","92","7.2","4.5","","","330","NNW","10","6","1011","29.86","-999","-999","-9999","-9999","","","Light Rain","rain","0","1","0","0","0","0","AAXX 22061 33345 11397 83302 10083 20075 39910 40112 53004 60032 76166 8872/ 333 20075 88709 555 11010"
"9:00 AM EEST on September 22, 2016","2016","09","22","09","00","Europe/Kiev","6:00 AM GMT on September 22, 2016","2016","09","22","06","00","UTC","8.0","46.4","7.0","44.6","93","18.0","11.2","-9999.0","-9999.0","310","NW","10.0","6.2","1011","29.86","5.1","41.2","-9999","-9999","-9999.00","-9999.00","Light Rain","rain","0","1","0","0","0","0","METAR UKKK 220600Z 31005MPS 9999 -RA SCT007 OVC033 08/07 Q1011 R26/290157 TEMPO BKN003"
"9:30 AM EEST on September 22, 2016","2016","09","22","09","30","Europe/Kiev","6:30 AM GMT on September 22, 2016","2016","09","22","06","30","UTC","9.0","48.2","8.0","46.4","93","18.0","11.2","-9999.0","-9999.0","310","NW","9.0","5.6","1011","29.86","-999","-999","-9999","-9999","-9999.00","-9999.00","Light Rain","rain","0","1","0","0","0","0","METAR UKKK 220630Z 31005MPS 9000 -RA SCT009 OVC041 09/08 Q1011 R26/290157 NOSIG"
"10:00 AM EEST on September 22, 2016","2016","09","22","10","00","Europe/Kiev","7:00 AM GMT on September 22, 2016","2016","09","22","07","00","UTC","9.0","48.2","8.0","46.4","93","14.4","8.9","-9999.0","-9999.0","310","NW","8.0","5.0","1011","29.86","-999","-999","-9999","-9999","-9999.00","-9999.00","Light Rain Showers","rain","0","1","0","0","0","0","METAR UKKK 220700Z 31004MPS 8000 -SHRA FEW007 SCT029CB OVC036 09/08 Q1011 R26/290256 NOSIG"
"10:30 AM EEST on September 22, 2016","2016","09","22","10","30","Europe/Kiev","7:30 AM GMT on September 22, 2016","2016","09","22","07","30","UTC","9.0","48.2","8.0","46.4","93","18.0","11.2","-9999.0","-9999.0","310","NW","9.0","5.6","1011","29.86","-999","-999","-9999","-9999","-9999.00","-9999.00","Light Rain Showers","rain","0","1","0","0","0","0","METAR UKKK 220730Z 31005MPS 9000 -SHRA FEW007 SCT031CB OVC040 09/08 Q1011 R26/290256 NOSIG"
"11:00 AM EEST on September 22, 2016","2016","09","22","11","00","Europe/Kiev","8:00 AM GMT on September 22, 2016","2016","09","22","08","00","UTC","10.0","50.0","8.0","46.4","87","18.0","11.2","-9999.0","-9999.0","320","NW","10.0","6.2","1011","29.86","-999","-999","-9999","-9999","-9999.00","-9999.00","Mostly Cloudy","mostlycloudy","0","0","0","0","0","0","METAR UKKK 220800Z 32005MPS 9999 FEW010 SCT031CB BKN040 10/08 Q1011 R26/290256 NOSIG"
"11:30 AM EEST on September 22, 2016","2016","09","22","11","30","Europe/Kiev","8:30 AM GMT on September 22, 2016","2016","09","22","08","30","UTC","10.0","50.0","8.0","46.4","87","21.6","13.4","-9999.0","-9999.0","310","NW","10.0","6.2","1011","29.86","-999","-999","-9999","-9999","-9999.00","-9999.00","Mostly Cloudy","mostlycloudy","0","0","0","0","0","0","METAR UKKK 220830Z 31006MPS 9999 FEW011 SCT031CB BKN040 10/08 Q1011 R26/290158 NOSIG"
"12:00 PM EEST on September 22, 2016","2016","09","22","12","00","Europe/Kiev","9:00 AM GMT on September 22, 2016","2016","09","22","09","00","UTC","10","50","7","44","73","10.8","6.7","","","350","North","20","12","1012","29.88","-999","-999","-9999","-9999","","","Partly Cloudy","partlycloudy","0","0","0","0","0","0","AAXX 22091 33345 41498 73503 10102 20066 39916 40117 52006 70362 87300 333 87916 555 11014"
"12:00 PM EEST on September 22, 2016","2016","09","22","12","00","Europe/Kiev","9:00 AM GMT on September 22, 2016","2016","09","22","09","00","UTC","10.0","50.0","8.0","46.4","87","18.0","11.2","-9999.0","-9999.0","310","NW","10.0","6.2","1011","29.86","-999","-999","-9999","-9999","-9999.00","-9999.00","Mostly Cloudy","mostlycloudy","0","0","0","0","0","0","METAR UKKK 220900Z 31005MPS 9999 FEW013 SCT031CB BKN048 10/08 Q1011 R26/290158 NOSIG"
"12:30 PM EEST on September 22, 2016","2016","09","22","12","30","Europe/Kiev","9:30 AM GMT on September 22, 2016","2016","09","22","09","30","UTC","11.0","51.8","8.0","46.4","82","18.0","11.2","-9999.0","-9999.0","320","NW","10.0","6.2","1011","29.86","-999","-999","-9999","-9999","-9999.00","-9999.00","Mostly Cloudy","mostlycloudy","0","0","0","0","0","0","METAR UKKK 220930Z 32005MPS 9999 FEW017 SCT027CB BKN048 11/08 Q1011 R26/290158 NOSIG"
"1:00 PM EEST on September 22, 2016","2016","09","22","13","00","Europe/Kiev","10:00 AM GMT on September 22, 2016","2016","09","22","10","00","UTC","12.0","53.6","8.0","46.4","77","18.0","11.2","-9999.0","-9999.0","310","NW","10.0","6.2","1011","29.86","-999","-999","-9999","-9999","-9999.00","-9999.00","Mostly Cloudy","mostlycloudy","0","0","0","0","0","0","METAR UKKK 221000Z 31005MPS 280V340 9999 SCT026CB BKN080 12/08 Q1011 R26/290158 NOSIG"
"1:30 PM EEST on September 22, 2016","2016","09","22","13","30","Europe/Kiev","10:30 AM GMT on September 22, 2016","2016","09","22","10","30","UTC","12.0","53.6","6.0","42.8","67","21.6","13.4","-9999.0","-9999.0","300","WNW","10.0","6.2","1011","29.86","-999","-999","-9999","-9999","-9999.00","-9999.00","Mostly Cloudy","mostlycloudy","0","0","0","0","0","0","METAR UKKK 221030Z 30006MPS 9999 FEW025CB BKN080 12/06 Q1011 R26/190060 NOSIG"
"2:00 PM EEST on September 22, 2016","2016","09","22","14","00","Europe/Kiev","11:00 AM GMT on September 22, 2016","2016","09","22","11","00","UTC","13.0","55.4","5.0","41.0","58","18.0","11.2","-9999.0","-9999.0","300","WNW","10.0","6.2","1011","29.86","-999","-999","-9999","-9999","-9999.00","-9999.00","Mostly Cloudy","mostlycloudy","0","0","0","0","0","0","METAR UKKK 221100Z 30005MPS 9999 FEW027CB BKN056 13/05 Q1011 R26/190060 NOSIG"
"2:30 PM EEST on September 22, 2016","2016","09","22","14","30","Europe/Kiev","11:30 AM GMT on September 22, 2016","2016","09","22","11","30","UTC","10.0","50.0","6.0","42.8","76","21.6","13.4","-9999.0","-9999.0","290","WNW","6.0","3.7","1012","29.89","-999","-999","-9999","-9999","-9999.00","-9999.00","Light Rain Showers","rain","0","1","0","0","0","0","METAR UKKK 221130Z 29006MPS 6000 -SHRA SCT030CB BKN050 10/06 Q1012 R26/290256 NOSIG"
"3:00 PM EEST on September 22, 2016","2016","09","22","15","00","Europe/Kiev","12:00 PM GMT on September 22, 2016","2016","09","22","12","00","UTC","11","52","5","42","58","10.8","6.7","","","310","NW","20","12","1012","29.89","-999","-999","-9999","-9999","","","Partly Cloudy","partlycloudy","0","0","0","0","0","0","AAXX 22121 33345 /1498 73103 10112 20054 39919 40120 52003 70286 84301 555 11015 69901"
"3:00 PM EEST on September 22, 2016","2016","09","22","15","00","Europe/Kiev","12:00 PM GMT on September 22, 2016","2016","09","22","12","00","UTC","9.0","48.2","7.0","44.6","87","25.2","15.7","-9999.0","-9999.0","300","WNW","7.0","4.3","1012","29.89","-999","-999","-9999","-9999","-9999.00","-9999.00","Light Rain Showers","rain","0","1","0","0","0","0","METAR UKKK 221200Z 30007MPS 270V330 7000 -SHRA SCT023CB BKN043 09/07 Q1012 R26/290256 NOSIG"
"3:30 PM EEST on September 22, 2016","2016","09","22","15","30","Europe/Kiev","12:30 PM GMT on September 22, 2016","2016","09","22","12","30","UTC","12.0","53.6","8.0","46.4","77","14.4","8.9","-9999.0","-9999.0","310","NW","10.0","6.2","1012","29.89","-999","-999","-9999","-9999","-9999.00","-9999.00","Mostly Cloudy","mostlycloudy","0","0","0","0","0","0","METAR UKKK 221230Z 31004MPS 280V340 9999 FEW026CB SCT056 BKN100 12/08 Q1012 R26/290256 NOSIG"
"4:00 PM EEST on September 22, 2016","2016","09","22","16","00","Europe/Kiev","1:00 PM GMT on September 22, 2016","2016","09","22","13","00","UTC","11.0","51.8","7.0","44.6","76","10.8","6.7","-9999.0","-9999.0","330","NNW","10.0","6.2","1012","29.89","-999","-999","-9999","-9999","-9999.00","-9999.00","Mostly Cloudy","mostlycloudy","0","0","0","0","0","0","METAR UKKK 221300Z 33003MPS 300V010 9999 FEW025CB SCT043 BKN076 11/07 Q1012 R26/290256 NOSIG"
"4:30 PM EEST on September 22, 2016","2016","09","22","16","30","Europe/Kiev","1:30 PM GMT on September 22, 2016","2016","09","22","13","30","UTC","9.0","48.2","7.0","44.6","87","14.4","8.9","-9999.0","-9999.0","320","NW","7.0","4.3","1012","29.89","-999","-999","-9999","-9999","-9999.00","-9999.00","Light Rain Showers","rain","0","1","0","0","0","0","METAR UKKK 221330Z 32004MPS 7000 -SHRA SCT023CB BKN040 09/07 Q1012 R26/290158 TEMPO VRB10G16MPS 2100 -TSRA BKN020CB"
"5:00 PM EEST on September 22, 2016","2016","09","22","17","00","Europe/Kiev","2:00 PM GMT on September 22, 2016","2016","09","22","14","00","UTC","10.0","50.0","7.0","44.6","82","7.2","4.5","-9999.0","-9999.0","290","WNW","10.0","6.2","1012","29.89","-999","-999","-9999","-9999","-9999.00","-9999.00","Mostly Cloudy","mostlycloudy","0","0","0","0","0","0","METAR UKKK 221400Z 29002MPS 9999 SCT030CB BKN050 10/07 Q1012 R26/290158 TEMPO VRB10G16MPS 2100 -TSRA BKN020CB"
"5:30 PM EEST on September 22, 2016","2016","09","22","17","30","Europe/Kiev","2:30 PM GMT on September 22, 2016","2016","09","22","14","30","UTC","10.0","50.0","8.0","46.4","87","10.8","6.7","-9999.0","-9999.0","270","West","10.0","6.2","1012","29.89","-999","-999","-9999","-9999","-9999.00","-9999.00","Mostly Cloudy","mostlycloudy","0","0","0","0","0","0","METAR UKKK 221430Z 27003MPS 9999 FEW030CB BKN093 10/08 Q1012 R26/290158 TEMPO VRB10G16MPS 2100 -TSRA BKN020CB"
"6:00 PM EEST on September 22, 2016","2016","09","22","18","00","Europe/Kiev","3:00 PM GMT on September 22, 2016","2016","09","22","15","00","UTC","10","50","7","45","78","7.2","4.5","","","320","NW","20","12","1013","29.91","-999","-999","-9999","-9999","","","Partly Cloudy","partlycloudy","0","0","0","0","0","0","AAXX 22151 33345 41598 73202 10100 20073 39928 40129 52009 70282 82304 555 11011"
"6:00 PM EEST on September 22, 2016","2016","09","22","18","00","Europe/Kiev","3:00 PM GMT on September 22, 2016","2016","09","22","15","00","UTC","10.0","50.0","8.0","46.4","87","14.4","8.9","-9999.0","-9999.0","290","WNW","10.0","6.2","1012","29.89","-999","-999","-9999","-9999","-9999.00","-9999.00","Mostly Cloudy","mostlycloudy","0","0","0","0","0","0","METAR UKKK 221500Z 29004MPS 9999 FEW030CB SCT073 BKN200 10/08 Q1012 R26/290158 NOSIG"
"6:30 PM EEST on September 22, 2016","2016","09","22","18","30","Europe/Kiev","3:30 PM GMT on September 22, 2016","2016","09","22","15","30","UTC","9.0","48.2","7.0","44.6","87","10.8","6.7","-9999.0","-9999.0","270","West","-9999.0","-9999.0","1012","29.89","-999","-999","-9999","-9999","-9999.00","-9999.00","Clear","clear","0","0","0","0","0","0","METAR UKKK 221530Z 27003MPS CAVOK 09/07 Q1012 R26/290158 NOSIG"
"7:00 PM EEST on September 22, 2016","2016","09","22","19","00","Europe/Kiev","4:00 PM GMT on September 22, 2016","2016","09","22","16","00","UTC","8.0","46.4","6.0","42.8","87","10.8","6.7","-9999.0","-9999.0","270","West","-9999.0","-9999.0","1013","29.92","6.1","43.0","-9999","-9999","-9999.00","-9999.00","Clear","clear","0","0","0","0","0","0","METAR UKKK 221600Z 27003MPS CAVOK 08/06 Q1013 R26/290158 NOSIG"
"7:30 PM EEST on September 22, 2016","2016","09","22","19","30","Europe/Kiev","4:30 PM GMT on September 22, 2016","2016","09","22","16","30","UTC","8.0","46.4","7.0","44.6","93","10.8","6.7","-9999.0","-9999.0","270","West","-9999.0","-9999.0","1013","29.92","6.1","43.0","-9999","-9999","-9999.00","-9999.00","Clear","clear","0","0","0","0","0","0","METAR UKKK 221630Z 27003MPS CAVOK 08/07 Q1013 R26/290158 NOSIG"
"8:00 PM EEST on September 22, 2016","2016","09","22","20","00","Europe/Kiev","5:00 PM GMT on September 22, 2016","2016","09","22","17","00","UTC","9.0","48.2","7.0","44.6","87","14.4","8.9","-9999.0","-9999.0","270","West","10.0","6.2","1013","29.92","-999","-999","-9999","-9999","-9999.00","-9999.00","Mostly Cloudy","mostlycloudy","0","0","0","0","0","0","METAR UKKK 221700Z 27004MPS 9999 SCT040 BKN100 09/07 Q1013 R26/290058 NOSIG"
"8:30 PM EEST on September 22, 2016","2016","09","22","20","30","Europe/Kiev","5:30 PM GMT on September 22, 2016","2016","09","22","17","30","UTC","8.0","46.4","7.0","44.6","93","14.4","8.9","-9999.0","-9999.0","280","West","10.0","6.2","1013","29.92","5.6","42.0","-9999","-9999","-9999.00","-9999.00","Mostly Cloudy","mostlycloudy","0","0","0","0","0","0","METAR UKKK 221730Z 28004MPS 9999 SCT046 BKN100 08/07 Q1013 R26/290058 NOSIG"
"9:00 PM EEST on September 22, 2016","2016","09","22","21","00","Europe/Kiev","6:00 PM GMT on September 22, 2016","2016","09","22","18","00","UTC","9","47","7","44","86","7.2","4.5","","","310","NW","20","12","1014","29.94","-999","-999","-9999","-9999","","","Partly Cloudy","partlycloudy","0","0","0","0","0","0","AAXX 22181 33345 11998 13102 10086 20067 39934 40137 52006 69952 70281 80001 333 10128 555 11007"
"9:00 PM EEST on September 22, 2016","2016","09","22","21","00","Europe/Kiev","6:00 PM GMT on September 22, 2016","2016","09","22","18","00","UTC","8.0","46.4","7.0","44.6","93","10.8","6.7","-9999.0","-9999.0","280","West","10.0","6.2","1013","29.92","6.1","43.0","-9999","-9999","-9999.00","-9999.00","Mostly Cloudy","mostlycloudy","0","0","0","0","0","0","METAR UKKK 221800Z 28003MPS 9999 SCT046 BKN100 08/07 Q1013 R26/290058 NOSIG"
"9:30 PM EEST on September 22, 2016","2016","09","22","21","30","Europe/Kiev","6:30 PM GMT on September 22, 2016","2016","09","22","18","30","UTC","8.0","46.4","7.0","44.6","93","10.8","6.7","-9999.0","-9999.0","270","West","10.0","6.2","1013","29.92","6.1","43.0","-9999","-9999","-9999.00","-9999.00","Mostly Cloudy","mostlycloudy","0","0","0","0","0","0","METAR UKKK 221830Z 27003MPS 9999 SCT046 BKN100 08/07 Q1013 R26/290058 NOSIG"
"10:00 PM EEST on September 22, 2016","2016","09","22","22","00","Europe/Kiev","7:00 PM GMT on September 22, 2016","2016","09","22","19","00","UTC","7.0","44.6","6.0","42.8","93","14.4","8.9","-9999.0","-9999.0","270","West","10.0","6.2","1013","29.92","4.3","39.8","-9999","-9999","-9999.00","-9999.00","Mostly Cloudy","mostlycloudy","0","0","0","0","0","0","METAR UKKK 221900Z 27004MPS 9999 SCT046 BKN100 07/06 Q1013 R26/290058 NOSIG"
"10:30 PM EEST on September 22, 2016","2016","09","22","22","30","Europe/Kiev","7:30 PM GMT on September 22, 2016","2016","09","22","19","30","UTC","7.0","44.6","6.0","42.8","93","10.8","6.7","-9999.0","-9999.0","270","West","-9999.0","-9999.0","1013","29.92","4.9","40.8","-9999","-9999","-9999.00","-9999.00","Clear","clear","0","0","0","0","0","0","METAR UKKK 221930Z 27003MPS CAVOK 07/06 Q1013 R26/290058 NOSIG"
"11:00 PM EEST on September 22, 2016","2016","09","22","23","00","Europe/Kiev","8:00 PM GMT on September 22, 2016","2016","09","22","20","00","UTC","7.0","44.6","6.0","42.8","93","10.8","6.7","-9999.0","-9999.0","270","West","-9999.0","-9999.0","1013","29.92","4.9","40.8","-9999","-9999","-9999.00","-9999.00","Clear","clear","0","0","0","0","0","0","METAR UKKK 222000Z 27003MPS CAVOK 07/06 Q1013 R26/290058 NOSIG"
"11:30 PM EEST on September 22, 2016","2016","09","22","23","30","Europe/Kiev","8:30 PM GMT on September 22, 2016","2016","09","22","20","30","UTC","7.0","44.6","7.0","44.6","100","10.8","6.7","-9999.0","-9999.0","270","West","-9999.0","-9999.0","1013","29.92","4.9","40.8","-9999","-9999","-9999.00","-9999.00","Clear","clear","0","0","0","0","0","0","METAR UKKK 222030Z 27003MPS CAVOK 07/07 Q1013 R26/290058 NOSIG"
"12:00 AM EEST on September 23, 2016","2016","09","23","00","00","Europe/Kiev","9:00 PM GMT on September 22, 2016","2016","09","22","21","00","UTC","8","46","6","43","86","7.2","4.5","","","320","NW","10","6","1014","29.95","-999","-999","-9999","-9999","","","Scattered Clouds","partlycloudy","0","0","0","0","0","0","AAXX 22211 33345 42997 23202 10077 20062 39938 40141 52004 82030 555 11006"
"12:00 AM EEST on September 23, 2016","2016","09","23","00","00","Europe/Kiev","9:00 PM GMT on September 22, 2016","2016","09","22","21","00","UTC","7.0","44.6","6.0","42.8","93","10.8","6.7","-9999.0","-9999.0","260","West","-9999.0","-9999.0","1014","29.95","4.9","40.8","-9999","-9999","-9999.00","-9999.00","Clear","clear","0","0","0","0","0","0","METAR UKKK 222100Z 26003MPS CAVOK 07/06 Q1014 R26/290058 NOSIG"
"12:30 AM EEST on September 23, 2016","2016","09","23","00","30","Europe/Kiev","9:30 PM GMT on September 22, 2016","2016","09","22","21","30","UTC","7.0","44.6","6.0","42.8","93","10.8","6.7","-9999.0","-9999.0","260","West","10.0","6.2","1014","29.95","4.9","40.8","-9999","-9999","-9999.00","-9999.00","Mostly Cloudy","mostlycloudy","0","0","0","0","0","0","METAR UKKK 222130Z 26003MPS 9999 SCT033 BKN100 07/06 Q1014 R26/290058 NOSIG"
"1:00 AM EEST on September 23, 2016","2016","09","23","01","00","Europe/Kiev","10:00 PM GMT on September 22, 2016","2016","09","22","22","00","UTC","6.0","42.8","6.0","42.8","100","14.4","8.9","-9999.0","-9999.0","260","West","-9999.0","-9999.0","1014","29.95","3.1","37.6","-9999","-9999","-9999.00","-9999.00","Clear","clear","0","0","0","0","0","0","METAR UKKK 222200Z 26004MPS CAVOK 06/06 Q1014 R26/290058 NOSIG"
"1:30 AM EEST on September 23, 2016","2016","09","23","01","30","Europe/Kiev","10:30 PM GMT on September 22, 2016","2016","09","22","22","30","UTC","6.0","42.8","6.0","42.8","100","10.8","6.7","-9999.0","-9999.0","260","West","-9999.0","-9999.0","1014","29.95","3.7","38.7","-9999","-9999","-9999.00","-9999.00","Clear","clear","0","0","0","0","0","0","METAR UKKK 222230Z 26003MPS CAVOK 06/06 Q1014 R26/290058 NOSIG"
"2:00 AM EEST on September 23, 2016","2016","09","23","02","00","Europe/Kiev","11:00 PM GMT on September 22, 2016","2016","09","22","23","00","UTC","6.0","42.8","6.0","42.8","100","10.8","6.7","-9999.0","-9999.0","270","West","10.0","6.2","1014","29.95","3.7","38.7","-9999","-9999","-9999.00","-9999.00","Mostly Cloudy","mostlycloudy","0","0","0","0","0","0","METAR UKKK 222300Z 27003MPS 9999 BKN007 06/06 Q1014 R26/290058 NOSIG"
"2:30 AM EEST on September 23, 2016","2016","09","23","02","30","Europe/Kiev","11:30 PM GMT on September 22, 2016","2016","09","22","23","30","UTC","7.0","44.6","6.0","42.8","93","14.4","8.9","-9999.0","-9999.0","280","West","10.0","6.2","1014","29.95","4.3","39.8","-9999","-9999","-9999.00","-9999.00","Mostly Cloudy","mostlycloudy","0","0","0","0","0","0","METAR UKKK 222330Z 28004MPS 9999 BKN006 07/06 Q1014 R26/290058 TEMPO BKN004"
"3:00 AM EEST on September 23, 2016","2016","09","23","03","00","Europe/Kiev","12:00 AM GMT on September 23, 2016","2016","09","23","00","00","UTC","7","45","6","43","90","10.8","6.7","","","310","NW","10","6","1015","29.96","-999","-999","-9999","-9999","","","Mostly Cloudy","mostlycloudy","0","0","0","0","0","0","AAXX 23001 33345 32497 53103 10072 20061 39942 40146 52004 85600 555 11006"
"3:00 AM EEST on September 23, 2016","2016","09","23","03","00","Europe/Kiev","12:00 AM GMT on September 23, 2016","2016","09","23","00","00","UTC","7.0","44.6","7.0","44.6","100","14.4","8.9","-9999.0","-9999.0","280","West","10.0","6.2","1014","29.95","4.3","39.8","-9999","-9999","-9999.00","-9999.00","Mostly Cloudy","mostlycloudy","0","0","0","0","0","0","METAR UKKK 230000Z 28004MPS 9999 BKN005 07/07 Q1014 R26/290058 TEMPO BKN004"
"3:30 AM EEST on September 23, 2016","2016","09","23","03","30","Europe/Kiev","12:30 AM GMT on September 23, 2016","2016","09","23","00","30","UTC","7.0","44.6","7.0","44.6","100","18.0","11.2","-9999.0","-9999.0","280","West","10.0","6.2","1014","29.95","3.8","38.9","-9999","-9999","-9999.00","-9999.00","Mostly Cloudy","mostlycloudy","0","0","0","0","0","0","METAR UKKK 230030Z 28005MPS 9999 BKN005 07/07 Q1014 R26/290058 TEMPO BKN004"
"4:00 AM EEST on September 23, 2016","2016","09","23","04","00","Europe/Kiev","1:00 AM GMT on September 23, 2016","2016","09","23","01","00","UTC","7.0","44.6","7.0","44.6","100","18.0","11.2","-9999.0","-9999.0","290","WNW","10.0","6.2","1014","29.95","3.8","38.9","-9999","-9999","-9999.00","-9999.00","Mostly Cloudy","mostlycloudy","0","0","0","0","0","0","METAR UKKK 230100Z 29005MPS 9999 BKN005 07/07 Q1014 R26/290058 TEMPO BKN004"
"4:30 AM EEST on September 23, 2016","2016","09","23","04","30","Europe/Kiev","1:30 AM GMT on September 23, 2016","2016","09","23","01","30","UTC","7.0","44.6","7.0","44.6","100","21.6","13.4","-9999.0","-9999.0","290","WNW","10.0","6.2","1014","29.95","3.4","38.2","-9999","-9999","-9999.00","-9999.00","Mostly Cloudy","mostlycloudy","0","0","0","0","0","0","METAR UKKK 230130Z 29006MPS 9999 BKN004 07/07 Q1014 R26/290058 TEMPO BKN003"
"5:00 AM EEST on September 23, 2016","2016","09","23","05","00","Europe/Kiev","2:00 AM GMT on September 23, 2016","2016","09","23","02","00","UTC","7.0","44.6","7.0","44.6","100","21.6","13.4","-9999.0","-9999.0","290","WNW","10.0","6.2","1014","29.95","3.4","38.2","-9999","-9999","-9999.00","-9999.00","Overcast","cloudy","0","0","0","0","0","0","METAR UKKK 230200Z 29006MPS 9999 OVC003 07/07 Q1014 R26/290058 TEMPO BKN003"
"5:30 AM EEST on September 23, 2016","2016","09","23","05","30","Europe/Kiev","2:30 AM GMT on September 23, 2016","2016","09","23","02","30","UTC","7.0","44.6","7.0","44.6","100","18.0","11.2","-9999.0","-9999.0","290","WNW","10.0","6.2","1015","29.98","3.8","38.9","-9999","-9999","-9999.00","-9999.00","Overcast","cloudy","0","0","0","0","0","0","METAR UKKK 230230Z 29005MPS 9999 OVC003 07/07 Q1015 R26/290058 TEMPO 0400 FG BKN002"
"6:00 AM EEST on September 23, 2016","2016","09","23","06","00","Europe/Kiev","3:00 AM GMT on September 23, 2016","2016","09","23","03","00","UTC","7","45","6","43","90","10.8","6.7","","","330","NNW","4","2","1016","29.99","-999","-999","-9999","-9999","","","Mist","hazy","0","0","0","0","0","0","AAXX 23031 33345 41496 83303 10070 20061 39951 40155 52009 71022 886// 333 88710 555 11007"
"6:00 AM EEST on September 23, 2016","2016","09","23","06","00","Europe/Kiev","3:00 AM GMT on September 23, 2016","2016","09","23","03","00","UTC","7.0","44.6","7.0","44.6","100","18.0","11.2","-9999.0","-9999.0","290","WNW","9.0","5.6","1015","29.98","3.8","38.9","-9999","-9999","-9999.00","-9999.00","Overcast","cloudy","0","0","0","0","0","0","METAR UKKK 230300Z 29005MPS 9000 OVC004 07/07 Q1015 R26/190060 TEMPO 0400 FG BKN002"
"6:30 AM EEST on September 23, 2016","2016","09","23","06","30","Europe/Kiev","3:30 AM GMT on September 23, 2016","2016","09","23","03","30","UTC","7.0","44.6","7.0","44.6","100","18.0","11.2","-9999.0","-9999.0","290","WNW","9.0","5.6","1015","29.98","3.8","38.9","-9999","-9999","-9999.00","-9999.00","Overcast","cloudy","0","0","0","0","0","0","METAR UKKK 230330Z 29005MPS 9000 OVC004 07/07 Q1015 R26/190060 TEMPO 0400 FG BKN002"
"7:00 AM EEST on September 23, 2016","2016","09","23","07","00","Europe/Kiev","4:00 AM GMT on September 23, 2016","2016","09","23","04","00","UTC","7.0","44.6","6.0","42.8","93","18.0","11.2","-9999.0","-9999.0","290","WNW","10.0","6.2","1015","29.98","3.8","38.9","-9999","-9999","-9999.00","-9999.00","Overcast","cloudy","0","0","0","0","0","0","METAR UKKK 230400Z 29005MPS 9999 OVC005 07/06 Q1015 R26/190060 TEMPO 0400 FG BKN003"
"7:30 AM EEST on September 23, 2016","2016","09","23","07","30","Europe/Kiev","4:30 AM GMT on September 23, 2016","2016","09","23","04","30","UTC","7.0","44.6","6.0","42.8","93","18.0","11.2","-9999.0","-9999.0","280","West","10.0","6.2","1015","29.98","3.8","38.9","-9999","-9999","-9999.00","-9999.00","Overcast","cloudy","0","0","0","0","0","0","METAR UKKK 230430Z 28005MPS 9999 OVC005 07/06 Q1015 R26/190060 TEMPO 0400 FG BKN003"
"8:00 AM EEST on September 23, 2016","2016","09","23","08","00","Europe/Kiev","5:00 AM GMT on September 23, 2016","2016","09","23","05","00","UTC","7.0","44.6","7.0","44.6","100","18.0","11.2","-9999.0","-9999.0","280","West","10.0","6.2","1016","30.01","3.8","38.9","-9999","-9999","-9999.00","-9999.00","Mostly Cloudy","mostlycloudy","0","0","0","0","0","0","METAR UKKK 230500Z 28005MPS 9999 BKN006 07/07 Q1016 R26/190060 TEMPO BKN004"
"8:30 AM EEST on September 23, 2016","2016","09","23","08","30","Europe/Kiev","5:30 AM GMT on September 23, 2016","2016","09","23","05","30","UTC","7.0","44.6","7.0","44.6","100","18.0","11.2","-9999.0","-9999.0","280","West","10.0","6.2","1016","30.01","3.8","38.9","-9999","-9999","-9999.00","-9999.00","Light Rain","rain","0","1","0","0","0","0","METAR UKKK 230530Z 28005MPS 9999 -RA BKN006 BKN033 07/07 Q1016 R26/190060 TEMPO BKN004"
"9:00 AM EEST on September 23, 2016","2016","09","23","09","00","Europe/Kiev","6:00 AM GMT on September 23, 2016","2016","09","23","06","00","UTC","8","47","6","43","79","10.8","6.7","","","310","NW","4","2","1017","30.03","-999","-999","-9999","-9999","","","Mist","hazy","0","0","0","0","0","0","AAXX 23061 33345 31496 73103 10081 20059 39964 40168 52013 71022 86640 333 20068 86712 555 11010"
"9:00 AM EEST on September 23, 2016","2016","09","23","09","00","Europe/Kiev","6:00 AM GMT on September 23, 2016","2016","09","23","06","00","UTC","8.0","46.4","6.0","42.8","87","21.6","13.4","-9999.0","-9999.0","280","West","10.0","6.2","1016","30.01","4.7","40.5","-9999","-9999","-9999.00","-9999.00","Mostly Cloudy","mostlycloudy","0","0","0","0","0","0","METAR UKKK 230600Z 28006MPS 9999 BKN007 BKN033 08/06 Q1016 R26/190060 TEMPO BKN005"
"9:30 AM EEST on September 23, 2016","2016","09","23","09","30","Europe/Kiev","6:30 AM GMT on September 23, 2016","2016","09","23","06","30","UTC","8.0","46.4","7.0","44.6","93","21.6","13.4","-9999.0","-9999.0","270","West","10.0","6.2","1017","30.04","4.7","40.5","-9999","-9999","-9999.00","-9999.00","Mostly Cloudy","mostlycloudy","0","0","0","0","0","0","METAR UKKK 230630Z 27006MPS 9999 BKN007 BKN040 08/07 Q1017 R26/190060 NOSIG"
"10:00 AM EEST on September 23, 2016","2016","09","23","10","00","Europe/Kiev","7:00 AM GMT on September 23, 2016","2016","09","23","07","00","UTC","8.0","46.4","7.0","44.6","93","18.0","11.2","-9999.0","-9999.0","270","West","10.0","6.2","1017","30.04","5.1","41.2","-9999","-9999","-9999.00","-9999.00","Mostly Cloudy","mostlycloudy","0","0","0","0","0","0","METAR UKKK 230700Z 27005MPS 9999 BKN008 BKN040 08/07 Q1017 R26/190060 NOSIG"
"10:30 AM EEST on September 23, 2016","2016","09","23","10","30","Europe/Kiev","7:30 AM GMT on September 23, 2016","2016","09","23","07","30","UTC","9.0","48.2","7.0","44.6","87","18.0","11.2","-9999.0","-9999.0","270","West","10.0","6.2","1017","30.04","-999","-999","-9999","-9999","-9999.00","-9999.00","Mostly Cloudy","mostlycloudy","0","0","0","0","0","0","METAR UKKK 230730Z 27005MPS 9999 BKN008 BKN040 09/07 Q1017 R26/190060 NOSIG"
"11:00 AM EEST on September 23, 2016","2016","09","23","11","00","Europe/Kiev","8:00 AM GMT on September 23, 2016","2016","09","23","08","00","UTC","10.0","50.0","7.0","44.6","82","21.6","13.4","-9999.0","-9999.0","280","West","10.0","6.2","1017","30.04","-999","-999","-9999","-9999","-9999.00","-9999.00","Mostly Cloudy","mostlycloudy","0","0","0","0","0","0","METAR UKKK 230800Z 28006MPS 9999 BKN008 BKN040 10/07 Q1017 R26/190060 NOSIG"
"11:30 AM EEST on September 23, 2016","2016","09","23","11","30","Europe/Kiev","8:30 AM GMT on September 23, 2016","2016","09","23","08","30","UTC","11.0","51.8","7.0","44.6","76","21.6","13.4","-9999.0","-9999.0","280","West","10.0","6.2","1017","30.04","-999","-999","-9999","-9999","-9999.00","-9999.00","Mostly Cloudy","mostlycloudy","0","0","0","0","0","0","METAR UKKK 230830Z 28006MPS 9999 SCT017 BKN070 11/07 Q1017 R26/190060 NOSIG"
"12:00 PM EEST on September 23, 2016","2016","09","23","12","00","Europe/Kiev","9:00 AM GMT on September 23, 2016","2016","09","23","09","00","UTC","12","53","6","44","61","10.8","6.7","","","330","NNW","20","12","1018","30.06","-999","-999","-9999","-9999","","","Mostly Cloudy","mostlycloudy","0","0","0","0","0","0","AAXX 23091 33345 42498 73303 10117 20064 39977 40178 52013 85510 555 10018"
"12:00 PM EEST on September 23, 2016","2016","09","23","12","00","Europe/Kiev","9:00 AM GMT on September 23, 2016","2016","09","23","09","00","UTC","11.0","51.8","7.0","44.6","76","21.6","13.4","-9999.0","-9999.0","280","West","10.0","6.2","1017","30.04","-999","-999","-9999","-9999","-9999.00","-9999.00","Mostly Cloudy","mostlycloudy","0","0","0","0","0","0","METAR UKKK 230900Z 28006MPS 9999 SCT017 BKN070 11/07 Q1017 R26/190060 NOSIG"
"12:30 PM EEST on September 23, 2016","2016","09","23","12","30","Europe/Kiev","9:30 AM GMT on September 23, 2016","2016","09","23","09","30","UTC","12.0","53.6","7.0","44.6","72","21.6","13.4","-9999.0","-9999.0","280","West","10.0","6.2","1018","30.06","-999","-999","-9999","-9999","-9999.00","-9999.00","Mostly Cloudy","mostlycloudy","0","0","0","0","0","0","METAR UKKK 230930Z 28006MPS 9999 SCT021 BKN070 12/07 Q1018 R26/190060 NOSIG"
"1:00 PM EEST on September 23, 2016","2016","09","23","13","00","Europe/Kiev","10:00 AM GMT on September 23, 2016","2016","09","23","10","00","UTC","12.0","53.6","7.0","44.6","72","21.6","13.4","-9999.0","-9999.0","290","WNW","10.0","6.2","1018","30.06","-999","-999","-9999","-9999","-9999.00","-9999.00","Mostly Cloudy","mostlycloudy","0","0","0","0","0","0","METAR UKKK 231000Z 29006MPS 260V320 9999 SCT025 BKN070 12/07 Q1018 R26/190060 NOSIG"
"1:30 PM EEST on September 23, 2016","2016","09","23","13","30","Europe/Kiev","10:30 AM GMT on September 23, 2016","2016","09","23","10","30","UTC","12.0","53.6","6.0","42.8","67","18.0","11.2","-9999.0","-9999.0","290","WNW","10.0","6.2","1018","30.06","-999","-999","-9999","-9999","-9999.00","-9999.00","Mostly Cloudy","mostlycloudy","0","0","0","0","0","0","METAR UKKK 231030Z 29005MPS 9999 SCT027 BKN070 12/06 Q1018 R26/190060 NOSIG"
"2:00 PM EEST on September 23, 2016","2016","09","23","14","00","Europe/Kiev","11:00 AM GMT on September 23, 2016","2016","09","23","11","00","UTC","14.0","57.2","6.0","42.8","59","21.6","13.4","-9999.0","-9999.0","300","WNW","10.0","6.2","1018","30.06","-999","-999","-9999","-9999","-9999.00","-9999.00","Mostly Cloudy","mostlycloudy","0","0","0","0","0","0","METAR UKKK 231100Z 30006MPS 9999 SCT030 BKN073 14/06 Q1018 R26/190060 NOSIG"
"2:30 PM EEST on September 23, 2016","2016","09","23","14","30","Europe/Kiev","11:30 AM GMT on September 23, 2016","2016","09","23","11","30","UTC","13.0","55.4","6.0","42.8","63","21.6","13.4","-9999.0","-9999.0","310","NW","10.0","6.2","1018","30.06","-999","-999","-9999","-9999","-9999.00","-9999.00","Mostly Cloudy","mostlycloudy","0","0","0","0","0","0","METAR UKKK 231130Z 31006MPS 9999 SCT034 BKN070 13/06 Q1018 R26/190060 NOSIG"
"3:00 PM EEST on September 23, 2016","2016","09","23","15","00","Europe/Kiev","12:00 PM GMT on September 23, 2016","2016","09","23","12","00","UTC","13","55","5","42","50","7.2","4.5","","","320","NW","20","12","1019","30.08","-999","-999","-9999","-9999","","","Mostly Cloudy","mostlycloudy","0","0","0","0","0","0","AAXX 23121 33345 32498 73202 10130 20053 39985 40186 52008 86942 555 10017"
"3:00 PM EEST on September 23, 2016","2016","09","23","15","00","Europe/Kiev","12:00 PM GMT on September 23, 2016","2016","09","23","12","00","UTC","13.0","55.4","5.0","41.0","58","21.6","13.4","-9999.0","-9999.0","310","NW","10.0","6.2","1018","30.06","-999","-999","-9999","-9999","-9999.00","-9999.00","Mostly Cloudy","mostlycloudy","0","0","0","0","0","0","METAR UKKK 231200Z 31006MPS 9999 SCT034 BKN070 13/05 Q1018 R26/190060 NOSIG"
"3:30 PM EEST on September 23, 2016","2016","09","23","15","30","Europe/Kiev","12:30 PM GMT on September 23, 2016","2016","09","23","12","30","UTC","14.0","57.2","5.0","41.0","55","21.6","13.4","-9999.0","-9999.0","300","WNW","10.0","6.2","1018","30.06","-999","-999","-9999","-9999","-9999.00","-9999.00","Mostly Cloudy","mostlycloudy","0","0","0","0","0","0","METAR UKKK 231230Z 30006MPS 9999 SCT038 BKN070 14/05 Q1018 R26/190060 NOSIG"
"4:00 PM EEST on September 23, 2016","2016","09","23","16","00","Europe/Kiev","1:00 PM GMT on September 23, 2016","2016","09","23","13","00","UTC","14.0","57.2","5.0","41.0","55","21.6","13.4","-9999.0","-9999.0","290","WNW","10.0","6.2","1019","30.09","-999","-999","-9999","-9999","-9999.00","-9999.00","Mostly Cloudy","mostlycloudy","0","0","0","0","0","0","METAR UKKK 231300Z 29006MPS 9999 SCT038 BKN070 14/05 Q1019 R26/190060 NOSIG"
"4:30 PM EEST on September 23, 2016","2016","09","23","16","30","Europe/Kiev","1:30 PM GMT on September 23, 2016","2016","09","23","13","30","UTC","13.0","55.4","5.0","41.0","58","21.6","13.4","-9999.0","-9999.0","300","WNW","10.0","6.2","1019","30.09","-999","-999","-9999","-9999","-9999.00","-9999.00","Mostly Cloudy","mostlycloudy","0","0","0","0","0","0","METAR UKKK 231330Z 30006MPS 9999 SCT040 BKN070 13/05 Q1019 R26/190060 NOSIG"
"5:00 PM EEST on September 23, 2016","2016","09","23","17","00","Europe/Kiev","2:00 PM GMT on September 23, 2016","2016","09","23","14","00","UTC","14.0","57.2","5.0","41.0","55","21.6","13.4","-9999.0","-9999.0","310","NW","-9999.0","-9999.0","1019","30.09","-999","-999","-9999","-9999","-9999.00","-9999.00","Clear","clear","0","0","0","0","0","0","METAR UKKK 231400Z 31006MPS CAVOK 14/05 Q1019 R26/190060 NOSIG"
"5:30 PM EEST on September 23, 2016","2016","09","23","17","30","Europe/Kiev","2:30 PM GMT on September 23, 2016","2016","09","23","14","30","UTC","13.0","55.4","4.0","39.2","54","18.0","11.2","-9999.0","-9999.0","300","WNW","-9999.0","-9999.0","1019","30.09","-999","-999","-9999","-9999","-9999.00","-9999.00","Clear","clear","0","0","0","0","0","0","METAR UKKK 231430Z 30005MPS CAVOK 13/04 Q1019 R26/190060 NOSIG"
"6:00 PM EEST on September 23, 2016","2016","09","23","18","00","Europe/Kiev","3:00 PM GMT on September 23, 2016","2016","09","23","15","00","UTC","13","55","5","41","47","7.2","4.5","","","330","NNW","20","12","1020","30.12","-999","-999","-9999","-9999","","","Mostly Cloudy","mostlycloudy","0","0","0","0","0","0","AAXX 23151 33345 42598 63302 10130 20048 39998 40199 52013 85530 555 10013"
"6:00 PM EEST on September 23, 2016","2016","09","23","18","00","Europe/Kiev","3:00 PM GMT on September 23, 2016","2016","09","23","15","00","UTC","13.0","55.4","5.0","41.0","58","14.4","8.9","-9999.0","-9999.0","290","WNW","-9999.0","-9999.0","1019","30.09","-999","-999","-9999","-9999","-9999.00","-9999.00","Clear","clear","0","0","0","0","0","0","METAR UKKK 231500Z 29004MPS CAVOK 13/05 Q1019 R26/190060 NOSIG"
"6:30 PM EEST on September 23, 2016","2016","09","23","18","30","Europe/Kiev","3:30 PM GMT on September 23, 2016","2016","09","23","15","30","UTC","13.0","55.4","5.0","41.0","58","14.4","8.9","-9999.0","-9999.0","290","WNW","-9999.0","-9999.0","1020","30.12","-999","-999","-9999","-9999","-9999.00","-9999.00","Clear","clear","0","0","0","0","0","0","METAR UKKK 231530Z 29004MPS CAVOK 13/05 Q1020 R26/190060 NOSIG"
"7:00 PM EEST on September 23, 2016","2016","09","23","19","00","Europe/Kiev","4:00 PM GMT on September 23, 2016","2016","09","23","16","00","UTC","12.0","53.6","5.0","41.0","62","10.8","6.7","-9999.0","-9999.0","280","West","-9999.0","-9999.0","1020","30.12","-999","-999","-9999","-9999","-9999.00","-9999.00","Clear","clear","0","0","0","0","0","0","METAR UKKK 231600Z 28003MPS CAVOK 12/05 Q1020 R26/190060 NOSIG"
"7:30 PM EEST on September 23, 2016","2016","09","23","19","30","Europe/Kiev","4:30 PM GMT on September 23, 2016","2016","09","23","16","30","UTC","11.0","51.8","5.0","41.0","67","7.2","4.5","-9999.0","-9999.0","300","WNW","-9999.0","-9999.0","1020","30.12","-999","-999","-9999","-9999","-9999.00","-9999.00","Clear","clear","0","0","0","0","0","0","METAR UKKK 231630Z 30002MPS CAVOK 11/05 Q1020 R26/190060 NOSIG"
"8:00 PM EEST on September 23, 2016","2016","09","23","20","00","Europe/Kiev","5:00 PM GMT on September 23, 2016","2016","09","23","17","00","UTC","11.0","51.8","5.0","41.0","67","7.2","4.5","-9999.0","-9999.0","270","West","-9999.0","-9999.0","1021","30.15","-999","-999","-9999","-9999","-9999.00","-9999.00","Clear","clear","0","0","0","0","0","0","METAR UKKK 231700Z 27002MPS CAVOK 11/05 Q1021 R26/190060 NOSIG"
"8:30 PM EEST on September 23, 2016","2016","09","23","20","30","Europe/Kiev","5:30 PM GMT on September 23, 2016","2016","09","23","17","30","UTC","10.0","50.0","6.0","42.8","76","7.2","4.5","-9999.0","-9999.0","260","West","-9999.0","-9999.0","1021","30.15","-999","-999","-9999","-9999","-9999.00","-9999.00","Clear","clear","0","0","0","0","0","0","METAR UKKK 231730Z 26002MPS CAVOK 10/06 Q1021 R26/190060 NOSIG"
"9:00 PM EEST on September 23, 2016","2016","09","23","21","00","Europe/Kiev","6:00 PM GMT on September 23, 2016","2016","09","23","18","00","UTC","11","52","6","42","60","3.6","2.2","","","290","WNW","20","12","1021","30.17","-999","-999","-9999","-9999","","","Mostly Cloudy","mostlycloudy","0","0","0","0","0","0","AAXX 23181 33345 32998 72901 10110 20056 30011 40214 52013 87050 333 10137 555 10009"
"9:00 PM EEST on September 23, 2016","2016","09","23","21","00","Europe/Kiev","6:00 PM GMT on September 23, 2016","2016","09","23","18","00","UTC","10.0","50.0","6.0","42.8","76","7.2","4.5","-9999.0","-9999.0","250","WSW","-9999.0","-9999.0","1021","30.15","-999","-999","-9999","-9999","-9999.00","-9999.00","Clear","clear","0","0","0","0","0","0","METAR UKKK 231800Z 25002MPS CAVOK 10/06 Q1021 R26/190060 NOSIG"
"9:30 PM EEST on September 23, 2016","2016","09","23","21","30","Europe/Kiev","6:30 PM GMT on September 23, 2016","2016","09","23","18","30","UTC","10.0","50.0","6.0","42.8","76","10.8","6.7","-9999.0","-9999.0","240","WSW","-9999.0","-9999.0","1021","30.15","-999","-999","-9999","-9999","-9999.00","-9999.00","Clear","clear","0","0","0","0","0","0","METAR UKKK 231830Z 24003MPS CAVOK 10/06 Q1021 R26/CLRD70 NOSIG"
"10:00 PM EEST on September 23, 2016","2016","09","23","22","00","Europe/Kiev","7:00 PM GMT on September 23, 2016","2016","09","23","19","00","UTC","9.0","48.2","6.0","42.8","82","10.8","6.7","-9999.0","-9999.0","250","WSW","-9999.0","-9999.0","1021","30.15","-999","-999","-9999","-9999","-9999.00","-9999.00","Clear","clear","0","0","0","0","0","0","METAR UKKK 231900Z 25003MPS CAVOK 09/06 Q1021 R26/CLRD70 NOSIG"
"10:30 PM EEST on September 23, 2016","2016","09","23","22","30","Europe/Kiev","7:30 PM GMT on September 23, 2016","2016","09","23","19","30","UTC","8.0","46.4","6.0","42.8","87","10.8","6.7","-9999.0","-9999.0","250","WSW","-9999.0","-9999.0","1021","30.15","6.1","43.0","-9999","-9999","-9999.00","-9999.00","Clear","clear","0","0","0","0","0","0","METAR UKKK 231930Z 25003MPS CAVOK 08/06 Q1021 R26/CLRD70 NOSIG"
"11:00 PM EEST on September 23, 2016","2016","09","23","23","00","Europe/Kiev","8:00 PM GMT on September 23, 2016","2016","09","23","20","00","UTC","7.0","44.6","5.0","41.0","87","7.2","4.5","-9999.0","-9999.0","250","WSW","-9999.0","-9999.0","1021","30.15","5.7","42.3","-9999","-9999","-9999.00","-9999.00","Clear","clear","0","0","0","0","0","0","METAR UKKK 232000Z 25002MPS CAVOK 07/05 Q1021 R26/CLRD70 NOSIG"
"11:30 PM EEST on September 23, 2016","2016","09","23","23","30","Europe/Kiev","8:30 PM GMT on September 23, 2016","2016","09","23","20","30","UTC","6.0","42.8","5.0","41.0","93","7.2","4.5","-9999.0","-9999.0","240","WSW","-9999.0","-9999.0","1022","30.18","4.5","40.2","-9999","-9999","-9999.00","-9999.00","Clear","clear","0","0","0","0","0","0","METAR UKKK 232030Z 24002MPS CAVOK 06/05 Q1022 R26/CLRD70 NOSIG"
"12:00 AM EEST on September 24, 2016","2016","09","24","00","00","Europe/Kiev","9:00 PM GMT on September 23, 2016","2016","09","23","21","00","UTC","9","48","5","42","71","3.6","2.2","","","340","NNW","20","12","1022","30.19","-999","-999","-9999","-9999","","","Partly Cloudy","partlycloudy","0","0","0","0","0","0","AAXX 23211 33345 42998 33401 10091 20053 30020 40224 52009 83030 555 10005"
"12:00 AM EEST on September 24, 2016","2016","09","24","00","00","Europe/Kiev","9:00 PM GMT on September 23, 2016","2016","09","23","21","00","UTC","5.0","41.0","4.0","39.2","93","3.6","2.2","-9999.0","-9999.0","210","SSW","-9999.0","-9999.0","1022","30.18","-999","-999","-9999","-9999","-9999.00","-9999.00","Clear","clear","0","0","0","0","0","0","METAR UKKK 232100Z 21001MPS CAVOK 05/04 Q1022 R26/CLRD70 NOSIG"
"12:30 AM EEST on September 24, 2016","2016","09","24","00","30","Europe/Kiev","9:30 PM GMT on September 23, 2016","2016","09","23","21","30","UTC","7.0","44.6","5.0","41.0","87","3.6","2.2","-9999.0","-9999.0","0","Variable","-9999.0","-9999.0","1022","30.18","-999","-999","-9999","-9999","-9999.00","-9999.00","Clear","clear","0","0","0","0","0","0","METAR UKKK 232130Z VRB01MPS CAVOK 07/05 Q1022 R08/CLRD70 NOSIG"
"1:00 AM EEST on September 24, 2016","2016","09","24","01","00","Europe/Kiev","10:00 PM GMT on September 23, 2016","2016","09","23","22","00","UTC","7.0","44.6","5.0","41.0","87","7.2","4.5","-9999.0","-9999.0","220","SW","-9999.0","-9999.0","1022","30.18","5.7","42.3","-9999","-9999","-9999.00","-9999.00","Clear","clear","0","0","0","0","0","0","METAR UKKK 232200Z 22002MPS CAVOK 07/05 Q1022 R26/CLRD70 NOSIG"
"1:30 AM EEST on September 24, 2016","2016","09","24","01","30","Europe/Kiev","10:30 PM GMT on September 23, 2016","2016","09","23","22","30","UTC","6.0","42.8","5.0","41.0","93","7.2","4.5","-9999.0","-9999.0","240","WSW","-9999.0","-9999.0","1022","30.18","4.5","40.2","-9999","-9999","-9999.00","-9999.00","Clear","clear","0","0","0","0","0","0","METAR UKKK 232230Z 24002MPS CAVOK 06/05 Q1022 R26/CLRD70 NOSIG"
"2:00 AM EEST on September 24, 2016","2016","09","24","02","00","Europe/Kiev","11:00 PM GMT on September 23, 2016","2016","09","23","23","00","UTC","7.0","44.6","6.0","42.8","93","7.2","4.5","-9999.0","-9999.0","250","WSW","-9999.0","-9999.0","1022","30.18","5.7","42.3","-9999","-9999","-9999.00","-9999.00","Clear","clear","0","0","0","0","0","0","METAR UKKK 232300Z 25002MPS CAVOK 07/06 Q1022 R26/CLRD70 NOSIG"
"2:30 AM EEST on September 24, 2016","2016","09","24","02","30","Europe/Kiev","11:30 PM GMT on September 23, 2016","2016","09","23","23","30","UTC","7.0","44.6","6.0","42.8","93","7.2","4.5","-9999.0","-9999.0","250","WSW","-9999.0","-9999.0","1022","30.18","5.7","42.3","-9999","-9999","-9999.00","-9999.00","Clear","clear","0","0","0","0","0","0","METAR UKKK 232330Z 25002MPS CAVOK 07/06 Q1022 R26/CLRD70 NOSIG"
"3:00 AM EEST on September 24, 2016","2016","09","24","03","00","Europe/Kiev","12:00 AM GMT on September 24, 2016","2016","09","24","00","00","UTC","8","47","6","42","79","7.2","4.5","","","320","NW","10","6","1023","30.21","-999","-999","-9999","-9999","","","Mostly Cloudy","mostlycloudy","0","0","0","0","0","0","AAXX 24001 33345 32997 73202 10084 20058 30025 40230 52005 87050 555 10006"
"3:00 AM EEST on September 24, 2016","2016","09","24","03","00","Europe/Kiev","12:00 AM GMT on September 24, 2016","2016","09","24","00","00","UTC","7.0","44.6","6.0","42.8","93","7.2","4.5","-9999.0","-9999.0","250","WSW","-9999.0","-9999.0","1022","30.18","5.7","42.3","-9999","-9999","-9999.00","-9999.00","Clear","clear","0","0","0","0","0","0","METAR UKKK 240000Z 25002MPS CAVOK 07/06 Q1022 R26/CLRD70 NOSIG"
"3:30 AM EEST on September 24, 2016","2016","09","24","03","30","Europe/Kiev","12:30 AM GMT on September 24, 2016","2016","09","24","00","30","UTC","8.0","46.4","6.0","42.8","87","7.2","4.5","-9999.0","-9999.0","250","WSW","-9999.0","-9999.0","1022","30.18","6.9","44.4","-9999","-9999","-9999.00","-9999.00","Clear","clear","0","0","0","0","0","0","METAR UKKK 240030Z 25002MPS CAVOK 08/06 Q1022 R26/CLRD70 NOSIG"
"4:00 AM EEST on September 24, 2016","2016","09","24","04","00","Europe/Kiev","1:00 AM GMT on September 24, 2016","2016","09","24","01","00","UTC","8.0","46.4","6.0","42.8","87","7.2","4.5","-9999.0","-9999.0","250","WSW","-9999.0","-9999.0","1022","30.18","6.9","44.4","-9999","-9999","-9999.00","-9999.00","Clear","clear","0","0","0","0","0","0","METAR UKKK 240100Z 25002MPS CAVOK 08/06 Q1022 R26/CLRD70 NOSIG"
"4:30 AM EEST on September 24, 2016","2016","09","24","04","30","Europe/Kiev","1:30 AM GMT on September 24, 2016","2016","09","24","01","30","UTC","8.0","46.4","6.0","42.8","87","3.6","2.2","-9999.0","-9999.0","250","WSW","-9999.0","-9999.0","1022","30.18","-999","-999","-9999","-9999","-9999.00","-9999.00","Clear","clear","0","0","0","0","0","0","METAR UKKK 240130Z 25001MPS CAVOK 08/06 Q1022 R26/CLRD70 NOSIG"
"5:00 AM EEST on September 24, 2016","2016","09","24","05","00","Europe/Kiev","2:00 AM GMT on September 24, 2016","2016","09","24","02","00","UTC","7.0","44.6","6.0","42.8","93","7.2","4.5","-9999.0","-9999.0","230","SW","-9999.0","-9999.0","1022","30.18","5.7","42.3","-9999","-9999","-9999.00","-9999.00","Clear","clear","0","0","0","0","0","0","METAR UKKK 240200Z 23002MPS CAVOK 07/06 Q1022 R26/CLRD70 NOSIG"
"5:30 AM EEST on September 24, 2016","2016","09","24","05","30","Europe/Kiev","2:30 AM GMT on September 24, 2016","2016","09","24","02","30","UTC","7.0","44.6","6.0","42.8","93","7.2","4.5","-9999.0","-9999.0","240","WSW","-9999.0","-9999.0","1022","30.18","5.7","42.3","-9999","-9999","-9999.00","-9999.00","Clear","clear","0","0","0","0","0","0","METAR UKKK 240230Z 24002MPS CAVOK 07/06 Q1022 R26/CLRD70 NOSIG"
"6:00 AM EEST on September 24, 2016","2016","09","24","06","00","Europe/Kiev","3:00 AM GMT on September 24, 2016","2016","09","24","03","00","UTC","8","47","6","42","77","7.2","4.5","","","330","NNW","10","6","1023","30.21","-999","-999","-9999","-9999","","","Mostly Cloudy","mostlycloudy","0","0","0","0","0","0","AAXX 24031 33345 42997 73302 10083 20056 30025 40230 54000 87050 555 10006"
"6:00 AM EEST on September 24, 2016","2016","09","24","06","00","Europe/Kiev","3:00 AM GMT on September 24, 2016","2016","09","24","03","00","UTC","6.0","42.8","6.0","42.8","100","7.2","4.5","-9999.0","-9999.0","240","WSW","9.0","5.6","1022","30.18","4.5","40.2","-9999","-9999","-9999.00","-9999.00","Unknown","unknown","0","0","0","0","0","0","METAR UKKK 240300Z 24002MPS 9000 NSC 06/06 Q1022 R26/CLRD70 NOSIG"
"6:30 AM EEST on September 24, 2016","2016","09","24","06","30","Europe/Kiev","3:30 AM GMT on September 24, 2016","2016","09","24","03","30","UTC","6.0","42.8","5.0","41.0","93","7.2","4.5","-9999.0","-9999.0","220","SW","9.0","5.6","1022","30.18","4.5","40.2","-9999","-9999","-9999.00","-9999.00","Unknown","unknown","0","0","0","0","0","0","METAR UKKK 240330Z 22002MPS 9000 NSC 06/05 Q1022 R26/CLRD70 NOSIG"
"7:00 AM EEST on September 24, 2016","2016","09","24","07","00","Europe/Kiev","4:00 AM GMT on September 24, 2016","2016","09","24","04","00","UTC","6.0","42.8","5.0","41.0","93","7.2","4.5","-9999.0","-9999.0","240","WSW","9.0","5.6","1022","30.18","4.5","40.2","-9999","-9999","-9999.00","-9999.00","Unknown","unknown","0","0","0","0","0","0","METAR UKKK 240400Z 24002MPS 9000 NSC 06/05 Q1022 R26/CLRD70 NOSIG"
"7:30 AM EEST on September 24, 2016","2016","09","24","07","30","Europe/Kiev","4:30 AM GMT on September 24, 2016","2016","09","24","04","30","UTC","7.0","44.6","6.0","42.8","93","7.2","4.5","-9999.0","-9999.0","240","WSW","7.0","4.3","1023","30.21","5.7","42.3","-9999","-9999","-9999.00","-9999.00","Unknown","unknown","0","0","0","0","0","0","METAR UKKK 240430Z 24002MPS 7000 NSC 07/06 Q1023 R26/CLRD70 NOSIG"
"8:00 AM EEST on September 24, 2016","2016","09","24","08","00","Europe/Kiev","5:00 AM GMT on September 24, 2016","2016","09","24","05","00","UTC","7.0","44.6","6.0","42.8","93","7.2","4.5","-9999.0","-9999.0","250","WSW","-9999.0","-9999.0","1023","30.21","5.7","42.3","-9999","-9999","-9999.00","-9999.00","Clear","clear","0","0","0","0","0","0","METAR UKKK 240500Z 25002MPS CAVOK 07/06 Q1023 R26/CLRD70 NOSIG"
"8:30 AM EEST on September 24, 2016","2016","09","24","08","30","Europe/Kiev","5:30 AM GMT on September 24, 2016","2016","09","24","05","30","UTC","8.0","46.4","7.0","44.6","93","7.2","4.5","-9999.0","-9999.0","250","WSW","9.0","5.6","1023","30.21","6.9","44.4","-9999","-9999","-9999.00","-9999.00","Unknown","unknown","0","0","0","0","0","0","METAR UKKK 240530Z 25002MPS 9000 NSC 08/07 Q1023 R26/CLRD70 NOSIG"
"9:00 AM EEST on September 24, 2016","2016","09","24","09","00","Europe/Kiev","6:00 AM GMT on September 24, 2016","2016","09","24","06","00","UTC","9","49","6","44","75","7.2","4.5","","","320","NW","10","6","1023","30.22","-999","-999","-9999","-9999","","","Partly Cloudy","partlycloudy","0","0","0","0","0","0","AAXX 24061 33345 32797 73202 10094 20064 30030 40234 53005 84550 333 20077 555 10010 30005 52005"
"9:00 AM EEST on September 24, 2016","2016","09","24","09","00","Europe/Kiev","6:00 AM GMT on September 24, 2016","2016","09","24","06","00","UTC","9.0","48.2","7.0","44.6","87","10.8","6.7","-9999.0","-9999.0","270","West","-9999.0","-9999.0","1023","30.21","-999","-999","-9999","-9999","-9999.00","-9999.00","Clear","clear","0","0","0","0","0","0","METAR UKKK 240600Z 27003MPS CAVOK 09/07 Q1023 R26/CLRD70 NOSIG"
"9:30 AM EEST on September 24, 2016","2016","09","24","09","30","Europe/Kiev","6:30 AM GMT on September 24, 2016","2016","09","24","06","30","UTC","9.0","48.2","7.0","44.6","87","10.8","6.7","-9999.0","-9999.0","270","West","-9999.0","-9999.0","1023","30.21","-999","-999","-9999","-9999","-9999.00","-9999.00","Clear","clear","0","0","0","0","0","0","METAR UKKK 240630Z 27003MPS CAVOK 09/07 Q1023 R26/CLRD70 NOSIG"
"10:00 AM EEST on September 24, 2016","2016","09","24","10","00","Europe/Kiev","7:00 AM GMT on September 24, 2016","2016","09","24","07","00","UTC","12.0","53.6","8.0","46.4","77","7.2","4.5","-9999.0","-9999.0","250","WSW","-9999.0","-9999.0","1023","30.21","-999","-999","-9999","-9999","-9999.00","-9999.00","Clear","clear","0","0","0","0","0","0","METAR UKKK 240700Z 25002MPS 200V300 CAVOK 12/08 Q1023 R26/CLRD70 NOSIG"
"10:30 AM EEST on September 24, 2016","2016","09","24","10","30","Europe/Kiev","7:30 AM GMT on September 24, 2016","2016","09","24","07","30","UTC","13.0","55.4","7.0","44.6","67","10.8","6.7","-9999.0","-9999.0","260","West","10.0","6.2","1023","30.21","-999","-999","-9999","-9999","-9999.00","-9999.00","Mostly Cloudy","mostlycloudy","0","0","0","0","0","0","METAR UKKK 240730Z 26003MPS 220V290 9999 BKN047 13/07 Q1023 R26/CLRD70 NOSIG"
"11:00 AM EEST on September 24, 2016","2016","09","24","11","00","Europe/Kiev","8:00 AM GMT on September 24, 2016","2016","09","24","08","00","UTC","14.0","57.2","7.0","44.6","63","14.4","8.9","-9999.0","-9999.0","280","West","-9999.0","-9999.0","1023","30.21","-999","-999","-9999","-9999","-9999.00","-9999.00","Clear","clear","0","0","0","0","0","0","METAR UKKK 240800Z 28004MPS 240V300 CAVOK 14/07 Q1023 R26/CLRD70 NOSIG"
"11:30 AM EEST on September 24, 2016","2016","09","24","11","30","Europe/Kiev","8:30 AM GMT on September 24, 2016","2016","09","24","08","30","UTC","14.0","57.2","7.0","44.6","63","18.0","11.2","-9999.0","-9999.0","290","WNW","-9999.0","-9999.0","1023","30.21","-999","-999","-9999","-9999","-9999.00","-9999.00","Clear","clear","0","0","0","0","0","0","METAR UKKK 240830Z 29005MPS CAVOK 14/07 Q1023 R26/CLRD70 NOSIG"
"12:00 PM EEST on September 24, 2016","2016","09","24","12","00","Europe/Kiev","9:00 AM GMT on September 24, 2016","2016","09","24","09","00","UTC","16","60","6","44","44","10.8","6.7","","","330","NNW","20","12","1023","30.21","-999","-999","-9999","-9999","","","Scattered Clouds","partlycloudy","0","0","0","0","0","0","AAXX 24091 33345 42798 63303 10155 20065 30029 40229 58001 82504 555 10025"
"12:00 PM EEST on September 24, 2016","2016","09","24","12","00","Europe/Kiev","9:00 AM GMT on September 24, 2016","2016","09","24","09","00","UTC","15.0","59.0","8.0","46.4","63","14.4","8.9","-9999.0","-9999.0","280","West","-9999.0","-9999.0","1023","30.21","-999","-999","-9999","-9999","-9999.00","-9999.00","Clear","clear","0","0","0","0","0","0","METAR UKKK 240900Z 28004MPS 240V310 CAVOK 15/08 Q1023 R26/CLRD70 NOSIG"
"12:30 PM EEST on September 24, 2016","2016","09","24","12","30","Europe/Kiev","9:30 AM GMT on September 24, 2016","2016","09","24","09","30","UTC","16.0","60.8","7.0","44.6","55","18.0","11.2","-9999.0","-9999.0","300","WNW","10.0","6.2","1022","30.18","-999","-999","-9999","-9999","-9999.00","-9999.00","Mostly Cloudy","mostlycloudy","0","0","0","0","0","0","METAR UKKK 240930Z 30005MPS 240V320 9999 FEW034 BKN200 16/07 Q1022 R26/CLRD70 NOSIG"
"1:00 PM EEST on September 24, 2016","2016","09","24","13","00","Europe/Kiev","10:00 AM GMT on September 24, 2016","2016","09","24","10","00","UTC","16.0","60.8","8.0","46.4","59","14.4","8.9","-9999.0","-9999.0","280","West","10.0","6.2","1022","30.18","-999","-999","-9999","-9999","-9999.00","-9999.00","Mostly Cloudy","mostlycloudy","0","0","0","0","0","0","METAR UKKK 241000Z 28004MPS 9999 FEW034 BKN200 16/08 Q1022 R26/CLRD70 NOSIG"
"1:30 PM EEST on September 24, 2016","2016","09","24","13","30","Europe/Kiev","10:30 AM GMT on September 24, 2016","2016","09","24","10","30","UTC","17.0","62.6","7.0","44.6","52","14.4","8.9","-9999.0","-9999.0","260","West","10.0","6.2","1022","30.18","-999","-999","-9999","-9999","-9999.00","-9999.00","Mostly Cloudy","mostlycloudy","0","0","0","0","0","0","METAR UKKK 241030Z 26004MPS 240V300 9999 SCT035 BKN140 17/07 Q1022 R26/CLRD70 NOSIG"
"2:00 PM EEST on September 24, 2016","2016","09","24","14","00","Europe/Kiev","11:00 AM GMT on September 24, 2016","2016","09","24","11","00","UTC","16.0","60.8","7.0","44.6","55","14.4","8.9","-9999.0","-9999.0","280","West","10.0","6.2","1022","30.18","-999","-999","-9999","-9999","-9999.00","-9999.00","Mostly Cloudy","mostlycloudy","0","0","0","0","0","0","METAR UKKK 241100Z 28004MPS 240V310 9999 SCT038 BKN140 16/07 Q1022 R26/CLRD70 NOSIG"
"2:30 PM EEST on September 24, 2016","2016","09","24","14","30","Europe/Kiev","11:30 AM GMT on September 24, 2016","2016","09","24","11","30","UTC","17.0","62.6","8.0","46.4","55","18.0","11.2","-9999.0","-9999.0","270","West","-9999.0","-9999.0","1022","30.18","-999","-999","-9999","-9999","-9999.00","-9999.00","Clear","clear","0","0","0","0","0","0","METAR UKKK 241130Z 27005MPS 230V300 CAVOK 17/08 Q1022 R26/CLRD70 NOSIG"
"3:00 PM EEST on September 24, 2016","2016","09","24","15","00","Europe/Kiev","12:00 PM GMT on September 24, 2016","2016","09","24","12","00","UTC","17","62","8","46","44","10.8","6.7","","","290","WNW","20","12","1022","30.17","-999","-999","-9999","-9999","","","Scattered Clouds","partlycloudy","0","0","0","0","0","0","AAXX 24121 33345 32598 72903 10169 20076 30018 40216 57011 82240 555 10024"
"3:00 PM EEST on September 24, 2016","2016","09","24","15","00","Europe/Kiev","12:00 PM GMT on September 24, 2016","2016","09","24","12","00","UTC","17.0","62.6","8.0","46.4","55","14.4","8.9","-9999.0","-9999.0","270","West","10.0","6.2","1022","30.18","-999","-999","-9999","-9999","-9999.00","-9999.00","Mostly Cloudy","mostlycloudy","0","0","0","0","0","0","METAR UKKK 241200Z 27004MPS 9999 SCT040 BKN130 17/08 Q1022 R26/CLRD70 NOSIG"
"3:30 PM EEST on September 24, 2016","2016","09","24","15","30","Europe/Kiev","12:30 PM GMT on September 24, 2016","2016","09","24","12","30","UTC","17.0","62.6","8.0","46.4","55","14.4","8.9","-9999.0","-9999.0","280","West","10.0","6.2","1021","30.15","-999","-999","-9999","-9999","-9999.00","-9999.00","Mostly Cloudy","mostlycloudy","0","0","0","0","0","0","METAR UKKK 241230Z 28004MPS 9999 SCT039 BKN130 17/08 Q1021 R26/CLRD70 NOSIG"
"4:00 PM EEST on September 24, 2016","2016","09","24","16","00","Europe/Kiev","1:00 PM GMT on September 24, 2016","2016","09","24","13","00","UTC","16.0","60.8","7.0","44.6","55","14.4","8.9","-9999.0","-9999.0","270","West","10.0","6.2","1021","30.15","-999","-999","-9999","-9999","-9999.00","-9999.00","Mostly Cloudy","mostlycloudy","0","0","0","0","0","0","METAR UKKK 241300Z 27004MPS 9999 SCT039 BKN130 16/07 Q1021 R26/CLRD70 NOSIG"
"4:30 PM EEST on September 24, 2016","2016","09","24","16","30","Europe/Kiev","1:30 PM GMT on September 24, 2016","2016","09","24","13","30","UTC","16.0","60.8","8.0","46.4","59","14.4","8.9","-9999.0","-9999.0","270","West","10.0","6.2","1021","30.15","-999","-999","-9999","-9999","-9999.00","-9999.00","Mostly Cloudy","mostlycloudy","0","0","0","0","0","0","METAR UKKK 241330Z 27004MPS 240V310 9999 SCT039 BKN130 16/08 Q1021 R26/CLRD70 NOSIG"
"5:00 PM EEST on September 24, 2016","2016","09","24","17","00","Europe/Kiev","2:00 PM GMT on September 24, 2016","2016","09","24","14","00","UTC","16.0","60.8","8.0","46.4","59","10.8","6.7","-9999.0","-9999.0","260","West","-9999.0","-9999.0","1021","30.15","-999","-999","-9999","-9999","-9999.00","-9999.00","Clear","clear","0","0","0","0","0","0","METAR UKKK 241400Z 26003MPS CAVOK 16/08 Q1021 R26/CLRD70 NOSIG"
"5:30 PM EEST on September 24, 2016","2016","09","24","17","30","Europe/Kiev","2:30 PM GMT on September 24, 2016","2016","09","24","14","30","UTC","17.0","62.6","7.0","44.6","52","10.8","6.7","-9999.0","-9999.0","280","West","10.0","6.2","1021","30.15","-999","-999","-9999","-9999","-9999.00","-9999.00","Mostly Cloudy","mostlycloudy","0","0","0","0","0","0","METAR UKKK 241430Z 28003MPS 9999 SCT043 BKN130 17/07 Q1021 R26/CLRD70 NOSIG"
"6:00 PM EEST on September 24, 2016","2016","09","24","18","00","Europe/Kiev","3:00 PM GMT on September 24, 2016","2016","09","24","15","00","UTC","16","61","8","46","46","3.6","2.2","","","330","NNW","20","12","1022","30.17","-999","-999","-9999","-9999","","","Partly Cloudy","partlycloudy","0","0","0","0","0","0","AAXX 24151 33345 42798 73301 10163 20075 30016 40215 56002 83540 555 10018"
"6:00 PM EEST on September 24, 2016","2016","09","24","18","00","Europe/Kiev","3:00 PM GMT on September 24, 2016","2016","09","24","15","00","UTC","16.0","60.8","7.0","44.6","55","14.4","8.9","-9999.0","-9999.0","300","WNW","10.0","6.2","1021","30.15","-999","-999","-9999","-9999","-9999.00","-9999.00","Mostly Cloudy","mostlycloudy","0","0","0","0","0","0","METAR UKKK 241500Z 30004MPS 9999 SCT049 BKN130 16/07 Q1021 R26/CLRD70 NOSIG"
"6:30 PM EEST on September 24, 2016","2016","09","24","18","30","Europe/Kiev","3:30 PM GMT on September 24, 2016","2016","09","24","15","30","UTC","16.0","60.8","7.0","44.6","55","7.2","4.5","-9999.0","-9999.0","310","NW","-9999.0","-9999.0","1021","30.15","-999","-999","-9999","-9999","-9999.00","-9999.00","Clear","clear","0","0","0","0","0","0","METAR UKKK 241530Z 31002MPS CAVOK 16/07 Q1021 R26/CLRD70 NOSIG"
"7:00 PM EEST on September 24, 2016","2016","09","24","19","00","Europe/Kiev","4:00 PM GMT on September 24, 2016","2016","09","24","16","00","UTC","14.0","57.2","8.0","46.4","67","7.2","4.5","-9999.0","-9999.0","290","WNW","-9999.0","-9999.0","1021","30.15","-999","-999","-9999","-9999","-9999.00","-9999.00","Clear","clear","0","0","0","0","0","0","METAR UKKK 241600Z 29002MPS CAVOK 14/08 Q1021 R26/CLRD70 NOSIG"
"7:30 PM EEST on September 24, 2016","2016","09","24","19","30","Europe/Kiev","4:30 PM GMT on September 24, 2016","2016","09","24","16","30","UTC","13.0","55.4","8.0","46.4","72","3.6","2.2","-9999.0","-9999.0","0","Variable","-9999.0","-9999.0","1021","30.15","-999","-999","-9999","-9999","-9999.00","-9999.00","Clear","clear","0","0","0","0","0","0","METAR UKKK 241630Z VRB01MPS CAVOK 13/08 Q1021 R26/CLRD70 NOSIG"
"8:00 PM EEST on September 24, 2016","2016","09","24","20","00","Europe/Kiev","5:00 PM GMT on September 24, 2016","2016","09","24","17","00","UTC","13.0","55.4","9.0","48.2","77","3.6","2.2","-9999.0","-9999.0","300","WNW","7.0","4.3","1021","30.15","-999","-999","-9999","-9999","-9999.00","-9999.00","Unknown","unknown","0","0","0","0","0","0","METAR UKKK 241700Z 30001MPS 7000 NSC 13/09 Q1021 R26/CLRD70 NOSIG"
"8:30 PM EEST on September 24, 2016","2016","09","24","20","30","Europe/Kiev","5:30 PM GMT on September 24, 2016","2016","09","24","17","30","UTC","13.0","55.4","9.0","48.2","77","7.2","4.5","-9999.0","-9999.0","220","SW","-9999.0","-9999.0","1022","30.18","-999","-999","-9999","-9999","-9999.00","-9999.00","Light Rain Showers","rain","0","1","0","0","0","0","METAR UKKK 241730Z 22002MPS 4400 -SHRA SCT033CB BKN066 13/09 Q1022 R26/190060 NOSIG"
"9:00 PM EEST on September 24, 2016","2016","09","24","21","00","Europe/Kiev","6:00 PM GMT on September 24, 2016","2016","09","24","18","00","UTC","14","58","8","46","54","3.6","2.2","","","310","NW","20","12","1022","30.18","-999","-999","-9999","-9999","","","Mostly Cloudy","mostlycloudy","0","0","0","0","0","0","AAXX 24181 33345 32998 73101 10143 20076 30018 40218 53002 87060 333 10180 555 10013"
"9:00 PM EEST on September 24, 2016","2016","09","24","21","00","Europe/Kiev","6:00 PM GMT on September 24, 2016","2016","09","24","18","00","UTC","12.0","53.6","9.0","48.2","82","7.2","4.5","-9999.0","-9999.0","250","WSW","9.0","5.6","1021","30.15","-999","-999","-9999","-9999","-9999.00","-9999.00","Unknown","unknown","0","0","0","0","0","0","METAR UKKK 241800Z 25002MPS 9000 NSC 12/09 Q1021 R26/CLRD70 NOSIG"
"9:30 PM EEST on September 24, 2016","2016","09","24","21","30","Europe/Kiev","6:30 PM GMT on September 24, 2016","2016","09","24","18","30","UTC","11.0","51.8","8.0","46.4","82","3.6","2.2","-9999.0","-9999.0","250","WSW","3.5","2.2","1021","30.15","-999","-999","-9999","-9999","-9999.00","-9999.00","Smoke","hazy","0","0","0","0","0","0","METAR UKKK 241830Z 25001MPS 3500 FU NSC 11/08 Q1021 R26/CLRD70 NOSIG"
"10:00 PM EEST on September 24, 2016","2016","09","24","22","00","Europe/Kiev","7:00 PM GMT on September 24, 2016","2016","09","24","19","00","UTC","10.0","50.0","9.0","48.2","94","3.6","2.2","-9999.0","-9999.0","220","SW","6.0","3.7","1021","30.15","-999","-999","-9999","-9999","-9999.00","-9999.00","Unknown","unknown","0","0","0","0","0","0","METAR UKKK 241900Z 22001MPS 6000 NSC 10/09 Q1021 R26/CLRD70 NOSIG"
"10:30 PM EEST on September 24, 2016","2016","09","24","22","30","Europe/Kiev","7:30 PM GMT on September 24, 2016","2016","09","24","19","30","UTC","9.0","48.2","8.0","46.4","93","0.0","0.0","-9999.0","-9999.0","0","North","-9999.0","-9999.0","1021","30.15","-999","-999","-9999","-9999","-9999.00","-9999.00","Smoke","hazy","0","0","0","0","0","0","METAR UKKK 241930Z 00000MPS 3200 FU NSC 09/08 Q1021 R26/CLRD70 NOSIG"
"11:00 PM EEST on September 24, 2016","2016","09","24","23","00","Europe/Kiev","8:00 PM GMT on September 24, 2016","2016","09","24","20","00","UTC","8.0","46.4","8.0","46.4","100","3.6","2.2","-9999.0","-9999.0","250","WSW","2.1","1.3","1021","30.15","-999","-999","-9999","-9999","-9999.00","-9999.00","Smoke","hazy","0","0","0","0","0","0","METAR UKKK 242000Z 25001MPS 2100 FU NSC 08/08 Q1021 R26/CLRD70 NOSIG"
"11:30 PM EEST on September 24, 2016","2016","09","24","23","30","Europe/Kiev","8:30 PM GMT on September 24, 2016","2016","09","24","20","30","UTC","8.0","46.4","8.0","46.4","100","0.0","0.0","-9999.0","-9999.0","0","North","-9999.0","-9999.0","1021","30.15","-999","-999","-9999","-9999","-9999.00","-9999.00","Mist","hazy","0","0","0","0","0","0","METAR UKKK 242030Z 00000MPS 4300 BR FU NSC 08/08 Q1021 R08/CLRD70 TEMPO 0400 FG"
"12:00 AM EEST on September 25, 2016","2016","09","25","00","00","Europe/Kiev","9:00 PM GMT on September 24, 2016","2016","09","24","21","00","UTC","13","55","8","46","62","7.2","4.5","","","310","NW","20","12","1022","30.17","-999","-999","-9999","-9999","","","","","0","0","0","0","0","0","AAXX 24211 33345 42998 03102 10126 20075 30014 40215 58004 555 10008"
"12:00 AM EEST on September 25, 2016","2016","09","25","00","00","Europe/Kiev","9:00 PM GMT on September 24, 2016","2016","09","24","21","00","UTC","7.0","44.6","7.0","44.6","100","0.0","0.0","-9999.0","-9999.0","0","North","2.7","1.7","1021","30.15","-999","-999","-9999","-9999","-9999.00","-9999.00","Mist","hazy","0","0","0","0","0","0","METAR UKKK 242100Z 00000MPS 2700 BR FU NSC 07/07 Q1021 R08/CLRD70 TEMPO 0400 FG"
"12:22 AM EEST on September 25, 2016","2016","09","25","00","22","Europe/Kiev","9:22 PM GMT on September 24, 2016","2016","09","24","21","22","UTC","7.0","44.6","7.0","44.6","100","0.0","0.0","-9999.0","-9999.0","0","North","1.0","0.6","1021","30.15","-999","-999","-9999","-9999","-9999.00","-9999.00","Fog","fog","1","0","0","0","0","0","SPECI UKKK 242122Z 00000MPS 1000 R08/1900D FG NSC 07/07 Q1021 R08/CLRD70 TEMPO 0400 FG"
"12:30 AM EEST on September 25, 2016","2016","09","25","00","30","Europe/Kiev","9:30 PM GMT on September 24, 2016","2016","09","24","21","30","UTC","7.0","44.6","7.0","44.6","100","0.0","0.0","-9999.0","-9999.0","0","North","1.5","0.9","1021","30.15","-999","-999","-9999","-9999","-9999.00","-9999.00","Mist","hazy","0","0","0","0","0","0","METAR UKKK 242130Z 00000MPS 1500 BR NSC 07/07 Q1021 R08/CLRD70 TEMPO 0400 FG"
"12:34 AM EEST on September 25, 2016","2016","09","25","00","34","Europe/Kiev","9:34 PM GMT on September 24, 2016","2016","09","24","21","34","UTC","7.0","44.6","7.0","44.6","100","0.0","0.0","-9999.0","-9999.0","0","North","1.3","0.8","1021","30.15","-999","-999","-9999","-9999","-9999.00","-9999.00","Mist","hazy","0","0","0","0","0","0","SPECI UKKK 242134Z 00000MPS 1300 R08/1900N BR NSC 07/07 Q1021 R08/CLRD70 TEMPO 0400 FG"
"12:45 AM EEST on September 25, 2016","2016","09","25","00","45","Europe/Kiev","9:45 PM GMT on September 24, 2016","2016","09","24","21","45","UTC","7.0","44.6","7.0","44.6","100","3.6","2.2","-9999.0","-9999.0","250","WSW","2.2","1.4","1021","30.15","-999","-999","-9999","-9999","-9999.00","-9999.00","Mist","hazy","0","0","0","0","0","0","SPECI UKKK 242145Z 25001MPS 2200 BR NSC 07/07 Q1021 R08/CLRD70 TEMPO 0400 FG"
"1:00 AM EEST on September 25, 2016","2016","09","25","01","00","Europe/Kiev","10:00 PM GMT on September 24, 2016","2016","09","24","22","00","UTC","7.0","44.6","7.0","44.6","100","3.6","2.2","-9999.0","-9999.0","230","SW","1.9","1.2","1021","30.15","-999","-999","-9999","-9999","-9999.00","-9999.00","Scattered Clouds","partlycloudy","0","0","0","0","0","0","METAR UKKK 242200Z 23001MPS 1900 BR FEW040 SCT083 07/07 Q1021 R08/CLRD70 TEMPO 0400 FG"
"1:30 AM EEST on September 25, 2016","2016","09","25","01","30","Europe/Kiev","10:30 PM GMT on September 24, 2016","2016","09","24","22","30","UTC","6.0","42.8","6.0","42.8","100","0.0","0.0","-9999.0","-9999.0","0","North","0.8","0.5","1021","30.15","-999","-999","-9999","-9999","-9999.00","-9999.00","Scattered Clouds","partlycloudy","0","0","0","0","0","0","METAR UKKK 242230Z 00000MPS 0800 R08/1600VP2000D PRFG FEW040 SCT083 06/06 Q1021 R08/CLRD70 TEMPO 0400 FG"
"1:39 AM EEST on September 25, 2016","2016","09","25","01","39","Europe/Kiev","10:39 PM GMT on September 24, 2016","2016","09","24","22","39","UTC","7.0","44.6","6.0","42.8","93","0.0","0.0","-9999.0","-9999.0","0","North","0.7","0.4","1021","30.15","-999","-999","-9999","-9999","-9999.00","-9999.00","Scattered Clouds","partlycloudy","0","0","0","0","0","0","SPECI UKKK 242239Z 00000MPS 0700 R08/1500D PRFG FEW040 SCT083 07/06 Q1021 R08/CLRD70 TEMPO 0400 FG"
"1:50 AM EEST on September 25, 2016","2016","09","25","01","50","Europe/Kiev","10:50 PM GMT on September 24, 2016","2016","09","24","22","50","UTC","7.0","44.6","7.0","44.6","100","0.0","0.0","-9999.0","-9999.0","0","North","2.1","1.3","1021","30.15","-999","-999","-9999","-9999","-9999.00","-9999.00","Scattered Clouds","partlycloudy","0","0","0","0","0","0","SPECI UKKK 242250Z 00000MPS 2100 BR FEW040 SCT083 07/07 Q1021 R08/CLRD70 TEMPO 0400 FG"
"2:00 AM EEST on September 25, 2016","2016","09","25","02","00","Europe/Kiev","11:00 PM GMT on September 24, 2016","2016","09","24","23","00","UTC","7.0","44.6","7.0","44.6","100","0.0","0.0","-9999.0","-9999.0","0","North","1.4","0.9","1021","30.15","-999","-999","-9999","-9999","-9999.00","-9999.00","Mist","hazy","0","0","0","0","0","0","METAR UKKK 242300Z 00000MPS 1400 R08/1500VP2000N BR NSC 07/07 Q1021 R08/CLRD70 TEMPO 0400 FG"
"2:30 AM EEST on September 25, 2016","2016","09","25","02","30","Europe/Kiev","11:30 PM GMT on September 24, 2016","2016","09","24","23","30","UTC","6.0","42.8","6.0","42.8","100","0.0","0.0","-9999.0","-9999.0","0","North","4.0","2.5","1021","30.15","-999","-999","-9999","-9999","-9999.00","-9999.00","Mist","hazy","0","0","0","0","0","0","METAR UKKK 242330Z 00000MPS 4000 BR NSC 06/06 Q1021 R08/CLRD70 TEMPO 0400 FG"
"3:00 AM EEST on September 25, 2016","2016","09","25","03","00","Europe/Kiev","12:00 AM GMT on September 25, 2016","2016","09","25","00","00","UTC","9","49","7","45","83","0.0","0.0","","","","","10","6","1021","30.16","-999","-999","-9999","-9999","","","","","0","0","0","0","0","0","AAXX 25001 33345 32997 00000 10093 20074 30009 40213 57005 555 10006"
"3:00 AM EEST on September 25, 2016","2016","09","25","03","00","Europe/Kiev","12:00 AM GMT on September 25, 2016","2016","09","25","00","00","UTC","7.0","44.6","7.0","44.6","100","7.2","4.5","-9999.0","-9999.0","230","SW","3.0","1.9","1021","30.15","5.7","42.3","-9999","-9999","-9999.00","-9999.00","Mist","hazy","0","0","0","0","0","0","METAR UKKK 250000Z 23002MPS 3000 BR NSC 07/07 Q1021 R08/CLRD70 TEMPO 0400 FG"
"3:30 AM EEST on September 25, 2016","2016","09","25","03","30","Europe/Kiev","12:30 AM GMT on September 25, 2016","2016","09","25","00","30","UTC","7.0","44.6","7.0","44.6","100","3.6","2.2","-9999.0","-9999.0","290","WNW","-9999.0","-9999.0","1021","30.15","-999","-999","-9999","-9999","-9999.00","-9999.00","Mist","hazy","0","0","0","0","0","0","METAR UKKK 250030Z 29001MPS 4300 BR NSC 07/07 Q1021 R08/CLRD70 TEMPO 0400 FG"
"4:00 AM EEST on September 25, 2016","2016","09","25","04","00","Europe/Kiev","1:00 AM GMT on September 25, 2016","2016","09","25","01","00","UTC","7.0","44.6","6.0","42.8","93","7.2","4.5","-9999.0","-9999.0","20","NNE","5.0","3.1","1021","30.15","5.7","42.3","-9999","-9999","-9999.00","-9999.00","Mist","hazy","0","0","0","0","0","0","METAR UKKK 250100Z 02002MPS 5000 BR NSC 07/06 Q1021 R08/CLRD70 TEMPO 0400 FG"
"4:30 AM EEST on September 25, 2016","2016","09","25","04","30","Europe/Kiev","1:30 AM GMT on September 25, 2016","2016","09","25","01","30","UTC","8.0","46.4","8.0","46.4","100","0.0","0.0","-9999.0","-9999.0","0","North","5.0","3.1","1021","30.15","-999","-999","-9999","-9999","-9999.00","-9999.00","Mist","hazy","0","0","0","0","0","0","METAR UKKK 250130Z 00000MPS 5000 BR NSC 08/08 Q1021 R08/CLRD70 TEMPO 0400 FG"
"5:00 AM EEST on September 25, 2016","2016","09","25","05","00","Europe/Kiev","2:00 AM GMT on September 25, 2016","2016","09","25","02","00","UTC","8.0","46.4","7.0","44.6","93","3.6","2.2","-9999.0","-9999.0","0","Variable","-9999.0","-9999.0","1021","30.15","-999","-999","-9999","-9999","-9999.00","-9999.00","Mist","hazy","0","0","0","0","0","0","METAR UKKK 250200Z VRB01MPS 4600 BR NSC 08/07 Q1021 R08/CLRD70 TEMPO 0400 FG"
"5:30 AM EEST on September 25, 2016","2016","09","25","05","30","Europe/Kiev","2:30 AM GMT on September 25, 2016","2016","09","25","02","30","UTC","6.0","42.8","6.0","42.8","100","3.6","2.2","-9999.0","-9999.0","280","West","1.3","0.8","1021","30.15","-999","-999","-9999","-9999","-9999.00","-9999.00","Mist","hazy","0","0","0","0","0","0","METAR UKKK 250230Z 28001MPS 1300 R08/1500VP2000D BR NSC 06/06 Q1021 R08/CLRD70 TEMPO 0400 FG"
"5:33 AM EEST on September 25, 2016","2016","09","25","05","33","Europe/Kiev","2:33 AM GMT on September 25, 2016","2016","09","25","02","33","UTC","6.0","42.8","6.0","42.8","100","7.2","4.5","-9999.0","-9999.0","280","West","0.7","0.4","1021","30.15","4.5","40.2","-9999","-9999","-9999.00","-9999.00","Unknown","unknown","0","0","0","0","0","0","SPECI UKKK 250233Z 28002MPS 0700 R08/1200VP2000D PRFG NSC 06/06 Q1021 R08/CLRD70 TEMPO 0400 FG"
"6:00 AM EEST on September 25, 2016","2016","09","25","06","00","Europe/Kiev","3:00 AM GMT on September 25, 2016","2016","09","25","03","00","UTC","9","48","8","46","92","3.6","2.2","","","340","NNW","4","2","1022","30.17","-999","-999","-9999","-9999","","","Mist","hazy","0","0","0","0","0","0","AAXX 25031 33345 41996 03401 10090 20080 30011 40215 53002 71000 555 10006"
"6:00 AM EEST on September 25, 2016","2016","09","25","06","00","Europe/Kiev","3:00 AM GMT on September 25, 2016","2016","09","25","03","00","UTC","8.0","46.4","7.0","44.6","93","7.2","4.5","-9999.0","-9999.0","300","WNW","2.8","1.7","1021","30.15","6.9","44.4","-9999","-9999","-9999.00","-9999.00","Partly Cloudy","partlycloudy","0","0","0","0","0","0","METAR UKKK 250300Z 30002MPS 2800 BR FEW010 08/07 Q1021 R08/CLRD70 TEMPO 0400 FG"
"6:04 AM EEST on September 25, 2016","2016","09","25","06","04","Europe/Kiev","3:04 AM GMT on September 25, 2016","2016","09","25","03","04","UTC","7.0","44.6","7.0","44.6","100","7.2","4.5","-9999.0","-9999.0","290","WNW","0.6","0.4","1021","30.15","5.7","42.3","-9999","-9999","-9999.00","-9999.00","Partly Cloudy","partlycloudy","0","0","0","0","0","0","SPECI UKKK 250304Z 29002MPS 0600 R08/P2000D PRFG FEW010 07/07 Q1021 R08/CLRD70 TEMPO 0400 FG"
"6:30 AM EEST on September 25, 2016","2016","09","25","06","30","Europe/Kiev","3:30 AM GMT on September 25, 2016","2016","09","25","03","30","UTC","8.0","46.4","8.0","46.4","100","3.6","2.2","-9999.0","-9999.0","300","WNW","1.6","1.0","1021","30.15","-999","-999","-9999","-9999","-9999.00","-9999.00","Mist","hazy","0","0","0","0","0","0","METAR UKKK 250330Z 30001MPS 1600 BR NSC 08/08 Q1021 R08/CLRD70 TEMPO 0400 FG"
"6:36 AM EEST on September 25, 2016","2016","09","25","06","36","Europe/Kiev","3:36 AM GMT on September 25, 2016","2016","09","25","03","36","UTC","7.0","44.6","7.0","44.6","100","3.6","2.2","-9999.0","-9999.0","300","WNW","-9999.0","-9999.0","1021","30.15","-999","-999","-9999","-9999","-9999.00","-9999.00","Unknown","unknown","0","0","0","0","0","0","SPECI UKKK 250336Z 30001MPS 0750 R08/P2000D PRFG NSC 07/07 Q1021 R08/CLRD70 TEMPO 0400 FG"
"7:00 AM EEST on September 25, 2016","2016","09","25","07","00","Europe/Kiev","4:00 AM GMT on September 25, 2016","2016","09","25","04","00","UTC","8.0","46.4","8.0","46.4","100","7.2","4.5","-9999.0","-9999.0","280","West","2.3","1.4","1021","30.15","6.9","44.4","-9999","-9999","-9999.00","-9999.00","Mist","hazy","0","0","0","0","0","0","METAR UKKK 250400Z 28002MPS 2300 BR NSC 08/08 Q1021 R26/CLRD70 TEMPO 1400 BR"
"7:30 AM EEST on September 25, 2016","2016","09","25","07","30","Europe/Kiev","4:30 AM GMT on September 25, 2016","2016","09","25","04","30","UTC","8.0","46.4","8.0","46.4","100","7.2","4.5","-9999.0","-9999.0","280","West","5.0","3.1","1021","30.15","6.9","44.4","-9999","-9999","-9999.00","-9999.00","Mist","hazy","0","0","0","0","0","0","METAR UKKK 250430Z 28002MPS 5000 BR NSC 08/08 Q1021 R26/CLRD70 TEMPO 1400 BR"
"8:00 AM EEST on September 25, 2016","2016","09","25","08","00","Europe/Kiev","5:00 AM GMT on September 25, 2016","2016","09","25","05","00","UTC","9.0","48.2","9.0","48.2","100","3.6","2.2","-9999.0","-9999.0","250","WSW","2.7","1.7","1021","30.15","-999","-999","-9999","-9999","-9999.00","-9999.00","Mist","hazy","0","0","0","0","0","0","METAR UKKK 250500Z 25001MPS 2700 BR NSC 09/09 Q1021 R26/CLRD70 NOSIG"
"8:08 AM EEST on September 25, 2016","2016","09","25","08","08","Europe/Kiev","5:08 AM GMT on September 25, 2016","2016","09","25","05","08","UTC","9.0","48.2","9.0","48.2","100","7.2","4.5","-9999.0","-9999.0","270","West","1.2","0.7","1021","30.15","-999","-999","-9999","-9999","-9999.00","-9999.00","Mist","hazy","0","0","0","0","0","0","SPECI UKKK 250508Z 27002MPS 1200 R26/P2000D BR NSC 09/09 Q1021 R26/CLRD70 TEMPO 1000 BR"
"8:30 AM EEST on September 25, 2016","2016","09","25","08","30","Europe/Kiev","5:30 AM GMT on September 25, 2016","2016","09","25","05","30","UTC","10.0","50.0","10.0","50.0","100","7.2","4.5","-9999.0","-9999.0","300","WNW","-9999.0","-9999.0","1021","30.15","-999","-999","-9999","-9999","-9999.00","-9999.00","Mist","hazy","0","0","0","0","0","0","METAR UKKK 250530Z 30002MPS 270V330 4300 BR NSC 10/10 Q1021 R26/CLRD70 NOSIG"
"8:49 AM EEST on September 25, 2016","2016","09","25","08","49","Europe/Kiev","5:49 AM GMT on September 25, 2016","2016","09","25","05","49","UTC","11.0","51.8","10.0","50.0","94","7.2","4.5","-9999.0","-9999.0","340","NNW","10.0","6.2","1021","30.15","-999","-999","-9999","-9999","-9999.00","-9999.00","Mostly Cloudy","mostlycloudy","0","0","0","0","0","0","SPECI UKKK 250549Z 34002MPS 9999 BKN005 11/10 Q1021 R26/CLRD70 TEMPO BKN004"
"9:00 AM EEST on September 25, 2016","2016","09","25","09","00","Europe/Kiev","6:00 AM GMT on September 25, 2016","2016","09","25","06","00","UTC","11","52","10","50","89","7.2","4.5","","","10","North","4","2","1022","30.17","-999","-999","-9999","-9999","","","Mist","hazy","0","0","0","0","0","0","AAXX 25061 33345 31296 80102 10112 20098 30015 40217 52004 71011 886// 333 20089 88706 555 10012 52004"
"9:00 AM EEST on September 25, 2016","2016","09","25","09","00","Europe/Kiev","6:00 AM GMT on September 25, 2016","2016","09","25","06","00","UTC","11.0","51.8","10.0","50.0","94","14.4","8.9","-9999.0","-9999.0","360","North","1.0","0.6","1021","30.15","-999","-999","-9999","-9999","-9999.00","-9999.00","Mostly Cloudy","mostlycloudy","0","0","0","0","0","0","METAR UKKK 250600Z 36004MPS 1000 R26/1000VP2000D BR BKN003 11/10 Q1021 R26/CLRD70 TEMPO 0400 FG BKN001"
"9:30 AM EEST on September 25, 2016","2016","09","25","09","30","Europe/Kiev","6:30 AM GMT on September 25, 2016","2016","09","25","06","30","UTC","10.0","50.0","10.0","50.0","100","7.2","4.5","-9999.0","-9999.0","340","NNW","1.5","0.9","1021","30.15","-999","-999","-9999","-9999","-9999.00","-9999.00","Mostly Cloudy","mostlycloudy","0","0","0","0","0","0","METAR UKKK 250630Z 34002MPS 310V020 1500 BR BKN002 10/10 Q1021 R26/CLRD70 TEMPO 0400 FG BKN001"
"9:40 AM EEST on September 25, 2016","2016","09","25","09","40","Europe/Kiev","6:40 AM GMT on September 25, 2016","2016","09","25","06","40","UTC","10.0","50.0","10.0","50.0","100","10.8","6.7","-9999.0","-9999.0","340","NNW","1.3","0.8","1021","30.15","-999","-999","-9999","-9999","-9999.00","-9999.00","Mostly Cloudy","mostlycloudy","0","0","0","0","0","0","SPECI UKKK 250640Z 34003MPS 310V020 1300 R26/P2000D BR BKN002 10/10 Q1021 R26/CLRD70 TEMPO 0400 FG BKN001"
"9:44 AM EEST on September 25, 2016","2016","09","25","09","44","Europe/Kiev","6:44 AM GMT on September 25, 2016","2016","09","25","06","44","UTC","10.0","50.0","10.0","50.0","100","10.8","6.7","-9999.0","-9999.0","330","NNW","-9999.0","-9999.0","1021","30.15","-999","-999","-9999","-9999","-9999.00","-9999.00","Mostly Cloudy","mostlycloudy","0","0","0","0","0","0","SPECI UKKK 250644Z 33003MPS 310V020 0750 R26/P2000D PRFG BKN002 10/10 Q1021 R26/CLRD70 TEMPO 0400 FG BKN001"
"10:00 AM EEST on September 25, 2016","2016","09","25","10","00","Europe/Kiev","7:00 AM GMT on September 25, 2016","2016","09","25","07","00","UTC","10.0","50.0","10.0","50.0","100","7.2","4.5","-9999.0","-9999.0","340","NNW","-9999.0","-9999.0","1022","30.18","-999","-999","-9999","-9999","-9999.00","-9999.00","Mostly Cloudy","mostlycloudy","0","0","0","0","0","0","METAR UKKK 250700Z 34002MPS 310V020 4300 BR BKN002 10/10 Q1022 R26/CLRD70 TEMPO 1400 BR BKN001"
"10:07 AM EEST on September 25, 2016","2016","09","25","10","07","Europe/Kiev","7:07 AM GMT on September 25, 2016","2016","09","25","07","07","UTC","10.0","50.0","10.0","50.0","100","10.8","6.7","-9999.0","-9999.0","340","NNW","1.2","0.7","1022","30.18","-999","-999","-9999","-9999","-9999.00","-9999.00","Mostly Cloudy","mostlycloudy","0","0","0","0","0","0","SPECI UKKK 250707Z 34003MPS 310V020 1200 R26/P2000U BR BKN002 10/10 Q1022 R26/CLRD70 TEMPO 0400 FG BKN001"
"10:20 AM EEST on September 25, 2016","2016","09","25","10","20","Europe/Kiev","7:20 AM GMT on September 25, 2016","2016","09","25","07","20","UTC","10.0","50.0","10.0","50.0","100","10.8","6.7","-9999.0","-9999.0","330","NNW","2.0","1.2","1021","30.15","-999","-999","-9999","-9999","-9999.00","-9999.00","Mostly Cloudy","mostlycloudy","0","0","0","0","0","0","SPECI UKKK 250720Z 33003MPS 290V010 2000 BR BKN002 10/10 Q1021 R26/CLRD70 TEMPO 1000 BR BKN001"
"10:30 AM EEST on September 25, 2016","2016","09","25","10","30","Europe/Kiev","7:30 AM GMT on September 25, 2016","2016","09","25","07","30","UTC","11.0","51.8","11.0","51.8","100","10.8","6.7","-9999.0","-9999.0","310","NW","-9999.0","-9999.0","1021","30.15","-999","-999","-9999","-9999","-9999.00","-9999.00","Mostly Cloudy","mostlycloudy","0","0","0","0","0","0","METAR UKKK 250730Z 31003MPS 3100 BR BKN003 11/11 Q1021 R26/CLRD70 TEMPO 1000 BR BKN001"
"11:00 AM EEST on September 25, 2016","2016","09","25","11","00","Europe/Kiev","8:00 AM GMT on September 25, 2016","2016","09","25","08","00","UTC","11.0","51.8","11.0","51.8","100","14.4","8.9","-9999.0","-9999.0","310","NW","-9999.0","-9999.0","1022","30.18","-999","-999","-9999","-9999","-9999.00","-9999.00","Mostly Cloudy","mostlycloudy","0","0","0","0","0","0","METAR UKKK 250800Z 31004MPS 280V350 4700 BR BKN003 11/11 Q1022 R26/CLRD70 TEMPO 2100 BR BKN002"
"11:30 AM EEST on September 25, 2016","2016","09","25","11","30","Europe/Kiev","8:30 AM GMT on September 25, 2016","2016","09","25","08","30","UTC","11.0","51.8","10.0","50.0","94","10.8","6.7","-9999.0","-9999.0","330","NNW","7.0","4.3","1021","30.15","-999","-999","-9999","-9999","-9999.00","-9999.00","Mostly Cloudy","mostlycloudy","0","0","0","0","0","0","METAR UKKK 250830Z 33003MPS 300V030 7000 BKN004 11/10 Q1021 R26/CLRD70 TEMPO BKN003"
"12:00 PM EEST on September 25, 2016","2016","09","25","12","00","Europe/Kiev","9:00 AM GMT on September 25, 2016","2016","09","25","09","00","UTC","12","53","10","50","87","10.8","6.7","","","0","North","20","12","1022","30.17","-999","-999","-9999","-9999","","","Overcast","cloudy","0","0","0","0","0","0","AAXX 25091 33345 42398 83603 10115 20101 30013 40215 58002 886// 333 88706 555 10014"
"12:00 PM EEST on September 25, 2016","2016","09","25","12","00","Europe/Kiev","9:00 AM GMT on September 25, 2016","2016","09","25","09","00","UTC","11.0","51.8","10.0","50.0","94","14.4","8.9","-9999.0","-9999.0","330","NNW","9.0","5.6","1021","30.15","-999","-999","-9999","-9999","-9999.00","-9999.00","Mostly Cloudy","mostlycloudy","0","0","0","0","0","0","METAR UKKK 250900Z 33004MPS 300V360 9000 BKN005 11/10 Q1021 R26/CLRD70 TEMPO BKN004"
"12:30 PM EEST on September 25, 2016","2016","09","25","12","30","Europe/Kiev","9:30 AM GMT on September 25, 2016","2016","09","25","09","30","UTC","12.0","53.6","10.0","50.0","88","10.8","6.7","-9999.0","-9999.0","330","NNW","10.0","6.2","1021","30.15","-999","-999","-9999","-9999","-9999.00","-9999.00","Mostly Cloudy","mostlycloudy","0","0","0","0","0","0","METAR UKKK 250930Z 33003MPS 300V020 9999 BKN008 12/10 Q1021 R26/CLRD70 NOSIG"
"1:00 PM EEST on September 25, 2016","2016","09","25","13","00","Europe/Kiev","10:00 AM GMT on September 25, 2016","2016","09","25","10","00","UTC","13.0","55.4","10.0","50.0","82","14.4","8.9","-9999.0","-9999.0","350","North","10.0","6.2","1021","30.15","-999","-999","-9999","-9999","-9999.00","-9999.00","Mostly Cloudy","mostlycloudy","0","0","0","0","0","0","METAR UKKK 251000Z 35004MPS 320V050 9999 BKN011 13/10 Q1021 R26/CLRD70 NOSIG"
"1:30 PM EEST on September 25, 2016","2016","09","25","13","30","Europe/Kiev","10:30 AM GMT on September 25, 2016","2016","09","25","10","30","UTC","14.0","57.2","10.0","50.0","77","10.8","6.7","-9999.0","-9999.0","10","North","10.0","6.2","1021","30.15","-999","-999","-9999","-9999","-9999.00","-9999.00","Mostly Cloudy","mostlycloudy","0","0","0","0","0","0","METAR UKKK 251030Z 01003MPS 320V050 9999 SCT014 BKN028 14/10 Q1021 R26/CLRD70 NOSIG"
"2:00 PM EEST on September 25, 2016","2016","09","25","14","00","Europe/Kiev","11:00 AM GMT on September 25, 2016","2016","09","25","11","00","UTC","14.0","57.2","10.0","50.0","77","14.4","8.9","-9999.0","-9999.0","320","NW","10.0","6.2","1021","30.15","-999","-999","-9999","-9999","-9999.00","-9999.00","Mostly Cloudy","mostlycloudy","0","0","0","0","0","0","METAR UKKK 251100Z 32004MPS 280V010 9999 SCT014 BKN028 14/10 Q1021 R26/CLRD70 NOSIG"
"2:30 PM EEST on September 25, 2016","2016","09","25","14","30","Europe/Kiev","11:30 AM GMT on September 25, 2016","2016","09","25","11","30","UTC","15.0","59.0","9.0","48.2","67","10.8","6.7","-9999.0","-9999.0","350","North","10.0","6.2","1020","30.12","-999","-999","-9999","-9999","-9999.00","-9999.00","Mostly Cloudy","mostlycloudy","0","0","0","0","0","0","METAR UKKK 251130Z 35003MPS 310V060 9999 BKN022 15/09 Q1020 R26/CLRD70 NOSIG"
"3:00 PM EEST on September 25, 2016","2016","09","25","15","00","Europe/Kiev","12:00 PM GMT on September 25, 2016","2016","09","25","12","00","UTC","15","59","9","49","60","10.8","6.7","","","30","NNE","20","12","1020","30.13","-999","-999","-9999","-9999","","","Scattered Clouds","partlycloudy","0","0","0","0","0","0","AAXX 25121 33345 32698 40303 10149 20093 30004 40203 57009 82501"
"3:00 PM EEST on September 25, 2016","2016","09","25","15","00","Europe/Kiev","12:00 PM GMT on September 25, 2016","2016","09","25","12","00","UTC","15.0","59.0","9.0","48.2","67","14.4","8.9","-9999.0","-9999.0","10","North","10.0","6.2","1020","30.12","-999","-999","-9999","-9999","-9999.00","-9999.00","Mostly Cloudy","mostlycloudy","0","0","0","0","0","0","METAR UKKK 251200Z 01004MPS 330V050 9999 BKN030 15/09 Q1020 R26/CLRD70 NOSIG"
"3:30 PM EEST on September 25, 2016","2016","09","25","15","30","Europe/Kiev","12:30 PM GMT on September 25, 2016","2016","09","25","12","30","UTC","15.0","59.0","9.0","48.2","67","14.4","8.9","-9999.0","-9999.0","10","North","10.0","6.2","1020","30.12","-999","-999","-9999","-9999","-9999.00","-9999.00","Mostly Cloudy","mostlycloudy","0","0","0","0","0","0","METAR UKKK 251230Z 01004MPS 330V050 9999 SCT030 BKN073 15/09 Q1020 R26/CLRD70 NOSIG"
"4:00 PM EEST on September 25, 2016","2016","09","25","16","00","Europe/Kiev","1:00 PM GMT on September 25, 2016","2016","09","25","13","00","UTC","15.0","59.0","8.0","46.4","63","18.0","11.2","-9999.0","-9999.0","350","North","10.0","6.2","1020","30.12","-999","-999","-9999","-9999","-9999.00","-9999.00","Mostly Cloudy","mostlycloudy","0","0","0","0","0","0","METAR UKKK 251300Z 35005MPS 320V030 9999 SCT030 BKN073 15/08 Q1020 R26/CLRD70 NOSIG"
"4:30 PM EEST on September 25, 2016","2016","09","25","16","30","Europe/Kiev","1:30 PM GMT on September 25, 2016","2016","09","25","13","30","UTC","15.0","59.0","8.0","46.4","63","14.4","8.9","-9999.0","-9999.0","20","NNE","10.0","6.2","1020","30.12","-999","-999","-9999","-9999","-9999.00","-9999.00","Mostly Cloudy","mostlycloudy","0","0","0","0","0","0","METAR UKKK 251330Z 02004MPS 340V040 9999 SCT030 BKN073 15/08 Q1020 R26/CLRD70 NOSIG"
"5:00 PM EEST on September 25, 2016","2016","09","25","17","00","Europe/Kiev","2:00 PM GMT on September 25, 2016","2016","09","25","14","00","UTC","15.0","59.0","8.0","46.4","63","14.4","8.9","-9999.0","-9999.0","10","North","10.0","6.2","1020","30.12","-999","-999","-9999","-9999","-9999.00","-9999.00","Mostly Cloudy","mostlycloudy","0","0","0","0","0","0","METAR UKKK 251400Z 01004MPS 9999 SCT030 BKN073 15/08 Q1020 R26/CLRD70 NOSIG"
"5:30 PM EEST on September 25, 2016","2016","09","25","17","30","Europe/Kiev","2:30 PM GMT on September 25, 2016","2016","09","25","14","30","UTC","15.0","59.0","8.0","46.4","63","14.4","8.9","-9999.0","-9999.0","360","North","10.0","6.2","1020","30.12","-999","-999","-9999","-9999","-9999.00","-9999.00","Mostly Cloudy","mostlycloudy","0","0","0","0","0","0","METAR UKKK 251430Z 36004MPS 9999 SCT030 BKN073 15/08 Q1020 R26/CLRD70 NOSIG"
"6:00 PM EEST on September 25, 2016","2016","09","25","18","00","Europe/Kiev","3:00 PM GMT on September 25, 2016","2016","09","25","15","00","UTC","14","58","8","47","57","10.8","6.7","","","30","NNE","20","12","1020","30.13","-999","-999","-9999","-9999","","","Mostly Cloudy","mostlycloudy","0","0","0","0","0","0","AAXX 25151 33345 42698 60303 10145 20083 30003 40203 57001 85530 555 10016"
"6:00 PM EEST on September 25, 2016","2016","09","25","18","00","Europe/Kiev","3:00 PM GMT on September 25, 2016","2016","09","25","15","00","UTC","14.0","57.2","8.0","46.4","67","14.4","8.9","-9999.0","-9999.0","360","North","10.0","6.2","1020","30.12","-999","-999","-9999","-9999","-9999.00","-9999.00","Mostly Cloudy","mostlycloudy","0","0","0","0","0","0","METAR UKKK 251500Z 36004MPS 330V040 9999 SCT030 BKN073 14/08 Q1020 R26/CLRD70 NOSIG"
"6:30 PM EEST on September 25, 2016","2016","09","25","18","30","Europe/Kiev","3:30 PM GMT on September 25, 2016","2016","09","25","15","30","UTC","14.0","57.2","9.0","48.2","72","14.4","8.9","-9999.0","-9999.0","340","NNW","10.0","6.2","1020","30.12","-999","-999","-9999","-9999","-9999.00","-9999.00","Mostly Cloudy","mostlycloudy","0","0","0","0","0","0","METAR UKKK 251530Z 34004MPS 310V010 9999 BKN028 14/09 Q1020 R26/CLRD70 NOSIG"
"7:00 PM EEST on September 25, 2016","2016","09","25","19","00","Europe/Kiev","4:00 PM GMT on September 25, 2016","2016","09","25","16","00","UTC","14.0","57.2","9.0","48.2","72","10.8","6.7","-9999.0","-9999.0","340","NNW","10.0","6.2","1020","30.12","-999","-999","-9999","-9999","-9999.00","-9999.00","Mostly Cloudy","mostlycloudy","0","0","0","0","0","0","METAR UKKK 251600Z 34003MPS 9999 SCT030CB BKN046 14/09 Q1020 R26/CLRD70 NOSIG"
"7:30 PM EEST on September 25, 2016","2016","09","25","19","30","Europe/Kiev","4:30 PM GMT on September 25, 2016","2016","09","25","16","30","UTC","13.0","55.4","10.0","50.0","82","10.8","6.7","-9999.0","-9999.0","350","North","10.0","6.2","1020","30.12","-999","-999","-9999","-9999","-9999.00","-9999.00","Light Rain Showers","rain","0","1","0","0","0","0","METAR UKKK 251630Z 35003MPS 320V020 9999 -SHRA SCT027CB BKN046 13/10 Q1020 R26/190060 NOSIG"
"8:00 PM EEST on September 25, 2016","2016","09","25","20","00","Europe/Kiev","5:00 PM GMT on September 25, 2016","2016","09","25","17","00","UTC","13.0","55.4","10.0","50.0","82","10.8","6.7","-9999.0","-9999.0","360","North","10.0","6.2","1020","30.12","-999","-999","-9999","-9999","-9999.00","-9999.00","Light Rain Showers","rain","0","1","0","0","0","0","METAR UKKK 251700Z 36003MPS 320V040 9999 -SHRA SCT030CB BKN050 13/10 Q1020 R26/190060 NOSIG"
"8:30 PM EEST on September 25, 2016","2016","09","25","20","30","Europe/Kiev","5:30 PM GMT on September 25, 2016","2016","09","25","17","30","UTC","13.0","55.4","9.0","48.2","77","10.8","6.7","-9999.0","-9999.0","360","North","10.0","6.2","1020","30.12","-999","-999","-9999","-9999","-9999.00","-9999.00","Mostly Cloudy","mostlycloudy","0","0","0","0","0","0","METAR UKKK 251730Z 36003MPS 9999 FEW030CB BKN076 13/09 Q1020 R26/190060 NOSIG"
"9:00 PM EEST on September 25, 2016","2016","09","25","21","00","Europe/Kiev","6:00 PM GMT on September 25, 2016","2016","09","25","18","00","UTC","13","55","9","47","68","10.8","6.7","","","30","NNE","20","12","1021","30.14","-999","-999","-9999","-9999","","","Scattered Clouds","partlycloudy","0","0","0","0","0","0","AAXX 25181 33345 32998 20303 10130 20086 30006 40207 53003 82031 333 10159 555 10010"
"9:00 PM EEST on September 25, 2016","2016","09","25","21","00","Europe/Kiev","6:00 PM GMT on September 25, 2016","2016","09","25","18","00","UTC","12.0","53.6","9.0","48.2","82","7.2","4.5","-9999.0","-9999.0","350","North","-9999.0","-9999.0","1020","30.12","-999","-999","-9999","-9999","-9999.00","-9999.00","Clear","clear","0","0","0","0","0","0","METAR UKKK 251800Z 35002MPS CAVOK 12/09 Q1020 R26/190060 NOSIG"
"9:30 PM EEST on September 25, 2016","2016","09","25","21","30","Europe/Kiev","6:30 PM GMT on September 25, 2016","2016","09","25","18","30","UTC","12.0","53.6","8.0","46.4","77","10.8","6.7","-9999.0","-9999.0","330","NNW","10.0","6.2","1021","30.15","-999","-999","-9999","-9999","-9999.00","-9999.00","Mostly Cloudy","mostlycloudy","0","0","0","0","0","0","METAR UKKK 251830Z 33003MPS 9999 FEW039 BKN200 12/08 Q1021 R08/190060 NOSIG"
"10:00 PM EEST on September 25, 2016","2016","09","25","22","00","Europe/Kiev","7:00 PM GMT on September 25, 2016","2016","09","25","19","00","UTC","12.0","53.6","9.0","48.2","82","10.8","6.7","-9999.0","-9999.0","350","North","10.0","6.2","1021","30.15","-999","-999","-9999","-9999","-9999.00","-9999.00","Mostly Cloudy","mostlycloudy","0","0","0","0","0","0","METAR UKKK 251900Z 35003MPS 9999 SCT049 BKN200 12/09 Q1021 R26/190060 NOSIG"
"10:30 PM EEST on September 25, 2016","2016","09","25","22","30","Europe/Kiev","7:30 PM GMT on September 25, 2016","2016","09","25","19","30","UTC","12.0","53.6","9.0","48.2","82","10.8","6.7","-9999.0","-9999.0","360","North","-9999.0","-9999.0","1021","30.15","-999","-999","-9999","-9999","-9999.00","-9999.00","Clear","clear","0","0","0","0","0","0","METAR UKKK 251930Z 36003MPS 330V050 CAVOK 12/09 Q1021 R26/190060 NOSIG"
"11:00 PM EEST on September 25, 2016","2016","09","25","23","00","Europe/Kiev","8:00 PM GMT on September 25, 2016","2016","09","25","20","00","UTC","12.0","53.6","7.0","44.6","72","18.0","11.2","-9999.0","-9999.0","40","NE","-9999.0","-9999.0","1021","30.15","-999","-999","-9999","-9999","-9999.00","-9999.00","Clear","clear","0","0","0","0","0","0","METAR UKKK 252000Z 04005MPS 010V070 CAVOK 12/07 Q1021 R26/190060 NOSIG"
"11:30 PM EEST on September 25, 2016","2016","09","25","23","30","Europe/Kiev","8:30 PM GMT on September 25, 2016","2016","09","25","20","30","UTC","11.0","51.8","7.0","44.6","76","18.0","11.2","-9999.0","-9999.0","40","NE","-9999.0","-9999.0","1021","30.15","-999","-999","-9999","-9999","-9999.00","-9999.00","Clear","clear","0","0","0","0","0","0","METAR UKKK 252030Z 04005MPS CAVOK 11/07 Q1021 R08/190060 NOSIG"
"12:00 AM EEST on September 26, 2016","2016","09","26","00","00","Europe/Kiev","9:00 PM GMT on September 25, 2016","2016","09","25","21","00","UTC","11","53","7","44","64","10.8","6.7","","","50","NE","20","12","1021","30.16","-999","-999","-9999","-9999","","","Mostly Cloudy","mostlycloudy","0","0","0","0","0","0","AAXX 25211 33345 42698 60503 10114 20068 30011 40213 52005 86500 555 10010"
"12:00 AM EEST on September 26, 2016","2016","09","26","00","00","Europe/Kiev","9:00 PM GMT on September 25, 2016","2016","09","25","21","00","UTC","11.0","51.8","6.0","42.8","71","14.4","8.9","-9999.0","-9999.0","30","NNE","-9999.0","-9999.0","1021","30.15","-999","-999","-9999","-9999","-9999.00","-9999.00","Clear","clear","0","0","0","0","0","0","METAR UKKK 252100Z 03004MPS CAVOK 11/06 Q1021 R08/190060 NOSIG"
"12:30 AM EEST on September 26, 2016","2016","09","26","00","30","Europe/Kiev","9:30 PM GMT on September 25, 2016","2016","09","25","21","30","UTC","10.0","50.0","6.0","42.8","76","14.4","8.9","-9999.0","-9999.0","40","NE","-9999.0","-9999.0","1021","30.15","-999","-999","-9999","-9999","-9999.00","-9999.00","Clear","clear","0","0","0","0","0","0","METAR UKKK 252130Z 04004MPS CAVOK 10/06 Q1021 R08/190060 NOSIG"
"1:00 AM EEST on September 26, 2016","2016","09","26","01","00","Europe/Kiev","10:00 PM GMT on September 25, 2016","2016","09","25","22","00","UTC","11.0","51.8","6.0","42.8","71","14.4","8.9","-9999.0","-9999.0","50","NE","-9999.0","-9999.0","1021","30.15","-999","-999","-9999","-9999","-9999.00","-9999.00","Clear","clear","0","0","0","0","0","0","METAR UKKK 252200Z 05004MPS CAVOK 11/06 Q1021 R08/190060 NOSIG"
"1:30 AM EEST on September 26, 2016","2016","09","26","01","30","Europe/Kiev","10:30 PM GMT on September 25, 2016","2016","09","25","22","30","UTC","10.0","50.0","6.0","42.8","76","14.4","8.9","-9999.0","-9999.0","30","NNE","-9999.0","-9999.0","1021","30.15","-999","-999","-9999","-9999","-9999.00","-9999.00","Clear","clear","0","0","0","0","0","0","METAR UKKK 252230Z 03004MPS CAVOK 10/06 Q1021 R08/190060 NOSIG"
"2:00 AM EEST on September 26, 2016","2016","09","26","02","00","Europe/Kiev","11:00 PM GMT on September 25, 2016","2016","09","25","23","00","UTC","10.0","50.0","6.0","42.8","76","14.4","8.9","-9999.0","-9999.0","20","NNE","-9999.0","-9999.0","1021","30.15","-999","-999","-9999","-9999","-9999.00","-9999.00","Clear","clear","0","0","0","0","0","0","METAR UKKK 252300Z 02004MPS CAVOK 10/06 Q1021 R08/190060 NOSIG"
"2:30 AM EEST on September 26, 2016","2016","09","26","02","30","Europe/Kiev","11:30 PM GMT on September 25, 2016","2016","09","25","23","30","UTC","10.0","50.0","6.0","42.8","76","10.8","6.7","-9999.0","-9999.0","20","NNE","-9999.0","-9999.0","1021","30.15","-999","-999","-9999","-9999","-9999.00","-9999.00","Clear","clear","0","0","0","0","0","0","METAR UKKK 252330Z 02003MPS CAVOK 10/06 Q1021 R08/190060 NOSIG"
"3:00 AM EEST on September 26, 2016","2016","09","26","03","00","Europe/Kiev","12:00 AM GMT on September 26, 2016","2016","09","26","00","00","UTC","10","50","6","43","71","7.2","4.5","","","40","NE","20","12","1021","30.16","-999","-999","-9999","-9999","","","Mostly Cloudy","mostlycloudy","0","0","0","0","0","0","AAXX 26001 33345 32698 70402 10102 20063 30010 40213 58001 87500 333 87636 555 10008"
"3:00 AM EEST on September 26, 2016","2016","09","26","03","00","Europe/Kiev","12:00 AM GMT on September 26, 2016","2016","09","26","00","00","UTC","10.0","50.0","6.0","42.8","76","10.8","6.7","-9999.0","-9999.0","20","NNE","-9999.0","-9999.0","1021","30.15","-999","-999","-9999","-9999","-9999.00","-9999.00","Clear","clear","0","0","0","0","0","0","METAR UKKK 260000Z 02003MPS CAVOK 10/06 Q1021 R08/190060 NOSIG"
"3:30 AM EEST on September 26, 2016","2016","09","26","03","30","Europe/Kiev","12:30 AM GMT on September 26, 2016","2016","09","26","00","30","UTC","10.0","50.0","6.0","42.8","76","14.4","8.9","-9999.0","-9999.0","10","North","10.0","6.2","1021","30.15","-999","-999","-9999","-9999","-9999.00","-9999.00","Mostly Cloudy","mostlycloudy","0","0","0","0","0","0","METAR UKKK 260030Z 01004MPS 9999 BKN049 10/06 Q1021 R08/190060 NOSIG"
"4:00 AM EEST on September 26, 2016","2016","09","26","04","00","Europe/Kiev","1:00 AM GMT on September 26, 2016","2016","09","26","01","00","UTC","10.0","50.0","6.0","42.8","76","14.4","8.9","-9999.0","-9999.0","10","North","10.0","6.2","1021","30.15","-999","-999","-9999","-9999","-9999.00","-9999.00","Mostly Cloudy","mostlycloudy","0","0","0","0","0","0","METAR UKKK 260100Z 01004MPS 9999 BKN049 10/06 Q1021 R08/190060 NOSIG"
"4:30 AM EEST on September 26, 2016","2016","09","26","04","30","Europe/Kiev","1:30 AM GMT on September 26, 2016","2016","09","26","01","30","UTC","9.0","48.2","5.0","41.0","76","10.8","6.7","-9999.0","-9999.0","10","North","-9999.0","-9999.0","1021","30.15","-999","-999","-9999","-9999","-9999.00","-9999.00","Clear","clear","0","0","0","0","0","0","METAR UKKK 260130Z 01003MPS CAVOK 09/05 Q1021 R08/190060 NOSIG"
"5:00 AM EEST on September 26, 2016","2016","09","26","05","00","Europe/Kiev","2:00 AM GMT on September 26, 2016","2016","09","26","02","00","UTC","8.0","46.4","5.0","41.0","81","10.8","6.7","-9999.0","-9999.0","330","NNW","-9999.0","-9999.0","1021","30.15","6.1","43.0","-9999","-9999","-9999.00","-9999.00","Clear","clear","0","0","0","0","0","0","METAR UKKK 260200Z 33003MPS 300V360 CAVOK 08/05 Q1021 R08/190060 NOSIG"
"5:30 AM EEST on September 26, 2016","2016","09","26","05","30","Europe/Kiev","2:30 AM GMT on September 26, 2016","2016","09","26","02","30","UTC","9.0","48.2","6.0","42.8","82","14.4","8.9","-9999.0","-9999.0","340","NNW","-9999.0","-9999.0","1021","30.15","-999","-999","-9999","-9999","-9999.00","-9999.00","Clear","clear","0","0","0","0","0","0","METAR UKKK 260230Z 34004MPS CAVOK 09/06 Q1021 R08/CLRD70 NOSIG"
"6:00 AM EEST on September 26, 2016","2016","09","26","06","00","Europe/Kiev","3:00 AM GMT on September 26, 2016","2016","09","26","03","00","UTC","9","48","6","43","77","10.8","6.7","","","0","North","10","6","1021","30.16","-999","-999","-9999","-9999","","","Mostly Cloudy","mostlycloudy","0","0","0","0","0","0","AAXX 26031 33345 42997 63603 10091 20061 30008 40212 57002 86030 555 10008"
"6:00 AM EEST on September 26, 2016","2016","09","26","06","00","Europe/Kiev","3:00 AM GMT on September 26, 2016","2016","09","26","03","00","UTC","8.0","46.4","6.0","42.8","87","14.4","8.9","-9999.0","-9999.0","330","NNW","-9999.0","-9999.0","1021","30.15","5.6","42.0","-9999","-9999","-9999.00","-9999.00","Clear","clear","0","0","0","0","0","0","METAR UKKK 260300Z 33004MPS 300V360 CAVOK 08/06 Q1021 R08/CLRD70 NOSIG"
"6:30 AM EEST on September 26, 2016","2016","09","26","06","30","Europe/Kiev","3:30 AM GMT on September 26, 2016","2016","09","26","03","30","UTC","8.0","46.4","6.0","42.8","87","14.4","8.9","-9999.0","-9999.0","340","NNW","-9999.0","-9999.0","1021","30.15","5.6","42.0","-9999","-9999","-9999.00","-9999.00","Clear","clear","0","0","0","0","0","0","METAR UKKK 260330Z 34004MPS 300V010 CAVOK 08/06 Q1021 R08/CLRD70 NOSIG"
"7:00 AM EEST on September 26, 2016","2016","09","26","07","00","Europe/Kiev","4:00 AM GMT on September 26, 2016","2016","09","26","04","00","UTC","8.0","46.4","6.0","42.8","87","14.4","8.9","-9999.0","-9999.0","340","NNW","-9999.0","-9999.0","1021","30.15","5.6","42.0","-9999","-9999","-9999.00","-9999.00","Clear","clear","0","0","0","0","0","0","METAR UKKK 260400Z 34004MPS 320V020 CAVOK 08/06 Q1021 R26/CLRD70 NOSIG"
"7:30 AM EEST on September 26, 2016","2016","09","26","07","30","Europe/Kiev","4:30 AM GMT on September 26, 2016","2016","09","26","04","30","UTC","9.0","48.2","6.0","42.8","82","14.4","8.9","-9999.0","-9999.0","340","NNW","10.0","6.2","1021","30.15","-999","-999","-9999","-9999","-9999.00","-9999.00","Mostly Cloudy","mostlycloudy","0","0","0","0","0","0","METAR UKKK 260430Z 34004MPS 310V010 9999 FEW030CB BKN076 09/06 Q1021 R26/CLRD70 NOSIG"
"8:00 AM EEST on September 26, 2016","2016","09","26","08","00","Europe/Kiev","5:00 AM GMT on September 26, 2016","2016","09","26","05","00","UTC","9.0","48.2","6.0","42.8","82","10.8","6.7","-9999.0","-9999.0","330","NNW","10.0","6.2","1021","30.15","-999","-999","-9999","-9999","-9999.00","-9999.00","Light Rain Showers","rain","0","1","0","0","0","0","METAR UKKK 260500Z 33003MPS 9999 -SHRA SCT030CB BKN086 09/06 Q1021 R26/CLRD70 NOSIG"
"8:30 AM EEST on September 26, 2016","2016","09","26","08","30","Europe/Kiev","5:30 AM GMT on September 26, 2016","2016","09","26","05","30","UTC","8.0","46.4","6.0","42.8","87","14.4","8.9","-9999.0","-9999.0","320","NW","10.0","6.2","1021","30.15","5.6","42.0","-9999","-9999","-9999.00","-9999.00","Light Rain Showers","rain","0","1","0","0","0","0","METAR UKKK 260530Z 32004MPS 9999 -SHRA SCT030CB BKN086 08/06 Q1021 R26/CLRD70 NOSIG"
"9:00 AM EEST on September 26, 2016","2016","09","26","09","00","Europe/Kiev","6:00 AM GMT on September 26, 2016","2016","09","26","06","00","UTC","9","48","6","44","79","14.4","8.9","","","10","North","10","6","1021","30.17","-999","-999","-9999","-9999","","","Light Rain","rain","0","1","0","0","0","0","AAXX 26061 33345 11697 80104 10090 20064 30010 40214 53002 69902 72122 86520 333 20089 86643 555 11009"
"9:00 AM EEST on September 26, 2016","2016","09","26","09","00","Europe/Kiev","6:00 AM GMT on September 26, 2016","2016","09","26","06","00","UTC","8.0","46.4","6.0","42.8","87","14.4","8.9","-9999.0","-9999.0","330","NNW","10.0","6.2","1021","30.15","5.6","42.0","-9999","-9999","-9999.00","-9999.00","Light Rain Showers","rain","0","1","0","0","0","0","METAR UKKK 260600Z 33004MPS 310V010 9999 -SHRA SCT030CB BKN073 08/06 Q1021 R26/290058 NOSIG"
"9:30 AM EEST on September 26, 2016","2016","09","26","09","30","Europe/Kiev","6:30 AM GMT on September 26, 2016","2016","09","26","06","30","UTC","8.0","46.4","6.0","42.8","87","18.0","11.2","-9999.0","-9999.0","330","NNW","10.0","6.2","1021","30.15","5.1","41.2","-9999","-9999","-9999.00","-9999.00","Light Rain Showers","rain","0","1","0","0","0","0","METAR UKKK 260630Z 33005MPS 9999 -SHRA SCT027CB BKN073 08/06 Q1021 R26/290058 NOSIG"
"10:00 AM EEST on September 26, 2016","2016","09","26","10","00","Europe/Kiev","7:00 AM GMT on September 26, 2016","2016","09","26","07","00","UTC","9.0","48.2","6.0","42.8","82","14.4","8.9","-9999.0","-9999.0","340","NNW","10.0","6.2","1021","30.15","-999","-999","-9999","-9999","-9999.00","-9999.00","Mostly Cloudy","mostlycloudy","0","0","0","0","0","0","METAR UKKK 260700Z 34004MPS 310V010 9999 BKN014 BKN073 09/06 Q1021 R26/290058 NOSIG"
"10:30 AM EEST on September 26, 2016","2016","09","26","10","30","Europe/Kiev","7:30 AM GMT on September 26, 2016","2016","09","26","07","30","UTC","9.0","48.2","6.0","42.8","82","14.4","8.9","-9999.0","-9999.0","340","NNW","10.0","6.2","1021","30.15","-999","-999","-9999","-9999","-9999.00","-9999.00","Mostly Cloudy","mostlycloudy","0","0","0","0","0","0","METAR UKKK 260730Z 34004MPS 300V020 9999 BKN013 BKN073 09/06 Q1021 R26/290058 NOSIG"
"11:00 AM EEST on September 26, 2016","2016","09","26","11","00","Europe/Kiev","8:00 AM GMT on September 26, 2016","2016","09","26","08","00","UTC","10.0","50.0","6.0","42.8","76","14.4","8.9","-9999.0","-9999.0","340","NNW","10.0","6.2","1021","30.15","-999","-999","-9999","-9999","-9999.00","-9999.00","Mostly Cloudy","mostlycloudy","0","0","0","0","0","0","METAR UKKK 260800Z 34004MPS 310V010 9999 BKN014 BKN073 10/06 Q1021 R26/290058 NOSIG"
"11:30 AM EEST on September 26, 2016","2016","09","26","11","30","Europe/Kiev","8:30 AM GMT on September 26, 2016","2016","09","26","08","30","UTC","11.0","51.8","6.0","42.8","71","18.0","11.2","-9999.0","-9999.0","340","NNW","10.0","6.2","1021","30.15","-999","-999","-9999","-9999","-9999.00","-9999.00","Mostly Cloudy","mostlycloudy","0","0","0","0","0","0","METAR UKKK 260830Z 34005MPS 9999 FEW014 BKN073 11/06 Q1021 R26/290058 NOSIG"
"12:00 PM EEST on September 26, 2016","2016","09","26","12","00","Europe/Kiev","9:00 AM GMT on September 26, 2016","2016","09","26","09","00","UTC","11","52","6","43","63","10.8","6.7","","","30","NNE","20","12","1021","30.16","-999","-999","-9999","-9999","","","Partly Cloudy","partlycloudy","0","0","0","0","0","0","AAXX 26091 33345 41998 80303 10112 20061 30011 40213 51001 70262 8807/ 555 11018"
"12:00 PM EEST on September 26, 2016","2016","09","26","12","00","Europe/Kiev","9:00 AM GMT on September 26, 2016","2016","09","26","09","00","UTC","12.0","53.6","6.0","42.8","67","18.0","11.2","-9999.0","-9999.0","350","North","10.0","6.2","1021","30.15","-999","-999","-9999","-9999","-9999.00","-9999.00","Mostly Cloudy","mostlycloudy","0","0","0","0","0","0","METAR UKKK 260900Z 35005MPS 320V020 9999 FEW014 BKN073 12/06 Q1021 R26/290058 NOSIG"
"12:30 PM EEST on September 26, 2016","2016","09","26","12","30","Europe/Kiev","9:30 AM GMT on September 26, 2016","2016","09","26","09","30","UTC","12.0","53.6","6.0","42.8","67","21.6","13.4","-9999.0","-9999.0","10","North","-9999.0","-9999.0","1021","30.15","-999","-999","-9999","-9999","-9999.00","-9999.00","Clear","clear","0","0","0","0","0","0","METAR UKKK 260930Z 01006MPS 330V050 CAVOK 12/06 Q1021 R26/CLRD70 NOSIG"
"1:00 PM EEST on September 26, 2016","2016","09","26","13","00","Europe/Kiev","10:00 AM GMT on September 26, 2016","2016","09","26","10","00","UTC","12.0","53.6","6.0","42.8","67","21.6","13.4","-9999.0","-9999.0","10","North","10.0","6.2","1021","30.15","-999","-999","-9999","-9999","-9999.00","-9999.00","Mostly Cloudy","mostlycloudy","0","0","0","0","0","0","METAR UKKK 261000Z 01006MPS 340V050 9999 FEW026 BKN100 12/06 Q1021 R26/CLRD70 NOSIG"
"1:30 PM EEST on September 26, 2016","2016","09","26","13","30","Europe/Kiev","10:30 AM GMT on September 26, 2016","2016","09","26","10","30","UTC","13.0","55.4","6.0","42.8","63","14.4","8.9","-9999.0","-9999.0","360","North","10.0","6.2","1021","30.15","-999","-999","-9999","-9999","-9999.00","-9999.00","Mostly Cloudy","mostlycloudy","0","0","0","0","0","0","METAR UKKK 261030Z 36004MPS 320V030 9999 FEW026 BKN100 13/06 Q1021 R26/CLRD70 NOSIG"
"2:00 PM EEST on September 26, 2016","2016","09","26","14","00","Europe/Kiev","11:00 AM GMT on September 26, 2016","2016","09","26","11","00","UTC","13.0","55.4","6.0","42.8","63","18.0","11.2","-9999.0","-9999.0","350","North","10.0","6.2","1021","30.15","-999","-999","-9999","-9999","-9999.00","-9999.00","Mostly Cloudy","mostlycloudy","0","0","0","0","0","0","METAR UKKK 261100Z 35005MPS 9999 FEW026 BKN100 13/06 Q1021 R26/CLRD70 NOSIG"
"2:30 PM EEST on September 26, 2016","2016","09","26","14","30","Europe/Kiev","11:30 AM GMT on September 26, 2016","2016","09","26","11","30","UTC","14.0","57.2","6.0","42.8","59","14.4","8.9","-9999.0","-9999.0","350","North","10.0","6.2","1021","30.15","-999","-999","-9999","-9999","-9999.00","-9999.00","Mostly Cloudy","mostlycloudy","0","0","0","0","0","0","METAR UKKK 261130Z 35004MPS 320V040 9999 FEW026 BKN100 14/06 Q1021 R26/CLRD70 NOSIG"
"3:00 PM EEST on September 26, 2016","2016","09","26","15","00","Europe/Kiev","12:00 PM GMT on September 26, 2016","2016","09","26","12","00","UTC","14","56","5","41","46","14.4","8.9","","","30","NNE","20","12","1021","30.16","-999","-999","-9999","-9999","","","Partly Cloudy","partlycloudy","0","0","0","0","0","0","AAXX 26121 33345 /1998 60304 10135 20049 30011 40212 54000 70262 86030 555 10018 69901"
"3:00 PM EEST on September 26, 2016","2016","09","26","15","00","Europe/Kiev","12:00 PM GMT on September 26, 2016","2016","09","26","12","00","UTC","14.0","57.2","6.0","42.8","59","18.0","11.2","-9999.0","-9999.0","350","North","-9999.0","-9999.0","1021","30.15","-999","-999","-9999","-9999","-9999.00","-9999.00","Clear","clear","0","0","0","0","0","0","METAR UKKK 261200Z 35005MPS CAVOK 14/06 Q1021 R26/CLRD70 NOSIG"
"3:30 PM EEST on September 26, 2016","2016","09","26","15","30","Europe/Kiev","12:30 PM GMT on September 26, 2016","2016","09","26","12","30","UTC","16.0","60.8","6.0","42.8","52","14.4","8.9","-9999.0","-9999.0","360","North","-9999.0","-9999.0","1021","30.15","-999","-999","-9999","-9999","-9999.00","-9999.00","Clear","clear","0","0","0","0","0","0","METAR UKKK 261230Z 36004MPS 330V050 CAVOK 16/06 Q1021 R26/CLRD70 NOSIG"
"4:00 PM EEST on September 26, 2016","2016","09","26","16","00","Europe/Kiev","1:00 PM GMT on September 26, 2016","2016","09","26","13","00","UTC","15.0","59.0","7.0","44.6","59","14.4","8.9","-9999.0","-9999.0","10","North","-9999.0","-9999.0","1021","30.15","-999","-999","-9999","-9999","-9999.00","-9999.00","Clear","clear","0","0","0","0","0","0","METAR UKKK 261300Z 01004MPS 330V030 CAVOK 15/07 Q1021 R26/CLRD70 NOSIG"
"4:30 PM EEST on September 26, 2016","2016","09","26","16","30","Europe/Kiev","1:30 PM GMT on September 26, 2016","2016","09","26","13","30","UTC","16.0","60.8","7.0","44.6","55","18.0","11.2","-9999.0","-9999.0","20","NNE","-9999.0","-9999.0","1021","30.15","-999","-999","-9999","-9999","-9999.00","-9999.00","Clear","clear","0","0","0","0","0","0","METAR UKKK 261330Z 02005MPS 350V050 CAVOK 16/07 Q1021 R26/CLRD70 NOSIG"
"5:00 PM EEST on September 26, 2016","2016","09","26","17","00","Europe/Kiev","2:00 PM GMT on September 26, 2016","2016","09","26","14","00","UTC","16.0","60.8","7.0","44.6","55","18.0","11.2","-9999.0","-9999.0","10","North","-9999.0","-9999.0","1021","30.15","-999","-999","-9999","-9999","-9999.00","-9999.00","Clear","clear","0","0","0","0","0","0","METAR UKKK 261400Z 01005MPS CAVOK 16/07 Q1021 R26/CLRD70 NOSIG"
"5:30 PM EEST on September 26, 2016","2016","09","26","17","30","Europe/Kiev","2:30 PM GMT on September 26, 2016","2016","09","26","14","30","UTC","15.0","59.0","6.0","42.8","55","18.0","11.2","-9999.0","-9999.0","20","NNE","-9999.0","-9999.0","1021","30.15","-999","-999","-9999","-9999","-9999.00","-9999.00","Clear","clear","0","0","0","0","0","0","METAR UKKK 261430Z 02005MPS 340V050 CAVOK 15/06 Q1021 R26/CLRD70 NOSIG"
"6:00 PM EEST on September 26, 2016","2016","09","26","18","00","Europe/Kiev","3:00 PM GMT on September 26, 2016","2016","09","26","15","00","UTC","15","58","5","42","43","10.8","6.7","","","20","NNE","20","12","1022","30.17","-999","-999","-9999","-9999","","","Partly Cloudy","partlycloudy","0","0","0","0","0","0","AAXX 26151 33345 42998 30203 10146 20053 30016 40216 53005 83040 555 10014"
"6:00 PM EEST on September 26, 2016","2016","09","26","18","00","Europe/Kiev","3:00 PM GMT on September 26, 2016","2016","09","26","15","00","UTC","14.0","57.2","6.0","42.8","59","14.4","8.9","-9999.0","-9999.0","10","North","-9999.0","-9999.0","1021","30.15","-999","-999","-9999","-9999","-9999.00","-9999.00","Clear","clear","0","0","0","0","0","0","METAR UKKK 261500Z 01004MPS 340V040 CAVOK 14/06 Q1021 R26/CLRD70 NOSIG"
"6:30 PM EEST on September 26, 2016","2016","09","26","18","30","Europe/Kiev","3:30 PM GMT on September 26, 2016","2016","09","26","15","30","UTC","14.0","57.2","6.0","42.8","59","18.0","11.2","-9999.0","-9999.0","10","North","-9999.0","-9999.0","1022","30.18","-999","-999","-9999","-9999","-9999.00","-9999.00","Clear","clear","0","0","0","0","0","0","METAR UKKK 261530Z 01005MPS CAVOK 14/06 Q1022 R08/CLRD70 NOSIG"
"7:00 PM EEST on September 26, 2016","2016","09","26","19","00","Europe/Kiev","4:00 PM GMT on September 26, 2016","2016","09","26","16","00","UTC","14.0","57.2","6.0","42.8","59","14.4","8.9","-9999.0","-9999.0","10","North","-9999.0","-9999.0","1022","30.18","-999","-999","-9999","-9999","-9999.00","-9999.00","Clear","clear","0","0","0","0","0","0","METAR UKKK 261600Z 01004MPS CAVOK 14/06 Q1022 R08/CLRD70 NOSIG"
"7:30 PM EEST on September 26, 2016","2016","09","26","19","30","Europe/Kiev","4:30 PM GMT on September 26, 2016","2016","09","26","16","30","UTC","14.0","57.2","6.0","42.8","59","14.4","8.9","-9999.0","-9999.0","10","North","-9999.0","-9999.0","1022","30.18","-999","-999","-9999","-9999","-9999.00","-9999.00","Clear","clear","0","0","0","0","0","0","METAR UKKK 261630Z 01004MPS 350V050 CAVOK 14/06 Q1022 R08/CLRD70 NOSIG"
"8:00 PM EEST on September 26, 2016","2016","09","26","20","00","Europe/Kiev","5:00 PM GMT on September 26, 2016","2016","09","26","17","00","UTC","14.0","57.2","7.0","44.6","63","14.4","8.9","-9999.0","-9999.0","350","North","-9999.0","-9999.0","1022","30.18","-999","-999","-9999","-9999","-9999.00","-9999.00","Clear","clear","0","0","0","0","0","0","METAR UKKK 261700Z 35004MPS 320V020 CAVOK 14/07 Q1022 R08/CLRD70 NOSIG"
"8:30 PM EEST on September 26, 2016","2016","09","26","20","30","Europe/Kiev","5:30 PM GMT on September 26, 2016","2016","09","26","17","30","UTC","13.0","55.4","6.0","42.8","63","14.4","8.9","-9999.0","-9999.0","340","NNW","-9999.0","-9999.0","1022","30.18","-999","-999","-9999","-9999","-9999.00","-9999.00","Clear","clear","0","0","0","0","0","0","METAR UKKK 261730Z 34004MPS CAVOK 13/06 Q1022 R08/CLRD70 NOSIG"
"9:00 PM EEST on September 26, 2016","2016","09","26","21","00","Europe/Kiev","6:00 PM GMT on September 26, 2016","2016","09","26","18","00","UTC","13","56","6","44","53","7.2","4.5","","","20","NNE","20","12","1023","30.21","-999","-999","-9999","-9999","","","Scattered Clouds","partlycloudy","0","0","0","0","0","0","AAXX 26181 33345 12998 20202 10131 20064 30027 40228 52011 69902 82030 333 10156 555 10010"
"9:00 PM EEST on September 26, 2016","2016","09","26","21","00","Europe/Kiev","6:00 PM GMT on September 26, 2016","2016","09","26","18","00","UTC","12.0","53.6","6.0","42.8","67","14.4","8.9","-9999.0","-9999.0","350","North","-9999.0","-9999.0","1023","30.21","-999","-999","-9999","-9999","-9999.00","-9999.00","Clear","clear","0","0","0","0","0","0","METAR UKKK 261800Z 35004MPS CAVOK 12/06 Q1023 R08/CLRD70 NOSIG"
"9:30 PM EEST on September 26, 2016","2016","09","26","21","30","Europe/Kiev","6:30 PM GMT on September 26, 2016","2016","09","26","18","30","UTC","12.0","53.6","5.0","41.0","62","14.4","8.9","-9999.0","-9999.0","350","North","-9999.0","-9999.0","1023","30.21","-999","-999","-9999","-9999","-9999.00","-9999.00","Clear","clear","0","0","0","0","0","0","METAR UKKK 261830Z 35004MPS CAVOK 12/05 Q1023 R08/CLRD70 NOSIG"
"10:00 PM EEST on September 26, 2016","2016","09","26","22","00","Europe/Kiev","7:00 PM GMT on September 26, 2016","2016","09","26","19","00","UTC","12.0","53.6","5.0","41.0","62","10.8","6.7","-9999.0","-9999.0","340","NNW","-9999.0","-9999.0","1023","30.21","-999","-999","-9999","-9999","-9999.00","-9999.00","Clear","clear","0","0","0","0","0","0","METAR UKKK 261900Z 34003MPS CAVOK 12/05 Q1023 R08/CLRD70 NOSIG"
"10:30 PM EEST on September 26, 2016","2016","09","26","22","30","Europe/Kiev","7:30 PM GMT on September 26, 2016","2016","09","26","19","30","UTC","11.0","51.8","5.0","41.0","67","14.4","8.9","-9999.0","-9999.0","350","North","-9999.0","-9999.0","1023","30.21","-999","-999","-9999","-9999","-9999.00","-9999.00","Clear","clear","0","0","0","0","0","0","METAR UKKK 261930Z 35004MPS CAVOK 11/05 Q1023 R08/CLRD70 NOSIG"
"11:00 PM EEST on September 26, 2016","2016","09","26","23","00","Europe/Kiev","8:00 PM GMT on September 26, 2016","2016","09","26","20","00","UTC","10.0","50.0","5.0","41.0","71","10.8","6.7","-9999.0","-9999.0","350","North","-9999.0","-9999.0","1023","30.21","-999","-999","-9999","-9999","-9999.00","-9999.00","Clear","clear","0","0","0","0","0","0","METAR UKKK 262000Z 35003MPS CAVOK 10/05 Q1023 R08/CLRD70 NOSIG"
"11:30 PM EEST on September 26, 2016","2016","09","26","23","30","Europe/Kiev","8:30 PM GMT on September 26, 2016","2016","09","26","20","30","UTC","10.0","50.0","5.0","41.0","71","10.8","6.7","-9999.0","-9999.0","340","NNW","-9999.0","-9999.0","1023","30.21","-999","-999","-9999","-9999","-9999.00","-9999.00","Clear","clear","0","0","0","0","0","0","METAR UKKK 262030Z 34003MPS CAVOK 10/05 Q1023 R08/CLRD70 NOSIG"
"12:00 AM EEST on September 27, 2016","2016","09","27","00","00","Europe/Kiev","9:00 PM GMT on September 26, 2016","2016","09","26","21","00","UTC","10","51","6","43","65","7.2","4.5","","","0","North","20","12","1024","30.23","-999","-999","-9999","-9999","","","","","0","0","0","0","0","0","AAXX 26211 33345 42998 03602 10104 20059 30032 40235 52005 555 10007"
"12:00 AM EEST on September 27, 2016","2016","09","27","00","00","Europe/Kiev","9:00 PM GMT on September 26, 2016","2016","09","26","21","00","UTC","9.0","48.2","5.0","41.0","76","7.2","4.5","-9999.0","-9999.0","340","NNW","-9999.0","-9999.0","1023","30.21","-999","-999","-9999","-9999","-9999.00","-9999.00","Clear","clear","0","0","0","0","0","0","METAR UKKK 262100Z 34002MPS CAVOK 09/05 Q1023 R08/CLRD70 NOSIG"
"12:30 AM EEST on September 27, 2016","2016","09","27","00","30","Europe/Kiev","9:30 PM GMT on September 26, 2016","2016","09","26","21","30","UTC","8.0","46.4","5.0","41.0","81","7.2","4.5","-9999.0","-9999.0","330","NNW","-9999.0","-9999.0","1023","30.21","6.9","44.4","-9999","-9999","-9999.00","-9999.00","Clear","clear","0","0","0","0","0","0","METAR UKKK 262130Z 33002MPS CAVOK 08/05 Q1023 R08/CLRD70 NOSIG"
"1:00 AM EEST on September 27, 2016","2016","09","27","01","00","Europe/Kiev","10:00 PM GMT on September 26, 2016","2016","09","26","22","00","UTC","8.0","46.4","5.0","41.0","81","7.2","4.5","-9999.0","-9999.0","340","NNW","-9999.0","-9999.0","1023","30.21","6.9","44.4","-9999","-9999","-9999.00","-9999.00","Clear","clear","0","0","0","0","0","0","METAR UKKK 262200Z 34002MPS CAVOK 08/05 Q1023 R08/CLRD70 NOSIG"
"1:30 AM EEST on September 27, 2016","2016","09","27","01","30","Europe/Kiev","10:30 PM GMT on September 26, 2016","2016","09","26","22","30","UTC","7.0","44.6","5.0","41.0","87","7.2","4.5","-9999.0","-9999.0","320","NW","-9999.0","-9999.0","1023","30.21","5.7","42.3","-9999","-9999","-9999.00","-9999.00","Clear","clear","0","0","0","0","0","0","METAR UKKK 262230Z 32002MPS CAVOK 07/05 Q1023 R08/CLRD70 NOSIG"
"2:00 AM EEST on September 27, 2016","2016","09","27","02","00","Europe/Kiev","11:00 PM GMT on September 26, 2016","2016","09","26","23","00","UTC","8.0","46.4","5.0","41.0","81","7.2","4.5","-9999.0","-9999.0","320","NW","-9999.0","-9999.0","1023","30.21","6.9","44.4","-9999","-9999","-9999.00","-9999.00","Clear","clear","0","0","0","0","0","0","METAR UKKK 262300Z 32002MPS CAVOK 08/05 Q1023 R08/CLRD70 NOSIG"
"2:30 AM EEST on September 27, 2016","2016","09","27","02","30","Europe/Kiev","11:30 PM GMT on September 26, 2016","2016","09","26","23","30","UTC","7.0","44.6","5.0","41.0","87","10.8","6.7","-9999.0","-9999.0","280","West","9.0","5.6","1023","30.21","4.9","40.8","-9999","-9999","-9999.00","-9999.00","Unknown","unknown","0","0","0","0","0","0","METAR UKKK 262330Z 28003MPS 9000 NSC 07/05 Q1023 R26/CLRD70 NOSIG"
"3:00 AM EEST on September 27, 2016","2016","09","27","03","00","Europe/Kiev","12:00 AM GMT on September 27, 2016","2016","09","27","00","00","UTC","9","48","6","43","76","7.2","4.5","","","0","North","10","6","1024","30.23","-999","-999","-9999","-9999","","","Mostly Cloudy","mostlycloudy","0","0","0","0","0","0","AAXX 27001 33345 32997 53602 10088 20060 30032 40237 54000 85030 555 10008"
"3:00 AM EEST on September 27, 2016","2016","09","27","03","00","Europe/Kiev","12:00 AM GMT on September 27, 2016","2016","09","27","00","00","UTC","8.0","46.4","5.0","41.0","81","10.8","6.7","-9999.0","-9999.0","310","NW","-9999.0","-9999.0","1023","30.21","6.1","43.0","-9999","-9999","-9999.00","-9999.00","Clear","clear","0","0","0","0","0","0","METAR UKKK 270000Z 31003MPS CAVOK 08/05 Q1023 R26/CLRD70 NOSIG"
"3:30 AM EEST on September 27, 2016","2016","09","27","03","30","Europe/Kiev","12:30 AM GMT on September 27, 2016","2016","09","27","00","30","UTC","7.0","44.6","5.0","41.0","87","7.2","4.5","-9999.0","-9999.0","260","West","-9999.0","-9999.0","1023","30.21","5.7","42.3","-9999","-9999","-9999.00","-9999.00","Clear","clear","0","0","0","0","0","0","METAR UKKK 270030Z 26002MPS CAVOK 07/05 Q1023 R26/CLRD70 NOSIG"
"4:00 AM EEST on September 27, 2016","2016","09","27","04","00","Europe/Kiev","1:00 AM GMT on September 27, 2016","2016","09","27","01","00","UTC","6.0","42.8","5.0","41.0","93","7.2","4.5","-9999.0","-9999.0","280","West","-9999.0","-9999.0","1023","30.21","4.5","40.2","-9999","-9999","-9999.00","-9999.00","Clear","clear","0","0","0","0","0","0","METAR UKKK 270100Z 28002MPS CAVOK 06/05 Q1023 R26/CLRD70 NOSIG"
"4:30 AM EEST on September 27, 2016","2016","09","27","04","30","Europe/Kiev","1:30 AM GMT on September 27, 2016","2016","09","27","01","30","UTC","6.0","42.8","5.0","41.0","93","7.2","4.5","-9999.0","-9999.0","290","WNW","-9999.0","-9999.0","1023","30.21","4.5","40.2","-9999","-9999","-9999.00","-9999.00","Clear","clear","0","0","0","0","0","0","METAR UKKK 270130Z 29002MPS CAVOK 06/05 Q1023 R26/CLRD70 NOSIG"
"5:00 AM EEST on September 27, 2016","2016","09","27","05","00","Europe/Kiev","2:00 AM GMT on September 27, 2016","2016","09","27","02","00","UTC","6.0","42.8","5.0","41.0","93","7.2","4.5","-9999.0","-9999.0","310","NW","-9999.0","-9999.0","1023","30.21","4.5","40.2","-9999","-9999","-9999.00","-9999.00","Clear","clear","0","0","0","0","0","0","METAR UKKK 270200Z 31002MPS CAVOK 06/05 Q1023 R26/CLRD70 NOSIG"
"5:30 AM EEST on September 27, 2016","2016","09","27","05","30","Europe/Kiev","2:30 AM GMT on September 27, 2016","2016","09","27","02","30","UTC","6.0","42.8","5.0","41.0","93","7.2","4.5","-9999.0","-9999.0","310","NW","-9999.0","-9999.0","1023","30.21","4.5","40.2","-9999","-9999","-9999.00","-9999.00","Clear","clear","0","0","0","0","0","0","METAR UKKK 270230Z 31002MPS CAVOK 06/05 Q1023 R26/CLRD70 NOSIG"
"6:00 AM EEST on September 27, 2016","2016","09","27","06","00","Europe/Kiev","3:00 AM GMT on September 27, 2016","2016","09","27","03","00","UTC","7","45","6","42","87","7.2","4.5","","","0","North","4","2","1024","30.23","-999","-999","-9999","-9999","","","Mist","hazy","0","0","0","0","0","0","AAXX 27031 33345 41996 73602 10074 20058 30031 40237 58001 71022 87030 555 10006"
"6:00 AM EEST on September 27, 2016","2016","09","27","06","00","Europe/Kiev","3:00 AM GMT on September 27, 2016","2016","09","27","03","00","UTC","6.0","42.8","5.0","41.0","93","7.2","4.5","-9999.0","-9999.0","310","NW","10.0","6.2","1023","30.21","4.5","40.2","-9999","-9999","-9999.00","-9999.00","Mostly Cloudy","mostlycloudy","0","0","0","0","0","0","METAR UKKK 270300Z 31002MPS 9999 FEW006 BKN200 06/05 Q1023 R26/CLRD70 TEMPO BKN003"
"6:30 AM EEST on September 27, 2016","2016","09","27","06","30","Europe/Kiev","3:30 AM GMT on September 27, 2016","2016","09","27","03","30","UTC","6.0","42.8","5.0","41.0","93","7.2","4.5","-9999.0","-9999.0","340","NNW","9.0","5.6","1023","30.21","4.5","40.2","-9999","-9999","-9999.00","-9999.00","Mostly Cloudy","mostlycloudy","0","0","0","0","0","0","METAR UKKK 270330Z 34002MPS 310V010 9000 BKN005 06/05 Q1023 R26/CLRD70 TEMPO BKN004"
"7:00 AM EEST on September 27, 2016","2016","09","27","07","00","Europe/Kiev","4:00 AM GMT on September 27, 2016","2016","09","27","04","00","UTC","7.0","44.6","6.0","42.8","93","7.2","4.5","-9999.0","-9999.0","330","NNW","10.0","6.2","1023","30.21","5.7","42.3","-9999","-9999","-9999.00","-9999.00","Mostly Cloudy","mostlycloudy","0","0","0","0","0","0","METAR UKKK 270400Z 33002MPS 290V360 9999 BKN005 07/06 Q1023 R26/CLRD70 TEMPO 1000 BR BKN004"
"7:30 AM EEST on September 27, 2016","2016","09","27","07","30","Europe/Kiev","4:30 AM GMT on September 27, 2016","2016","09","27","04","30","UTC","7.0","44.6","6.0","42.8","93","10.8","6.7","-9999.0","-9999.0","320","NW","10.0","6.2","1023","30.21","4.9","40.8","-9999","-9999","-9999.00","-9999.00","Mostly Cloudy","mostlycloudy","0","0","0","0","0","0","METAR UKKK 270430Z 32003MPS 9999 BKN005 07/06 Q1023 R26/CLRD70 TEMPO 1000 BR BKN003"
"8:00 AM EEST on September 27, 2016","2016","09","27","08","00","Europe/Kiev","5:00 AM GMT on September 27, 2016","2016","09","27","05","00","UTC","7.0","44.6","6.0","42.8","93","10.8","6.7","-9999.0","-9999.0","350","North","10.0","6.2","1024","30.24","4.9","40.8","-9999","-9999","-9999.00","-9999.00","Mostly Cloudy","mostlycloudy","0","0","0","0","0","0","METAR UKKK 270500Z 35003MPS 330V030 9999 BKN005 07/06 Q1024 R26/CLRD70 TEMPO BKN004"
"8:30 AM EEST on September 27, 2016","2016","09","27","08","30","Europe/Kiev","5:30 AM GMT on September 27, 2016","2016","09","27","05","30","UTC","7.0","44.6","6.0","42.8","93","10.8","6.7","-9999.0","-9999.0","340","NNW","10.0","6.2","1024","30.24","4.9","40.8","-9999","-9999","-9999.00","-9999.00","Mostly Cloudy","mostlycloudy","0","0","0","0","0","0","METAR UKKK 270530Z 34003MPS 310V040 9999 SCT007 BKN170 07/06 Q1024 R26/CLRD70 TEMPO BKN004"
"9:00 AM EEST on September 27, 2016","2016","09","27","09","00","Europe/Kiev","6:00 AM GMT on September 27, 2016","2016","09","27","06","00","UTC","9","48","6","44","79","10.8","6.7","","","20","NNE","20","12","1025","30.26","-999","-999","-9999","-9999","","","Mostly Cloudy","mostlycloudy","0","0","0","0","0","0","AAXX 27061 33345 32998 50203 10090 20064 30041 40246 53010 85030 333 20071 555 10012"
"9:00 AM EEST on September 27, 2016","2016","09","27","09","00","Europe/Kiev","6:00 AM GMT on September 27, 2016","2016","09","27","06","00","UTC","8.0","46.4","6.0","42.8","87","10.8","6.7","-9999.0","-9999.0","330","NNW","10.0","6.2","1024","30.24","6.1","43.0","-9999","-9999","-9999.00","-9999.00","Mostly Cloudy","mostlycloudy","0","0","0","0","0","0","METAR UKKK 270600Z 33003MPS 300V010 9999 FEW007 BKN160 08/06 Q1024 R26/CLRD70 NOSIG"
"9:30 AM EEST on September 27, 2016","2016","09","27","09","30","Europe/Kiev","6:30 AM GMT on September 27, 2016","2016","09","27","06","30","UTC","9.0","48.2","6.0","42.8","82","7.2","4.5","-9999.0","-9999.0","330","NNW","10.0","6.2","1024","30.24","-999","-999","-9999","-9999","-9999.00","-9999.00","Mostly Cloudy","mostlycloudy","0","0","0","0","0","0","METAR UKKK 270630Z 33002MPS 290V010 9999 FEW008 BKN170 09/06 Q1024 R26/CLRD70 NOSIG"
"10:00 AM EEST on September 27, 2016","2016","09","27","10","00","Europe/Kiev","7:00 AM GMT on September 27, 2016","2016","09","27","07","00","UTC","10.0","50.0","6.0","42.8","76","14.4","8.9","-9999.0","-9999.0","350","North","10.0","6.2","1024","30.24","-999","-999","-9999","-9999","-9999.00","-9999.00","Mostly Cloudy","mostlycloudy","0","0","0","0","0","0","METAR UKKK 270700Z 35004MPS 310V020 9999 SCT031 BKN170 10/06 Q1024 R26/CLRD70 NOSIG"
"10:30 AM EEST on September 27, 2016","2016","09","27","10","30","Europe/Kiev","7:30 AM GMT on September 27, 2016","2016","09","27","07","30","UTC","10.0","50.0","6.0","42.8","76","14.4","8.9","-9999.0","-9999.0","340","NNW","10.0","6.2","1024","30.24","-999","-999","-9999","-9999","-9999.00","-9999.00","Mostly Cloudy","mostlycloudy","0","0","0","0","0","0","METAR UKKK 270730Z 34004MPS 9999 BKN033 BKN170 10/06 Q1024 R26/CLRD70 NOSIG"
"11:00 AM EEST on September 27, 2016","2016","09","27","11","00","Europe/Kiev","8:00 AM GMT on September 27, 2016","2016","09","27","08","00","UTC","11.0","51.8","6.0","42.8","71","14.4","8.9","-9999.0","-9999.0","350","North","10.0","6.2","1024","30.24","-999","-999","-9999","-9999","-9999.00","-9999.00","Mostly Cloudy","mostlycloudy","0","0","0","0","0","0","METAR UKKK 270800Z 35004MPS 320V020 9999 BKN031 11/06 Q1024 R26/CLRD70 NOSIG"
"11:30 AM EEST on September 27, 2016","2016","09","27","11","30","Europe/Kiev","8:30 AM GMT on September 27, 2016","2016","09","27","08","30","UTC","11.0","51.8","6.0","42.8","71","14.4","8.9","-9999.0","-9999.0","330","NNW","9.0","5.6","1024","30.24","-999","-999","-9999","-9999","-9999.00","-9999.00","Mostly Cloudy","mostlycloudy","0","0","0","0","0","0","METAR UKKK 270830Z 33004MPS 9000 BKN029 11/06 Q1024 R26/CLRD70 NOSIG"
"12:00 PM EEST on September 27, 2016","2016","09","27","12","00","Europe/Kiev","9:00 AM GMT on September 27, 2016","2016","09","27","09","00","UTC","11","52","6","42","60","14.4","8.9","","","30","NNE","20","12","1024","30.26","-999","-999","-9999","-9999","","","Overcast","cloudy","0","0","0","0","0","0","AAXX 27091 33345 42598 80304 10112 20056 30042 40245 51001 885// 333 88633 555 10017"
"12:00 PM EEST on September 27, 2016","2016","09","27","12","00","Europe/Kiev","9:00 AM GMT on September 27, 2016","2016","09","27","09","00","UTC","11.0","51.8","6.0","42.8","71","10.8","6.7","-9999.0","-9999.0","340","NNW","10.0","6.2","1024","30.24","-999","-999","-9999","-9999","-9999.00","-9999.00","Mostly Cloudy","mostlycloudy","0","0","0","0","0","0","METAR UKKK 270900Z 34003MPS 310V020 9999 BKN031 11/06 Q1024 R26/CLRD70 NOSIG"
"12:30 PM EEST on September 27, 2016","2016","09","27","12","30","Europe/Kiev","9:30 AM GMT on September 27, 2016","2016","09","27","09","30","UTC","11.0","51.8","6.0","42.8","71","14.4","8.9","-9999.0","-9999.0","340","NNW","10.0","6.2","1024","30.24","-999","-999","-9999","-9999","-9999.00","-9999.00","Mostly Cloudy","mostlycloudy","0","0","0","0","0","0","METAR UKKK 270930Z 34004MPS 310V030 9999 BKN027 11/06 Q1024 R26/CLRD70 NOSIG"
"1:00 PM EEST on September 27, 2016","2016","09","27","13","00","Europe/Kiev","10:00 AM GMT on September 27, 2016","2016","09","27","10","00","UTC","12.0","53.6","5.0","41.0","62","14.4","8.9","-9999.0","-9999.0","340","NNW","10.0","6.2","1024","30.24","-999","-999","-9999","-9999","-9999.00","-9999.00","Mostly Cloudy","mostlycloudy","0","0","0","0","0","0","METAR UKKK 271000Z 34004MPS 310V010 9999 BKN033 12/05 Q1024 R26/CLRD70 NOSIG"
"1:30 PM EEST on September 27, 2016","2016","09","27","13","30","Europe/Kiev","10:30 AM GMT on September 27, 2016","2016","09","27","10","30","UTC","12.0","53.6","5.0","41.0","62","14.4","8.9","-9999.0","-9999.0","360","North","10.0","6.2","1024","30.24","-999","-999","-9999","-9999","-9999.00","-9999.00","Overcast","cloudy","0","0","0","0","0","0","METAR UKKK 271030Z 36004MPS 9999 OVC034 12/05 Q1024 R26/CLRD70 NOSIG"
"2:00 PM EEST on September 27, 2016","2016","09","27","14","00","Europe/Kiev","11:00 AM GMT on September 27, 2016","2016","09","27","11","00","UTC","12.0","53.6","5.0","41.0","62","18.0","11.2","-9999.0","-9999.0","350","North","10.0","6.2","1024","30.24","-999","-999","-9999","-9999","-9999.00","-9999.00","Mostly Cloudy","mostlycloudy","0","0","0","0","0","0","METAR UKKK 271100Z 35005MPS 320V030 9999 BKN028 12/05 Q1024 R26/CLRD70 NOSIG"
"2:30 PM EEST on September 27, 2016","2016","09","27","14","30","Europe/Kiev","11:30 AM GMT on September 27, 2016","2016","09","27","11","30","UTC","12.0","53.6","5.0","41.0","62","14.4","8.9","-9999.0","-9999.0","360","North","10.0","6.2","1024","30.24","-999","-999","-9999","-9999","-9999.00","-9999.00","Mostly Cloudy","mostlycloudy","0","0","0","0","0","0","METAR UKKK 271130Z 36004MPS 310V060 9999 BKN030 12/05 Q1024 R26/CLRD70 NOSIG"
"3:00 PM EEST on September 27, 2016","2016","09","27","15","00","Europe/Kiev","12:00 PM GMT on September 27, 2016","2016","09","27","12","00","UTC","12","53","4","39","49","10.8","6.7","","","30","NNE","20","12","1025","30.26","-999","-999","-9999","-9999","","","Overcast","cloudy","0","0","0","0","0","0","AAXX 27121 33345 32698 80303 10117 20041 30044 40247 53002 885// 333 88635 555 10016"
"3:00 PM EEST on September 27, 2016","2016","09","27","15","00","Europe/Kiev","12:00 PM GMT on September 27, 2016","2016","09","27","12","00","UTC","12.0","53.6","5.0","41.0","62","14.4","8.9","-9999.0","-9999.0","10","North","10.0","6.2","1024","30.24","-999","-999","-9999","-9999","-9999.00","-9999.00","Mostly Cloudy","mostlycloudy","0","0","0","0","0","0","METAR UKKK 271200Z 01004MPS 320V040 9999 BKN031 12/05 Q1024 R26/CLRD70 NOSIG"
"3:30 PM EEST on September 27, 2016","2016","09","27","15","30","Europe/Kiev","12:30 PM GMT on September 27, 2016","2016","09","27","12","30","UTC","12.0","53.6","4.0","39.2","58","21.6","13.4","-9999.0","-9999.0","360","North","9.0","5.6","1024","30.24","-999","-999","-9999","-9999","-9999.00","-9999.00","Mostly Cloudy","mostlycloudy","0","0","0","0","0","0","METAR UKKK 271230Z 36006MPS 320V030 9000 BKN032 12/04 Q1024 R26/CLRD70 NOSIG"
"4:00 PM EEST on September 27, 2016","2016","09","27","16","00","Europe/Kiev","1:00 PM GMT on September 27, 2016","2016","09","27","13","00","UTC","12.0","53.6","5.0","41.0","62","14.4","8.9","-9999.0","-9999.0","360","North","10.0","6.2","1024","30.24","-999","-999","-9999","-9999","-9999.00","-9999.00","Mostly Cloudy","mostlycloudy","0","0","0","0","0","0","METAR UKKK 271300Z 36004MPS 320V060 9999 BKN031 12/05 Q1024 R26/CLRD70 NOSIG"
"4:30 PM EEST on September 27, 2016","2016","09","27","16","30","Europe/Kiev","1:30 PM GMT on September 27, 2016","2016","09","27","13","30","UTC","12.0","53.6","5.0","41.0","62","14.4","8.9","-9999.0","-9999.0","10","North","10.0","6.2","1024","30.24","-999","-999","-9999","-9999","-9999.00","-9999.00","Mostly Cloudy","mostlycloudy","0","0","0","0","0","0","METAR UKKK 271330Z 01004MPS 330V050 9999 BKN030 12/05 Q1024 R26/CLRD70 NOSIG"
"5:00 PM EEST on September 27, 2016","2016","09","27","17","00","Europe/Kiev","2:00 PM GMT on September 27, 2016","2016","09","27","14","00","UTC","11.0","51.8","6.0","42.8","71","14.4","8.9","-9999.0","-9999.0","360","North","10.0","6.2","1024","30.24","-999","-999","-9999","-9999","-9999.00","-9999.00","Overcast","cloudy","0","0","0","0","0","0","METAR UKKK 271400Z 36004MPS 330V030 9999 OVC026 11/06 Q1024 R26/CLRD70 NOSIG"
"5:30 PM EEST on September 27, 2016","2016","09","27","17","30","Europe/Kiev","2:30 PM GMT on September 27, 2016","2016","09","27","14","30","UTC","12.0","53.6","5.0","41.0","62","14.4","8.9","-9999.0","-9999.0","360","North","10.0","6.2","1024","30.24","-999","-999","-9999","-9999","-9999.00","-9999.00","Overcast","cloudy","0","0","0","0","0","0","METAR UKKK 271430Z 36004MPS 9999 OVC031 12/05 Q1024 R26/CLRD70 NOSIG"
"6:00 PM EEST on September 27, 2016","2016","09","27","18","00","Europe/Kiev","3:00 PM GMT on September 27, 2016","2016","09","27","15","00","UTC","12","53","6","42","58","10.8","6.7","","","30","NNE","20","12","1025","30.27","-999","-999","-9999","-9999","","","Mostly Cloudy","mostlycloudy","0","0","0","0","0","0","AAXX 27151 33345 42698 70303 10116 20058 30046 40249 52002 87500 333 87636 555 10013"
"6:00 PM EEST on September 27, 2016","2016","09","27","18","00","Europe/Kiev","3:00 PM GMT on September 27, 2016","2016","09","27","15","00","UTC","11.0","51.8","5.0","41.0","67","14.4","8.9","-9999.0","-9999.0","330","NNW","10.0","6.2","1024","30.24","-999","-999","-9999","-9999","-9999.00","-9999.00","Mostly Cloudy","mostlycloudy","0","0","0","0","0","0","METAR UKKK 271500Z 33004MPS 9999 BKN037 11/05 Q1024 R26/CLRD70 NOSIG"
"6:30 PM EEST on September 27, 2016","2016","09","27","18","30","Europe/Kiev","3:30 PM GMT on September 27, 2016","2016","09","27","15","30","UTC","11.0","51.8","6.0","42.8","71","10.8","6.7","-9999.0","-9999.0","320","NW","10.0","6.2","1024","30.24","-999","-999","-9999","-9999","-9999.00","-9999.00","Mostly Cloudy","mostlycloudy","0","0","0","0","0","0","METAR UKKK 271530Z 32003MPS 9999 BKN037 11/06 Q1024 R26/CLRD70 NOSIG"
"7:00 PM EEST on September 27, 2016","2016","09","27","19","00","Europe/Kiev","4:00 PM GMT on September 27, 2016","2016","09","27","16","00","UTC","10.0","50.0","6.0","42.8","76","10.8","6.7","-9999.0","-9999.0","330","NNW","10.0","6.2","1025","30.27","-999","-999","-9999","-9999","-9999.00","-9999.00","Mostly Cloudy","mostlycloudy","0","0","0","0","0","0","METAR UKKK 271600Z 33003MPS 9999 BKN036 10/06 Q1025 R26/CLRD70 NOSIG"
"7:30 PM EEST on September 27, 2016","2016","09","27","19","30","Europe/Kiev","4:30 PM GMT on September 27, 2016","2016","09","27","16","30","UTC","9.0","48.2","5.0","41.0","76","10.8","6.7","-9999.0","-9999.0","320","NW","10.0","6.2","1025","30.27","-999","-999","-9999","-9999","-9999.00","-9999.00","Scattered Clouds","partlycloudy","0","0","0","0","0","0","METAR UKKK 271630Z 32003MPS 9999 SCT036 09/05 Q1025 R26/CLRD70 NOSIG"
"8:00 PM EEST on September 27, 2016","2016","09","27","20","00","Europe/Kiev","5:00 PM GMT on September 27, 2016","2016","09","27","17","00","UTC","9.0","48.2","5.0","41.0","76","10.8","6.7","-9999.0","-9999.0","320","NW","7.0","4.3","1025","30.27","-999","-999","-9999","-9999","-9999.00","-9999.00","Scattered Clouds","partlycloudy","0","0","0","0","0","0","METAR UKKK 271700Z 32003MPS 7000 SCT040 09/05 Q1025 R26/CLRD70 NOSIG"
"8:30 PM EEST on September 27, 2016","2016","09","27","20","30","Europe/Kiev","5:30 PM GMT on September 27, 2016","2016","09","27","17","30","UTC","8.0","46.4","6.0","42.8","87","7.2","4.5","-9999.0","-9999.0","310","NW","8.0","5.0","1025","30.27","6.9","44.4","-9999","-9999","-9999.00","-9999.00","Unknown","unknown","0","0","0","0","0","0","METAR UKKK 271730Z 31002MPS 8000 NSC 08/06 Q1025 R26/CLRD70 NOSIG"
"9:00 PM EEST on September 27, 2016","2016","09","27","21","00","Europe/Kiev","6:00 PM GMT on September 27, 2016","2016","09","27","18","00","UTC","9","49","6","43","73","7.2","4.5","","","330","NNW","20","12","1026","30.30","-999","-999","-9999","-9999","","","Mostly Cloudy","mostlycloudy","0","0","0","0","0","0","AAXX 27181 33345 32998 63302 10094 20061 30055 40260 52009 86030 333 10119 555 10008"
"9:00 PM EEST on September 27, 2016","2016","09","27","21","00","Europe/Kiev","6:00 PM GMT on September 27, 2016","2016","09","27","18","00","UTC","9.0","48.2","7.0","44.6","87","7.2","4.5","-9999.0","-9999.0","290","WNW","-9999.0","-9999.0","1025","30.27","-999","-999","-9999","-9999","-9999.00","-9999.00","Clear","clear","0","0","0","0","0","0","METAR UKKK 271800Z 29002MPS CAVOK 09/07 Q1025 R26/CLRD70 NOSIG"
"9:30 PM EEST on September 27, 2016","2016","09","27","21","30","Europe/Kiev","6:30 PM GMT on September 27, 2016","2016","09","27","18","30","UTC","10.0","50.0","7.0","44.6","82","10.8","6.7","-9999.0","-9999.0","300","WNW","-9999.0","-9999.0","1025","30.27","-999","-999","-9999","-9999","-9999.00","-9999.00","Clear","clear","0","0","0","0","0","0","METAR UKKK 271830Z 30003MPS CAVOK 10/07 Q1025 R26/CLRD70 NOSIG"
"10:00 PM EEST on September 27, 2016","2016","09","27","22","00","Europe/Kiev","7:00 PM GMT on September 27, 2016","2016","09","27","19","00","UTC","10.0","50.0","6.0","42.8","76","14.4","8.9","-9999.0","-9999.0","300","WNW","-9999.0","-9999.0","1025","30.27","-999","-999","-9999","-9999","-9999.00","-9999.00","Clear","clear","0","0","0","0","0","0","METAR UKKK 271900Z 30004MPS CAVOK 10/06 Q1025 R26/CLRD70 NOSIG"
"10:30 PM EEST on September 27, 2016","2016","09","27","22","30","Europe/Kiev","7:30 PM GMT on September 27, 2016","2016","09","27","19","30","UTC","9.0","48.2","6.0","42.8","82","10.8","6.7","-9999.0","-9999.0","290","WNW","-9999.0","-9999.0","1025","30.27","-999","-999","-9999","-9999","-9999.00","-9999.00","Clear","clear","0","0","0","0","0","0","METAR UKKK 271930Z 29003MPS CAVOK 09/06 Q1025 R26/CLRD70 NOSIG"
"11:00 PM EEST on September 27, 2016","2016","09","27","23","00","Europe/Kiev","8:00 PM GMT on September 27, 2016","2016","09","27","20","00","UTC","9.0","48.2","6.0","42.8","82","10.8","6.7","-9999.0","-9999.0","290","WNW","10.0","6.2","1025","30.27","-999","-999","-9999","-9999","-9999.00","-9999.00","Scattered Clouds","partlycloudy","0","0","0","0","0","0","METAR UKKK 272000Z 29003MPS 9999 SCT035 09/06 Q1025 R26/CLRD70 NOSIG"
"11:30 PM EEST on September 27, 2016","2016","09","27","23","30","Europe/Kiev","8:30 PM GMT on September 27, 2016","2016","09","27","20","30","UTC","9.0","48.2","6.0","42.8","82","10.8","6.7","-9999.0","-9999.0","280","West","-9999.0","-9999.0","1025","30.27","-999","-999","-9999","-9999","-9999.00","-9999.00","Clear","clear","0","0","0","0","0","0","METAR UKKK 272030Z 28003MPS CAVOK 09/06 Q1025 R26/CLRD70 NOSIG"
"12:00 AM EEST on September 28, 2016","2016","09","28","00","00","Europe/Kiev","9:00 PM GMT on September 27, 2016","2016","09","27","21","00","UTC","10","50","7","44","73","10.8","6.7","","","310","NW","20","12","1025","30.28","-999","-999","-9999","-9999","","","","","0","0","0","0","0","0","AAXX 27211 33345 42998 03103 10098 20066 30049 40253 58006 555 10008"
"12:00 AM EEST on September 28, 2016","2016","09","28","00","00","Europe/Kiev","9:00 PM GMT on September 27, 2016","2016","09","27","21","00","UTC","8.0","46.4","6.0","42.8","87","10.8","6.7","-9999.0","-9999.0","290","WNW","10.0","6.2","1025","30.27","6.1","43.0","-9999","-9999","-9999.00","-9999.00","Scattered Clouds","partlycloudy","0","0","0","0","0","0","METAR UKKK 272100Z 29003MPS 9999 SCT034 08/06 Q1025 R26/CLRD70 NOSIG"
"12:30 AM EEST on September 28, 2016","2016","09","28","00","30","Europe/Kiev","9:30 PM GMT on September 27, 2016","2016","09","27","21","30","UTC","7.0","44.6","5.0","41.0","87","10.8","6.7","-9999.0","-9999.0","280","West","10.0","6.2","1025","30.27","4.9","40.8","-9999","-9999","-9999.00","-9999.00","Scattered Clouds","partlycloudy","0","0","0","0","0","0","METAR UKKK 272130Z 28003MPS 9999 SCT033 07/05 Q1025 R26/CLRD70 NOSIG"
"1:00 AM EEST on September 28, 2016","2016","09","28","01","00","Europe/Kiev","10:00 PM GMT on September 27, 2016","2016","09","27","22","00","UTC","7.0","44.6","5.0","41.0","87","7.2","4.5","-9999.0","-9999.0","280","West","-9999.0","-9999.0","1025","30.27","5.7","42.3","-9999","-9999","-9999.00","-9999.00","Clear","clear","0","0","0","0","0","0","METAR UKKK 272200Z 28002MPS CAVOK 07/05 Q1025 R26/CLRD70 NOSIG"
"1:30 AM EEST on September 28, 2016","2016","09","28","01","30","Europe/Kiev","10:30 PM GMT on September 27, 2016","2016","09","27","22","30","UTC","7.0","44.6","6.0","42.8","93","10.8","6.7","-9999.0","-9999.0","270","West","-9999.0","-9999.0","1025","30.27","4.9","40.8","-9999","-9999","-9999.00","-9999.00","Clear","clear","0","0","0","0","0","0","METAR UKKK 272230Z 27003MPS CAVOK 07/06 Q1025 R26/CLRD70 NOSIG"
"2:00 AM EEST on September 28, 2016","2016","09","28","02","00","Europe/Kiev","11:00 PM GMT on September 27, 2016","2016","09","27","23","00","UTC","7.0","44.6","6.0","42.8","93","7.2","4.5","-9999.0","-9999.0","290","WNW","-9999.0","-9999.0","1025","30.27","5.7","42.3","-9999","-9999","-9999.00","-9999.00","Clear","clear","0","0","0","0","0","0","METAR UKKK 272300Z 29002MPS CAVOK 07/06 Q1025 R26/CLRD70 NOSIG"
"2:30 AM EEST on September 28, 2016","2016","09","28","02","30","Europe/Kiev","11:30 PM GMT on September 27, 2016","2016","09","27","23","30","UTC","8.0","46.4","7.0","44.6","93","10.8","6.7","-9999.0","-9999.0","280","West","-9999.0","-9999.0","1025","30.27","6.1","43.0","-9999","-9999","-9999.00","-9999.00","Clear","clear","0","0","0","0","0","0","METAR UKKK 272330Z 28003MPS CAVOK 08/07 Q1025 R26/CLRD70 NOSIG"
"3:00 AM EEST on September 28, 2016","2016","09","28","03","00","Europe/Kiev","12:00 AM GMT on September 28, 2016","2016","09","28","00","00","UTC","9","48","7","45","87","3.6","2.2","","","330","NNW","10","6","1025","30.27","-999","-999","-9999","-9999","","","Mostly Cloudy","mostlycloudy","0","0","0","0","0","0","AAXX 28001 33345 32897 73301 10091 20074 30046 40251 57003 87070 555 10008"
"3:00 AM EEST on September 28, 2016","2016","09","28","03","00","Europe/Kiev","12:00 AM GMT on September 28, 2016","2016","09","28","00","00","UTC","8.0","46.4","7.0","44.6","93","10.8","6.7","-9999.0","-9999.0","300","WNW","9.0","5.6","1025","30.27","6.1","43.0","-9999","-9999","-9999.00","-9999.00","Light Rain","rain","0","1","0","0","0","0","METAR UKKK 280000Z 30003MPS 9000 -RA BKN040 BKN100 08/07 Q1025 R26/CLRD70 NOSIG"
"3:30 AM EEST on September 28, 2016","2016","09","28","03","30","Europe/Kiev","12:30 AM GMT on September 28, 2016","2016","09","28","00","30","UTC","8.0","46.4","7.0","44.6","93","10.8","6.7","-9999.0","-9999.0","290","WNW","10.0","6.2","1025","30.27","6.1","43.0","-9999","-9999","-9999.00","-9999.00","Mostly Cloudy","mostlycloudy","0","0","0","0","0","0","METAR UKKK 280030Z 29003MPS 9999 FEW016 BKN050 08/07 Q1025 R26/CLRD70 NOSIG"
"4:00 AM EEST on September 28, 2016","2016","09","28","04","00","Europe/Kiev","1:00 AM GMT on September 28, 2016","2016","09","28","01","00","UTC","7.0","44.6","7.0","44.6","100","10.8","6.7","-9999.0","-9999.0","270","West","-9999.0","-9999.0","1024","30.24","4.9","40.8","-9999","-9999","-9999.00","-9999.00","Clear","clear","0","0","0","0","0","0","METAR UKKK 280100Z 27003MPS CAVOK 07/07 Q1024 R26/CLRD70 NOSIG"
"4:30 AM EEST on September 28, 2016","2016","09","28","04","30","Europe/Kiev","1:30 AM GMT on September 28, 2016","2016","09","28","01","30","UTC","8.0","46.4","7.0","44.6","93","10.8","6.7","-9999.0","-9999.0","280","West","-9999.0","-9999.0","1024","30.24","6.1","43.0","-9999","-9999","-9999.00","-9999.00","Clear","clear","0","0","0","0","0","0","METAR UKKK 280130Z 28003MPS CAVOK 08/07 Q1024 R26/190060 NOSIG"
"5:00 AM EEST on September 28, 2016","2016","09","28","05","00","Europe/Kiev","2:00 AM GMT on September 28, 2016","2016","09","28","02","00","UTC","9.0","48.2","8.0","46.4","93","10.8","6.7","-9999.0","-9999.0","320","NW","10.0","6.2","1025","30.27","-999","-999","-9999","-9999","-9999.00","-9999.00","Mostly Cloudy","mostlycloudy","0","0","0","0","0","0","METAR UKKK 280200Z 32003MPS 9999 SCT016 BKN040 09/08 Q1025 R26/190060 NOSIG"
"5:30 AM EEST on September 28, 2016","2016","09","28","05","30","Europe/Kiev","2:30 AM GMT on September 28, 2016","2016","09","28","02","30","UTC","8.0","46.4","8.0","46.4","100","10.8","6.7","-9999.0","-9999.0","320","NW","10.0","6.2","1025","30.27","6.1","43.0","-9999","-9999","-9999.00","-9999.00","Mostly Cloudy","mostlycloudy","0","0","0","0","0","0","METAR UKKK 280230Z 32003MPS 9999 SCT008 BKN033 08/08 Q1025 R26/190060 NOSIG"
"6:00 AM EEST on September 28, 2016","2016","09","28","06","00","Europe/Kiev","3:00 AM GMT on September 28, 2016","2016","09","28","03","00","UTC","10","49","8","46","86","7.2","4.5","","","350","North","10","6","1025","30.27","-999","-999","-9999","-9999","","","Overcast","cloudy","0","0","0","0","0","0","AAXX 28031 33345 42497 83502 10095 20078 30047 40251 53001 886// 333 88710 555 10009"
"6:00 AM EEST on September 28, 2016","2016","09","28","06","00","Europe/Kiev","3:00 AM GMT on September 28, 2016","2016","09","28","03","00","UTC","9.0","48.2","8.0","46.4","93","14.4","8.9","-9999.0","-9999.0","330","NNW","10.0","6.2","1025","30.27","-999","-999","-9999","-9999","-9999.00","-9999.00","Mostly Cloudy","mostlycloudy","0","0","0","0","0","0","METAR UKKK 280300Z 33004MPS 9999 BKN008 BKN033 09/08 Q1025 R26/190060 NOSIG"
"6:30 AM EEST on September 28, 2016","2016","09","28","06","30","Europe/Kiev","3:30 AM GMT on September 28, 2016","2016","09","28","03","30","UTC","10.0","50.0","8.0","46.4","87","10.8","6.7","-9999.0","-9999.0","330","NNW","10.0","6.2","1025","30.27","-999","-999","-9999","-9999","-9999.00","-9999.00","Mostly Cloudy","mostlycloudy","0","0","0","0","0","0","METAR UKKK 280330Z 33003MPS 9999 BKN007 10/08 Q1025 R26/190060 NOSIG"
"7:00 AM EEST on September 28, 2016","2016","09","28","07","00","Europe/Kiev","4:00 AM GMT on September 28, 2016","2016","09","28","04","00","UTC","10.0","50.0","8.0","46.4","87","10.8","6.7","-9999.0","-9999.0","340","NNW","10.0","6.2","1025","30.27","-999","-999","-9999","-9999","-9999.00","-9999.00","Mostly Cloudy","mostlycloudy","0","0","0","0","0","0","METAR UKKK 280400Z 34003MPS 300V010 9999 BKN007 BKN040 10/08 Q1025 R26/190060 NOSIG"
"7:30 AM EEST on September 28, 2016","2016","09","28","07","30","Europe/Kiev","4:30 AM GMT on September 28, 2016","2016","09","28","04","30","UTC","10.0","50.0","9.0","48.2","94","10.8","6.7","-9999.0","-9999.0","330","NNW","10.0","6.2","1025","30.27","-999","-999","-9999","-9999","-9999.00","-9999.00","Mostly Cloudy","mostlycloudy","0","0","0","0","0","0","METAR UKKK 280430Z 33003MPS 9999 BKN012 BKN028 10/09 Q1025 R26/CLRD70 NOSIG"
"8:00 AM EEST on September 28, 2016","2016","09","28","08","00","Europe/Kiev","5:00 AM GMT on September 28, 2016","2016","09","28","05","00","UTC","10.0","50.0","9.0","48.2","94","10.8","6.7","-9999.0","-9999.0","330","NNW","10.0","6.2","1025","30.27","-999","-999","-9999","-9999","-9999.00","-9999.00","Mostly Cloudy","mostlycloudy","0","0","0","0","0","0","METAR UKKK 280500Z 33003MPS 9999 BKN013 10/09 Q1025 R26/CLRD70 NOSIG"
"8:30 AM EEST on September 28, 2016","2016","09","28","08","30","Europe/Kiev","5:30 AM GMT on September 28, 2016","2016","09","28","05","30","UTC","10.0","50.0","9.0","48.2","94","7.2","4.5","-9999.0","-9999.0","350","North","10.0","6.2","1025","30.27","-999","-999","-9999","-9999","-9999.00","-9999.00","Mostly Cloudy","mostlycloudy","0","0","0","0","0","0","METAR UKKK 280530Z 35002MPS 320V020 9999 BKN012 10/09 Q1025 R26/CLRD70 NOSIG"
"9:00 AM EEST on September 28, 2016","2016","09","28","09","00","Europe/Kiev","6:00 AM GMT on September 28, 2016","2016","09","28","06","00","UTC","10","51","9","48","84","3.6","2.2","","","50","NE","20","12","1025","30.28","-999","-999","-9999","-9999","","","Overcast","cloudy","0","0","0","0","0","0","AAXX 28061 33345 32398 80501 10103 20087 30050 40254 52003 886// 333 20084 88709 555 10011"
"9:00 AM EEST on September 28, 2016","2016","09","28","09","00","Europe/Kiev","6:00 AM GMT on September 28, 2016","2016","09","28","06","00","UTC","10.0","50.0","9.0","48.2","94","7.2","4.5","-9999.0","-9999.0","320","NW","10.0","6.2","1025","30.27","-999","-999","-9999","-9999","-9999.00","-9999.00","Mostly Cloudy","mostlycloudy","0","0","0","0","0","0","METAR UKKK 280600Z 32002MPS 290V350 9999 BKN008 10/09 Q1025 R26/CLRD70 NOSIG"
"9:30 AM EEST on September 28, 2016","2016","09","28","09","30","Europe/Kiev","6:30 AM GMT on September 28, 2016","2016","09","28","06","30","UTC","11.0","51.8","9.0","48.2","88","7.2","4.5","-9999.0","-9999.0","360","North","10.0","6.2","1025","30.27","-999","-999","-9999","-9999","-9999.00","-9999.00","Overcast","cloudy","0","0","0","0","0","0","METAR UKKK 280630Z 36002MPS 330V070 9999 OVC008 11/09 Q1025 R26/CLRD70 NOSIG"
"10:00 AM EEST on September 28, 2016","2016","09","28","10","00","Europe/Kiev","7:00 AM GMT on September 28, 2016","2016","09","28","07","00","UTC","10.0","50.0","9.0","48.2","94","7.2","4.5","-9999.0","-9999.0","30","NNE","10.0","6.2","1025","30.27","-999","-999","-9999","-9999","-9999.00","-9999.00","Overcast","cloudy","0","0","0","0","0","0","METAR UKKK 280700Z 03002MPS 340V060 9999 OVC008 10/09 Q1025 R26/CLRD70 NOSIG"
"10:30 AM EEST on September 28, 2016","2016","09","28","10","30","Europe/Kiev","7:30 AM GMT on September 28, 2016","2016","09","28","07","30","UTC","11.0","51.8","9.0","48.2","88","7.2","4.5","-9999.0","-9999.0","340","NNW","10.0","6.2","1025","30.27","-999","-999","-9999","-9999","-9999.00","-9999.00","Overcast","cloudy","0","0","0","0","0","0","METAR UKKK 280730Z 34002MPS 9999 OVC008 11/09 Q1025 R26/CLRD70 NOSIG"
"11:00 AM EEST on September 28, 2016","2016","09","28","11","00","Europe/Kiev","8:00 AM GMT on September 28, 2016","2016","09","28","08","00","UTC","11.0","51.8","9.0","48.2","88","7.2","4.5","-9999.0","-9999.0","40","NE","10.0","6.2","1025","30.27","-999","-999","-9999","-9999","-9999.00","-9999.00","Mostly Cloudy","mostlycloudy","0","0","0","0","0","0","METAR UKKK 280800Z 04002MPS 350V090 9999 BKN009 BKN027 11/09 Q1025 R26/CLRD70 NOSIG"
"11:30 AM EEST on September 28, 2016","2016","09","28","11","30","Europe/Kiev","8:30 AM GMT on September 28, 2016","2016","09","28","08","30","UTC","11.0","51.8","9.0","48.2","88","7.2","4.5","-9999.0","-9999.0","360","North","9.0","5.6","1025","30.27","-999","-999","-9999","-9999","-9999.00","-9999.00","Light Rain","rain","0","1","0","0","0","0","METAR UKKK 280830Z 36002MPS 270V070 9000 -RA BKN009 BKN027 11/09 Q1025 R08/CLRD70 NOSIG"
"12:00 PM EEST on September 28, 2016","2016","09","28","12","00","Europe/Kiev","9:00 AM GMT on September 28, 2016","2016","09","28","09","00","UTC","12","53","9","47","75","3.6","2.2","","","20","NNE","20","12","1026","30.29","-999","-999","-9999","-9999","","","Light Drizzle","rain","0","1","0","0","0","0","AAXX 28091 33345 41498 70201 10118 20086 30052 40255 51002 72052 87500 333 86711 555 10017"
"12:00 PM EEST on September 28, 2016","2016","09","28","12","00","Europe/Kiev","9:00 AM GMT on September 28, 2016","2016","09","28","09","00","UTC","11.0","51.8","9.0","48.2","88","3.6","2.2","-9999.0","-9999.0","0","Variable","10.0","6.2","1025","30.27","-999","-999","-9999","-9999","-9999.00","-9999.00","Light Rain","rain","0","1","0","0","0","0","METAR UKKK 280900Z VRB01MPS 9999 -RA BKN014 BKN034 11/09 Q1025 R08/190060 NOSIG"
"12:30 PM EEST on September 28, 2016","2016","09","28","12","30","Europe/Kiev","9:30 AM GMT on September 28, 2016","2016","09","28","09","30","UTC","12.0","53.6","9.0","48.2","82","7.2","4.5","-9999.0","-9999.0","320","NW","10.0","6.2","1025","30.27","-999","-999","-9999","-9999","-9999.00","-9999.00","Mostly Cloudy","mostlycloudy","0","0","0","0","0","0","METAR UKKK 280930Z 32002MPS 280V020 9999 BKN017 BKN037 12/09 Q1025 R08/190060 NOSIG"
"1:00 PM EEST on September 28, 2016","2016","09","28","13","00","Europe/Kiev","10:00 AM GMT on September 28, 2016","2016","09","28","10","00","UTC","13.0","55.4","9.0","48.2","77","7.2","4.5","-9999.0","-9999.0","330","NNW","10.0","6.2","1025","30.27","-999","-999","-9999","-9999","-9999.00","-9999.00","Mostly Cloudy","mostlycloudy","0","0","0","0","0","0","METAR UKKK 281000Z 33002MPS 260V010 9999 BKN016 BKN043 13/09 Q1025 R08/CLRD70 NOSIG"
"1:30 PM EEST on September 28, 2016","2016","09","28","13","30","Europe/Kiev","10:30 AM GMT on September 28, 2016","2016","09","28","10","30","UTC","13.0","55.4","9.0","48.2","77","14.4","8.9","-9999.0","-9999.0","310","NW","10.0","6.2","1025","30.27","-999","-999","-9999","-9999","-9999.00","-9999.00","Mostly Cloudy","mostlycloudy","0","0","0","0","0","0","METAR UKKK 281030Z 31004MPS 270V350 9999 BKN016 BKN043 13/09 Q1025 R26/CLRD70 NOSIG"
"2:00 PM EEST on September 28, 2016","2016","09","28","14","00","Europe/Kiev","11:00 AM GMT on September 28, 2016","2016","09","28","11","00","UTC","14.0","57.2","9.0","48.2","72","14.4","8.9","-9999.0","-9999.0","290","WNW","10.0","6.2","1024","30.24","-999","-999","-9999","-9999","-9999.00","-9999.00","Mostly Cloudy","mostlycloudy","0","0","0","0","0","0","METAR UKKK 281100Z 29004MPS 260V320 9999 BKN017 BKN043 14/09 Q1024 R26/CLRD70 NOSIG"
"2:30 PM EEST on September 28, 2016","2016","09","28","14","30","Europe/Kiev","11:30 AM GMT on September 28, 2016","2016","09","28","11","30","UTC","14.0","57.2","9.0","48.2","72","14.4","8.9","-9999.0","-9999.0","290","WNW","10.0","6.2","1024","30.24","-999","-999","-9999","-9999","-9999.00","-9999.00","Mostly Cloudy","mostlycloudy","0","0","0","0","0","0","METAR UKKK 281130Z 29004MPS 260V320 9999 BKN036 14/09 Q1024 R26/CLRD70 NOSIG"
"3:00 PM EEST on September 28, 2016","2016","09","28","15","00","Europe/Kiev","12:00 PM GMT on September 28, 2016","2016","09","28","12","00","UTC","15","59","8","46","51","14.4","8.9","","","290","WNW","20","12","1024","30.24","-999","-999","-9999","-9999","","","Partly Cloudy","partlycloudy","0","0","0","0","0","0","AAXX 28121 33345 /1698 62904 10148 20075 30038 40238 58014 70252 86201 333 86834 555 10026 69901"
"3:00 PM EEST on September 28, 2016","2016","09","28","15","00","Europe/Kiev","12:00 PM GMT on September 28, 2016","2016","09","28","12","00","UTC","14.0","57.2","8.0","46.4","67","14.4","8.9","-9999.0","-9999.0","290","WNW","10.0","6.2","1024","30.24","-999","-999","-9999","-9999","-9999.00","-9999.00","Mostly Cloudy","mostlycloudy","0","0","0","0","0","0","METAR UKKK 281200Z 29004MPS 9999 BKN021 14/08 Q1024 R26/CLRD70 NOSIG"
"3:30 PM EEST on September 28, 2016","2016","09","28","15","30","Europe/Kiev","12:30 PM GMT on September 28, 2016","2016","09","28","12","30","UTC","15.0","59.0","8.0","46.4","63","14.4","8.9","-9999.0","-9999.0","290","WNW","10.0","6.2","1023","30.21","-999","-999","-9999","-9999","-9999.00","-9999.00","Mostly Cloudy","mostlycloudy","0","0","0","0","0","0","METAR UKKK 281230Z 29004MPS 9999 BKN021 15/08 Q1023 R26/CLRD70 NOSIG"
"4:00 PM EEST on September 28, 2016","2016","09","28","16","00","Europe/Kiev","1:00 PM GMT on September 28, 2016","2016","09","28","13","00","UTC","16.0","60.8","8.0","46.4","59","14.4","8.9","-9999.0","-9999.0","280","West","10.0","6.2","1023","30.21","-999","-999","-9999","-9999","-9999.00","-9999.00","Mostly Cloudy","mostlycloudy","0","0","0","0","0","0","METAR UKKK 281300Z 28004MPS 9999 BKN032 16/08 Q1023 R26/CLRD70 NOSIG"
"4:30 PM EEST on September 28, 2016","2016","09","28","16","30","Europe/Kiev","1:30 PM GMT on September 28, 2016","2016","09","28","13","30","UTC","15.0","59.0","7.0","44.6","59","14.4","8.9","-9999.0","-9999.0","290","WNW","10.0","6.2","1023","30.21","-999","-999","-9999","-9999","-9999.00","-9999.00","Mostly Cloudy","mostlycloudy","0","0","0","0","0","0","METAR UKKK 281330Z 29004MPS 270V330 9999 BKN043 15/07 Q1023 R26/CLRD70 NOSIG"
"5:00 PM EEST on September 28, 2016","2016","09","28","17","00","Europe/Kiev","2:00 PM GMT on September 28, 2016","2016","09","28","14","00","UTC","15.0","59.0","7.0","44.6","59","10.8","6.7","-9999.0","-9999.0","320","NW","10.0","6.2","1022","30.18","-999","-999","-9999","-9999","-9999.00","-9999.00","Mostly Cloudy","mostlycloudy","0","0","0","0","0","0","METAR UKKK 281400Z 32003MPS 300V010 9999 BKN036 15/07 Q1022 R26/CLRD70 NOSIG"
"5:30 PM EEST on September 28, 2016","2016","09","28","17","30","Europe/Kiev","2:30 PM GMT on September 28, 2016","2016","09","28","14","30","UTC","15.0","59.0","7.0","44.6","59","10.8","6.7","-9999.0","-9999.0","310","NW","-9999.0","-9999.0","1022","30.18","-999","-999","-9999","-9999","-9999.00","-9999.00","Clear","clear","0","0","0","0","0","0","METAR UKKK 281430Z 31003MPS CAVOK 15/07 Q1022 R26/CLRD70 NOSIG"
"6:00 PM EEST on September 28, 2016","2016","09","28","18","00","Europe/Kiev","3:00 PM GMT on September 28, 2016","2016","09","28","15","00","UTC","14","57","7","45","54","3.6","2.2","","","300","WNW","20","12","1022","30.19","-999","-999","-9999","-9999","","","Scattered Clouds","partlycloudy","0","0","0","0","0","0","AAXX 28151 33345 42598 73001 10141 20072 30023 40223 56015 82441 555 10014"
"6:00 PM EEST on September 28, 2016","2016","09","28","18","00","Europe/Kiev","3:00 PM GMT on September 28, 2016","2016","09","28","15","00","UTC","14.0","57.2","8.0","46.4","67","10.8","6.7","-9999.0","-9999.0","260","West","-9999.0","-9999.0","1022","30.18","-999","-999","-9999","-9999","-9999.00","-9999.00","Clear","clear","0","0","0","0","0","0","METAR UKKK 281500Z 26003MPS CAVOK 14/08 Q1022 R26/CLRD70 NOSIG"
"6:30 PM EEST on September 28, 2016","2016","09","28","18","30","Europe/Kiev","3:30 PM GMT on September 28, 2016","2016","09","28","15","30","UTC","14.0","57.2","8.0","46.4","67","7.2","4.5","-9999.0","-9999.0","260","West","-9999.0","-9999.0","1022","30.18","-999","-999","-9999","-9999","-9999.00","-9999.00","Clear","clear","0","0","0","0","0","0","METAR UKKK 281530Z 26002MPS CAVOK 14/08 Q1022 R26/CLRD70 NOSIG"
"7:00 PM EEST on September 28, 2016","2016","09","28","19","00","Europe/Kiev","4:00 PM GMT on September 28, 2016","2016","09","28","16","00","UTC","13.0","55.4","9.0","48.2","77","7.2","4.5","-9999.0","-9999.0","230","SW","9.0","5.6","1022","30.18","-999","-999","-9999","-9999","-9999.00","-9999.00","Unknown","unknown","0","0","0","0","0","0","METAR UKKK 281600Z 23002MPS 9000 NSC 13/09 Q1022 R26/CLRD70 NOSIG"
"7:30 PM EEST on September 28, 2016","2016","09","28","19","30","Europe/Kiev","4:30 PM GMT on September 28, 2016","2016","09","28","16","30","UTC","13.0","55.4","9.0","48.2","77","7.2","4.5","-9999.0","-9999.0","230","SW","9.0","5.6","1022","30.18","-999","-999","-9999","-9999","-9999.00","-9999.00","Unknown","unknown","0","0","0","0","0","0","METAR UKKK 281630Z 23002MPS 9000 NSC 13/09 Q1022 R26/CLRD70 NOSIG"
"8:00 PM EEST on September 28, 2016","2016","09","28","20","00","Europe/Kiev","5:00 PM GMT on September 28, 2016","2016","09","28","17","00","UTC","13.0","55.4","9.0","48.2","77","7.2","4.5","-9999.0","-9999.0","230","SW","-9999.0","-9999.0","1022","30.18","-999","-999","-9999","-9999","-9999.00","-9999.00","Clear","clear","0","0","0","0","0","0","METAR UKKK 281700Z 23002MPS CAVOK 13/09 Q1022 R26/CLRD70 NOSIG"
"8:30 PM EEST on September 28, 2016","2016","09","28","20","30","Europe/Kiev","5:30 PM GMT on September 28, 2016","2016","09","28","17","30","UTC","12.0","53.6","9.0","48.2","82","7.2","4.5","-9999.0","-9999.0","210","SSW","7.0","4.3","1022","30.18","-999","-999","-9999","-9999","-9999.00","-9999.00","Unknown","unknown","0","0","0","0","0","0","METAR UKKK 281730Z 21002MPS 7000 NSC 12/09 Q1022 R26/CLRD70 NOSIG"
"9:00 PM EEST on September 28, 2016","2016","09","28","21","00","Europe/Kiev","6:00 PM GMT on September 28, 2016","2016","09","28","18","00","UTC","12","54","8","47","68","7.2","4.5","","","250","WSW","10","6","1022","30.17","-999","-999","-9999","-9999","","","Scattered Clouds","partlycloudy","0","0","0","0","0","0","AAXX 28181 33345 12997 72502 10120 20081 30015 40217 58008 69902 82045 333 10155 555 10010"
"9:00 PM EEST on September 28, 2016","2016","09","28","21","00","Europe/Kiev","6:00 PM GMT on September 28, 2016","2016","09","28","18","00","UTC","12.0","53.6","9.0","48.2","82","7.2","4.5","-9999.0","-9999.0","200","SSW","6.0","3.7","1021","30.15","-999","-999","-9999","-9999","-9999.00","-9999.00","Unknown","unknown","0","0","0","0","0","0","METAR UKKK 281800Z 20002MPS 6000 NSC 12/09 Q1021 R26/CLRD70 NOSIG"
"9:30 PM EEST on September 28, 2016","2016","09","28","21","30","Europe/Kiev","6:30 PM GMT on September 28, 2016","2016","09","28","18","30","UTC","11.0","51.8","8.0","46.4","82","7.2","4.5","-9999.0","-9999.0","210","SSW","7.0","4.3","1021","30.15","-999","-999","-9999","-9999","-9999.00","-9999.00","Unknown","unknown","0","0","0","0","0","0","METAR UKKK 281830Z 21002MPS 7000 NSC 11/08 Q1021 R26/CLRD70 NOSIG"
"10:00 PM EEST on September 28, 2016","2016","09","28","22","00","Europe/Kiev","7:00 PM GMT on September 28, 2016","2016","09","28","19","00","UTC","11.0","51.8","8.0","46.4","82","7.2","4.5","-9999.0","-9999.0","210","SSW","-9999.0","-9999.0","1021","30.15","-999","-999","-9999","-9999","-9999.00","-9999.00","Clear","clear","0","0","0","0","0","0","METAR UKKK 281900Z 21002MPS CAVOK 11/08 Q1021 R26/CLRD70 NOSIG"
"10:30 PM EEST on September 28, 2016","2016","09","28","22","30","Europe/Kiev","7:30 PM GMT on September 28, 2016","2016","09","28","19","30","UTC","11.0","51.8","8.0","46.4","82","10.8","6.7","-9999.0","-9999.0","210","SSW","-9999.0","-9999.0","1021","30.15","-999","-999","-9999","-9999","-9999.00","-9999.00","Clear","clear","0","0","0","0","0","0","METAR UKKK 281930Z 21003MPS 180V240 CAVOK 11/08 Q1021 R26/CLRD70 NOSIG"
"11:00 PM EEST on September 28, 2016","2016","09","28","23","00","Europe/Kiev","8:00 PM GMT on September 28, 2016","2016","09","28","20","00","UTC","12.0","53.6","8.0","46.4","77","10.8","6.7","-9999.0","-9999.0","210","SSW","-9999.0","-9999.0","1020","30.12","-999","-999","-9999","-9999","-9999.00","-9999.00","Clear","clear","0","0","0","0","0","0","METAR UKKK 282000Z 21003MPS 180V240 CAVOK 12/08 Q1020 R26/CLRD70 NOSIG"
"11:30 PM EEST on September 28, 2016","2016","09","28","23","30","Europe/Kiev","8:30 PM GMT on September 28, 2016","2016","09","28","20","30","UTC","12.0","53.6","7.0","44.6","72","10.8","6.7","-9999.0","-9999.0","210","SSW","-9999.0","-9999.0","1020","30.12","-999","-999","-9999","-9999","-9999.00","-9999.00","Clear","clear","0","0","0","0","0","0","METAR UKKK 282030Z 21003MPS 180V240 CAVOK 12/07 Q1020 R26/CLRD70 NOSIG"
"12:00 AM EEST on September 29, 2016","2016","09","29","00","00","Europe/Kiev","9:00 PM GMT on September 28, 2016","2016","09","28","21","00","UTC","12","53","8","46","69","10.8","6.7","","","240","WSW","20","12","1020","30.13","-999","-999","-9999","-9999","","","Overcast","cloudy","0","0","0","0","0","0","AAXX 28211 33345 42898 82403 10116 20077 39999 40201 57016 8805/ 555 10010"
"12:00 AM EEST on September 29, 2016","2016","09","29","00","00","Europe/Kiev","9:00 PM GMT on September 28, 2016","2016","09","28","21","00","UTC","12.0","53.6","7.0","44.6","72","10.8","6.7","-9999.0","-9999.0","210","SSW","-9999.0","-9999.0","1020","30.12","-999","-999","-9999","-9999","-9999.00","-9999.00","Clear","clear","0","0","0","0","0","0","METAR UKKK 282100Z 21003MPS CAVOK 12/07 Q1020 R26/CLRD70 NOSIG"
"12:30 AM EEST on September 29, 2016","2016","09","29","00","30","Europe/Kiev","9:30 PM GMT on September 28, 2016","2016","09","28","21","30","UTC","11.0","51.8","7.0","44.6","76","10.8","6.7","-9999.0","-9999.0","220","SW","10.0","6.2","1020","30.12","-999","-999","-9999","-9999","-9999.00","-9999.00","Mostly Cloudy","mostlycloudy","0","0","0","0","0","0","METAR UKKK 282130Z 22003MPS 9999 FEW044 BKN110 11/07 Q1020 R26/CLRD70 NOSIG"
"1:00 AM EEST on September 29, 2016","2016","09","29","01","00","Europe/Kiev","10:00 PM GMT on September 28, 2016","2016","09","28","22","00","UTC","11.0","51.8","7.0","44.6","76","7.2","4.5","-9999.0","-9999.0","230","SW","-9999.0","-9999.0","1019","30.09","-999","-999","-9999","-9999","-9999.00","-9999.00","Clear","clear","0","0","0","0","0","0","METAR UKKK 282200Z 23002MPS 200V260 CAVOK 11/07 Q1019 R26/CLRD70 NOSIG"
"1:30 AM EEST on September 29, 2016","2016","09","29","01","30","Europe/Kiev","10:30 PM GMT on September 28, 2016","2016","09","28","22","30","UTC","11.0","51.8","7.0","44.6","76","7.2","4.5","-9999.0","-9999.0","220","SW","-9999.0","-9999.0","1019","30.09","-999","-999","-9999","-9999","-9999.00","-9999.00","Clear","clear","0","0","0","0","0","0","METAR UKKK 282230Z 22002MPS CAVOK 11/07 Q1019 R26/CLRD70 NOSIG"
"2:00 AM EEST on September 29, 2016","2016","09","29","02","00","Europe/Kiev","11:00 PM GMT on September 28, 2016","2016","09","28","23","00","UTC","11.0","51.8","7.0","44.6","76","7.2","4.5","-9999.0","-9999.0","240","WSW","-9999.0","-9999.0","1019","30.09","-999","-999","-9999","-9999","-9999.00","-9999.00","Clear","clear","0","0","0","0","0","0","METAR UKKK 282300Z 24002MPS 210V270 CAVOK 11/07 Q1019 R26/CLRD70 NOSIG"
"2:30 AM EEST on September 29, 2016","2016","09","29","02","30","Europe/Kiev","11:30 PM GMT on September 28, 2016","2016","09","28","23","30","UTC","11.0","51.8","7.0","44.6","76","7.2","4.5","-9999.0","-9999.0","230","SW","-9999.0","-9999.0","1018","30.06","-999","-999","-9999","-9999","-9999.00","-9999.00","Clear","clear","0","0","0","0","0","0","METAR UKKK 282330Z 23002MPS 210V270 CAVOK 11/07 Q1018 R26/CLRD70 NOSIG"
"3:00 AM EEST on September 29, 2016","2016","09","29","03","00","Europe/Kiev","12:00 AM GMT on September 29, 2016","2016","09","29","00","00","UTC","11","51","7","44","70","3.6","2.2","","","230","SW","20","12","1018","30.07","-999","-999","-9999","-9999","","","Overcast","cloudy","0","0","0","0","0","0","AAXX 29001 33345 32998 82301 10107 20067 39979 40181 57020 8805/ 555 10010"
"3:00 AM EEST on September 29, 2016","2016","09","29","03","00","Europe/Kiev","12:00 AM GMT on September 29, 2016","2016","09","29","00","00","UTC","11.0","51.8","6.0","42.8","71","10.8","6.7","-9999.0","-9999.0","220","SW","-9999.0","-9999.0","1017","30.04","-999","-999","-9999","-9999","-9999.00","-9999.00","Clear","clear","0","0","0","0","0","0","METAR UKKK 290000Z 22003MPS CAVOK 11/06 Q1017 R26/CLRD70 NOSIG"
"3:30 AM EEST on September 29, 2016","2016","09","29","03","30","Europe/Kiev","12:30 AM GMT on September 29, 2016","2016","09","29","00","30","UTC","11.0","51.8","6.0","42.8","71","10.8","6.7","-9999.0","-9999.0","240","WSW","10.0","6.2","1017","30.04","-999","-999","-9999","-9999","-9999.00","-9999.00","Mostly Cloudy","mostlycloudy","0","0","0","0","0","0","METAR UKKK 290030Z 24003MPS 9999 SCT036 BKN100 11/06 Q1017 R26/CLRD70 NOSIG"
"4:00 AM EEST on September 29, 2016","2016","09","29","04","00","Europe/Kiev","1:00 AM GMT on September 29, 2016","2016","09","29","01","00","UTC","11.0","51.8","6.0","42.8","71","10.8","6.7","-9999.0","-9999.0","240","WSW","10.0","6.2","1017","30.04","-999","-999","-9999","-9999","-9999.00","-9999.00","Mostly Cloudy","mostlycloudy","0","0","0","0","0","0","METAR UKKK 290100Z 24003MPS 210V270 9999 SCT033 BKN100 11/06 Q1017 R26/CLRD70 NOSIG"
"4:30 AM EEST on September 29, 2016","2016","09","29","04","30","Europe/Kiev","1:30 AM GMT on September 29, 2016","2016","09","29","01","30","UTC","11.0","51.8","7.0","44.6","76","10.8","6.7","-9999.0","-9999.0","240","WSW","10.0","6.2","1016","30.01","-999","-999","-9999","-9999","-9999.00","-9999.00","Mostly Cloudy","mostlycloudy","0","0","0","0","0","0","METAR UKKK 290130Z 24003MPS 210V270 9999 SCT033 BKN100 11/07 Q1016 R26/CLRD70 NOSIG"
"5:00 AM EEST on September 29, 2016","2016","09","29","05","00","Europe/Kiev","2:00 AM GMT on September 29, 2016","2016","09","29","02","00","UTC","11.0","51.8","7.0","44.6","76","10.8","6.7","-9999.0","-9999.0","250","WSW","10.0","6.2","1016","30.01","-999","-999","-9999","-9999","-9999.00","-9999.00","Mostly Cloudy","mostlycloudy","0","0","0","0","0","0","METAR UKKK 290200Z 25003MPS 9999 SCT033 BKN100 11/07 Q1016 R26/CLRD70 NOSIG"
"5:30 AM EEST on September 29, 2016","2016","09","29","05","30","Europe/Kiev","2:30 AM GMT on September 29, 2016","2016","09","29","02","30","UTC","11.0","51.8","7.0","44.6","76","10.8","6.7","-9999.0","-9999.0","240","WSW","-9999.0","-9999.0","1016","30.01","-999","-999","-9999","-9999","-9999.00","-9999.00","Clear","clear","0","0","0","0","0","0","METAR UKKK 290230Z 24003MPS CAVOK 11/07 Q1016 R26/CLRD70 NOSIG"
"6:00 AM EEST on September 29, 2016","2016","09","29","06","00","Europe/Kiev","3:00 AM GMT on September 29, 2016","2016","09","29","03","00","UTC","12","53","7","45","67","10.8","6.7","","","270","West","10","6","1016","29.99","-999","-999","-9999","-9999","","","Overcast","cloudy","0","0","0","0","0","0","AAXX 29031 33345 42997 82703 10116 20073 39955 40156 57024 8807/ 555 10011"
"6:00 AM EEST on September 29, 2016","2016","09","29","06","00","Europe/Kiev","3:00 AM GMT on September 29, 2016","2016","09","29","03","00","UTC","11.0","51.8","7.0","44.6","76","10.8","6.7","-9999.0","-9999.0","240","WSW","10.0","6.2","1015","29.98","-999","-999","-9999","-9999","-9999.00","-9999.00","Light Rain Showers","rain","0","1","0","0","0","0","METAR UKKK 290300Z 24003MPS 9999 -SHRA SCT026CB BKN046 11/07 Q1015 R26/CLRD70 NOSIG"
"6:30 AM EEST on September 29, 2016","2016","09","29","06","30","Europe/Kiev","3:30 AM GMT on September 29, 2016","2016","09","29","03","30","UTC","11.0","51.8","8.0","46.4","82","10.8","6.7","-9999.0","-9999.0","250","WSW","10.0","6.2","1015","29.98","-999","-999","-9999","-9999","-9999.00","-9999.00","Mostly Cloudy","mostlycloudy","0","0","0","0","0","0","METAR UKKK 290330Z 25003MPS 9999 BKN043 11/08 Q1015 R26/190060 NOSIG"
"7:00 AM EEST on September 29, 2016","2016","09","29","07","00","Europe/Kiev","4:00 AM GMT on September 29, 2016","2016","09","29","04","00","UTC","11.0","51.8","8.0","46.4","82","10.8","6.7","-9999.0","-9999.0","260","West","10.0","6.2","1015","29.98","-999","-999","-9999","-9999","-9999.00","-9999.00","Mostly Cloudy","mostlycloudy","0","0","0","0","0","0","METAR UKKK 290400Z 26003MPS 9999 BKN022 11/08 Q1015 R26/CLRD70 NOSIG"
"7:30 AM EEST on September 29, 2016","2016","09","29","07","30","Europe/Kiev","4:30 AM GMT on September 29, 2016","2016","09","29","04","30","UTC","12.0","53.6","9.0","48.2","82","14.4","8.9","-9999.0","-9999.0","260","West","10.0","6.2","1015","29.98","-999","-999","-9999","-9999","-9999.00","-9999.00","Mostly Cloudy","mostlycloudy","0","0","0","0","0","0","METAR UKKK 290430Z 26004MPS 9999 BKN021 12/09 Q1015 R26/CLRD70 NOSIG"
"8:00 AM EEST on September 29, 2016","2016","09","29","08","00","Europe/Kiev","5:00 AM GMT on September 29, 2016","2016","09","29","05","00","UTC","11.0","51.8","10.0","50.0","94","14.4","8.9","-9999.0","-9999.0","260","West","-9999.0","-9999.0","1014","29.95","-999","-999","-9999","-9999","-9999.00","-9999.00","Light Rain","rain","0","1","0","0","0","0","METAR UKKK 290500Z 26004MPS 3400 -RA BR SCT004 OVC015 11/10 Q1014 R26/290058 TEMPO 1000 -SHRA BR BKN002 BKN012CB"
"8:30 AM EEST on September 29, 2016","2016","09","29","08","30","Europe/Kiev","5:30 AM GMT on September 29, 2016","2016","09","29","05","30","UTC","12.0","53.6","11.0","51.8","94","14.4","8.9","-9999.0","-9999.0","250","WSW","8.0","5.0","1014","29.95","-999","-999","-9999","-9999","-9999.00","-9999.00","Mostly Cloudy","mostlycloudy","0","0","0","0","0","0","METAR UKKK 290530Z 25004MPS 8000 BKN015 BKN100 12/11 Q1014 R26/290058 TEMPO 1500 -SHRA BR BKN005 BKN012CB"
"9:00 AM EEST on September 29, 2016","2016","09","29","09","00","Europe/Kiev","6:00 AM GMT on September 29, 2016","2016","09","29","06","00","UTC","12","54","10","51","86","7.2","4.5","","","280","West","4","2","1015","29.97","-999","-999","-9999","-9999","","","Mist","hazy","0","0","0","0","0","0","AAXX 29061 33345 31996 72802 10124 20105 39947 40147 57008 71022 87030 333 20105 555 10013"
"9:00 AM EEST on September 29, 2016","2016","09","29","09","00","Europe/Kiev","6:00 AM GMT on September 29, 2016","2016","09","29","06","00","UTC","12.0","53.6","11.0","51.8","94","14.4","8.9","-9999.0","-9999.0","270","West","9.0","5.6","1014","29.95","-999","-999","-9999","-9999","-9999.00","-9999.00","Mostly Cloudy","mostlycloudy","0","0","0","0","0","0","METAR UKKK 290600Z 27004MPS 9000 SCT015 BKN100 12/11 Q1014 R26/190060 NOSIG"
"9:30 AM EEST on September 29, 2016","2016","09","29","09","30","Europe/Kiev","6:30 AM GMT on September 29, 2016","2016","09","29","06","30","UTC","14.0","57.2","11.0","51.8","82","21.6","13.4","-9999.0","-9999.0","270","West","10.0","6.2","1014","29.95","-999","-999","-9999","-9999","-9999.00","-9999.00","Mostly Cloudy","mostlycloudy","0","0","0","0","0","0","METAR UKKK 290630Z 27006MPS 9999 SCT011 BKN100 14/11 Q1014 R26/190060 NOSIG"
"10:00 AM EEST on September 29, 2016","2016","09","29","10","00","Europe/Kiev","7:00 AM GMT on September 29, 2016","2016","09","29","07","00","UTC","14.0","57.2","12.0","53.6","88","21.6","13.4","-9999.0","-9999.0","280","West","10.0","6.2","1014","29.95","-999","-999","-9999","-9999","-9999.00","-9999.00","Mostly Cloudy","mostlycloudy","0","0","0","0","0","0","METAR UKKK 290700Z 28006MPS 9999 FEW012 SCT030CB BKN100 14/12 Q1014 R26/190060 NOSIG"
"10:30 AM EEST on September 29, 2016","2016","09","29","10","30","Europe/Kiev","7:30 AM GMT on September 29, 2016","2016","09","29","07","30","UTC","15.0","59.0","12.0","53.6","82","21.6","13.4","-9999.0","-9999.0","280","West","10.0","6.2","1014","29.95","-999","-999","-9999","-9999","-9999.00","-9999.00","Mostly Cloudy","mostlycloudy","0","0","0","0","0","0","METAR UKKK 290730Z 28006MPS 9999 FEW013 BKN100 15/12 Q1014 R26/190060 NOSIG"
"11:00 AM EEST on September 29, 2016","2016","09","29","11","00","Europe/Kiev","8:00 AM GMT on September 29, 2016","2016","09","29","08","00","UTC","15.0","59.0","12.0","53.6","82","25.2","15.7","-9999.0","-9999.0","280","West","10.0","6.2","1014","29.95","-999","-999","-9999","-9999","-9999.00","-9999.00","Mostly Cloudy","mostlycloudy","0","0","0","0","0","0","METAR UKKK 290800Z 28007MPS 9999 FEW016 BKN100 15/12 Q1014 R26/CLRD70 NOSIG"
"11:30 AM EEST on September 29, 2016","2016","09","29","11","30","Europe/Kiev","8:30 AM GMT on September 29, 2016","2016","09","29","08","30","UTC","16.0","60.8","12.0","53.6","77","21.6","13.4","-9999.0","-9999.0","280","West","10.0","6.2","1014","29.95","-999","-999","-9999","-9999","-9999.00","-9999.00","Mostly Cloudy","mostlycloudy","0","0","0","0","0","0","METAR UKKK 290830Z 28006MPS 9999 FEW019 BKN100 16/12 Q1014 R26/CLRD70 NOSIG"
"12:00 PM EEST on September 29, 2016","2016","09","29","12","00","Europe/Kiev","9:00 AM GMT on September 29, 2016","2016","09","29","09","00","UTC","16","61","11","53","66","10.8","6.7","","","310","NW","20","12","1014","29.94","-999","-999","-9999","-9999","","","Partly Cloudy","partlycloudy","0","0","0","0","0","0","AAXX 29091 33345 41598 63103 10162 20114 39942 40139 57005 70262 86530 555 10021"
"12:00 PM EEST on September 29, 2016","2016","09","29","12","00","Europe/Kiev","9:00 AM GMT on September 29, 2016","2016","09","29","09","00","UTC","17.0","62.6","12.0","53.6","72","21.6","13.4","-9999.0","-9999.0","290","WNW","10.0","6.2","1014","29.95","-999","-999","-9999","-9999","-9999.00","-9999.00","Mostly Cloudy","mostlycloudy","0","0","0","0","0","0","METAR UKKK 290900Z 29006MPS 9999 SCT035 BKN100 17/12 Q1014 R26/CLRD70 NOSIG"
"12:30 PM EEST on September 29, 2016","2016","09","29","12","30","Europe/Kiev","9:30 AM GMT on September 29, 2016","2016","09","29","09","30","UTC","17.0","62.6","11.0","51.8","68","25.2","15.7","-9999.0","-9999.0","290","WNW","10.0","6.2","1014","29.95","-999","-999","-9999","-9999","-9999.00","-9999.00","Mostly Cloudy","mostlycloudy","0","0","0","0","0","0","METAR UKKK 290930Z 29007MPS 9999 FEW026CB BKN036 17/11 Q1014 R26/CLRD70 NOSIG"
"1:00 PM EEST on September 29, 2016","2016","09","29","13","00","Europe/Kiev","10:00 AM GMT on September 29, 2016","2016","09","29","10","00","UTC","17.0","62.6","11.0","51.8","68","21.6","13.4","-9999.0","-9999.0","300","WNW","10.0","6.2","1014","29.95","-999","-999","-9999","-9999","-9999.00","-9999.00","Mostly Cloudy","mostlycloudy","0","0","0","0","0","0","METAR UKKK 291000Z 30006MPS 9999 SCT027CB BKN040 17/11 Q1014 R26/190060 TEMPO 2100 -SHRA BKN012CB"
"1:30 PM EEST on September 29, 2016","2016","09","29","13","30","Europe/Kiev","10:30 AM GMT on September 29, 2016","2016","09","29","10","30","UTC","17.0","62.6","11.0","51.8","68","21.6","13.4","-9999.0","-9999.0","300","WNW","10.0","6.2","1014","29.95","-999","-999","-9999","-9999","-9999.00","-9999.00","Mostly Cloudy","mostlycloudy","0","0","0","0","0","0","METAR UKKK 291030Z 30006MPS 9999 FEW029CB BKN050 17/11 Q1014 R26/190060 TEMPO 2100 -SHRA BKN012CB"
"2:00 PM EEST on September 29, 2016","2016","09","29","14","00","Europe/Kiev","11:00 AM GMT on September 29, 2016","2016","09","29","11","00","UTC","17.0","62.6","10.0","50.0","63","28.8","17.9","-9999.0","-9999.0","310","NW","10.0","6.2","1014","29.95","-999","-999","-9999","-9999","-9999.00","-9999.00","Mostly Cloudy","mostlycloudy","0","0","0","0","0","0","METAR UKKK 291100Z 31008MPS 9999 FEW031CB BKN083 17/10 Q1014 R26/CLRD70 TEMPO 29008G13MPS 2100 -SHRA BKN012CB"
"2:30 PM EEST on September 29, 2016","2016","09","29","14","30","Europe/Kiev","11:30 AM GMT on September 29, 2016","2016","09","29","11","30","UTC","18.0","64.4","10.0","50.0","59","25.2","15.7","-9999.0","-9999.0","310","NW","10.0","6.2","1014","29.95","-999","-999","-9999","-9999","-9999.00","-9999.00","Mostly Cloudy","mostlycloudy","0","0","0","0","0","0","METAR UKKK 291130Z 31007MPS 270V330 9999 FEW032CB BKN083 18/10 Q1014 R26/CLRD70 TEMPO 29008G13MPS 2100 -SHRA BKN012CB"
"3:00 PM EEST on September 29, 2016","2016","09","29","15","00","Europe/Kiev","12:00 PM GMT on September 29, 2016","2016","09","29","12","00","UTC","17","63","10","50","52","10.8","6.7","","","330","NNW","20","12","1014","29.94","-999","-999","-9999","-9999","","","Light Rain","rain","0","1","0","0","0","0","AAXX 29121 33345 /1598 63303 10174 20099 39941 40137 57001 72162 86500 555 10021 69901"
"3:00 PM EEST on September 29, 2016","2016","09","29","15","00","Europe/Kiev","12:00 PM GMT on September 29, 2016","2016","09","29","12","00","UTC","18.0","64.4","11.0","51.8","64","21.6","13.4","-9999.0","-9999.0","310","NW","10.0","6.2","1014","29.95","-999","-999","-9999","-9999","-9999.00","-9999.00","Mostly Cloudy","mostlycloudy","0","0","0","0","0","0","METAR UKKK 291200Z 31006MPS 9999 SCT033 BKN089 18/11 Q1014 R26/CLRD70 TEMPO 29008G13MPS 2100 -SHRA BKN012CB"
"3:30 PM EEST on September 29, 2016","2016","09","29","15","30","Europe/Kiev","12:30 PM GMT on September 29, 2016","2016","09","29","12","30","UTC","18.0","64.4","10.0","50.0","59","21.6","13.4","-9999.0","-9999.0","310","NW","-9999.0","-9999.0","1014","29.95","-999","-999","-9999","-9999","-9999.00","-9999.00","Clear","clear","0","0","0","0","0","0","METAR UKKK 291230Z 31006MPS CAVOK 18/10 Q1014 R26/CLRD70 NOSIG"
"4:00 PM EEST on September 29, 2016","2016","09","29","16","00","Europe/Kiev","1:00 PM GMT on September 29, 2016","2016","09","29","13","00","UTC","18.0","64.4","10.0","50.0","59","21.6","13.4","-9999.0","-9999.0","310","NW","-9999.0","-9999.0","1014","29.95","-999","-999","-9999","-9999","-9999.00","-9999.00","Clear","clear","0","0","0","0","0","0","METAR UKKK 291300Z 31006MPS CAVOK 18/10 Q1014 R26/CLRD70 NOSIG"
"4:30 PM EEST on September 29, 2016","2016","09","29","16","30","Europe/Kiev","1:30 PM GMT on September 29, 2016","2016","09","29","13","30","UTC","18.0","64.4","9.0","48.2","56","21.6","13.4","-9999.0","-9999.0","310","NW","-9999.0","-9999.0","1014","29.95","-999","-999","-9999","-9999","-9999.00","-9999.00","Clear","clear","0","0","0","0","0","0","METAR UKKK 291330Z 31006MPS CAVOK 18/09 Q1014 R26/CLRD70 NOSIG"
"5:00 PM EEST on September 29, 2016","2016","09","29","17","00","Europe/Kiev","2:00 PM GMT on September 29, 2016","2016","09","29","14","00","UTC","18.0","64.4","10.0","50.0","59","18.0","11.2","-9999.0","-9999.0","310","NW","-9999.0","-9999.0","1014","29.95","-999","-999","-9999","-9999","-9999.00","-9999.00","Clear","clear","0","0","0","0","0","0","METAR UKKK 291400Z 31005MPS CAVOK 18/10 Q1014 R26/CLRD70 NOSIG"
"5:30 PM EEST on September 29, 2016","2016","09","29","17","30","Europe/Kiev","2:30 PM GMT on September 29, 2016","2016","09","29","14","30","UTC","18.0","64.4","9.0","48.2","56","18.0","11.2","-9999.0","-9999.0","310","NW","-9999.0","-9999.0","1014","29.95","-999","-999","-9999","-9999","-9999.00","-9999.00","Clear","clear","0","0","0","0","0","0","METAR UKKK 291430Z 31005MPS 290V350 CAVOK 18/09 Q1014 R26/CLRD70 NOSIG"
"6:00 PM EEST on September 29, 2016","2016","09","29","18","00","Europe/Kiev","3:00 PM GMT on September 29, 2016","2016","09","29","15","00","UTC","18","64","9","49","47","7.2","4.5","","","0","North","20","12","1015","29.96","-999","-999","-9999","-9999","","","Mostly Cloudy","mostlycloudy","0","0","0","0","0","0","AAXX 29151 33345 42598 63602 10177 20093 39950 40146 53009 86500 333 86623 555 10018"
"6:00 PM EEST on September 29, 2016","2016","09","29","18","00","Europe/Kiev","3:00 PM GMT on September 29, 2016","2016","09","29","15","00","UTC","18.0","64.4","9.0","48.2","56","14.4","8.9","-9999.0","-9999.0","330","NNW","10.0","6.2","1015","29.98","-999","-999","-9999","-9999","-9999.00","-9999.00","Mostly Cloudy","mostlycloudy","0","0","0","0","0","0","METAR UKKK 291500Z 33004MPS 300V020 9999 FEW033CB SCT046 BKN076 18/09 Q1015 R26/CLRD70 NOSIG"
"6:30 PM EEST on September 29, 2016","2016","09","29","18","30","Europe/Kiev","3:30 PM GMT on September 29, 2016","2016","09","29","15","30","UTC","18.0","64.4","9.0","48.2","56","21.6","13.4","-9999.0","-9999.0","310","NW","10.0","6.2","1015","29.98","-999","-999","-9999","-9999","-9999.00","-9999.00","Mostly Cloudy","mostlycloudy","0","0","0","0","0","0","METAR UKKK 291530Z 31006MPS 9999 SCT046 BKN083 18/09 Q1015 R26/CLRD70 NOSIG"
"7:00 PM EEST on September 29, 2016","2016","09","29","19","00","Europe/Kiev","4:00 PM GMT on September 29, 2016","2016","09","29","16","00","UTC","17.0","62.6","9.0","48.2","59","14.4","8.9","-9999.0","-9999.0","300","WNW","-9999.0","-9999.0","1015","29.98","-999","-999","-9999","-9999","-9999.00","-9999.00","Clear","clear","0","0","0","0","0","0","METAR UKKK 291600Z 30004MPS CAVOK 17/09 Q1015 R26/CLRD70 NOSIG"
"7:30 PM EEST on September 29, 2016","2016","09","29","19","30","Europe/Kiev","4:30 PM GMT on September 29, 2016","2016","09","29","16","30","UTC","16.0","60.8","9.0","48.2","63","10.8","6.7","-9999.0","-9999.0","300","WNW","-9999.0","-9999.0","1015","29.98","-999","-999","-9999","-9999","-9999.00","-9999.00","Clear","clear","0","0","0","0","0","0","METAR UKKK 291630Z 30003MPS CAVOK 16/09 Q1015 R26/CLRD70 NOSIG"
"8:00 PM EEST on September 29, 2016","2016","09","29","20","00","Europe/Kiev","5:00 PM GMT on September 29, 2016","2016","09","29","17","00","UTC","14.0","57.2","9.0","48.2","72","7.2","4.5","-9999.0","-9999.0","310","NW","9.0","5.6","1016","30.01","-999","-999","-9999","-9999","-9999.00","-9999.00","Mostly Cloudy","mostlycloudy","0","0","0","0","0","0","METAR UKKK 291700Z 31002MPS 9000 SCT043 BKN100 14/09 Q1016 R26/CLRD70 NOSIG"
"8:30 PM EEST on September 29, 2016","2016","09","29","20","30","Europe/Kiev","5:30 PM GMT on September 29, 2016","2016","09","29","17","30","UTC","13.0","55.4","9.0","48.2","77","7.2","4.5","-9999.0","-9999.0","280","West","-9999.0","-9999.0","1016","30.01","-999","-999","-9999","-9999","-9999.00","-9999.00","Clear","clear","0","0","0","0","0","0","METAR UKKK 291730Z 28002MPS CAVOK 13/09 Q1016 R26/CLRD70 NOSIG"
"9:00 PM EEST on September 29, 2016","2016","09","29","21","00","Europe/Kiev","6:00 PM GMT on September 29, 2016","2016","09","29","18","00","UTC","15","59","10","49","61","3.6","2.2","","","340","NNW","20","12","1016","30.02","-999","-999","-9999","-9999","","","","","0","0","0","0","0","0","AAXX 29181 33345 12998 03401 10149 20095 39965 40164 52015 69902 333 10187 555 10010"
"9:00 PM EEST on September 29, 2016","2016","09","29","21","00","Europe/Kiev","6:00 PM GMT on September 29, 2016","2016","09","29","18","00","UTC","13.0","55.4","9.0","48.2","77","7.2","4.5","-9999.0","-9999.0","260","West","-9999.0","-9999.0","1016","30.01","-999","-999","-9999","-9999","-9999.00","-9999.00","Clear","clear","0","0","0","0","0","0","METAR UKKK 291800Z 26002MPS CAVOK 13/09 Q1016 R26/CLRD70 NOSIG"
"9:30 PM EEST on September 29, 2016","2016","09","29","21","30","Europe/Kiev","6:30 PM GMT on September 29, 2016","2016","09","29","18","30","UTC","12.0","53.6","9.0","48.2","82","7.2","4.5","-9999.0","-9999.0","270","West","-9999.0","-9999.0","1016","30.01","-999","-999","-9999","-9999","-9999.00","-9999.00","Clear","clear","0","0","0","0","0","0","METAR UKKK 291830Z 27002MPS CAVOK 12/09 Q1016 R26/CLRD70 NOSIG"
"10:00 PM EEST on September 29, 2016","2016","09","29","22","00","Europe/Kiev","7:00 PM GMT on September 29, 2016","2016","09","29","19","00","UTC","11.0","51.8","9.0","48.2","88","7.2","4.5","-9999.0","-9999.0","260","West","-9999.0","-9999.0","1016","30.01","-999","-999","-9999","-9999","-9999.00","-9999.00","Clear","clear","0","0","0","0","0","0","METAR UKKK 291900Z 26002MPS CAVOK 11/09 Q1016 R26/CLRD70 NOSIG"
"10:30 PM EEST on September 29, 2016","2016","09","29","22","30","Europe/Kiev","7:30 PM GMT on September 29, 2016","2016","09","29","19","30","UTC","10.0","50.0","8.0","46.4","87","7.2","4.5","-9999.0","-9999.0","250","WSW","9.0","5.6","1016","30.01","-999","-999","-9999","-9999","-9999.00","-9999.00","Unknown","unknown","0","0","0","0","0","0","METAR UKKK 291930Z 25002MPS 9000 NSC 10/08 Q1016 R26/CLRD70 NOSIG"
"11:00 PM EEST on September 29, 2016","2016","09","29","23","00","Europe/Kiev","8:00 PM GMT on September 29, 2016","2016","09","29","20","00","UTC","9.0","48.2","8.0","46.4","93","7.2","4.5","-9999.0","-9999.0","250","WSW","6.0","3.7","1017","30.04","-999","-999","-9999","-9999","-9999.00","-9999.00","Unknown","unknown","0","0","0","0","0","0","METAR UKKK 292000Z 25002MPS 6000 NSC 09/08 Q1017 R26/CLRD70 NOSIG"
"11:30 PM EEST on September 29, 2016","2016","09","29","23","30","Europe/Kiev","8:30 PM GMT on September 29, 2016","2016","09","29","20","30","UTC","8.0","46.4","8.0","46.4","100","7.2","4.5","-9999.0","-9999.0","260","West","9.0","5.6","1017","30.04","6.9","44.4","-9999","-9999","-9999.00","-9999.00","Unknown","unknown","0","0","0","0","0","0","METAR UKKK 292030Z 26002MPS 9000 NSC 08/08 Q1017 R26/CLRD70 NOSIG"
"12:00 AM EEST on September 30, 2016","2016","09","30","00","00","Europe/Kiev","9:00 PM GMT on September 29, 2016","2016","09","29","21","00","UTC","13","55","9","48","71","7.2","4.5","","","310","NW","20","12","1017","30.04","-999","-999","-9999","-9999","","","","","0","0","0","0","0","0","AAXX 29211 33345 42998 03102 10127 20091 39972 40172 52007 555 10008"
"12:00 AM EEST on September 30, 2016","2016","09","30","00","00","Europe/Kiev","9:00 PM GMT on September 29, 2016","2016","09","29","21","00","UTC","8.0","46.4","8.0","46.4","100","7.2","4.5","-9999.0","-9999.0","240","WSW","6.0","3.7","1017","30.04","6.9","44.4","-9999","-9999","-9999.00","-9999.00","Unknown","unknown","0","0","0","0","0","0","METAR UKKK 292100Z 24002MPS 6000 NSC 08/08 Q1017 R26/CLRD70 NOSIG"
"12:30 AM EEST on September 30, 2016","2016","09","30","00","30","Europe/Kiev","9:30 PM GMT on September 29, 2016","2016","09","29","21","30","UTC","8.0","46.4","8.0","46.4","100","7.2","4.5","-9999.0","-9999.0","240","WSW","-9999.0","-9999.0","1017","30.04","6.9","44.4","-9999","-9999","-9999.00","-9999.00","Mist","hazy","0","0","0","0","0","0","METAR UKKK 292130Z 24002MPS 4600 BR NSC 08/08 Q1017 R26/CLRD70 NOSIG"
"1:00 AM EEST on September 30, 2016","2016","09","30","01","00","Europe/Kiev","10:00 PM GMT on September 29, 2016","2016","09","29","22","00","UTC","7.0","44.6","7.0","44.6","100","7.2","4.5","-9999.0","-9999.0","230","SW","-9999.0","-9999.0","1017","30.04","5.7","42.3","-9999","-9999","-9999.00","-9999.00","Mist","hazy","0","0","0","0","0","0","METAR UKKK 292200Z 23002MPS 4100 BR NSC 07/07 Q1017 R26/CLRD70 NOSIG"
"1:30 AM EEST on September 30, 2016","2016","09","30","01","30","Europe/Kiev","10:30 PM GMT on September 29, 2016","2016","09","29","22","30","UTC","7.0","44.6","7.0","44.6","100","7.2","4.5","-9999.0","-9999.0","240","WSW","8.0","5.0","1018","30.06","5.7","42.3","-9999","-9999","-9999.00","-9999.00","Unknown","unknown","0","0","0","0","0","0","METAR UKKK 292230Z 24002MPS 8000 NSC 07/07 Q1018 R26/CLRD70 NOSIG"
"2:00 AM EEST on September 30, 2016","2016","09","30","02","00","Europe/Kiev","11:00 PM GMT on September 29, 2016","2016","09","29","23","00","UTC","7.0","44.6","7.0","44.6","100","7.2","4.5","-9999.0","-9999.0","230","SW","2.6","1.6","1017","30.04","5.7","42.3","-9999","-9999","-9999.00","-9999.00","Mist","hazy","0","0","0","0","0","0","METAR UKKK 292300Z 23002MPS 2600 BR NSC 07/07 Q1017 R26/CLRD70 TEMPO 1000 BR BKN005"
"2:30 AM EEST on September 30, 2016","2016","09","30","02","30","Europe/Kiev","11:30 PM GMT on September 29, 2016","2016","09","29","23","30","UTC","6.0","42.8","6.0","42.8","100","7.2","4.5","-9999.0","-9999.0","230","SW","9.0","5.6","1017","30.04","4.5","40.2","-9999","-9999","-9999.00","-9999.00","Unknown","unknown","0","0","0","0","0","0","METAR UKKK 292330Z 23002MPS 9000 NSC 06/06 Q1017 R26/CLRD70 TEMPO 1000 BR BKN005"
"3:00 AM EEST on September 30, 2016","2016","09","30","03","00","Europe/Kiev","12:00 AM GMT on September 30, 2016","2016","09","30","00","00","UTC","12","53","9","48","78","7.2","4.5","","","310","NW","10","6","1018","30.06","-999","-999","-9999","-9999","","","","","0","0","0","0","0","0","AAXX 30001 33345 32997 03102 10117 20089 39977 40178 52005 555 10007"
"3:00 AM EEST on September 30, 2016","2016","09","30","03","00","Europe/Kiev","12:00 AM GMT on September 30, 2016","2016","09","30","00","00","UTC","6.0","42.8","6.0","42.8","100","7.2","4.5","-9999.0","-9999.0","240","WSW","5.0","3.1","1017","30.04","4.5","40.2","-9999","-9999","-9999.00","-9999.00","Mist","hazy","0","0","0","0","0","0","METAR UKKK 300000Z 24002MPS 5000 BR NSC 06/06 Q1017 R26/CLRD70 TEMPO 1000 BR BKN005"
"3:30 AM EEST on September 30, 2016","2016","09","30","03","30","Europe/Kiev","12:30 AM GMT on September 30, 2016","2016","09","30","00","30","UTC","7.0","44.6","7.0","44.6","100","7.2","4.5","-9999.0","-9999.0","240","WSW","7.0","4.3","1018","30.06","5.7","42.3","-9999","-9999","-9999.00","-9999.00","Unknown","unknown","0","0","0","0","0","0","METAR UKKK 300030Z 24002MPS 7000 NSC 07/07 Q1018 R26/CLRD70 TEMPO 1000 BR BKN005"
"4:00 AM EEST on September 30, 2016","2016","09","30","04","00","Europe/Kiev","1:00 AM GMT on September 30, 2016","2016","09","30","01","00","UTC","8.0","46.4","8.0","46.4","100","7.2","4.5","-9999.0","-9999.0","230","SW","7.0","4.3","1017","30.04","6.9","44.4","-9999","-9999","-9999.00","-9999.00","Unknown","unknown","0","0","0","0","0","0","METAR UKKK 300100Z 23002MPS 7000 NSC 08/08 Q1017 R26/CLRD70 NOSIG"
"4:30 AM EEST on September 30, 2016","2016","09","30","04","30","Europe/Kiev","1:30 AM GMT on September 30, 2016","2016","09","30","01","30","UTC","7.0","44.6","7.0","44.6","100","7.2","4.5","-9999.0","-9999.0","250","WSW","9.0","5.6","1017","30.04","5.7","42.3","-9999","-9999","-9999.00","-9999.00","Unknown","unknown","0","0","0","0","0","0","METAR UKKK 300130Z 25002MPS 9000 NSC 07/07 Q1017 R26/CLRD70 NOSIG"
"5:00 AM EEST on September 30, 2016","2016","09","30","05","00","Europe/Kiev","2:00 AM GMT on September 30, 2016","2016","09","30","02","00","UTC","7.0","44.6","7.0","44.6","100","3.6","2.2","-9999.0","-9999.0","220","SW","7.0","4.3","1017","30.04","-999","-999","-9999","-9999","-9999.00","-9999.00","Unknown","unknown","0","0","0","0","0","0","METAR UKKK 300200Z 22001MPS 7000 NSC 07/07 Q1017 R26/CLRD70 TEMPO 0400 FG VV001"
"5:30 AM EEST on September 30, 2016","2016","09","30","05","30","Europe/Kiev","2:30 AM GMT on September 30, 2016","2016","09","30","02","30","UTC","8.0","46.4","8.0","46.4","100","7.2","4.5","-9999.0","-9999.0","280","West","10.0","6.2","1017","30.04","6.9","44.4","-9999","-9999","-9999.00","-9999.00","Scattered Clouds","partlycloudy","0","0","0","0","0","0","METAR UKKK 300230Z 28002MPS 240V330 9999 SCT035 08/08 Q1017 R26/CLRD70 TEMPO 0400 FG VV001"
"6:00 AM EEST on September 30, 2016","2016","09","30","06","00","Europe/Kiev","3:00 AM GMT on September 30, 2016","2016","09","30","03","00","UTC","10","50","9","47","88","3.6","2.2","","","240","WSW","10","6","1018","30.05","-999","-999","-9999","-9999","","","Overcast","cloudy","0","0","0","0","0","0","AAXX 30031 33345 42497 82401 10102 20086 39974 40176 58003 885// 333 88617 555 10010"
"6:00 AM EEST on September 30, 2016","2016","09","30","06","00","Europe/Kiev","3:00 AM GMT on September 30, 2016","2016","09","30","03","00","UTC","9.0","48.2","9.0","48.2","100","7.2","4.5","-9999.0","-9999.0","250","WSW","10.0","6.2","1017","30.04","-999","-999","-9999","-9999","-9999.00","-9999.00","Mostly Cloudy","mostlycloudy","0","0","0","0","0","0","METAR UKKK 300300Z 25002MPS 9999 BKN040 09/09 Q1017 R26/CLRD70 NOSIG"
"6:30 AM EEST on September 30, 2016","2016","09","30","06","30","Europe/Kiev","3:30 AM GMT on September 30, 2016","2016","09","30","03","30","UTC","10.0","50.0","10.0","50.0","100","7.2","4.5","-9999.0","-9999.0","230","SW","10.0","6.2","1017","30.04","-999","-999","-9999","-9999","-9999.00","-9999.00","Mostly Cloudy","mostlycloudy","0","0","0","0","0","0","METAR UKKK 300330Z 23002MPS 9999 BKN040 10/10 Q1017 R26/CLRD70 NOSIG"
"7:00 AM EEST on September 30, 2016","2016","09","30","07","00","Europe/Kiev","4:00 AM GMT on September 30, 2016","2016","09","30","04","00","UTC","12.0","53.6","10.0","50.0","88","10.8","6.7","-9999.0","-9999.0","220","SW","10.0","6.2","1017","30.04","-999","-999","-9999","-9999","-9999.00","-9999.00","Mostly Cloudy","mostlycloudy","0","0","0","0","0","0","METAR UKKK 300400Z 22003MPS 9999 BKN040 12/10 Q1017 R26/CLRD70 NOSIG"
"7:30 AM EEST on September 30, 2016","2016","09","30","07","30","Europe/Kiev","4:30 AM GMT on September 30, 2016","2016","09","30","04","30","UTC","12.0","53.6","10.0","50.0","88","10.8","6.7","-9999.0","-9999.0","250","WSW","10.0","6.2","1017","30.04","-999","-999","-9999","-9999","-9999.00","-9999.00","Mostly Cloudy","mostlycloudy","0","0","0","0","0","0","METAR UKKK 300430Z 25003MPS 9999 BKN040 12/10 Q1017 R26/CLRD70 NOSIG"
"8:00 AM EEST on September 30, 2016","2016","09","30","08","00","Europe/Kiev","5:00 AM GMT on September 30, 2016","2016","09","30","05","00","UTC","13.0","55.4","10.0","50.0","82","10.8","6.7","-9999.0","-9999.0","230","SW","10.0","6.2","1017","30.04","-999","-999","-9999","-9999","-9999.00","-9999.00","Mostly Cloudy","mostlycloudy","0","0","0","0","0","0","METAR UKKK 300500Z 23003MPS 200V260 9999 BKN040 13/10 Q1017 R26/CLRD70 NOSIG"
"8:30 AM EEST on September 30, 2016","2016","09","30","08","30","Europe/Kiev","5:30 AM GMT on September 30, 2016","2016","09","30","05","30","UTC","13.0","55.4","11.0","51.8","88","10.8","6.7","-9999.0","-9999.0","240","WSW","10.0","6.2","1017","30.04","-999","-999","-9999","-9999","-9999.00","-9999.00","Mostly Cloudy","mostlycloudy","0","0","0","0","0","0","METAR UKKK 300530Z 24003MPS 9999 BKN040 13/11 Q1017 R26/CLRD70 NOSIG"
"9:00 AM EEST on September 30, 2016","2016","09","30","09","00","Europe/Kiev","6:00 AM GMT on September 30, 2016","2016","09","30","06","00","UTC","14","58","10","51","70","10.8","6.7","","","230","SW","20","12","1017","30.05","-999","-999","-9999","-9999","","","Mostly Cloudy","mostlycloudy","0","0","0","0","0","0","AAXX 30061 33345 32498 62303 10145 20105 39975 40174 53001 86500 333 20100 86617 555 10014"
"9:00 AM EEST on September 30, 2016","2016","09","30","09","00","Europe/Kiev","6:00 AM GMT on September 30, 2016","2016","09","30","06","00","UTC","15.0","59.0","12.0","53.6","82","10.8","6.7","-9999.0","-9999.0","220","SW","10.0","6.2","1017","30.04","-999","-999","-9999","-9999","-9999.00","-9999.00","Mostly Cloudy","mostlycloudy","0","0","0","0","0","0","METAR UKKK 300600Z 22003MPS 190V260 9999 SCT040 BKN080 15/12 Q1017 R26/CLRD70 NOSIG"
"9:30 AM EEST on September 30, 2016","2016","09","30","09","30","Europe/Kiev","6:30 AM GMT on September 30, 2016","2016","09","30","06","30","UTC","16.0","60.8","12.0","53.6","77","14.4","8.9","-9999.0","-9999.0","220","SW","10.0","6.2","1017","30.04","-999","-999","-9999","-9999","-9999.00","-9999.00","Mostly Cloudy","mostlycloudy","0","0","0","0","0","0","METAR UKKK 300630Z 22004MPS 9999 SCT040 BKN080 16/12 Q1017 R26/CLRD70 NOSIG"
"10:00 AM EEST on September 30, 2016","2016","09","30","10","00","Europe/Kiev","7:00 AM GMT on September 30, 2016","2016","09","30","07","00","UTC","18.0","64.4","12.0","53.6","68","14.4","8.9","-9999.0","-9999.0","220","SW","-9999.0","-9999.0","1017","30.04","-999","-999","-9999","-9999","-9999.00","-9999.00","Clear","clear","0","0","0","0","0","0","METAR UKKK 300700Z 22004MPS CAVOK 18/12 Q1017 R26/CLRD70 NOSIG"
"10:30 AM EEST on September 30, 2016","2016","09","30","10","30","Europe/Kiev","7:30 AM GMT on September 30, 2016","2016","09","30","07","30","UTC","19.0","66.2","13.0","55.4","68","18.0","11.2","-9999.0","-9999.0","220","SW","-9999.0","-9999.0","1017","30.04","-999","-999","-9999","-9999","-9999.00","-9999.00","Clear","clear","0","0","0","0","0","0","METAR UKKK 300730Z 22005MPS 200V260 CAVOK 19/13 Q1017 R26/CLRD70 NOSIG"
"11:00 AM EEST on September 30, 2016","2016","09","30","11","00","Europe/Kiev","8:00 AM GMT on September 30, 2016","2016","09","30","08","00","UTC","20.0","68.0","13.0","55.4","64","14.4","8.9","-9999.0","-9999.0","240","WSW","-9999.0","-9999.0","1017","30.04","-999","-999","-9999","-9999","-9999.00","-9999.00","Clear","clear","0","0","0","0","0","0","METAR UKKK 300800Z 24004MPS 200V260 CAVOK 20/13 Q1017 R26/CLRD70 NOSIG"
"11:30 AM EEST on September 30, 2016","2016","09","30","11","30","Europe/Kiev","8:30 AM GMT on September 30, 2016","2016","09","30","08","30","UTC","20.0","68.0","13.0","55.4","64","18.0","11.2","-9999.0","-9999.0","230","SW","-9999.0","-9999.0","1017","30.04","-999","-999","-9999","-9999","-9999.00","-9999.00","Clear","clear","0","0","0","0","0","0","METAR UKKK 300830Z 23005MPS 180V270 CAVOK 20/13 Q1017 R26/CLRD70 NOSIG"
"12:00 PM EEST on September 30, 2016","2016","09","30","12","00","Europe/Kiev","9:00 AM GMT on September 30, 2016","2016","09","30","09","00","UTC","21","70","12","53","45","18.0","11.2","","","260","West","20","12","1017","30.02","-999","-999","-9999","-9999","","","Clear","clear","0","0","0","0","0","0","AAXX 30091 33345 42998 72605 10209 20118 39971 40166 58004 80004 555 10028"
"12:00 PM EEST on September 30, 2016","2016","09","30","12","00","Europe/Kiev","9:00 AM GMT on September 30, 2016","2016","09","30","09","00","UTC","22.0","71.6","13.0","55.4","57","18.0","11.2","-9999.0","-9999.0","230","SW","-9999.0","-9999.0","1017","30.04","-999","-999","-9999","-9999","-9999.00","-9999.00","Clear","clear","0","0","0","0","0","0","METAR UKKK 300900Z 23005MPS 180V260 CAVOK 22/13 Q1017 R26/CLRD70 NOSIG"
"12:30 PM EEST on September 30, 2016","2016","09","30","12","30","Europe/Kiev","9:30 AM GMT on September 30, 2016","2016","09","30","09","30","UTC","22.0","71.6","13.0","55.4","57","21.6","13.4","-9999.0","-9999.0","250","WSW","-9999.0","-9999.0","1017","30.04","-999","-999","-9999","-9999","-9999.00","-9999.00","Clear","clear","0","0","0","0","0","0","METAR UKKK 300930Z 25006MPS CAVOK 22/13 Q1017 R26/CLRD70 NOSIG"
"1:00 PM EEST on September 30, 2016","2016","09","30","13","00","Europe/Kiev","10:00 AM GMT on September 30, 2016","2016","09","30","10","00","UTC","23.0","73.4","12.0","53.6","50","25.2","15.7","-9999.0","-9999.0","230","SW","-9999.0","-9999.0","1017","30.04","-999","-999","-9999","-9999","-9999.00","-9999.00","Clear","clear","0","0","0","0","0","0","METAR UKKK 301000Z 23007MPS 200V260 CAVOK 23/12 Q1017 R26/CLRD70 NOSIG"
"1:30 PM EEST on September 30, 2016","2016","09","30","13","30","Europe/Kiev","10:30 AM GMT on September 30, 2016","2016","09","30","10","30","UTC","23.0","73.4","12.0","53.6","50","21.6","13.4","-9999.0","-9999.0","220","SW","-9999.0","-9999.0","1016","30.01","-999","-999","-9999","-9999","-9999.00","-9999.00","Clear","clear","0","0","0","0","0","0","METAR UKKK 301030Z 22006MPS 190V250 CAVOK 23/12 Q1016 R26/CLRD70 NOSIG"
"2:00 PM EEST on September 30, 2016","2016","09","30","14","00","Europe/Kiev","11:00 AM GMT on September 30, 2016","2016","09","30","11","00","UTC","25.0","77.0","12.0","53.6","44","21.6","13.4","-9999.0","-9999.0","240","WSW","-9999.0","-9999.0","1016","30.01","-999","-999","-9999","-9999","-9999.00","-9999.00","Clear","clear","0","0","0","0","0","0","METAR UKKK 301100Z 24006MPS 200V270 CAVOK 25/12 Q1016 R26/CLRD70 NOSIG"
"2:30 PM EEST on September 30, 2016","2016","09","30","14","30","Europe/Kiev","11:30 AM GMT on September 30, 2016","2016","09","30","11","30","UTC","25.0","77.0","12.0","53.6","44","25.2","15.7","-9999.0","-9999.0","230","SW","-9999.0","-9999.0","1016","30.01","-999","-999","-9999","-9999","-9999.00","-9999.00","Clear","clear","0","0","0","0","0","0","METAR UKKK 301130Z 23007MPS 200V270 CAVOK 25/12 Q1016 R26/CLRD70 NOSIG"
"2:42 PM EEST on September 30, 2016","2016","09","30","14","42","Europe/Kiev","11:42 AM GMT on September 30, 2016","2016","09","30","11","42","UTC","25.0","77.0","12.0","53.6","44","25.2","15.7","43.2","26.8","230","SW","-9999.0","-9999.0","1016","30.01","-999","-999","-9999","-9999","-9999.00","-9999.00","Clear","clear","0","0","0","0","0","0","SPECI UKKK 301142Z 23007G12MPS 210V270 CAVOK 25/12 Q1016 R26/CLRD70 NOSIG"
"3:00 PM EEST on September 30, 2016","2016","09","30","15","00","Europe/Kiev","12:00 PM GMT on September 30, 2016","2016","09","30","12","00","UTC","25","78","12","54","33","18.0","11.2","","","260","West","20","12","1015","29.98","-999","-999","-9999","-9999","","","Clear","clear","0","0","0","0","0","0","AAXX 30121 33345 32998 52605 10254 20122 39961 40152 57010 80001 555 10033"
"3:00 PM EEST on September 30, 2016","2016","09","30","15","00","Europe/Kiev","12:00 PM GMT on September 30, 2016","2016","09","30","12","00","UTC","25.0","77.0","12.0","53.6","44","28.8","17.9","-9999.0","-9999.0","250","WSW","-9999.0","-9999.0","1016","30.01","-999","-999","-9999","-9999","-9999.00","-9999.00","Clear","clear","0","0","0","0","0","0","METAR UKKK 301200Z 25008MPS CAVOK 25/12 Q1016 R26/CLRD70 NOSIG"
"3:30 PM EEST on September 30, 2016","2016","09","30","15","30","Europe/Kiev","12:30 PM GMT on September 30, 2016","2016","09","30","12","30","UTC","25.0","77.0","12.0","53.6","44","25.2","15.7","-9999.0","-9999.0","250","WSW","-9999.0","-9999.0","1016","30.01","-999","-999","-9999","-9999","-9999.00","-9999.00","Clear","clear","0","0","0","0","0","0","METAR UKKK 301230Z 25007MPS CAVOK 25/12 Q1016 R26/CLRD70 NOSIG"
"4:00 PM EEST on September 30, 2016","2016","09","30","16","00","Europe/Kiev","1:00 PM GMT on September 30, 2016","2016","09","30","13","00","UTC","24.0","75.2","11.0","51.8","44","25.2","15.7","-9999.0","-9999.0","240","WSW","-9999.0","-9999.0","1015","29.98","-999","-999","-9999","-9999","-9999.00","-9999.00","Clear","clear","0","0","0","0","0","0","METAR UKKK 301300Z 24007MPS CAVOK 24/11 Q1015 R26/CLRD70 NOSIG"
"4:30 PM EEST on September 30, 2016","2016","09","30","16","30","Europe/Kiev","1:30 PM GMT on September 30, 2016","2016","09","30","13","30","UTC","25.0","77.0","12.0","53.6","44","21.6","13.4","-9999.0","-9999.0","240","WSW","-9999.0","-9999.0","1015","29.98","-999","-999","-9999","-9999","-9999.00","-9999.00","Clear","clear","0","0","0","0","0","0","METAR UKKK 301330Z 24006MPS 210V270 CAVOK 25/12 Q1015 R26/CLRD70 NOSIG"
"5:00 PM EEST on September 30, 2016","2016","09","30","17","00","Europe/Kiev","2:00 PM GMT on September 30, 2016","2016","09","30","14","00","UTC","25.0","77.0","12.0","53.6","44","21.6","13.4","-9999.0","-9999.0","250","WSW","-9999.0","-9999.0","1015","29.98","-999","-999","-9999","-9999","-9999.00","-9999.00","Clear","clear","0","0","0","0","0","0","METAR UKKK 301400Z 25006MPS 210V270 CAVOK 25/12 Q1015 R26/CLRD70 NOSIG"
"5:30 PM EEST on September 30, 2016","2016","09","30","17","30","Europe/Kiev","2:30 PM GMT on September 30, 2016","2016","09","30","14","30","UTC","24.0","75.2","12.0","53.6","47","21.6","13.4","-9999.0","-9999.0","240","WSW","-9999.0","-9999.0","1015","29.98","-999","-999","-9999","-9999","-9999.00","-9999.00","Clear","clear","0","0","0","0","0","0","METAR UKKK 301430Z 24006MPS 210V270 CAVOK 24/12 Q1015 R26/CLRD70 NOSIG"
"6:00 PM EEST on September 30, 2016","2016","09","30","18","00","Europe/Kiev","3:00 PM GMT on September 30, 2016","2016","09","30","15","00","UTC","24","76","11","51","31","10.8","6.7","","","250","WSW","20","12","1015","29.96","-999","-999","-9999","-9999","","","Clear","clear","0","0","0","0","0","0","AAXX 30151 33345 42998 32503 10243 20107 39954 40146 57007 80001 555 10022"
"6:00 PM EEST on September 30, 2016","2016","09","30","18","00","Europe/Kiev","3:00 PM GMT on September 30, 2016","2016","09","30","15","00","UTC","24.0","75.2","12.0","53.6","47","14.4","8.9","-9999.0","-9999.0","230","SW","-9999.0","-9999.0","1015","29.98","-999","-999","-9999","-9999","-9999.00","-9999.00","Clear","clear","0","0","0","0","0","0","METAR UKKK 301500Z 23004MPS CAVOK 24/12 Q1015 R26/CLRD70 NOSIG"
"6:30 PM EEST on September 30, 2016","2016","09","30","18","30","Europe/Kiev","3:30 PM GMT on September 30, 2016","2016","09","30","15","30","UTC","22.0","71.6","12.0","53.6","53","10.8","6.7","-9999.0","-9999.0","230","SW","-9999.0","-9999.0","1015","29.98","-999","-999","-9999","-9999","-9999.00","-9999.00","Clear","clear","0","0","0","0","0","0","METAR UKKK 301530Z 23003MPS CAVOK 22/12 Q1015 R26/CLRD70 NOSIG"
"7:00 PM EEST on September 30, 2016","2016","09","30","19","00","Europe/Kiev","4:00 PM GMT on September 30, 2016","2016","09","30","16","00","UTC","21.0","69.8","12.0","53.6","56","10.8","6.7","-9999.0","-9999.0","230","SW","-9999.0","-9999.0","1015","29.98","-999","-999","-9999","-9999","-9999.00","-9999.00","Clear","clear","0","0","0","0","0","0","METAR UKKK 301600Z 23003MPS CAVOK 21/12 Q1015 R26/CLRD70 NOSIG"
"7:30 PM EEST on September 30, 2016","2016","09","30","19","30","Europe/Kiev","4:30 PM GMT on September 30, 2016","2016","09","30","16","30","UTC","21.0","69.8","12.0","53.6","56","10.8","6.7","-9999.0","-9999.0","230","SW","7.0","4.3","1016","30.01","-999","-999","-9999","-9999","-9999.00","-9999.00","Unknown","unknown","0","0","0","0","0","0","METAR UKKK 301630Z 23003MPS 7000 NSC 21/12 Q1016 R26/CLRD70 NOSIG"
"8:00 PM EEST on September 30, 2016","2016","09","30","20","00","Europe/Kiev","5:00 PM GMT on September 30, 2016","2016","09","30","17","00","UTC","20.0","68.0","12.0","53.6","60","10.8","6.7","-9999.0","-9999.0","220","SW","-9999.0","-9999.0","1016","30.01","-999","-999","-9999","-9999","-9999.00","-9999.00","Clear","clear","0","0","0","0","0","0","METAR UKKK 301700Z 22003MPS CAVOK 20/12 Q1016 R26/CLRD70 NOSIG"
"8:30 PM EEST on September 30, 2016","2016","09","30","20","30","Europe/Kiev","5:30 PM GMT on September 30, 2016","2016","09","30","17","30","UTC","20.0","68.0","12.0","53.6","60","10.8","6.7","-9999.0","-9999.0","220","SW","-9999.0","-9999.0","1016","30.01","-999","-999","-9999","-9999","-9999.00","-9999.00","Clear","clear","0","0","0","0","0","0","METAR UKKK 301730Z 22003MPS CAVOK 20/12 Q1016 R26/CLRD70 NOSIG"
"9:00 PM EEST on September 30, 2016","2016","09","30","21","00","Europe/Kiev","6:00 PM GMT on September 30, 2016","2016","09","30","18","00","UTC","20","69","11","52","45","10.8","6.7","","","250","WSW","20","12","1016","30.00","-999","-999","-9999","-9999","","","Clear","clear","0","0","0","0","0","0","AAXX 30181 33345 32998 22503 10203 20113 39963 40158 53009 80001 333 10258 555 10016"
"9:00 PM EEST on September 30, 2016","2016","09","30","21","00","Europe/Kiev","6:00 PM GMT on September 30, 2016","2016","09","30","18","00","UTC","20.0","68.0","12.0","53.6","60","14.4","8.9","-9999.0","-9999.0","230","SW","-9999.0","-9999.0","1016","30.01","-999","-999","-9999","-9999","-9999.00","-9999.00","Clear","clear","0","0","0","0","0","0","METAR UKKK 301800Z 23004MPS CAVOK 20/12 Q1016 R26/CLRD70 NOSIG"
"9:30 PM EEST on September 30, 2016","2016","09","30","21","30","Europe/Kiev","6:30 PM GMT on September 30, 2016","2016","09","30","18","30","UTC","19.0","66.2","12.0","53.6","64","10.8","6.7","-9999.0","-9999.0","230","SW","-9999.0","-9999.0","1016","30.01","-999","-999","-9999","-9999","-9999.00","-9999.00","Clear","clear","0","0","0","0","0","0","METAR UKKK 301830Z 23003MPS CAVOK 19/12 Q1016 R26/CLRD70 NOSIG"
"10:00 PM EEST on September 30, 2016","2016","09","30","22","00","Europe/Kiev","7:00 PM GMT on September 30, 2016","2016","09","30","19","00","UTC","19.0","66.2","12.0","53.6","64","10.8","6.7","-9999.0","-9999.0","230","SW","-9999.0","-9999.0","1016","30.01","-999","-999","-9999","-9999","-9999.00","-9999.00","Clear","clear","0","0","0","0","0","0","METAR UKKK 301900Z 23003MPS CAVOK 19/12 Q1016 R26/CLRD70 NOSIG"
"10:30 PM EEST on September 30, 2016","2016","09","30","22","30","Europe/Kiev","7:30 PM GMT on September 30, 2016","2016","09","30","19","30","UTC","18.0","64.4","11.0","51.8","64","10.8","6.7","-9999.0","-9999.0","230","SW","-9999.0","-9999.0","1016","30.01","-999","-999","-9999","-9999","-9999.00","-9999.00","Clear","clear","0","0","0","0","0","0","METAR UKKK 301930Z 23003MPS CAVOK 18/11 Q1016 R26/CLRD70 NOSIG"
"11:00 PM EEST on September 30, 2016","2016","09","30","23","00","Europe/Kiev","8:00 PM GMT on September 30, 2016","2016","09","30","20","00","UTC","17.0","62.6","12.0","53.6","72","10.8","6.7","-9999.0","-9999.0","240","WSW","-9999.0","-9999.0","1016","30.01","-999","-999","-9999","-9999","-9999.00","-9999.00","Clear","clear","0","0","0","0","0","0","METAR UKKK 302000Z 24003MPS CAVOK 17/12 Q1016 R26/CLRD70 NOSIG"
"11:30 PM EEST on September 30, 2016","2016","09","30","23","30","Europe/Kiev","8:30 PM GMT on September 30, 2016","2016","09","30","20","30","UTC","17.0","62.6","11.0","51.8","68","10.8","6.7","-9999.0","-9999.0","230","SW","-9999.0","-9999.0","1016","30.01","-999","-999","-9999","-9999","-9999.00","-9999.00","Clear","clear","0","0","0","0","0","0","METAR UKKK 302030Z 23003MPS CAVOK 17/11 Q1016 R26/CLRD70 NOSIG"
