"date.pretty","date.year","date.mon","date.mday","date.hour","date.min","date.tzname","utcdate.pretty","utcdate.year","utcdate.mon","utcdate.mday","utcdate.hour","utcdate.min","utcdate.tzname","tempm","tempi","dewptm","dewpti","hum","wspdm","wspdi","wgustm","wgusti","wdird","wdire","vism","visi","pressurem","pressurei","windchillm","windchilli","heatindexm","heatindexi","precipm","precipi","conds","icon","fog","rain","snow","hail","thunder","tornado","metar"
"12:00 AM EEST on July 01, 2016","2016","07","01","00","00","Europe/Kiev","9:00 PM GMT on June 30, 2016","2016","06","30","21","00","UTC","23","74","18","65","67","0.0","0.0","","","","","20","12","1014","29.96","-999","-999","-9999","-9999","","","","","0","0","0","0","0","0","AAXX 30211 33345 42998 00000 10233 20184 39951 40143 52007 555 10022"
"12:00 AM EEST on July 01, 2016","2016","07","01","00","00","Europe/Kiev","9:00 PM GMT on June 30, 2016","2016","06","30","21","00","UTC","20.0","68.0","19.0","66.2","94","3.6","2.2","-9999.0","-9999.0","0","Variable","9.0","5.6","1015","29.98","-999","-999","-9999","-9999","-9999.00","-9999.00","Clear","clear","0","0","0","0","0","0","METAR UKKK 302100Z VRB01MPS 9000 SKC 20/19 Q1015 R08/CLRD70 NOSIG"
"12:30 AM EEST on July 01, 2016","2016","07","01","00","30","Europe/Kiev","9:30 PM GMT on June 30, 2016","2016","06","30","21","30","UTC","21.0","69.8","19.0","66.2","88","0.0","0.0","-9999.0","-9999.0","0","North","-9999.0","-9999.0","1015","29.98","-999","-999","-9999","-9999","-9999.00","-9999.00","Clear","clear","0","0","0","0","0","0","METAR UKKK 302130Z 00000MPS CAVOK 21/19 Q1015 R08/CLRD70 NOSIG"
"1:00 AM EEST on July 01, 2016","2016","07","01","01","00","Europe/Kiev","10:00 PM GMT on June 30, 2016","2016","06","30","22","00","UTC","22.0","71.6","18.0","64.4","78","7.2","4.5","-9999.0","-9999.0","250","WSW","-9999.0","-9999.0","1015","29.98","-999","-999","-9999","-9999","-9999.00","-9999.00","Clear","clear","0","0","0","0","0","0","METAR UKKK 302200Z 25002MPS CAVOK 22/18 Q1015 R08/CLRD70 NOSIG"
"1:30 AM EEST on July 01, 2016","2016","07","01","01","30","Europe/Kiev","10:30 PM GMT on June 30, 2016","2016","06","30","22","30","UTC","21.0","69.8","18.0","64.4","83","3.6","2.2","-9999.0","-9999.0","270","West","-9999.0","-9999.0","1015","29.98","-999","-999","-9999","-9999","-9999.00","-9999.00","Clear","clear","0","0","0","0","0","0","METAR UKKK 302230Z 27001MPS CAVOK 21/18 Q1015 R08/CLRD70 NOSIG"
"2:00 AM EEST on July 01, 2016","2016","07","01","02","00","Europe/Kiev","11:00 PM GMT on June 30, 2016","2016","06","30","23","00","UTC","20.0","68.0","18.0","64.4","88","3.6","2.2","-9999.0","-9999.0","0","Variable","-9999.0","-9999.0","1015","29.98","-999","-999","-9999","-9999","-9999.00","-9999.00","Clear","clear","0","0","0","0","0","0","METAR UKKK 302300Z VRB01MPS CAVOK 20/18 Q1015 R08/CLRD70 NOSIG"
"2:30 AM EEST on July 01, 2016","2016","07","01","02","30","Europe/Kiev","11:30 PM GMT on June 30, 2016","2016","06","30","23","30","UTC","20.0","68.0","19.0","66.2","94","3.6","2.2","-9999.0","-9999.0","0","Variable","-9999.0","-9999.0","1015","29.98","-999","-999","-9999","-9999","-9999.00","-9999.00","Clear","clear","0","0","0","0","0","0","METAR UKKK 302330Z VRB01MPS CAVOK 20/19 Q1015 R08/CLRD70 NOSIG"
"3:00 AM EEST on July 01, 2016","2016","07","01","03","00","Europe/Kiev","12:00 AM GMT on July 01, 2016","2016","07","01","00","00","UTC","22","71","19","65","78","0.0","0.0","","","","","20","12","1015","29.97","-999","-999","-9999","-9999","","","","","0","0","0","0","0","0","AAXX 01001 33345 32998 00000 10216 20186 39954 40147 52003 555 10020"
"3:00 AM EEST on July 01, 2016","2016","07","01","03","00","Europe/Kiev","12:00 AM GMT on July 01, 2016","2016","07","01","00","00","UTC","20.0","68.0","18.0","64.4","88","3.6","2.2","-9999.0","-9999.0","0","Variable","-9999.0","-9999.0","1015","29.98","-999","-999","-9999","-9999","-9999.00","-9999.00","Clear","clear","0","0","0","0","0","0","METAR UKKK 010000Z VRB01MPS CAVOK 20/18 Q1015 R08/CLRD70 NOSIG"
"3:30 AM EEST on July 01, 2016","2016","07","01","03","30","Europe/Kiev","12:30 AM GMT on July 01, 2016","2016","07","01","00","30","UTC","19.0","66.2","18.0","64.4","94","0.0","0.0","-9999.0","-9999.0","0","North","-9999.0","-9999.0","1015","29.98","-999","-999","-9999","-9999","-9999.00","-9999.00","Clear","clear","0","0","0","0","0","0","METAR UKKK 010030Z 00000MPS CAVOK 19/18 Q1015 R08/CLRD70 NOSIG"
"4:00 AM EEST on July 01, 2016","2016","07","01","04","00","Europe/Kiev","1:00 AM GMT on July 01, 2016","2016","07","01","01","00","UTC","19.0","66.2","19.0","66.2","100","0.0","0.0","-9999.0","-9999.0","0","North","9.0","5.6","1015","29.98","-999","-999","-9999","-9999","-9999.00","-9999.00","Clear","clear","0","0","0","0","0","0","METAR UKKK 010100Z 00000MPS 9000 SKC 19/19 Q1015 R08/CLRD70 NOSIG"
"4:30 AM EEST on July 01, 2016","2016","07","01","04","30","Europe/Kiev","1:30 AM GMT on July 01, 2016","2016","07","01","01","30","UTC","19.0","66.2","18.0","64.4","94","3.6","2.2","-9999.0","-9999.0","0","Variable","-9999.0","-9999.0","1015","29.98","-999","-999","-9999","-9999","-9999.00","-9999.00","Clear","clear","0","0","0","0","0","0","METAR UKKK 010130Z VRB01MPS CAVOK 19/18 Q1015 R08/CLRD70 NOSIG"
"5:00 AM EEST on July 01, 2016","2016","07","01","05","00","Europe/Kiev","2:00 AM GMT on July 01, 2016","2016","07","01","02","00","UTC","18.0","64.4","18.0","64.4","100","7.2","4.5","-9999.0","-9999.0","10","North","-9999.0","-9999.0","1015","29.98","-999","-999","-9999","-9999","-9999.00","-9999.00","Clear","clear","0","0","0","0","0","0","METAR UKKK 010200Z 01002MPS CAVOK 18/18 Q1015 R08/CLRD70 NOSIG"
"5:30 AM EEST on July 01, 2016","2016","07","01","05","30","Europe/Kiev","2:30 AM GMT on July 01, 2016","2016","07","01","02","30","UTC","19.0","66.2","18.0","64.4","94","0.0","0.0","-9999.0","-9999.0","0","North","-9999.0","-9999.0","1015","29.98","-999","-999","-9999","-9999","-9999.00","-9999.00","Clear","clear","0","0","0","0","0","0","METAR UKKK 010230Z 00000MPS CAVOK 19/18 Q1015 R08/CLRD70 NOSIG"
"6:00 AM EEST on July 01, 2016","2016","07","01","06","00","Europe/Kiev","3:00 AM GMT on July 01, 2016","2016","07","01","03","00","UTC","21","69","19","66","86","7.2","4.5","","","30","NNE","4","2","1015","29.99","-999","-999","-9999","-9999","","","Mist","hazy","0","0","0","0","0","0","AAXX 01031 33345 41996 00302 10207 20188 39960 40154 52006 71000 555 10021"
"6:00 AM EEST on July 01, 2016","2016","07","01","06","00","Europe/Kiev","3:00 AM GMT on July 01, 2016","2016","07","01","03","00","UTC","20.0","68.0","19.0","66.2","94","3.6","2.2","-9999.0","-9999.0","0","Variable","-9999.0","-9999.0","1016","30.01","-999","-999","-9999","-9999","-9999.00","-9999.00","Clear","clear","0","0","0","0","0","0","METAR UKKK 010300Z VRB01MPS CAVOK 20/19 Q1016 R08/CLRD70 NOSIG"
"6:30 AM EEST on July 01, 2016","2016","07","01","06","30","Europe/Kiev","3:30 AM GMT on July 01, 2016","2016","07","01","03","30","UTC","22.0","71.6","20.0","68.0","88","0.0","0.0","-9999.0","-9999.0","0","North","-9999.0","-9999.0","1016","30.01","-999","-999","-9999","-9999","-9999.00","-9999.00","Clear","clear","0","0","0","0","0","0","METAR UKKK 010330Z 00000MPS CAVOK 22/20 Q1016 R08/CLRD70 NOSIG"
"7:00 AM EEST on July 01, 2016","2016","07","01","07","00","Europe/Kiev","4:00 AM GMT on July 01, 2016","2016","07","01","04","00","UTC","23.0","73.4","20.0","68.0","83","10.8","6.7","-9999.0","-9999.0","60","ENE","-9999.0","-9999.0","1016","30.01","-999","-999","-9999","-9999","-9999.00","-9999.00","Clear","clear","0","0","0","0","0","0","METAR UKKK 010400Z 06003MPS CAVOK 23/20 Q1016 R08/CLRD70 NOSIG"
"7:30 AM EEST on July 01, 2016","2016","07","01","07","30","Europe/Kiev","4:30 AM GMT on July 01, 2016","2016","07","01","04","30","UTC","23.0","73.4","20.0","68.0","83","7.2","4.5","-9999.0","-9999.0","70","ENE","-9999.0","-9999.0","1016","30.01","-999","-999","-9999","-9999","-9999.00","-9999.00","Clear","clear","0","0","0","0","0","0","METAR UKKK 010430Z 07002MPS CAVOK 23/20 Q1016 R08/CLRD70 NOSIG"
"8:00 AM EEST on July 01, 2016","2016","07","01","08","00","Europe/Kiev","5:00 AM GMT on July 01, 2016","2016","07","01","05","00","UTC","24.0","75.2","20.0","68.0","78","7.2","4.5","-9999.0","-9999.0","60","ENE","-9999.0","-9999.0","1016","30.01","-999","-999","-9999","-9999","-9999.00","-9999.00","Clear","clear","0","0","0","0","0","0","METAR UKKK 010500Z 06002MPS 010V110 CAVOK 24/20 Q1016 R08/CLRD70 NOSIG"
"8:30 AM EEST on July 01, 2016","2016","07","01","08","30","Europe/Kiev","5:30 AM GMT on July 01, 2016","2016","07","01","05","30","UTC","25.0","77.0","20.0","68.0","74","14.4","8.9","-9999.0","-9999.0","40","NE","9.0","5.6","1016","30.01","-999","-999","-9999","-9999","-9999.00","-9999.00","Scattered Clouds","partlycloudy","0","0","0","0","0","0","METAR UKKK 010530Z 04004MPS 010V070 9000 SCT026 25/20 Q1016 R08/CLRD70 NOSIG"
"9:00 AM EEST on July 01, 2016","2016","07","01","09","00","Europe/Kiev","6:00 AM GMT on July 01, 2016","2016","07","01","06","00","UTC","25","76","20","67","68","7.2","4.5","","","20","NNE","20","12","1016","29.99","-999","-999","-9999","-9999","","","Partly Cloudy","partlycloudy","0","0","0","0","0","0","AAXX 01061 33345 32698 50202 10247 20196 39965 40156 52005 84801 333 20205 555 10040"
"9:00 AM EEST on July 01, 2016","2016","07","01","09","00","Europe/Kiev","6:00 AM GMT on July 01, 2016","2016","07","01","06","00","UTC","25.0","77.0","19.0","66.2","69","10.8","6.7","-9999.0","-9999.0","40","NE","10.0","6.2","1016","30.01","-999","-999","-9999","-9999","-9999.00","-9999.00","Scattered Clouds","partlycloudy","0","0","0","0","0","0","METAR UKKK 010600Z 04003MPS 360V070 9999 SCT023 25/19 Q1016 R08/CLRD70 NOSIG"
"9:30 AM EEST on July 01, 2016","2016","07","01","09","30","Europe/Kiev","6:30 AM GMT on July 01, 2016","2016","07","01","06","30","UTC","26.0","78.8","19.0","66.2","65","14.4","8.9","-9999.0","-9999.0","30","NNE","10.0","6.2","1016","30.01","-999","-999","-9999","-9999","-9999.00","-9999.00","Mostly Cloudy","mostlycloudy","0","0","0","0","0","0","METAR UKKK 010630Z 03004MPS 360V070 9999 BKN026 26/19 Q1016 R08/CLRD70 NOSIG"
"10:00 AM EEST on July 01, 2016","2016","07","01","10","00","Europe/Kiev","7:00 AM GMT on July 01, 2016","2016","07","01","07","00","UTC","26.0","78.8","19.0","66.2","65","10.8","6.7","-9999.0","-9999.0","30","NNE","10.0","6.2","1016","30.01","-999","-999","-9999","-9999","-9999.00","-9999.00","Mostly Cloudy","mostlycloudy","0","0","0","0","0","0","METAR UKKK 010700Z 03003MPS 330V060 9999 BKN029 26/19 Q1016 R08/CLRD70 NOSIG"
"10:30 AM EEST on July 01, 2016","2016","07","01","10","30","Europe/Kiev","7:30 AM GMT on July 01, 2016","2016","07","01","07","30","UTC","27.0","80.6","19.0","66.2","61","7.2","4.5","-9999.0","-9999.0","40","NE","10.0","6.2","1016","30.01","-999","-999","28.2","82.7","-9999.00","-9999.00","Mostly Cloudy","mostlycloudy","0","0","0","0","0","0","METAR UKKK 010730Z 04002MPS 9999 BKN031 27/19 Q1016 R08/CLRD70 NOSIG"
"11:00 AM EEST on July 01, 2016","2016","07","01","11","00","Europe/Kiev","8:00 AM GMT on July 01, 2016","2016","07","01","08","00","UTC","27.0","80.6","19.0","66.2","61","10.8","6.7","-9999.0","-9999.0","40","NE","10.0","6.2","1016","30.01","-999","-999","28.2","82.7","-9999.00","-9999.00","Mostly Cloudy","mostlycloudy","0","0","0","0","0","0","METAR UKKK 010800Z 04003MPS 350V100 9999 BKN031 27/19 Q1016 R08/CLRD70 NOSIG"
"11:30 AM EEST on July 01, 2016","2016","07","01","11","30","Europe/Kiev","8:30 AM GMT on July 01, 2016","2016","07","01","08","30","UTC","27.0","80.6","18.0","64.4","58","7.2","4.5","-9999.0","-9999.0","30","NNE","10.0","6.2","1016","30.01","-999","-999","27.9","82.3","-9999.00","-9999.00","Mostly Cloudy","mostlycloudy","0","0","0","0","0","0","METAR UKKK 010830Z 03002MPS 360V090 9999 BKN043 27/18 Q1016 R08/CLRD70 NOSIG"
"12:00 PM EEST on July 01, 2016","2016","07","01","12","00","Europe/Kiev","9:00 AM GMT on July 01, 2016","2016","07","01","09","00","UTC","27","81","17","63","45","7.2","4.5","","","30","NNE","20","12","1016","30.00","-999","-999","-9999","-9999","","","Mostly Cloudy","mostlycloudy","0","0","0","0","0","0","AAXX 01091 33345 42598 60302 10274 20174 39969 40159 52004 86900 555 10051"
"12:00 PM EEST on July 01, 2016","2016","07","01","12","00","Europe/Kiev","9:00 AM GMT on July 01, 2016","2016","07","01","09","00","UTC","28.0","82.4","18.0","64.4","54","10.8","6.7","-9999.0","-9999.0","30","NNE","10.0","6.2","1016","30.01","-999","-999","28.8","83.9","-9999.00","-9999.00","Mostly Cloudy","mostlycloudy","0","0","0","0","0","0","METAR UKKK 010900Z 03003MPS 340V140 9999 BKN040 28/18 Q1016 R08/CLRD70 NOSIG"
"12:30 PM EEST on July 01, 2016","2016","07","01","12","30","Europe/Kiev","9:30 AM GMT on July 01, 2016","2016","07","01","09","30","UTC","28.0","82.4","18.0","64.4","54","7.2","4.5","-9999.0","-9999.0","60","ENE","10.0","6.2","1016","30.01","-999","-999","28.8","83.9","-9999.00","-9999.00","Mostly Cloudy","mostlycloudy","0","0","0","0","0","0","METAR UKKK 010930Z 06002MPS 360V110 9999 BKN040 28/18 Q1016 R08/CLRD70 NOSIG"
"1:00 PM EEST on July 01, 2016","2016","07","01","13","00","Europe/Kiev","10:00 AM GMT on July 01, 2016","2016","07","01","10","00","UTC","27.0","80.6","19.0","66.2","61","10.8","6.7","-9999.0","-9999.0","50","NE","10.0","6.2","1016","30.01","-999","-999","28.2","82.7","-9999.00","-9999.00","Mostly Cloudy","mostlycloudy","0","0","0","0","0","0","METAR UKKK 011000Z 05003MPS 9999 BKN040 27/19 Q1016 R08/CLRD70 NOSIG"
"1:30 PM EEST on July 01, 2016","2016","07","01","13","30","Europe/Kiev","10:30 AM GMT on July 01, 2016","2016","07","01","10","30","UTC","27.0","80.6","18.0","64.4","58","10.8","6.7","-9999.0","-9999.0","40","NE","10.0","6.2","1016","30.01","-999","-999","27.9","82.3","-9999.00","-9999.00","Mostly Cloudy","mostlycloudy","0","0","0","0","0","0","METAR UKKK 011030Z 04003MPS 350V100 9999 BKN045 27/18 Q1016 R08/CLRD70 NOSIG"
"2:00 PM EEST on July 01, 2016","2016","07","01","14","00","Europe/Kiev","11:00 AM GMT on July 01, 2016","2016","07","01","11","00","UTC","29.0","84.2","17.0","62.6","48","10.8","6.7","-9999.0","-9999.0","80","East","-9999.0","-9999.0","1016","30.01","-999","-999","29.4","85.0","-9999.00","-9999.00","Clear","clear","0","0","0","0","0","0","METAR UKKK 011100Z 08003MPS 040V110 CAVOK 29/17 Q1016 R08/CLRD70 NOSIG"
"2:30 PM EEST on July 01, 2016","2016","07","01","14","30","Europe/Kiev","11:30 AM GMT on July 01, 2016","2016","07","01","11","30","UTC","30.0","86.0","19.0","66.2","51","7.2","4.5","-9999.0","-9999.0","80","East","-9999.0","-9999.0","1016","30.01","-999","-999","31.2","88.2","-9999.00","-9999.00","Clear","clear","0","0","0","0","0","0","METAR UKKK 011130Z 08002MPS CAVOK 30/19 Q1016 R08/CLRD70 NOSIG"
"3:00 PM EEST on July 01, 2016","2016","07","01","15","00","Europe/Kiev","12:00 PM GMT on July 01, 2016","2016","07","01","12","00","UTC","29","84","17","62","38","7.2","4.5","","","40","NE","20","12","1015","29.99","-999","-999","-9999","-9999","","","Mostly Cloudy","mostlycloudy","0","0","0","0","0","0","AAXX 01121 33345 32598 60402 10288 20169 39964 40153 58005 86900 555 10053"
"3:00 PM EEST on July 01, 2016","2016","07","01","15","00","Europe/Kiev","12:00 PM GMT on July 01, 2016","2016","07","01","12","00","UTC","30.0","86.0","17.0","62.6","45","3.6","2.2","-9999.0","-9999.0","0","Variable","-9999.0","-9999.0","1016","30.01","-999","-999","30.3","86.6","-9999.00","-9999.00","Clear","clear","0","0","0","0","0","0","METAR UKKK 011200Z VRB01MPS CAVOK 30/17 Q1016 R08/CLRD70 NOSIG"
"3:30 PM EEST on July 01, 2016","2016","07","01","15","30","Europe/Kiev","12:30 PM GMT on July 01, 2016","2016","07","01","12","30","UTC","30.0","86.0","18.0","64.4","48","10.8","6.7","-9999.0","-9999.0","100","East","-9999.0","-9999.0","1016","30.01","-999","-999","30.7","87.3","-9999.00","-9999.00","Clear","clear","0","0","0","0","0","0","METAR UKKK 011230Z 10003MPS 070V130 CAVOK 30/18 Q1016 R08/CLRD70 NOSIG"
"4:00 PM EEST on July 01, 2016","2016","07","01","16","00","Europe/Kiev","1:00 PM GMT on July 01, 2016","2016","07","01","13","00","UTC","29.0","84.2","19.0","66.2","55","10.8","6.7","-9999.0","-9999.0","70","ENE","10.0","6.2","1016","30.01","-999","-999","30.3","86.6","-9999.00","-9999.00","Mostly Cloudy","mostlycloudy","0","0","0","0","0","0","METAR UKKK 011300Z 07003MPS 010V110 9999 FEW030CB BKN050 29/19 Q1016 R08/CLRD70 NOSIG"
"4:30 PM EEST on July 01, 2016","2016","07","01","16","30","Europe/Kiev","1:30 PM GMT on July 01, 2016","2016","07","01","13","30","UTC","28.0","82.4","18.0","64.4","54","14.4","8.9","-9999.0","-9999.0","100","East","10.0","6.2","1016","30.01","-999","-999","28.8","83.9","-9999.00","-9999.00","Mostly Cloudy","mostlycloudy","0","0","0","0","0","0","METAR UKKK 011330Z 10004MPS 9999 FEW030CB BKN050 28/18 Q1016 R08/CLRD70 NOSIG"
"5:00 PM EEST on July 01, 2016","2016","07","01","17","00","Europe/Kiev","2:00 PM GMT on July 01, 2016","2016","07","01","14","00","UTC","29.0","84.2","18.0","64.4","51","7.2","4.5","-9999.0","-9999.0","130","SE","10.0","6.2","1016","30.01","-999","-999","29.8","85.6","-9999.00","-9999.00","Mostly Cloudy","mostlycloudy","0","0","0","0","0","0","METAR UKKK 011400Z 13002MPS 070V190 9999 FEW030CB BKN050 29/18 Q1016 R08/CLRD70 NOSIG"
"5:30 PM EEST on July 01, 2016","2016","07","01","17","30","Europe/Kiev","2:30 PM GMT on July 01, 2016","2016","07","01","14","30","UTC","28.0","82.4","17.0","62.6","51","10.8","6.7","-9999.0","-9999.0","70","ENE","10.0","6.2","1015","29.98","-999","-999","28.5","83.4","-9999.00","-9999.00","Mostly Cloudy","mostlycloudy","0","0","0","0","0","0","METAR UKKK 011430Z 07003MPS 050V110 9999 SCT030CB BKN053 28/17 Q1015 R08/CLRD70 NOSIG"
"6:00 PM EEST on July 01, 2016","2016","07","01","18","00","Europe/Kiev","3:00 PM GMT on July 01, 2016","2016","07","01","15","00","UTC","28","83","17","63","40","7.2","4.5","","","130","SE","20","12","1015","29.98","-999","-999","-9999","-9999","","","Scattered Clouds","partlycloudy","0","0","0","0","0","0","AAXX 01151 33345 42598 61302 10284 20170 39962 40151 57002 82960 555 10044"
"6:00 PM EEST on July 01, 2016","2016","07","01","18","00","Europe/Kiev","3:00 PM GMT on July 01, 2016","2016","07","01","15","00","UTC","28.0","82.4","18.0","64.4","54","18.0","11.2","-9999.0","-9999.0","90","East","10.0","6.2","1016","30.01","-999","-999","28.8","83.9","-9999.00","-9999.00","Mostly Cloudy","mostlycloudy","0","0","0","0","0","0","METAR UKKK 011500Z 09005MPS 9999 FEW030CB BKN053 28/18 Q1016 R08/CLRD70 TEMPO VRB09G16MPS 2000 TSRAGR BKN020CB"
"6:30 PM EEST on July 01, 2016","2016","07","01","18","30","Europe/Kiev","3:30 PM GMT on July 01, 2016","2016","07","01","15","30","UTC","28.0","82.4","18.0","64.4","54","14.4","8.9","-9999.0","-9999.0","100","East","10.0","6.2","1016","30.01","-999","-999","28.8","83.9","-9999.00","-9999.00","Scattered Clouds","partlycloudy","0","0","0","0","0","0","METAR UKKK 011530Z 10004MPS 9999 FEW030CB SCT053 28/18 Q1016 R08/CLRD70 TEMPO VRB09G16MPS 2000 TSRAGR BKN020CB"
"7:00 PM EEST on July 01, 2016","2016","07","01","19","00","Europe/Kiev","4:00 PM GMT on July 01, 2016","2016","07","01","16","00","UTC","28.0","82.4","17.0","62.6","51","7.2","4.5","-9999.0","-9999.0","100","East","-9999.0","-9999.0","1016","30.01","-999","-999","28.5","83.4","-9999.00","-9999.00","Clear","clear","0","0","0","0","0","0","METAR UKKK 011600Z 10002MPS 080V140 CAVOK 28/17 Q1016 R08/CLRD70 TEMPO VRB09G16MPS 2000 TSRAGR BKN020CB"
"7:30 PM EEST on July 01, 2016","2016","07","01","19","30","Europe/Kiev","4:30 PM GMT on July 01, 2016","2016","07","01","16","30","UTC","27.0","80.6","17.0","62.6","54","10.8","6.7","-9999.0","-9999.0","130","SE","-9999.0","-9999.0","1016","30.01","-999","-999","27.7","81.8","-9999.00","-9999.00","Clear","clear","0","0","0","0","0","0","METAR UKKK 011630Z 13003MPS CAVOK 27/17 Q1016 R08/CLRD70 NOSIG"
"8:00 PM EEST on July 01, 2016","2016","07","01","20","00","Europe/Kiev","5:00 PM GMT on July 01, 2016","2016","07","01","17","00","UTC","27.0","80.6","18.0","64.4","58","10.8","6.7","-9999.0","-9999.0","130","SE","-9999.0","-9999.0","1016","30.01","-999","-999","27.9","82.3","-9999.00","-9999.00","Clear","clear","0","0","0","0","0","0","METAR UKKK 011700Z 13003MPS CAVOK 27/18 Q1016 R08/CLRD70 NOSIG"
"8:30 PM EEST on July 01, 2016","2016","07","01","20","30","Europe/Kiev","5:30 PM GMT on July 01, 2016","2016","07","01","17","30","UTC","26.0","78.8","18.0","64.4","61","10.8","6.7","-9999.0","-9999.0","120","ESE","-9999.0","-9999.0","1016","30.01","-999","-999","-9999","-9999","-9999.00","-9999.00","Clear","clear","0","0","0","0","0","0","METAR UKKK 011730Z 12003MPS CAVOK 26/18 Q1016 R08/CLRD70 NOSIG"
"9:00 PM EEST on July 01, 2016","2016","07","01","21","00","Europe/Kiev","6:00 PM GMT on July 01, 2016","2016","07","01","18","00","UTC","26","78","17","63","51","0.0","0.0","","","","","20","12","1016","30.01","-999","-999","-9999","-9999","","","Scattered Clouds","partlycloudy","0","0","0","0","0","0","AAXX 01181 33345 32598 30000 10256 20173 39971 40162 53009 82930 333 10304 555 10028"
"9:00 PM EEST on July 01, 2016","2016","07","01","21","00","Europe/Kiev","6:00 PM GMT on July 01, 2016","2016","07","01","18","00","UTC","26.0","78.8","18.0","64.4","61","7.2","4.5","-9999.0","-9999.0","120","ESE","-9999.0","-9999.0","1017","30.04","-999","-999","-9999","-9999","-9999.00","-9999.00","Clear","clear","0","0","0","0","0","0","METAR UKKK 011800Z 12002MPS CAVOK 26/18 Q1017 R08/CLRD70 NOSIG"
"9:30 PM EEST on July 01, 2016","2016","07","01","21","30","Europe/Kiev","6:30 PM GMT on July 01, 2016","2016","07","01","18","30","UTC","25.0","77.0","18.0","64.4","65","10.8","6.7","-9999.0","-9999.0","110","ESE","9.0","5.6","1017","30.04","-999","-999","-9999","-9999","-9999.00","-9999.00","Unknown","unknown","0","0","0","0","0","0","METAR UKKK 011830Z 11003MPS 9000 NSC 25/18 Q1017 R08/CLRD70 NOSIG"
"10:00 PM EEST on July 01, 2016","2016","07","01","22","00","Europe/Kiev","7:00 PM GMT on July 01, 2016","2016","07","01","19","00","UTC","24.0","75.2","18.0","64.4","69","3.6","2.2","-9999.0","-9999.0","130","SE","9.0","5.6","1017","30.04","-999","-999","-9999","-9999","-9999.00","-9999.00","Unknown","unknown","0","0","0","0","0","0","METAR UKKK 011900Z 13001MPS 9000 NSC 24/18 Q1017 R08/CLRD70 NOSIG"
"10:30 PM EEST on July 01, 2016","2016","07","01","22","30","Europe/Kiev","7:30 PM GMT on July 01, 2016","2016","07","01","19","30","UTC","23.0","73.4","19.0","66.2","78","7.2","4.5","-9999.0","-9999.0","120","ESE","9.0","5.6","1018","30.06","-999","-999","-9999","-9999","-9999.00","-9999.00","Unknown","unknown","0","0","0","0","0","0","METAR UKKK 011930Z 12002MPS 9000 NSC 23/19 Q1018 R08/CLRD70 NOSIG"
"11:00 PM EEST on July 01, 2016","2016","07","01","23","00","Europe/Kiev","8:00 PM GMT on July 01, 2016","2016","07","01","20","00","UTC","22.0","71.6","19.0","66.2","83","3.6","2.2","-9999.0","-9999.0","100","East","9.0","5.6","1017","30.04","-999","-999","-9999","-9999","-9999.00","-9999.00","Unknown","unknown","0","0","0","0","0","0","METAR UKKK 012000Z 10001MPS 9000 NSC 22/19 Q1017 R08/CLRD70 NOSIG"
"11:30 PM EEST on July 01, 2016","2016","07","01","23","30","Europe/Kiev","8:30 PM GMT on July 01, 2016","2016","07","01","20","30","UTC","21.0","69.8","19.0","66.2","88","0.0","0.0","-9999.0","-9999.0","0","North","-9999.0","-9999.0","1018","30.06","-999","-999","-9999","-9999","-9999.00","-9999.00","Clear","clear","0","0","0","0","0","0","METAR UKKK 012030Z 00000MPS CAVOK 21/19 Q1018 R08/CLRD70 NOSIG"
"12:00 AM EEST on July 02, 2016","2016","07","02","00","00","Europe/Kiev","9:00 PM GMT on July 01, 2016","2016","07","01","21","00","UTC","23","73","18","64","65","0.0","0.0","","","","","20","12","1017","30.04","-999","-999","-9999","-9999","","","","","0","0","0","0","0","0","AAXX 01211 33345 42998 00000 10228 20175 39979 40172 52008 555 10023"
"12:00 AM EEST on July 02, 2016","2016","07","02","00","00","Europe/Kiev","9:00 PM GMT on July 01, 2016","2016","07","01","21","00","UTC","21.0","69.8","19.0","66.2","88","0.0","0.0","-9999.0","-9999.0","0","North","9.0","5.6","1018","30.06","-999","-999","-9999","-9999","-9999.00","-9999.00","Unknown","unknown","0","0","0","0","0","0","METAR UKKK 012100Z 00000MPS 9000 NSC 21/19 Q1018 R08/CLRD70 NOSIG"
"12:30 AM EEST on July 02, 2016","2016","07","02","00","30","Europe/Kiev","9:30 PM GMT on July 01, 2016","2016","07","01","21","30","UTC","20.0","68.0","19.0","66.2","94","0.0","0.0","-9999.0","-9999.0","0","North","9.0","5.6","1018","30.06","-999","-999","-9999","-9999","-9999.00","-9999.00","Unknown","unknown","0","0","0","0","0","0","METAR UKKK 012130Z 00000MPS 9000 NSC 20/19 Q1018 R08/CLRD70 NOSIG"
"1:00 AM EEST on July 02, 2016","2016","07","02","01","00","Europe/Kiev","10:00 PM GMT on July 01, 2016","2016","07","01","22","00","UTC","21.0","69.8","19.0","66.2","88","0.0","0.0","-9999.0","-9999.0","0","North","-9999.0","-9999.0","1018","30.06","-999","-999","-9999","-9999","-9999.00","-9999.00","Clear","clear","0","0","0","0","0","0","METAR UKKK 012200Z 00000MPS CAVOK 21/19 Q1018 R08/CLRD70 NOSIG"
"1:30 AM EEST on July 02, 2016","2016","07","02","01","30","Europe/Kiev","10:30 PM GMT on July 01, 2016","2016","07","01","22","30","UTC","20.0","68.0","18.0","64.4","88","0.0","0.0","-9999.0","-9999.0","0","North","-9999.0","-9999.0","1017","30.04","-999","-999","-9999","-9999","-9999.00","-9999.00","Clear","clear","0","0","0","0","0","0","METAR UKKK 012230Z 00000MPS CAVOK 20/18 Q1017 R08/CLRD70 NOSIG"
"2:00 AM EEST on July 02, 2016","2016","07","02","02","00","Europe/Kiev","11:00 PM GMT on July 01, 2016","2016","07","01","23","00","UTC","19.0","66.2","18.0","64.4","94","0.0","0.0","-9999.0","-9999.0","0","North","9.0","5.6","1017","30.04","-999","-999","-9999","-9999","-9999.00","-9999.00","Unknown","unknown","0","0","0","0","0","0","METAR UKKK 012300Z 00000MPS 9000 NSC 19/18 Q1017 R08/CLRD70 NOSIG"
"2:30 AM EEST on July 02, 2016","2016","07","02","02","30","Europe/Kiev","11:30 PM GMT on July 01, 2016","2016","07","01","23","30","UTC","19.0","66.2","18.0","64.4","94","0.0","0.0","-9999.0","-9999.0","0","North","9.0","5.6","1017","30.04","-999","-999","-9999","-9999","-9999.00","-9999.00","Unknown","unknown","0","0","0","0","0","0","METAR UKKK 012330Z 00000MPS 9000 NSC 19/18 Q1017 R08/CLRD70 NOSIG"
"3:00 AM EEST on July 02, 2016","2016","07","02","03","00","Europe/Kiev","12:00 AM GMT on July 02, 2016","2016","07","02","00","00","UTC","21","70","18","64","76","0.0","0.0","","","","","20","12","1017","30.04","-999","-999","-9999","-9999","","","","","0","0","0","0","0","0","AAXX 02001 33345 32998 00000 10213 20178 39978 40172 58001 555 10021"
"3:00 AM EEST on July 02, 2016","2016","07","02","03","00","Europe/Kiev","12:00 AM GMT on July 02, 2016","2016","07","02","00","00","UTC","20.0","68.0","18.0","64.4","88","7.2","4.5","-9999.0","-9999.0","90","East","-9999.0","-9999.0","1017","30.04","-999","-999","-9999","-9999","-9999.00","-9999.00","Clear","clear","0","0","0","0","0","0","METAR UKKK 020000Z 09002MPS CAVOK 20/18 Q1017 R08/CLRD70 NOSIG"
"3:30 AM EEST on July 02, 2016","2016","07","02","03","30","Europe/Kiev","12:30 AM GMT on July 02, 2016","2016","07","02","00","30","UTC","19.0","66.2","18.0","64.4","94","3.6","2.2","-9999.0","-9999.0","0","Variable","-9999.0","-9999.0","1017","30.04","-999","-999","-9999","-9999","-9999.00","-9999.00","Clear","clear","0","0","0","0","0","0","METAR UKKK 020030Z VRB01MPS CAVOK 19/18 Q1017 R08/CLRD70 NOSIG"
"4:00 AM EEST on July 02, 2016","2016","07","02","04","00","Europe/Kiev","1:00 AM GMT on July 02, 2016","2016","07","02","01","00","UTC","19.0","66.2","18.0","64.4","94","0.0","0.0","-9999.0","-9999.0","0","North","-9999.0","-9999.0","1017","30.04","-999","-999","-9999","-9999","-9999.00","-9999.00","Clear","clear","0","0","0","0","0","0","METAR UKKK 020100Z 00000MPS CAVOK 19/18 Q1017 R08/CLRD70 NOSIG"
"4:30 AM EEST on July 02, 2016","2016","07","02","04","30","Europe/Kiev","1:30 AM GMT on July 02, 2016","2016","07","02","01","30","UTC","18.0","64.4","18.0","64.4","100","0.0","0.0","-9999.0","-9999.0","0","North","-9999.0","-9999.0","1018","30.06","-999","-999","-9999","-9999","-9999.00","-9999.00","Clear","clear","0","0","0","0","0","0","METAR UKKK 020130Z 00000MPS CAVOK 18/18 Q1018 R08/CLRD70 NOSIG"
"5:00 AM EEST on July 02, 2016","2016","07","02","05","00","Europe/Kiev","2:00 AM GMT on July 02, 2016","2016","07","02","02","00","UTC","18.0","64.4","18.0","64.4","100","0.0","0.0","-9999.0","-9999.0","0","North","9.0","5.6","1018","30.06","-999","-999","-9999","-9999","-9999.00","-9999.00","Unknown","unknown","0","0","0","0","0","0","METAR UKKK 020200Z 00000MPS 9000 NSC 18/18 Q1018 R08/CLRD70 NOSIG"
"5:30 AM EEST on July 02, 2016","2016","07","02","05","30","Europe/Kiev","2:30 AM GMT on July 02, 2016","2016","07","02","02","30","UTC","18.0","64.4","18.0","64.4","100","3.6","2.2","-9999.0","-9999.0","90","East","-9999.0","-9999.0","1018","30.06","-999","-999","-9999","-9999","-9999.00","-9999.00","Clear","clear","0","0","0","0","0","0","METAR UKKK 020230Z 09001MPS CAVOK 18/18 Q1018 R08/CLRD70 NOSIG"
"6:00 AM EEST on July 02, 2016","2016","07","02","06","00","Europe/Kiev","3:00 AM GMT on July 02, 2016","2016","07","02","03","00","UTC","20","68","18","65","85","0.0","0.0","","","","","20","12","1018","30.06","-999","-999","-9999","-9999","","","","","0","0","0","0","0","0","AAXX 02031 33345 42998 00000 10202 20181 39982 40177 53004 555 10020"
"6:00 AM EEST on July 02, 2016","2016","07","02","06","00","Europe/Kiev","3:00 AM GMT on July 02, 2016","2016","07","02","03","00","UTC","20.0","68.0","19.0","66.2","94","7.2","4.5","-9999.0","-9999.0","90","East","-9999.0","-9999.0","1018","30.06","-999","-999","-9999","-9999","-9999.00","-9999.00","Clear","clear","0","0","0","0","0","0","METAR UKKK 020300Z 09002MPS CAVOK 20/19 Q1018 R08/CLRD70 NOSIG"
"6:30 AM EEST on July 02, 2016","2016","07","02","06","30","Europe/Kiev","3:30 AM GMT on July 02, 2016","2016","07","02","03","30","UTC","23.0","73.4","20.0","68.0","83","0.0","0.0","-9999.0","-9999.0","0","North","-9999.0","-9999.0","1018","30.06","-999","-999","-9999","-9999","-9999.00","-9999.00","Clear","clear","0","0","0","0","0","0","METAR UKKK 020330Z 00000MPS CAVOK 23/20 Q1018 R08/CLRD70 NOSIG"
"7:00 AM EEST on July 02, 2016","2016","07","02","07","00","Europe/Kiev","4:00 AM GMT on July 02, 2016","2016","07","02","04","00","UTC","24.0","75.2","20.0","68.0","78","3.6","2.2","-9999.0","-9999.0","100","East","-9999.0","-9999.0","1018","30.06","-999","-999","-9999","-9999","-9999.00","-9999.00","Clear","clear","0","0","0","0","0","0","METAR UKKK 020400Z 10001MPS CAVOK 24/20 Q1018 R08/CLRD70 NOSIG"
"7:30 AM EEST on July 02, 2016","2016","07","02","07","30","Europe/Kiev","4:30 AM GMT on July 02, 2016","2016","07","02","04","30","UTC","24.0","75.2","19.0","66.2","73","10.8","6.7","-9999.0","-9999.0","100","East","-9999.0","-9999.0","1018","30.06","-999","-999","-9999","-9999","-9999.00","-9999.00","Clear","clear","0","0","0","0","0","0","METAR UKKK 020430Z 10003MPS CAVOK 24/19 Q1018 R08/CLRD70 NOSIG"
"8:00 AM EEST on July 02, 2016","2016","07","02","08","00","Europe/Kiev","5:00 AM GMT on July 02, 2016","2016","07","02","05","00","UTC","25.0","77.0","19.0","66.2","69","7.2","4.5","-9999.0","-9999.0","100","East","-9999.0","-9999.0","1018","30.06","-999","-999","-9999","-9999","-9999.00","-9999.00","Clear","clear","0","0","0","0","0","0","METAR UKKK 020500Z 10002MPS CAVOK 25/19 Q1018 R08/CLRD70 NOSIG"
"8:30 AM EEST on July 02, 2016","2016","07","02","08","30","Europe/Kiev","5:30 AM GMT on July 02, 2016","2016","07","02","05","30","UTC","26.0","78.8","18.0","64.4","61","7.2","4.5","-9999.0","-9999.0","110","ESE","-9999.0","-9999.0","1018","30.06","-999","-999","-9999","-9999","-9999.00","-9999.00","Clear","clear","0","0","0","0","0","0","METAR UKKK 020530Z 11002MPS 080V140 CAVOK 26/18 Q1018 R08/CLRD70 NOSIG"
"9:00 AM EEST on July 02, 2016","2016","07","02","09","00","Europe/Kiev","6:00 AM GMT on July 02, 2016","2016","07","02","06","00","UTC","25","77","18","64","55","3.6","2.2","","","160","SSE","20","12","1018","30.06","-999","-999","-9999","-9999","","","","","0","0","0","0","0","0","AAXX 02061 33345 32998 01601 10250 20177 39988 40180 52006 333 20200 555 10037"
"9:00 AM EEST on July 02, 2016","2016","07","02","09","00","Europe/Kiev","6:00 AM GMT on July 02, 2016","2016","07","02","06","00","UTC","26.0","78.8","19.0","66.2","65","7.2","4.5","-9999.0","-9999.0","130","SE","-9999.0","-9999.0","1018","30.06","-999","-999","-9999","-9999","-9999.00","-9999.00","Clear","clear","0","0","0","0","0","0","METAR UKKK 020600Z 13002MPS 110V170 CAVOK 26/19 Q1018 R08/CLRD70 NOSIG"
"9:30 AM EEST on July 02, 2016","2016","07","02","09","30","Europe/Kiev","6:30 AM GMT on July 02, 2016","2016","07","02","06","30","UTC","27.0","80.6","18.0","64.4","58","10.8","6.7","-9999.0","-9999.0","100","East","-9999.0","-9999.0","1018","30.06","-999","-999","27.9","82.3","-9999.00","-9999.00","Clear","clear","0","0","0","0","0","0","METAR UKKK 020630Z 10003MPS 060V120 CAVOK 27/18 Q1018 R08/CLRD70 NOSIG"
"10:00 AM EEST on July 02, 2016","2016","07","02","10","00","Europe/Kiev","7:00 AM GMT on July 02, 2016","2016","07","02","07","00","UTC","27.0","80.6","17.0","62.6","54","7.2","4.5","-9999.0","-9999.0","140","SE","-9999.0","-9999.0","1018","30.06","-999","-999","27.7","81.8","-9999.00","-9999.00","Clear","clear","0","0","0","0","0","0","METAR UKKK 020700Z 14002MPS 050V200 CAVOK 27/17 Q1018 R08/CLRD70 NOSIG"
"10:30 AM EEST on July 02, 2016","2016","07","02","10","30","Europe/Kiev","7:30 AM GMT on July 02, 2016","2016","07","02","07","30","UTC","28.0","82.4","18.0","64.4","54","10.8","6.7","-9999.0","-9999.0","140","SE","-9999.0","-9999.0","1018","30.06","-999","-999","28.8","83.9","-9999.00","-9999.00","Clear","clear","0","0","0","0","0","0","METAR UKKK 020730Z 14003MPS 090V180 CAVOK 28/18 Q1018 R08/CLRD70 NOSIG"
"11:00 AM EEST on July 02, 2016","2016","07","02","11","00","Europe/Kiev","8:00 AM GMT on July 02, 2016","2016","07","02","08","00","UTC","28.0","82.4","19.0","66.2","58","10.8","6.7","-9999.0","-9999.0","130","SE","-9999.0","-9999.0","1018","30.06","-999","-999","29.2","84.6","-9999.00","-9999.00","Clear","clear","0","0","0","0","0","0","METAR UKKK 020800Z 13003MPS 070V170 CAVOK 28/19 Q1018 R08/CLRD70 NOSIG"
"11:30 AM EEST on July 02, 2016","2016","07","02","11","30","Europe/Kiev","8:30 AM GMT on July 02, 2016","2016","07","02","08","30","UTC","29.0","84.2","18.0","64.4","51","10.8","6.7","-9999.0","-9999.0","130","SE","10.0","6.2","1018","30.06","-999","-999","29.8","85.6","-9999.00","-9999.00","Scattered Clouds","partlycloudy","0","0","0","0","0","0","METAR UKKK 020830Z 13003MPS 080V190 9999 SCT047 29/18 Q1018 R08/CLRD70 NOSIG"
"12:00 PM EEST on July 02, 2016","2016","07","02","12","00","Europe/Kiev","9:00 AM GMT on July 02, 2016","2016","07","02","09","00","UTC","28","83","16","61","38","7.2","4.5","","","130","SE","20","12","1017","30.05","-999","-999","-9999","-9999","","","Mostly Cloudy","mostlycloudy","0","0","0","0","0","0","AAXX 02091 33345 42698 61302 10283 20163 39984 40174 58004 86200 555 10047"
"12:00 PM EEST on July 02, 2016","2016","07","02","12","00","Europe/Kiev","9:00 AM GMT on July 02, 2016","2016","07","02","09","00","UTC","29.0","84.2","17.0","62.6","48","7.2","4.5","-9999.0","-9999.0","140","SE","10.0","6.2","1018","30.06","-999","-999","29.4","85.0","-9999.00","-9999.00","Scattered Clouds","partlycloudy","0","0","0","0","0","0","METAR UKKK 020900Z 14002MPS 9999 SCT047 29/17 Q1018 R08/CLRD70 NOSIG"
"12:30 PM EEST on July 02, 2016","2016","07","02","12","30","Europe/Kiev","9:30 AM GMT on July 02, 2016","2016","07","02","09","30","UTC","29.0","84.2","17.0","62.6","48","10.8","6.7","-9999.0","-9999.0","120","ESE","-9999.0","-9999.0","1018","30.06","-999","-999","29.4","85.0","-9999.00","-9999.00","Clear","clear","0","0","0","0","0","0","METAR UKKK 020930Z 12003MPS CAVOK 29/17 Q1018 R08/CLRD70 NOSIG"
"1:00 PM EEST on July 02, 2016","2016","07","02","13","00","Europe/Kiev","10:00 AM GMT on July 02, 2016","2016","07","02","10","00","UTC","29.0","84.2","16.0","60.8","45","10.8","6.7","-9999.0","-9999.0","150","SSE","-9999.0","-9999.0","1018","30.06","-999","-999","29.1","84.4","-9999.00","-9999.00","Clear","clear","0","0","0","0","0","0","METAR UKKK 021000Z 15003MPS 090V230 CAVOK 29/16 Q1018 R08/CLRD70 NOSIG"
"1:30 PM EEST on July 02, 2016","2016","07","02","13","30","Europe/Kiev","10:30 AM GMT on July 02, 2016","2016","07","02","10","30","UTC","29.0","84.2","17.0","62.6","48","14.4","8.9","-9999.0","-9999.0","130","SE","-9999.0","-9999.0","1017","30.04","-999","-999","29.4","85.0","-9999.00","-9999.00","Clear","clear","0","0","0","0","0","0","METAR UKKK 021030Z 13004MPS 080V220 CAVOK 29/17 Q1017 R08/CLRD70 NOSIG"
"2:00 PM EEST on July 02, 2016","2016","07","02","14","00","Europe/Kiev","11:00 AM GMT on July 02, 2016","2016","07","02","11","00","UTC","29.0","84.2","16.0","60.8","45","14.4","8.9","-9999.0","-9999.0","130","SE","-9999.0","-9999.0","1017","30.04","-999","-999","29.1","84.4","-9999.00","-9999.00","Clear","clear","0","0","0","0","0","0","METAR UKKK 021100Z 13004MPS CAVOK 29/16 Q1017 R08/CLRD70 NOSIG"
"2:30 PM EEST on July 02, 2016","2016","07","02","14","30","Europe/Kiev","11:30 AM GMT on July 02, 2016","2016","07","02","11","30","UTC","30.0","86.0","17.0","62.6","45","10.8","6.7","-9999.0","-9999.0","100","East","-9999.0","-9999.0","1017","30.04","-999","-999","30.3","86.6","-9999.00","-9999.00","Clear","clear","0","0","0","0","0","0","METAR UKKK 021130Z 10003MPS 040V160 CAVOK 30/17 Q1017 R08/CLRD70 NOSIG"
"3:00 PM EEST on July 02, 2016","2016","07","02","15","00","Europe/Kiev","12:00 PM GMT on July 02, 2016","2016","07","02","12","00","UTC","30","86","14","57","27","10.8","6.7","","","160","SSE","20","12","1016","30.01","-999","-999","-9999","-9999","","","Mostly Cloudy","mostlycloudy","0","0","0","0","0","0","AAXX 02121 33345 32598 51603 10298 20137 39971 40160 57013 85300 555 10056"
"3:00 PM EEST on July 02, 2016","2016","07","02","15","00","Europe/Kiev","12:00 PM GMT on July 02, 2016","2016","07","02","12","00","UTC","30.0","86.0","17.0","62.6","45","10.8","6.7","-9999.0","-9999.0","130","SE","-9999.0","-9999.0","1017","30.04","-999","-999","30.3","86.6","-9999.00","-9999.00","Clear","clear","0","0","0","0","0","0","METAR UKKK 021200Z 13003MPS 060V200 CAVOK 30/17 Q1017 R08/CLRD70 NOSIG"
"3:30 PM EEST on July 02, 2016","2016","07","02","15","30","Europe/Kiev","12:30 PM GMT on July 02, 2016","2016","07","02","12","30","UTC","30.0","86.0","16.0","60.8","43","7.2","4.5","-9999.0","-9999.0","140","SE","-9999.0","-9999.0","1016","30.01","-999","-999","30.1","86.1","-9999.00","-9999.00","Clear","clear","0","0","0","0","0","0","METAR UKKK 021230Z 14002MPS 070V210 CAVOK 30/16 Q1016 R08/CLRD70 NOSIG"
"4:00 PM EEST on July 02, 2016","2016","07","02","16","00","Europe/Kiev","1:00 PM GMT on July 02, 2016","2016","07","02","13","00","UTC","30.0","86.0","15.0","59.0","40","10.8","6.7","-9999.0","-9999.0","110","ESE","-9999.0","-9999.0","1016","30.01","-999","-999","29.7","85.4","-9999.00","-9999.00","Clear","clear","0","0","0","0","0","0","METAR UKKK 021300Z 11003MPS 050V160 CAVOK 30/15 Q1016 R08/CLRD70 NOSIG"
"4:30 PM EEST on July 02, 2016","2016","07","02","16","30","Europe/Kiev","1:30 PM GMT on July 02, 2016","2016","07","02","13","30","UTC","30.0","86.0","15.0","59.0","40","7.2","4.5","-9999.0","-9999.0","150","SSE","-9999.0","-9999.0","1016","30.01","-999","-999","29.7","85.4","-9999.00","-9999.00","Clear","clear","0","0","0","0","0","0","METAR UKKK 021330Z 15002MPS 110V210 CAVOK 30/15 Q1016 R08/CLRD70 NOSIG"
"5:00 PM EEST on July 02, 2016","2016","07","02","17","00","Europe/Kiev","2:00 PM GMT on July 02, 2016","2016","07","02","14","00","UTC","30.0","86.0","15.0","59.0","40","10.8","6.7","-9999.0","-9999.0","110","ESE","-9999.0","-9999.0","1016","30.01","-999","-999","29.7","85.4","-9999.00","-9999.00","Clear","clear","0","0","0","0","0","0","METAR UKKK 021400Z 11003MPS 070V150 CAVOK 30/15 Q1016 R08/CLRD70 NOSIG"
"5:30 PM EEST on July 02, 2016","2016","07","02","17","30","Europe/Kiev","2:30 PM GMT on July 02, 2016","2016","07","02","14","30","UTC","30.0","86.0","15.0","59.0","40","10.8","6.7","-9999.0","-9999.0","90","East","-9999.0","-9999.0","1016","30.01","-999","-999","29.7","85.4","-9999.00","-9999.00","Clear","clear","0","0","0","0","0","0","METAR UKKK 021430Z 09003MPS 030V150 CAVOK 30/15 Q1016 R08/CLRD70 NOSIG"
"6:00 PM EEST on July 02, 2016","2016","07","02","18","00","Europe/Kiev","3:00 PM GMT on July 02, 2016","2016","07","02","15","00","UTC","30","85","15","59","31","14.4","8.9","","","190","South","20","12","1015","29.99","-999","-999","-9999","-9999","","","Scattered Clouds","partlycloudy","0","0","0","0","0","0","AAXX 02151 33345 42698 31904 10295 20150 39964 40153 57007 82203 555 10045"
"6:00 PM EEST on July 02, 2016","2016","07","02","18","00","Europe/Kiev","3:00 PM GMT on July 02, 2016","2016","07","02","15","00","UTC","29.0","84.2","15.0","59.0","42","10.8","6.7","-9999.0","-9999.0","120","ESE","-9999.0","-9999.0","1016","30.01","-999","-999","28.8","83.8","-9999.00","-9999.00","Clear","clear","0","0","0","0","0","0","METAR UKKK 021500Z 12003MPS 080V150 CAVOK 29/15 Q1016 R08/CLRD70 NOSIG"
"6:30 PM EEST on July 02, 2016","2016","07","02","18","30","Europe/Kiev","3:30 PM GMT on July 02, 2016","2016","07","02","15","30","UTC","28.0","82.4","15.0","59.0","45","7.2","4.5","-9999.0","-9999.0","130","SE","-9999.0","-9999.0","1016","30.01","-999","-999","28.0","82.5","-9999.00","-9999.00","Clear","clear","0","0","0","0","0","0","METAR UKKK 021530Z 13002MPS 050V190 CAVOK 28/15 Q1016 R08/CLRD70 NOSIG"
"7:00 PM EEST on July 02, 2016","2016","07","02","19","00","Europe/Kiev","4:00 PM GMT on July 02, 2016","2016","07","02","16","00","UTC","28.0","82.4","16.0","60.8","48","10.8","6.7","-9999.0","-9999.0","120","ESE","9.0","5.6","1016","30.01","-999","-999","28.3","82.9","-9999.00","-9999.00","Unknown","unknown","0","0","0","0","0","0","METAR UKKK 021600Z 12003MPS 9000 NSC 28/16 Q1016 R08/CLRD70 NOSIG"
"7:30 PM EEST on July 02, 2016","2016","07","02","19","30","Europe/Kiev","4:30 PM GMT on July 02, 2016","2016","07","02","16","30","UTC","27.0","80.6","16.0","60.8","51","10.8","6.7","-9999.0","-9999.0","120","ESE","-9999.0","-9999.0","1016","30.01","-999","-999","27.5","81.5","-9999.00","-9999.00","Clear","clear","0","0","0","0","0","0","METAR UKKK 021630Z 12003MPS CAVOK 27/16 Q1016 R08/CLRD70 NOSIG"
"8:00 PM EEST on July 02, 2016","2016","07","02","20","00","Europe/Kiev","5:00 PM GMT on July 02, 2016","2016","07","02","17","00","UTC","27.0","80.6","16.0","60.8","51","7.2","4.5","-9999.0","-9999.0","120","ESE","-9999.0","-9999.0","1016","30.01","-999","-999","27.5","81.5","-9999.00","-9999.00","Clear","clear","0","0","0","0","0","0","METAR UKKK 021700Z 12002MPS CAVOK 27/16 Q1016 R08/CLRD70 NOSIG"
"8:30 PM EEST on July 02, 2016","2016","07","02","20","30","Europe/Kiev","5:30 PM GMT on July 02, 2016","2016","07","02","17","30","UTC","26.0","78.8","16.0","60.8","54","10.8","6.7","-9999.0","-9999.0","120","ESE","-9999.0","-9999.0","1016","30.01","-999","-999","-9999","-9999","-9999.00","-9999.00","Clear","clear","0","0","0","0","0","0","METAR UKKK 021730Z 12003MPS CAVOK 26/16 Q1016 R08/CLRD70 NOSIG"
"9:00 PM EEST on July 02, 2016","2016","07","02","21","00","Europe/Kiev","6:00 PM GMT on July 02, 2016","2016","07","02","18","00","UTC","25","77","16","61","48","3.6","2.2","","","180","South","20","12","1016","29.99","-999","-999","-9999","-9999","","","Scattered Clouds","partlycloudy","0","0","0","0","0","0","AAXX 02181 33345 32998 61801 10251 20160 39964 40155 54000 82065 333 10306 555 10028"
"9:00 PM EEST on July 02, 2016","2016","07","02","21","00","Europe/Kiev","6:00 PM GMT on July 02, 2016","2016","07","02","18","00","UTC","25.0","77.0","16.0","60.8","57","10.8","6.7","-9999.0","-9999.0","130","SE","-9999.0","-9999.0","1016","30.01","-999","-999","-9999","-9999","-9999.00","-9999.00","Clear","clear","0","0","0","0","0","0","METAR UKKK 021800Z 13003MPS CAVOK 25/16 Q1016 R08/CLRD70 NOSIG"
"9:30 PM EEST on July 02, 2016","2016","07","02","21","30","Europe/Kiev","6:30 PM GMT on July 02, 2016","2016","07","02","18","30","UTC","25.0","77.0","16.0","60.8","57","7.2","4.5","-9999.0","-9999.0","150","SSE","8.0","5.0","1016","30.01","-999","-999","-9999","-9999","-9999.00","-9999.00","Unknown","unknown","0","0","0","0","0","0","METAR UKKK 021830Z 15002MPS 120V180 8000 NSC 25/16 Q1016 R08/CLRD70 NOSIG"
"10:00 PM EEST on July 02, 2016","2016","07","02","22","00","Europe/Kiev","7:00 PM GMT on July 02, 2016","2016","07","02","19","00","UTC","24.0","75.2","16.0","60.8","61","7.2","4.5","-9999.0","-9999.0","140","SE","-9999.0","-9999.0","1016","30.01","-999","-999","-9999","-9999","-9999.00","-9999.00","Clear","clear","0","0","0","0","0","0","METAR UKKK 021900Z 14002MPS 110V170 CAVOK 24/16 Q1016 R08/CLRD70 NOSIG"
"10:30 PM EEST on July 02, 2016","2016","07","02","22","30","Europe/Kiev","7:30 PM GMT on July 02, 2016","2016","07","02","19","30","UTC","23.0","73.4","16.0","60.8","65","3.6","2.2","-9999.0","-9999.0","130","SE","-9999.0","-9999.0","1016","30.01","-999","-999","-9999","-9999","-9999.00","-9999.00","Clear","clear","0","0","0","0","0","0","METAR UKKK 021930Z 13001MPS CAVOK 23/16 Q1016 R08/CLRD70 NOSIG"
"11:00 PM EEST on July 02, 2016","2016","07","02","23","00","Europe/Kiev","8:00 PM GMT on July 02, 2016","2016","07","02","20","00","UTC","23.0","73.4","17.0","62.6","69","3.6","2.2","-9999.0","-9999.0","150","SSE","-9999.0","-9999.0","1016","30.01","-999","-999","-9999","-9999","-9999.00","-9999.00","Clear","clear","0","0","0","0","0","0","METAR UKKK 022000Z 15001MPS CAVOK 23/17 Q1016 R08/CLRD70 NOSIG"
"11:30 PM EEST on July 02, 2016","2016","07","02","23","30","Europe/Kiev","8:30 PM GMT on July 02, 2016","2016","07","02","20","30","UTC","23.0","73.4","16.0","60.8","65","3.6","2.2","-9999.0","-9999.0","150","SSE","-9999.0","-9999.0","1016","30.01","-999","-999","-9999","-9999","-9999.00","-9999.00","Clear","clear","0","0","0","0","0","0","METAR UKKK 022030Z 15001MPS CAVOK 23/16 Q1016 R08/CLRD70 NOSIG"
"12:00 AM EEST on July 03, 2016","2016","07","03","00","00","Europe/Kiev","9:00 PM GMT on July 02, 2016","2016","07","02","21","00","UTC","22","71","16","61","63","0.0","0.0","","","","","20","12","1016","30.01","-999","-999","-9999","-9999","","","","","0","0","0","0","0","0","AAXX 02211 33345 42998 00000 10219 20161 39968 40161 53004 555 10023"
"12:00 AM EEST on July 03, 2016","2016","07","03","00","00","Europe/Kiev","9:00 PM GMT on July 02, 2016","2016","07","02","21","00","UTC","23.0","73.4","16.0","60.8","65","3.6","2.2","-9999.0","-9999.0","130","SE","-9999.0","-9999.0","1016","30.01","-999","-999","-9999","-9999","-9999.00","-9999.00","Clear","clear","0","0","0","0","0","0","METAR UKKK 022100Z 13001MPS CAVOK 23/16 Q1016 R08/CLRD70 NOSIG"
"12:30 AM EEST on July 03, 2016","2016","07","03","00","30","Europe/Kiev","9:30 PM GMT on July 02, 2016","2016","07","02","21","30","UTC","21.0","69.8","16.0","60.8","73","3.6","2.2","-9999.0","-9999.0","130","SE","-9999.0","-9999.0","1016","30.01","-999","-999","-9999","-9999","-9999.00","-9999.00","Clear","clear","0","0","0","0","0","0","METAR UKKK 022130Z 13001MPS CAVOK 21/16 Q1016 R08/CLRD70 NOSIG"
"1:00 AM EEST on July 03, 2016","2016","07","03","01","00","Europe/Kiev","10:00 PM GMT on July 02, 2016","2016","07","02","22","00","UTC","21.0","69.8","16.0","60.8","73","0.0","0.0","-9999.0","-9999.0","0","North","-9999.0","-9999.0","1016","30.01","-999","-999","-9999","-9999","-9999.00","-9999.00","Clear","clear","0","0","0","0","0","0","METAR UKKK 022200Z 00000MPS CAVOK 21/16 Q1016 R08/CLRD70 NOSIG"
"1:30 AM EEST on July 03, 2016","2016","07","03","01","30","Europe/Kiev","10:30 PM GMT on July 02, 2016","2016","07","02","22","30","UTC","19.0","66.2","16.0","60.8","83","0.0","0.0","-9999.0","-9999.0","0","North","9.0","5.6","1016","30.01","-999","-999","-9999","-9999","-9999.00","-9999.00","Clear","clear","0","0","0","0","0","0","METAR UKKK 022230Z 00000MPS 9000 SKC 19/16 Q1016 R08/CLRD70 NOSIG"
"2:00 AM EEST on July 03, 2016","2016","07","03","02","00","Europe/Kiev","11:00 PM GMT on July 02, 2016","2016","07","02","23","00","UTC","19.0","66.2","16.0","60.8","83","0.0","0.0","-9999.0","-9999.0","0","North","9.0","5.6","1016","30.01","-999","-999","-9999","-9999","-9999.00","-9999.00","Clear","clear","0","0","0","0","0","0","METAR UKKK 022300Z 00000MPS 9000 SKC 19/16 Q1016 R08/CLRD70 NOSIG"
"2:30 AM EEST on July 03, 2016","2016","07","03","02","30","Europe/Kiev","11:30 PM GMT on July 02, 2016","2016","07","02","23","30","UTC","18.0","64.4","16.0","60.8","88","0.0","0.0","-9999.0","-9999.0","0","North","-9999.0","-9999.0","1016","30.01","-999","-999","-9999","-9999","-9999.00","-9999.00","Clear","clear","0","0","0","0","0","0","METAR UKKK 022330Z 00000MPS CAVOK 18/16 Q1016 R08/CLRD70 NOSIG"
"3:00 AM EEST on July 03, 2016","2016","07","03","03","00","Europe/Kiev","12:00 AM GMT on July 03, 2016","2016","07","03","00","00","UTC","20","68","17","62","76","0.0","0.0","","","","","20","12","1016","30.01","-999","-999","-9999","-9999","","","","","0","0","0","0","0","0","AAXX 03001 33345 32998 00000 10201 20168 39967 40162 58001 555 10020"
"3:00 AM EEST on July 03, 2016","2016","07","03","03","00","Europe/Kiev","12:00 AM GMT on July 03, 2016","2016","07","03","00","00","UTC","18.0","64.4","16.0","60.8","88","0.0","0.0","-9999.0","-9999.0","0","North","9.0","5.6","1016","30.01","-999","-999","-9999","-9999","-9999.00","-9999.00","Clear","clear","0","0","0","0","0","0","METAR UKKK 030000Z 00000MPS 9000 SKC 18/16 Q1016 R08/CLRD70 NOSIG"
"3:30 AM EEST on July 03, 2016","2016","07","03","03","30","Europe/Kiev","12:30 AM GMT on July 03, 2016","2016","07","03","00","30","UTC","18.0","64.4","16.0","60.8","88","0.0","0.0","-9999.0","-9999.0","0","North","-9999.0","-9999.0","1016","30.01","-999","-999","-9999","-9999","-9999.00","-9999.00","Clear","clear","0","0","0","0","0","0","METAR UKKK 030030Z 00000MPS CAVOK 18/16 Q1016 R08/CLRD70 NOSIG"
"4:00 AM EEST on July 03, 2016","2016","07","03","04","00","Europe/Kiev","1:00 AM GMT on July 03, 2016","2016","07","03","01","00","UTC","17.0","62.6","16.0","60.8","94","0.0","0.0","-9999.0","-9999.0","0","North","-9999.0","-9999.0","1016","30.01","-999","-999","-9999","-9999","-9999.00","-9999.00","Clear","clear","0","0","0","0","0","0","METAR UKKK 030100Z 00000MPS CAVOK 17/16 Q1016 R08/CLRD70 NOSIG"
"4:30 AM EEST on July 03, 2016","2016","07","03","04","30","Europe/Kiev","1:30 AM GMT on July 03, 2016","2016","07","03","01","30","UTC","17.0","62.6","16.0","60.8","94","0.0","0.0","-9999.0","-9999.0","0","North","-9999.0","-9999.0","1016","30.01","-999","-999","-9999","-9999","-9999.00","-9999.00","Clear","clear","0","0","0","0","0","0","METAR UKKK 030130Z 00000MPS CAVOK 17/16 Q1016 R08/CLRD70 NOSIG"
"5:00 AM EEST on July 03, 2016","2016","07","03","05","00","Europe/Kiev","2:00 AM GMT on July 03, 2016","2016","07","03","02","00","UTC","17.0","62.6","17.0","62.6","100","0.0","0.0","-9999.0","-9999.0","0","North","-9999.0","-9999.0","1016","30.01","-999","-999","-9999","-9999","-9999.00","-9999.00","Clear","clear","0","0","0","0","0","0","METAR UKKK 030200Z 00000MPS CAVOK 17/17 Q1016 R08/CLRD70 NOSIG"
"5:30 AM EEST on July 03, 2016","2016","07","03","05","30","Europe/Kiev","2:30 AM GMT on July 03, 2016","2016","07","03","02","30","UTC","17.0","62.6","17.0","62.6","100","0.0","0.0","-9999.0","-9999.0","0","North","-9999.0","-9999.0","1016","30.01","-999","-999","-9999","-9999","-9999.00","-9999.00","Clear","clear","0","0","0","0","0","0","METAR UKKK 030230Z 00000MPS CAVOK 17/17 Q1016 R08/CLRD70 NOSIG"
"6:00 AM EEST on July 03, 2016","2016","07","03","06","00","Europe/Kiev","3:00 AM GMT on July 03, 2016","2016","07","03","03","00","UTC","20","67","18","64","88","0.0","0.0","","","","","10","6","1016","30.00","-999","-999","-9999","-9999","","","","","0","0","0","0","0","0","AAXX 03031 33345 42997 00000 10195 20179 39964 40159 57003 555 10020"
"6:00 AM EEST on July 03, 2016","2016","07","03","06","00","Europe/Kiev","3:00 AM GMT on July 03, 2016","2016","07","03","03","00","UTC","20.0","68.0","17.0","62.6","83","0.0","0.0","-9999.0","-9999.0","0","North","-9999.0","-9999.0","1016","30.01","-999","-999","-9999","-9999","-9999.00","-9999.00","Clear","clear","0","0","0","0","0","0","METAR UKKK 030300Z 00000MPS CAVOK 20/17 Q1016 R08/CLRD70 NOSIG"
"6:30 AM EEST on July 03, 2016","2016","07","03","06","30","Europe/Kiev","3:30 AM GMT on July 03, 2016","2016","07","03","03","30","UTC","22.0","71.6","19.0","66.2","83","0.0","0.0","-9999.0","-9999.0","0","North","-9999.0","-9999.0","1016","30.01","-999","-999","-9999","-9999","-9999.00","-9999.00","Clear","clear","0","0","0","0","0","0","METAR UKKK 030330Z 00000MPS CAVOK 22/19 Q1016 R08/CLRD70 NOSIG"
"7:00 AM EEST on July 03, 2016","2016","07","03","07","00","Europe/Kiev","4:00 AM GMT on July 03, 2016","2016","07","03","04","00","UTC","23.0","73.4","18.0","64.4","73","0.0","0.0","-9999.0","-9999.0","0","North","-9999.0","-9999.0","1016","30.01","-999","-999","-9999","-9999","-9999.00","-9999.00","Clear","clear","0","0","0","0","0","0","METAR UKKK 030400Z 00000MPS CAVOK 23/18 Q1016 R08/CLRD70 NOSIG"
"7:30 AM EEST on July 03, 2016","2016","07","03","07","30","Europe/Kiev","4:30 AM GMT on July 03, 2016","2016","07","03","04","30","UTC","24.0","75.2","17.0","62.6","65","0.0","0.0","-9999.0","-9999.0","0","North","-9999.0","-9999.0","1016","30.01","-999","-999","-9999","-9999","-9999.00","-9999.00","Clear","clear","0","0","0","0","0","0","METAR UKKK 030430Z 00000MPS CAVOK 24/17 Q1016 R08/CLRD70 NOSIG"
"8:00 AM EEST on July 03, 2016","2016","07","03","08","00","Europe/Kiev","5:00 AM GMT on July 03, 2016","2016","07","03","05","00","UTC","25.0","77.0","18.0","64.4","65","3.6","2.2","-9999.0","-9999.0","0","Variable","-9999.0","-9999.0","1016","30.01","-999","-999","-9999","-9999","-9999.00","-9999.00","Clear","clear","0","0","0","0","0","0","METAR UKKK 030500Z VRB01MPS CAVOK 25/18 Q1016 R08/CLRD70 NOSIG"
"8:30 AM EEST on July 03, 2016","2016","07","03","08","30","Europe/Kiev","5:30 AM GMT on July 03, 2016","2016","07","03","05","30","UTC","26.0","78.8","17.0","62.6","57","3.6","2.2","-9999.0","-9999.0","0","Variable","-9999.0","-9999.0","1016","30.01","-999","-999","-9999","-9999","-9999.00","-9999.00","Clear","clear","0","0","0","0","0","0","METAR UKKK 030530Z VRB01MPS CAVOK 26/17 Q1016 R08/CLRD70 NOSIG"
"9:00 AM EEST on July 03, 2016","2016","07","03","09","00","Europe/Kiev","6:00 AM GMT on July 03, 2016","2016","07","03","06","00","UTC","25","78","17","63","51","3.6","2.2","","","160","SSE","20","12","1015","29.98","-999","-999","-9999","-9999","","","","","0","0","0","0","0","0","AAXX 03061 33345 32998 01601 10254 20174 39959 40150 57005 333 20192 555 10038"
"9:00 AM EEST on July 03, 2016","2016","07","03","09","00","Europe/Kiev","6:00 AM GMT on July 03, 2016","2016","07","03","06","00","UTC","26.0","78.8","16.0","60.8","54","7.2","4.5","-9999.0","-9999.0","150","SSE","-9999.0","-9999.0","1015","29.98","-999","-999","-9999","-9999","-9999.00","-9999.00","Clear","clear","0","0","0","0","0","0","METAR UKKK 030600Z 15002MPS 100V200 CAVOK 26/16 Q1015 R08/CLRD70 NOSIG"
"9:30 AM EEST on July 03, 2016","2016","07","03","09","30","Europe/Kiev","6:30 AM GMT on July 03, 2016","2016","07","03","06","30","UTC","27.0","80.6","16.0","60.8","51","7.2","4.5","-9999.0","-9999.0","160","SSE","-9999.0","-9999.0","1015","29.98","-999","-999","27.5","81.5","-9999.00","-9999.00","Clear","clear","0","0","0","0","0","0","METAR UKKK 030630Z 16002MPS 110V220 CAVOK 27/16 Q1015 R08/CLRD70 NOSIG"
"10:00 AM EEST on July 03, 2016","2016","07","03","10","00","Europe/Kiev","7:00 AM GMT on July 03, 2016","2016","07","03","07","00","UTC","28.0","82.4","16.0","60.8","48","7.2","4.5","-9999.0","-9999.0","120","ESE","-9999.0","-9999.0","1015","29.98","-999","-999","28.3","82.9","-9999.00","-9999.00","Clear","clear","0","0","0","0","0","0","METAR UKKK 030700Z 12002MPS 080V180 CAVOK 28/16 Q1015 R08/CLRD70 NOSIG"
"10:30 AM EEST on July 03, 2016","2016","07","03","10","30","Europe/Kiev","7:30 AM GMT on July 03, 2016","2016","07","03","07","30","UTC","27.0","80.6","17.0","62.6","54","7.2","4.5","-9999.0","-9999.0","150","SSE","-9999.0","-9999.0","1015","29.98","-999","-999","27.7","81.8","-9999.00","-9999.00","Clear","clear","0","0","0","0","0","0","METAR UKKK 030730Z 15002MPS 070V230 CAVOK 27/17 Q1015 R08/CLRD70 NOSIG"
"11:00 AM EEST on July 03, 2016","2016","07","03","11","00","Europe/Kiev","8:00 AM GMT on July 03, 2016","2016","07","03","08","00","UTC","28.0","82.4","17.0","62.6","51","10.8","6.7","-9999.0","-9999.0","110","ESE","10.0","6.2","1015","29.98","-999","-999","28.5","83.4","-9999.00","-9999.00","Scattered Clouds","partlycloudy","0","0","0","0","0","0","METAR UKKK 030800Z 11003MPS 9999 FEW048 SCT100 28/17 Q1015 R08/CLRD70 NOSIG"
"11:30 AM EEST on July 03, 2016","2016","07","03","11","30","Europe/Kiev","8:30 AM GMT on July 03, 2016","2016","07","03","08","30","UTC","28.0","82.4","16.0","60.8","48","7.2","4.5","-9999.0","-9999.0","190","South","-9999.0","-9999.0","1015","29.98","-999","-999","28.3","82.9","-9999.00","-9999.00","Clear","clear","0","0","0","0","0","0","METAR UKKK 030830Z 19002MPS 120V230 CAVOK 28/16 Q1015 R08/CLRD70 NOSIG"
"12:00 PM EEST on July 03, 2016","2016","07","03","12","00","Europe/Kiev","9:00 AM GMT on July 03, 2016","2016","07","03","09","00","UTC","29","84","15","58","32","10.8","6.7","","","160","SSE","20","12","1014","29.95","-999","-999","-9999","-9999","","","Partly Cloudy","partlycloudy","0","0","0","0","0","0","AAXX 03091 33345 42598 41603 10291 20147 39953 40142 57006 84200 555 10054"
"12:00 PM EEST on July 03, 2016","2016","07","03","12","00","Europe/Kiev","9:00 AM GMT on July 03, 2016","2016","07","03","09","00","UTC","28.0","82.4","16.0","60.8","48","7.2","4.5","-9999.0","-9999.0","170","South","-9999.0","-9999.0","1015","29.98","-999","-999","28.3","82.9","-9999.00","-9999.00","Clear","clear","0","0","0","0","0","0","METAR UKKK 030900Z 17002MPS 120V230 CAVOK 28/16 Q1015 R08/CLRD70 NOSIG"
"12:30 PM EEST on July 03, 2016","2016","07","03","12","30","Europe/Kiev","9:30 AM GMT on July 03, 2016","2016","07","03","09","30","UTC","29.0","84.2","17.0","62.6","48","10.8","6.7","-9999.0","-9999.0","110","ESE","-9999.0","-9999.0","1015","29.98","-999","-999","29.4","85.0","-9999.00","-9999.00","Clear","clear","0","0","0","0","0","0","METAR UKKK 030930Z 11003MPS 070V140 CAVOK 29/17 Q1015 R08/CLRD70 NOSIG"
"1:00 PM EEST on July 03, 2016","2016","07","03","13","00","Europe/Kiev","10:00 AM GMT on July 03, 2016","2016","07","03","10","00","UTC","29.0","84.2","15.0","59.0","42","7.2","4.5","-9999.0","-9999.0","170","South","-9999.0","-9999.0","1015","29.98","-999","-999","28.8","83.8","-9999.00","-9999.00","Clear","clear","0","0","0","0","0","0","METAR UKKK 031000Z 17002MPS CAVOK 29/15 Q1015 R08/CLRD70 NOSIG"
"1:30 PM EEST on July 03, 2016","2016","07","03","13","30","Europe/Kiev","10:30 AM GMT on July 03, 2016","2016","07","03","10","30","UTC","29.0","84.2","16.0","60.8","45","10.8","6.7","-9999.0","-9999.0","120","ESE","-9999.0","-9999.0","1014","29.95","-999","-999","29.1","84.4","-9999.00","-9999.00","Clear","clear","0","0","0","0","0","0","METAR UKKK 031030Z 12003MPS 060V160 CAVOK 29/16 Q1014 R08/CLRD70 NOSIG"
"2:00 PM EEST on July 03, 2016","2016","07","03","14","00","Europe/Kiev","11:00 AM GMT on July 03, 2016","2016","07","03","11","00","UTC","29.0","84.2","17.0","62.6","48","7.2","4.5","-9999.0","-9999.0","170","South","-9999.0","-9999.0","1014","29.95","-999","-999","29.4","85.0","-9999.00","-9999.00","Clear","clear","0","0","0","0","0","0","METAR UKKK 031100Z 17002MPS CAVOK 29/17 Q1014 R08/CLRD70 NOSIG"
"2:30 PM EEST on July 03, 2016","2016","07","03","14","30","Europe/Kiev","11:30 AM GMT on July 03, 2016","2016","07","03","11","30","UTC","29.0","84.2","17.0","62.6","48","10.8","6.7","-9999.0","-9999.0","220","SW","-9999.0","-9999.0","1013","29.92","-999","-999","29.4","85.0","-9999.00","-9999.00","Clear","clear","0","0","0","0","0","0","METAR UKKK 031130Z 22003MPS 110V280 CAVOK 29/17 Q1013 R08/CLRD70 NOSIG"
"3:00 PM EEST on July 03, 2016","2016","07","03","15","00","Europe/Kiev","12:00 PM GMT on July 03, 2016","2016","07","03","12","00","UTC","30","85","14","58","29","10.8","6.7","","","180","South","20","12","1012","29.89","-999","-999","-9999","-9999","","","Partly Cloudy","partlycloudy","0","0","0","0","0","0","AAXX 03121 33345 32598 41803 10295 20142 39933 40121 57020 84200 555 10056"
"3:00 PM EEST on July 03, 2016","2016","07","03","15","00","Europe/Kiev","12:00 PM GMT on July 03, 2016","2016","07","03","12","00","UTC","29.0","84.2","16.0","60.8","45","10.8","6.7","-9999.0","-9999.0","170","South","-9999.0","-9999.0","1013","29.92","-999","-999","29.1","84.4","-9999.00","-9999.00","Clear","clear","0","0","0","0","0","0","METAR UKKK 031200Z 17003MPS 050V220 CAVOK 29/16 Q1013 R08/CLRD70 NOSIG"
"3:30 PM EEST on July 03, 2016","2016","07","03","15","30","Europe/Kiev","12:30 PM GMT on July 03, 2016","2016","07","03","12","30","UTC","30.0","86.0","17.0","62.6","45","7.2","4.5","-9999.0","-9999.0","140","SE","-9999.0","-9999.0","1012","29.89","-999","-999","30.3","86.6","-9999.00","-9999.00","Clear","clear","0","0","0","0","0","0","METAR UKKK 031230Z 14002MPS CAVOK 30/17 Q1012 R08/CLRD70 NOSIG"
"4:00 PM EEST on July 03, 2016","2016","07","03","16","00","Europe/Kiev","1:00 PM GMT on July 03, 2016","2016","07","03","13","00","UTC","29.0","84.2","17.0","62.6","48","10.8","6.7","-9999.0","-9999.0","190","South","-9999.0","-9999.0","1012","29.89","-999","-999","29.4","85.0","-9999.00","-9999.00","Clear","clear","0","0","0","0","0","0","METAR UKKK 031300Z 19003MPS 100V250 CAVOK 29/17 Q1012 R08/CLRD70 NOSIG"
"4:30 PM EEST on July 03, 2016","2016","07","03","16","30","Europe/Kiev","1:30 PM GMT on July 03, 2016","2016","07","03","13","30","UTC","30.0","86.0","16.0","60.8","43","10.8","6.7","-9999.0","-9999.0","160","SSE","-9999.0","-9999.0","1012","29.89","-999","-999","30.1","86.1","-9999.00","-9999.00","Clear","clear","0","0","0","0","0","0","METAR UKKK 031330Z 16003MPS 100V240 CAVOK 30/16 Q1012 R08/CLRD70 NOSIG"
"5:00 PM EEST on July 03, 2016","2016","07","03","17","00","Europe/Kiev","2:00 PM GMT on July 03, 2016","2016","07","03","14","00","UTC","29.0","84.2","16.0","60.8","45","14.4","8.9","-9999.0","-9999.0","200","SSW","-9999.0","-9999.0","1012","29.89","-999","-999","29.1","84.4","-9999.00","-9999.00","Clear","clear","0","0","0","0","0","0","METAR UKKK 031400Z 20004MPS 140V250 CAVOK 29/16 Q1012 R08/CLRD70 NOSIG"
"5:30 PM EEST on July 03, 2016","2016","07","03","17","30","Europe/Kiev","2:30 PM GMT on July 03, 2016","2016","07","03","14","30","UTC","29.0","84.2","16.0","60.8","45","14.4","8.9","-9999.0","-9999.0","190","South","10.0","6.2","1012","29.89","-999","-999","29.1","84.4","-9999.00","-9999.00","Scattered Clouds","partlycloudy","0","0","0","0","0","0","METAR UKKK 031430Z 19004MPS 130V250 9999 FEW033CB SCT080 29/16 Q1012 R26/CLRD70 NOSIG"
"6:00 PM EEST on July 03, 2016","2016","07","03","18","00","Europe/Kiev","3:00 PM GMT on July 03, 2016","2016","07","03","15","00","UTC","29","84","15","60","34","14.4","8.9","","","210","SSW","20","12","1011","29.85","-999","-999","-9999","-9999","","","Mostly Cloudy","mostlycloudy","0","0","0","0","0","0","AAXX 03151 33345 42598 62104 10290 20154 39918 40106 57015 86200 555 10046"
"6:00 PM EEST on July 03, 2016","2016","07","03","18","00","Europe/Kiev","3:00 PM GMT on July 03, 2016","2016","07","03","15","00","UTC","29.0","84.2","16.0","60.8","45","14.4","8.9","-9999.0","-9999.0","210","SSW","10.0","6.2","1011","29.86","-999","-999","29.1","84.4","-9999.00","-9999.00","Scattered Clouds","partlycloudy","0","0","0","0","0","0","METAR UKKK 031500Z 21004MPS 180V240 9999 FEW033CB SCT080 29/16 Q1011 R26/CLRD70 TEMPO VRB09G14MPS 2100 -TSRAGR BKN020CB"
"6:30 PM EEST on July 03, 2016","2016","07","03","18","30","Europe/Kiev","3:30 PM GMT on July 03, 2016","2016","07","03","15","30","UTC","28.0","82.4","16.0","60.8","48","10.8","6.7","-9999.0","-9999.0","190","South","10.0","6.2","1011","29.86","-999","-999","28.3","82.9","-9999.00","-9999.00","Scattered Clouds","partlycloudy","0","0","0","0","0","0","METAR UKKK 031530Z 19003MPS 140V240 9999 FEW033CB SCT080 28/16 Q1011 R26/CLRD70 TEMPO VRB09G14MPS 2100 -TSRAGR BKN020CB"
"7:00 PM EEST on July 03, 2016","2016","07","03","19","00","Europe/Kiev","4:00 PM GMT on July 03, 2016","2016","07","03","16","00","UTC","28.0","82.4","16.0","60.8","48","10.8","6.7","-9999.0","-9999.0","210","SSW","-9999.0","-9999.0","1012","29.89","-999","-999","28.3","82.9","-9999.00","-9999.00","Clear","clear","0","0","0","0","0","0","METAR UKKK 031600Z 21003MPS 180V270 CAVOK 28/16 Q1012 R26/CLRD70 TEMPO VRB09G14MPS 2100 -TSRAGR BKN020CB"
"7:30 PM EEST on July 03, 2016","2016","07","03","19","30","Europe/Kiev","4:30 PM GMT on July 03, 2016","2016","07","03","16","30","UTC","28.0","82.4","16.0","60.8","48","10.8","6.7","-9999.0","-9999.0","200","SSW","-9999.0","-9999.0","1012","29.89","-999","-999","28.3","82.9","-9999.00","-9999.00","Clear","clear","0","0","0","0","0","0","METAR UKKK 031630Z 20003MPS 170V230 CAVOK 28/16 Q1012 R26/CLRD70 TEMPO VRB09G14MPS 2100 -TSRAGR BKN020CB"
"8:00 PM EEST on July 03, 2016","2016","07","03","20","00","Europe/Kiev","5:00 PM GMT on July 03, 2016","2016","07","03","17","00","UTC","27.0","80.6","16.0","60.8","51","7.2","4.5","-9999.0","-9999.0","220","SW","9.0","5.6","1012","29.89","-999","-999","27.5","81.5","-9999.00","-9999.00","Scattered Clouds","partlycloudy","0","0","0","0","0","0","METAR UKKK 031700Z 22002MPS 180V240 9000 FEW046TCU SCT060 27/16 Q1012 R26/CLRD70 TEMPO VRB09G14MPS 2100 -TSRAGR BKN020CB"
"8:30 PM EEST on July 03, 2016","2016","07","03","20","30","Europe/Kiev","5:30 PM GMT on July 03, 2016","2016","07","03","17","30","UTC","26.0","78.8","16.0","60.8","54","7.2","4.5","-9999.0","-9999.0","210","SSW","6.0","3.7","1012","29.89","-999","-999","-9999","-9999","-9999.00","-9999.00","Unknown","unknown","0","0","0","0","0","0","METAR UKKK 031730Z 21002MPS 170V230 6000 NSC 26/16 Q1012 R26/CLRD70 TEMPO VRB09G14MPS 2100 -TSRAGR BKN020CB"
"9:00 PM EEST on July 03, 2016","2016","07","03","21","00","Europe/Kiev","6:00 PM GMT on July 03, 2016","2016","07","03","18","00","UTC","25","78","16","61","46","7.2","4.5","","","180","South","20","12","1011","29.87","-999","-999","-9999","-9999","","","Partly Cloudy","partlycloudy","0","0","0","0","0","0","AAXX 03181 33345 32998 61802 10254 20160 39923 40113 53005 83031 333 10302 555 10028"
"9:00 PM EEST on July 03, 2016","2016","07","03","21","00","Europe/Kiev","6:00 PM GMT on July 03, 2016","2016","07","03","18","00","UTC","25.0","77.0","17.0","62.6","61","7.2","4.5","-9999.0","-9999.0","180","South","8.0","5.0","1012","29.89","-999","-999","-9999","-9999","-9999.00","-9999.00","Unknown","unknown","0","0","0","0","0","0","METAR UKKK 031800Z 18002MPS 8000 NSC 25/17 Q1012 R26/CLRD70 TEMPO VRB13G18MPS 2100 -TSRAGR SQ BKN020CB"
"9:30 PM EEST on July 03, 2016","2016","07","03","21","30","Europe/Kiev","6:30 PM GMT on July 03, 2016","2016","07","03","18","30","UTC","24.0","75.2","16.0","60.8","61","7.2","4.5","-9999.0","-9999.0","160","SSE","8.0","5.0","1012","29.89","-999","-999","-9999","-9999","-9999.00","-9999.00","Unknown","unknown","0","0","0","0","0","0","METAR UKKK 031830Z 16002MPS 8000 NSC 24/16 Q1012 R26/CLRD70 TEMPO VRB13G18MPS 2100 -TSRAGR SQ BKN020CB"
"10:00 PM EEST on July 03, 2016","2016","07","03","22","00","Europe/Kiev","7:00 PM GMT on July 03, 2016","2016","07","03","19","00","UTC","23.0","73.4","17.0","62.6","69","7.2","4.5","-9999.0","-9999.0","180","South","-9999.0","-9999.0","1012","29.89","-999","-999","-9999","-9999","-9999.00","-9999.00","Smoke","hazy","0","0","0","0","0","0","METAR UKKK 031900Z 18002MPS 150V210 4200 FU NSC 23/17 Q1012 R26/CLRD70 TEMPO VRB13G18MPS 2100 -TSRAGR SQ BKN020CB"
"10:05 PM EEST on July 03, 2016","2016","07","03","22","05","Europe/Kiev","7:05 PM GMT on July 03, 2016","2016","07","03","19","05","UTC","23.0","73.4","16.0","60.8","65","7.2","4.5","-9999.0","-9999.0","180","South","1.4","0.9","1012","29.89","-999","-999","-9999","-9999","-9999.00","-9999.00","Smoke","hazy","0","0","0","0","0","0","SPECI UKKK 031905Z 18002MPS 150V210 1400 R26/P2000N FU NSC 23/16 Q1012 R26/CLRD70 TEMPO VRB13G18MPS 2100 -TSRAGR SQ BKN020CB"
"10:15 PM EEST on July 03, 2016","2016","07","03","22","15","Europe/Kiev","7:15 PM GMT on July 03, 2016","2016","07","03","19","15","UTC","23.0","73.4","16.0","60.8","65","7.2","4.5","-9999.0","-9999.0","180","South","5.0","3.1","1012","29.89","-999","-999","-9999","-9999","-9999.00","-9999.00","Smoke","hazy","0","0","0","0","0","0","SPECI UKKK 031915Z 18002MPS 5000 FU NSC 23/16 Q1012 R26/CLRD70 TEMPO VRB13G18MPS 2100 -TSRAGR SQ BKN020CB"
"10:30 PM EEST on July 03, 2016","2016","07","03","22","30","Europe/Kiev","7:30 PM GMT on July 03, 2016","2016","07","03","19","30","UTC","24.0","75.2","17.0","62.6","65","7.2","4.5","-9999.0","-9999.0","190","South","9.0","5.6","1012","29.89","-999","-999","-9999","-9999","-9999.00","-9999.00","Unknown","unknown","0","0","0","0","0","0","METAR UKKK 031930Z 19002MPS 9000 NSC 24/17 Q1012 R26/CLRD70 TEMPO VRB13G18MPS 2100 -TSRAGR SQ BKN020CB"
"11:00 PM EEST on July 03, 2016","2016","07","03","23","00","Europe/Kiev","8:00 PM GMT on July 03, 2016","2016","07","03","20","00","UTC","23.0","73.4","17.0","62.6","69","10.8","6.7","32.4","20.1","200","SSW","9.0","5.6","1012","29.89","-999","-999","-9999","-9999","-9999.00","-9999.00","Unknown","unknown","0","0","0","0","0","0","METAR UKKK 032000Z 20003G09MPS 160V260 9000 NSC 23/17 Q1012 R26/CLRD70 TEMPO VRB13G18MPS 2100 -TSRAGR SQ BKN020CB"
"11:30 PM EEST on July 03, 2016","2016","07","03","23","30","Europe/Kiev","8:30 PM GMT on July 03, 2016","2016","07","03","20","30","UTC","23.0","73.4","16.0","60.8","65","18.0","11.2","-9999.0","-9999.0","290","WNW","-9999.0","-9999.0","1012","29.89","-999","-999","-9999","-9999","-9999.00","-9999.00","Clear","clear","0","0","0","0","0","0","METAR UKKK 032030Z 29005MPS 260V330 CAVOK 23/16 Q1012 R26/CLRD70 TEMPO VRB13G18MPS 2100 -TSRAGR SQ BKN020CB"
"12:00 AM EEST on July 04, 2016","2016","07","04","00","00","Europe/Kiev","9:00 PM GMT on July 03, 2016","2016","07","03","21","00","UTC","23","74","15","58","49","7.2","4.5","","","320","NW","20","12","1012","29.88","-999","-999","-9999","-9999","","","Scattered Clouds","partlycloudy","0","0","0","0","0","0","AAXX 03211 33345 42998 23202 10231 20147 39925 40117 52002 82030 555 10024"
"12:00 AM EEST on July 04, 2016","2016","07","04","00","00","Europe/Kiev","9:00 PM GMT on July 03, 2016","2016","07","03","21","00","UTC","23.0","73.4","15.0","59.0","61","14.4","8.9","-9999.0","-9999.0","300","WNW","-9999.0","-9999.0","1012","29.89","-999","-999","-9999","-9999","-9999.00","-9999.00","Clear","clear","0","0","0","0","0","0","METAR UKKK 032100Z 30004MPS 280V350 CAVOK 23/15 Q1012 R26/CLRD70 NOSIG"
"12:30 AM EEST on July 04, 2016","2016","07","04","00","30","Europe/Kiev","9:30 PM GMT on July 03, 2016","2016","07","03","21","30","UTC","22.0","71.6","15.0","59.0","64","10.8","6.7","-9999.0","-9999.0","310","NW","-9999.0","-9999.0","1012","29.89","-999","-999","-9999","-9999","-9999.00","-9999.00","Clear","clear","0","0","0","0","0","0","METAR UKKK 032130Z 31003MPS CAVOK 22/15 Q1012 R26/CLRD70 NOSIG"
"1:00 AM EEST on July 04, 2016","2016","07","04","01","00","Europe/Kiev","10:00 PM GMT on July 03, 2016","2016","07","03","22","00","UTC","22.0","71.6","15.0","59.0","64","10.8","6.7","-9999.0","-9999.0","340","NNW","-9999.0","-9999.0","1012","29.89","-999","-999","-9999","-9999","-9999.00","-9999.00","Clear","clear","0","0","0","0","0","0","METAR UKKK 032200Z 34003MPS CAVOK 22/15 Q1012 R26/CLRD70 NOSIG"
"1:30 AM EEST on July 04, 2016","2016","07","04","01","30","Europe/Kiev","10:30 PM GMT on July 03, 2016","2016","07","03","22","30","UTC","22.0","71.6","15.0","59.0","64","10.8","6.7","-9999.0","-9999.0","320","NW","-9999.0","-9999.0","1012","29.89","-999","-999","-9999","-9999","-9999.00","-9999.00","Clear","clear","0","0","0","0","0","0","METAR UKKK 032230Z 32003MPS CAVOK 22/15 Q1012 R26/CLRD70 NOSIG"
"2:00 AM EEST on July 04, 2016","2016","07","04","02","00","Europe/Kiev","11:00 PM GMT on July 03, 2016","2016","07","03","23","00","UTC","21.0","69.8","16.0","60.8","73","14.4","8.9","-9999.0","-9999.0","300","WNW","-9999.0","-9999.0","1012","29.89","-999","-999","-9999","-9999","-9999.00","-9999.00","Clear","clear","0","0","0","0","0","0","METAR UKKK 032300Z 30004MPS CAVOK 21/16 Q1012 R26/CLRD70 NOSIG"
"2:30 AM EEST on July 04, 2016","2016","07","04","02","30","Europe/Kiev","11:30 PM GMT on July 03, 2016","2016","07","03","23","30","UTC","21.0","69.8","16.0","60.8","73","18.0","11.2","-9999.0","-9999.0","280","West","-9999.0","-9999.0","1012","29.89","-999","-999","-9999","-9999","-9999.00","-9999.00","Clear","clear","0","0","0","0","0","0","METAR UKKK 032330Z 28005MPS CAVOK 21/16 Q1012 R26/CLRD70 NOSIG"
"3:00 AM EEST on July 04, 2016","2016","07","04","03","00","Europe/Kiev","12:00 AM GMT on July 04, 2016","2016","07","04","00","00","UTC","21","70","15","59","60","10.8","6.7","","","280","West","20","12","1012","29.88","-999","-999","-9999","-9999","","","Partly Cloudy","partlycloudy","0","0","0","0","0","0","AAXX 04001 33345 32998 32803 10210 20151 39923 40116 58002 83030 555 10023"
"3:00 AM EEST on July 04, 2016","2016","07","04","03","00","Europe/Kiev","12:00 AM GMT on July 04, 2016","2016","07","04","00","00","UTC","20.0","68.0","16.0","60.8","78","18.0","11.2","-9999.0","-9999.0","280","West","-9999.0","-9999.0","1012","29.89","-999","-999","-9999","-9999","-9999.00","-9999.00","Clear","clear","0","0","0","0","0","0","METAR UKKK 040000Z 28005MPS CAVOK 20/16 Q1012 R26/CLRD70 NOSIG"
"3:30 AM EEST on July 04, 2016","2016","07","04","03","30","Europe/Kiev","12:30 AM GMT on July 04, 2016","2016","07","04","00","30","UTC","19.0","66.2","16.0","60.8","83","21.6","13.4","-9999.0","-9999.0","290","WNW","-9999.0","-9999.0","1012","29.89","-999","-999","-9999","-9999","-9999.00","-9999.00","Clear","clear","0","0","0","0","0","0","METAR UKKK 040030Z 29006MPS CAVOK 19/16 Q1012 R26/CLRD70 NOSIG"
"4:00 AM EEST on July 04, 2016","2016","07","04","04","00","Europe/Kiev","1:00 AM GMT on July 04, 2016","2016","07","04","01","00","UTC","19.0","66.2","17.0","62.6","88","21.6","13.4","-9999.0","-9999.0","290","WNW","10.0","6.2","1012","29.89","-999","-999","-9999","-9999","-9999.00","-9999.00","Mostly Cloudy","mostlycloudy","0","0","0","0","0","0","METAR UKKK 040100Z 29006MPS 9999 SCT013 BKN100 19/17 Q1012 R26/CLRD70 NOSIG"
"4:30 AM EEST on July 04, 2016","2016","07","04","04","30","Europe/Kiev","1:30 AM GMT on July 04, 2016","2016","07","04","01","30","UTC","19.0","66.2","17.0","62.6","88","21.6","13.4","-9999.0","-9999.0","300","WNW","10.0","6.2","1012","29.89","-999","-999","-9999","-9999","-9999.00","-9999.00","Mostly Cloudy","mostlycloudy","0","0","0","0","0","0","METAR UKKK 040130Z 30006MPS 9999 SCT013 BKN100 19/17 Q1012 R26/CLRD70 NOSIG"
"5:00 AM EEST on July 04, 2016","2016","07","04","05","00","Europe/Kiev","2:00 AM GMT on July 04, 2016","2016","07","04","02","00","UTC","19.0","66.2","17.0","62.6","88","21.6","13.4","-9999.0","-9999.0","310","NW","10.0","6.2","1012","29.89","-999","-999","-9999","-9999","-9999.00","-9999.00","Mostly Cloudy","mostlycloudy","0","0","0","0","0","0","METAR UKKK 040200Z 31006MPS 9999 SCT012 BKN100 19/17 Q1012 R26/CLRD70 NOSIG"
"5:30 AM EEST on July 04, 2016","2016","07","04","05","30","Europe/Kiev","2:30 AM GMT on July 04, 2016","2016","07","04","02","30","UTC","19.0","66.2","17.0","62.6","88","18.0","11.2","-9999.0","-9999.0","300","WNW","10.0","6.2","1012","29.89","-999","-999","-9999","-9999","-9999.00","-9999.00","Mostly Cloudy","mostlycloudy","0","0","0","0","0","0","METAR UKKK 040230Z 30005MPS 9999 SCT012 BKN100 19/17 Q1012 R26/CLRD70 NOSIG"
"6:00 AM EEST on July 04, 2016","2016","07","04","06","00","Europe/Kiev","3:00 AM GMT on July 04, 2016","2016","07","04","03","00","UTC","20","67","16","60","73","10.8","6.7","","","310","NW","20","12","1012","29.89","-999","-999","-9999","-9999","","","Partly Cloudy","partlycloudy","0","0","0","0","0","0","AAXX 04031 33345 42598 63103 10195 20158 39926 40120 53003 84580 555 10022"
"6:00 AM EEST on July 04, 2016","2016","07","04","06","00","Europe/Kiev","3:00 AM GMT on July 04, 2016","2016","07","04","03","00","UTC","19.0","66.2","17.0","62.6","88","21.6","13.4","-9999.0","-9999.0","300","WNW","10.0","6.2","1012","29.89","-999","-999","-9999","-9999","-9999.00","-9999.00","Mostly Cloudy","mostlycloudy","0","0","0","0","0","0","METAR UKKK 040300Z 30006MPS 9999 SCT012 BKN100 19/17 Q1012 R26/CLRD70 NOSIG"
"6:30 AM EEST on July 04, 2016","2016","07","04","06","30","Europe/Kiev","3:30 AM GMT on July 04, 2016","2016","07","04","03","30","UTC","19.0","66.2","17.0","62.6","88","18.0","11.2","-9999.0","-9999.0","290","WNW","10.0","6.2","1012","29.89","-999","-999","-9999","-9999","-9999.00","-9999.00","Mostly Cloudy","mostlycloudy","0","0","0","0","0","0","METAR UKKK 040330Z 29005MPS 9999 BKN011 19/17 Q1012 R26/CLRD70 NOSIG"
"7:00 AM EEST on July 04, 2016","2016","07","04","07","00","Europe/Kiev","4:00 AM GMT on July 04, 2016","2016","07","04","04","00","UTC","18.0","64.4","16.0","60.8","88","28.8","17.9","-9999.0","-9999.0","300","WNW","10.0","6.2","1012","29.89","-999","-999","-9999","-9999","-9999.00","-9999.00","Mostly Cloudy","mostlycloudy","0","0","0","0","0","0","METAR UKKK 040400Z 30008MPS 9999 BKN011 18/16 Q1012 R26/CLRD70 NOSIG"
"7:30 AM EEST on July 04, 2016","2016","07","04","07","30","Europe/Kiev","4:30 AM GMT on July 04, 2016","2016","07","04","04","30","UTC","18.0","64.4","15.0","59.0","83","25.2","15.7","-9999.0","-9999.0","300","WNW","10.0","6.2","1013","29.92","-999","-999","-9999","-9999","-9999.00","-9999.00","Mostly Cloudy","mostlycloudy","0","0","0","0","0","0","METAR UKKK 040430Z 30007MPS 9999 BKN011 18/15 Q1013 R26/CLRD70 TEMPO 33009G14MPS"
"8:00 AM EEST on July 04, 2016","2016","07","04","08","00","Europe/Kiev","5:00 AM GMT on July 04, 2016","2016","07","04","05","00","UTC","18.0","64.4","15.0","59.0","83","28.8","17.9","-9999.0","-9999.0","310","NW","10.0","6.2","1013","29.92","-999","-999","-9999","-9999","-9999.00","-9999.00","Mostly Cloudy","mostlycloudy","0","0","0","0","0","0","METAR UKKK 040500Z 31008MPS 9999 BKN015 18/15 Q1013 R26/CLRD70 TEMPO 33009G14MPS"
"8:30 AM EEST on July 04, 2016","2016","07","04","08","30","Europe/Kiev","5:30 AM GMT on July 04, 2016","2016","07","04","05","30","UTC","19.0","66.2","15.0","59.0","78","25.2","15.7","-9999.0","-9999.0","310","NW","10.0","6.2","1013","29.92","-999","-999","-9999","-9999","-9999.00","-9999.00","Mostly Cloudy","mostlycloudy","0","0","0","0","0","0","METAR UKKK 040530Z 31007MPS 9999 BKN016 19/15 Q1013 R26/CLRD70 TEMPO 33009G14MPS"
"9:00 AM EEST on July 04, 2016","2016","07","04","09","00","Europe/Kiev","6:00 AM GMT on July 04, 2016","2016","07","04","06","00","UTC","18","65","14","56","66","14.4","8.9","","","330","NNW","20","12","1013","29.92","-999","-999","-9999","-9999","","","Mostly Cloudy","mostlycloudy","0","0","0","0","0","0","AAXX 04061 33345 32598 73304 10183 20136 39937 40132 52011 86330 333 20178 555 10027"
"9:00 AM EEST on July 04, 2016","2016","07","04","09","00","Europe/Kiev","6:00 AM GMT on July 04, 2016","2016","07","04","06","00","UTC","18.0","64.4","14.0","57.2","77","25.2","15.7","-9999.0","-9999.0","300","WNW","10.0","6.2","1013","29.92","-999","-999","-9999","-9999","-9999.00","-9999.00","Mostly Cloudy","mostlycloudy","0","0","0","0","0","0","METAR UKKK 040600Z 30007MPS 9999 BKN016 18/14 Q1013 R26/CLRD70 TEMPO 33011G16MPS"
"9:30 AM EEST on July 04, 2016","2016","07","04","09","30","Europe/Kiev","6:30 AM GMT on July 04, 2016","2016","07","04","06","30","UTC","18.0","64.4","13.0","55.4","73","25.2","15.7","-9999.0","-9999.0","310","NW","10.0","6.2","1014","29.95","-999","-999","-9999","-9999","-9999.00","-9999.00","Mostly Cloudy","mostlycloudy","0","0","0","0","0","0","METAR UKKK 040630Z 31007MPS 9999 BKN019 18/13 Q1014 R26/CLRD70 TEMPO 33011G16MPS"
"10:00 AM EEST on July 04, 2016","2016","07","04","10","00","Europe/Kiev","7:00 AM GMT on July 04, 2016","2016","07","04","07","00","UTC","18.0","64.4","13.0","55.4","73","32.4","20.1","-9999.0","-9999.0","310","NW","10.0","6.2","1014","29.95","-999","-999","-9999","-9999","-9999.00","-9999.00","Mostly Cloudy","mostlycloudy","0","0","0","0","0","0","METAR UKKK 040700Z 31009MPS 9999 BKN021 18/13 Q1014 R26/CLRD70 TEMPO 33011G16MPS"
"10:30 AM EEST on July 04, 2016","2016","07","04","10","30","Europe/Kiev","7:30 AM GMT on July 04, 2016","2016","07","04","07","30","UTC","18.0","64.4","13.0","55.4","73","25.2","15.7","-9999.0","-9999.0","300","WNW","10.0","6.2","1014","29.95","-999","-999","-9999","-9999","-9999.00","-9999.00","Mostly Cloudy","mostlycloudy","0","0","0","0","0","0","METAR UKKK 040730Z 30007MPS 9999 BKN024 18/13 Q1014 R26/CLRD70 TEMPO 33011G16MPS"
"11:00 AM EEST on July 04, 2016","2016","07","04","11","00","Europe/Kiev","8:00 AM GMT on July 04, 2016","2016","07","04","08","00","UTC","18.0","64.4","13.0","55.4","73","28.8","17.9","-9999.0","-9999.0","310","NW","10.0","6.2","1015","29.98","-999","-999","-9999","-9999","-9999.00","-9999.00","Mostly Cloudy","mostlycloudy","0","0","0","0","0","0","METAR UKKK 040800Z 31008MPS 280V340 9999 BKN025 18/13 Q1015 R26/CLRD70 TEMPO 33011G16MPS"
"11:30 AM EEST on July 04, 2016","2016","07","04","11","30","Europe/Kiev","8:30 AM GMT on July 04, 2016","2016","07","04","08","30","UTC","19.0","66.2","13.0","55.4","68","28.8","17.9","-9999.0","-9999.0","320","NW","10.0","6.2","1015","29.98","-999","-999","-9999","-9999","-9999.00","-9999.00","Light Rain","rain","0","1","0","0","0","0","METAR UKKK 040830Z 32008MPS 290V350 9999 -RA OVC025 19/13 Q1015 R26/190060 TEMPO 33011G16MPS"
"12:00 PM EEST on July 04, 2016","2016","07","04","12","00","Europe/Kiev","9:00 AM GMT on July 04, 2016","2016","07","04","09","00","UTC","19","65","12","53","56","14.4","8.9","","","320","NW","20","12","1015","29.98","-999","-999","-9999","-9999","","","Mostly Cloudy","mostlycloudy","0","0","0","0","0","0","AAXX 04091 33345 42498 73204 10186 20117 39956 40152 52019 87300 333 87917 555 10029"
"12:00 PM EEST on July 04, 2016","2016","07","04","12","00","Europe/Kiev","9:00 AM GMT on July 04, 2016","2016","07","04","09","00","UTC","18.0","64.4","13.0","55.4","73","25.2","15.7","-9999.0","-9999.0","300","WNW","10.0","6.2","1015","29.98","-999","-999","-9999","-9999","-9999.00","-9999.00","Mostly Cloudy","mostlycloudy","0","0","0","0","0","0","METAR UKKK 040900Z 30007MPS 9999 BKN025 BKN083 18/13 Q1015 R26/190060 TEMPO 33011G16MPS"
"12:30 PM EEST on July 04, 2016","2016","07","04","12","30","Europe/Kiev","9:30 AM GMT on July 04, 2016","2016","07","04","09","30","UTC","17.0","62.6","15.0","59.0","88","21.6","13.4","-9999.0","-9999.0","300","WNW","8.0","5.0","1016","30.01","-999","-999","-9999","-9999","-9999.00","-9999.00","Light Rain Showers","rain","0","1","0","0","0","0","METAR UKKK 040930Z 30006MPS 8000 -SHRA SCT024CB BKN083 17/15 Q1016 R26/290158 TEMPO 33011G16MPS"
"1:00 PM EEST on July 04, 2016","2016","07","04","13","00","Europe/Kiev","10:00 AM GMT on July 04, 2016","2016","07","04","10","00","UTC","18.0","64.4","15.0","59.0","83","18.0","11.2","-9999.0","-9999.0","310","NW","10.0","6.2","1015","29.98","-999","-999","-9999","-9999","-9999.00","-9999.00","Mostly Cloudy","mostlycloudy","0","0","0","0","0","0","METAR UKKK 041000Z 31005MPS 260V330 9999 SCT017 BKN050 18/15 Q1015 R26/290158 TEMPO 33011G16MPS"
"1:30 PM EEST on July 04, 2016","2016","07","04","13","30","Europe/Kiev","10:30 AM GMT on July 04, 2016","2016","07","04","10","30","UTC","19.0","66.2","14.0","57.2","73","21.6","13.4","-9999.0","-9999.0","300","WNW","10.0","6.2","1015","29.98","-999","-999","-9999","-9999","-9999.00","-9999.00","Mostly Cloudy","mostlycloudy","0","0","0","0","0","0","METAR UKKK 041030Z 30006MPS 270V330 9999 BKN028 19/14 Q1015 R26/290158 TEMPO 33011G16MPS"
"2:00 PM EEST on July 04, 2016","2016","07","04","14","00","Europe/Kiev","11:00 AM GMT on July 04, 2016","2016","07","04","11","00","UTC","21.0","69.8","13.0","55.4","60","18.0","11.2","-9999.0","-9999.0","310","NW","10.0","6.2","1015","29.98","-999","-999","-9999","-9999","-9999.00","-9999.00","Mostly Cloudy","mostlycloudy","0","0","0","0","0","0","METAR UKKK 041100Z 31005MPS 280V050 9999 BKN034 21/13 Q1015 R26/190060 TEMPO 33011G16MPS"
"2:30 PM EEST on July 04, 2016","2016","07","04","14","30","Europe/Kiev","11:30 AM GMT on July 04, 2016","2016","07","04","11","30","UTC","22.0","71.6","12.0","53.6","53","21.6","13.4","-9999.0","-9999.0","320","NW","10.0","6.2","1015","29.98","-999","-999","-9999","-9999","-9999.00","-9999.00","Mostly Cloudy","mostlycloudy","0","0","0","0","0","0","METAR UKKK 041130Z 32006MPS 290V350 9999 BKN040 22/12 Q1015 R26/190060 TEMPO 33011G16MPS"
"3:00 PM EEST on July 04, 2016","2016","07","04","15","00","Europe/Kiev","12:00 PM GMT on July 04, 2016","2016","07","04","12","00","UTC","21","69","12","53","47","10.8","6.7","","","310","NW","20","12","1014","29.96","-999","-999","-9999","-9999","","","Partly Cloudy","partlycloudy","0","0","0","0","0","0","AAXX 04121 33345 /1498 53103 10207 20118 39951 40145 58005 70282 85300 555 10030 60011"
"3:00 PM EEST on July 04, 2016","2016","07","04","15","00","Europe/Kiev","12:00 PM GMT on July 04, 2016","2016","07","04","12","00","UTC","22.0","71.6","13.0","55.4","57","25.2","15.7","-9999.0","-9999.0","310","NW","10.0","6.2","1015","29.98","-999","-999","-9999","-9999","-9999.00","-9999.00","Mostly Cloudy","mostlycloudy","0","0","0","0","0","0","METAR UKKK 041200Z 31007MPS 9999 BKN049 22/13 Q1015 R26/190060 NOSIG"
"3:13 PM EEST on July 04, 2016","2016","07","04","15","13","Europe/Kiev","12:13 PM GMT on July 04, 2016","2016","07","04","12","13","UTC","23.0","73.4","12.0","53.6","50","25.2","15.7","43.2","26.8","300","WNW","-9999.0","-9999.0","1015","29.98","-999","-999","-9999","-9999","-9999.00","-9999.00","Clear","clear","0","0","0","0","0","0","SPECI UKKK 041213Z 30007G12MPS CAVOK 23/12 Q1015 R26/CLRD70 NOSIG"
"3:30 PM EEST on July 04, 2016","2016","07","04","15","30","Europe/Kiev","12:30 PM GMT on July 04, 2016","2016","07","04","12","30","UTC","23.0","73.4","12.0","53.6","50","21.6","13.4","-9999.0","-9999.0","300","WNW","-9999.0","-9999.0","1014","29.95","-999","-999","-9999","-9999","-9999.00","-9999.00","Clear","clear","0","0","0","0","0","0","METAR UKKK 041230Z 30006MPS 260V330 CAVOK 23/12 Q1014 R26/CLRD70 NOSIG"
"4:00 PM EEST on July 04, 2016","2016","07","04","16","00","Europe/Kiev","1:00 PM GMT on July 04, 2016","2016","07","04","13","00","UTC","23.0","73.4","11.0","51.8","47","28.8","17.9","-9999.0","-9999.0","300","WNW","-9999.0","-9999.0","1014","29.95","-999","-999","-9999","-9999","-9999.00","-9999.00","Clear","clear","0","0","0","0","0","0","METAR UKKK 041300Z 30008MPS 280V340 CAVOK 23/11 Q1014 R26/CLRD70 NOSIG"
"4:30 PM EEST on July 04, 2016","2016","07","04","16","30","Europe/Kiev","1:30 PM GMT on July 04, 2016","2016","07","04","13","30","UTC","23.0","73.4","10.0","50.0","44","28.8","17.9","-9999.0","-9999.0","300","WNW","-9999.0","-9999.0","1014","29.95","-999","-999","-9999","-9999","-9999.00","-9999.00","Clear","clear","0","0","0","0","0","0","METAR UKKK 041330Z 30008MPS 270V360 CAVOK 23/10 Q1014 R26/CLRD70 NOSIG"
"5:00 PM EEST on July 04, 2016","2016","07","04","17","00","Europe/Kiev","2:00 PM GMT on July 04, 2016","2016","07","04","14","00","UTC","24.0","75.2","10.0","50.0","41","21.6","13.4","-9999.0","-9999.0","350","North","-9999.0","-9999.0","1014","29.95","-999","-999","-9999","-9999","-9999.00","-9999.00","Clear","clear","0","0","0","0","0","0","METAR UKKK 041400Z 35006MPS 320V020 CAVOK 24/10 Q1014 R26/CLRD70 NOSIG"
"5:30 PM EEST on July 04, 2016","2016","07","04","17","30","Europe/Kiev","2:30 PM GMT on July 04, 2016","2016","07","04","14","30","UTC","23.0","73.4","6.0","42.8","33","28.8","17.9","-9999.0","-9999.0","310","NW","-9999.0","-9999.0","1015","29.98","-999","-999","-9999","-9999","-9999.00","-9999.00","Clear","clear","0","0","0","0","0","0","METAR UKKK 041430Z 31008MPS 270V350 CAVOK 23/06 Q1015 R26/CLRD70 NOSIG"
"6:00 PM EEST on July 04, 2016","2016","07","04","18","00","Europe/Kiev","3:00 PM GMT on July 04, 2016","2016","07","04","15","00","UTC","23","74","7","44","23","18.0","11.2","","","330","NNW","20","12","1014","29.96","-999","-999","-9999","-9999","","","Scattered Clouds","partlycloudy","0","0","0","0","0","0","AAXX 04151 33345 42598 23305 10234 20066 39950 40143 56001 82200 555 10035"
"6:00 PM EEST on July 04, 2016","2016","07","04","18","00","Europe/Kiev","3:00 PM GMT on July 04, 2016","2016","07","04","15","00","UTC","23.0","73.4","8.0","46.4","38","28.8","17.9","-9999.0","-9999.0","320","NW","-9999.0","-9999.0","1015","29.98","-999","-999","-9999","-9999","-9999.00","-9999.00","Clear","clear","0","0","0","0","0","0","METAR UKKK 041500Z 32008MPS 290V360 CAVOK 23/08 Q1015 R26/CLRD70 NOSIG"
"6:30 PM EEST on July 04, 2016","2016","07","04","18","30","Europe/Kiev","3:30 PM GMT on July 04, 2016","2016","07","04","15","30","UTC","22.0","71.6","7.0","44.6","38","28.8","17.9","-9999.0","-9999.0","330","NNW","-9999.0","-9999.0","1015","29.98","-999","-999","-9999","-9999","-9999.00","-9999.00","Clear","clear","0","0","0","0","0","0","METAR UKKK 041530Z 33008MPS CAVOK 22/07 Q1015 R26/CLRD70 NOSIG"
"7:00 PM EEST on July 04, 2016","2016","07","04","19","00","Europe/Kiev","4:00 PM GMT on July 04, 2016","2016","07","04","16","00","UTC","22.0","71.6","7.0","44.6","38","25.2","15.7","-9999.0","-9999.0","310","NW","-9999.0","-9999.0","1015","29.98","-999","-999","-9999","-9999","-9999.00","-9999.00","Clear","clear","0","0","0","0","0","0","METAR UKKK 041600Z 31007MPS CAVOK 22/07 Q1015 R26/CLRD70 NOSIG"
"7:30 PM EEST on July 04, 2016","2016","07","04","19","30","Europe/Kiev","4:30 PM GMT on July 04, 2016","2016","07","04","16","30","UTC","22.0","71.6","7.0","44.6","38","21.6","13.4","-9999.0","-9999.0","340","NNW","-9999.0","-9999.0","1015","29.98","-999","-999","-9999","-9999","-9999.00","-9999.00","Clear","clear","0","0","0","0","0","0","METAR UKKK 041630Z 34006MPS CAVOK 22/07 Q1015 R26/CLRD70 NOSIG"
"8:00 PM EEST on July 04, 2016","2016","07","04","20","00","Europe/Kiev","5:00 PM GMT on July 04, 2016","2016","07","04","17","00","UTC","22.0","71.6","7.0","44.6","38","21.6","13.4","-9999.0","-9999.0","340","NNW","-9999.0","-9999.0","1016","30.01","-999","-999","-9999","-9999","-9999.00","-9999.00","Clear","clear","0","0","0","0","0","0","METAR UKKK 041700Z 34006MPS CAVOK 22/07 Q1016 R26/CLRD70 NOSIG"
"8:30 PM EEST on July 04, 2016","2016","07","04","20","30","Europe/Kiev","5:30 PM GMT on July 04, 2016","2016","07","04","17","30","UTC","21.0","69.8","7.0","44.6","40","18.0","11.2","-9999.0","-9999.0","330","NNW","-9999.0","-9999.0","1016","30.01","-999","-999","-9999","-9999","-9999.00","-9999.00","Clear","clear","0","0","0","0","0","0","METAR UKKK 041730Z 33005MPS CAVOK 21/07 Q1016 R26/CLRD70 NOSIG"
"9:00 PM EEST on July 04, 2016","2016","07","04","21","00","Europe/Kiev","6:00 PM GMT on July 04, 2016","2016","07","04","18","00","UTC","21","69","6","42","27","10.8","6.7","","","340","NNW","20","12","1016","30.00","-999","-999","-9999","-9999","","","","","0","0","0","0","0","0","AAXX 04181 33345 12998 03403 10206 20058 39964 40159 53014 60012 333 10234 555 10020"
"9:00 PM EEST on July 04, 2016","2016","07","04","21","00","Europe/Kiev","6:00 PM GMT on July 04, 2016","2016","07","04","18","00","UTC","20.0","68.0","7.0","44.6","43","14.4","8.9","-9999.0","-9999.0","330","NNW","-9999.0","-9999.0","1016","30.01","-999","-999","-9999","-9999","-9999.00","-9999.00","Clear","clear","0","0","0","0","0","0","METAR UKKK 041800Z 33004MPS CAVOK 20/07 Q1016 R26/CLRD70 NOSIG"
"9:30 PM EEST on July 04, 2016","2016","07","04","21","30","Europe/Kiev","6:30 PM GMT on July 04, 2016","2016","07","04","18","30","UTC","20.0","68.0","7.0","44.6","43","14.4","8.9","-9999.0","-9999.0","320","NW","-9999.0","-9999.0","1016","30.01","-999","-999","-9999","-9999","-9999.00","-9999.00","Clear","clear","0","0","0","0","0","0","METAR UKKK 041830Z 32004MPS CAVOK 20/07 Q1016 R26/CLRD70 NOSIG"
"10:00 PM EEST on July 04, 2016","2016","07","04","22","00","Europe/Kiev","7:00 PM GMT on July 04, 2016","2016","07","04","19","00","UTC","17.0","62.6","8.0","46.4","55","10.8","6.7","-9999.0","-9999.0","310","NW","-9999.0","-9999.0","1017","30.04","-999","-999","-9999","-9999","-9999.00","-9999.00","Clear","clear","0","0","0","0","0","0","METAR UKKK 041900Z 31003MPS CAVOK 17/08 Q1017 R26/CLRD70 NOSIG"
"10:30 PM EEST on July 04, 2016","2016","07","04","22","30","Europe/Kiev","7:30 PM GMT on July 04, 2016","2016","07","04","19","30","UTC","17.0","62.6","7.0","44.6","52","10.8","6.7","-9999.0","-9999.0","300","WNW","-9999.0","-9999.0","1017","30.04","-999","-999","-9999","-9999","-9999.00","-9999.00","Clear","clear","0","0","0","0","0","0","METAR UKKK 041930Z 30003MPS CAVOK 17/07 Q1017 R26/CLRD70 NOSIG"
"11:00 PM EEST on July 04, 2016","2016","07","04","23","00","Europe/Kiev","8:00 PM GMT on July 04, 2016","2016","07","04","20","00","UTC","18.0","64.4","7.0","44.6","49","14.4","8.9","-9999.0","-9999.0","310","NW","-9999.0","-9999.0","1017","30.04","-999","-999","-9999","-9999","-9999.00","-9999.00","Clear","clear","0","0","0","0","0","0","METAR UKKK 042000Z 31004MPS CAVOK 18/07 Q1017 R26/CLRD70 NOSIG"
"11:30 PM EEST on July 04, 2016","2016","07","04","23","30","Europe/Kiev","8:30 PM GMT on July 04, 2016","2016","07","04","20","30","UTC","17.0","62.6","7.0","44.6","52","10.8","6.7","-9999.0","-9999.0","300","WNW","-9999.0","-9999.0","1017","30.04","-999","-999","-9999","-9999","-9999.00","-9999.00","Clear","clear","0","0","0","0","0","0","METAR UKKK 042030Z 30003MPS CAVOK 17/07 Q1017 R26/CLRD70 NOSIG"
"12:00 AM EEST on July 05, 2016","2016","07","05","00","00","Europe/Kiev","9:00 PM GMT on July 04, 2016","2016","07","04","21","00","UTC","18","65","5","40","29","7.2","4.5","","","320","NW","20","12","1017","30.03","-999","-999","-9999","-9999","","","","","0","0","0","0","0","0","AAXX 04211 33345 42998 03202 10182 20047 39971 40168 52007 555 10016"
"12:00 AM EEST on July 05, 2016","2016","07","05","00","00","Europe/Kiev","9:00 PM GMT on July 04, 2016","2016","07","04","21","00","UTC","17.0","62.6","7.0","44.6","52","14.4","8.9","-9999.0","-9999.0","300","WNW","-9999.0","-9999.0","1017","30.04","-999","-999","-9999","-9999","-9999.00","-9999.00","Clear","clear","0","0","0","0","0","0","METAR UKKK 042100Z 30004MPS CAVOK 17/07 Q1017 R26/CLRD70 NOSIG"
"12:30 AM EEST on July 05, 2016","2016","07","05","00","30","Europe/Kiev","9:30 PM GMT on July 04, 2016","2016","07","04","21","30","UTC","16.0","60.8","7.0","44.6","55","10.8","6.7","-9999.0","-9999.0","280","West","-9999.0","-9999.0","1017","30.04","-999","-999","-9999","-9999","-9999.00","-9999.00","Clear","clear","0","0","0","0","0","0","METAR UKKK 042130Z 28003MPS CAVOK 16/07 Q1017 R26/CLRD70 NOSIG"
"1:00 AM EEST on July 05, 2016","2016","07","05","01","00","Europe/Kiev","10:00 PM GMT on July 04, 2016","2016","07","04","22","00","UTC","15.0","59.0","7.0","44.6","59","10.8","6.7","-9999.0","-9999.0","270","West","-9999.0","-9999.0","1017","30.04","-999","-999","-9999","-9999","-9999.00","-9999.00","Clear","clear","0","0","0","0","0","0","METAR UKKK 042200Z 27003MPS CAVOK 15/07 Q1017 R26/CLRD70 NOSIG"
"1:30 AM EEST on July 05, 2016","2016","07","05","01","30","Europe/Kiev","10:30 PM GMT on July 04, 2016","2016","07","04","22","30","UTC","15.0","59.0","7.0","44.6","59","7.2","4.5","-9999.0","-9999.0","270","West","-9999.0","-9999.0","1017","30.04","-999","-999","-9999","-9999","-9999.00","-9999.00","Clear","clear","0","0","0","0","0","0","METAR UKKK 042230Z 27002MPS CAVOK 15/07 Q1017 R26/CLRD70 NOSIG"
"2:00 AM EEST on July 05, 2016","2016","07","05","02","00","Europe/Kiev","11:00 PM GMT on July 04, 2016","2016","07","04","23","00","UTC","14.0","57.2","7.0","44.6","63","10.8","6.7","-9999.0","-9999.0","270","West","-9999.0","-9999.0","1017","30.04","-999","-999","-9999","-9999","-9999.00","-9999.00","Clear","clear","0","0","0","0","0","0","METAR UKKK 042300Z 27003MPS CAVOK 14/07 Q1017 R26/CLRD70 NOSIG"
"2:30 AM EEST on July 05, 2016","2016","07","05","02","30","Europe/Kiev","11:30 PM GMT on July 04, 2016","2016","07","04","23","30","UTC","14.0","57.2","7.0","44.6","63","7.2","4.5","-9999.0","-9999.0","240","WSW","-9999.0","-9999.0","1017","30.04","-999","-999","-9999","-9999","-9999.00","-9999.00","Clear","clear","0","0","0","0","0","0","METAR UKKK 042330Z 24002MPS CAVOK 14/07 Q1017 R26/CLRD70 NOSIG"
"3:00 AM EEST on July 05, 2016","2016","07","05","03","00","Europe/Kiev","12:00 AM GMT on July 05, 2016","2016","07","05","00","00","UTC","15","59","5","41","41","3.6","2.2","","","280","West","20","12","1017","30.04","-999","-999","-9999","-9999","","","","","0","0","0","0","0","0","AAXX 05001 33345 32998 02801 10149 20052 39973 40172 52002 555 10013"
"3:00 AM EEST on July 05, 2016","2016","07","05","03","00","Europe/Kiev","12:00 AM GMT on July 05, 2016","2016","07","05","00","00","UTC","12.0","53.6","8.0","46.4","77","7.2","4.5","-9999.0","-9999.0","240","WSW","-9999.0","-9999.0","1017","30.04","-999","-999","-9999","-9999","-9999.00","-9999.00","Clear","clear","0","0","0","0","0","0","METAR UKKK 050000Z 24002MPS CAVOK 12/08 Q1017 R26/CLRD70 NOSIG"
"3:30 AM EEST on July 05, 2016","2016","07","05","03","30","Europe/Kiev","12:30 AM GMT on July 05, 2016","2016","07","05","00","30","UTC","11.0","51.8","8.0","46.4","82","7.2","4.5","-9999.0","-9999.0","240","WSW","-9999.0","-9999.0","1017","30.04","-999","-999","-9999","-9999","-9999.00","-9999.00","Clear","clear","0","0","0","0","0","0","METAR UKKK 050030Z 24002MPS CAVOK 11/08 Q1017 R26/CLRD70 NOSIG"
"4:00 AM EEST on July 05, 2016","2016","07","05","04","00","Europe/Kiev","1:00 AM GMT on July 05, 2016","2016","07","05","01","00","UTC","12.0","53.6","8.0","46.4","77","10.8","6.7","-9999.0","-9999.0","250","WSW","-9999.0","-9999.0","1017","30.04","-999","-999","-9999","-9999","-9999.00","-9999.00","Clear","clear","0","0","0","0","0","0","METAR UKKK 050100Z 25003MPS CAVOK 12/08 Q1017 R26/CLRD70 NOSIG"
"4:30 AM EEST on July 05, 2016","2016","07","05","04","30","Europe/Kiev","1:30 AM GMT on July 05, 2016","2016","07","05","01","30","UTC","11.0","51.8","8.0","46.4","82","10.8","6.7","-9999.0","-9999.0","260","West","-9999.0","-9999.0","1017","30.04","-999","-999","-9999","-9999","-9999.00","-9999.00","Clear","clear","0","0","0","0","0","0","METAR UKKK 050130Z 26003MPS CAVOK 11/08 Q1017 R26/CLRD70 NOSIG"
"5:00 AM EEST on July 05, 2016","2016","07","05","05","00","Europe/Kiev","2:00 AM GMT on July 05, 2016","2016","07","05","02","00","UTC","12.0","53.6","8.0","46.4","77","10.8","6.7","-9999.0","-9999.0","260","West","-9999.0","-9999.0","1017","30.04","-999","-999","-9999","-9999","-9999.00","-9999.00","Clear","clear","0","0","0","0","0","0","METAR UKKK 050200Z 26003MPS CAVOK 12/08 Q1017 R26/CLRD70 NOSIG"
"5:30 AM EEST on July 05, 2016","2016","07","05","05","30","Europe/Kiev","2:30 AM GMT on July 05, 2016","2016","07","05","02","30","UTC","12.0","53.6","8.0","46.4","77","10.8","6.7","-9999.0","-9999.0","240","WSW","-9999.0","-9999.0","1017","30.04","-999","-999","-9999","-9999","-9999.00","-9999.00","Clear","clear","0","0","0","0","0","0","METAR UKKK 050230Z 24003MPS CAVOK 12/08 Q1017 R26/CLRD70 NOSIG"
"6:00 AM EEST on July 05, 2016","2016","07","05","06","00","Europe/Kiev","3:00 AM GMT on July 05, 2016","2016","07","05","03","00","UTC","14","57","6","44","50","7.2","4.5","","","270","West","20","12","1018","30.05","-999","-999","-9999","-9999","","","","","0","0","0","0","0","0","AAXX 05031 33345 42998 02702 10137 20064 39975 40175 52002 555 10013"
"6:00 AM EEST on July 05, 2016","2016","07","05","06","00","Europe/Kiev","3:00 AM GMT on July 05, 2016","2016","07","05","03","00","UTC","12.0","53.6","8.0","46.4","77","10.8","6.7","-9999.0","-9999.0","240","WSW","-9999.0","-9999.0","1017","30.04","-999","-999","-9999","-9999","-9999.00","-9999.00","Clear","clear","0","0","0","0","0","0","METAR UKKK 050300Z 24003MPS CAVOK 12/08 Q1017 R26/CLRD70 NOSIG"
"6:30 AM EEST on July 05, 2016","2016","07","05","06","30","Europe/Kiev","3:30 AM GMT on July 05, 2016","2016","07","05","03","30","UTC","13.0","55.4","9.0","48.2","77","7.2","4.5","-9999.0","-9999.0","250","WSW","-9999.0","-9999.0","1017","30.04","-999","-999","-9999","-9999","-9999.00","-9999.00","Clear","clear","0","0","0","0","0","0","METAR UKKK 050330Z 25002MPS CAVOK 13/09 Q1017 R26/CLRD70 NOSIG"
"7:00 AM EEST on July 05, 2016","2016","07","05","07","00","Europe/Kiev","4:00 AM GMT on July 05, 2016","2016","07","05","04","00","UTC","15.0","59.0","9.0","48.2","67","10.8","6.7","-9999.0","-9999.0","270","West","-9999.0","-9999.0","1017","30.04","-999","-999","-9999","-9999","-9999.00","-9999.00","Clear","clear","0","0","0","0","0","0","METAR UKKK 050400Z 27003MPS CAVOK 15/09 Q1017 R26/CLRD70 NOSIG"
"7:30 AM EEST on July 05, 2016","2016","07","05","07","30","Europe/Kiev","4:30 AM GMT on July 05, 2016","2016","07","05","04","30","UTC","16.0","60.8","9.0","48.2","63","10.8","6.7","-9999.0","-9999.0","270","West","-9999.0","-9999.0","1017","30.04","-999","-999","-9999","-9999","-9999.00","-9999.00","Clear","clear","0","0","0","0","0","0","METAR UKKK 050430Z 27003MPS CAVOK 16/09 Q1017 R26/CLRD70 NOSIG"
"8:00 AM EEST on July 05, 2016","2016","07","05","08","00","Europe/Kiev","5:00 AM GMT on July 05, 2016","2016","07","05","05","00","UTC","17.0","62.6","9.0","48.2","59","14.4","8.9","-9999.0","-9999.0","310","NW","-9999.0","-9999.0","1017","30.04","-999","-999","-9999","-9999","-9999.00","-9999.00","Clear","clear","0","0","0","0","0","0","METAR UKKK 050500Z 31004MPS CAVOK 17/09 Q1017 R26/CLRD70 NOSIG"
"8:30 AM EEST on July 05, 2016","2016","07","05","08","30","Europe/Kiev","5:30 AM GMT on July 05, 2016","2016","07","05","05","30","UTC","18.0","64.4","9.0","48.2","56","18.0","11.2","-9999.0","-9999.0","320","NW","-9999.0","-9999.0","1017","30.04","-999","-999","-9999","-9999","-9999.00","-9999.00","Clear","clear","0","0","0","0","0","0","METAR UKKK 050530Z 32005MPS CAVOK 18/09 Q1017 R26/CLRD70 NOSIG"
"9:00 AM EEST on July 05, 2016","2016","07","05","09","00","Europe/Kiev","6:00 AM GMT on July 05, 2016","2016","07","05","06","00","UTC","19","66","8","47","39","10.8","6.7","","","10","North","20","12","1017","30.05","-999","-999","-9999","-9999","","","","","0","0","0","0","0","0","AAXX 05061 33345 32998 00103 10188 20082 39978 40174 51003 333 20136 555 10032"
"9:00 AM EEST on July 05, 2016","2016","07","05","09","00","Europe/Kiev","6:00 AM GMT on July 05, 2016","2016","07","05","06","00","UTC","19.0","66.2","9.0","48.2","52","18.0","11.2","-9999.0","-9999.0","320","NW","-9999.0","-9999.0","1017","30.04","-999","-999","-9999","-9999","-9999.00","-9999.00","Clear","clear","0","0","0","0","0","0","METAR UKKK 050600Z 32005MPS 280V360 CAVOK 19/09 Q1017 R26/CLRD70 NOSIG"
"9:30 AM EEST on July 05, 2016","2016","07","05","09","30","Europe/Kiev","6:30 AM GMT on July 05, 2016","2016","07","05","06","30","UTC","20.0","68.0","8.0","46.4","46","14.4","8.9","-9999.0","-9999.0","290","WNW","-9999.0","-9999.0","1017","30.04","-999","-999","-9999","-9999","-9999.00","-9999.00","Clear","clear","0","0","0","0","0","0","METAR UKKK 050630Z 29004MPS 270V330 CAVOK 20/08 Q1017 R26/CLRD70 NOSIG"
"10:00 AM EEST on July 05, 2016","2016","07","05","10","00","Europe/Kiev","7:00 AM GMT on July 05, 2016","2016","07","05","07","00","UTC","20.0","68.0","9.0","48.2","49","21.6","13.4","-9999.0","-9999.0","320","NW","-9999.0","-9999.0","1017","30.04","-999","-999","-9999","-9999","-9999.00","-9999.00","Clear","clear","0","0","0","0","0","0","METAR UKKK 050700Z 32006MPS CAVOK 20/09 Q1017 R26/CLRD70 NOSIG"
"10:30 AM EEST on July 05, 2016","2016","07","05","10","30","Europe/Kiev","7:30 AM GMT on July 05, 2016","2016","07","05","07","30","UTC","20.0","68.0","8.0","46.4","46","21.6","13.4","-9999.0","-9999.0","290","WNW","-9999.0","-9999.0","1017","30.04","-999","-999","-9999","-9999","-9999.00","-9999.00","Clear","clear","0","0","0","0","0","0","METAR UKKK 050730Z 29006MPS CAVOK 20/08 Q1017 R26/CLRD70 NOSIG"
"11:00 AM EEST on July 05, 2016","2016","07","05","11","00","Europe/Kiev","8:00 AM GMT on July 05, 2016","2016","07","05","08","00","UTC","21.0","69.8","8.0","46.4","43","21.6","13.4","-9999.0","-9999.0","310","NW","-9999.0","-9999.0","1017","30.04","-999","-999","-9999","-9999","-9999.00","-9999.00","Clear","clear","0","0","0","0","0","0","METAR UKKK 050800Z 31006MPS 250V330 CAVOK 21/08 Q1017 R26/CLRD70 NOSIG"
"11:30 AM EEST on July 05, 2016","2016","07","05","11","30","Europe/Kiev","8:30 AM GMT on July 05, 2016","2016","07","05","08","30","UTC","22.0","71.6","7.0","44.6","38","25.2","15.7","-9999.0","-9999.0","290","WNW","-9999.0","-9999.0","1017","30.04","-999","-999","-9999","-9999","-9999.00","-9999.00","Clear","clear","0","0","0","0","0","0","METAR UKKK 050830Z 29007MPS 260V350 CAVOK 22/07 Q1017 R26/CLRD70 NOSIG"
"12:00 PM EEST on July 05, 2016","2016","07","05","12","00","Europe/Kiev","9:00 AM GMT on July 05, 2016","2016","07","05","09","00","UTC","21","70","5","40","23","14.4","8.9","","","280","West","20","12","1017","30.03","-999","-999","-9999","-9999","","","Mostly Cloudy","mostlycloudy","0","0","0","0","0","0","AAXX 05091 33345 42698 52804 10213 20046 39974 40169 58004 85800 555 10045"
"12:00 PM EEST on July 05, 2016","2016","07","05","12","00","Europe/Kiev","9:00 AM GMT on July 05, 2016","2016","07","05","09","00","UTC","22.0","71.6","5.0","41.0","33","28.8","17.9","-9999.0","-9999.0","290","WNW","-9999.0","-9999.0","1017","30.04","-999","-999","-9999","-9999","-9999.00","-9999.00","Clear","clear","0","0","0","0","0","0","METAR UKKK 050900Z 29008MPS 260V320 CAVOK 22/05 Q1017 R26/CLRD70 NOSIG"
"12:30 PM EEST on July 05, 2016","2016","07","05","12","30","Europe/Kiev","9:30 AM GMT on July 05, 2016","2016","07","05","09","30","UTC","21.0","69.8","6.0","42.8","38","25.2","15.7","-9999.0","-9999.0","290","WNW","-9999.0","-9999.0","1017","30.04","-999","-999","-9999","-9999","-9999.00","-9999.00","Clear","clear","0","0","0","0","0","0","METAR UKKK 050930Z 29007MPS 250V330 CAVOK 21/06 Q1017 R26/CLRD70 NOSIG"
"1:00 PM EEST on July 05, 2016","2016","07","05","13","00","Europe/Kiev","10:00 AM GMT on July 05, 2016","2016","07","05","10","00","UTC","23.0","73.4","6.0","42.8","33","25.2","15.7","43.2","26.8","290","WNW","-9999.0","-9999.0","1017","30.04","-999","-999","-9999","-9999","-9999.00","-9999.00","Clear","clear","0","0","0","0","0","0","METAR UKKK 051000Z 29007G12MPS 260V330 CAVOK 23/06 Q1017 R26/CLRD70 NOSIG"
"1:30 PM EEST on July 05, 2016","2016","07","05","13","30","Europe/Kiev","10:30 AM GMT on July 05, 2016","2016","07","05","10","30","UTC","23.0","73.4","7.0","44.6","36","25.2","15.7","-9999.0","-9999.0","270","West","-9999.0","-9999.0","1017","30.04","-999","-999","-9999","-9999","-9999.00","-9999.00","Clear","clear","0","0","0","0","0","0","METAR UKKK 051030Z 27007MPS CAVOK 23/07 Q1017 R26/CLRD70 NOSIG"
"2:00 PM EEST on July 05, 2016","2016","07","05","14","00","Europe/Kiev","11:00 AM GMT on July 05, 2016","2016","07","05","11","00","UTC","22.0","71.6","5.0","41.0","33","25.2","15.7","-9999.0","-9999.0","290","WNW","-9999.0","-9999.0","1017","30.04","-999","-999","-9999","-9999","-9999.00","-9999.00","Clear","clear","0","0","0","0","0","0","METAR UKKK 051100Z 29007MPS 260V330 CAVOK 22/05 Q1017 R26/CLRD70 NOSIG"
"2:30 PM EEST on July 05, 2016","2016","07","05","14","30","Europe/Kiev","11:30 AM GMT on July 05, 2016","2016","07","05","11","30","UTC","22.0","71.6","6.0","42.8","35","18.0","11.2","-9999.0","-9999.0","280","West","-9999.0","-9999.0","1016","30.01","-999","-999","-9999","-9999","-9999.00","-9999.00","Clear","clear","0","0","0","0","0","0","METAR UKKK 051130Z 28005MPS 250V310 CAVOK 22/06 Q1016 R26/CLRD70 NOSIG"
"3:00 PM EEST on July 05, 2016","2016","07","05","15","00","Europe/Kiev","12:00 PM GMT on July 05, 2016","2016","07","05","12","00","UTC","23","73","5","40","20","14.4","8.9","","","260","West","20","12","1016","30.00","-999","-999","-9999","-9999","","","Mostly Cloudy","mostlycloudy","0","0","0","0","0","0","AAXX 05121 33345 32598 62604 10228 20047 39964 40157 57010 86800 555 10040"
"3:00 PM EEST on July 05, 2016","2016","07","05","15","00","Europe/Kiev","12:00 PM GMT on July 05, 2016","2016","07","05","12","00","UTC","24.0","75.2","6.0","42.8","31","21.6","13.4","-9999.0","-9999.0","310","NW","-9999.0","-9999.0","1016","30.01","-999","-999","-9999","-9999","-9999.00","-9999.00","Clear","clear","0","0","0","0","0","0","METAR UKKK 051200Z 31006MPS 250V360 CAVOK 24/06 Q1016 R26/CLRD70 NOSIG"
"3:30 PM EEST on July 05, 2016","2016","07","05","15","30","Europe/Kiev","12:30 PM GMT on July 05, 2016","2016","07","05","12","30","UTC","22.0","71.6","5.0","41.0","33","21.6","13.4","-9999.0","-9999.0","290","WNW","-9999.0","-9999.0","1016","30.01","-999","-999","-9999","-9999","-9999.00","-9999.00","Clear","clear","0","0","0","0","0","0","METAR UKKK 051230Z 29006MPS 230V330 CAVOK 22/05 Q1016 R26/CLRD70 NOSIG"
"4:00 PM EEST on July 05, 2016","2016","07","05","16","00","Europe/Kiev","1:00 PM GMT on July 05, 2016","2016","07","05","13","00","UTC","21.0","69.8","6.0","42.8","38","21.6","13.4","-9999.0","-9999.0","290","WNW","-9999.0","-9999.0","1016","30.01","-999","-999","-9999","-9999","-9999.00","-9999.00","Clear","clear","0","0","0","0","0","0","METAR UKKK 051300Z 29006MPS 250V320 CAVOK 21/06 Q1016 R26/CLRD70 NOSIG"
"4:30 PM EEST on July 05, 2016","2016","07","05","16","30","Europe/Kiev","1:30 PM GMT on July 05, 2016","2016","07","05","13","30","UTC","23.0","73.4","6.0","42.8","33","21.6","13.4","-9999.0","-9999.0","270","West","-9999.0","-9999.0","1015","29.98","-999","-999","-9999","-9999","-9999.00","-9999.00","Clear","clear","0","0","0","0","0","0","METAR UKKK 051330Z 27006MPS 240V310 CAVOK 23/06 Q1015 R26/CLRD70 NOSIG"
"5:00 PM EEST on July 05, 2016","2016","07","05","17","00","Europe/Kiev","2:00 PM GMT on July 05, 2016","2016","07","05","14","00","UTC","23.0","73.4","5.0","41.0","31","18.0","11.2","-9999.0","-9999.0","300","WNW","-9999.0","-9999.0","1015","29.98","-999","-999","-9999","-9999","-9999.00","-9999.00","Clear","clear","0","0","0","0","0","0","METAR UKKK 051400Z 30005MPS 270V330 CAVOK 23/05 Q1015 R26/CLRD70 NOSIG"
"5:30 PM EEST on July 05, 2016","2016","07","05","17","30","Europe/Kiev","2:30 PM GMT on July 05, 2016","2016","07","05","14","30","UTC","22.0","71.6","5.0","41.0","33","18.0","11.2","-9999.0","-9999.0","290","WNW","-9999.0","-9999.0","1015","29.98","-999","-999","-9999","-9999","-9999.00","-9999.00","Clear","clear","0","0","0","0","0","0","METAR UKKK 051430Z 29005MPS CAVOK 22/05 Q1015 R26/CLRD70 NOSIG"
"6:00 PM EEST on July 05, 2016","2016","07","05","18","00","Europe/Kiev","3:00 PM GMT on July 05, 2016","2016","07","05","15","00","UTC","22","72","3","38","18","10.8","6.7","","","290","WNW","20","12","1015","29.97","-999","-999","-9999","-9999","","","Mostly Cloudy","mostlycloudy","0","0","0","0","0","0","AAXX 05151 33345 42598 62903 10221 20032 39955 40149 57009 85402 555 10033"
"6:00 PM EEST on July 05, 2016","2016","07","05","18","00","Europe/Kiev","3:00 PM GMT on July 05, 2016","2016","07","05","15","00","UTC","22.0","71.6","5.0","41.0","33","14.4","8.9","-9999.0","-9999.0","300","WNW","9.0","5.6","1015","29.98","-999","-999","-9999","-9999","-9999.00","-9999.00","Unknown","unknown","0","0","0","0","0","0","METAR UKKK 051500Z 30004MPS 270V330 9000 NSC 22/05 Q1015 R26/CLRD70 NOSIG"
"6:30 PM EEST on July 05, 2016","2016","07","05","18","30","Europe/Kiev","3:30 PM GMT on July 05, 2016","2016","07","05","15","30","UTC","21.0","69.8","6.0","42.8","38","14.4","8.9","-9999.0","-9999.0","300","WNW","-9999.0","-9999.0","1015","29.98","-999","-999","-9999","-9999","-9999.00","-9999.00","Clear","clear","0","0","0","0","0","0","METAR UKKK 051530Z 30004MPS CAVOK 21/06 Q1015 R26/CLRD70 NOSIG"
"7:00 PM EEST on July 05, 2016","2016","07","05","19","00","Europe/Kiev","4:00 PM GMT on July 05, 2016","2016","07","05","16","00","UTC","23.0","73.4","6.0","42.8","33","14.4","8.9","-9999.0","-9999.0","300","WNW","-9999.0","-9999.0","1015","29.98","-999","-999","-9999","-9999","-9999.00","-9999.00","Clear","clear","0","0","0","0","0","0","METAR UKKK 051600Z 30004MPS 270V330 CAVOK 23/06 Q1015 R26/CLRD70 NOSIG"
"7:30 PM EEST on July 05, 2016","2016","07","05","19","30","Europe/Kiev","4:30 PM GMT on July 05, 2016","2016","07","05","16","30","UTC","22.0","71.6","6.0","42.8","35","14.4","8.9","-9999.0","-9999.0","280","West","-9999.0","-9999.0","1015","29.98","-999","-999","-9999","-9999","-9999.00","-9999.00","Clear","clear","0","0","0","0","0","0","METAR UKKK 051630Z 28004MPS 260V340 CAVOK 22/06 Q1015 R26/CLRD70 NOSIG"
"8:00 PM EEST on July 05, 2016","2016","07","05","20","00","Europe/Kiev","5:00 PM GMT on July 05, 2016","2016","07","05","17","00","UTC","21.0","69.8","5.0","41.0","35","14.4","8.9","-9999.0","-9999.0","310","NW","-9999.0","-9999.0","1015","29.98","-999","-999","-9999","-9999","-9999.00","-9999.00","Clear","clear","0","0","0","0","0","0","METAR UKKK 051700Z 31004MPS CAVOK 21/05 Q1015 R26/CLRD70 NOSIG"
"8:30 PM EEST on July 05, 2016","2016","07","05","20","30","Europe/Kiev","5:30 PM GMT on July 05, 2016","2016","07","05","17","30","UTC","20.0","68.0","6.0","42.8","40","14.4","8.9","-9999.0","-9999.0","280","West","-9999.0","-9999.0","1015","29.98","-999","-999","-9999","-9999","-9999.00","-9999.00","Clear","clear","0","0","0","0","0","0","METAR UKKK 051730Z 28004MPS 260V340 CAVOK 20/06 Q1015 R26/CLRD70 NOSIG"
"9:00 PM EEST on July 05, 2016","2016","07","05","21","00","Europe/Kiev","6:00 PM GMT on July 05, 2016","2016","07","05","18","00","UTC","20","68","5","40","25","3.6","2.2","","","270","West","20","12","1015","29.97","-999","-999","-9999","-9999","","","Scattered Clouds","partlycloudy","0","0","0","0","0","0","AAXX 05181 33345 32598 22701 10200 20046 39954 40149 56001 82500 333 10240 555 10021"
"9:00 PM EEST on July 05, 2016","2016","07","05","21","00","Europe/Kiev","6:00 PM GMT on July 05, 2016","2016","07","05","18","00","UTC","18.0","64.4","6.0","42.8","45","10.8","6.7","-9999.0","-9999.0","270","West","-9999.0","-9999.0","1015","29.98","-999","-999","-9999","-9999","-9999.00","-9999.00","Clear","clear","0","0","0","0","0","0","METAR UKKK 051800Z 27003MPS CAVOK 18/06 Q1015 R26/CLRD70 NOSIG"
"9:30 PM EEST on July 05, 2016","2016","07","05","21","30","Europe/Kiev","6:30 PM GMT on July 05, 2016","2016","07","05","18","30","UTC","17.0","62.6","7.0","44.6","52","7.2","4.5","-9999.0","-9999.0","260","West","9.0","5.6","1015","29.98","-999","-999","-9999","-9999","-9999.00","-9999.00","Unknown","unknown","0","0","0","0","0","0","METAR UKKK 051830Z 26002MPS 9000 NSC 17/07 Q1015 R26/CLRD70 NOSIG"
"10:00 PM EEST on July 05, 2016","2016","07","05","22","00","Europe/Kiev","7:00 PM GMT on July 05, 2016","2016","07","05","19","00","UTC","16.0","60.8","7.0","44.6","55","7.2","4.5","-9999.0","-9999.0","240","WSW","-9999.0","-9999.0","1015","29.98","-999","-999","-9999","-9999","-9999.00","-9999.00","Clear","clear","0","0","0","0","0","0","METAR UKKK 051900Z 24002MPS CAVOK 16/07 Q1015 R26/CLRD70 NOSIG"
"10:30 PM EEST on July 05, 2016","2016","07","05","22","30","Europe/Kiev","7:30 PM GMT on July 05, 2016","2016","07","05","19","30","UTC","14.0","57.2","9.0","48.2","72","3.6","2.2","-9999.0","-9999.0","230","SW","9.0","5.6","1015","29.98","-999","-999","-9999","-9999","-9999.00","-9999.00","Unknown","unknown","0","0","0","0","0","0","METAR UKKK 051930Z 23001MPS 9000 NSC 14/09 Q1015 R26/CLRD70 NOSIG"
"11:00 PM EEST on July 05, 2016","2016","07","05","23","00","Europe/Kiev","8:00 PM GMT on July 05, 2016","2016","07","05","20","00","UTC","13.0","55.4","9.0","48.2","77","3.6","2.2","-9999.0","-9999.0","230","SW","9.0","5.6","1015","29.98","-999","-999","-9999","-9999","-9999.00","-9999.00","Unknown","unknown","0","0","0","0","0","0","METAR UKKK 052000Z 23001MPS 9000 NSC 13/09 Q1015 R26/CLRD70 NOSIG"
"11:30 PM EEST on July 05, 2016","2016","07","05","23","30","Europe/Kiev","8:30 PM GMT on July 05, 2016","2016","07","05","20","30","UTC","13.0","55.4","9.0","48.2","77","7.2","4.5","-9999.0","-9999.0","220","SW","7.0","4.3","1015","29.98","-999","-999","-9999","-9999","-9999.00","-9999.00","Unknown","unknown","0","0","0","0","0","0","METAR UKKK 052030Z 22002MPS 7000 NSC 13/09 Q1015 R26/CLRD70 NOSIG"
"12:00 AM EEST on July 06, 2016","2016","07","06","00","00","Europe/Kiev","9:00 PM GMT on July 05, 2016","2016","07","05","21","00","UTC","16","62","6","43","39","0.0","0.0","","","","","20","12","1015","29.97","-999","-999","-9999","-9999","","","","","0","0","0","0","0","0","AAXX 05211 33345 42998 00000 10164 20062 39951 40148 57003 555 10015"
"12:00 AM EEST on July 06, 2016","2016","07","06","00","00","Europe/Kiev","9:00 PM GMT on July 05, 2016","2016","07","05","21","00","UTC","12.0","53.6","9.0","48.2","82","3.6","2.2","-9999.0","-9999.0","230","SW","-9999.0","-9999.0","1015","29.98","-999","-999","-9999","-9999","-9999.00","-9999.00","Clear","clear","0","0","0","0","0","0","METAR UKKK 052100Z 23001MPS CAVOK 12/09 Q1015 R26/CLRD70 NOSIG"
"12:30 AM EEST on July 06, 2016","2016","07","06","00","30","Europe/Kiev","9:30 PM GMT on July 05, 2016","2016","07","05","21","30","UTC","12.0","53.6","8.0","46.4","77","3.6","2.2","-9999.0","-9999.0","230","SW","9.0","5.6","1015","29.98","-999","-999","-9999","-9999","-9999.00","-9999.00","Clear","clear","0","0","0","0","0","0","METAR UKKK 052130Z 23001MPS 9000 SKC 12/08 Q1015 R26/CLRD70 NOSIG"
"1:00 AM EEST on July 06, 2016","2016","07","06","01","00","Europe/Kiev","10:00 PM GMT on July 05, 2016","2016","07","05","22","00","UTC","12.0","53.6","8.0","46.4","77","7.2","4.5","-9999.0","-9999.0","250","WSW","-9999.0","-9999.0","1015","29.98","-999","-999","-9999","-9999","-9999.00","-9999.00","Clear","clear","0","0","0","0","0","0","METAR UKKK 052200Z 25002MPS CAVOK 12/08 Q1015 R26/CLRD70 NOSIG"
"1:30 AM EEST on July 06, 2016","2016","07","06","01","30","Europe/Kiev","10:30 PM GMT on July 05, 2016","2016","07","05","22","30","UTC","12.0","53.6","8.0","46.4","77","3.6","2.2","-9999.0","-9999.0","240","WSW","-9999.0","-9999.0","1015","29.98","-999","-999","-9999","-9999","-9999.00","-9999.00","Clear","clear","0","0","0","0","0","0","METAR UKKK 052230Z 24001MPS CAVOK 12/08 Q1015 R26/CLRD70 NOSIG"
"2:00 AM EEST on July 06, 2016","2016","07","06","02","00","Europe/Kiev","11:00 PM GMT on July 05, 2016","2016","07","05","23","00","UTC","11.0","51.8","8.0","46.4","82","7.2","4.5","-9999.0","-9999.0","250","WSW","-9999.0","-9999.0","1014","29.95","-999","-999","-9999","-9999","-9999.00","-9999.00","Clear","clear","0","0","0","0","0","0","METAR UKKK 052300Z 25002MPS CAVOK 11/08 Q1014 R26/CLRD70 NOSIG"
"2:30 AM EEST on July 06, 2016","2016","07","06","02","30","Europe/Kiev","11:30 PM GMT on July 05, 2016","2016","07","05","23","30","UTC","11.0","51.8","7.0","44.6","76","3.6","2.2","-9999.0","-9999.0","250","WSW","-9999.0","-9999.0","1014","29.95","-999","-999","-9999","-9999","-9999.00","-9999.00","Clear","clear","0","0","0","0","0","0","METAR UKKK 052330Z 25001MPS CAVOK 11/07 Q1014 R26/CLRD70 NOSIG"
"3:00 AM EEST on July 06, 2016","2016","07","06","03","00","Europe/Kiev","12:00 AM GMT on July 06, 2016","2016","07","06","00","00","UTC","15","59","6","43","43","7.2","4.5","","","220","SW","20","12","1014","29.95","-999","-999","-9999","-9999","","","","","0","0","0","0","0","0","AAXX 06001 33345 32998 02202 10152 20059 39943 40141 57008 555 10014"
"3:00 AM EEST on July 06, 2016","2016","07","06","03","00","Europe/Kiev","12:00 AM GMT on July 06, 2016","2016","07","06","00","00","UTC","11.0","51.8","8.0","46.4","82","7.2","4.5","-9999.0","-9999.0","240","WSW","-9999.0","-9999.0","1014","29.95","-999","-999","-9999","-9999","-9999.00","-9999.00","Clear","clear","0","0","0","0","0","0","METAR UKKK 060000Z 24002MPS CAVOK 11/08 Q1014 R26/CLRD70 NOSIG"
"3:30 AM EEST on July 06, 2016","2016","07","06","03","30","Europe/Kiev","12:30 AM GMT on July 06, 2016","2016","07","06","00","30","UTC","11.0","51.8","8.0","46.4","82","7.2","4.5","-9999.0","-9999.0","250","WSW","-9999.0","-9999.0","1014","29.95","-999","-999","-9999","-9999","-9999.00","-9999.00","Clear","clear","0","0","0","0","0","0","METAR UKKK 060030Z 25002MPS CAVOK 11/08 Q1014 R26/CLRD70 NOSIG"
"4:00 AM EEST on July 06, 2016","2016","07","06","04","00","Europe/Kiev","1:00 AM GMT on July 06, 2016","2016","07","06","01","00","UTC","11.0","51.8","8.0","46.4","82","7.2","4.5","-9999.0","-9999.0","260","West","-9999.0","-9999.0","1014","29.95","-999","-999","-9999","-9999","-9999.00","-9999.00","Clear","clear","0","0","0","0","0","0","METAR UKKK 060100Z 26002MPS CAVOK 11/08 Q1014 R26/CLRD70 NOSIG"
"4:30 AM EEST on July 06, 2016","2016","07","06","04","30","Europe/Kiev","1:30 AM GMT on July 06, 2016","2016","07","06","01","30","UTC","10.0","50.0","8.0","46.4","87","7.2","4.5","-9999.0","-9999.0","250","WSW","-9999.0","-9999.0","1014","29.95","-999","-999","-9999","-9999","-9999.00","-9999.00","Clear","clear","0","0","0","0","0","0","METAR UKKK 060130Z 25002MPS CAVOK 10/08 Q1014 R26/CLRD70 NOSIG"
"5:00 AM EEST on July 06, 2016","2016","07","06","05","00","Europe/Kiev","2:00 AM GMT on July 06, 2016","2016","07","06","02","00","UTC","10.0","50.0","8.0","46.4","87","7.2","4.5","-9999.0","-9999.0","250","WSW","-9999.0","-9999.0","1013","29.92","-999","-999","-9999","-9999","-9999.00","-9999.00","Clear","clear","0","0","0","0","0","0","METAR UKKK 060200Z 25002MPS CAVOK 10/08 Q1013 R26/CLRD70 NOSIG"
"5:30 AM EEST on July 06, 2016","2016","07","06","05","30","Europe/Kiev","2:30 AM GMT on July 06, 2016","2016","07","06","02","30","UTC","11.0","51.8","8.0","46.4","82","7.2","4.5","-9999.0","-9999.0","240","WSW","-9999.0","-9999.0","1013","29.92","-999","-999","-9999","-9999","-9999.00","-9999.00","Clear","clear","0","0","0","0","0","0","METAR UKKK 060230Z 24002MPS CAVOK 11/08 Q1013 R26/CLRD70 NOSIG"
"6:00 AM EEST on July 06, 2016","2016","07","06","06","00","Europe/Kiev","3:00 AM GMT on July 06, 2016","2016","07","06","03","00","UTC","15","59","8","46","52","10.8","6.7","","","220","SW","20","12","1014","29.93","-999","-999","-9999","-9999","","","","","0","0","0","0","0","0","AAXX 06031 33345 42998 02203 10149 20077 39937 40135 57006 555 10014"
"6:00 AM EEST on July 06, 2016","2016","07","06","06","00","Europe/Kiev","3:00 AM GMT on July 06, 2016","2016","07","06","03","00","UTC","12.0","53.6","9.0","48.2","82","7.2","4.5","-9999.0","-9999.0","250","WSW","-9999.0","-9999.0","1013","29.92","-999","-999","-9999","-9999","-9999.00","-9999.00","Clear","clear","0","0","0","0","0","0","METAR UKKK 060300Z 25002MPS CAVOK 12/09 Q1013 R26/CLRD70 NOSIG"
"6:30 AM EEST on July 06, 2016","2016","07","06","06","30","Europe/Kiev","3:30 AM GMT on July 06, 2016","2016","07","06","03","30","UTC","15.0","59.0","11.0","51.8","77","7.2","4.5","-9999.0","-9999.0","250","WSW","-9999.0","-9999.0","1013","29.92","-999","-999","-9999","-9999","-9999.00","-9999.00","Clear","clear","0","0","0","0","0","0","METAR UKKK 060330Z 25002MPS 210V280 CAVOK 15/11 Q1013 R26/CLRD70 NOSIG"
"7:00 AM EEST on July 06, 2016","2016","07","06","07","00","Europe/Kiev","4:00 AM GMT on July 06, 2016","2016","07","06","04","00","UTC","16.0","60.8","11.0","51.8","72","10.8","6.7","-9999.0","-9999.0","250","WSW","-9999.0","-9999.0","1013","29.92","-999","-999","-9999","-9999","-9999.00","-9999.00","Clear","clear","0","0","0","0","0","0","METAR UKKK 060400Z 25003MPS CAVOK 16/11 Q1013 R26/CLRD70 NOSIG"
"7:30 AM EEST on July 06, 2016","2016","07","06","07","30","Europe/Kiev","4:30 AM GMT on July 06, 2016","2016","07","06","04","30","UTC","16.0","60.8","11.0","51.8","72","7.2","4.5","-9999.0","-9999.0","260","West","-9999.0","-9999.0","1013","29.92","-999","-999","-9999","-9999","-9999.00","-9999.00","Clear","clear","0","0","0","0","0","0","METAR UKKK 060430Z 26002MPS 240V300 CAVOK 16/11 Q1013 R26/CLRD70 NOSIG"
"8:00 AM EEST on July 06, 2016","2016","07","06","08","00","Europe/Kiev","5:00 AM GMT on July 06, 2016","2016","07","06","05","00","UTC","17.0","62.6","12.0","53.6","72","3.6","2.2","-9999.0","-9999.0","0","Variable","-9999.0","-9999.0","1013","29.92","-999","-999","-9999","-9999","-9999.00","-9999.00","Clear","clear","0","0","0","0","0","0","METAR UKKK 060500Z VRB01MPS CAVOK 17/12 Q1013 R26/CLRD70 NOSIG"
"8:30 AM EEST on July 06, 2016","2016","07","06","08","30","Europe/Kiev","5:30 AM GMT on July 06, 2016","2016","07","06","05","30","UTC","17.0","62.6","11.0","51.8","68","7.2","4.5","-9999.0","-9999.0","250","WSW","-9999.0","-9999.0","1013","29.92","-999","-999","-9999","-9999","-9999.00","-9999.00","Clear","clear","0","0","0","0","0","0","METAR UKKK 060530Z 25002MPS 210V280 CAVOK 17/11 Q1013 R26/CLRD70 NOSIG"
"9:00 AM EEST on July 06, 2016","2016","07","06","09","00","Europe/Kiev","6:00 AM GMT on July 06, 2016","2016","07","06","06","00","UTC","17","63","11","52","59","3.6","2.2","","","180","South","20","12","1013","29.91","-999","-999","-9999","-9999","","","Overcast","cloudy","0","0","0","0","0","0","AAXX 06061 33345 32598 81801 10171 20112 39933 40129 57004 8597/ 333 20144 555 10022"
"9:00 AM EEST on July 06, 2016","2016","07","06","09","00","Europe/Kiev","6:00 AM GMT on July 06, 2016","2016","07","06","06","00","UTC","18.0","64.4","11.0","51.8","64","10.8","6.7","-9999.0","-9999.0","250","WSW","-9999.0","-9999.0","1013","29.92","-999","-999","-9999","-9999","-9999.00","-9999.00","Clear","clear","0","0","0","0","0","0","METAR UKKK 060600Z 25003MPS CAVOK 18/11 Q1013 R26/CLRD70 NOSIG"
"9:30 AM EEST on July 06, 2016","2016","07","06","09","30","Europe/Kiev","6:30 AM GMT on July 06, 2016","2016","07","06","06","30","UTC","17.0","62.6","12.0","53.6","72","7.2","4.5","-9999.0","-9999.0","240","WSW","10.0","6.2","1013","29.92","-999","-999","-9999","-9999","-9999.00","-9999.00","Light Rain Showers","rain","0","1","0","0","0","0","METAR UKKK 060630Z 24002MPS 210V270 9999 -SHRA SCT030CB BKN082 17/12 Q1013 R26/CLRD70 NOSIG"
"10:00 AM EEST on July 06, 2016","2016","07","06","10","00","Europe/Kiev","7:00 AM GMT on July 06, 2016","2016","07","06","07","00","UTC","17.0","62.6","12.0","53.6","72","7.2","4.5","-9999.0","-9999.0","240","WSW","9.0","5.6","1013","29.92","-999","-999","-9999","-9999","-9999.00","-9999.00","Light Rain Showers","rain","0","1","0","0","0","0","METAR UKKK 060700Z 24002MPS 180V290 9000 -SHRA SCT030CB BKN056 17/12 Q1013 R26/CLRD70 NOSIG"
"10:30 AM EEST on July 06, 2016","2016","07","06","10","30","Europe/Kiev","7:30 AM GMT on July 06, 2016","2016","07","06","07","30","UTC","17.0","62.6","13.0","55.4","77","7.2","4.5","-9999.0","-9999.0","190","South","10.0","6.2","1012","29.89","-999","-999","-9999","-9999","-9999.00","-9999.00","Mostly Cloudy","mostlycloudy","0","0","0","0","0","0","METAR UKKK 060730Z 19002MPS 160V230 9999 FEW033CB BKN056 17/13 Q1012 R26/290058 NOSIG"
"11:00 AM EEST on July 06, 2016","2016","07","06","11","00","Europe/Kiev","8:00 AM GMT on July 06, 2016","2016","07","06","08","00","UTC","18.0","64.4","13.0","55.4","73","10.8","6.7","-9999.0","-9999.0","180","South","9.0","5.6","1012","29.89","-999","-999","-9999","-9999","-9999.00","-9999.00","Mostly Cloudy","mostlycloudy","0","0","0","0","0","0","METAR UKKK 060800Z 18003MPS 150V230 9000 FEW033CB BKN056 18/13 Q1012 R26/CLRD70 NOSIG"
"11:30 AM EEST on July 06, 2016","2016","07","06","11","30","Europe/Kiev","8:30 AM GMT on July 06, 2016","2016","07","06","08","30","UTC","19.0","66.2","13.0","55.4","68","7.2","4.5","-9999.0","-9999.0","150","SSE","-9999.0","-9999.0","1012","29.89","-999","-999","-9999","-9999","-9999.00","-9999.00","Clear","clear","0","0","0","0","0","0","METAR UKKK 060830Z 15002MPS 110V180 CAVOK 19/13 Q1012 R26/CLRD70 NOSIG"
"12:00 PM EEST on July 06, 2016","2016","07","06","12","00","Europe/Kiev","9:00 AM GMT on July 06, 2016","2016","07","06","09","00","UTC","20","68","14","57","59","10.8","6.7","","","170","South","20","12","1012","29.87","-999","-999","-9999","-9999","","","Partly Cloudy","partlycloudy","0","0","0","0","0","0","AAXX 06091 33345 41698 61703 10201 20139 39921 40115 57012 70282 82139 555 10033"
"12:00 PM EEST on July 06, 2016","2016","07","06","12","00","Europe/Kiev","9:00 AM GMT on July 06, 2016","2016","07","06","09","00","UTC","22.0","71.6","13.0","55.4","57","10.8","6.7","-9999.0","-9999.0","170","South","-9999.0","-9999.0","1011","29.86","-999","-999","-9999","-9999","-9999.00","-9999.00","Clear","clear","0","0","0","0","0","0","METAR UKKK 060900Z 17003MPS 100V250 CAVOK 22/13 Q1011 R08/CLRD70 NOSIG"
"12:30 PM EEST on July 06, 2016","2016","07","06","12","30","Europe/Kiev","9:30 AM GMT on July 06, 2016","2016","07","06","09","30","UTC","24.0","75.2","14.0","57.2","53","10.8","6.7","-9999.0","-9999.0","180","South","-9999.0","-9999.0","1011","29.86","-999","-999","-9999","-9999","-9999.00","-9999.00","Clear","clear","0","0","0","0","0","0","METAR UKKK 060930Z 18003MPS 110V250 CAVOK 24/14 Q1011 R08/CLRD70 NOSIG"
"1:00 PM EEST on July 06, 2016","2016","07","06","13","00","Europe/Kiev","10:00 AM GMT on July 06, 2016","2016","07","06","10","00","UTC","25.0","77.0","12.0","53.6","44","14.4","8.9","32.4","20.1","200","SSW","-9999.0","-9999.0","1011","29.86","-999","-999","-9999","-9999","-9999.00","-9999.00","Clear","clear","0","0","0","0","0","0","METAR UKKK 061000Z 20004G09MPS 130V270 CAVOK 25/12 Q1011 R08/CLRD70 NOSIG"
"1:30 PM EEST on July 06, 2016","2016","07","06","13","30","Europe/Kiev","10:30 AM GMT on July 06, 2016","2016","07","06","10","30","UTC","26.0","78.8","13.0","55.4","44","18.0","11.2","36.0","22.4","220","SW","-9999.0","-9999.0","1010","29.83","-999","-999","-9999","-9999","-9999.00","-9999.00","Clear","clear","0","0","0","0","0","0","METAR UKKK 061030Z 22005G10MPS 140V260 CAVOK 26/13 Q1010 R08/CLRD70 NOSIG"
"2:00 PM EEST on July 06, 2016","2016","07","06","14","00","Europe/Kiev","11:00 AM GMT on July 06, 2016","2016","07","06","11","00","UTC","27.0","80.6","14.0","57.2","45","21.6","13.4","-9999.0","-9999.0","220","SW","10.0","6.2","1010","29.83","-999","-999","27.1","80.8","-9999.00","-9999.00","Partly Cloudy","partlycloudy","0","0","0","0","0","0","METAR UKKK 061100Z 22006MPS 190V270 9999 FEW043 27/14 Q1010 R26/CLRD70 NOSIG"
"2:30 PM EEST on July 06, 2016","2016","07","06","14","30","Europe/Kiev","11:30 AM GMT on July 06, 2016","2016","07","06","11","30","UTC","25.0","77.0","12.0","53.6","44","21.6","13.4","-9999.0","-9999.0","220","SW","-9999.0","-9999.0","1010","29.83","-999","-999","-9999","-9999","-9999.00","-9999.00","Clear","clear","0","0","0","0","0","0","METAR UKKK 061130Z 22006MPS 170V260 CAVOK 25/12 Q1010 R26/CLRD70 NOSIG"
"3:00 PM EEST on July 06, 2016","2016","07","06","15","00","Europe/Kiev","12:00 PM GMT on July 06, 2016","2016","07","06","12","00","UTC","26","80","12","53","28","18.0","11.2","","","210","SSW","20","12","1008","29.78","-999","-999","-9999","-9999","","","Partly Cloudy","partlycloudy","0","0","0","0","0","0","AAXX 06121 33345 /1698 62105 10264 20116 39896 40085 57025 70282 86200 555 10038 69901"
"3:00 PM EEST on July 06, 2016","2016","07","06","15","00","Europe/Kiev","12:00 PM GMT on July 06, 2016","2016","07","06","12","00","UTC","26.0","78.8","12.0","53.6","42","21.6","13.4","-9999.0","-9999.0","210","SSW","-9999.0","-9999.0","1009","29.80","-999","-999","-9999","-9999","-9999.00","-9999.00","Clear","clear","0","0","0","0","0","0","METAR UKKK 061200Z 21006MPS 170V240 CAVOK 26/12 Q1009 R26/CLRD70 NOSIG"
"3:30 PM EEST on July 06, 2016","2016","07","06","15","30","Europe/Kiev","12:30 PM GMT on July 06, 2016","2016","07","06","12","30","UTC","27.0","80.6","12.0","53.6","39","25.2","15.7","-9999.0","-9999.0","210","SSW","-9999.0","-9999.0","1008","29.77","-999","-999","26.8","80.3","-9999.00","-9999.00","Clear","clear","0","0","0","0","0","0","METAR UKKK 061230Z 21007MPS 170V250 CAVOK 27/12 Q1008 R26/CLRD70 NOSIG"
"4:00 PM EEST on July 06, 2016","2016","07","06","16","00","Europe/Kiev","1:00 PM GMT on July 06, 2016","2016","07","06","13","00","UTC","26.0","78.8","11.0","51.8","39","25.2","15.7","-9999.0","-9999.0","210","SSW","-9999.0","-9999.0","1008","29.77","-999","-999","-9999","-9999","-9999.00","-9999.00","Clear","clear","0","0","0","0","0","0","METAR UKKK 061300Z 21007MPS CAVOK 26/11 Q1008 R26/CLRD70 TEMPO 24012G17MPS 2100 -TSRAGR BKN015CB"
"4:30 PM EEST on July 06, 2016","2016","07","06","16","30","Europe/Kiev","1:30 PM GMT on July 06, 2016","2016","07","06","13","30","UTC","27.0","80.6","11.0","51.8","37","25.2","15.7","-9999.0","-9999.0","220","SW","-9999.0","-9999.0","1008","29.77","-999","-999","-9999","-9999","-9999.00","-9999.00","Clear","clear","0","0","0","0","0","0","METAR UKKK 061330Z 22007MPS 170V250 CAVOK 27/11 Q1008 R26/CLRD70 TEMPO 24012G17MPS 2100 -TSRAGR BKN015CB"
"5:00 PM EEST on July 06, 2016","2016","07","06","17","00","Europe/Kiev","2:00 PM GMT on July 06, 2016","2016","07","06","14","00","UTC","26.0","78.8","12.0","53.6","42","25.2","15.7","-9999.0","-9999.0","220","SW","-9999.0","-9999.0","1008","29.77","-999","-999","-9999","-9999","-9999.00","-9999.00","Clear","clear","0","0","0","0","0","0","METAR UKKK 061400Z 22007MPS 190V250 CAVOK 26/12 Q1008 R26/CLRD70 TEMPO 24012G17MPS 2100 -TSRAGR BKN015CB"
"5:30 PM EEST on July 06, 2016","2016","07","06","17","30","Europe/Kiev","2:30 PM GMT on July 06, 2016","2016","07","06","14","30","UTC","26.0","78.8","12.0","53.6","42","14.4","8.9","-9999.0","-9999.0","220","SW","10.0","6.2","1007","29.74","-999","-999","-9999","-9999","-9999.00","-9999.00","Mostly Cloudy","mostlycloudy","0","0","0","0","0","0","METAR UKKK 061430Z 22004MPS 180V260 9999 FEW033CB BKN060 26/12 Q1007 R26/CLRD70 TEMPO 24012G17MPS 2100 -TSRAGR BKN015CB"
"5:44 PM EEST on July 06, 2016","2016","07","06","17","44","Europe/Kiev","2:44 PM GMT on July 06, 2016","2016","07","06","14","44","UTC","25.0","77.0","12.0","53.6","44","18.0","11.2","-9999.0","-9999.0","220","SW","10.0","6.2","1007","29.74","-999","-999","-9999","-9999","-9999.00","-9999.00","Thunderstorm","tstorms","0","0","0","0","1","0","SPECI UKKK 061444Z 22005MPS 180V250 9999 TS FEW033CB BKN060 25/12 Q1007 R26/CLRD70 TEMPO 24012G17MPS 2100 -TSRAGR BKN015CB"
"6:00 PM EEST on July 06, 2016","2016","07","06","18","00","Europe/Kiev","3:00 PM GMT on July 06, 2016","2016","07","06","15","00","UTC","25","78","11","52","29","14.4","8.9","","","220","SW","20","12","1007","29.73","-999","-999","-9999","-9999","","","Mostly Cloudy","mostlycloudy","0","0","0","0","0","0","AAXX 06151 33345 42698 72204 10254 20109 39878 40068 57018 87300 333 87936 555 10030"
"6:00 PM EEST on July 06, 2016","2016","07","06","18","00","Europe/Kiev","3:00 PM GMT on July 06, 2016","2016","07","06","15","00","UTC","23.0","73.4","12.0","53.6","50","18.0","11.2","-9999.0","-9999.0","290","WNW","10.0","6.2","1007","29.74","-999","-999","-9999","-9999","-9999.00","-9999.00","Thunderstorm","tstorms","0","0","0","0","1","0","METAR UKKK 061500Z 29005MPS 230V350 9999 TS SCT033CB BKN060 23/12 Q1007 R26/CLRD70 TEMPO 24012G17MPS 2100 -TSRAGR BKN015CB"
"6:20 PM EEST on July 06, 2016","2016","07","06","18","20","Europe/Kiev","3:20 PM GMT on July 06, 2016","2016","07","06","15","20","UTC","23.0","73.4","14.0","57.2","57","3.6","2.2","-9999.0","-9999.0","0","Variable","10.0","6.2","1007","29.74","-999","-999","-9999","-9999","-9999.00","-9999.00","Light Rain Showers","rain","0","1","0","0","0","0","SPECI UKKK 061520Z VRB01MPS 9999 -SHRA SCT033CB BKN060 23/14 Q1007 RETS R26/CLRD70 TEMPO 24012G17MPS 2100 -TSRAGR BKN015CB"
"6:30 PM EEST on July 06, 2016","2016","07","06","18","30","Europe/Kiev","3:30 PM GMT on July 06, 2016","2016","07","06","15","30","UTC","23.0","73.4","15.0","59.0","61","0.0","0.0","-9999.0","-9999.0","0","North","10.0","6.2","1007","29.74","-999","-999","-9999","-9999","-9999.00","-9999.00","Mostly Cloudy","mostlycloudy","0","0","0","0","0","0","METAR UKKK 061530Z 00000MPS 9999 FEW033CB BKN065 23/15 Q1007 R26/CLRD70 TEMPO 24012G17MPS 2100 -TSRAGR BKN015CB"
"6:46 PM EEST on July 06, 2016","2016","07","06","18","46","Europe/Kiev","3:46 PM GMT on July 06, 2016","2016","07","06","15","46","UTC","22.0","71.6","14.0","57.2","60","7.2","4.5","-9999.0","-9999.0","100","East","10.0","6.2","1007","29.74","-999","-999","-9999","-9999","-9999.00","-9999.00","Mostly Cloudy","mostlycloudy","0","0","0","0","1","0","SPECI UKKK 061546Z 10002MPS 9999 VCTS SCT033CB BKN065 22/14 Q1007 R26/CLRD70 TEMPO 24012G17MPS 2100 -TSRAGR BKN015CB"
"7:00 PM EEST on July 06, 2016","2016","07","06","19","00","Europe/Kiev","4:00 PM GMT on July 06, 2016","2016","07","06","16","00","UTC","23.0","73.4","14.0","57.2","57","10.8","6.7","-9999.0","-9999.0","320","NW","10.0","6.2","1007","29.74","-999","-999","-9999","-9999","-9999.00","-9999.00","Mostly Cloudy","mostlycloudy","0","0","0","0","1","0","METAR UKKK 061600Z 32003MPS 9999 VCTS SCT033CB BKN065 23/14 Q1007 R26/CLRD70 TEMPO 24012G17MPS 2100 -TSRAGR BKN015CB"
"7:30 PM EEST on July 06, 2016","2016","07","06","19","30","Europe/Kiev","4:30 PM GMT on July 06, 2016","2016","07","06","16","30","UTC","22.0","71.6","16.0","60.8","69","3.6","2.2","-9999.0","-9999.0","0","Variable","10.0","6.2","1007","29.74","-999","-999","-9999","-9999","-9999.00","-9999.00","Mostly Cloudy","mostlycloudy","0","0","0","0","0","0","METAR UKKK 061630Z VRB01MPS 9999 FEW033CB BKN056 22/16 Q1007 R26/CLRD70 TEMPO 24012G17MPS 2100 -TSRAGR BKN015CB"
"8:00 PM EEST on July 06, 2016","2016","07","06","20","00","Europe/Kiev","5:00 PM GMT on July 06, 2016","2016","07","06","17","00","UTC","22.0","71.6","17.0","62.6","73","3.6","2.2","-9999.0","-9999.0","0","Variable","7.0","4.3","1007","29.74","-999","-999","-9999","-9999","-9999.00","-9999.00","Mostly Cloudy","mostlycloudy","0","0","0","0","0","0","METAR UKKK 061700Z VRB01MPS 7000 FEW033CB BKN056 22/17 Q1007 R26/190060 TEMPO 24012G17MPS 2100 -TSRAGR BKN015CB"
"8:30 PM EEST on July 06, 2016","2016","07","06","20","30","Europe/Kiev","5:30 PM GMT on July 06, 2016","2016","07","06","17","30","UTC","21.0","69.8","16.0","60.8","73","7.2","4.5","-9999.0","-9999.0","160","SSE","6.0","3.7","1007","29.74","-999","-999","-9999","-9999","-9999.00","-9999.00","Unknown","unknown","0","0","0","0","0","0","METAR UKKK 061730Z 16002MPS 120V200 6000 NSC 21/16 Q1007 R26/CLRD70 TEMPO 24012G17MPS 2100 -TSRAGR BKN015CB"
"8:50 PM EEST on July 06, 2016","2016","07","06","20","50","Europe/Kiev","5:50 PM GMT on July 06, 2016","2016","07","06","17","50","UTC","21.0","69.8","14.0","57.2","64","25.2","15.7","64.8","40.3","240","WSW","10.0","6.2","1008","29.77","-999","-999","-9999","-9999","-9999.00","-9999.00","Mostly Cloudy","mostlycloudy","0","0","0","0","0","0","SPECI UKKK 061750Z 24007G18MPS 190V310 9999 SCT046 BKN100 21/14 Q1008 R26/CLRD70 TEMPO 24012G17MPS 2100 -TSRAGR BKN015CB"
"9:00 PM EEST on July 06, 2016","2016","07","06","21","00","Europe/Kiev","6:00 PM GMT on July 06, 2016","2016","07","06","18","00","UTC","22","72","13","56","47","21.6","13.4","","","290","WNW","20","12","1008","29.77","-999","-999","-9999","-9999","","","Partly Cloudy","partlycloudy","0","0","0","0","0","0","AAXX 06181 33345 11598 72906 10224 20133 39887 40079 53009 69902 70282 86360 333 10272 86930 555 10023"
"9:00 PM EEST on July 06, 2016","2016","07","06","21","00","Europe/Kiev","6:00 PM GMT on July 06, 2016","2016","07","06","18","00","UTC","20.0","68.0","14.0","57.2","68","36.0","22.4","54.0","33.6","310","NW","10.0","6.2","1008","29.77","-999","-999","-9999","-9999","-9999.00","-9999.00","Mostly Cloudy","mostlycloudy","0","0","0","0","0","0","METAR UKKK 061800Z 31010G15MPS 9999 SCT046 BKN100 20/14 Q1008 R26/CLRD70 TEMPO 24012G17MPS 2100 -TSRAGR BKN015CB"
"9:30 PM EEST on July 06, 2016","2016","07","06","21","30","Europe/Kiev","6:30 PM GMT on July 06, 2016","2016","07","06","18","30","UTC","18.0","64.4","14.0","57.2","77","18.0","11.2","-9999.0","-9999.0","300","WNW","10.0","6.2","1008","29.77","-999","-999","-9999","-9999","-9999.00","-9999.00","Mostly Cloudy","mostlycloudy","0","0","0","0","0","0","METAR UKKK 061830Z 30005MPS 9999 SCT046 BKN100 18/14 Q1008 R26/CLRD70 TEMPO 24012G17MPS 2100 -TSRAGR BKN015CB"
"10:00 PM EEST on July 06, 2016","2016","07","06","22","00","Europe/Kiev","7:00 PM GMT on July 06, 2016","2016","07","06","19","00","UTC","18.0","64.4","14.0","57.2","77","10.8","6.7","-9999.0","-9999.0","280","West","-9999.0","-9999.0","1008","29.77","-999","-999","-9999","-9999","-9999.00","-9999.00","Clear","clear","0","0","0","0","0","0","METAR UKKK 061900Z 28003MPS CAVOK 18/14 Q1008 R26/CLRD70 TEMPO 24012G17MPS 2100 -TSRAGR BKN015CB"
"10:30 PM EEST on July 06, 2016","2016","07","06","22","30","Europe/Kiev","7:30 PM GMT on July 06, 2016","2016","07","06","19","30","UTC","18.0","64.4","13.0","55.4","73","14.4","8.9","-9999.0","-9999.0","260","West","-9999.0","-9999.0","1008","29.77","-999","-999","-9999","-9999","-9999.00","-9999.00","Clear","clear","0","0","0","0","0","0","METAR UKKK 061930Z 26004MPS CAVOK 18/13 Q1008 R26/CLRD70 TEMPO 24012G17MPS 2100 -TSRAGR BKN015CB"
"11:00 PM EEST on July 06, 2016","2016","07","06","23","00","Europe/Kiev","8:00 PM GMT on July 06, 2016","2016","07","06","20","00","UTC","17.0","62.6","14.0","57.2","82","10.8","6.7","-9999.0","-9999.0","270","West","10.0","6.2","1008","29.77","-999","-999","-9999","-9999","-9999.00","-9999.00","Mostly Cloudy","mostlycloudy","0","0","0","0","0","0","METAR UKKK 062000Z 27003MPS 9999 FEW030CB BKN076 17/14 Q1008 R26/CLRD70 NOSIG"
"11:30 PM EEST on July 06, 2016","2016","07","06","23","30","Europe/Kiev","8:30 PM GMT on July 06, 2016","2016","07","06","20","30","UTC","18.0","64.4","13.0","55.4","73","10.8","6.7","-9999.0","-9999.0","220","SW","10.0","6.2","1009","29.80","-999","-999","-9999","-9999","-9999.00","-9999.00","Mostly Cloudy","mostlycloudy","0","0","0","0","0","0","METAR UKKK 062030Z 22003MPS 190V250 9999 FEW030CB BKN076 18/13 Q1009 R26/CLRD70 NOSIG"
"12:00 AM EEST on July 07, 2016","2016","07","07","00","00","Europe/Kiev","9:00 PM GMT on July 06, 2016","2016","07","06","21","00","UTC","16","62","14","57","80","7.2","4.5","","","210","SSW","10","6","1009","29.79","-999","-999","-9999","-9999","","","Partly Cloudy","partlycloudy","0","0","0","0","0","0","AAXX 06211 33345 41597 82102 10164 20141 39892 40088 52005 70282 8397/ 555 11018"
"12:00 AM EEST on July 07, 2016","2016","07","07","00","00","Europe/Kiev","9:00 PM GMT on July 06, 2016","2016","07","06","21","00","UTC","18.0","64.4","14.0","57.2","77","10.8","6.7","-9999.0","-9999.0","250","WSW","10.0","6.2","1009","29.80","-999","-999","-9999","-9999","-9999.00","-9999.00","Mostly Cloudy","mostlycloudy","0","0","0","0","0","0","METAR UKKK 062100Z 25003MPS 9999 FEW030CB BKN076 18/14 Q1009 R26/CLRD70 NOSIG"
"12:30 AM EEST on July 07, 2016","2016","07","07","00","30","Europe/Kiev","9:30 PM GMT on July 06, 2016","2016","07","06","21","30","UTC","17.0","62.6","14.0","57.2","82","10.8","6.7","-9999.0","-9999.0","240","WSW","10.0","6.2","1009","29.80","-999","-999","-9999","-9999","-9999.00","-9999.00","Light Rain Showers","rain","0","1","0","0","0","0","METAR UKKK 062130Z 24003MPS 9999 -SHRA SCT030CB BKN093 17/14 Q1009 R26/190060 NOSIG"
"1:00 AM EEST on July 07, 2016","2016","07","07","01","00","Europe/Kiev","10:00 PM GMT on July 06, 2016","2016","07","06","22","00","UTC","17.0","62.6","14.0","57.2","82","7.2","4.5","-9999.0","-9999.0","240","WSW","-9999.0","-9999.0","1009","29.80","-999","-999","-9999","-9999","-9999.00","-9999.00","Clear","clear","0","0","0","0","0","0","METAR UKKK 062200Z 24002MPS 210V280 CAVOK 17/14 Q1009 R26/190060 NOSIG"
"1:30 AM EEST on July 07, 2016","2016","07","07","01","30","Europe/Kiev","10:30 PM GMT on July 06, 2016","2016","07","06","22","30","UTC","17.0","62.6","14.0","57.2","82","10.8","6.7","-9999.0","-9999.0","240","WSW","-9999.0","-9999.0","1009","29.80","-999","-999","-9999","-9999","-9999.00","-9999.00","Clear","clear","0","0","0","0","0","0","METAR UKKK 062230Z 24003MPS CAVOK 17/14 Q1009 R26/190060 NOSIG"
"2:00 AM EEST on July 07, 2016","2016","07","07","02","00","Europe/Kiev","11:00 PM GMT on July 06, 2016","2016","07","06","23","00","UTC","17.0","62.6","15.0","59.0","88","10.8","6.7","-9999.0","-9999.0","250","WSW","10.0","6.2","1009","29.80","-999","-999","-9999","-9999","-9999.00","-9999.00","Mostly Cloudy","mostlycloudy","0","0","0","0","0","0","METAR UKKK 062300Z 25003MPS 9999 SCT040 BKN100 17/15 Q1009 R26/190060 NOSIG"
"2:30 AM EEST on July 07, 2016","2016","07","07","02","30","Europe/Kiev","11:30 PM GMT on July 06, 2016","2016","07","06","23","30","UTC","17.0","62.6","14.0","57.2","82","14.4","8.9","-9999.0","-9999.0","250","WSW","-9999.0","-9999.0","1009","29.80","-999","-999","-9999","-9999","-9999.00","-9999.00","Clear","clear","0","0","0","0","0","0","METAR UKKK 062330Z 25004MPS CAVOK 17/14 Q1009 R26/190060 NOSIG"
"3:00 AM EEST on July 07, 2016","2016","07","07","03","00","Europe/Kiev","12:00 AM GMT on July 07, 2016","2016","07","07","00","00","UTC","17","62","14","57","78","10.8","6.7","","","270","West","10","6","1009","29.80","-999","-999","-9999","-9999","","","Partly Cloudy","partlycloudy","0","0","0","0","0","0","AAXX 07001 33345 /1997 82703 10168 20138 39895 40091 52003 70282 8807/ 555 11017 69951"
"3:00 AM EEST on July 07, 2016","2016","07","07","03","00","Europe/Kiev","12:00 AM GMT on July 07, 2016","2016","07","07","00","00","UTC","16.0","60.8","14.0","57.2","88","18.0","11.2","-9999.0","-9999.0","260","West","-9999.0","-9999.0","1009","29.80","-999","-999","-9999","-9999","-9999.00","-9999.00","Clear","clear","0","0","0","0","0","0","METAR UKKK 070000Z 26005MPS CAVOK 16/14 Q1009 R26/190060 NOSIG"
"3:30 AM EEST on July 07, 2016","2016","07","07","03","30","Europe/Kiev","12:30 AM GMT on July 07, 2016","2016","07","07","00","30","UTC","16.0","60.8","14.0","57.2","88","14.4","8.9","-9999.0","-9999.0","280","West","-9999.0","-9999.0","1009","29.80","-999","-999","-9999","-9999","-9999.00","-9999.00","Clear","clear","0","0","0","0","0","0","METAR UKKK 070030Z 28004MPS CAVOK 16/14 Q1009 R26/190060 NOSIG"
"4:00 AM EEST on July 07, 2016","2016","07","07","04","00","Europe/Kiev","1:00 AM GMT on July 07, 2016","2016","07","07","01","00","UTC","16.0","60.8","14.0","57.2","88","14.4","8.9","-9999.0","-9999.0","280","West","-9999.0","-9999.0","1009","29.80","-999","-999","-9999","-9999","-9999.00","-9999.00","Clear","clear","0","0","0","0","0","0","METAR UKKK 070100Z 28004MPS CAVOK 16/14 Q1009 R26/190060 NOSIG"
"4:30 AM EEST on July 07, 2016","2016","07","07","04","30","Europe/Kiev","1:30 AM GMT on July 07, 2016","2016","07","07","01","30","UTC","16.0","60.8","13.0","55.4","82","14.4","8.9","-9999.0","-9999.0","280","West","-9999.0","-9999.0","1009","29.80","-999","-999","-9999","-9999","-9999.00","-9999.00","Clear","clear","0","0","0","0","0","0","METAR UKKK 070130Z 28004MPS CAVOK 16/13 Q1009 R26/190060 NOSIG"
"5:00 AM EEST on July 07, 2016","2016","07","07","05","00","Europe/Kiev","2:00 AM GMT on July 07, 2016","2016","07","07","02","00","UTC","15.0","59.0","12.0","53.6","82","18.0","11.2","-9999.0","-9999.0","280","West","-9999.0","-9999.0","1009","29.80","-999","-999","-9999","-9999","-9999.00","-9999.00","Clear","clear","0","0","0","0","0","0","METAR UKKK 070200Z 28005MPS CAVOK 15/12 Q1009 R26/CLRD70 NOSIG"
"5:30 AM EEST on July 07, 2016","2016","07","07","05","30","Europe/Kiev","2:30 AM GMT on July 07, 2016","2016","07","07","02","30","UTC","15.0","59.0","11.0","51.8","77","21.6","13.4","-9999.0","-9999.0","280","West","-9999.0","-9999.0","1009","29.80","-999","-999","-9999","-9999","-9999.00","-9999.00","Clear","clear","0","0","0","0","0","0","METAR UKKK 070230Z 28006MPS CAVOK 15/11 Q1009 R26/CLRD70 NOSIG"
"6:00 AM EEST on July 07, 2016","2016","07","07","06","00","Europe/Kiev","3:00 AM GMT on July 07, 2016","2016","07","07","03","00","UTC","15","59","10","51","67","10.8","6.7","","","280","West","20","12","1010","29.83","-999","-999","-9999","-9999","","","Scattered Clouds","partlycloudy","0","0","0","0","0","0","AAXX 07031 33345 42998 22803 10150 20105 39902 40099 52007 81061 555 11014"
"6:00 AM EEST on July 07, 2016","2016","07","07","06","00","Europe/Kiev","3:00 AM GMT on July 07, 2016","2016","07","07","03","00","UTC","14.0","57.2","10.0","50.0","77","18.0","11.2","-9999.0","-9999.0","270","West","-9999.0","-9999.0","1010","29.83","-999","-999","-9999","-9999","-9999.00","-9999.00","Clear","clear","0","0","0","0","0","0","METAR UKKK 070300Z 27005MPS CAVOK 14/10 Q1010 R26/CLRD70 NOSIG"
"6:30 AM EEST on July 07, 2016","2016","07","07","06","30","Europe/Kiev","3:30 AM GMT on July 07, 2016","2016","07","07","03","30","UTC","15.0","59.0","9.0","48.2","67","18.0","11.2","-9999.0","-9999.0","270","West","-9999.0","-9999.0","1010","29.83","-999","-999","-9999","-9999","-9999.00","-9999.00","Clear","clear","0","0","0","0","0","0","METAR UKKK 070330Z 27005MPS CAVOK 15/09 Q1010 R26/CLRD70 NOSIG"
"7:00 AM EEST on July 07, 2016","2016","07","07","07","00","Europe/Kiev","4:00 AM GMT on July 07, 2016","2016","07","07","04","00","UTC","15.0","59.0","9.0","48.2","67","18.0","11.2","-9999.0","-9999.0","270","West","-9999.0","-9999.0","1010","29.83","-999","-999","-9999","-9999","-9999.00","-9999.00","Clear","clear","0","0","0","0","0","0","METAR UKKK 070400Z 27005MPS CAVOK 15/09 Q1010 R26/CLRD70 NOSIG"
"7:30 AM EEST on July 07, 2016","2016","07","07","07","30","Europe/Kiev","4:30 AM GMT on July 07, 2016","2016","07","07","04","30","UTC","15.0","59.0","9.0","48.2","67","18.0","11.2","-9999.0","-9999.0","270","West","-9999.0","-9999.0","1010","29.83","-999","-999","-9999","-9999","-9999.00","-9999.00","Clear","clear","0","0","0","0","0","0","METAR UKKK 070430Z 27005MPS CAVOK 15/09 Q1010 R26/CLRD70 NOSIG"
"8:00 AM EEST on July 07, 2016","2016","07","07","08","00","Europe/Kiev","5:00 AM GMT on July 07, 2016","2016","07","07","05","00","UTC","16.0","60.8","9.0","48.2","63","21.6","13.4","-9999.0","-9999.0","270","West","-9999.0","-9999.0","1010","29.83","-999","-999","-9999","-9999","-9999.00","-9999.00","Clear","clear","0","0","0","0","0","0","METAR UKKK 070500Z 27006MPS CAVOK 16/09 Q1010 R26/CLRD70 NOSIG"
"8:30 AM EEST on July 07, 2016","2016","07","07","08","30","Europe/Kiev","5:30 AM GMT on July 07, 2016","2016","07","07","05","30","UTC","16.0","60.8","9.0","48.2","63","21.6","13.4","-9999.0","-9999.0","270","West","-9999.0","-9999.0","1010","29.83","-999","-999","-9999","-9999","-9999.00","-9999.00","Clear","clear","0","0","0","0","0","0","METAR UKKK 070530Z 27006MPS CAVOK 16/09 Q1010 R26/CLRD70 NOSIG"
"9:00 AM EEST on July 07, 2016","2016","07","07","09","00","Europe/Kiev","6:00 AM GMT on July 07, 2016","2016","07","07","06","00","UTC","16","62","8","47","48","14.4","8.9","","","260","West","20","12","1010","29.83","-999","-999","-9999","-9999","","","Clear","clear","0","0","0","0","0","0","AAXX 07061 33345 12998 42604 10164 20084 39904 40100 52002 69952 80005 333 20148 555 10026"
"9:00 AM EEST on July 07, 2016","2016","07","07","09","00","Europe/Kiev","6:00 AM GMT on July 07, 2016","2016","07","07","06","00","UTC","17.0","62.6","9.0","48.2","59","21.6","13.4","-9999.0","-9999.0","260","West","-9999.0","-9999.0","1010","29.83","-999","-999","-9999","-9999","-9999.00","-9999.00","Clear","clear","0","0","0","0","0","0","METAR UKKK 070600Z 26006MPS 230V290 CAVOK 17/09 Q1010 R26/CLRD70 NOSIG"
"9:30 AM EEST on July 07, 2016","2016","07","07","09","30","Europe/Kiev","6:30 AM GMT on July 07, 2016","2016","07","07","06","30","UTC","18.0","64.4","9.0","48.2","56","25.2","15.7","-9999.0","-9999.0","250","WSW","10.0","6.2","1010","29.83","-999","-999","-9999","-9999","-9999.00","-9999.00","Mostly Cloudy","mostlycloudy","0","0","0","0","0","0","METAR UKKK 070630Z 25007MPS 210V290 9999 SCT036 BKN200 18/09 Q1010 R26/CLRD70 NOSIG"
"10:00 AM EEST on July 07, 2016","2016","07","07","10","00","Europe/Kiev","7:00 AM GMT on July 07, 2016","2016","07","07","07","00","UTC","18.0","64.4","9.0","48.2","56","28.8","17.9","-9999.0","-9999.0","250","WSW","10.0","6.2","1010","29.83","-999","-999","-9999","-9999","-9999.00","-9999.00","Mostly Cloudy","mostlycloudy","0","0","0","0","0","0","METAR UKKK 070700Z 25008MPS 9999 SCT036 BKN200 18/09 Q1010 R26/CLRD70 NOSIG"
"10:30 AM EEST on July 07, 2016","2016","07","07","10","30","Europe/Kiev","7:30 AM GMT on July 07, 2016","2016","07","07","07","30","UTC","19.0","66.2","9.0","48.2","52","21.6","13.4","-9999.0","-9999.0","260","West","10.0","6.2","1010","29.83","-999","-999","-9999","-9999","-9999.00","-9999.00","Mostly Cloudy","mostlycloudy","0","0","0","0","0","0","METAR UKKK 070730Z 26006MPS 9999 SCT040 BKN200 19/09 Q1010 R26/CLRD70 NOSIG"
"10:33 AM EEST on July 07, 2016","2016","07","07","10","33","Europe/Kiev","7:33 AM GMT on July 07, 2016","2016","07","07","07","33","UTC","19.0","66.2","9.0","48.2","52","25.2","15.7","46.8","29.1","260","West","10.0","6.2","1010","29.83","-999","-999","-9999","-9999","-9999.00","-9999.00","Mostly Cloudy","mostlycloudy","0","0","0","0","0","0","SPECI UKKK 070733Z 26007G13MPS 9999 SCT040 BKN200 19/09 Q1010 R26/CLRD70 NOSIG"
"11:00 AM EEST on July 07, 2016","2016","07","07","11","00","Europe/Kiev","8:00 AM GMT on July 07, 2016","2016","07","07","08","00","UTC","18.0","64.4","9.0","48.2","56","25.2","15.7","-9999.0","-9999.0","270","West","10.0","6.2","1010","29.83","-999","-999","-9999","-9999","-9999.00","-9999.00","Mostly Cloudy","mostlycloudy","0","0","0","0","0","0","METAR UKKK 070800Z 27007MPS 230V310 9999 BKN043 18/09 Q1010 R26/CLRD70 NOSIG"
"11:30 AM EEST on July 07, 2016","2016","07","07","11","30","Europe/Kiev","8:30 AM GMT on July 07, 2016","2016","07","07","08","30","UTC","19.0","66.2","10.0","50.0","56","28.8","17.9","-9999.0","-9999.0","280","West","-9999.0","-9999.0","1010","29.83","-999","-999","-9999","-9999","-9999.00","-9999.00","Clear","clear","0","0","0","0","0","0","METAR UKKK 070830Z 28008MPS CAVOK 19/10 Q1010 R26/CLRD70 NOSIG"
"12:00 PM EEST on July 07, 2016","2016","07","07","12","00","Europe/Kiev","9:00 AM GMT on July 07, 2016","2016","07","07","09","00","UTC","19","66","8","47","39","18.0","11.2","","","250","WSW","20","12","1010","29.83","-999","-999","-9999","-9999","","","Mostly Cloudy","mostlycloudy","0","0","0","0","0","0","AAXX 07091 33345 42598 62505 10187 20083 39904 40099 54000 86500 555 10033"
"12:00 PM EEST on July 07, 2016","2016","07","07","12","00","Europe/Kiev","9:00 AM GMT on July 07, 2016","2016","07","07","09","00","UTC","19.0","66.2","10.0","50.0","56","28.8","17.9","-9999.0","-9999.0","270","West","10.0","6.2","1010","29.83","-999","-999","-9999","-9999","-9999.00","-9999.00","Mostly Cloudy","mostlycloudy","0","0","0","0","0","0","METAR UKKK 070900Z 27008MPS 9999 BKN043 19/10 Q1010 R26/CLRD70 NOSIG"
"12:11 PM EEST on July 07, 2016","2016","07","07","12","11","Europe/Kiev","9:11 AM GMT on July 07, 2016","2016","07","07","09","11","UTC","19.0","66.2","9.0","48.2","52","32.4","20.1","54.0","33.6","280","West","10.0","6.2","1010","29.83","-999","-999","-9999","-9999","-9999.00","-9999.00","Mostly Cloudy","mostlycloudy","0","0","0","0","0","0","SPECI UKKK 070911Z 28009G15MPS 9999 BKN043 19/09 Q1010 R26/CLRD70 NOSIG"
"12:30 PM EEST on July 07, 2016","2016","07","07","12","30","Europe/Kiev","9:30 AM GMT on July 07, 2016","2016","07","07","09","30","UTC","19.0","66.2","9.0","48.2","52","36.0","22.4","-9999.0","-9999.0","280","West","-9999.0","-9999.0","1010","29.83","-999","-999","-9999","-9999","-9999.00","-9999.00","Clear","clear","0","0","0","0","0","0","METAR UKKK 070930Z 28010MPS CAVOK 19/09 Q1010 R26/CLRD70 TEMPO 28009G16MPS"
"1:00 PM EEST on July 07, 2016","2016","07","07","13","00","Europe/Kiev","10:00 AM GMT on July 07, 2016","2016","07","07","10","00","UTC","18.0","64.4","9.0","48.2","56","25.2","15.7","-9999.0","-9999.0","270","West","10.0","6.2","1010","29.83","-999","-999","-9999","-9999","-9999.00","-9999.00","Mostly Cloudy","mostlycloudy","0","0","0","0","0","0","METAR UKKK 071000Z 27007MPS 9999 BKN039 18/09 Q1010 R26/CLRD70 TEMPO 28009G16MPS"
"1:30 PM EEST on July 07, 2016","2016","07","07","13","30","Europe/Kiev","10:30 AM GMT on July 07, 2016","2016","07","07","10","30","UTC","18.0","64.4","10.0","50.0","59","28.8","17.9","-9999.0","-9999.0","270","West","10.0","6.2","1010","29.83","-999","-999","-9999","-9999","-9999.00","-9999.00","Mostly Cloudy","mostlycloudy","0","0","0","0","0","0","METAR UKKK 071030Z 27008MPS 9999 BKN039 18/10 Q1010 R26/CLRD70 TEMPO 28009G16MPS"
"2:00 PM EEST on July 07, 2016","2016","07","07","14","00","Europe/Kiev","11:00 AM GMT on July 07, 2016","2016","07","07","11","00","UTC","19.0","66.2","10.0","50.0","56","28.8","17.9","-9999.0","-9999.0","280","West","10.0","6.2","1010","29.83","-999","-999","-9999","-9999","-9999.00","-9999.00","Mostly Cloudy","mostlycloudy","0","0","0","0","0","0","METAR UKKK 071100Z 28008MPS 9999 BKN043 19/10 Q1010 R26/CLRD70 TEMPO 28009G16MPS"
"2:30 PM EEST on July 07, 2016","2016","07","07","14","30","Europe/Kiev","11:30 AM GMT on July 07, 2016","2016","07","07","11","30","UTC","20.0","68.0","11.0","51.8","56","28.8","17.9","-9999.0","-9999.0","280","West","10.0","6.2","1011","29.86","-999","-999","-9999","-9999","-9999.00","-9999.00","Mostly Cloudy","mostlycloudy","0","0","0","0","0","0","METAR UKKK 071130Z 28008MPS 9999 BKN036 20/11 Q1011 R26/CLRD70 TEMPO 28009G16MPS"
"3:00 PM EEST on July 07, 2016","2016","07","07","15","00","Europe/Kiev","12:00 PM GMT on July 07, 2016","2016","07","07","12","00","UTC","19","67","10","50","43","18.0","11.2","","","270","West","20","12","1011","29.85","-999","-999","-9999","-9999","","","Mostly Cloudy","mostlycloudy","0","0","0","0","0","0","AAXX 07121 33345 32598 62705 10193 20098 39913 40108 53009 86500 555 10040"
"3:00 PM EEST on July 07, 2016","2016","07","07","15","00","Europe/Kiev","12:00 PM GMT on July 07, 2016","2016","07","07","12","00","UTC","19.0","66.2","10.0","50.0","56","32.4","20.1","-9999.0","-9999.0","270","West","-9999.0","-9999.0","1011","29.86","-999","-999","-9999","-9999","-9999.00","-9999.00","Clear","clear","0","0","0","0","0","0","METAR UKKK 071200Z 27009MPS CAVOK 19/10 Q1011 R26/CLRD70 TEMPO 28010G16MPS"
"3:30 PM EEST on July 07, 2016","2016","07","07","15","30","Europe/Kiev","12:30 PM GMT on July 07, 2016","2016","07","07","12","30","UTC","19.0","66.2","11.0","51.8","60","32.4","20.1","-9999.0","-9999.0","280","West","10.0","6.2","1011","29.86","-999","-999","-9999","-9999","-9999.00","-9999.00","Mostly Cloudy","mostlycloudy","0","0","0","0","0","0","METAR UKKK 071230Z 28009MPS 9999 BKN045 19/11 Q1011 R26/CLRD70 TEMPO 28010G16MPS"
"4:00 PM EEST on July 07, 2016","2016","07","07","16","00","Europe/Kiev","1:00 PM GMT on July 07, 2016","2016","07","07","13","00","UTC","18.0","64.4","10.0","50.0","59","28.8","17.9","-9999.0","-9999.0","270","West","-9999.0","-9999.0","1011","29.86","-999","-999","-9999","-9999","-9999.00","-9999.00","Clear","clear","0","0","0","0","0","0","METAR UKKK 071300Z 27008MPS CAVOK 18/10 Q1011 R26/CLRD70 TEMPO 28010G16MPS"
"4:30 PM EEST on July 07, 2016","2016","07","07","16","30","Europe/Kiev","1:30 PM GMT on July 07, 2016","2016","07","07","13","30","UTC","19.0","66.2","10.0","50.0","56","28.8","17.9","-9999.0","-9999.0","280","West","10.0","6.2","1011","29.86","-999","-999","-9999","-9999","-9999.00","-9999.00","Mostly Cloudy","mostlycloudy","0","0","0","0","0","0","METAR UKKK 071330Z 28008MPS 9999 BKN046 19/10 Q1011 R26/CLRD70 TEMPO 28010G16MPS"
"5:00 PM EEST on July 07, 2016","2016","07","07","17","00","Europe/Kiev","2:00 PM GMT on July 07, 2016","2016","07","07","14","00","UTC","19.0","66.2","11.0","51.8","60","28.8","17.9","-9999.0","-9999.0","270","West","10.0","6.2","1011","29.86","-999","-999","-9999","-9999","-9999.00","-9999.00","Mostly Cloudy","mostlycloudy","0","0","0","0","0","0","METAR UKKK 071400Z 27008MPS 240V300 9999 BKN036 19/11 Q1011 R26/CLRD70 TEMPO 28010G16MPS"
"5:30 PM EEST on July 07, 2016","2016","07","07","17","30","Europe/Kiev","2:30 PM GMT on July 07, 2016","2016","07","07","14","30","UTC","19.0","66.2","11.0","51.8","60","25.2","15.7","-9999.0","-9999.0","260","West","10.0","6.2","1011","29.86","-999","-999","-9999","-9999","-9999.00","-9999.00","Mostly Cloudy","mostlycloudy","0","0","0","0","0","0","METAR UKKK 071430Z 26007MPS 9999 BKN037 19/11 Q1011 R26/CLRD70 TEMPO 28010G16MPS"
"6:00 PM EEST on July 07, 2016","2016","07","07","18","00","Europe/Kiev","3:00 PM GMT on July 07, 2016","2016","07","07","15","00","UTC","18","65","10","49","46","14.4","8.9","","","290","WNW","20","12","1011","29.86","-999","-999","-9999","-9999","","","Mostly Cloudy","mostlycloudy","0","0","0","0","0","0","AAXX 07151 33345 42598 62904 10185 20095 39917 40112 52004 86900 555 10027"
"6:00 PM EEST on July 07, 2016","2016","07","07","18","00","Europe/Kiev","3:00 PM GMT on July 07, 2016","2016","07","07","15","00","UTC","19.0","66.2","10.0","50.0","56","21.6","13.4","39.6","24.6","290","WNW","10.0","6.2","1011","29.86","-999","-999","-9999","-9999","-9999.00","-9999.00","Mostly Cloudy","mostlycloudy","0","0","0","0","0","0","METAR UKKK 071500Z 29006G11MPS 250V320 9999 FEW033CB BKN050 19/10 Q1011 R26/CLRD70 TEMPO 28010G16MPS"
"6:30 PM EEST on July 07, 2016","2016","07","07","18","30","Europe/Kiev","3:30 PM GMT on July 07, 2016","2016","07","07","15","30","UTC","18.0","64.4","10.0","50.0","59","18.0","11.2","-9999.0","-9999.0","270","West","10.0","6.2","1011","29.86","-999","-999","-9999","-9999","-9999.00","-9999.00","Light Rain Showers","rain","0","1","0","0","0","0","METAR UKKK 071530Z 27005MPS 9999 -SHRA SCT030CB BKN050 18/10 Q1011 R26/CLRD70 TEMPO 28010G16MPS"
"7:00 PM EEST on July 07, 2016","2016","07","07","19","00","Europe/Kiev","4:00 PM GMT on July 07, 2016","2016","07","07","16","00","UTC","15.0","59.0","13.0","55.4","88","14.4","8.9","-9999.0","-9999.0","290","WNW","10.0","6.2","1012","29.89","-999","-999","-9999","-9999","-9999.00","-9999.00","Light Rain Showers","rain","0","1","0","0","0","0","METAR UKKK 071600Z 29004MPS 9999 -SHRA SCT030CB BKN073 15/13 Q1012 R26/290256 NOSIG"
"7:30 PM EEST on July 07, 2016","2016","07","07","19","30","Europe/Kiev","4:30 PM GMT on July 07, 2016","2016","07","07","16","30","UTC","15.0","59.0","12.0","53.6","82","21.6","13.4","-9999.0","-9999.0","260","West","10.0","6.2","1012","29.89","-999","-999","-9999","-9999","-9999.00","-9999.00","Mostly Cloudy","mostlycloudy","0","0","0","0","0","0","METAR UKKK 071630Z 26006MPS 9999 FEW030CB BKN058 15/12 Q1012 R26/290256 NOSIG"
"8:00 PM EEST on July 07, 2016","2016","07","07","20","00","Europe/Kiev","5:00 PM GMT on July 07, 2016","2016","07","07","17","00","UTC","14.0","57.2","12.0","53.6","88","18.0","11.2","-9999.0","-9999.0","270","West","10.0","6.2","1012","29.89","-999","-999","-9999","-9999","-9999.00","-9999.00","Mostly Cloudy","mostlycloudy","0","0","0","0","0","0","METAR UKKK 071700Z 27005MPS 9999 SCT030CB BKN058 14/12 Q1012 R26/290256 NOSIG"
"8:30 PM EEST on July 07, 2016","2016","07","07","20","30","Europe/Kiev","5:30 PM GMT on July 07, 2016","2016","07","07","17","30","UTC","15.0","59.0","12.0","53.6","82","14.4","8.9","-9999.0","-9999.0","260","West","-9999.0","-9999.0","1013","29.92","-999","-999","-9999","-9999","-9999.00","-9999.00","Clear","clear","0","0","0","0","0","0","METAR UKKK 071730Z 26004MPS CAVOK 15/12 Q1013 R26/290058 NOSIG"
"9:00 PM EEST on July 07, 2016","2016","07","07","21","00","Europe/Kiev","6:00 PM GMT on July 07, 2016","2016","07","07","18","00","UTC","14","58","12","53","79","10.8","6.7","","","270","West","20","12","1013","29.91","-999","-999","-9999","-9999","","","Partly Cloudy","partlycloudy","0","0","0","0","0","0","AAXX 07181 33345 11998 22703 10144 20118 39930 40128 52013 60022 70281 82031 333 10202 555 11017"
"9:00 PM EEST on July 07, 2016","2016","07","07","21","00","Europe/Kiev","6:00 PM GMT on July 07, 2016","2016","07","07","18","00","UTC","14.0","57.2","12.0","53.6","88","14.4","8.9","-9999.0","-9999.0","260","West","-9999.0","-9999.0","1013","29.92","-999","-999","-9999","-9999","-9999.00","-9999.00","Clear","clear","0","0","0","0","0","0","METAR UKKK 071800Z 26004MPS CAVOK 14/12 Q1013 R26/290058 NOSIG"
"9:30 PM EEST on July 07, 2016","2016","07","07","21","30","Europe/Kiev","6:30 PM GMT on July 07, 2016","2016","07","07","18","30","UTC","13.0","55.4","12.0","53.6","94","18.0","11.2","-9999.0","-9999.0","270","West","-9999.0","-9999.0","1013","29.92","-999","-999","-9999","-9999","-9999.00","-9999.00","Clear","clear","0","0","0","0","0","0","METAR UKKK 071830Z 27005MPS CAVOK 13/12 Q1013 R26/290058 NOSIG"
"10:00 PM EEST on July 07, 2016","2016","07","07","22","00","Europe/Kiev","7:00 PM GMT on July 07, 2016","2016","07","07","19","00","UTC","13.0","55.4","12.0","53.6","94","14.4","8.9","-9999.0","-9999.0","270","West","-9999.0","-9999.0","1013","29.92","-999","-999","-9999","-9999","-9999.00","-9999.00","Clear","clear","0","0","0","0","0","0","METAR UKKK 071900Z 27004MPS CAVOK 13/12 Q1013 R26/190060 NOSIG"
"10:30 PM EEST on July 07, 2016","2016","07","07","22","30","Europe/Kiev","7:30 PM GMT on July 07, 2016","2016","07","07","19","30","UTC","13.0","55.4","12.0","53.6","94","18.0","11.2","-9999.0","-9999.0","270","West","-9999.0","-9999.0","1013","29.92","-999","-999","-9999","-9999","-9999.00","-9999.00","Clear","clear","0","0","0","0","0","0","METAR UKKK 071930Z 27005MPS CAVOK 13/12 Q1013 R26/190060 NOSIG"
"11:00 PM EEST on July 07, 2016","2016","07","07","23","00","Europe/Kiev","8:00 PM GMT on July 07, 2016","2016","07","07","20","00","UTC","13.0","55.4","12.0","53.6","94","14.4","8.9","-9999.0","-9999.0","270","West","-9999.0","-9999.0","1013","29.92","-999","-999","-9999","-9999","-9999.00","-9999.00","Clear","clear","0","0","0","0","0","0","METAR UKKK 072000Z 27004MPS CAVOK 13/12 Q1013 R26/190060 NOSIG"
"11:30 PM EEST on July 07, 2016","2016","07","07","23","30","Europe/Kiev","8:30 PM GMT on July 07, 2016","2016","07","07","20","30","UTC","13.0","55.4","12.0","53.6","94","10.8","6.7","-9999.0","-9999.0","270","West","-9999.0","-9999.0","1014","29.95","-999","-999","-9999","-9999","-9999.00","-9999.00","Clear","clear","0","0","0","0","0","0","METAR UKKK 072030Z 27003MPS CAVOK 13/12 Q1014 R26/CLRD70 NOSIG"
"12:00 AM EEST on July 08, 2016","2016","07","08","00","00","Europe/Kiev","9:00 PM GMT on July 07, 2016","2016","07","07","21","00","UTC","14","57","12","54","84","10.8","6.7","","","260","West","10","6","1014","29.94","-999","-999","-9999","-9999","","","","","0","0","0","0","0","0","AAXX 07211 33345 42997 02603 10140 20120 39940 40139 52010 555 11013"
"12:00 AM EEST on July 08, 2016","2016","07","08","00","00","Europe/Kiev","9:00 PM GMT on July 07, 2016","2016","07","07","21","00","UTC","13.0","55.4","12.0","53.6","94","14.4","8.9","-9999.0","-9999.0","270","West","-9999.0","-9999.0","1014","29.95","-999","-999","-9999","-9999","-9999.00","-9999.00","Clear","clear","0","0","0","0","0","0","METAR UKKK 072100Z 27004MPS CAVOK 13/12 Q1014 R26/CLRD70 NOSIG"
"12:30 AM EEST on July 08, 2016","2016","07","08","00","30","Europe/Kiev","9:30 PM GMT on July 07, 2016","2016","07","07","21","30","UTC","13.0","55.4","12.0","53.6","94","18.0","11.2","-9999.0","-9999.0","270","West","-9999.0","-9999.0","1014","29.95","-999","-999","-9999","-9999","-9999.00","-9999.00","Clear","clear","0","0","0","0","0","0","METAR UKKK 072130Z 27005MPS CAVOK 13/12 Q1014 R26/CLRD70 NOSIG"
"1:00 AM EEST on July 08, 2016","2016","07","08","01","00","Europe/Kiev","10:00 PM GMT on July 07, 2016","2016","07","07","22","00","UTC","13.0","55.4","12.0","53.6","94","18.0","11.2","-9999.0","-9999.0","270","West","-9999.0","-9999.0","1014","29.95","-999","-999","-9999","-9999","-9999.00","-9999.00","Clear","clear","0","0","0","0","0","0","METAR UKKK 072200Z 27005MPS CAVOK 13/12 Q1014 R26/CLRD70 NOSIG"
"1:30 AM EEST on July 08, 2016","2016","07","08","01","30","Europe/Kiev","10:30 PM GMT on July 07, 2016","2016","07","07","22","30","UTC","13.0","55.4","12.0","53.6","94","18.0","11.2","-9999.0","-9999.0","280","West","-9999.0","-9999.0","1014","29.95","-999","-999","-9999","-9999","-9999.00","-9999.00","Clear","clear","0","0","0","0","0","0","METAR UKKK 072230Z 28005MPS CAVOK 13/12 Q1014 R26/CLRD70 NOSIG"
"2:00 AM EEST on July 08, 2016","2016","07","08","02","00","Europe/Kiev","11:00 PM GMT on July 07, 2016","2016","07","07","23","00","UTC","13.0","55.4","11.0","51.8","88","14.4","8.9","-9999.0","-9999.0","270","West","-9999.0","-9999.0","1014","29.95","-999","-999","-9999","-9999","-9999.00","-9999.00","Clear","clear","0","0","0","0","0","0","METAR UKKK 072300Z 27004MPS CAVOK 13/11 Q1014 R26/CLRD70 NOSIG"
"2:30 AM EEST on July 08, 2016","2016","07","08","02","30","Europe/Kiev","11:30 PM GMT on July 07, 2016","2016","07","07","23","30","UTC","13.0","55.4","12.0","53.6","94","14.4","8.9","-9999.0","-9999.0","280","West","-9999.0","-9999.0","1015","29.98","-999","-999","-9999","-9999","-9999.00","-9999.00","Clear","clear","0","0","0","0","0","0","METAR UKKK 072330Z 28004MPS CAVOK 13/12 Q1015 R26/CLRD70 NOSIG"
"3:00 AM EEST on July 08, 2016","2016","07","08","03","00","Europe/Kiev","12:00 AM GMT on July 08, 2016","2016","07","08","00","00","UTC","14","57","11","52","79","10.8","6.7","","","290","WNW","10","6","1015","29.97","-999","-999","-9999","-9999","","","Scattered Clouds","partlycloudy","0","0","0","0","0","0","AAXX 08001 33345 32997 22903 10139 20113 39950 40149 52010 82030 555 11013"
"3:00 AM EEST on July 08, 2016","2016","07","08","03","00","Europe/Kiev","12:00 AM GMT on July 08, 2016","2016","07","08","00","00","UTC","13.0","55.4","11.0","51.8","88","10.8","6.7","-9999.0","-9999.0","280","West","-9999.0","-9999.0","1015","29.98","-999","-999","-9999","-9999","-9999.00","-9999.00","Clear","clear","0","0","0","0","0","0","METAR UKKK 080000Z 28003MPS CAVOK 13/11 Q1015 R26/CLRD70 NOSIG"
"3:30 AM EEST on July 08, 2016","2016","07","08","03","30","Europe/Kiev","12:30 AM GMT on July 08, 2016","2016","07","08","00","30","UTC","13.0","55.4","11.0","51.8","88","10.8","6.7","-9999.0","-9999.0","290","WNW","-9999.0","-9999.0","1015","29.98","-999","-999","-9999","-9999","-9999.00","-9999.00","Clear","clear","0","0","0","0","0","0","METAR UKKK 080030Z 29003MPS CAVOK 13/11 Q1015 R26/CLRD70 NOSIG"
"4:00 AM EEST on July 08, 2016","2016","07","08","04","00","Europe/Kiev","1:00 AM GMT on July 08, 2016","2016","07","08","01","00","UTC","13.0","55.4","11.0","51.8","88","14.4","8.9","-9999.0","-9999.0","290","WNW","-9999.0","-9999.0","1015","29.98","-999","-999","-9999","-9999","-9999.00","-9999.00","Clear","clear","0","0","0","0","0","0","METAR UKKK 080100Z 29004MPS CAVOK 13/11 Q1015 R26/CLRD70 NOSIG"
"4:30 AM EEST on July 08, 2016","2016","07","08","04","30","Europe/Kiev","1:30 AM GMT on July 08, 2016","2016","07","08","01","30","UTC","13.0","55.4","11.0","51.8","88","14.4","8.9","-9999.0","-9999.0","290","WNW","-9999.0","-9999.0","1015","29.98","-999","-999","-9999","-9999","-9999.00","-9999.00","Clear","clear","0","0","0","0","0","0","METAR UKKK 080130Z 29004MPS CAVOK 13/11 Q1015 R26/CLRD70 NOSIG"
"5:00 AM EEST on July 08, 2016","2016","07","08","05","00","Europe/Kiev","2:00 AM GMT on July 08, 2016","2016","07","08","02","00","UTC","13.0","55.4","11.0","51.8","88","14.4","8.9","-9999.0","-9999.0","280","West","-9999.0","-9999.0","1016","30.01","-999","-999","-9999","-9999","-9999.00","-9999.00","Clear","clear","0","0","0","0","0","0","METAR UKKK 080200Z 28004MPS CAVOK 13/11 Q1016 R26/CLRD70 NOSIG"
"5:30 AM EEST on July 08, 2016","2016","07","08","05","30","Europe/Kiev","2:30 AM GMT on July 08, 2016","2016","07","08","02","30","UTC","12.0","53.6","11.0","51.8","94","14.4","8.9","-9999.0","-9999.0","280","West","-9999.0","-9999.0","1016","30.01","-999","-999","-9999","-9999","-9999.00","-9999.00","Clear","clear","0","0","0","0","0","0","METAR UKKK 080230Z 28004MPS CAVOK 12/11 Q1016 R26/CLRD70 NOSIG"
"6:00 AM EEST on July 08, 2016","2016","07","08","06","00","Europe/Kiev","3:00 AM GMT on July 08, 2016","2016","07","08","03","00","UTC","13","55","11","51","83","7.2","4.5","","","300","WNW","10","6","1016","30.01","-999","-999","-9999","-9999","","","Scattered Clouds","partlycloudy","0","0","0","0","0","0","AAXX 08031 33345 42997 23002 10128 20107 39961 40161 52011 82030 555 11012"
"6:00 AM EEST on July 08, 2016","2016","07","08","06","00","Europe/Kiev","3:00 AM GMT on July 08, 2016","2016","07","08","03","00","UTC","13.0","55.4","11.0","51.8","88","14.4","8.9","-9999.0","-9999.0","280","West","-9999.0","-9999.0","1016","30.01","-999","-999","-9999","-9999","-9999.00","-9999.00","Clear","clear","0","0","0","0","0","0","METAR UKKK 080300Z 28004MPS CAVOK 13/11 Q1016 R26/CLRD70 NOSIG"
"6:30 AM EEST on July 08, 2016","2016","07","08","06","30","Europe/Kiev","3:30 AM GMT on July 08, 2016","2016","07","08","03","30","UTC","13.0","55.4","11.0","51.8","88","18.0","11.2","-9999.0","-9999.0","280","West","-9999.0","-9999.0","1016","30.01","-999","-999","-9999","-9999","-9999.00","-9999.00","Clear","clear","0","0","0","0","0","0","METAR UKKK 080330Z 28005MPS CAVOK 13/11 Q1016 R26/CLRD70 NOSIG"
"7:00 AM EEST on July 08, 2016","2016","07","08","07","00","Europe/Kiev","4:00 AM GMT on July 08, 2016","2016","07","08","04","00","UTC","13.0","55.4","12.0","53.6","94","18.0","11.2","-9999.0","-9999.0","290","WNW","10.0","6.2","1016","30.01","-999","-999","-9999","-9999","-9999.00","-9999.00","Scattered Clouds","partlycloudy","0","0","0","0","0","0","METAR UKKK 080400Z 29005MPS 9999 FEW011 SCT100 13/12 Q1016 R26/CLRD70 NOSIG"
"7:30 AM EEST on July 08, 2016","2016","07","08","07","30","Europe/Kiev","4:30 AM GMT on July 08, 2016","2016","07","08","04","30","UTC","14.0","57.2","12.0","53.6","88","18.0","11.2","-9999.0","-9999.0","300","WNW","10.0","6.2","1016","30.01","-999","-999","-9999","-9999","-9999.00","-9999.00","Partly Cloudy","partlycloudy","0","0","0","0","0","0","METAR UKKK 080430Z 30005MPS 9999 FEW013 14/12 Q1016 R26/CLRD70 NOSIG"
"8:00 AM EEST on July 08, 2016","2016","07","08","08","00","Europe/Kiev","5:00 AM GMT on July 08, 2016","2016","07","08","05","00","UTC","15.0","59.0","12.0","53.6","82","18.0","11.2","-9999.0","-9999.0","290","WNW","10.0","6.2","1016","30.01","-999","-999","-9999","-9999","-9999.00","-9999.00","Partly Cloudy","partlycloudy","0","0","0","0","0","0","METAR UKKK 080500Z 29005MPS 9999 FEW013 15/12 Q1016 R26/CLRD70 NOSIG"
"8:30 AM EEST on July 08, 2016","2016","07","08","08","30","Europe/Kiev","5:30 AM GMT on July 08, 2016","2016","07","08","05","30","UTC","15.0","59.0","12.0","53.6","82","18.0","11.2","-9999.0","-9999.0","280","West","10.0","6.2","1017","30.04","-999","-999","-9999","-9999","-9999.00","-9999.00","Partly Cloudy","partlycloudy","0","0","0","0","0","0","METAR UKKK 080530Z 28005MPS 9999 FEW017 15/12 Q1017 R26/CLRD70 NOSIG"
"9:00 AM EEST on July 08, 2016","2016","07","08","09","00","Europe/Kiev","6:00 AM GMT on July 08, 2016","2016","07","08","06","00","UTC","16","62","12","53","65","14.4","8.9","","","270","West","20","12","1017","30.03","-999","-999","-9999","-9999","","","Scattered Clouds","partlycloudy","0","0","0","0","0","0","AAXX 08061 33345 32998 12704 10165 20117 39970 40167 52009 81030 333 20127 555 10026"
"9:00 AM EEST on July 08, 2016","2016","07","08","09","00","Europe/Kiev","6:00 AM GMT on July 08, 2016","2016","07","08","06","00","UTC","16.0","60.8","12.0","53.6","77","18.0","11.2","-9999.0","-9999.0","290","WNW","10.0","6.2","1017","30.04","-999","-999","-9999","-9999","-9999.00","-9999.00","Partly Cloudy","partlycloudy","0","0","0","0","0","0","METAR UKKK 080600Z 29005MPS 260V330 9999 FEW017 16/12 Q1017 R26/CLRD70 NOSIG"
"9:30 AM EEST on July 08, 2016","2016","07","08","09","30","Europe/Kiev","6:30 AM GMT on July 08, 2016","2016","07","08","06","30","UTC","17.0","62.6","12.0","53.6","72","14.4","8.9","-9999.0","-9999.0","290","WNW","10.0","6.2","1016","30.01","-999","-999","-9999","-9999","-9999.00","-9999.00","Partly Cloudy","partlycloudy","0","0","0","0","0","0","METAR UKKK 080630Z 29004MPS 250V310 9999 FEW017 17/12 Q1016 R26/CLRD70 NOSIG"
"10:00 AM EEST on July 08, 2016","2016","07","08","10","00","Europe/Kiev","7:00 AM GMT on July 08, 2016","2016","07","08","07","00","UTC","19.0","66.2","12.0","53.6","64","14.4","8.9","-9999.0","-9999.0","290","WNW","10.0","6.2","1017","30.04","-999","-999","-9999","-9999","-9999.00","-9999.00","Partly Cloudy","partlycloudy","0","0","0","0","0","0","METAR UKKK 080700Z 29004MPS 260V320 9999 FEW026 19/12 Q1017 R26/CLRD70 NOSIG"
"10:30 AM EEST on July 08, 2016","2016","07","08","10","30","Europe/Kiev","7:30 AM GMT on July 08, 2016","2016","07","08","07","30","UTC","18.0","64.4","12.0","53.6","68","18.0","11.2","-9999.0","-9999.0","310","NW","10.0","6.2","1017","30.04","-999","-999","-9999","-9999","-9999.00","-9999.00","Mostly Cloudy","mostlycloudy","0","0","0","0","0","0","METAR UKKK 080730Z 31005MPS 270V340 9999 BKN030 18/12 Q1017 R26/CLRD70 NOSIG"
"11:00 AM EEST on July 08, 2016","2016","07","08","11","00","Europe/Kiev","8:00 AM GMT on July 08, 2016","2016","07","08","08","00","UTC","19.0","66.2","12.0","53.6","64","14.4","8.9","-9999.0","-9999.0","280","West","10.0","6.2","1016","30.01","-999","-999","-9999","-9999","-9999.00","-9999.00","Mostly Cloudy","mostlycloudy","0","0","0","0","0","0","METAR UKKK 080800Z 28004MPS 260V320 9999 BKN032 19/12 Q1016 R26/CLRD70 NOSIG"
"11:30 AM EEST on July 08, 2016","2016","07","08","11","30","Europe/Kiev","8:30 AM GMT on July 08, 2016","2016","07","08","08","30","UTC","19.0","66.2","12.0","53.6","64","21.6","13.4","-9999.0","-9999.0","280","West","10.0","6.2","1017","30.04","-999","-999","-9999","-9999","-9999.00","-9999.00","Mostly Cloudy","mostlycloudy","0","0","0","0","0","0","METAR UKKK 080830Z 28006MPS 9999 BKN030 19/12 Q1017 R26/CLRD70 NOSIG"
"12:00 PM EEST on July 08, 2016","2016","07","08","12","00","Europe/Kiev","9:00 AM GMT on July 08, 2016","2016","07","08","09","00","UTC","20","68","10","50","42","10.8","6.7","","","320","NW","20","12","1016","30.02","-999","-999","-9999","-9999","","","Mostly Cloudy","mostlycloudy","0","0","0","0","0","0","AAXX 08091 33345 42498 53203 10200 20100 39969 40164 58001 85300 555 10035"
"12:00 PM EEST on July 08, 2016","2016","07","08","12","00","Europe/Kiev","9:00 AM GMT on July 08, 2016","2016","07","08","09","00","UTC","19.0","66.2","10.0","50.0","56","25.2","15.7","-9999.0","-9999.0","310","NW","10.0","6.2","1017","30.04","-999","-999","-9999","-9999","-9999.00","-9999.00","Mostly Cloudy","mostlycloudy","0","0","0","0","0","0","METAR UKKK 080900Z 31007MPS 9999 BKN038 19/10 Q1017 R26/CLRD70 NOSIG"
"12:30 PM EEST on July 08, 2016","2016","07","08","12","30","Europe/Kiev","9:30 AM GMT on July 08, 2016","2016","07","08","09","30","UTC","20.0","68.0","10.0","50.0","52","21.6","13.4","-9999.0","-9999.0","280","West","10.0","6.2","1017","30.04","-999","-999","-9999","-9999","-9999.00","-9999.00","Mostly Cloudy","mostlycloudy","0","0","0","0","0","0","METAR UKKK 080930Z 28006MPS 240V300 9999 SCT043 BKN080 20/10 Q1017 R26/CLRD70 NOSIG"
"1:00 PM EEST on July 08, 2016","2016","07","08","13","00","Europe/Kiev","10:00 AM GMT on July 08, 2016","2016","07","08","10","00","UTC","20.0","68.0","10.0","50.0","52","21.6","13.4","-9999.0","-9999.0","320","NW","10.0","6.2","1016","30.01","-999","-999","-9999","-9999","-9999.00","-9999.00","Mostly Cloudy","mostlycloudy","0","0","0","0","0","0","METAR UKKK 081000Z 32006MPS 290V350 9999 SCT043 BKN080 20/10 Q1016 R26/CLRD70 NOSIG"
"1:30 PM EEST on July 08, 2016","2016","07","08","13","30","Europe/Kiev","10:30 AM GMT on July 08, 2016","2016","07","08","10","30","UTC","20.0","68.0","9.0","48.2","49","18.0","11.2","-9999.0","-9999.0","300","WNW","10.0","6.2","1016","30.01","-999","-999","-9999","-9999","-9999.00","-9999.00","Mostly Cloudy","mostlycloudy","0","0","0","0","0","0","METAR UKKK 081030Z 30005MPS 270V330 9999 SCT043 BKN080 20/09 Q1016 R26/CLRD70 NOSIG"
"2:00 PM EEST on July 08, 2016","2016","07","08","14","00","Europe/Kiev","11:00 AM GMT on July 08, 2016","2016","07","08","11","00","UTC","21.0","69.8","10.0","50.0","49","21.6","13.4","-9999.0","-9999.0","300","WNW","10.0","6.2","1016","30.01","-999","-999","-9999","-9999","-9999.00","-9999.00","Mostly Cloudy","mostlycloudy","0","0","0","0","0","0","METAR UKKK 081100Z 30006MPS 9999 SCT046 BKN080 21/10 Q1016 R26/CLRD70 NOSIG"
"2:30 PM EEST on July 08, 2016","2016","07","08","14","30","Europe/Kiev","11:30 AM GMT on July 08, 2016","2016","07","08","11","30","UTC","20.0","68.0","9.0","48.2","49","21.6","13.4","-9999.0","-9999.0","300","WNW","-9999.0","-9999.0","1016","30.01","-999","-999","-9999","-9999","-9999.00","-9999.00","Clear","clear","0","0","0","0","0","0","METAR UKKK 081130Z 30006MPS 270V330 CAVOK 20/09 Q1016 R26/CLRD70 NOSIG"
"3:00 PM EEST on July 08, 2016","2016","07","08","15","00","Europe/Kiev","12:00 PM GMT on July 08, 2016","2016","07","08","12","00","UTC","20","69","8","46","32","14.4","8.9","","","320","NW","20","12","1016","30.02","-999","-999","-9999","-9999","","","Mostly Cloudy","mostlycloudy","0","0","0","0","0","0","AAXX 08121 33345 32498 63204 10205 20075 39969 40164 54000 86300 333 86914 555 10032"
"3:00 PM EEST on July 08, 2016","2016","07","08","15","00","Europe/Kiev","12:00 PM GMT on July 08, 2016","2016","07","08","12","00","UTC","22.0","71.6","8.0","46.4","41","21.6","13.4","-9999.0","-9999.0","290","WNW","-9999.0","-9999.0","1016","30.01","-999","-999","-9999","-9999","-9999.00","-9999.00","Clear","clear","0","0","0","0","0","0","METAR UKKK 081200Z 29006MPS CAVOK 22/08 Q1016 R26/CLRD70 NOSIG"
"3:30 PM EEST on July 08, 2016","2016","07","08","15","30","Europe/Kiev","12:30 PM GMT on July 08, 2016","2016","07","08","12","30","UTC","23.0","73.4","9.0","48.2","41","18.0","11.2","-9999.0","-9999.0","290","WNW","-9999.0","-9999.0","1016","30.01","-999","-999","-9999","-9999","-9999.00","-9999.00","Clear","clear","0","0","0","0","0","0","METAR UKKK 081230Z 29005MPS 260V320 CAVOK 23/09 Q1016 R26/CLRD70 NOSIG"
"4:00 PM EEST on July 08, 2016","2016","07","08","16","00","Europe/Kiev","1:00 PM GMT on July 08, 2016","2016","07","08","13","00","UTC","23.0","73.4","9.0","48.2","41","21.6","13.4","-9999.0","-9999.0","300","WNW","-9999.0","-9999.0","1016","30.01","-999","-999","-9999","-9999","-9999.00","-9999.00","Clear","clear","0","0","0","0","0","0","METAR UKKK 081300Z 30006MPS 260V350 CAVOK 23/09 Q1016 R26/CLRD70 NOSIG"
"4:30 PM EEST on July 08, 2016","2016","07","08","16","30","Europe/Kiev","1:30 PM GMT on July 08, 2016","2016","07","08","13","30","UTC","23.0","73.4","8.0","46.4","38","21.6","13.4","-9999.0","-9999.0","290","WNW","-9999.0","-9999.0","1016","30.01","-999","-999","-9999","-9999","-9999.00","-9999.00","Clear","clear","0","0","0","0","0","0","METAR UKKK 081330Z 29006MPS 250V330 CAVOK 23/08 Q1016 R26/CLRD70 NOSIG"
"5:00 PM EEST on July 08, 2016","2016","07","08","17","00","Europe/Kiev","2:00 PM GMT on July 08, 2016","2016","07","08","14","00","UTC","23.0","73.4","7.0","44.6","36","18.0","11.2","-9999.0","-9999.0","290","WNW","-9999.0","-9999.0","1016","30.01","-999","-999","-9999","-9999","-9999.00","-9999.00","Clear","clear","0","0","0","0","0","0","METAR UKKK 081400Z 29005MPS CAVOK 23/07 Q1016 R26/CLRD70 NOSIG"
"5:30 PM EEST on July 08, 2016","2016","07","08","17","30","Europe/Kiev","2:30 PM GMT on July 08, 2016","2016","07","08","14","30","UTC","23.0","73.4","7.0","44.6","36","21.6","13.4","-9999.0","-9999.0","280","West","-9999.0","-9999.0","1016","30.01","-999","-999","-9999","-9999","-9999.00","-9999.00","Clear","clear","0","0","0","0","0","0","METAR UKKK 081430Z 28006MPS 250V310 CAVOK 23/07 Q1016 R26/CLRD70 NOSIG"
"6:00 PM EEST on July 08, 2016","2016","07","08","18","00","Europe/Kiev","3:00 PM GMT on July 08, 2016","2016","07","08","15","00","UTC","22","72","5","41","21","10.8","6.7","","","310","NW","20","12","1016","29.99","-999","-999","-9999","-9999","","","Scattered Clouds","partlycloudy","0","0","0","0","0","0","AAXX 08151 33345 42698 23103 10220 20049 39961 40155 58008 82200 555 10032"
"6:00 PM EEST on July 08, 2016","2016","07","08","18","00","Europe/Kiev","3:00 PM GMT on July 08, 2016","2016","07","08","15","00","UTC","22.0","71.6","7.0","44.6","38","25.2","15.7","-9999.0","-9999.0","280","West","-9999.0","-9999.0","1016","30.01","-999","-999","-9999","-9999","-9999.00","-9999.00","Clear","clear","0","0","0","0","0","0","METAR UKKK 081500Z 28007MPS 250V310 CAVOK 22/07 Q1016 R26/CLRD70 NOSIG"
"6:30 PM EEST on July 08, 2016","2016","07","08","18","30","Europe/Kiev","3:30 PM GMT on July 08, 2016","2016","07","08","15","30","UTC","23.0","73.4","6.0","42.8","33","25.2","15.7","-9999.0","-9999.0","290","WNW","-9999.0","-9999.0","1016","30.01","-999","-999","-9999","-9999","-9999.00","-9999.00","Clear","clear","0","0","0","0","0","0","METAR UKKK 081530Z 29007MPS 250V310 CAVOK 23/06 Q1016 R26/CLRD70 NOSIG"
"7:00 PM EEST on July 08, 2016","2016","07","08","19","00","Europe/Kiev","4:00 PM GMT on July 08, 2016","2016","07","08","16","00","UTC","22.0","71.6","7.0","44.6","38","21.6","13.4","-9999.0","-9999.0","280","West","-9999.0","-9999.0","1016","30.01","-999","-999","-9999","-9999","-9999.00","-9999.00","Clear","clear","0","0","0","0","0","0","METAR UKKK 081600Z 28006MPS CAVOK 22/07 Q1016 R26/CLRD70 NOSIG"
"7:30 PM EEST on July 08, 2016","2016","07","08","19","30","Europe/Kiev","4:30 PM GMT on July 08, 2016","2016","07","08","16","30","UTC","21.0","69.8","7.0","44.6","40","18.0","11.2","-9999.0","-9999.0","290","WNW","-9999.0","-9999.0","1016","30.01","-999","-999","-9999","-9999","-9999.00","-9999.00","Clear","clear","0","0","0","0","0","0","METAR UKKK 081630Z 29005MPS CAVOK 21/07 Q1016 R26/CLRD70 NOSIG"
"8:00 PM EEST on July 08, 2016","2016","07","08","20","00","Europe/Kiev","5:00 PM GMT on July 08, 2016","2016","07","08","17","00","UTC","20.0","68.0","7.0","44.6","43","18.0","11.2","-9999.0","-9999.0","280","West","-9999.0","-9999.0","1016","30.01","-999","-999","-9999","-9999","-9999.00","-9999.00","Clear","clear","0","0","0","0","0","0","METAR UKKK 081700Z 28005MPS CAVOK 20/07 Q1016 R26/CLRD70 NOSIG"
"8:30 PM EEST on July 08, 2016","2016","07","08","20","30","Europe/Kiev","5:30 PM GMT on July 08, 2016","2016","07","08","17","30","UTC","20.0","68.0","8.0","46.4","46","14.4","8.9","-9999.0","-9999.0","270","West","-9999.0","-9999.0","1016","30.01","-999","-999","-9999","-9999","-9999.00","-9999.00","Clear","clear","0","0","0","0","0","0","METAR UKKK 081730Z 27004MPS CAVOK 20/08 Q1016 R26/CLRD70 NOSIG"
"9:00 PM EEST on July 08, 2016","2016","07","08","21","00","Europe/Kiev","6:00 PM GMT on July 08, 2016","2016","07","08","18","00","UTC","20","68","6","43","29","7.2","4.5","","","260","West","20","12","1016","30.00","-999","-999","-9999","-9999","","","Scattered Clouds","partlycloudy","0","0","0","0","0","0","AAXX 08181 33345 32698 32602 10199 20061 39964 40159 53003 81101 333 10230 555 10020"
"9:00 PM EEST on July 08, 2016","2016","07","08","21","00","Europe/Kiev","6:00 PM GMT on July 08, 2016","2016","07","08","18","00","UTC","18.0","64.4","8.0","46.4","52","14.4","8.9","-9999.0","-9999.0","270","West","-9999.0","-9999.0","1016","30.01","-999","-999","-9999","-9999","-9999.00","-9999.00","Clear","clear","0","0","0","0","0","0","METAR UKKK 081800Z 27004MPS CAVOK 18/08 Q1016 R26/CLRD70 NOSIG"
"9:30 PM EEST on July 08, 2016","2016","07","08","21","30","Europe/Kiev","6:30 PM GMT on July 08, 2016","2016","07","08","18","30","UTC","17.0","62.6","8.0","46.4","55","10.8","6.7","-9999.0","-9999.0","260","West","9.0","5.6","1016","30.01","-999","-999","-9999","-9999","-9999.00","-9999.00","Unknown","unknown","0","0","0","0","0","0","METAR UKKK 081830Z 26003MPS 9000 NSC 17/08 Q1016 R26/CLRD70 NOSIG"
"10:00 PM EEST on July 08, 2016","2016","07","08","22","00","Europe/Kiev","7:00 PM GMT on July 08, 2016","2016","07","08","19","00","UTC","17.0","62.6","8.0","46.4","55","10.8","6.7","-9999.0","-9999.0","260","West","-9999.0","-9999.0","1016","30.01","-999","-999","-9999","-9999","-9999.00","-9999.00","Clear","clear","0","0","0","0","0","0","METAR UKKK 081900Z 26003MPS CAVOK 17/08 Q1016 R26/CLRD70 NOSIG"
"10:30 PM EEST on July 08, 2016","2016","07","08","22","30","Europe/Kiev","7:30 PM GMT on July 08, 2016","2016","07","08","19","30","UTC","16.0","60.8","8.0","46.4","59","10.8","6.7","-9999.0","-9999.0","250","WSW","-9999.0","-9999.0","1016","30.01","-999","-999","-9999","-9999","-9999.00","-9999.00","Clear","clear","0","0","0","0","0","0","METAR UKKK 081930Z 25003MPS CAVOK 16/08 Q1016 R26/CLRD70 NOSIG"
"11:00 PM EEST on July 08, 2016","2016","07","08","23","00","Europe/Kiev","8:00 PM GMT on July 08, 2016","2016","07","08","20","00","UTC","15.0","59.0","8.0","46.4","63","7.2","4.5","-9999.0","-9999.0","250","WSW","-9999.0","-9999.0","1016","30.01","-999","-999","-9999","-9999","-9999.00","-9999.00","Clear","clear","0","0","0","0","0","0","METAR UKKK 082000Z 25002MPS CAVOK 15/08 Q1016 R26/CLRD70 NOSIG"
"11:30 PM EEST on July 08, 2016","2016","07","08","23","30","Europe/Kiev","8:30 PM GMT on July 08, 2016","2016","07","08","20","30","UTC","14.0","57.2","8.0","46.4","67","7.2","4.5","-9999.0","-9999.0","240","WSW","9.0","5.6","1016","30.01","-999","-999","-9999","-9999","-9999.00","-9999.00","Clear","clear","0","0","0","0","0","0","METAR UKKK 082030Z 24002MPS 9000 SKC 14/08 Q1016 R26/CLRD70 NOSIG"
"12:00 AM EEST on July 09, 2016","2016","07","09","00","00","Europe/Kiev","9:00 PM GMT on July 08, 2016","2016","07","08","21","00","UTC","17","62","8","46","45","7.2","4.5","","","260","West","20","12","1016","30.01","-999","-999","-9999","-9999","","","","","0","0","0","0","0","0","AAXX 08211 33345 42998 02602 10169 20078 39966 40163 52002 555 10015"
"12:00 AM EEST on July 09, 2016","2016","07","09","00","00","Europe/Kiev","9:00 PM GMT on July 08, 2016","2016","07","08","21","00","UTC","14.0","57.2","8.0","46.4","67","10.8","6.7","-9999.0","-9999.0","240","WSW","-9999.0","-9999.0","1016","30.01","-999","-999","-9999","-9999","-9999.00","-9999.00","Clear","clear","0","0","0","0","0","0","METAR UKKK 082100Z 24003MPS CAVOK 14/08 Q1016 R26/CLRD70 NOSIG"
"12:30 AM EEST on July 09, 2016","2016","07","09","00","30","Europe/Kiev","9:30 PM GMT on July 08, 2016","2016","07","08","21","30","UTC","12.0","53.6","9.0","48.2","82","7.2","4.5","-9999.0","-9999.0","240","WSW","-9999.0","-9999.0","1016","30.01","-999","-999","-9999","-9999","-9999.00","-9999.00","Clear","clear","0","0","0","0","0","0","METAR UKKK 082130Z 24002MPS CAVOK 12/09 Q1016 R26/CLRD70 NOSIG"
"1:00 AM EEST on July 09, 2016","2016","07","09","01","00","Europe/Kiev","10:00 PM GMT on July 08, 2016","2016","07","08","22","00","UTC","12.0","53.6","8.0","46.4","77","7.2","4.5","-9999.0","-9999.0","240","WSW","-9999.0","-9999.0","1016","30.01","-999","-999","-9999","-9999","-9999.00","-9999.00","Clear","clear","0","0","0","0","0","0","METAR UKKK 082200Z 24002MPS CAVOK 12/08 Q1016 R26/CLRD70 NOSIG"
"1:30 AM EEST on July 09, 2016","2016","07","09","01","30","Europe/Kiev","10:30 PM GMT on July 08, 2016","2016","07","08","22","30","UTC","12.0","53.6","8.0","46.4","77","7.2","4.5","-9999.0","-9999.0","220","SW","-9999.0","-9999.0","1016","30.01","-999","-999","-9999","-9999","-9999.00","-9999.00","Clear","clear","0","0","0","0","0","0","METAR UKKK 082230Z 22002MPS CAVOK 12/08 Q1016 R08/CLRD70 NOSIG"
"2:00 AM EEST on July 09, 2016","2016","07","09","02","00","Europe/Kiev","11:00 PM GMT on July 08, 2016","2016","07","08","23","00","UTC","12.0","53.6","8.0","46.4","77","7.2","4.5","-9999.0","-9999.0","250","WSW","-9999.0","-9999.0","1016","30.01","-999","-999","-9999","-9999","-9999.00","-9999.00","Clear","clear","0","0","0","0","0","0","METAR UKKK 082300Z 25002MPS CAVOK 12/08 Q1016 R26/CLRD70 NOSIG"
"2:30 AM EEST on July 09, 2016","2016","07","09","02","30","Europe/Kiev","11:30 PM GMT on July 08, 2016","2016","07","08","23","30","UTC","12.0","53.6","8.0","46.4","77","7.2","4.5","-9999.0","-9999.0","240","WSW","-9999.0","-9999.0","1016","30.01","-999","-999","-9999","-9999","-9999.00","-9999.00","Clear","clear","0","0","0","0","0","0","METAR UKKK 082330Z 24002MPS CAVOK 12/08 Q1016 R26/CLRD70 NOSIG"
"3:00 AM EEST on July 09, 2016","2016","07","09","03","00","Europe/Kiev","12:00 AM GMT on July 09, 2016","2016","07","09","00","00","UTC","15","59","8","47","54","7.2","4.5","","","320","NW","20","12","1016","30.02","-999","-999","-9999","-9999","","","","","0","0","0","0","0","0","AAXX 09001 33345 32998 03202 10149 20082 39965 40164 58001 555 10013"
"3:00 AM EEST on July 09, 2016","2016","07","09","03","00","Europe/Kiev","12:00 AM GMT on July 09, 2016","2016","07","09","00","00","UTC","12.0","53.6","8.0","46.4","77","7.2","4.5","-9999.0","-9999.0","250","WSW","-9999.0","-9999.0","1016","30.01","-999","-999","-9999","-9999","-9999.00","-9999.00","Clear","clear","0","0","0","0","0","0","METAR UKKK 090000Z 25002MPS CAVOK 12/08 Q1016 R26/CLRD70 NOSIG"
"3:30 AM EEST on July 09, 2016","2016","07","09","03","30","Europe/Kiev","12:30 AM GMT on July 09, 2016","2016","07","09","00","30","UTC","10.0","50.0","8.0","46.4","87","7.2","4.5","-9999.0","-9999.0","240","WSW","-9999.0","-9999.0","1016","30.01","-999","-999","-9999","-9999","-9999.00","-9999.00","Clear","clear","0","0","0","0","0","0","METAR UKKK 090030Z 24002MPS CAVOK 10/08 Q1016 R26/CLRD70 NOSIG"
"4:00 AM EEST on July 09, 2016","2016","07","09","04","00","Europe/Kiev","1:00 AM GMT on July 09, 2016","2016","07","09","01","00","UTC","11.0","51.8","8.0","46.4","82","10.8","6.7","-9999.0","-9999.0","240","WSW","-9999.0","-9999.0","1016","30.01","-999","-999","-9999","-9999","-9999.00","-9999.00","Clear","clear","0","0","0","0","0","0","METAR UKKK 090100Z 24003MPS CAVOK 11/08 Q1016 R26/CLRD70 NOSIG"
"4:30 AM EEST on July 09, 2016","2016","07","09","04","30","Europe/Kiev","1:30 AM GMT on July 09, 2016","2016","07","09","01","30","UTC","11.0","51.8","8.0","46.4","82","10.8","6.7","-9999.0","-9999.0","230","SW","-9999.0","-9999.0","1016","30.01","-999","-999","-9999","-9999","-9999.00","-9999.00","Clear","clear","0","0","0","0","0","0","METAR UKKK 090130Z 23003MPS CAVOK 11/08 Q1016 R26/CLRD70 NOSIG"
"5:00 AM EEST on July 09, 2016","2016","07","09","05","00","Europe/Kiev","2:00 AM GMT on July 09, 2016","2016","07","09","02","00","UTC","9.0","48.2","8.0","46.4","93","7.2","4.5","-9999.0","-9999.0","250","WSW","-9999.0","-9999.0","1016","30.01","-999","-999","-9999","-9999","-9999.00","-9999.00","Clear","clear","0","0","0","0","0","0","METAR UKKK 090200Z 25002MPS CAVOK 09/08 Q1016 R26/CLRD70 NOSIG"
"5:30 AM EEST on July 09, 2016","2016","07","09","05","30","Europe/Kiev","2:30 AM GMT on July 09, 2016","2016","07","09","02","30","UTC","10.0","50.0","8.0","46.4","87","7.2","4.5","-9999.0","-9999.0","250","WSW","-9999.0","-9999.0","1016","30.01","-999","-999","-9999","-9999","-9999.00","-9999.00","Clear","clear","0","0","0","0","0","0","METAR UKKK 090230Z 25002MPS CAVOK 10/08 Q1016 R26/CLRD70 NOSIG"
"6:00 AM EEST on July 09, 2016","2016","07","09","06","00","Europe/Kiev","3:00 AM GMT on July 09, 2016","2016","07","09","03","00","UTC","14","56","9","47","65","7.2","4.5","","","290","WNW","20","12","1016","30.00","-999","-999","-9999","-9999","","","Clear","clear","0","0","0","0","0","0","AAXX 09031 33345 42998 32902 10136 20086 39960 40159 57005 80001 555 10013"
"6:00 AM EEST on July 09, 2016","2016","07","09","06","00","Europe/Kiev","3:00 AM GMT on July 09, 2016","2016","07","09","03","00","UTC","12.0","53.6","9.0","48.2","82","10.8","6.7","-9999.0","-9999.0","250","WSW","-9999.0","-9999.0","1016","30.01","-999","-999","-9999","-9999","-9999.00","-9999.00","Clear","clear","0","0","0","0","0","0","METAR UKKK 090300Z 25003MPS CAVOK 12/09 Q1016 R26/CLRD70 NOSIG"
"6:30 AM EEST on July 09, 2016","2016","07","09","06","30","Europe/Kiev","3:30 AM GMT on July 09, 2016","2016","07","09","03","30","UTC","13.0","55.4","10.0","50.0","82","7.2","4.5","-9999.0","-9999.0","270","West","-9999.0","-9999.0","1016","30.01","-999","-999","-9999","-9999","-9999.00","-9999.00","Clear","clear","0","0","0","0","0","0","METAR UKKK 090330Z 27002MPS CAVOK 13/10 Q1016 R26/CLRD70 NOSIG"
"7:00 AM EEST on July 09, 2016","2016","07","09","07","00","Europe/Kiev","4:00 AM GMT on July 09, 2016","2016","07","09","04","00","UTC","14.0","57.2","10.0","50.0","77","10.8","6.7","-9999.0","-9999.0","270","West","-9999.0","-9999.0","1016","30.01","-999","-999","-9999","-9999","-9999.00","-9999.00","Clear","clear","0","0","0","0","0","0","METAR UKKK 090400Z 27003MPS CAVOK 14/10 Q1016 R26/CLRD70 NOSIG"
"7:30 AM EEST on July 09, 2016","2016","07","09","07","30","Europe/Kiev","4:30 AM GMT on July 09, 2016","2016","07","09","04","30","UTC","15.0","59.0","10.0","50.0","72","7.2","4.5","-9999.0","-9999.0","270","West","-9999.0","-9999.0","1016","30.01","-999","-999","-9999","-9999","-9999.00","-9999.00","Clear","clear","0","0","0","0","0","0","METAR UKKK 090430Z 27002MPS CAVOK 15/10 Q1016 R26/CLRD70 NOSIG"
"8:00 AM EEST on July 09, 2016","2016","07","09","08","00","Europe/Kiev","5:00 AM GMT on July 09, 2016","2016","07","09","05","00","UTC","17.0","62.6","10.0","50.0","63","10.8","6.7","-9999.0","-9999.0","270","West","-9999.0","-9999.0","1015","29.98","-999","-999","-9999","-9999","-9999.00","-9999.00","Clear","clear","0","0","0","0","0","0","METAR UKKK 090500Z 27003MPS CAVOK 17/10 Q1015 R26/CLRD70 NOSIG"
"8:30 AM EEST on July 09, 2016","2016","07","09","08","30","Europe/Kiev","5:30 AM GMT on July 09, 2016","2016","07","09","05","30","UTC","18.0","64.4","11.0","51.8","64","7.2","4.5","-9999.0","-9999.0","280","West","-9999.0","-9999.0","1015","29.98","-999","-999","-9999","-9999","-9999.00","-9999.00","Clear","clear","0","0","0","0","0","0","METAR UKKK 090530Z 28002MPS CAVOK 18/11 Q1015 R26/CLRD70 NOSIG"
"9:00 AM EEST on July 09, 2016","2016","07","09","09","00","Europe/Kiev","6:00 AM GMT on July 09, 2016","2016","07","09","06","00","UTC","20","67","11","51","47","3.6","2.2","","","210","SSW","20","12","1015","29.97","-999","-999","-9999","-9999","","","Clear","clear","0","0","0","0","0","0","AAXX 09061 33345 32998 52101 10196 20108 39953 40148 57007 80001 333 20135 555 10033"
"9:00 AM EEST on July 09, 2016","2016","07","09","09","00","Europe/Kiev","6:00 AM GMT on July 09, 2016","2016","07","09","06","00","UTC","19.0","66.2","11.0","51.8","60","7.2","4.5","-9999.0","-9999.0","260","West","-9999.0","-9999.0","1015","29.98","-999","-999","-9999","-9999","-9999.00","-9999.00","Clear","clear","0","0","0","0","0","0","METAR UKKK 090600Z 26002MPS 220V290 CAVOK 19/11 Q1015 R26/CLRD70 NOSIG"
"9:30 AM EEST on July 09, 2016","2016","07","09","09","30","Europe/Kiev","6:30 AM GMT on July 09, 2016","2016","07","09","06","30","UTC","20.0","68.0","10.0","50.0","52","3.6","2.2","-9999.0","-9999.0","0","Variable","-9999.0","-9999.0","1015","29.98","-999","-999","-9999","-9999","-9999.00","-9999.00","Clear","clear","0","0","0","0","0","0","METAR UKKK 090630Z VRB01MPS CAVOK 20/10 Q1015 R26/CLRD70 NOSIG"
"10:00 AM EEST on July 09, 2016","2016","07","09","10","00","Europe/Kiev","7:00 AM GMT on July 09, 2016","2016","07","09","07","00","UTC","20.0","68.0","9.0","48.2","49","7.2","4.5","-9999.0","-9999.0","250","WSW","-9999.0","-9999.0","1014","29.95","-999","-999","-9999","-9999","-9999.00","-9999.00","Clear","clear","0","0","0","0","0","0","METAR UKKK 090700Z 25002MPS 150V300 CAVOK 20/09 Q1014 R26/CLRD70 NOSIG"
"10:30 AM EEST on July 09, 2016","2016","07","09","10","30","Europe/Kiev","7:30 AM GMT on July 09, 2016","2016","07","09","07","30","UTC","21.0","69.8","10.0","50.0","49","10.8","6.7","-9999.0","-9999.0","230","SW","10.0","6.2","1014","29.95","-999","-999","-9999","-9999","-9999.00","-9999.00","Mostly Cloudy","mostlycloudy","0","0","0","0","0","0","METAR UKKK 090730Z 23003MPS 200V260 9999 FEW026 BKN200 21/10 Q1014 R26/CLRD70 NOSIG"
"11:00 AM EEST on July 09, 2016","2016","07","09","11","00","Europe/Kiev","8:00 AM GMT on July 09, 2016","2016","07","09","08","00","UTC","21.0","69.8","10.0","50.0","49","10.8","6.7","-9999.0","-9999.0","230","SW","10.0","6.2","1014","29.95","-999","-999","-9999","-9999","-9999.00","-9999.00","Mostly Cloudy","mostlycloudy","0","0","0","0","0","0","METAR UKKK 090800Z 23003MPS 200V280 9999 FEW026 BKN200 21/10 Q1014 R26/CLRD70 NOSIG"
"11:30 AM EEST on July 09, 2016","2016","07","09","11","30","Europe/Kiev","8:30 AM GMT on July 09, 2016","2016","07","09","08","30","UTC","22.0","71.6","9.0","48.2","43","14.4","8.9","-9999.0","-9999.0","220","SW","10.0","6.2","1014","29.95","-999","-999","-9999","-9999","-9999.00","-9999.00","Mostly Cloudy","mostlycloudy","0","0","0","0","0","0","METAR UKKK 090830Z 22004MPS 180V290 9999 FEW040 BKN200 22/09 Q1014 R26/CLRD70 NOSIG"
"12:00 PM EEST on July 09, 2016","2016","07","09","12","00","Europe/Kiev","9:00 AM GMT on July 09, 2016","2016","07","09","09","00","UTC","22","72","10","50","34","14.4","8.9","","","230","SW","20","12","1014","29.94","-999","-999","-9999","-9999","","","Partly Cloudy","partlycloudy","0","0","0","0","0","0","AAXX 09091 33345 42598 72304 10221 20098 39943 40136 57010 84976 555 10041"
"12:00 PM EEST on July 09, 2016","2016","07","09","12","00","Europe/Kiev","9:00 AM GMT on July 09, 2016","2016","07","09","09","00","UTC","22.0","71.6","10.0","50.0","46","14.4","8.9","-9999.0","-9999.0","250","WSW","-9999.0","-9999.0","1014","29.95","-999","-999","-9999","-9999","-9999.00","-9999.00","Clear","clear","0","0","0","0","0","0","METAR UKKK 090900Z 25004MPS 220V280 CAVOK 22/10 Q1014 R26/CLRD70 NOSIG"
"12:30 PM EEST on July 09, 2016","2016","07","09","12","30","Europe/Kiev","9:30 AM GMT on July 09, 2016","2016","07","09","09","30","UTC","23.0","73.4","10.0","50.0","44","10.8","6.7","-9999.0","-9999.0","230","SW","-9999.0","-9999.0","1014","29.95","-999","-999","-9999","-9999","-9999.00","-9999.00","Clear","clear","0","0","0","0","0","0","METAR UKKK 090930Z 23003MPS 170V300 CAVOK 23/10 Q1014 R26/CLRD70 NOSIG"
"1:00 PM EEST on July 09, 2016","2016","07","09","13","00","Europe/Kiev","10:00 AM GMT on July 09, 2016","2016","07","09","10","00","UTC","23.0","73.4","9.0","48.2","41","18.0","11.2","-9999.0","-9999.0","240","WSW","-9999.0","-9999.0","1013","29.92","-999","-999","-9999","-9999","-9999.00","-9999.00","Clear","clear","0","0","0","0","0","0","METAR UKKK 091000Z 24005MPS 200V280 CAVOK 23/09 Q1013 R26/CLRD70 NOSIG"
"1:30 PM EEST on July 09, 2016","2016","07","09","13","30","Europe/Kiev","10:30 AM GMT on July 09, 2016","2016","07","09","10","30","UTC","23.0","73.4","10.0","50.0","44","10.8","6.7","-9999.0","-9999.0","260","West","-9999.0","-9999.0","1013","29.92","-999","-999","-9999","-9999","-9999.00","-9999.00","Clear","clear","0","0","0","0","0","0","METAR UKKK 091030Z 26003MPS 150V300 CAVOK 23/10 Q1013 R26/CLRD70 NOSIG"
"2:00 PM EEST on July 09, 2016","2016","07","09","14","00","Europe/Kiev","11:00 AM GMT on July 09, 2016","2016","07","09","11","00","UTC","23.0","73.4","9.0","48.2","41","7.2","4.5","-9999.0","-9999.0","210","SSW","-9999.0","-9999.0","1013","29.92","-999","-999","-9999","-9999","-9999.00","-9999.00","Clear","clear","0","0","0","0","0","0","METAR UKKK 091100Z 21002MPS CAVOK 23/09 Q1013 R26/CLRD70 NOSIG"
"2:30 PM EEST on July 09, 2016","2016","07","09","14","30","Europe/Kiev","11:30 AM GMT on July 09, 2016","2016","07","09","11","30","UTC","23.0","73.4","9.0","48.2","41","10.8","6.7","-9999.0","-9999.0","240","WSW","-9999.0","-9999.0","1013","29.92","-999","-999","-9999","-9999","-9999.00","-9999.00","Clear","clear","0","0","0","0","0","0","METAR UKKK 091130Z 24003MPS 190V270 CAVOK 23/09 Q1013 R26/CLRD70 NOSIG"
"3:00 PM EEST on July 09, 2016","2016","07","09","15","00","Europe/Kiev","12:00 PM GMT on July 09, 2016","2016","07","09","12","00","UTC","24","74","9","49","30","7.2","4.5","","","190","South","20","12","1012","29.89","-999","-999","-9999","-9999","","","Mostly Cloudy","mostlycloudy","0","0","0","0","0","0","AAXX 09121 33345 32598 71902 10235 20094 39928 40120 57015 85949 555 10038"
"3:00 PM EEST on July 09, 2016","2016","07","09","15","00","Europe/Kiev","12:00 PM GMT on July 09, 2016","2016","07","09","12","00","UTC","24.0","75.2","10.0","50.0","41","10.8","6.7","-9999.0","-9999.0","260","West","-9999.0","-9999.0","1012","29.89","-999","-999","-9999","-9999","-9999.00","-9999.00","Clear","clear","0","0","0","0","0","0","METAR UKKK 091200Z 26003MPS 190V310 CAVOK 24/10 Q1012 R26/CLRD70 NOSIG"
"3:30 PM EEST on July 09, 2016","2016","07","09","15","30","Europe/Kiev","12:30 PM GMT on July 09, 2016","2016","07","09","12","30","UTC","23.0","73.4","10.0","50.0","44","10.8","6.7","-9999.0","-9999.0","190","South","10.0","6.2","1012","29.89","-999","-999","-9999","-9999","-9999.00","-9999.00","Mostly Cloudy","mostlycloudy","0","0","0","0","0","0","METAR UKKK 091230Z 19003MPS 130V260 9999 SCT043 BKN073 23/10 Q1012 R26/CLRD70 NOSIG"
"4:00 PM EEST on July 09, 2016","2016","07","09","16","00","Europe/Kiev","1:00 PM GMT on July 09, 2016","2016","07","09","13","00","UTC","24.0","75.2","10.0","50.0","41","7.2","4.5","-9999.0","-9999.0","210","SSW","10.0","6.2","1011","29.86","-999","-999","-9999","-9999","-9999.00","-9999.00","Mostly Cloudy","mostlycloudy","0","0","0","0","0","0","METAR UKKK 091300Z 21002MPS 160V290 9999 SCT043 BKN083 24/10 Q1011 R26/CLRD70 NOSIG"
"4:30 PM EEST on July 09, 2016","2016","07","09","16","30","Europe/Kiev","1:30 PM GMT on July 09, 2016","2016","07","09","13","30","UTC","23.0","73.4","10.0","50.0","44","7.2","4.5","-9999.0","-9999.0","200","SSW","-9999.0","-9999.0","1011","29.86","-999","-999","-9999","-9999","-9999.00","-9999.00","Clear","clear","0","0","0","0","0","0","METAR UKKK 091330Z 20002MPS 150V260 CAVOK 23/10 Q1011 R26/CLRD70 NOSIG"
"5:00 PM EEST on July 09, 2016","2016","07","09","17","00","Europe/Kiev","2:00 PM GMT on July 09, 2016","2016","07","09","14","00","UTC","23.0","73.4","10.0","50.0","44","7.2","4.5","-9999.0","-9999.0","230","SW","-9999.0","-9999.0","1011","29.86","-999","-999","-9999","-9999","-9999.00","-9999.00","Clear","clear","0","0","0","0","0","0","METAR UKKK 091400Z 23002MPS 160V260 CAVOK 23/10 Q1011 R26/CLRD70 NOSIG"
"5:30 PM EEST on July 09, 2016","2016","07","09","17","30","Europe/Kiev","2:30 PM GMT on July 09, 2016","2016","07","09","14","30","UTC","23.0","73.4","11.0","51.8","47","3.6","2.2","-9999.0","-9999.0","0","Variable","10.0","6.2","1011","29.86","-999","-999","-9999","-9999","-9999.00","-9999.00","Mostly Cloudy","mostlycloudy","0","0","0","0","0","0","METAR UKKK 091430Z VRB01MPS 9999 FEW033CB BKN100 23/11 Q1011 R26/CLRD70 NOSIG"
"6:00 PM EEST on July 09, 2016","2016","07","09","18","00","Europe/Kiev","3:00 PM GMT on July 09, 2016","2016","07","09","15","00","UTC","23","74","13","55","41","0.0","0.0","","","","","20","12","1010","29.84","-999","-999","-9999","-9999","","","Mostly Cloudy","mostlycloudy","0","0","0","0","0","0","AAXX 09151 33345 42598 70000 10234 20127 39912 40104 57016 86970 555 10030"
"6:00 PM EEST on July 09, 2016","2016","07","09","18","00","Europe/Kiev","3:00 PM GMT on July 09, 2016","2016","07","09","15","00","UTC","18.0","64.4","14.0","57.2","77","21.6","13.4","43.2","26.8","260","West","8.0","5.0","1011","29.86","-999","-999","-9999","-9999","-9999.00","-9999.00","Light Rain Showers","rain","0","1","0","0","0","0","METAR UKKK 091500Z 26006G12MPS 160V290 8000 -SHRA SCT033CB BKN056 18/14 Q1011 R26/CLRD70 TEMPO VRB10G18MPS 2100 -TSRAGR BKN020CB"
"6:30 PM EEST on July 09, 2016","2016","07","09","18","30","Europe/Kiev","3:30 PM GMT on July 09, 2016","2016","07","09","15","30","UTC","16.0","60.8","15.0","59.0","94","25.2","15.7","-9999.0","-9999.0","290","WNW","5.0","3.1","1012","29.89","-999","-999","-9999","-9999","-9999.00","-9999.00","Light Rain Showers","rain","0","1","0","0","0","0","METAR UKKK 091530Z 29007MPS 5000 -SHRA BKN026CB BKN054 16/15 Q1012 R26/290256 TEMPO VRB10G18MPS 2100 -TSRAGR BKN020CB"
"7:00 PM EEST on July 09, 2016","2016","07","09","19","00","Europe/Kiev","4:00 PM GMT on July 09, 2016","2016","07","09","16","00","UTC","16.0","60.8","15.0","59.0","94","18.0","11.2","-9999.0","-9999.0","350","North","10.0","6.2","1011","29.86","-999","-999","-9999","-9999","-9999.00","-9999.00","Light Rain Showers","rain","0","1","0","0","0","0","METAR UKKK 091600Z 35005MPS 9999 -SHRA BKN026CB BKN060 16/15 Q1011 R26/290354 TEMPO VRB10G18MPS 1000 TSRAGR BKN020CB"
"7:30 PM EEST on July 09, 2016","2016","07","09","19","30","Europe/Kiev","4:30 PM GMT on July 09, 2016","2016","07","09","16","30","UTC","16.0","60.8","15.0","59.0","94","21.6","13.4","-9999.0","-9999.0","250","WSW","-9999.0","-9999.0","1012","29.89","-999","-999","-9999","-9999","-9999.00","-9999.00","Light Rain Showers","rain","0","1","0","0","0","0","METAR UKKK 091630Z 25006MPS 3800 -SHRA SCT006 BKN030CB OVC057 16/15 Q1012 R26/290158 TEMPO VRB10G18MPS 1000 TSRAGR SCT005 BKN020CB"
"8:00 PM EEST on July 09, 2016","2016","07","09","20","00","Europe/Kiev","5:00 PM GMT on July 09, 2016","2016","07","09","17","00","UTC","16.0","60.8","15.0","59.0","94","10.8","6.7","-9999.0","-9999.0","300","WNW","7.0","4.3","1012","29.89","-999","-999","-9999","-9999","-9999.00","-9999.00","Light Rain Showers","rain","0","1","0","0","0","0","METAR UKKK 091700Z 30003MPS 7000 -SHRA SCT006 BKN030CB OVC057 16/15 Q1012 R26/290256 TEMPO VRB10G18MPS 1000 TSRAGR SCT005 BKN020CB"
"8:30 PM EEST on July 09, 2016","2016","07","09","20","30","Europe/Kiev","5:30 PM GMT on July 09, 2016","2016","07","09","17","30","UTC","16.0","60.8","15.0","59.0","94","3.6","2.2","-9999.0","-9999.0","0","Variable","10.0","6.2","1012","29.89","-999","-999","-9999","-9999","-9999.00","-9999.00","Light Rain Showers","rain","0","1","0","0","0","0","METAR UKKK 091730Z VRB01MPS 9999 -SHRA FEW007 SCT033CB OVC063 16/15 Q1012 R26/290256 TEMPO VRB10G18MPS 1000 TSRAGR SCT005 BKN020CB"
"9:00 PM EEST on July 09, 2016","2016","07","09","21","00","Europe/Kiev","6:00 PM GMT on July 09, 2016","2016","07","09","18","00","UTC","16","61","15","59","92","0.0","0.0","","","","","4","2","1012","29.88","-999","-999","-9999","-9999","","","Light Rain","rain","0","1","0","0","0","0","AAXX 09181 33345 11496 80000 10160 20151 39920 40117 53008 60072 76186 8572/ 333 10242 555 11019"
"9:00 PM EEST on July 09, 2016","2016","07","09","21","00","Europe/Kiev","6:00 PM GMT on July 09, 2016","2016","07","09","18","00","UTC","16.0","60.8","15.0","59.0","94","3.6","2.2","-9999.0","-9999.0","0","Variable","9.0","5.6","1011","29.86","-999","-999","-9999","-9999","-9999.00","-9999.00","Light Rain Showers","rain","0","1","0","0","0","0","METAR UKKK 091800Z VRB01MPS 9000 -SHRA SCT030CB OVC063 16/15 Q1011 R26/290256 NOSIG"
"9:30 PM EEST on July 09, 2016","2016","07","09","21","30","Europe/Kiev","6:30 PM GMT on July 09, 2016","2016","07","09","18","30","UTC","16.0","60.8","15.0","59.0","94","7.2","4.5","-9999.0","-9999.0","110","ESE","6.0","3.7","1011","29.86","-999","-999","-9999","-9999","-9999.00","-9999.00","Unknown","unknown","0","0","0","0","0","0","METAR UKKK 091830Z 11002MPS 080V140 6000 NSC 16/15 Q1011 R08/290058 NOSIG"
"10:00 PM EEST on July 09, 2016","2016","07","09","22","00","Europe/Kiev","7:00 PM GMT on July 09, 2016","2016","07","09","19","00","UTC","16.0","60.8","15.0","59.0","94","3.6","2.2","-9999.0","-9999.0","0","Variable","9.0","5.6","1011","29.86","-999","-999","-9999","-9999","-9999.00","-9999.00","Light Rain","rain","0","1","0","0","0","0","METAR UKKK 091900Z VRB01MPS 9000 -RA OVC033 16/15 Q1011 R08/290058 NOSIG"
"10:30 PM EEST on July 09, 2016","2016","07","09","22","30","Europe/Kiev","7:30 PM GMT on July 09, 2016","2016","07","09","19","30","UTC","16.0","60.8","15.0","59.0","94","7.2","4.5","-9999.0","-9999.0","140","SE","6.0","3.7","1011","29.86","-999","-999","-9999","-9999","-9999.00","-9999.00","Light Rain","rain","0","1","0","0","0","0","METAR UKKK 091930Z 14002MPS 110V180 6000 -RA SCT008 OVC046 16/15 Q1011 R08/290058 NOSIG"
"11:00 PM EEST on July 09, 2016","2016","07","09","23","00","Europe/Kiev","8:00 PM GMT on July 09, 2016","2016","07","09","20","00","UTC","16.0","60.8","15.0","59.0","94","3.6","2.2","-9999.0","-9999.0","0","Variable","8.0","5.0","1011","29.86","-999","-999","-9999","-9999","-9999.00","-9999.00","Light Rain Showers","rain","0","1","0","0","0","0","METAR UKKK 092000Z VRB01MPS 8000 -SHRA SCT033CB OVC056 16/15 Q1011 R08/290058 NOSIG"
"11:30 PM EEST on July 09, 2016","2016","07","09","23","30","Europe/Kiev","8:30 PM GMT on July 09, 2016","2016","07","09","20","30","UTC","15.0","59.0","15.0","59.0","100","3.6","2.2","-9999.0","-9999.0","0","Variable","7.0","4.3","1011","29.86","-999","-999","-9999","-9999","-9999.00","-9999.00","Light Rain Showers","rain","0","1","0","0","0","0","METAR UKKK 092030Z VRB01MPS 7000 -SHRA FEW004 SCT030CB OVC063 15/15 Q1011 R08/290058 NOSIG"
"12:00 AM EEST on July 10, 2016","2016","07","10","00","00","Europe/Kiev","9:00 PM GMT on July 09, 2016","2016","07","09","21","00","UTC","15","60","15","58","92","3.6","2.2","","","180","South","4","2","1012","29.87","-999","-999","-9999","-9999","","","Light Rain","rain","0","1","0","0","0","0","AAXX 09211 33345 41496 81801 10153 20146 39918 40115 58002 76166 8872/ 333 88713 555 11017"
"12:00 AM EEST on July 10, 2016","2016","07","10","00","00","Europe/Kiev","9:00 PM GMT on July 09, 2016","2016","07","09","21","00","UTC","15.0","59.0","15.0","59.0","100","3.6","2.2","-9999.0","-9999.0","0","Variable","5.0","3.1","1011","29.86","-999","-999","-9999","-9999","-9999.00","-9999.00","Light Rain Showers","rain","0","1","0","0","0","0","METAR UKKK 092100Z VRB01MPS 5000 -SHRA FEW005 SCT030CB OVC063 15/15 Q1011 R08/290058 NOSIG"
"12:30 AM EEST on July 10, 2016","2016","07","10","00","30","Europe/Kiev","9:30 PM GMT on July 09, 2016","2016","07","09","21","30","UTC","15.0","59.0","15.0","59.0","100","3.6","2.2","-9999.0","-9999.0","0","Variable","8.0","5.0","1011","29.86","-999","-999","-9999","-9999","-9999.00","-9999.00","Light Rain Showers","rain","0","1","0","0","0","0","METAR UKKK 092130Z VRB01MPS 8000 -SHRA FEW012 SCT030CB OVC063 15/15 Q1011 R08/290058 NOSIG"
"1:00 AM EEST on July 10, 2016","2016","07","10","01","00","Europe/Kiev","10:00 PM GMT on July 09, 2016","2016","07","09","22","00","UTC","15.0","59.0","15.0","59.0","100","7.2","4.5","-9999.0","-9999.0","220","SW","9.0","5.6","1011","29.86","-999","-999","-9999","-9999","-9999.00","-9999.00","Light Rain Showers","rain","0","1","0","0","0","0","METAR UKKK 092200Z 22002MPS 160V280 9000 -SHRA FEW012 SCT030CB OVC063 15/15 Q1011 R08/290058 NOSIG"
"1:30 AM EEST on July 10, 2016","2016","07","10","01","30","Europe/Kiev","10:30 PM GMT on July 09, 2016","2016","07","09","22","30","UTC","15.0","59.0","15.0","59.0","100","7.2","4.5","-9999.0","-9999.0","240","WSW","7.0","4.3","1011","29.86","-999","-999","-9999","-9999","-9999.00","-9999.00","Mostly Cloudy","mostlycloudy","0","0","0","0","0","0","METAR UKKK 092230Z 24002MPS 190V260 7000 FEW031CB BKN048 15/15 Q1011 R08/290058 NOSIG"
"2:00 AM EEST on July 10, 2016","2016","07","10","02","00","Europe/Kiev","11:00 PM GMT on July 09, 2016","2016","07","09","23","00","UTC","15.0","59.0","15.0","59.0","100","7.2","4.5","-9999.0","-9999.0","260","West","8.0","5.0","1011","29.86","-999","-999","-9999","-9999","-9999.00","-9999.00","Unknown","unknown","0","0","0","0","0","0","METAR UKKK 092300Z 26002MPS 8000 NSC 15/15 Q1011 R26/290058 NOSIG"
"2:30 AM EEST on July 10, 2016","2016","07","10","02","30","Europe/Kiev","11:30 PM GMT on July 09, 2016","2016","07","09","23","30","UTC","15.0","59.0","15.0","59.0","100","7.2","4.5","-9999.0","-9999.0","260","West","9.0","5.6","1011","29.86","-999","-999","-9999","-9999","-9999.00","-9999.00","Overcast","cloudy","0","0","0","0","0","0","METAR UKKK 092330Z 26002MPS 9000 FEW005 OVC050 15/15 Q1011 R26/290058 NOSIG"
"3:00 AM EEST on July 10, 2016","2016","07","10","03","00","Europe/Kiev","12:00 AM GMT on July 10, 2016","2016","07","10","00","00","UTC","15","59","14","58","96","3.6","2.2","","","270","West","4","2","1011","29.87","-999","-999","-9999","-9999","","","Light Rain","rain","0","1","0","0","0","0","AAXX 10001 33345 /1496 72701 10152 20145 39917 40114 57001 72162 87500 333 87713 555 11017 60031"
"3:00 AM EEST on July 10, 2016","2016","07","10","03","00","Europe/Kiev","12:00 AM GMT on July 10, 2016","2016","07","10","00","00","UTC","15.0","59.0","15.0","59.0","100","10.8","6.7","-9999.0","-9999.0","260","West","9.0","5.6","1011","29.86","-999","-999","-9999","-9999","-9999.00","-9999.00","Overcast","cloudy","0","0","0","0","0","0","METAR UKKK 100000Z 26003MPS 9000 FEW005 OVC050 15/15 Q1011 R26/290058 NOSIG"
"3:30 AM EEST on July 10, 2016","2016","07","10","03","30","Europe/Kiev","12:30 AM GMT on July 10, 2016","2016","07","10","00","30","UTC","15.0","59.0","15.0","59.0","100","10.8","6.7","-9999.0","-9999.0","290","WNW","8.0","5.0","1011","29.86","-999","-999","-9999","-9999","-9999.00","-9999.00","Overcast","cloudy","0","0","0","0","0","0","METAR UKKK 100030Z 29003MPS 8000 FEW004 OVC050 15/15 Q1011 R26/290058 NOSIG"
"4:00 AM EEST on July 10, 2016","2016","07","10","04","00","Europe/Kiev","1:00 AM GMT on July 10, 2016","2016","07","10","01","00","UTC","15.0","59.0","15.0","59.0","100","7.2","4.5","-9999.0","-9999.0","330","NNW","10.0","6.2","1011","29.86","-999","-999","-9999","-9999","-9999.00","-9999.00","Overcast","cloudy","0","0","0","0","0","0","METAR UKKK 100100Z 33002MPS 9999 FEW006 OVC050 15/15 Q1011 R26/290058 NOSIG"
"4:30 AM EEST on July 10, 2016","2016","07","10","04","30","Europe/Kiev","1:30 AM GMT on July 10, 2016","2016","07","10","01","30","UTC","15.0","59.0","14.0","57.2","94","3.6","2.2","-9999.0","-9999.0","0","Variable","10.0","6.2","1011","29.86","-999","-999","-9999","-9999","-9999.00","-9999.00","Overcast","cloudy","0","0","0","0","0","0","METAR UKKK 100130Z VRB01MPS 9999 FEW006 OVC050 15/14 Q1011 R26/290058 NOSIG"
"5:00 AM EEST on July 10, 2016","2016","07","10","05","00","Europe/Kiev","2:00 AM GMT on July 10, 2016","2016","07","10","02","00","UTC","15.0","59.0","15.0","59.0","100","0.0","0.0","-9999.0","-9999.0","0","North","7.0","4.3","1011","29.86","-999","-999","-9999","-9999","-9999.00","-9999.00","Overcast","cloudy","0","0","0","0","0","0","METAR UKKK 100200Z 00000MPS 7000 FEW010 OVC025 15/15 Q1011 R08/290058 NOSIG"
"5:30 AM EEST on July 10, 2016","2016","07","10","05","30","Europe/Kiev","2:30 AM GMT on July 10, 2016","2016","07","10","02","30","UTC","15.0","59.0","15.0","59.0","100","3.6","2.2","-9999.0","-9999.0","0","Variable","7.0","4.3","1011","29.86","-999","-999","-9999","-9999","-9999.00","-9999.00","Overcast","cloudy","0","0","0","0","0","0","METAR UKKK 100230Z VRB01MPS 7000 FEW010 OVC025 15/15 Q1011 R08/290058 NOSIG"
"6:00 AM EEST on July 10, 2016","2016","07","10","06","00","Europe/Kiev","3:00 AM GMT on July 10, 2016","2016","07","10","03","00","UTC","15","59","14","58","93","3.6","2.2","","","260","West","4","2","1012","29.88","-999","-999","-9999","-9999","","","Mist","hazy","0","0","0","0","0","0","AAXX 10031 33345 41596 72601 10149 20142 39920 40117 53003 71022 86570 555 11016"
"6:00 AM EEST on July 10, 2016","2016","07","10","06","00","Europe/Kiev","3:00 AM GMT on July 10, 2016","2016","07","10","03","00","UTC","15.0","59.0","15.0","59.0","100","3.6","2.2","-9999.0","-9999.0","0","Variable","6.0","3.7","1012","29.89","-999","-999","-9999","-9999","-9999.00","-9999.00","Unknown","unknown","0","0","0","0","0","0","METAR UKKK 100300Z VRB01MPS 6000 NSC 15/15 Q1012 R08/190060 NOSIG"
"6:30 AM EEST on July 10, 2016","2016","07","10","06","30","Europe/Kiev","3:30 AM GMT on July 10, 2016","2016","07","10","03","30","UTC","15.0","59.0","15.0","59.0","100","7.2","4.5","-9999.0","-9999.0","250","WSW","5.0","3.1","1012","29.89","-999","-999","-9999","-9999","-9999.00","-9999.00","Mostly Cloudy","mostlycloudy","0","0","0","0","0","0","METAR UKKK 100330Z 25002MPS 5000 BR FEW005 BKN060 15/15 Q1012 R26/190060 NOSIG"
"7:00 AM EEST on July 10, 2016","2016","07","10","07","00","Europe/Kiev","4:00 AM GMT on July 10, 2016","2016","07","10","04","00","UTC","16.0","60.8","15.0","59.0","94","7.2","4.5","-9999.0","-9999.0","250","WSW","7.0","4.3","1012","29.89","-999","-999","-9999","-9999","-9999.00","-9999.00","Mostly Cloudy","mostlycloudy","0","0","0","0","0","0","METAR UKKK 100400Z 25002MPS 7000 FEW005 BKN060 16/15 Q1012 R26/190060 NOSIG"
"7:30 AM EEST on July 10, 2016","2016","07","10","07","30","Europe/Kiev","4:30 AM GMT on July 10, 2016","2016","07","10","04","30","UTC","16.0","60.8","15.0","59.0","94","10.8","6.7","-9999.0","-9999.0","270","West","9.0","5.6","1012","29.89","-999","-999","-9999","-9999","-9999.00","-9999.00","Mostly Cloudy","mostlycloudy","0","0","0","0","0","0","METAR UKKK 100430Z 27003MPS 240V320 9000 SCT007 BKN040 16/15 Q1012 R26/190060 NOSIG"
"8:00 AM EEST on July 10, 2016","2016","07","10","08","00","Europe/Kiev","5:00 AM GMT on July 10, 2016","2016","07","10","05","00","UTC","16.0","60.8","15.0","59.0","94","10.8","6.7","-9999.0","-9999.0","310","NW","10.0","6.2","1012","29.89","-999","-999","-9999","-9999","-9999.00","-9999.00","Mostly Cloudy","mostlycloudy","0","0","0","0","0","0","METAR UKKK 100500Z 31003MPS 9999 SCT007 BKN040 16/15 Q1012 R26/190060 NOSIG"
"8:30 AM EEST on July 10, 2016","2016","07","10","08","30","Europe/Kiev","5:30 AM GMT on July 10, 2016","2016","07","10","05","30","UTC","16.0","60.8","15.0","59.0","94","10.8","6.7","-9999.0","-9999.0","310","NW","10.0","6.2","1013","29.92","-999","-999","-9999","-9999","-9999.00","-9999.00","Mostly Cloudy","mostlycloudy","0","0","0","0","0","0","METAR UKKK 100530Z 31003MPS 9999 BKN022 16/15 Q1013 R26/190060 NOSIG"
"9:00 AM EEST on July 10, 2016","2016","07","10","09","00","Europe/Kiev","6:00 AM GMT on July 10, 2016","2016","07","10","06","00","UTC","16","61","14","58","85","7.2","4.5","","","340","NNW","4","2","1013","29.91","-999","-999","-9999","-9999","","","Mist","hazy","0","0","0","0","0","0","AAXX 10061 33345 11496 83402 10162 20143 39931 40128 53011 60032 71022 889// 333 20147 88713 555 11020"
"9:00 AM EEST on July 10, 2016","2016","07","10","09","00","Europe/Kiev","6:00 AM GMT on July 10, 2016","2016","07","10","06","00","UTC","17.0","62.6","15.0","59.0","88","10.8","6.7","-9999.0","-9999.0","340","NNW","10.0","6.2","1013","29.92","-999","-999","-9999","-9999","-9999.00","-9999.00","Mostly Cloudy","mostlycloudy","0","0","0","0","0","0","METAR UKKK 100600Z 34003MPS 300V020 9999 SCT010 BKN046 17/15 Q1013 R26/190060 NOSIG"
"9:30 AM EEST on July 10, 2016","2016","07","10","09","30","Europe/Kiev","6:30 AM GMT on July 10, 2016","2016","07","10","06","30","UTC","17.0","62.6","14.0","57.2","82","10.8","6.7","-9999.0","-9999.0","340","NNW","10.0","6.2","1013","29.92","-999","-999","-9999","-9999","-9999.00","-9999.00","Mostly Cloudy","mostlycloudy","0","0","0","0","0","0","METAR UKKK 100630Z 34003MPS 300V020 9999 SCT013 BKN046 17/14 Q1013 R26/190060 NOSIG"
"10:00 AM EEST on July 10, 2016","2016","07","10","10","00","Europe/Kiev","7:00 AM GMT on July 10, 2016","2016","07","10","07","00","UTC","18.0","64.4","14.0","57.2","77","14.4","8.9","-9999.0","-9999.0","350","North","10.0","6.2","1013","29.92","-999","-999","-9999","-9999","-9999.00","-9999.00","Mostly Cloudy","mostlycloudy","0","0","0","0","0","0","METAR UKKK 100700Z 35004MPS 310V020 9999 SCT015 BKN046 18/14 Q1013 R26/CLRD70 NOSIG"
"10:30 AM EEST on July 10, 2016","2016","07","10","10","30","Europe/Kiev","7:30 AM GMT on July 10, 2016","2016","07","10","07","30","UTC","19.0","66.2","14.0","57.2","73","14.4","8.9","-9999.0","-9999.0","320","NW","10.0","6.2","1013","29.92","-999","-999","-9999","-9999","-9999.00","-9999.00","Mostly Cloudy","mostlycloudy","0","0","0","0","0","0","METAR UKKK 100730Z 32004MPS 290V350 9999 BKN021 19/14 Q1013 R26/CLRD70 NOSIG"
"11:00 AM EEST on July 10, 2016","2016","07","10","11","00","Europe/Kiev","8:00 AM GMT on July 10, 2016","2016","07","10","08","00","UTC","18.0","64.4","14.0","57.2","77","18.0","11.2","-9999.0","-9999.0","320","NW","10.0","6.2","1013","29.92","-999","-999","-9999","-9999","-9999.00","-9999.00","Mostly Cloudy","mostlycloudy","0","0","0","0","0","0","METAR UKKK 100800Z 32005MPS 9999 BKN036 18/14 Q1013 R26/CLRD70 NOSIG"
"11:30 AM EEST on July 10, 2016","2016","07","10","11","30","Europe/Kiev","8:30 AM GMT on July 10, 2016","2016","07","10","08","30","UTC","19.0","66.2","14.0","57.2","73","21.6","13.4","-9999.0","-9999.0","310","NW","-9999.0","-9999.0","1013","29.92","-999","-999","-9999","-9999","-9999.00","-9999.00","Clear","clear","0","0","0","0","0","0","METAR UKKK 100830Z 31006MPS CAVOK 19/14 Q1013 R26/CLRD70 NOSIG"
"12:00 PM EEST on July 10, 2016","2016","07","10","12","00","Europe/Kiev","9:00 AM GMT on July 10, 2016","2016","07","10","09","00","UTC","19","67","13","56","58","14.4","8.9","","","320","NW","20","12","1013","29.93","-999","-999","-9999","-9999","","","Mostly Cloudy","mostlycloudy","0","0","0","0","0","0","AAXX 10091 33345 42598 73204 10193 20132 39938 40133 52007 87200 333 87832 555 11030"
"12:00 PM EEST on July 10, 2016","2016","07","10","12","00","Europe/Kiev","9:00 AM GMT on July 10, 2016","2016","07","10","09","00","UTC","19.0","66.2","14.0","57.2","73","18.0","11.2","-9999.0","-9999.0","320","NW","10.0","6.2","1014","29.95","-999","-999","-9999","-9999","-9999.00","-9999.00","Mostly Cloudy","mostlycloudy","0","0","0","0","0","0","METAR UKKK 100900Z 32005MPS 290V350 9999 BKN033 19/14 Q1014 R26/CLRD70 NOSIG"
"12:30 PM EEST on July 10, 2016","2016","07","10","12","30","Europe/Kiev","9:30 AM GMT on July 10, 2016","2016","07","10","09","30","UTC","20.0","68.0","14.0","57.2","68","18.0","11.2","-9999.0","-9999.0","310","NW","10.0","6.2","1014","29.95","-999","-999","-9999","-9999","-9999.00","-9999.00","Mostly Cloudy","mostlycloudy","0","0","0","0","0","0","METAR UKKK 100930Z 31005MPS 280V350 9999 BKN023 20/14 Q1014 R26/CLRD70 NOSIG"
"1:00 PM EEST on July 10, 2016","2016","07","10","13","00","Europe/Kiev","10:00 AM GMT on July 10, 2016","2016","07","10","10","00","UTC","20.0","68.0","14.0","57.2","68","18.0","11.2","-9999.0","-9999.0","300","WNW","10.0","6.2","1014","29.95","-999","-999","-9999","-9999","-9999.00","-9999.00","Mostly Cloudy","mostlycloudy","0","0","0","0","0","0","METAR UKKK 101000Z 30005MPS 240V010 9999 BKN030 20/14 Q1014 R26/CLRD70 NOSIG"
"1:30 PM EEST on July 10, 2016","2016","07","10","13","30","Europe/Kiev","10:30 AM GMT on July 10, 2016","2016","07","10","10","30","UTC","20.0","68.0","14.0","57.2","68","14.4","8.9","-9999.0","-9999.0","330","NNW","10.0","6.2","1014","29.95","-999","-999","-9999","-9999","-9999.00","-9999.00","Mostly Cloudy","mostlycloudy","0","0","0","0","0","0","METAR UKKK 101030Z 33004MPS 290V020 9999 BKN028 20/14 Q1014 R26/CLRD70 NOSIG"
"2:00 PM EEST on July 10, 2016","2016","07","10","14","00","Europe/Kiev","11:00 AM GMT on July 10, 2016","2016","07","10","11","00","UTC","21.0","69.8","14.0","57.2","64","18.0","11.2","-9999.0","-9999.0","320","NW","10.0","6.2","1014","29.95","-999","-999","-9999","-9999","-9999.00","-9999.00","Mostly Cloudy","mostlycloudy","0","0","0","0","0","0","METAR UKKK 101100Z 32005MPS 300V360 9999 BKN031 21/14 Q1014 R26/CLRD70 NOSIG"
"2:30 PM EEST on July 10, 2016","2016","07","10","14","30","Europe/Kiev","11:30 AM GMT on July 10, 2016","2016","07","10","11","30","UTC","21.0","69.8","13.0","55.4","60","18.0","11.2","-9999.0","-9999.0","300","WNW","10.0","6.2","1014","29.95","-999","-999","-9999","-9999","-9999.00","-9999.00","Mostly Cloudy","mostlycloudy","0","0","0","0","0","0","METAR UKKK 101130Z 30005MPS 9999 BKN030 21/13 Q1014 R26/CLRD70 NOSIG"
"3:00 PM EEST on July 10, 2016","2016","07","10","15","00","Europe/Kiev","12:00 PM GMT on July 10, 2016","2016","07","10","12","00","UTC","22","71","12","54","44","10.8","6.7","","","350","North","20","12","1013","29.92","-999","-999","-9999","-9999","","","Mostly Cloudy","mostlycloudy","0","0","0","0","0","0","AAXX 10121 33345 32598 63503 10215 20121 39937 40130 58001 86300 555 10033"
"3:00 PM EEST on July 10, 2016","2016","07","10","15","00","Europe/Kiev","12:00 PM GMT on July 10, 2016","2016","07","10","12","00","UTC","21.0","69.8","13.0","55.4","60","18.0","11.2","-9999.0","-9999.0","310","NW","10.0","6.2","1013","29.92","-999","-999","-9999","-9999","-9999.00","-9999.00","Mostly Cloudy","mostlycloudy","0","0","0","0","0","0","METAR UKKK 101200Z 31005MPS 9999 SCT040 BKN100 21/13 Q1013 R26/CLRD70 NOSIG"
"3:30 PM EEST on July 10, 2016","2016","07","10","15","30","Europe/Kiev","12:30 PM GMT on July 10, 2016","2016","07","10","12","30","UTC","22.0","71.6","13.0","55.4","57","14.4","8.9","-9999.0","-9999.0","340","NNW","10.0","6.2","1013","29.92","-999","-999","-9999","-9999","-9999.00","-9999.00","Mostly Cloudy","mostlycloudy","0","0","0","0","0","0","METAR UKKK 101230Z 34004MPS 260V020 9999 FEW030CB BKN100 22/13 Q1013 R26/CLRD70 NOSIG"
"4:00 PM EEST on July 10, 2016","2016","07","10","16","00","Europe/Kiev","1:00 PM GMT on July 10, 2016","2016","07","10","13","00","UTC","22.0","71.6","13.0","55.4","57","14.4","8.9","-9999.0","-9999.0","310","NW","10.0","6.2","1013","29.92","-999","-999","-9999","-9999","-9999.00","-9999.00","Mostly Cloudy","mostlycloudy","0","0","0","0","0","0","METAR UKKK 101300Z 31004MPS 9999 FEW030CB BKN046 22/13 Q1013 R26/CLRD70 NOSIG"
"4:30 PM EEST on July 10, 2016","2016","07","10","16","30","Europe/Kiev","1:30 PM GMT on July 10, 2016","2016","07","10","13","30","UTC","21.0","69.8","14.0","57.2","64","14.4","8.9","-9999.0","-9999.0","300","WNW","10.0","6.2","1013","29.92","-999","-999","-9999","-9999","-9999.00","-9999.00","Mostly Cloudy","mostlycloudy","0","0","0","0","0","0","METAR UKKK 101330Z 30004MPS 280V360 9999 FEW030CB BKN046 21/14 Q1013 R26/CLRD70 NOSIG"
"5:00 PM EEST on July 10, 2016","2016","07","10","17","00","Europe/Kiev","2:00 PM GMT on July 10, 2016","2016","07","10","14","00","UTC","22.0","71.6","14.0","57.2","60","18.0","11.2","-9999.0","-9999.0","310","NW","9.0","5.6","1013","29.92","-999","-999","-9999","-9999","-9999.00","-9999.00","Mostly Cloudy","mostlycloudy","0","0","0","0","0","0","METAR UKKK 101400Z 31005MPS 270V340 9000 SCT030 BKN100 22/14 Q1013 R26/CLRD70 NOSIG"
"5:30 PM EEST on July 10, 2016","2016","07","10","17","30","Europe/Kiev","2:30 PM GMT on July 10, 2016","2016","07","10","14","30","UTC","23.0","73.4","14.0","57.2","57","14.4","8.9","-9999.0","-9999.0","300","WNW","10.0","6.2","1013","29.92","-999","-999","-9999","-9999","-9999.00","-9999.00","Mostly Cloudy","mostlycloudy","0","0","0","0","0","0","METAR UKKK 101430Z 30004MPS 270V350 9999 SCT040 BKN100 23/14 Q1013 R26/CLRD70 NOSIG"
"6:00 PM EEST on July 10, 2016","2016","07","10","18","00","Europe/Kiev","3:00 PM GMT on July 10, 2016","2016","07","10","15","00","UTC","23","73","14","56","46","10.8","6.7","","","300","WNW","20","12","1013","29.91","-999","-999","-9999","-9999","","","Scattered Clouds","partlycloudy","0","0","0","0","0","0","AAXX 10151 33345 42598 43003 10228 20136 39936 40128 56001 82260 555 10029"
"6:00 PM EEST on July 10, 2016","2016","07","10","18","00","Europe/Kiev","3:00 PM GMT on July 10, 2016","2016","07","10","15","00","UTC","22.0","71.6","13.0","55.4","57","14.4","8.9","-9999.0","-9999.0","320","NW","10.0","6.2","1013","29.92","-999","-999","-9999","-9999","-9999.00","-9999.00","Mostly Cloudy","mostlycloudy","0","0","0","0","0","0","METAR UKKK 101500Z 32004MPS 290V350 9999 SCT040 BKN100 22/13 Q1013 R26/CLRD70 NOSIG"
"6:30 PM EEST on July 10, 2016","2016","07","10","18","30","Europe/Kiev","3:30 PM GMT on July 10, 2016","2016","07","10","15","30","UTC","22.0","71.6","12.0","53.6","53","18.0","11.2","-9999.0","-9999.0","320","NW","-9999.0","-9999.0","1013","29.92","-999","-999","-9999","-9999","-9999.00","-9999.00","Clear","clear","0","0","0","0","0","0","METAR UKKK 101530Z 32005MPS CAVOK 22/12 Q1013 R26/CLRD70 NOSIG"
"7:00 PM EEST on July 10, 2016","2016","07","10","19","00","Europe/Kiev","4:00 PM GMT on July 10, 2016","2016","07","10","16","00","UTC","21.0","69.8","14.0","57.2","64","18.0","11.2","-9999.0","-9999.0","300","WNW","10.0","6.2","1014","29.95","-999","-999","-9999","-9999","-9999.00","-9999.00","Mostly Cloudy","mostlycloudy","0","0","0","0","0","0","METAR UKKK 101600Z 30005MPS 9999 FEW030CB BKN100 21/14 Q1014 R26/CLRD70 NOSIG"
"7:30 PM EEST on July 10, 2016","2016","07","10","19","30","Europe/Kiev","4:30 PM GMT on July 10, 2016","2016","07","10","16","30","UTC","21.0","69.8","14.0","57.2","64","10.8","6.7","-9999.0","-9999.0","300","WNW","10.0","6.2","1014","29.95","-999","-999","-9999","-9999","-9999.00","-9999.00","Mostly Cloudy","mostlycloudy","0","0","0","0","0","0","METAR UKKK 101630Z 30003MPS 9999 SCT040 BKN100 21/14 Q1014 R26/CLRD70 NOSIG"
"8:00 PM EEST on July 10, 2016","2016","07","10","20","00","Europe/Kiev","5:00 PM GMT on July 10, 2016","2016","07","10","17","00","UTC","21.0","69.8","14.0","57.2","64","18.0","11.2","-9999.0","-9999.0","300","WNW","-9999.0","-9999.0","1014","29.95","-999","-999","-9999","-9999","-9999.00","-9999.00","Clear","clear","0","0","0","0","0","0","METAR UKKK 101700Z 30005MPS CAVOK 21/14 Q1014 R26/CLRD70 NOSIG"
"8:30 PM EEST on July 10, 2016","2016","07","10","20","30","Europe/Kiev","5:30 PM GMT on July 10, 2016","2016","07","10","17","30","UTC","20.0","68.0","15.0","59.0","73","14.4","8.9","-9999.0","-9999.0","280","West","-9999.0","-9999.0","1014","29.95","-999","-999","-9999","-9999","-9999.00","-9999.00","Clear","clear","0","0","0","0","0","0","METAR UKKK 101730Z 28004MPS CAVOK 20/15 Q1014 R26/CLRD70 NOSIG"
"9:00 PM EEST on July 10, 2016","2016","07","10","21","00","Europe/Kiev","6:00 PM GMT on July 10, 2016","2016","07","10","18","00","UTC","20","69","14","57","57","7.2","4.5","","","280","West","20","12","1014","29.94","-999","-999","-9999","-9999","","","Scattered Clouds","partlycloudy","0","0","0","0","0","0","AAXX 10181 33345 32698 62802 10204 20140 39943 40137 53007 82440 333 10229 555 10021"
"9:00 PM EEST on July 10, 2016","2016","07","10","21","00","Europe/Kiev","6:00 PM GMT on July 10, 2016","2016","07","10","18","00","UTC","19.0","66.2","15.0","59.0","78","7.2","4.5","-9999.0","-9999.0","270","West","-9999.0","-9999.0","1014","29.95","-999","-999","-9999","-9999","-9999.00","-9999.00","Clear","clear","0","0","0","0","0","0","METAR UKKK 101800Z 27002MPS CAVOK 19/15 Q1014 R26/CLRD70 NOSIG"
"9:30 PM EEST on July 10, 2016","2016","07","10","21","30","Europe/Kiev","6:30 PM GMT on July 10, 2016","2016","07","10","18","30","UTC","18.0","64.4","15.0","59.0","83","10.8","6.7","-9999.0","-9999.0","260","West","-9999.0","-9999.0","1014","29.95","-999","-999","-9999","-9999","-9999.00","-9999.00","Clear","clear","0","0","0","0","0","0","METAR UKKK 101830Z 26003MPS CAVOK 18/15 Q1014 R26/CLRD70 NOSIG"
"10:00 PM EEST on July 10, 2016","2016","07","10","22","00","Europe/Kiev","7:00 PM GMT on July 10, 2016","2016","07","10","19","00","UTC","19.0","66.2","15.0","59.0","78","10.8","6.7","-9999.0","-9999.0","260","West","-9999.0","-9999.0","1014","29.95","-999","-999","-9999","-9999","-9999.00","-9999.00","Clear","clear","0","0","0","0","0","0","METAR UKKK 101900Z 26003MPS CAVOK 19/15 Q1014 R26/CLRD70 NOSIG"
"10:30 PM EEST on July 10, 2016","2016","07","10","22","30","Europe/Kiev","7:30 PM GMT on July 10, 2016","2016","07","10","19","30","UTC","19.0","66.2","15.0","59.0","78","10.8","6.7","-9999.0","-9999.0","270","West","-9999.0","-9999.0","1014","29.95","-999","-999","-9999","-9999","-9999.00","-9999.00","Clear","clear","0","0","0","0","0","0","METAR UKKK 101930Z 27003MPS CAVOK 19/15 Q1014 R26/CLRD70 NOSIG"
"11:00 PM EEST on July 10, 2016","2016","07","10","23","00","Europe/Kiev","8:00 PM GMT on July 10, 2016","2016","07","10","20","00","UTC","18.0","64.4","15.0","59.0","83","10.8","6.7","-9999.0","-9999.0","270","West","-9999.0","-9999.0","1014","29.95","-999","-999","-9999","-9999","-9999.00","-9999.00","Clear","clear","0","0","0","0","0","0","METAR UKKK 102000Z 27003MPS CAVOK 18/15 Q1014 R26/CLRD70 NOSIG"
"11:30 PM EEST on July 10, 2016","2016","07","10","23","30","Europe/Kiev","8:30 PM GMT on July 10, 2016","2016","07","10","20","30","UTC","18.0","64.4","15.0","59.0","83","10.8","6.7","-9999.0","-9999.0","270","West","-9999.0","-9999.0","1014","29.95","-999","-999","-9999","-9999","-9999.00","-9999.00","Clear","clear","0","0","0","0","0","0","METAR UKKK 102030Z 27003MPS CAVOK 18/15 Q1014 R26/CLRD70 NOSIG"
"12:00 AM EEST on July 11, 2016","2016","07","11","00","00","Europe/Kiev","9:00 PM GMT on July 10, 2016","2016","07","10","21","00","UTC","18","65","14","58","71","7.2","4.5","","","300","WNW","20","12","1015","29.96","-999","-999","-9999","-9999","","","Clear","clear","0","0","0","0","0","0","AAXX 10211 33345 42998 53002 10184 20144 39950 40146 52007 80005 555 10017"
"12:00 AM EEST on July 11, 2016","2016","07","11","00","00","Europe/Kiev","9:00 PM GMT on July 10, 2016","2016","07","10","21","00","UTC","17.0","62.6","14.0","57.2","82","10.8","6.7","-9999.0","-9999.0","290","WNW","-9999.0","-9999.0","1015","29.98","-999","-999","-9999","-9999","-9999.00","-9999.00","Clear","clear","0","0","0","0","0","0","METAR UKKK 102100Z 29003MPS CAVOK 17/14 Q1015 R26/CLRD70 NOSIG"
"12:30 AM EEST on July 11, 2016","2016","07","11","00","30","Europe/Kiev","9:30 PM GMT on July 10, 2016","2016","07","10","21","30","UTC","17.0","62.6","14.0","57.2","82","14.4","8.9","-9999.0","-9999.0","290","WNW","-9999.0","-9999.0","1015","29.98","-999","-999","-9999","-9999","-9999.00","-9999.00","Clear","clear","0","0","0","0","0","0","METAR UKKK 102130Z 29004MPS CAVOK 17/14 Q1015 R26/CLRD70 NOSIG"
"1:00 AM EEST on July 11, 2016","2016","07","11","01","00","Europe/Kiev","10:00 PM GMT on July 10, 2016","2016","07","10","22","00","UTC","17.0","62.6","13.0","55.4","77","14.4","8.9","-9999.0","-9999.0","290","WNW","-9999.0","-9999.0","1015","29.98","-999","-999","-9999","-9999","-9999.00","-9999.00","Clear","clear","0","0","0","0","0","0","METAR UKKK 102200Z 29004MPS CAVOK 17/13 Q1015 R26/CLRD70 NOSIG"
"1:30 AM EEST on July 11, 2016","2016","07","11","01","30","Europe/Kiev","10:30 PM GMT on July 10, 2016","2016","07","10","22","30","UTC","16.0","60.8","13.0","55.4","82","10.8","6.7","-9999.0","-9999.0","290","WNW","-9999.0","-9999.0","1015","29.98","-999","-999","-9999","-9999","-9999.00","-9999.00","Clear","clear","0","0","0","0","0","0","METAR UKKK 102230Z 29003MPS CAVOK 16/13 Q1015 R26/CLRD70 NOSIG"
"2:00 AM EEST on July 11, 2016","2016","07","11","02","00","Europe/Kiev","11:00 PM GMT on July 10, 2016","2016","07","10","23","00","UTC","16.0","60.8","13.0","55.4","82","10.8","6.7","-9999.0","-9999.0","290","WNW","-9999.0","-9999.0","1015","29.98","-999","-999","-9999","-9999","-9999.00","-9999.00","Clear","clear","0","0","0","0","0","0","METAR UKKK 102300Z 29003MPS CAVOK 16/13 Q1015 R26/CLRD70 NOSIG"
"2:30 AM EEST on July 11, 2016","2016","07","11","02","30","Europe/Kiev","11:30 PM GMT on July 10, 2016","2016","07","10","23","30","UTC","16.0","60.8","13.0","55.4","82","10.8","6.7","-9999.0","-9999.0","280","West","-9999.0","-9999.0","1015","29.98","-999","-999","-9999","-9999","-9999.00","-9999.00","Clear","clear","0","0","0","0","0","0","METAR UKKK 102330Z 28003MPS CAVOK 16/13 Q1015 R26/CLRD70 NOSIG"
"3:00 AM EEST on July 11, 2016","2016","07","11","03","00","Europe/Kiev","12:00 AM GMT on July 11, 2016","2016","07","11","00","00","UTC","17","62","12","54","68","7.2","4.5","","","290","WNW","20","12","1016","29.99","-999","-999","-9999","-9999","","","Scattered Clouds","partlycloudy","0","0","0","0","0","0","AAXX 11001 33345 32998 22902 10168 20123 39959 40156 52009 82030 555 10015"
"3:00 AM EEST on July 11, 2016","2016","07","11","03","00","Europe/Kiev","12:00 AM GMT on July 11, 2016","2016","07","11","00","00","UTC","15.0","59.0","13.0","55.4","88","7.2","4.5","-9999.0","-9999.0","270","West","-9999.0","-9999.0","1016","30.01","-999","-999","-9999","-9999","-9999.00","-9999.00","Clear","clear","0","0","0","0","0","0","METAR UKKK 110000Z 27002MPS CAVOK 15/13 Q1016 R26/CLRD70 NOSIG"
"3:30 AM EEST on July 11, 2016","2016","07","11","03","30","Europe/Kiev","12:30 AM GMT on July 11, 2016","2016","07","11","00","30","UTC","15.0","59.0","12.0","53.6","82","7.2","4.5","-9999.0","-9999.0","270","West","-9999.0","-9999.0","1016","30.01","-999","-999","-9999","-9999","-9999.00","-9999.00","Clear","clear","0","0","0","0","0","0","METAR UKKK 110030Z 27002MPS CAVOK 15/12 Q1016 R26/CLRD70 NOSIG"
"4:00 AM EEST on July 11, 2016","2016","07","11","04","00","Europe/Kiev","1:00 AM GMT on July 11, 2016","2016","07","11","01","00","UTC","15.0","59.0","12.0","53.6","82","10.8","6.7","-9999.0","-9999.0","250","WSW","-9999.0","-9999.0","1016","30.01","-999","-999","-9999","-9999","-9999.00","-9999.00","Clear","clear","0","0","0","0","0","0","METAR UKKK 110100Z 25003MPS CAVOK 15/12 Q1016 R26/CLRD70 NOSIG"
"4:30 AM EEST on July 11, 2016","2016","07","11","04","30","Europe/Kiev","1:30 AM GMT on July 11, 2016","2016","07","11","01","30","UTC","14.0","57.2","12.0","53.6","88","7.2","4.5","-9999.0","-9999.0","250","WSW","-9999.0","-9999.0","1015","29.98","-999","-999","-9999","-9999","-9999.00","-9999.00","Clear","clear","0","0","0","0","0","0","METAR UKKK 110130Z 25002MPS CAVOK 14/12 Q1015 R26/CLRD70 NOSIG"
"5:00 AM EEST on July 11, 2016","2016","07","11","05","00","Europe/Kiev","2:00 AM GMT on July 11, 2016","2016","07","11","02","00","UTC","14.0","57.2","12.0","53.6","88","10.8","6.7","-9999.0","-9999.0","250","WSW","-9999.0","-9999.0","1016","30.01","-999","-999","-9999","-9999","-9999.00","-9999.00","Clear","clear","0","0","0","0","0","0","METAR UKKK 110200Z 25003MPS CAVOK 14/12 Q1016 R26/CLRD70 NOSIG"
"5:30 AM EEST on July 11, 2016","2016","07","11","05","30","Europe/Kiev","2:30 AM GMT on July 11, 2016","2016","07","11","02","30","UTC","14.0","57.2","12.0","53.6","88","10.8","6.7","-9999.0","-9999.0","260","West","-9999.0","-9999.0","1016","30.01","-999","-999","-9999","-9999","-9999.00","-9999.00","Clear","clear","0","0","0","0","0","0","METAR UKKK 110230Z 26003MPS CAVOK 14/12 Q1016 R26/CLRD70 NOSIG"
"6:00 AM EEST on July 11, 2016","2016","07","11","06","00","Europe/Kiev","3:00 AM GMT on July 11, 2016","2016","07","11","03","00","UTC","16","60","12","54","74","10.8","6.7","","","290","WNW","10","6","1016","30.01","-999","-999","-9999","-9999","","","","","0","0","0","0","0","0","AAXX 11031 33345 42997 02903 10157 20122 39963 40161 52004 555 10014"
"6:00 AM EEST on July 11, 2016","2016","07","11","06","00","Europe/Kiev","3:00 AM GMT on July 11, 2016","2016","07","11","03","00","UTC","15.0","59.0","13.0","55.4","88","10.8","6.7","-9999.0","-9999.0","260","West","-9999.0","-9999.0","1016","30.01","-999","-999","-9999","-9999","-9999.00","-9999.00","Clear","clear","0","0","0","0","0","0","METAR UKKK 110300Z 26003MPS CAVOK 15/13 Q1016 R26/CLRD70 NOSIG"
"6:30 AM EEST on July 11, 2016","2016","07","11","06","30","Europe/Kiev","3:30 AM GMT on July 11, 2016","2016","07","11","03","30","UTC","16.0","60.8","13.0","55.4","82","10.8","6.7","-9999.0","-9999.0","260","West","-9999.0","-9999.0","1016","30.01","-999","-999","-9999","-9999","-9999.00","-9999.00","Clear","clear","0","0","0","0","0","0","METAR UKKK 110330Z 26003MPS CAVOK 16/13 Q1016 R26/CLRD70 NOSIG"
"7:00 AM EEST on July 11, 2016","2016","07","11","07","00","Europe/Kiev","4:00 AM GMT on July 11, 2016","2016","07","11","04","00","UTC","17.0","62.6","13.0","55.4","77","10.8","6.7","-9999.0","-9999.0","270","West","-9999.0","-9999.0","1016","30.01","-999","-999","-9999","-9999","-9999.00","-9999.00","Clear","clear","0","0","0","0","0","0","METAR UKKK 110400Z 27003MPS CAVOK 17/13 Q1016 R26/CLRD70 NOSIG"
"7:30 AM EEST on July 11, 2016","2016","07","11","07","30","Europe/Kiev","4:30 AM GMT on July 11, 2016","2016","07","11","04","30","UTC","17.0","62.6","13.0","55.4","77","7.2","4.5","-9999.0","-9999.0","270","West","-9999.0","-9999.0","1016","30.01","-999","-999","-9999","-9999","-9999.00","-9999.00","Clear","clear","0","0","0","0","0","0","METAR UKKK 110430Z 27002MPS CAVOK 17/13 Q1016 R26/CLRD70 NOSIG"
"8:00 AM EEST on July 11, 2016","2016","07","11","08","00","Europe/Kiev","5:00 AM GMT on July 11, 2016","2016","07","11","05","00","UTC","18.0","64.4","14.0","57.2","77","7.2","4.5","-9999.0","-9999.0","260","West","-9999.0","-9999.0","1017","30.04","-999","-999","-9999","-9999","-9999.00","-9999.00","Clear","clear","0","0","0","0","0","0","METAR UKKK 110500Z 26002MPS 230V290 CAVOK 18/14 Q1017 R26/CLRD70 NOSIG"
"8:30 AM EEST on July 11, 2016","2016","07","11","08","30","Europe/Kiev","5:30 AM GMT on July 11, 2016","2016","07","11","05","30","UTC","19.0","66.2","14.0","57.2","73","7.2","4.5","-9999.0","-9999.0","270","West","-9999.0","-9999.0","1017","30.04","-999","-999","-9999","-9999","-9999.00","-9999.00","Clear","clear","0","0","0","0","0","0","METAR UKKK 110530Z 27002MPS 240V300 CAVOK 19/14 Q1017 R26/CLRD70 NOSIG"
"9:00 AM EEST on July 11, 2016","2016","07","11","09","00","Europe/Kiev","6:00 AM GMT on July 11, 2016","2016","07","11","06","00","UTC","21","69","13","56","54","7.2","4.5","","","270","West","20","12","1016","30.01","-999","-999","-9999","-9999","","","","","0","0","0","0","0","0","AAXX 11061 33345 32998 02702 10208 20133 39969 40163 51006 333 20156 555 10027"
"9:00 AM EEST on July 11, 2016","2016","07","11","09","00","Europe/Kiev","6:00 AM GMT on July 11, 2016","2016","07","11","06","00","UTC","20.0","68.0","14.0","57.2","68","10.8","6.7","-9999.0","-9999.0","270","West","-9999.0","-9999.0","1017","30.04","-999","-999","-9999","-9999","-9999.00","-9999.00","Clear","clear","0","0","0","0","0","0","METAR UKKK 110600Z 27003MPS 240V300 CAVOK 20/14 Q1017 R26/CLRD70 NOSIG"
"9:30 AM EEST on July 11, 2016","2016","07","11","09","30","Europe/Kiev","6:30 AM GMT on July 11, 2016","2016","07","11","06","30","UTC","21.0","69.8","14.0","57.2","64","10.8","6.7","-9999.0","-9999.0","270","West","-9999.0","-9999.0","1017","30.04","-999","-999","-9999","-9999","-9999.00","-9999.00","Clear","clear","0","0","0","0","0","0","METAR UKKK 110630Z 27003MPS 240V310 CAVOK 21/14 Q1017 R26/CLRD70 NOSIG"
"10:00 AM EEST on July 11, 2016","2016","07","11","10","00","Europe/Kiev","7:00 AM GMT on July 11, 2016","2016","07","11","07","00","UTC","22.0","71.6","13.0","55.4","57","10.8","6.7","-9999.0","-9999.0","270","West","-9999.0","-9999.0","1016","30.01","-999","-999","-9999","-9999","-9999.00","-9999.00","Clear","clear","0","0","0","0","0","0","METAR UKKK 110700Z 27003MPS 230V290 CAVOK 22/13 Q1016 R26/CLRD70 NOSIG"
"10:30 AM EEST on July 11, 2016","2016","07","11","10","30","Europe/Kiev","7:30 AM GMT on July 11, 2016","2016","07","11","07","30","UTC","23.0","73.4","12.0","53.6","50","14.4","8.9","-9999.0","-9999.0","280","West","-9999.0","-9999.0","1017","30.04","-999","-999","-9999","-9999","-9999.00","-9999.00","Clear","clear","0","0","0","0","0","0","METAR UKKK 110730Z 28004MPS 240V310 CAVOK 23/12 Q1017 R26/CLRD70 NOSIG"
"11:00 AM EEST on July 11, 2016","2016","07","11","11","00","Europe/Kiev","8:00 AM GMT on July 11, 2016","2016","07","11","08","00","UTC","23.0","73.4","13.0","55.4","53","14.4","8.9","-9999.0","-9999.0","300","WNW","-9999.0","-9999.0","1017","30.04","-999","-999","-9999","-9999","-9999.00","-9999.00","Clear","clear","0","0","0","0","0","0","METAR UKKK 110800Z 30004MPS 260V360 CAVOK 23/13 Q1017 R26/CLRD70 NOSIG"
"11:30 AM EEST on July 11, 2016","2016","07","11","11","30","Europe/Kiev","8:30 AM GMT on July 11, 2016","2016","07","11","08","30","UTC","24.0","75.2","12.0","53.6","47","14.4","8.9","-9999.0","-9999.0","280","West","-9999.0","-9999.0","1017","30.04","-999","-999","-9999","-9999","-9999.00","-9999.00","Clear","clear","0","0","0","0","0","0","METAR UKKK 110830Z 28004MPS 250V320 CAVOK 24/12 Q1017 R26/CLRD70 NOSIG"
"12:00 PM EEST on July 11, 2016","2016","07","11","12","00","Europe/Kiev","9:00 AM GMT on July 11, 2016","2016","07","11","09","00","UTC","24","76","12","54","35","10.8","6.7","","","270","West","20","12","1016","30.01","-999","-999","-9999","-9999","","","Scattered Clouds","partlycloudy","0","0","0","0","0","0","AAXX 11091 33345 42698 22703 10243 20121 39971 40163 52002 82100 555 10042"
"12:00 PM EEST on July 11, 2016","2016","07","11","12","00","Europe/Kiev","9:00 AM GMT on July 11, 2016","2016","07","11","09","00","UTC","24.0","75.2","13.0","55.4","50","14.4","8.9","-9999.0","-9999.0","270","West","-9999.0","-9999.0","1017","30.04","-999","-999","-9999","-9999","-9999.00","-9999.00","Clear","clear","0","0","0","0","0","0","METAR UKKK 110900Z 27004MPS 210V320 CAVOK 24/13 Q1017 R26/CLRD70 NOSIG"
"12:30 PM EEST on July 11, 2016","2016","07","11","12","30","Europe/Kiev","9:30 AM GMT on July 11, 2016","2016","07","11","09","30","UTC","24.0","75.2","12.0","53.6","47","10.8","6.7","-9999.0","-9999.0","260","West","-9999.0","-9999.0","1017","30.04","-999","-999","-9999","-9999","-9999.00","-9999.00","Clear","clear","0","0","0","0","0","0","METAR UKKK 110930Z 26003MPS 150V300 CAVOK 24/12 Q1017 R26/CLRD70 NOSIG"
"1:00 PM EEST on July 11, 2016","2016","07","11","13","00","Europe/Kiev","10:00 AM GMT on July 11, 2016","2016","07","11","10","00","UTC","24.0","75.2","13.0","55.4","50","14.4","8.9","-9999.0","-9999.0","280","West","-9999.0","-9999.0","1016","30.01","-999","-999","-9999","-9999","-9999.00","-9999.00","Clear","clear","0","0","0","0","0","0","METAR UKKK 111000Z 28004MPS 240V330 CAVOK 24/13 Q1016 R26/CLRD70 NOSIG"
"1:30 PM EEST on July 11, 2016","2016","07","11","13","30","Europe/Kiev","10:30 AM GMT on July 11, 2016","2016","07","11","10","30","UTC","25.0","77.0","14.0","57.2","50","14.4","8.9","-9999.0","-9999.0","260","West","-9999.0","-9999.0","1016","30.01","-999","-999","-9999","-9999","-9999.00","-9999.00","Clear","clear","0","0","0","0","0","0","METAR UKKK 111030Z 26004MPS 220V310 CAVOK 25/14 Q1016 R26/CLRD70 NOSIG"
"2:00 PM EEST on July 11, 2016","2016","07","11","14","00","Europe/Kiev","11:00 AM GMT on July 11, 2016","2016","07","11","11","00","UTC","26.0","78.8","14.0","57.2","47","10.8","6.7","-9999.0","-9999.0","290","WNW","-9999.0","-9999.0","1016","30.01","-999","-999","-9999","-9999","-9999.00","-9999.00","Clear","clear","0","0","0","0","0","0","METAR UKKK 111100Z 29003MPS 240V340 CAVOK 26/14 Q1016 R26/CLRD70 NOSIG"
"2:30 PM EEST on July 11, 2016","2016","07","11","14","30","Europe/Kiev","11:30 AM GMT on July 11, 2016","2016","07","11","11","30","UTC","26.0","78.8","14.0","57.2","47","10.8","6.7","-9999.0","-9999.0","250","WSW","-9999.0","-9999.0","1016","30.01","-999","-999","-9999","-9999","-9999.00","-9999.00","Clear","clear","0","0","0","0","0","0","METAR UKKK 111130Z 25003MPS 210V330 CAVOK 26/14 Q1016 R26/CLRD70 NOSIG"
"3:00 PM EEST on July 11, 2016","2016","07","11","15","00","Europe/Kiev","12:00 PM GMT on July 11, 2016","2016","07","11","12","00","UTC","26","79","13","56","34","10.8","6.7","","","240","WSW","20","12","1016","29.99","-999","-999","-9999","-9999","","","Partly Cloudy","partlycloudy","0","0","0","0","0","0","AAXX 11121 33345 32598 32403 10261 20132 39964 40155 58007 83200 555 10043"
"3:00 PM EEST on July 11, 2016","2016","07","11","15","00","Europe/Kiev","12:00 PM GMT on July 11, 2016","2016","07","11","12","00","UTC","26.0","78.8","14.0","57.2","47","10.8","6.7","-9999.0","-9999.0","260","West","-9999.0","-9999.0","1016","30.01","-999","-999","-9999","-9999","-9999.00","-9999.00","Clear","clear","0","0","0","0","0","0","METAR UKKK 111200Z 26003MPS 220V300 CAVOK 26/14 Q1016 R26/CLRD70 NOSIG"
"3:30 PM EEST on July 11, 2016","2016","07","11","15","30","Europe/Kiev","12:30 PM GMT on July 11, 2016","2016","07","11","12","30","UTC","26.0","78.8","13.0","55.4","44","14.4","8.9","-9999.0","-9999.0","260","West","-9999.0","-9999.0","1016","30.01","-999","-999","-9999","-9999","-9999.00","-9999.00","Clear","clear","0","0","0","0","0","0","METAR UKKK 111230Z 26004MPS 220V290 CAVOK 26/13 Q1016 R26/CLRD70 NOSIG"
"4:00 PM EEST on July 11, 2016","2016","07","11","16","00","Europe/Kiev","1:00 PM GMT on July 11, 2016","2016","07","11","13","00","UTC","26.0","78.8","14.0","57.2","47","10.8","6.7","-9999.0","-9999.0","250","WSW","-9999.0","-9999.0","1016","30.01","-999","-999","-9999","-9999","-9999.00","-9999.00","Clear","clear","0","0","0","0","0","0","METAR UKKK 111300Z 25003MPS 190V280 CAVOK 26/14 Q1016 R26/CLRD70 NOSIG"
"4:30 PM EEST on July 11, 2016","2016","07","11","16","30","Europe/Kiev","1:30 PM GMT on July 11, 2016","2016","07","11","13","30","UTC","26.0","78.8","14.0","57.2","47","10.8","6.7","-9999.0","-9999.0","270","West","-9999.0","-9999.0","1016","30.01","-999","-999","-9999","-9999","-9999.00","-9999.00","Clear","clear","0","0","0","0","0","0","METAR UKKK 111330Z 27003MPS 230V300 CAVOK 26/14 Q1016 R26/CLRD70 NOSIG"
"5:00 PM EEST on July 11, 2016","2016","07","11","17","00","Europe/Kiev","2:00 PM GMT on July 11, 2016","2016","07","11","14","00","UTC","26.0","78.8","14.0","57.2","47","14.4","8.9","-9999.0","-9999.0","250","WSW","-9999.0","-9999.0","1016","30.01","-999","-999","-9999","-9999","-9999.00","-9999.00","Clear","clear","0","0","0","0","0","0","METAR UKKK 111400Z 25004MPS 220V280 CAVOK 26/14 Q1016 R26/CLRD70 NOSIG"
"5:30 PM EEST on July 11, 2016","2016","07","11","17","30","Europe/Kiev","2:30 PM GMT on July 11, 2016","2016","07","11","14","30","UTC","26.0","78.8","13.0","55.4","44","14.4","8.9","-9999.0","-9999.0","250","WSW","-9999.0","-9999.0","1016","30.01","-999","-999","-9999","-9999","-9999.00","-9999.00","Clear","clear","0","0","0","0","0","0","METAR UKKK 111430Z 25004MPS 210V270 CAVOK 26/13 Q1016 R26/CLRD70 NOSIG"
"6:00 PM EEST on July 11, 2016","2016","07","11","18","00","Europe/Kiev","3:00 PM GMT on July 11, 2016","2016","07","11","15","00","UTC","26","80","13","55","32","7.2","4.5","","","220","SW","20","12","1015","29.98","-999","-999","-9999","-9999","","","Scattered Clouds","partlycloudy","0","0","0","0","0","0","AAXX 11151 33345 42698 62202 10265 20129 39959 40150 57005 82101 555 10036"
"6:00 PM EEST on July 11, 2016","2016","07","11","18","00","Europe/Kiev","3:00 PM GMT on July 11, 2016","2016","07","11","15","00","UTC","27.0","80.6","14.0","57.2","45","14.4","8.9","-9999.0","-9999.0","260","West","-9999.0","-9999.0","1015","29.98","-999","-999","27.1","80.8","-9999.00","-9999.00","Clear","clear","0","0","0","0","0","0","METAR UKKK 111500Z 26004MPS 230V290 CAVOK 27/14 Q1015 R26/CLRD70 NOSIG"
"6:30 PM EEST on July 11, 2016","2016","07","11","18","30","Europe/Kiev","3:30 PM GMT on July 11, 2016","2016","07","11","15","30","UTC","27.0","80.6","14.0","57.2","45","14.4","8.9","-9999.0","-9999.0","250","WSW","-9999.0","-9999.0","1015","29.98","-999","-999","27.1","80.8","-9999.00","-9999.00","Clear","clear","0","0","0","0","0","0","METAR UKKK 111530Z 25004MPS 210V290 CAVOK 27/14 Q1015 R26/CLRD70 NOSIG"
"7:00 PM EEST on July 11, 2016","2016","07","11","19","00","Europe/Kiev","4:00 PM GMT on July 11, 2016","2016","07","11","16","00","UTC","26.0","78.8","13.0","55.4","44","10.8","6.7","-9999.0","-9999.0","260","West","-9999.0","-9999.0","1015","29.98","-999","-999","-9999","-9999","-9999.00","-9999.00","Clear","clear","0","0","0","0","0","0","METAR UKKK 111600Z 26003MPS 230V290 CAVOK 26/13 Q1015 R26/CLRD70 NOSIG"
"7:30 PM EEST on July 11, 2016","2016","07","11","19","30","Europe/Kiev","4:30 PM GMT on July 11, 2016","2016","07","11","16","30","UTC","26.0","78.8","14.0","57.2","47","10.8","6.7","-9999.0","-9999.0","240","WSW","9.0","5.6","1015","29.98","-999","-999","-9999","-9999","-9999.00","-9999.00","Unknown","unknown","0","0","0","0","0","0","METAR UKKK 111630Z 24003MPS 9000 NSC 26/14 Q1015 R26/CLRD70 NOSIG"
"8:00 PM EEST on July 11, 2016","2016","07","11","20","00","Europe/Kiev","5:00 PM GMT on July 11, 2016","2016","07","11","17","00","UTC","26.0","78.8","14.0","57.2","47","10.8","6.7","-9999.0","-9999.0","250","WSW","-9999.0","-9999.0","1015","29.98","-999","-999","-9999","-9999","-9999.00","-9999.00","Clear","clear","0","0","0","0","0","0","METAR UKKK 111700Z 25003MPS CAVOK 26/14 Q1015 R26/CLRD70 NOSIG"
"8:30 PM EEST on July 11, 2016","2016","07","11","20","30","Europe/Kiev","5:30 PM GMT on July 11, 2016","2016","07","11","17","30","UTC","25.0","77.0","15.0","59.0","54","10.8","6.7","-9999.0","-9999.0","210","SSW","-9999.0","-9999.0","1015","29.98","-999","-999","-9999","-9999","-9999.00","-9999.00","Clear","clear","0","0","0","0","0","0","METAR UKKK 111730Z 21003MPS 180V240 CAVOK 25/15 Q1015 R26/CLRD70 NOSIG"
"9:00 PM EEST on July 11, 2016","2016","07","11","21","00","Europe/Kiev","6:00 PM GMT on July 11, 2016","2016","07","11","18","00","UTC","24","75","15","58","46","7.2","4.5","","","200","SSW","20","12","1014","29.96","-999","-999","-9999","-9999","","","Scattered Clouds","partlycloudy","0","0","0","0","0","0","AAXX 11181 33345 32998 22002 10237 20147 39952 40144 57007 81031 333 10271 555 10025"
"9:00 PM EEST on July 11, 2016","2016","07","11","21","00","Europe/Kiev","6:00 PM GMT on July 11, 2016","2016","07","11","18","00","UTC","24.0","75.2","15.0","59.0","57","7.2","4.5","-9999.0","-9999.0","210","SSW","-9999.0","-9999.0","1015","29.98","-999","-999","-9999","-9999","-9999.00","-9999.00","Clear","clear","0","0","0","0","0","0","METAR UKKK 111800Z 21002MPS 180V240 CAVOK 24/15 Q1015 R26/CLRD70 NOSIG"
"9:30 PM EEST on July 11, 2016","2016","07","11","21","30","Europe/Kiev","6:30 PM GMT on July 11, 2016","2016","07","11","18","30","UTC","22.0","71.6","15.0","59.0","64","7.2","4.5","-9999.0","-9999.0","220","SW","9.0","5.6","1015","29.98","-999","-999","-9999","-9999","-9999.00","-9999.00","Unknown","unknown","0","0","0","0","0","0","METAR UKKK 111830Z 22002MPS 9000 NSC 22/15 Q1015 R26/CLRD70 NOSIG"
"10:00 PM EEST on July 11, 2016","2016","07","11","22","00","Europe/Kiev","7:00 PM GMT on July 11, 2016","2016","07","11","19","00","UTC","22.0","71.6","15.0","59.0","64","7.2","4.5","-9999.0","-9999.0","210","SSW","-9999.0","-9999.0","1015","29.98","-999","-999","-9999","-9999","-9999.00","-9999.00","Clear","clear","0","0","0","0","0","0","METAR UKKK 111900Z 21002MPS CAVOK 22/15 Q1015 R26/CLRD70 NOSIG"
"10:30 PM EEST on July 11, 2016","2016","07","11","22","30","Europe/Kiev","7:30 PM GMT on July 11, 2016","2016","07","11","19","30","UTC","21.0","69.8","15.0","59.0","68","10.8","6.7","-9999.0","-9999.0","220","SW","9.0","5.6","1015","29.98","-999","-999","-9999","-9999","-9999.00","-9999.00","Unknown","unknown","0","0","0","0","0","0","METAR UKKK 111930Z 22003MPS 9000 NSC 21/15 Q1015 R26/CLRD70 NOSIG"
"11:00 PM EEST on July 11, 2016","2016","07","11","23","00","Europe/Kiev","8:00 PM GMT on July 11, 2016","2016","07","11","20","00","UTC","21.0","69.8","15.0","59.0","68","10.8","6.7","-9999.0","-9999.0","210","SSW","-9999.0","-9999.0","1015","29.98","-999","-999","-9999","-9999","-9999.00","-9999.00","Clear","clear","0","0","0","0","0","0","METAR UKKK 112000Z 21003MPS CAVOK 21/15 Q1015 R26/CLRD70 NOSIG"
"11:30 PM EEST on July 11, 2016","2016","07","11","23","30","Europe/Kiev","8:30 PM GMT on July 11, 2016","2016","07","11","20","30","UTC","21.0","69.8","15.0","59.0","68","10.8","6.7","-9999.0","-9999.0","210","SSW","9.0","5.6","1015","29.98","-999","-999","-9999","-9999","-9999.00","-9999.00","Unknown","unknown","0","0","0","0","0","0","METAR UKKK 112030Z 21003MPS 9000 NSC 21/15 Q1015 R26/CLRD70 NOSIG"
"12:00 AM EEST on July 12, 2016","2016","07","12","00","00","Europe/Kiev","9:00 PM GMT on July 11, 2016","2016","07","11","21","00","UTC","21","70","15","58","58","7.2","4.5","","","210","SSW","20","12","1015","29.98","-999","-999","-9999","-9999","","","","","0","0","0","0","0","0","AAXX 11211 33345 42998 02102 10210 20147 39958 40152 53006 555 10020"
"12:00 AM EEST on July 12, 2016","2016","07","12","00","00","Europe/Kiev","9:00 PM GMT on July 11, 2016","2016","07","11","21","00","UTC","21.0","69.8","14.0","57.2","64","10.8","6.7","-9999.0","-9999.0","220","SW","-9999.0","-9999.0","1015","29.98","-999","-999","-9999","-9999","-9999.00","-9999.00","Clear","clear","0","0","0","0","0","0","METAR UKKK 112100Z 22003MPS CAVOK 21/14 Q1015 R26/CLRD70 NOSIG"
"12:30 AM EEST on July 12, 2016","2016","07","12","00","30","Europe/Kiev","9:30 PM GMT on July 11, 2016","2016","07","11","21","30","UTC","20.0","68.0","14.0","57.2","68","10.8","6.7","-9999.0","-9999.0","220","SW","-9999.0","-9999.0","1015","29.98","-999","-999","-9999","-9999","-9999.00","-9999.00","Clear","clear","0","0","0","0","0","0","METAR UKKK 112130Z 22003MPS CAVOK 20/14 Q1015 R26/CLRD70 NOSIG"
"1:00 AM EEST on July 12, 2016","2016","07","12","01","00","Europe/Kiev","10:00 PM GMT on July 11, 2016","2016","07","11","22","00","UTC","20.0","68.0","14.0","57.2","68","7.2","4.5","-9999.0","-9999.0","200","SSW","-9999.0","-9999.0","1015","29.98","-999","-999","-9999","-9999","-9999.00","-9999.00","Clear","clear","0","0","0","0","0","0","METAR UKKK 112200Z 20002MPS 150V240 CAVOK 20/14 Q1015 R08/CLRD70 NOSIG"
"1:30 AM EEST on July 12, 2016","2016","07","12","01","30","Europe/Kiev","10:30 PM GMT on July 11, 2016","2016","07","11","22","30","UTC","20.0","68.0","14.0","57.2","68","10.8","6.7","-9999.0","-9999.0","230","SW","-9999.0","-9999.0","1015","29.98","-999","-999","-9999","-9999","-9999.00","-9999.00","Clear","clear","0","0","0","0","0","0","METAR UKKK 112230Z 23003MPS CAVOK 20/14 Q1015 R26/CLRD70 NOSIG"
"2:00 AM EEST on July 12, 2016","2016","07","12","02","00","Europe/Kiev","11:00 PM GMT on July 11, 2016","2016","07","11","23","00","UTC","19.0","66.2","14.0","57.2","73","10.8","6.7","-9999.0","-9999.0","230","SW","-9999.0","-9999.0","1015","29.98","-999","-999","-9999","-9999","-9999.00","-9999.00","Clear","clear","0","0","0","0","0","0","METAR UKKK 112300Z 23003MPS 190V250 CAVOK 19/14 Q1015 R26/CLRD70 NOSIG"
"2:30 AM EEST on July 12, 2016","2016","07","12","02","30","Europe/Kiev","11:30 PM GMT on July 11, 2016","2016","07","11","23","30","UTC","19.0","66.2","14.0","57.2","73","10.8","6.7","-9999.0","-9999.0","230","SW","9.0","5.6","1015","29.98","-999","-999","-9999","-9999","-9999.00","-9999.00","Unknown","unknown","0","0","0","0","0","0","METAR UKKK 112330Z 23003MPS 9000 NSC 19/14 Q1015 R26/CLRD70 NOSIG"
"3:00 AM EEST on July 12, 2016","2016","07","12","03","00","Europe/Kiev","12:00 AM GMT on July 12, 2016","2016","07","12","00","00","UTC","20","67","14","58","65","10.8","6.7","","","230","SW","20","12","1015","29.98","-999","-999","-9999","-9999","","","","","0","0","0","0","0","0","AAXX 12001 33345 32998 02303 10195 20144 39956 40151 58002 555 10018"
"3:00 AM EEST on July 12, 2016","2016","07","12","03","00","Europe/Kiev","12:00 AM GMT on July 12, 2016","2016","07","12","00","00","UTC","19.0","66.2","14.0","57.2","73","10.8","6.7","-9999.0","-9999.0","230","SW","-9999.0","-9999.0","1015","29.98","-999","-999","-9999","-9999","-9999.00","-9999.00","Clear","clear","0","0","0","0","0","0","METAR UKKK 120000Z 23003MPS CAVOK 19/14 Q1015 R26/CLRD70 NOSIG"
"3:30 AM EEST on July 12, 2016","2016","07","12","03","30","Europe/Kiev","12:30 AM GMT on July 12, 2016","2016","07","12","00","30","UTC","19.0","66.2","14.0","57.2","73","10.8","6.7","-9999.0","-9999.0","230","SW","-9999.0","-9999.0","1015","29.98","-999","-999","-9999","-9999","-9999.00","-9999.00","Clear","clear","0","0","0","0","0","0","METAR UKKK 120030Z 23003MPS CAVOK 19/14 Q1015 R26/CLRD70 NOSIG"
"4:00 AM EEST on July 12, 2016","2016","07","12","04","00","Europe/Kiev","1:00 AM GMT on July 12, 2016","2016","07","12","01","00","UTC","19.0","66.2","14.0","57.2","73","10.8","6.7","-9999.0","-9999.0","240","WSW","-9999.0","-9999.0","1015","29.98","-999","-999","-9999","-9999","-9999.00","-9999.00","Clear","clear","0","0","0","0","0","0","METAR UKKK 120100Z 24003MPS CAVOK 19/14 Q1015 R26/CLRD70 NOSIG"
"4:30 AM EEST on July 12, 2016","2016","07","12","04","30","Europe/Kiev","1:30 AM GMT on July 12, 2016","2016","07","12","01","30","UTC","19.0","66.2","14.0","57.2","73","14.4","8.9","-9999.0","-9999.0","240","WSW","-9999.0","-9999.0","1015","29.98","-999","-999","-9999","-9999","-9999.00","-9999.00","Clear","clear","0","0","0","0","0","0","METAR UKKK 120130Z 24004MPS CAVOK 19/14 Q1015 R26/CLRD70 NOSIG"
"5:00 AM EEST on July 12, 2016","2016","07","12","05","00","Europe/Kiev","2:00 AM GMT on July 12, 2016","2016","07","12","02","00","UTC","19.0","66.2","14.0","57.2","73","10.8","6.7","-9999.0","-9999.0","240","WSW","-9999.0","-9999.0","1015","29.98","-999","-999","-9999","-9999","-9999.00","-9999.00","Clear","clear","0","0","0","0","0","0","METAR UKKK 120200Z 24003MPS CAVOK 19/14 Q1015 R26/CLRD70 NOSIG"
"5:30 AM EEST on July 12, 2016","2016","07","12","05","30","Europe/Kiev","2:30 AM GMT on July 12, 2016","2016","07","12","02","30","UTC","18.0","64.4","14.0","57.2","77","10.8","6.7","-9999.0","-9999.0","240","WSW","-9999.0","-9999.0","1015","29.98","-999","-999","-9999","-9999","-9999.00","-9999.00","Clear","clear","0","0","0","0","0","0","METAR UKKK 120230Z 24003MPS CAVOK 18/14 Q1015 R26/CLRD70 NOSIG"
"6:00 AM EEST on July 12, 2016","2016","07","12","06","00","Europe/Kiev","3:00 AM GMT on July 12, 2016","2016","07","12","03","00","UTC","20","68","14","57","59","14.4","8.9","","","230","SW","20","12","1015","29.98","-999","-999","-9999","-9999","","","Clear","clear","0","0","0","0","0","0","AAXX 12031 33345 42998 22304 10200 20138 39955 40150 57001 80001 555 10018"
"6:00 AM EEST on July 12, 2016","2016","07","12","06","00","Europe/Kiev","3:00 AM GMT on July 12, 2016","2016","07","12","03","00","UTC","19.0","66.2","14.0","57.2","73","10.8","6.7","-9999.0","-9999.0","240","WSW","-9999.0","-9999.0","1015","29.98","-999","-999","-9999","-9999","-9999.00","-9999.00","Clear","clear","0","0","0","0","0","0","METAR UKKK 120300Z 24003MPS CAVOK 19/14 Q1015 R26/CLRD70 NOSIG"
"6:30 AM EEST on July 12, 2016","2016","07","12","06","30","Europe/Kiev","3:30 AM GMT on July 12, 2016","2016","07","12","03","30","UTC","19.0","66.2","14.0","57.2","73","10.8","6.7","-9999.0","-9999.0","250","WSW","-9999.0","-9999.0","1015","29.98","-999","-999","-9999","-9999","-9999.00","-9999.00","Clear","clear","0","0","0","0","0","0","METAR UKKK 120330Z 25003MPS CAVOK 19/14 Q1015 R26/CLRD70 NOSIG"
"7:00 AM EEST on July 12, 2016","2016","07","12","07","00","Europe/Kiev","4:00 AM GMT on July 12, 2016","2016","07","12","04","00","UTC","20.0","68.0","15.0","59.0","73","14.4","8.9","-9999.0","-9999.0","240","WSW","-9999.0","-9999.0","1015","29.98","-999","-999","-9999","-9999","-9999.00","-9999.00","Clear","clear","0","0","0","0","0","0","METAR UKKK 120400Z 24004MPS CAVOK 20/15 Q1015 R26/CLRD70 NOSIG"
"7:30 AM EEST on July 12, 2016","2016","07","12","07","30","Europe/Kiev","4:30 AM GMT on July 12, 2016","2016","07","12","04","30","UTC","21.0","69.8","15.0","59.0","68","14.4","8.9","-9999.0","-9999.0","250","WSW","-9999.0","-9999.0","1015","29.98","-999","-999","-9999","-9999","-9999.00","-9999.00","Clear","clear","0","0","0","0","0","0","METAR UKKK 120430Z 25004MPS CAVOK 21/15 Q1015 R26/CLRD70 NOSIG"
"8:00 AM EEST on July 12, 2016","2016","07","12","08","00","Europe/Kiev","5:00 AM GMT on July 12, 2016","2016","07","12","05","00","UTC","22.0","71.6","15.0","59.0","64","10.8","6.7","-9999.0","-9999.0","230","SW","-9999.0","-9999.0","1015","29.98","-999","-999","-9999","-9999","-9999.00","-9999.00","Clear","clear","0","0","0","0","0","0","METAR UKKK 120500Z 23003MPS 200V270 CAVOK 22/15 Q1015 R26/CLRD70 NOSIG"
"8:30 AM EEST on July 12, 2016","2016","07","12","08","30","Europe/Kiev","5:30 AM GMT on July 12, 2016","2016","07","12","05","30","UTC","23.0","73.4","15.0","59.0","61","14.4","8.9","-9999.0","-9999.0","240","WSW","-9999.0","-9999.0","1015","29.98","-999","-999","-9999","-9999","-9999.00","-9999.00","Clear","clear","0","0","0","0","0","0","METAR UKKK 120530Z 24004MPS 200V280 CAVOK 23/15 Q1015 R26/CLRD70 NOSIG"
"9:00 AM EEST on July 12, 2016","2016","07","12","09","00","Europe/Kiev","6:00 AM GMT on July 12, 2016","2016","07","12","06","00","UTC","24","75","15","59","47","14.4","8.9","","","210","SSW","20","12","1014","29.96","-999","-999","-9999","-9999","","","Clear","clear","0","0","0","0","0","0","AAXX 12061 33345 32998 32104 10239 20149 39953 40145 57002 80001 333 20193 555 10031"
"9:00 AM EEST on July 12, 2016","2016","07","12","09","00","Europe/Kiev","6:00 AM GMT on July 12, 2016","2016","07","12","06","00","UTC","24.0","75.2","15.0","59.0","57","18.0","11.2","-9999.0","-9999.0","230","SW","9.0","5.6","1015","29.98","-999","-999","-9999","-9999","-9999.00","-9999.00","Unknown","unknown","0","0","0","0","0","0","METAR UKKK 120600Z 23005MPS 9000 NSC 24/15 Q1015 R26/CLRD70 NOSIG"
"9:30 AM EEST on July 12, 2016","2016","07","12","09","30","Europe/Kiev","6:30 AM GMT on July 12, 2016","2016","07","12","06","30","UTC","25.0","77.0","15.0","59.0","54","18.0","11.2","-9999.0","-9999.0","230","SW","-9999.0","-9999.0","1015","29.98","-999","-999","-9999","-9999","-9999.00","-9999.00","Clear","clear","0","0","0","0","0","0","METAR UKKK 120630Z 23005MPS CAVOK 25/15 Q1015 R26/CLRD70 NOSIG"
"10:00 AM EEST on July 12, 2016","2016","07","12","10","00","Europe/Kiev","7:00 AM GMT on July 12, 2016","2016","07","12","07","00","UTC","25.0","77.0","16.0","60.8","57","18.0","11.2","-9999.0","-9999.0","220","SW","-9999.0","-9999.0","1015","29.98","-999","-999","-9999","-9999","-9999.00","-9999.00","Clear","clear","0","0","0","0","0","0","METAR UKKK 120700Z 22005MPS 180V250 CAVOK 25/16 Q1015 R26/CLRD70 NOSIG"
"10:30 AM EEST on July 12, 2016","2016","07","12","10","30","Europe/Kiev","7:30 AM GMT on July 12, 2016","2016","07","12","07","30","UTC","26.0","78.8","16.0","60.8","54","18.0","11.2","-9999.0","-9999.0","250","WSW","-9999.0","-9999.0","1015","29.98","-999","-999","-9999","-9999","-9999.00","-9999.00","Clear","clear","0","0","0","0","0","0","METAR UKKK 120730Z 25005MPS CAVOK 26/16 Q1015 R26/CLRD70 NOSIG"
"11:00 AM EEST on July 12, 2016","2016","07","12","11","00","Europe/Kiev","8:00 AM GMT on July 12, 2016","2016","07","12","08","00","UTC","27.0","80.6","17.0","62.6","54","18.0","11.2","-9999.0","-9999.0","220","SW","-9999.0","-9999.0","1015","29.98","-999","-999","27.7","81.8","-9999.00","-9999.00","Clear","clear","0","0","0","0","0","0","METAR UKKK 120800Z 22005MPS 190V260 CAVOK 27/17 Q1015 R26/CLRD70 NOSIG"
"11:30 AM EEST on July 12, 2016","2016","07","12","11","30","Europe/Kiev","8:30 AM GMT on July 12, 2016","2016","07","12","08","30","UTC","28.0","82.4","17.0","62.6","51","18.0","11.2","-9999.0","-9999.0","240","WSW","-9999.0","-9999.0","1015","29.98","-999","-999","28.5","83.4","-9999.00","-9999.00","Clear","clear","0","0","0","0","0","0","METAR UKKK 120830Z 24005MPS 190V260 CAVOK 28/17 Q1015 R26/CLRD70 NOSIG"
"12:00 PM EEST on July 12, 2016","2016","07","12","12","00","Europe/Kiev","9:00 AM GMT on July 12, 2016","2016","07","12","09","00","UTC","27","81","17","62","42","14.4","8.9","","","210","SSW","20","12","1014","29.96","-999","-999","-9999","-9999","","","Clear","clear","0","0","0","0","0","0","AAXX 12091 33345 42998 62104 10273 20166 39954 40144 53001 80004 555 10038"
"12:00 PM EEST on July 12, 2016","2016","07","12","12","00","Europe/Kiev","9:00 AM GMT on July 12, 2016","2016","07","12","09","00","UTC","28.0","82.4","17.0","62.6","51","14.4","8.9","-9999.0","-9999.0","240","WSW","-9999.0","-9999.0","1015","29.98","-999","-999","28.5","83.4","-9999.00","-9999.00","Clear","clear","0","0","0","0","0","0","METAR UKKK 120900Z 24004MPS 170V280 CAVOK 28/17 Q1015 R26/CLRD70 NOSIG"
"12:30 PM EEST on July 12, 2016","2016","07","12","12","30","Europe/Kiev","9:30 AM GMT on July 12, 2016","2016","07","12","09","30","UTC","29.0","84.2","17.0","62.6","48","14.4","8.9","-9999.0","-9999.0","220","SW","-9999.0","-9999.0","1015","29.98","-999","-999","29.4","85.0","-9999.00","-9999.00","Clear","clear","0","0","0","0","0","0","METAR UKKK 120930Z 22004MPS 170V270 CAVOK 29/17 Q1015 R26/CLRD70 NOSIG"
"1:00 PM EEST on July 12, 2016","2016","07","12","13","00","Europe/Kiev","10:00 AM GMT on July 12, 2016","2016","07","12","10","00","UTC","30.0","86.0","17.0","62.6","45","18.0","11.2","-9999.0","-9999.0","210","SSW","-9999.0","-9999.0","1015","29.98","-999","-999","30.3","86.6","-9999.00","-9999.00","Clear","clear","0","0","0","0","0","0","METAR UKKK 121000Z 21005MPS 180V250 CAVOK 30/17 Q1015 R26/CLRD70 NOSIG"
"1:30 PM EEST on July 12, 2016","2016","07","12","13","30","Europe/Kiev","10:30 AM GMT on July 12, 2016","2016","07","12","10","30","UTC","30.0","86.0","17.0","62.6","45","18.0","11.2","-9999.0","-9999.0","230","SW","-9999.0","-9999.0","1015","29.98","-999","-999","30.3","86.6","-9999.00","-9999.00","Clear","clear","0","0","0","0","0","0","METAR UKKK 121030Z 23005MPS 190V270 CAVOK 30/17 Q1015 R26/CLRD70 NOSIG"
"2:00 PM EEST on July 12, 2016","2016","07","12","14","00","Europe/Kiev","11:00 AM GMT on July 12, 2016","2016","07","12","11","00","UTC","30.0","86.0","16.0","60.8","43","18.0","11.2","-9999.0","-9999.0","220","SW","-9999.0","-9999.0","1015","29.98","-999","-999","30.1","86.1","-9999.00","-9999.00","Clear","clear","0","0","0","0","0","0","METAR UKKK 121100Z 22005MPS 170V270 CAVOK 30/16 Q1015 R26/CLRD70 NOSIG"
"2:30 PM EEST on July 12, 2016","2016","07","12","14","30","Europe/Kiev","11:30 AM GMT on July 12, 2016","2016","07","12","11","30","UTC","30.0","86.0","16.0","60.8","43","18.0","11.2","-9999.0","-9999.0","210","SSW","-9999.0","-9999.0","1015","29.98","-999","-999","30.1","86.1","-9999.00","-9999.00","Clear","clear","0","0","0","0","0","0","METAR UKKK 121130Z 21005MPS 170V250 CAVOK 30/16 Q1015 R26/CLRD70 NOSIG"
"3:00 PM EEST on July 12, 2016","2016","07","12","15","00","Europe/Kiev","12:00 PM GMT on July 12, 2016","2016","07","12","12","00","UTC","31","87","16","61","32","14.4","8.9","","","220","SW","20","12","1014","29.94","-999","-999","-9999","-9999","","","Clear","clear","0","0","0","0","0","0","AAXX 12121 33345 32998 12204 10308 20163 39950 40137 58004 80001 555 10048"
"3:00 PM EEST on July 12, 2016","2016","07","12","15","00","Europe/Kiev","12:00 PM GMT on July 12, 2016","2016","07","12","12","00","UTC","30.0","86.0","17.0","62.6","45","18.0","11.2","-9999.0","-9999.0","220","SW","-9999.0","-9999.0","1015","29.98","-999","-999","30.3","86.6","-9999.00","-9999.00","Clear","clear","0","0","0","0","0","0","METAR UKKK 121200Z 22005MPS 170V260 CAVOK 30/17 Q1015 WS RWY26 R26/CLRD70 NOSIG"
"3:30 PM EEST on July 12, 2016","2016","07","12","15","30","Europe/Kiev","12:30 PM GMT on July 12, 2016","2016","07","12","12","30","UTC","31.0","87.8","18.0","64.4","46","18.0","11.2","-9999.0","-9999.0","220","SW","-9999.0","-9999.0","1014","29.95","-999","-999","31.9","89.4","-9999.00","-9999.00","Clear","clear","0","0","0","0","0","0","METAR UKKK 121230Z 22005MPS 180V250 CAVOK 31/18 Q1014 R26/CLRD70 NOSIG"
"4:00 PM EEST on July 12, 2016","2016","07","12","16","00","Europe/Kiev","1:00 PM GMT on July 12, 2016","2016","07","12","13","00","UTC","31.0","87.8","17.0","62.6","43","18.0","11.2","-9999.0","-9999.0","210","SSW","-9999.0","-9999.0","1014","29.95","-999","-999","31.4","88.5","-9999.00","-9999.00","Clear","clear","0","0","0","0","0","0","METAR UKKK 121300Z 21005MPS 180V250 CAVOK 31/17 Q1014 R26/CLRD70 NOSIG"
"4:30 PM EEST on July 12, 2016","2016","07","12","16","30","Europe/Kiev","1:30 PM GMT on July 12, 2016","2016","07","12","13","30","UTC","31.0","87.8","17.0","62.6","43","14.4","8.9","-9999.0","-9999.0","220","SW","-9999.0","-9999.0","1014","29.95","-999","-999","31.4","88.5","-9999.00","-9999.00","Clear","clear","0","0","0","0","0","0","METAR UKKK 121330Z 22004MPS 180V270 CAVOK 31/17 Q1014 R26/CLRD70 NOSIG"
"5:00 PM EEST on July 12, 2016","2016","07","12","17","00","Europe/Kiev","2:00 PM GMT on July 12, 2016","2016","07","12","14","00","UTC","31.0","87.8","17.0","62.6","43","18.0","11.2","-9999.0","-9999.0","220","SW","-9999.0","-9999.0","1014","29.95","-999","-999","31.4","88.5","-9999.00","-9999.00","Clear","clear","0","0","0","0","0","0","METAR UKKK 121400Z 22005MPS 180V260 CAVOK 31/17 Q1014 R26/CLRD70 NOSIG"
"5:30 PM EEST on July 12, 2016","2016","07","12","17","30","Europe/Kiev","2:30 PM GMT on July 12, 2016","2016","07","12","14","30","UTC","31.0","87.8","17.0","62.6","43","14.4","8.9","-9999.0","-9999.0","220","SW","-9999.0","-9999.0","1014","29.95","-999","-999","31.4","88.5","-9999.00","-9999.00","Clear","clear","0","0","0","0","0","0","METAR UKKK 121430Z 22004MPS 180V250 CAVOK 31/17 Q1014 R26/CLRD70 NOSIG"
"6:00 PM EEST on July 12, 2016","2016","07","12","18","00","Europe/Kiev","3:00 PM GMT on July 12, 2016","2016","07","12","15","00","UTC","31","87","16","61","32","14.4","8.9","","","210","SSW","20","12","1013","29.92","-999","-999","-9999","-9999","","","Clear","clear","0","0","0","0","0","0","AAXX 12151 33345 42998 22104 10307 20162 39943 40130 57007 80001 555 10040"
"6:00 PM EEST on July 12, 2016","2016","07","12","18","00","Europe/Kiev","3:00 PM GMT on July 12, 2016","2016","07","12","15","00","UTC","31.0","87.8","17.0","62.6","43","14.4","8.9","-9999.0","-9999.0","220","SW","-9999.0","-9999.0","1014","29.95","-999","-999","31.4","88.5","-9999.00","-9999.00","Clear","clear","0","0","0","0","0","0","METAR UKKK 121500Z 22004MPS 180V250 CAVOK 31/17 Q1014 R26/CLRD70 NOSIG"
"6:30 PM EEST on July 12, 2016","2016","07","12","18","30","Europe/Kiev","3:30 PM GMT on July 12, 2016","2016","07","12","15","30","UTC","30.0","86.0","17.0","62.6","45","14.4","8.9","-9999.0","-9999.0","220","SW","9.0","5.6","1014","29.95","-999","-999","30.3","86.6","-9999.00","-9999.00","Unknown","unknown","0","0","0","0","0","0","METAR UKKK 121530Z 22004MPS 9000 NSC 30/17 Q1014 R26/CLRD70 NOSIG"
"7:00 PM EEST on July 12, 2016","2016","07","12","19","00","Europe/Kiev","4:00 PM GMT on July 12, 2016","2016","07","12","16","00","UTC","30.0","86.0","17.0","62.6","45","14.4","8.9","-9999.0","-9999.0","210","SSW","-9999.0","-9999.0","1014","29.95","-999","-999","30.3","86.6","-9999.00","-9999.00","Clear","clear","0","0","0","0","0","0","METAR UKKK 121600Z 21004MPS 170V240 CAVOK 30/17 Q1014 R26/CLRD70 NOSIG"
"7:30 PM EEST on July 12, 2016","2016","07","12","19","30","Europe/Kiev","4:30 PM GMT on July 12, 2016","2016","07","12","16","30","UTC","30.0","86.0","17.0","62.6","45","14.4","8.9","-9999.0","-9999.0","210","SSW","9.0","5.6","1014","29.95","-999","-999","30.3","86.6","-9999.00","-9999.00","Unknown","unknown","0","0","0","0","0","0","METAR UKKK 121630Z 21004MPS 170V240 9000 NSC 30/17 Q1014 R26/CLRD70 NOSIG"
"8:00 PM EEST on July 12, 2016","2016","07","12","20","00","Europe/Kiev","5:00 PM GMT on July 12, 2016","2016","07","12","17","00","UTC","28.0","82.4","17.0","62.6","51","10.8","6.7","-9999.0","-9999.0","210","SSW","-9999.0","-9999.0","1014","29.95","-999","-999","28.5","83.4","-9999.00","-9999.00","Clear","clear","0","0","0","0","0","0","METAR UKKK 121700Z 21003MPS 170V230 CAVOK 28/17 Q1014 R26/CLRD70 NOSIG"
"8:30 PM EEST on July 12, 2016","2016","07","12","20","30","Europe/Kiev","5:30 PM GMT on July 12, 2016","2016","07","12","17","30","UTC","28.0","82.4","17.0","62.6","51","10.8","6.7","-9999.0","-9999.0","210","SSW","-9999.0","-9999.0","1014","29.95","-999","-999","28.5","83.4","-9999.00","-9999.00","Clear","clear","0","0","0","0","0","0","METAR UKKK 121730Z 21003MPS 170V240 CAVOK 28/17 Q1014 R26/CLRD70 NOSIG"
"9:00 PM EEST on July 12, 2016","2016","07","12","21","00","Europe/Kiev","6:00 PM GMT on July 12, 2016","2016","07","12","18","00","UTC","27","80","16","61","43","10.8","6.7","","","190","South","20","12","1013","29.92","-999","-999","-9999","-9999","","","Clear","clear","0","0","0","0","0","0","AAXX 12181 33345 32998 31903 10268 20163 39941 40131 56002 80001 333 10312 555 10027"
"9:00 PM EEST on July 12, 2016","2016","07","12","21","00","Europe/Kiev","6:00 PM GMT on July 12, 2016","2016","07","12","18","00","UTC","27.0","80.6","16.0","60.8","51","10.8","6.7","-9999.0","-9999.0","210","SSW","-9999.0","-9999.0","1014","29.95","-999","-999","27.5","81.5","-9999.00","-9999.00","Clear","clear","0","0","0","0","0","0","METAR UKKK 121800Z 21003MPS 180V240 CAVOK 27/16 Q1014 R26/CLRD70 NOSIG"
"9:30 PM EEST on July 12, 2016","2016","07","12","21","30","Europe/Kiev","6:30 PM GMT on July 12, 2016","2016","07","12","18","30","UTC","26.0","78.8","16.0","60.8","54","10.8","6.7","-9999.0","-9999.0","210","SSW","-9999.0","-9999.0","1014","29.95","-999","-999","-9999","-9999","-9999.00","-9999.00","Clear","clear","0","0","0","0","0","0","METAR UKKK 121830Z 21003MPS 180V250 CAVOK 26/16 Q1014 R26/CLRD70 NOSIG"
"10:00 PM EEST on July 12, 2016","2016","07","12","22","00","Europe/Kiev","7:00 PM GMT on July 12, 2016","2016","07","12","19","00","UTC","25.0","77.0","16.0","60.8","57","10.8","6.7","-9999.0","-9999.0","210","SSW","-9999.0","-9999.0","1014","29.95","-999","-999","-9999","-9999","-9999.00","-9999.00","Clear","clear","0","0","0","0","0","0","METAR UKKK 121900Z 21003MPS CAVOK 25/16 Q1014 R26/CLRD70 NOSIG"
"10:30 PM EEST on July 12, 2016","2016","07","12","22","30","Europe/Kiev","7:30 PM GMT on July 12, 2016","2016","07","12","19","30","UTC","24.0","75.2","17.0","62.6","65","14.4","8.9","-9999.0","-9999.0","210","SSW","-9999.0","-9999.0","1014","29.95","-999","-999","-9999","-9999","-9999.00","-9999.00","Clear","clear","0","0","0","0","0","0","METAR UKKK 121930Z 21004MPS CAVOK 24/17 Q1014 R26/CLRD70 NOSIG"
"11:00 PM EEST on July 12, 2016","2016","07","12","23","00","Europe/Kiev","8:00 PM GMT on July 12, 2016","2016","07","12","20","00","UTC","24.0","75.2","17.0","62.6","65","10.8","6.7","-9999.0","-9999.0","210","SSW","-9999.0","-9999.0","1014","29.95","-999","-999","-9999","-9999","-9999.00","-9999.00","Clear","clear","0","0","0","0","0","0","METAR UKKK 122000Z 21003MPS CAVOK 24/17 Q1014 R26/CLRD70 NOSIG"
"11:30 PM EEST on July 12, 2016","2016","07","12","23","30","Europe/Kiev","8:30 PM GMT on July 12, 2016","2016","07","12","20","30","UTC","24.0","75.2","16.0","60.8","61","14.4","8.9","-9999.0","-9999.0","220","SW","-9999.0","-9999.0","1014","29.95","-999","-999","-9999","-9999","-9999.00","-9999.00","Clear","clear","0","0","0","0","0","0","METAR UKKK 122030Z 22004MPS CAVOK 24/16 Q1014 R26/CLRD70 NOSIG"
"12:00 AM EEST on July 13, 2016","2016","07","13","00","00","Europe/Kiev","9:00 PM GMT on July 12, 2016","2016","07","12","21","00","UTC","24","75","17","62","55","10.8","6.7","","","200","SSW","20","12","1014","29.94","-999","-999","-9999","-9999","","","","","0","0","0","0","0","0","AAXX 12211 33345 42998 02003 10239 20166 39946 40138 53005 555 10022"
"12:00 AM EEST on July 13, 2016","2016","07","13","00","00","Europe/Kiev","9:00 PM GMT on July 12, 2016","2016","07","12","21","00","UTC","24.0","75.2","16.0","60.8","61","14.4","8.9","-9999.0","-9999.0","220","SW","-9999.0","-9999.0","1014","29.95","-999","-999","-9999","-9999","-9999.00","-9999.00","Clear","clear","0","0","0","0","0","0","METAR UKKK 122100Z 22004MPS 180V240 CAVOK 24/16 Q1014 R26/CLRD70 NOSIG"
"12:30 AM EEST on July 13, 2016","2016","07","13","00","30","Europe/Kiev","9:30 PM GMT on July 12, 2016","2016","07","12","21","30","UTC","24.0","75.2","16.0","60.8","61","14.4","8.9","-9999.0","-9999.0","220","SW","-9999.0","-9999.0","1014","29.95","-999","-999","-9999","-9999","-9999.00","-9999.00","Clear","clear","0","0","0","0","0","0","METAR UKKK 122130Z 22004MPS CAVOK 24/16 Q1014 R26/CLRD70 NOSIG"
"1:00 AM EEST on July 13, 2016","2016","07","13","01","00","Europe/Kiev","10:00 PM GMT on July 12, 2016","2016","07","12","22","00","UTC","23.0","73.4","16.0","60.8","65","10.8","6.7","-9999.0","-9999.0","220","SW","-9999.0","-9999.0","1014","29.95","-999","-999","-9999","-9999","-9999.00","-9999.00","Clear","clear","0","0","0","0","0","0","METAR UKKK 122200Z 22003MPS 190V250 CAVOK 23/16 Q1014 R26/CLRD70 NOSIG"
"1:30 AM EEST on July 13, 2016","2016","07","13","01","30","Europe/Kiev","10:30 PM GMT on July 12, 2016","2016","07","12","22","30","UTC","23.0","73.4","16.0","60.8","65","10.8","6.7","-9999.0","-9999.0","230","SW","-9999.0","-9999.0","1014","29.95","-999","-999","-9999","-9999","-9999.00","-9999.00","Clear","clear","0","0","0","0","0","0","METAR UKKK 122230Z 23003MPS CAVOK 23/16 Q1014 R26/CLRD70 NOSIG"
"2:00 AM EEST on July 13, 2016","2016","07","13","02","00","Europe/Kiev","11:00 PM GMT on July 12, 2016","2016","07","12","23","00","UTC","23.0","73.4","16.0","60.8","65","10.8","6.7","-9999.0","-9999.0","230","SW","-9999.0","-9999.0","1014","29.95","-999","-999","-9999","-9999","-9999.00","-9999.00","Clear","clear","0","0","0","0","0","0","METAR UKKK 122300Z 23003MPS 190V260 CAVOK 23/16 Q1014 R26/CLRD70 NOSIG"
"2:30 AM EEST on July 13, 2016","2016","07","13","02","30","Europe/Kiev","11:30 PM GMT on July 12, 2016","2016","07","12","23","30","UTC","22.0","71.6","15.0","59.0","64","10.8","6.7","-9999.0","-9999.0","230","SW","-9999.0","-9999.0","1014","29.95","-999","-999","-9999","-9999","-9999.00","-9999.00","Clear","clear","0","0","0","0","0","0","METAR UKKK 122330Z 23003MPS CAVOK 22/15 Q1014 R26/CLRD70 NOSIG"
"3:00 AM EEST on July 13, 2016","2016","07","13","03","00","Europe/Kiev","12:00 AM GMT on July 13, 2016","2016","07","13","00","00","UTC","22","71","16","61","62","10.8","6.7","","","220","SW","20","12","1014","29.94","-999","-999","-9999","-9999","","","","","0","0","0","0","0","0","AAXX 13001 33345 32998 02203 10219 20160 39945 40138 58001 555 10020"
"3:00 AM EEST on July 13, 2016","2016","07","13","03","00","Europe/Kiev","12:00 AM GMT on July 13, 2016","2016","07","13","00","00","UTC","22.0","71.6","15.0","59.0","64","10.8","6.7","-9999.0","-9999.0","230","SW","-9999.0","-9999.0","1014","29.95","-999","-999","-9999","-9999","-9999.00","-9999.00","Clear","clear","0","0","0","0","0","0","METAR UKKK 130000Z 23003MPS CAVOK 22/15 Q1014 R26/CLRD70 NOSIG"
"3:30 AM EEST on July 13, 2016","2016","07","13","03","30","Europe/Kiev","12:30 AM GMT on July 13, 2016","2016","07","13","00","30","UTC","21.0","69.8","15.0","59.0","68","10.8","6.7","-9999.0","-9999.0","240","WSW","-9999.0","-9999.0","1014","29.95","-999","-999","-9999","-9999","-9999.00","-9999.00","Clear","clear","0","0","0","0","0","0","METAR UKKK 130030Z 24003MPS CAVOK 21/15 Q1014 R26/CLRD70 NOSIG"
"4:00 AM EEST on July 13, 2016","2016","07","13","04","00","Europe/Kiev","1:00 AM GMT on July 13, 2016","2016","07","13","01","00","UTC","21.0","69.8","15.0","59.0","68","7.2","4.5","-9999.0","-9999.0","230","SW","-9999.0","-9999.0","1014","29.95","-999","-999","-9999","-9999","-9999.00","-9999.00","Clear","clear","0","0","0","0","0","0","METAR UKKK 130100Z 23002MPS 200V280 CAVOK 21/15 Q1014 R26/CLRD70 NOSIG"
"4:30 AM EEST on July 13, 2016","2016","07","13","04","30","Europe/Kiev","1:30 AM GMT on July 13, 2016","2016","07","13","01","30","UTC","19.0","66.2","15.0","59.0","78","10.8","6.7","-9999.0","-9999.0","230","SW","-9999.0","-9999.0","1014","29.95","-999","-999","-9999","-9999","-9999.00","-9999.00","Clear","clear","0","0","0","0","0","0","METAR UKKK 130130Z 23003MPS CAVOK 19/15 Q1014 R26/CLRD70 NOSIG"
"5:00 AM EEST on July 13, 2016","2016","07","13","05","00","Europe/Kiev","2:00 AM GMT on July 13, 2016","2016","07","13","02","00","UTC","20.0","68.0","15.0","59.0","73","14.4","8.9","-9999.0","-9999.0","220","SW","-9999.0","-9999.0","1014","29.95","-999","-999","-9999","-9999","-9999.00","-9999.00","Clear","clear","0","0","0","0","0","0","METAR UKKK 130200Z 22004MPS CAVOK 20/15 Q1014 R26/CLRD70 NOSIG"
"5:30 AM EEST on July 13, 2016","2016","07","13","05","30","Europe/Kiev","2:30 AM GMT on July 13, 2016","2016","07","13","02","30","UTC","19.0","66.2","15.0","59.0","78","10.8","6.7","-9999.0","-9999.0","230","SW","-9999.0","-9999.0","1014","29.95","-999","-999","-9999","-9999","-9999.00","-9999.00","Clear","clear","0","0","0","0","0","0","METAR UKKK 130230Z 23003MPS CAVOK 19/15 Q1014 R26/CLRD70 NOSIG"
"6:00 AM EEST on July 13, 2016","2016","07","13","06","00","Europe/Kiev","3:00 AM GMT on July 13, 2016","2016","07","13","03","00","UTC","20","67","15","59","70","7.2","4.5","","","190","South","20","12","1014","29.95","-999","-999","-9999","-9999","","","","","0","0","0","0","0","0","AAXX 13031 33345 42998 01902 10196 20152 39945 40140 54000 555 10019"
"6:00 AM EEST on July 13, 2016","2016","07","13","06","00","Europe/Kiev","3:00 AM GMT on July 13, 2016","2016","07","13","03","00","UTC","20.0","68.0","15.0","59.0","73","10.8","6.7","-9999.0","-9999.0","230","SW","-9999.0","-9999.0","1014","29.95","-999","-999","-9999","-9999","-9999.00","-9999.00","Clear","clear","0","0","0","0","0","0","METAR UKKK 130300Z 23003MPS CAVOK 20/15 Q1014 R26/CLRD70 NOSIG"
"6:30 AM EEST on July 13, 2016","2016","07","13","06","30","Europe/Kiev","3:30 AM GMT on July 13, 2016","2016","07","13","03","30","UTC","21.0","69.8","15.0","59.0","68","10.8","6.7","-9999.0","-9999.0","230","SW","-9999.0","-9999.0","1014","29.95","-999","-999","-9999","-9999","-9999.00","-9999.00","Clear","clear","0","0","0","0","0","0","METAR UKKK 130330Z 23003MPS CAVOK 21/15 Q1014 R26/CLRD70 NOSIG"
"7:00 AM EEST on July 13, 2016","2016","07","13","07","00","Europe/Kiev","4:00 AM GMT on July 13, 2016","2016","07","13","04","00","UTC","22.0","71.6","16.0","60.8","69","10.8","6.7","-9999.0","-9999.0","240","WSW","-9999.0","-9999.0","1014","29.95","-999","-999","-9999","-9999","-9999.00","-9999.00","Clear","clear","0","0","0","0","0","0","METAR UKKK 130400Z 24003MPS CAVOK 22/16 Q1014 R26/CLRD70 NOSIG"
"7:30 AM EEST on July 13, 2016","2016","07","13","07","30","Europe/Kiev","4:30 AM GMT on July 13, 2016","2016","07","13","04","30","UTC","23.0","73.4","16.0","60.8","65","10.8","6.7","-9999.0","-9999.0","240","WSW","-9999.0","-9999.0","1015","29.98","-999","-999","-9999","-9999","-9999.00","-9999.00","Clear","clear","0","0","0","0","0","0","METAR UKKK 130430Z 24003MPS CAVOK 23/16 Q1015 R26/CLRD70 NOSIG"
"8:00 AM EEST on July 13, 2016","2016","07","13","08","00","Europe/Kiev","5:00 AM GMT on July 13, 2016","2016","07","13","05","00","UTC","24.0","75.2","16.0","60.8","61","10.8","6.7","-9999.0","-9999.0","220","SW","-9999.0","-9999.0","1015","29.98","-999","-999","-9999","-9999","-9999.00","-9999.00","Clear","clear","0","0","0","0","0","0","METAR UKKK 130500Z 22003MPS CAVOK 24/16 Q1015 R26/CLRD70 NOSIG"
"8:30 AM EEST on July 13, 2016","2016","07","13","08","30","Europe/Kiev","5:30 AM GMT on July 13, 2016","2016","07","13","05","30","UTC","24.0","75.2","15.0","59.0","57","10.8","6.7","-9999.0","-9999.0","230","SW","-9999.0","-9999.0","1015","29.98","-999","-999","-9999","-9999","-9999.00","-9999.00","Clear","clear","0","0","0","0","0","0","METAR UKKK 130530Z 23003MPS 190V260 CAVOK 24/15 Q1015 R26/CLRD70 NOSIG"
"9:00 AM EEST on July 13, 2016","2016","07","13","09","00","Europe/Kiev","6:00 AM GMT on July 13, 2016","2016","07","13","06","00","UTC","25","77","16","62","49","10.8","6.7","","","190","South","20","12","1014","29.95","-999","-999","-9999","-9999","","","","","0","0","0","0","0","0","AAXX 13061 33345 32998 01903 10248 20164 39950 40141 53005 333 20194 555 10035"
"9:00 AM EEST on July 13, 2016","2016","07","13","09","00","Europe/Kiev","6:00 AM GMT on July 13, 2016","2016","07","13","06","00","UTC","25.0","77.0","17.0","62.6","61","10.8","6.7","-9999.0","-9999.0","220","SW","-9999.0","-9999.0","1015","29.98","-999","-999","-9999","-9999","-9999.00","-9999.00","Clear","clear","0","0","0","0","0","0","METAR UKKK 130600Z 22003MPS 170V250 CAVOK 25/17 Q1015 R26/CLRD70 NOSIG"
"9:30 AM EEST on July 13, 2016","2016","07","13","09","30","Europe/Kiev","6:30 AM GMT on July 13, 2016","2016","07","13","06","30","UTC","26.0","78.8","16.0","60.8","54","14.4","8.9","-9999.0","-9999.0","200","SSW","-9999.0","-9999.0","1014","29.95","-999","-999","-9999","-9999","-9999.00","-9999.00","Clear","clear","0","0","0","0","0","0","METAR UKKK 130630Z 20004MPS 170V230 CAVOK 26/16 Q1014 R26/CLRD70 NOSIG"
"10:00 AM EEST on July 13, 2016","2016","07","13","10","00","Europe/Kiev","7:00 AM GMT on July 13, 2016","2016","07","13","07","00","UTC","26.0","78.8","16.0","60.8","54","14.4","8.9","-9999.0","-9999.0","220","SW","-9999.0","-9999.0","1014","29.95","-999","-999","-9999","-9999","-9999.00","-9999.00","Clear","clear","0","0","0","0","0","0","METAR UKKK 130700Z 22004MPS 180V260 CAVOK 26/16 Q1014 R26/CLRD70 NOSIG"
"10:30 AM EEST on July 13, 2016","2016","07","13","10","30","Europe/Kiev","7:30 AM GMT on July 13, 2016","2016","07","13","07","30","UTC","27.0","80.6","16.0","60.8","51","18.0","11.2","-9999.0","-9999.0","190","South","-9999.0","-9999.0","1014","29.95","-999","-999","27.5","81.5","-9999.00","-9999.00","Clear","clear","0","0","0","0","0","0","METAR UKKK 130730Z 19005MPS 160V240 CAVOK 27/16 Q1014 R26/CLRD70 NOSIG"
"11:00 AM EEST on July 13, 2016","2016","07","13","11","00","Europe/Kiev","8:00 AM GMT on July 13, 2016","2016","07","13","08","00","UTC","27.0","80.6","16.0","60.8","51","14.4","8.9","-9999.0","-9999.0","190","South","-9999.0","-9999.0","1014","29.95","-999","-999","27.5","81.5","-9999.00","-9999.00","Clear","clear","0","0","0","0","0","0","METAR UKKK 130800Z 19004MPS 150V230 CAVOK 27/16 Q1014 R26/CLRD70 NOSIG"
"11:30 AM EEST on July 13, 2016","2016","07","13","11","30","Europe/Kiev","8:30 AM GMT on July 13, 2016","2016","07","13","08","30","UTC","28.0","82.4","16.0","60.8","48","18.0","11.2","-9999.0","-9999.0","200","SSW","-9999.0","-9999.0","1014","29.95","-999","-999","28.3","82.9","-9999.00","-9999.00","Clear","clear","0","0","0","0","0","0","METAR UKKK 130830Z 20005MPS 150V240 CAVOK 28/16 Q1014 R26/CLRD70 NOSIG"
"12:00 PM EEST on July 13, 2016","2016","07","13","12","00","Europe/Kiev","9:00 AM GMT on July 13, 2016","2016","07","13","09","00","UTC","28","83","14","58","32","18.0","11.2","","","190","South","20","12","1013","29.92","-999","-999","-9999","-9999","","","","","0","0","0","0","0","0","AAXX 13091 33345 42998 01905 10284 20144 39942 40131 58008 555 10048"
"12:00 PM EEST on July 13, 2016","2016","07","13","12","00","Europe/Kiev","9:00 AM GMT on July 13, 2016","2016","07","13","09","00","UTC","28.0","82.4","15.0","59.0","45","18.0","11.2","-9999.0","-9999.0","200","SSW","-9999.0","-9999.0","1014","29.95","-999","-999","28.0","82.5","-9999.00","-9999.00","Clear","clear","0","0","0","0","0","0","METAR UKKK 130900Z 20005MPS 160V240 CAVOK 28/15 Q1014 R26/CLRD70 NOSIG"
"12:30 PM EEST on July 13, 2016","2016","07","13","12","30","Europe/Kiev","9:30 AM GMT on July 13, 2016","2016","07","13","09","30","UTC","29.0","84.2","13.0","55.4","37","21.6","13.4","-9999.0","-9999.0","210","SSW","-9999.0","-9999.0","1014","29.95","-999","-999","28.4","83.0","-9999.00","-9999.00","Clear","clear","0","0","0","0","0","0","METAR UKKK 130930Z 21006MPS 180V250 CAVOK 29/13 Q1014 R26/CLRD70 NOSIG"
"1:00 PM EEST on July 13, 2016","2016","07","13","13","00","Europe/Kiev","10:00 AM GMT on July 13, 2016","2016","07","13","10","00","UTC","29.0","84.2","13.0","55.4","37","18.0","11.2","-9999.0","-9999.0","190","South","-9999.0","-9999.0","1013","29.92","-999","-999","28.4","83.0","-9999.00","-9999.00","Clear","clear","0","0","0","0","0","0","METAR UKKK 131000Z 19005MPS 140V250 CAVOK 29/13 Q1013 R26/CLRD70 NOSIG"
"1:30 PM EEST on July 13, 2016","2016","07","13","13","30","Europe/Kiev","10:30 AM GMT on July 13, 2016","2016","07","13","10","30","UTC","30.0","86.0","13.0","55.4","35","18.0","11.2","-9999.0","-9999.0","210","SSW","-9999.0","-9999.0","1013","29.92","-999","-999","29.2","84.5","-9999.00","-9999.00","Clear","clear","0","0","0","0","0","0","METAR UKKK 131030Z 21005MPS 150V250 CAVOK 30/13 Q1013 R26/CLRD70 NOSIG"
"2:00 PM EEST on July 13, 2016","2016","07","13","14","00","Europe/Kiev","11:00 AM GMT on July 13, 2016","2016","07","13","11","00","UTC","30.0","86.0","13.0","55.4","35","18.0","11.2","-9999.0","-9999.0","200","SSW","-9999.0","-9999.0","1013","29.92","-999","-999","29.2","84.5","-9999.00","-9999.00","Clear","clear","0","0","0","0","0","0","METAR UKKK 131100Z 20005MPS 160V240 CAVOK 30/13 Q1013 R26/CLRD70 NOSIG"
"2:30 PM EEST on July 13, 2016","2016","07","13","14","30","Europe/Kiev","11:30 AM GMT on July 13, 2016","2016","07","13","11","30","UTC","30.0","86.0","13.0","55.4","35","21.6","13.4","-9999.0","-9999.0","200","SSW","-9999.0","-9999.0","1013","29.92","-999","-999","29.2","84.5","-9999.00","-9999.00","Clear","clear","0","0","0","0","0","0","METAR UKKK 131130Z 20006MPS 170V240 CAVOK 30/13 Q1013 R26/CLRD70 NOSIG"
"3:00 PM EEST on July 13, 2016","2016","07","13","15","00","Europe/Kiev","12:00 PM GMT on July 13, 2016","2016","07","13","12","00","UTC","30","87","12","53","21","18.0","11.2","","","190","South","20","12","1012","29.89","-999","-999","-9999","-9999","","","","","0","0","0","0","0","0","AAXX 13121 33345 32998 01905 10303 20117 39933 40121 57009 555 10048"
"3:00 PM EEST on July 13, 2016","2016","07","13","15","00","Europe/Kiev","12:00 PM GMT on July 13, 2016","2016","07","13","12","00","UTC","30.0","86.0","13.0","55.4","35","18.0","11.2","-9999.0","-9999.0","190","South","-9999.0","-9999.0","1013","29.92","-999","-999","29.2","84.5","-9999.00","-9999.00","Clear","clear","0","0","0","0","0","0","METAR UKKK 131200Z 19005MPS 150V240 CAVOK 30/13 Q1013 R26/CLRD70 NOSIG"
"3:30 PM EEST on July 13, 2016","2016","07","13","15","30","Europe/Kiev","12:30 PM GMT on July 13, 2016","2016","07","13","12","30","UTC","30.0","86.0","13.0","55.4","35","21.6","13.4","-9999.0","-9999.0","200","SSW","-9999.0","-9999.0","1012","29.89","-999","-999","29.2","84.5","-9999.00","-9999.00","Clear","clear","0","0","0","0","0","0","METAR UKKK 131230Z 20006MPS 180V240 CAVOK 30/13 Q1012 R26/CLRD70 NOSIG"
"4:00 PM EEST on July 13, 2016","2016","07","13","16","00","Europe/Kiev","1:00 PM GMT on July 13, 2016","2016","07","13","13","00","UTC","30.0","86.0","13.0","55.4","35","21.6","13.4","-9999.0","-9999.0","200","SSW","-9999.0","-9999.0","1012","29.89","-999","-999","29.2","84.5","-9999.00","-9999.00","Clear","clear","0","0","0","0","0","0","METAR UKKK 131300Z 20006MPS 170V230 CAVOK 30/13 Q1012 R26/CLRD70 NOSIG"
"4:30 PM EEST on July 13, 2016","2016","07","13","16","30","Europe/Kiev","1:30 PM GMT on July 13, 2016","2016","07","13","13","30","UTC","30.0","86.0","12.0","53.6","33","18.0","11.2","-9999.0","-9999.0","210","SSW","-9999.0","-9999.0","1012","29.89","-999","-999","29.0","84.2","-9999.00","-9999.00","Clear","clear","0","0","0","0","0","0","METAR UKKK 131330Z 21005MPS 180V240 CAVOK 30/12 Q1012 R26/CLRD70 NOSIG"
"5:00 PM EEST on July 13, 2016","2016","07","13","17","00","Europe/Kiev","2:00 PM GMT on July 13, 2016","2016","07","13","14","00","UTC","30.0","86.0","12.0","53.6","33","18.0","11.2","-9999.0","-9999.0","220","SW","-9999.0","-9999.0","1012","29.89","-999","-999","29.0","84.2","-9999.00","-9999.00","Clear","clear","0","0","0","0","0","0","METAR UKKK 131400Z 22005MPS 180V250 CAVOK 30/12 Q1012 R26/CLRD70 NOSIG"
"5:30 PM EEST on July 13, 2016","2016","07","13","17","30","Europe/Kiev","2:30 PM GMT on July 13, 2016","2016","07","13","14","30","UTC","30.0","86.0","12.0","53.6","33","21.6","13.4","-9999.0","-9999.0","200","SSW","-9999.0","-9999.0","1012","29.89","-999","-999","29.0","84.2","-9999.00","-9999.00","Clear","clear","0","0","0","0","0","0","METAR UKKK 131430Z 20006MPS 160V240 CAVOK 30/12 Q1012 R26/CLRD70 NOSIG"
"6:00 PM EEST on July 13, 2016","2016","07","13","18","00","Europe/Kiev","3:00 PM GMT on July 13, 2016","2016","07","13","15","00","UTC","30","86","11","52","21","14.4","8.9","","","210","SSW","20","12","1011","29.86","-999","-999","-9999","-9999","","","","","0","0","0","0","0","0","AAXX 13151 33345 42998 02104 10300 20110 39923 40111 57010 555 10041"
"6:00 PM EEST on July 13, 2016","2016","07","13","18","00","Europe/Kiev","3:00 PM GMT on July 13, 2016","2016","07","13","15","00","UTC","30.0","86.0","12.0","53.6","33","21.6","13.4","-9999.0","-9999.0","210","SSW","-9999.0","-9999.0","1012","29.89","-999","-999","29.0","84.2","-9999.00","-9999.00","Clear","clear","0","0","0","0","0","0","METAR UKKK 131500Z 21006MPS 180V240 CAVOK 30/12 Q1012 R26/CLRD70 NOSIG"
"6:30 PM EEST on July 13, 2016","2016","07","13","18","30","Europe/Kiev","3:30 PM GMT on July 13, 2016","2016","07","13","15","30","UTC","30.0","86.0","12.0","53.6","33","18.0","11.2","-9999.0","-9999.0","220","SW","-9999.0","-9999.0","1012","29.89","-999","-999","29.0","84.2","-9999.00","-9999.00","Clear","clear","0","0","0","0","0","0","METAR UKKK 131530Z 22005MPS 190V250 CAVOK 30/12 Q1012 R26/CLRD70 NOSIG"
"7:00 PM EEST on July 13, 2016","2016","07","13","19","00","Europe/Kiev","4:00 PM GMT on July 13, 2016","2016","07","13","16","00","UTC","29.0","84.2","13.0","55.4","37","21.6","13.4","-9999.0","-9999.0","230","SW","-9999.0","-9999.0","1012","29.89","-999","-999","28.4","83.0","-9999.00","-9999.00","Clear","clear","0","0","0","0","0","0","METAR UKKK 131600Z 23006MPS CAVOK 29/13 Q1012 R26/CLRD70 NOSIG"
"7:30 PM EEST on July 13, 2016","2016","07","13","19","30","Europe/Kiev","4:30 PM GMT on July 13, 2016","2016","07","13","16","30","UTC","29.0","84.2","13.0","55.4","37","18.0","11.2","-9999.0","-9999.0","230","SW","-9999.0","-9999.0","1012","29.89","-999","-999","28.4","83.0","-9999.00","-9999.00","Clear","clear","0","0","0","0","0","0","METAR UKKK 131630Z 23005MPS 200V260 CAVOK 29/13 Q1012 R26/CLRD70 NOSIG"
"8:00 PM EEST on July 13, 2016","2016","07","13","20","00","Europe/Kiev","5:00 PM GMT on July 13, 2016","2016","07","13","17","00","UTC","28.0","82.4","13.0","55.4","39","14.4","8.9","-9999.0","-9999.0","220","SW","-9999.0","-9999.0","1012","29.89","-999","-999","27.6","81.7","-9999.00","-9999.00","Clear","clear","0","0","0","0","0","0","METAR UKKK 131700Z 22004MPS CAVOK 28/13 Q1012 R26/CLRD70 NOSIG"
"8:30 PM EEST on July 13, 2016","2016","07","13","20","30","Europe/Kiev","5:30 PM GMT on July 13, 2016","2016","07","13","17","30","UTC","27.0","80.6","14.0","57.2","45","10.8","6.7","-9999.0","-9999.0","200","SSW","-9999.0","-9999.0","1012","29.89","-999","-999","27.1","80.8","-9999.00","-9999.00","Clear","clear","0","0","0","0","0","0","METAR UKKK 131730Z 20003MPS 160V230 CAVOK 27/14 Q1012 R26/CLRD70 NOSIG"
"9:00 PM EEST on July 13, 2016","2016","07","13","21","00","Europe/Kiev","6:00 PM GMT on July 13, 2016","2016","07","13","18","00","UTC","26","79","14","57","37","7.2","4.5","","","190","South","20","12","1012","29.87","-999","-999","-9999","-9999","","","","","0","0","0","0","0","0","AAXX 13181 33345 32998 01902 10263 20141 39925 40115 53002 333 10306 555 10026"
"9:00 PM EEST on July 13, 2016","2016","07","13","21","00","Europe/Kiev","6:00 PM GMT on July 13, 2016","2016","07","13","18","00","UTC","26.0","78.8","14.0","57.2","47","7.2","4.5","-9999.0","-9999.0","200","SSW","8.0","5.0","1012","29.89","-999","-999","-9999","-9999","-9999.00","-9999.00","Clear","clear","0","0","0","0","0","0","METAR UKKK 131800Z 20002MPS 8000 SKC 26/14 Q1012 R26/CLRD70 NOSIG"
"9:30 PM EEST on July 13, 2016","2016","07","13","21","30","Europe/Kiev","6:30 PM GMT on July 13, 2016","2016","07","13","18","30","UTC","25.0","77.0","14.0","57.2","50","7.2","4.5","-9999.0","-9999.0","190","South","-9999.0","-9999.0","1012","29.89","-999","-999","-9999","-9999","-9999.00","-9999.00","Clear","clear","0","0","0","0","0","0","METAR UKKK 131830Z 19002MPS 140V220 CAVOK 25/14 Q1012 R26/CLRD70 NOSIG"
"10:00 PM EEST on July 13, 2016","2016","07","13","22","00","Europe/Kiev","7:00 PM GMT on July 13, 2016","2016","07","13","19","00","UTC","25.0","77.0","14.0","57.2","50","7.2","4.5","-9999.0","-9999.0","190","South","-9999.0","-9999.0","1012","29.89","-999","-999","-9999","-9999","-9999.00","-9999.00","Clear","clear","0","0","0","0","0","0","METAR UKKK 131900Z 19002MPS 160V220 CAVOK 25/14 Q1012 R26/CLRD70 NOSIG"
"10:30 PM EEST on July 13, 2016","2016","07","13","22","30","Europe/Kiev","7:30 PM GMT on July 13, 2016","2016","07","13","19","30","UTC","23.0","73.4","14.0","57.2","57","10.8","6.7","-9999.0","-9999.0","210","SSW","-9999.0","-9999.0","1013","29.92","-999","-999","-9999","-9999","-9999.00","-9999.00","Clear","clear","0","0","0","0","0","0","METAR UKKK 131930Z 21003MPS 180V250 CAVOK 23/14 Q1013 R26/CLRD70 NOSIG"
"11:00 PM EEST on July 13, 2016","2016","07","13","23","00","Europe/Kiev","8:00 PM GMT on July 13, 2016","2016","07","13","20","00","UTC","21.0","69.8","15.0","59.0","68","7.2","4.5","-9999.0","-9999.0","220","SW","-9999.0","-9999.0","1013","29.92","-999","-999","-9999","-9999","-9999.00","-9999.00","Clear","clear","0","0","0","0","0","0","METAR UKKK 132000Z 22002MPS CAVOK 21/15 Q1013 R26/CLRD70 NOSIG"
"11:30 PM EEST on July 13, 2016","2016","07","13","23","30","Europe/Kiev","8:30 PM GMT on July 13, 2016","2016","07","13","20","30","UTC","22.0","71.6","15.0","59.0","64","10.8","6.7","-9999.0","-9999.0","210","SSW","-9999.0","-9999.0","1012","29.89","-999","-999","-9999","-9999","-9999.00","-9999.00","Clear","clear","0","0","0","0","0","0","METAR UKKK 132030Z 21003MPS CAVOK 22/15 Q1012 R26/CLRD70 NOSIG"
"12:00 AM EEST on July 14, 2016","2016","07","14","00","00","Europe/Kiev","9:00 PM GMT on July 13, 2016","2016","07","13","21","00","UTC","24","75","14","58","46","7.2","4.5","","","210","SSW","20","12","1012","29.88","-999","-999","-9999","-9999","","","","","0","0","0","0","0","0","AAXX 13211 33345 42998 02102 10239 20145 39928 40119 52003 555 10021"
"12:00 AM EEST on July 14, 2016","2016","07","14","00","00","Europe/Kiev","9:00 PM GMT on July 13, 2016","2016","07","13","21","00","UTC","22.0","71.6","14.0","57.2","60","14.4","8.9","-9999.0","-9999.0","210","SSW","-9999.0","-9999.0","1012","29.89","-999","-999","-9999","-9999","-9999.00","-9999.00","Clear","clear","0","0","0","0","0","0","METAR UKKK 132100Z 21004MPS CAVOK 22/14 Q1012 R26/CLRD70 NOSIG"
"12:30 AM EEST on July 14, 2016","2016","07","14","00","30","Europe/Kiev","9:30 PM GMT on July 13, 2016","2016","07","13","21","30","UTC","21.0","69.8","14.0","57.2","64","10.8","6.7","-9999.0","-9999.0","210","SSW","-9999.0","-9999.0","1012","29.89","-999","-999","-9999","-9999","-9999.00","-9999.00","Clear","clear","0","0","0","0","0","0","METAR UKKK 132130Z 21003MPS CAVOK 21/14 Q1012 R26/CLRD70 NOSIG"
"1:00 AM EEST on July 14, 2016","2016","07","14","01","00","Europe/Kiev","10:00 PM GMT on July 13, 2016","2016","07","13","22","00","UTC","20.0","68.0","15.0","59.0","73","7.2","4.5","-9999.0","-9999.0","220","SW","-9999.0","-9999.0","1012","29.89","-999","-999","-9999","-9999","-9999.00","-9999.00","Clear","clear","0","0","0","0","0","0","METAR UKKK 132200Z 22002MPS CAVOK 20/15 Q1012 R26/CLRD70 NOSIG"
"1:30 AM EEST on July 14, 2016","2016","07","14","01","30","Europe/Kiev","10:30 PM GMT on July 13, 2016","2016","07","13","22","30","UTC","20.0","68.0","14.0","57.2","68","10.8","6.7","-9999.0","-9999.0","210","SSW","9.0","5.6","1012","29.89","-999","-999","-9999","-9999","-9999.00","-9999.00","Clear","clear","0","0","0","0","0","0","METAR UKKK 132230Z 21003MPS 9000 SKC 20/14 Q1012 R26/CLRD70 NOSIG"
"2:00 AM EEST on July 14, 2016","2016","07","14","02","00","Europe/Kiev","11:00 PM GMT on July 13, 2016","2016","07","13","23","00","UTC","19.0","66.2","15.0","59.0","78","3.6","2.2","-9999.0","-9999.0","0","Variable","-9999.0","-9999.0","1012","29.89","-999","-999","-9999","-9999","-9999.00","-9999.00","Clear","clear","0","0","0","0","0","0","METAR UKKK 132300Z VRB01MPS CAVOK 19/15 Q1012 R26/CLRD70 NOSIG"
"2:30 AM EEST on July 14, 2016","2016","07","14","02","30","Europe/Kiev","11:30 PM GMT on July 13, 2016","2016","07","13","23","30","UTC","18.0","64.4","15.0","59.0","83","3.6","2.2","-9999.0","-9999.0","0","Variable","8.0","5.0","1012","29.89","-999","-999","-9999","-9999","-9999.00","-9999.00","Clear","clear","0","0","0","0","0","0","METAR UKKK 132330Z VRB01MPS 8000 SKC 18/15 Q1012 R26/CLRD70 NOSIG"
"3:00 AM EEST on July 14, 2016","2016","07","14","03","00","Europe/Kiev","12:00 AM GMT on July 14, 2016","2016","07","14","00","00","UTC","20","67","15","59","67","7.2","4.5","","","170","South","20","12","1012","29.89","-999","-999","-9999","-9999","","","","","0","0","0","0","0","0","AAXX 14001 33345 32998 01702 10196 20148 39926 40120 58002 555 10018"
"3:00 AM EEST on July 14, 2016","2016","07","14","03","00","Europe/Kiev","12:00 AM GMT on July 14, 2016","2016","07","14","00","00","UTC","19.0","66.2","14.0","57.2","73","0.0","0.0","-9999.0","-9999.0","0","North","-9999.0","-9999.0","1012","29.89","-999","-999","-9999","-9999","-9999.00","-9999.00","Clear","clear","0","0","0","0","0","0","METAR UKKK 140000Z 00000MPS CAVOK 19/14 Q1012 R26/CLRD70 NOSIG"
"3:30 AM EEST on July 14, 2016","2016","07","14","03","30","Europe/Kiev","12:30 AM GMT on July 14, 2016","2016","07","14","00","30","UTC","17.0","62.6","14.0","57.2","82","3.6","2.2","-9999.0","-9999.0","90","East","-9999.0","-9999.0","1012","29.89","-999","-999","-9999","-9999","-9999.00","-9999.00","Clear","clear","0","0","0","0","0","0","METAR UKKK 140030Z 09001MPS CAVOK 17/14 Q1012 R26/CLRD70 NOSIG"
"4:00 AM EEST on July 14, 2016","2016","07","14","04","00","Europe/Kiev","1:00 AM GMT on July 14, 2016","2016","07","14","01","00","UTC","17.0","62.6","14.0","57.2","82","3.6","2.2","-9999.0","-9999.0","0","Variable","-9999.0","-9999.0","1012","29.89","-999","-999","-9999","-9999","-9999.00","-9999.00","Clear","clear","0","0","0","0","0","0","METAR UKKK 140100Z VRB01MPS CAVOK 17/14 Q1012 R26/CLRD70 NOSIG"
"4:30 AM EEST on July 14, 2016","2016","07","14","04","30","Europe/Kiev","1:30 AM GMT on July 14, 2016","2016","07","14","01","30","UTC","19.0","66.2","15.0","59.0","78","3.6","2.2","-9999.0","-9999.0","0","Variable","-9999.0","-9999.0","1012","29.89","-999","-999","-9999","-9999","-9999.00","-9999.00","Clear","clear","0","0","0","0","0","0","METAR UKKK 140130Z VRB01MPS CAVOK 19/15 Q1012 R26/CLRD70 NOSIG"
"5:00 AM EEST on July 14, 2016","2016","07","14","05","00","Europe/Kiev","2:00 AM GMT on July 14, 2016","2016","07","14","02","00","UTC","20.0","68.0","15.0","59.0","73","7.2","4.5","-9999.0","-9999.0","190","South","-9999.0","-9999.0","1012","29.89","-999","-999","-9999","-9999","-9999.00","-9999.00","Clear","clear","0","0","0","0","0","0","METAR UKKK 140200Z 19002MPS 150V240 CAVOK 20/15 Q1012 R26/CLRD70 NOSIG"
"5:30 AM EEST on July 14, 2016","2016","07","14","05","30","Europe/Kiev","2:30 AM GMT on July 14, 2016","2016","07","14","02","30","UTC","19.0","66.2","15.0","59.0","78","10.8","6.7","-9999.0","-9999.0","210","SSW","-9999.0","-9999.0","1012","29.89","-999","-999","-9999","-9999","-9999.00","-9999.00","Clear","clear","0","0","0","0","0","0","METAR UKKK 140230Z 21003MPS 170V240 CAVOK 19/15 Q1012 R26/CLRD70 NOSIG"
"6:00 AM EEST on July 14, 2016","2016","07","14","06","00","Europe/Kiev","3:00 AM GMT on July 14, 2016","2016","07","14","03","00","UTC","20","68","15","59","66","7.2","4.5","","","210","SSW","20","12","1012","29.88","-999","-999","-9999","-9999","","","","","0","0","0","0","0","0","AAXX 14031 33345 42998 02102 10198 20151 39924 40118 57002 555 10018"
"6:00 AM EEST on July 14, 2016","2016","07","14","06","00","Europe/Kiev","3:00 AM GMT on July 14, 2016","2016","07","14","03","00","UTC","20.0","68.0","15.0","59.0","73","10.8","6.7","-9999.0","-9999.0","210","SSW","-9999.0","-9999.0","1012","29.89","-999","-999","-9999","-9999","-9999.00","-9999.00","Clear","clear","0","0","0","0","0","0","METAR UKKK 140300Z 21003MPS CAVOK 20/15 Q1012 R26/CLRD70 NOSIG"
"6:30 AM EEST on July 14, 2016","2016","07","14","06","30","Europe/Kiev","3:30 AM GMT on July 14, 2016","2016","07","14","03","30","UTC","20.0","68.0","16.0","60.8","78","7.2","4.5","-9999.0","-9999.0","270","West","-9999.0","-9999.0","1012","29.89","-999","-999","-9999","-9999","-9999.00","-9999.00","Clear","clear","0","0","0","0","0","0","METAR UKKK 140330Z 27002MPS 240V310 CAVOK 20/16 Q1012 R26/CLRD70 NOSIG"
"7:00 AM EEST on July 14, 2016","2016","07","14","07","00","Europe/Kiev","4:00 AM GMT on July 14, 2016","2016","07","14","04","00","UTC","22.0","71.6","17.0","62.6","73","0.0","0.0","-9999.0","-9999.0","0","North","-9999.0","-9999.0","1012","29.89","-999","-999","-9999","-9999","-9999.00","-9999.00","Clear","clear","0","0","0","0","0","0","METAR UKKK 140400Z 00000MPS CAVOK 22/17 Q1012 R26/CLRD70 NOSIG"
"7:30 AM EEST on July 14, 2016","2016","07","14","07","30","Europe/Kiev","4:30 AM GMT on July 14, 2016","2016","07","14","04","30","UTC","24.0","75.2","16.0","60.8","61","3.6","2.2","-9999.0","-9999.0","0","Variable","-9999.0","-9999.0","1012","29.89","-999","-999","-9999","-9999","-9999.00","-9999.00","Clear","clear","0","0","0","0","0","0","METAR UKKK 140430Z VRB01MPS CAVOK 24/16 Q1012 R26/CLRD70 NOSIG"
"8:00 AM EEST on July 14, 2016","2016","07","14","08","00","Europe/Kiev","5:00 AM GMT on July 14, 2016","2016","07","14","05","00","UTC","24.0","75.2","16.0","60.8","61","0.0","0.0","-9999.0","-9999.0","0","North","-9999.0","-9999.0","1012","29.89","-999","-999","-9999","-9999","-9999.00","-9999.00","Clear","clear","0","0","0","0","0","0","METAR UKKK 140500Z 00000MPS CAVOK 24/16 Q1012 R26/CLRD70 NOSIG"
"8:30 AM EEST on July 14, 2016","2016","07","14","08","30","Europe/Kiev","5:30 AM GMT on July 14, 2016","2016","07","14","05","30","UTC","25.0","77.0","17.0","62.6","61","3.6","2.2","-9999.0","-9999.0","0","Variable","-9999.0","-9999.0","1011","29.86","-999","-999","-9999","-9999","-9999.00","-9999.00","Clear","clear","0","0","0","0","0","0","METAR UKKK 140530Z VRB01MPS CAVOK 25/17 Q1011 R26/CLRD70 NOSIG"
"9:00 AM EEST on July 14, 2016","2016","07","14","09","00","Europe/Kiev","6:00 AM GMT on July 14, 2016","2016","07","14","06","00","UTC","26","78","18","64","54","7.2","4.5","","","180","South","20","12","1011","29.86","-999","-999","-9999","-9999","","","","","0","0","0","0","0","0","AAXX 14061 33345 32998 01802 10256 20180 39919 40109 57005 333 20187 555 10037"
"9:00 AM EEST on July 14, 2016","2016","07","14","09","00","Europe/Kiev","6:00 AM GMT on July 14, 2016","2016","07","14","06","00","UTC","26.0","78.8","17.0","62.6","57","3.6","2.2","-9999.0","-9999.0","0","Variable","-9999.0","-9999.0","1011","29.86","-999","-999","-9999","-9999","-9999.00","-9999.00","Clear","clear","0","0","0","0","0","0","METAR UKKK 140600Z VRB01MPS CAVOK 26/17 Q1011 R26/CLRD70 NOSIG"
"9:30 AM EEST on July 14, 2016","2016","07","14","09","30","Europe/Kiev","6:30 AM GMT on July 14, 2016","2016","07","14","06","30","UTC","27.0","80.6","17.0","62.6","54","10.8","6.7","-9999.0","-9999.0","170","South","-9999.0","-9999.0","1011","29.86","-999","-999","27.7","81.8","-9999.00","-9999.00","Clear","clear","0","0","0","0","0","0","METAR UKKK 140630Z 17003MPS 130V210 CAVOK 27/17 Q1011 R26/CLRD70 NOSIG"
"10:00 AM EEST on July 14, 2016","2016","07","14","10","00","Europe/Kiev","7:00 AM GMT on July 14, 2016","2016","07","14","07","00","UTC","28.0","82.4","17.0","62.6","51","10.8","6.7","-9999.0","-9999.0","170","South","-9999.0","-9999.0","1011","29.86","-999","-999","28.5","83.4","-9999.00","-9999.00","Clear","clear","0","0","0","0","0","0","METAR UKKK 140700Z 17003MPS 120V240 CAVOK 28/17 Q1011 R26/CLRD70 NOSIG"
"10:30 AM EEST on July 14, 2016","2016","07","14","10","30","Europe/Kiev","7:30 AM GMT on July 14, 2016","2016","07","14","07","30","UTC","28.0","82.4","16.0","60.8","48","14.4","8.9","-9999.0","-9999.0","180","South","-9999.0","-9999.0","1011","29.86","-999","-999","28.3","82.9","-9999.00","-9999.00","Clear","clear","0","0","0","0","0","0","METAR UKKK 140730Z 18004MPS 150V220 CAVOK 28/16 Q1011 R26/CLRD70 NOSIG"
"11:00 AM EEST on July 14, 2016","2016","07","14","11","00","Europe/Kiev","8:00 AM GMT on July 14, 2016","2016","07","14","08","00","UTC","28.0","82.4","15.0","59.0","45","14.4","8.9","-9999.0","-9999.0","170","South","-9999.0","-9999.0","1011","29.86","-999","-999","28.0","82.5","-9999.00","-9999.00","Clear","clear","0","0","0","0","0","0","METAR UKKK 140800Z 17004MPS 140V220 CAVOK 28/15 Q1011 R26/CLRD70 NOSIG"
"11:30 AM EEST on July 14, 2016","2016","07","14","11","30","Europe/Kiev","8:30 AM GMT on July 14, 2016","2016","07","14","08","30","UTC","29.0","84.2","15.0","59.0","42","14.4","8.9","-9999.0","-9999.0","190","South","-9999.0","-9999.0","1011","29.86","-999","-999","28.8","83.8","-9999.00","-9999.00","Clear","clear","0","0","0","0","0","0","METAR UKKK 140830Z 19004MPS 120V260 CAVOK 29/15 Q1011 R08/CLRD70 NOSIG"
"12:00 PM EEST on July 14, 2016","2016","07","14","12","00","Europe/Kiev","9:00 AM GMT on July 14, 2016","2016","07","14","09","00","UTC","30","85","13","56","27","18.0","11.2","","","190","South","20","12","1010","29.84","-999","-999","-9999","-9999","","","","","0","0","0","0","0","0","AAXX 14091 33345 42998 01905 10297 20134 39916 40104 57003 555 10049"
"12:00 PM EEST on July 14, 2016","2016","07","14","12","00","Europe/Kiev","9:00 AM GMT on July 14, 2016","2016","07","14","09","00","UTC","30.0","86.0","13.0","55.4","35","18.0","11.2","-9999.0","-9999.0","180","South","-9999.0","-9999.0","1011","29.86","-999","-999","29.2","84.5","-9999.00","-9999.00","Clear","clear","0","0","0","0","0","0","METAR UKKK 140900Z 18005MPS 120V230 CAVOK 30/13 Q1011 R08/CLRD70 NOSIG"
"12:30 PM EEST on July 14, 2016","2016","07","14","12","30","Europe/Kiev","9:30 AM GMT on July 14, 2016","2016","07","14","09","30","UTC","30.0","86.0","13.0","55.4","35","18.0","11.2","-9999.0","-9999.0","170","South","-9999.0","-9999.0","1011","29.86","-999","-999","29.2","84.5","-9999.00","-9999.00","Clear","clear","0","0","0","0","0","0","METAR UKKK 140930Z 17005MPS 130V230 CAVOK 30/13 Q1011 R08/CLRD70 NOSIG"
"1:00 PM EEST on July 14, 2016","2016","07","14","13","00","Europe/Kiev","10:00 AM GMT on July 14, 2016","2016","07","14","10","00","UTC","30.0","86.0","13.0","55.4","35","18.0","11.2","-9999.0","-9999.0","180","South","-9999.0","-9999.0","1011","29.86","-999","-999","29.2","84.5","-9999.00","-9999.00","Clear","clear","0","0","0","0","0","0","METAR UKKK 141000Z 18005MPS 130V230 CAVOK 30/13 Q1011 R08/CLRD70 NOSIG"
"1:30 PM EEST on July 14, 2016","2016","07","14","13","30","Europe/Kiev","10:30 AM GMT on July 14, 2016","2016","07","14","10","30","UTC","31.0","87.8","13.0","55.4","33","14.4","8.9","-9999.0","-9999.0","170","South","-9999.0","-9999.0","1010","29.83","-999","-999","30.0","86.1","-9999.00","-9999.00","Clear","clear","0","0","0","0","0","0","METAR UKKK 141030Z 17004MPS 120V220 CAVOK 31/13 Q1010 R26/CLRD70 NOSIG"
"2:00 PM EEST on July 14, 2016","2016","07","14","14","00","Europe/Kiev","11:00 AM GMT on July 14, 2016","2016","07","14","11","00","UTC","31.0","87.8","14.0","57.2","35","18.0","11.2","36.0","22.4","170","South","-9999.0","-9999.0","1010","29.83","-999","-999","30.3","86.5","-9999.00","-9999.00","Clear","clear","0","0","0","0","0","0","METAR UKKK 141100Z 17005G10MPS 130V240 CAVOK 31/14 Q1010 R26/CLRD70 NOSIG"
"2:30 PM EEST on July 14, 2016","2016","07","14","14","30","Europe/Kiev","11:30 AM GMT on July 14, 2016","2016","07","14","11","30","UTC","31.0","87.8","15.0","59.0","38","18.0","11.2","-9999.0","-9999.0","190","South","-9999.0","-9999.0","1010","29.83","-999","-999","30.6","87.1","-9999.00","-9999.00","Clear","clear","0","0","0","0","0","0","METAR UKKK 141130Z 19005MPS 150V230 CAVOK 31/15 Q1010 R26/CLRD70 NOSIG"
"3:00 PM EEST on July 14, 2016","2016","07","14","15","00","Europe/Kiev","12:00 PM GMT on July 14, 2016","2016","07","14","12","00","UTC","32","89","13","55","22","18.0","11.2","","","190","South","20","12","1009","29.79","-999","-999","-9999","-9999","","","","","0","0","0","0","0","0","AAXX 14121 33345 32998 01905 10315 20128 39902 40088 57014 555 10051"
"3:00 PM EEST on July 14, 2016","2016","07","14","15","00","Europe/Kiev","12:00 PM GMT on July 14, 2016","2016","07","14","12","00","UTC","31.0","87.8","14.0","57.2","35","18.0","11.2","-9999.0","-9999.0","180","South","-9999.0","-9999.0","1010","29.83","-999","-999","30.3","86.5","-9999.00","-9999.00","Clear","clear","0","0","0","0","0","0","METAR UKKK 141200Z 18005MPS 120V230 CAVOK 31/14 Q1010 R26/CLRD70 NOSIG"
"3:30 PM EEST on July 14, 2016","2016","07","14","15","30","Europe/Kiev","12:30 PM GMT on July 14, 2016","2016","07","14","12","30","UTC","31.0","87.8","14.0","57.2","35","14.4","8.9","-9999.0","-9999.0","160","SSE","-9999.0","-9999.0","1010","29.83","-999","-999","30.3","86.5","-9999.00","-9999.00","Clear","clear","0","0","0","0","0","0","METAR UKKK 141230Z 16004MPS 110V230 CAVOK 31/14 Q1010 R08/CLRD70 NOSIG"
"4:00 PM EEST on July 14, 2016","2016","07","14","16","00","Europe/Kiev","1:00 PM GMT on July 14, 2016","2016","07","14","13","00","UTC","31.0","87.8","14.0","57.2","35","14.4","8.9","-9999.0","-9999.0","170","South","-9999.0","-9999.0","1009","29.80","-999","-999","30.3","86.5","-9999.00","-9999.00","Clear","clear","0","0","0","0","0","0","METAR UKKK 141300Z 17004MPS 120V270 CAVOK 31/14 Q1009 R08/CLRD70 NOSIG"
"4:30 PM EEST on July 14, 2016","2016","07","14","16","30","Europe/Kiev","1:30 PM GMT on July 14, 2016","2016","07","14","13","30","UTC","31.0","87.8","13.0","55.4","33","14.4","8.9","-9999.0","-9999.0","150","SSE","-9999.0","-9999.0","1009","29.80","-999","-999","30.0","86.1","-9999.00","-9999.00","Clear","clear","0","0","0","0","0","0","METAR UKKK 141330Z 15004MPS 100V200 CAVOK 31/13 Q1009 R08/CLRD70 NOSIG"
"5:00 PM EEST on July 14, 2016","2016","07","14","17","00","Europe/Kiev","2:00 PM GMT on July 14, 2016","2016","07","14","14","00","UTC","31.0","87.8","13.0","55.4","33","14.4","8.9","-9999.0","-9999.0","170","South","-9999.0","-9999.0","1009","29.80","-999","-999","30.0","86.1","-9999.00","-9999.00","Clear","clear","0","0","0","0","0","0","METAR UKKK 141400Z 17004MPS 120V230 CAVOK 31/13 Q1009 R08/CLRD70 NOSIG"
"5:30 PM EEST on July 14, 2016","2016","07","14","17","30","Europe/Kiev","2:30 PM GMT on July 14, 2016","2016","07","14","14","30","UTC","31.0","87.8","13.0","55.4","33","14.4","8.9","-9999.0","-9999.0","150","SSE","-9999.0","-9999.0","1009","29.80","-999","-999","30.0","86.1","-9999.00","-9999.00","Clear","clear","0","0","0","0","0","0","METAR UKKK 141430Z 15004MPS 110V210 CAVOK 31/13 Q1009 R08/CLRD70 NOSIG"
"6:00 PM EEST on July 14, 2016","2016","07","14","18","00","Europe/Kiev","3:00 PM GMT on July 14, 2016","2016","07","14","15","00","UTC","31","88","12","54","21","14.4","8.9","","","190","South","20","12","1008","29.77","-999","-999","-9999","-9999","","","","","0","0","0","0","0","0","AAXX 14151 33345 42998 01904 10311 20122 39893 40079 57009 555 10044"
"6:00 PM EEST on July 14, 2016","2016","07","14","18","00","Europe/Kiev","3:00 PM GMT on July 14, 2016","2016","07","14","15","00","UTC","31.0","87.8","12.0","53.6","31","14.4","8.9","-9999.0","-9999.0","170","South","-9999.0","-9999.0","1009","29.80","-999","-999","29.8","85.7","-9999.00","-9999.00","Clear","clear","0","0","0","0","0","0","METAR UKKK 141500Z 17004MPS 140V220 CAVOK 31/12 Q1009 R08/CLRD70 NOSIG"
"6:30 PM EEST on July 14, 2016","2016","07","14","18","30","Europe/Kiev","3:30 PM GMT on July 14, 2016","2016","07","14","15","30","UTC","31.0","87.8","12.0","53.6","31","14.4","8.9","-9999.0","-9999.0","160","SSE","-9999.0","-9999.0","1009","29.80","-999","-999","29.8","85.7","-9999.00","-9999.00","Clear","clear","0","0","0","0","0","0","METAR UKKK 141530Z 16004MPS 120V220 CAVOK 31/12 Q1009 R08/CLRD70 NOSIG"
"7:00 PM EEST on July 14, 2016","2016","07","14","19","00","Europe/Kiev","4:00 PM GMT on July 14, 2016","2016","07","14","16","00","UTC","30.0","86.0","12.0","53.6","33","14.4","8.9","-9999.0","-9999.0","160","SSE","-9999.0","-9999.0","1009","29.80","-999","-999","29.0","84.2","-9999.00","-9999.00","Clear","clear","0","0","0","0","0","0","METAR UKKK 141600Z 16004MPS 110V230 CAVOK 30/12 Q1009 R08/CLRD70 NOSIG"
"7:30 PM EEST on July 14, 2016","2016","07","14","19","30","Europe/Kiev","4:30 PM GMT on July 14, 2016","2016","07","14","16","30","UTC","30.0","86.0","12.0","53.6","33","10.8","6.7","-9999.0","-9999.0","160","SSE","-9999.0","-9999.0","1009","29.80","-999","-999","29.0","84.2","-9999.00","-9999.00","Clear","clear","0","0","0","0","0","0","METAR UKKK 141630Z 16003MPS 110V220 CAVOK 30/12 Q1009 R08/CLRD70 NOSIG"
"8:00 PM EEST on July 14, 2016","2016","07","14","20","00","Europe/Kiev","5:00 PM GMT on July 14, 2016","2016","07","14","17","00","UTC","29.0","84.2","13.0","55.4","37","7.2","4.5","-9999.0","-9999.0","150","SSE","-9999.0","-9999.0","1009","29.80","-999","-999","28.4","83.0","-9999.00","-9999.00","Clear","clear","0","0","0","0","0","0","METAR UKKK 141700Z 15002MPS 120V200 CAVOK 29/13 Q1009 R08/CLRD70 NOSIG"
"8:30 PM EEST on July 14, 2016","2016","07","14","20","30","Europe/Kiev","5:30 PM GMT on July 14, 2016","2016","07","14","17","30","UTC","28.0","82.4","13.0","55.4","39","7.2","4.5","-9999.0","-9999.0","150","SSE","-9999.0","-9999.0","1008","29.77","-999","-999","27.6","81.7","-9999.00","-9999.00","Clear","clear","0","0","0","0","0","0","METAR UKKK 141730Z 15002MPS 110V200 CAVOK 28/13 Q1008 R08/CLRD70 NOSIG"
"9:00 PM EEST on July 14, 2016","2016","07","14","21","00","Europe/Kiev","6:00 PM GMT on July 14, 2016","2016","07","14","18","00","UTC","27","81","13","55","31","7.2","4.5","","","170","South","20","12","1008","29.77","-999","-999","-9999","-9999","","","","","0","0","0","0","0","0","AAXX 14181 33345 32998 01702 10270 20129 39891 40080 56002 333 10319 555 10025"
"9:00 PM EEST on July 14, 2016","2016","07","14","21","00","Europe/Kiev","6:00 PM GMT on July 14, 2016","2016","07","14","18","00","UTC","27.0","80.6","13.0","55.4","42","10.8","6.7","-9999.0","-9999.0","140","SE","-9999.0","-9999.0","1009","29.80","-999","-999","27.0","80.5","-9999.00","-9999.00","Clear","clear","0","0","0","0","0","0","METAR UKKK 141800Z 14003MPS 110V170 CAVOK 27/13 Q1009 R08/CLRD70 NOSIG"
"9:30 PM EEST on July 14, 2016","2016","07","14","21","30","Europe/Kiev","6:30 PM GMT on July 14, 2016","2016","07","14","18","30","UTC","27.0","80.6","12.0","53.6","39","10.8","6.7","-9999.0","-9999.0","140","SE","-9999.0","-9999.0","1009","29.80","-999","-999","26.8","80.3","-9999.00","-9999.00","Clear","clear","0","0","0","0","0","0","METAR UKKK 141830Z 14003MPS CAVOK 27/12 Q1009 R08/CLRD70 NOSIG"
"10:00 PM EEST on July 14, 2016","2016","07","14","22","00","Europe/Kiev","7:00 PM GMT on July 14, 2016","2016","07","14","19","00","UTC","26.0","78.8","12.0","53.6","42","10.8","6.7","-9999.0","-9999.0","140","SE","-9999.0","-9999.0","1009","29.80","-999","-999","-9999","-9999","-9999.00","-9999.00","Clear","clear","0","0","0","0","0","0","METAR UKKK 141900Z 14003MPS CAVOK 26/12 Q1009 R08/CLRD70 NOSIG"
"10:30 PM EEST on July 14, 2016","2016","07","14","22","30","Europe/Kiev","7:30 PM GMT on July 14, 2016","2016","07","14","19","30","UTC","25.0","77.0","12.0","53.6","44","10.8","6.7","-9999.0","-9999.0","130","SE","-9999.0","-9999.0","1009","29.80","-999","-999","-9999","-9999","-9999.00","-9999.00","Clear","clear","0","0","0","0","0","0","METAR UKKK 141930Z 13003MPS CAVOK 25/12 Q1009 R08/CLRD70 NOSIG"
"11:00 PM EEST on July 14, 2016","2016","07","14","23","00","Europe/Kiev","8:00 PM GMT on July 14, 2016","2016","07","14","20","00","UTC","25.0","77.0","12.0","53.6","44","10.8","6.7","-9999.0","-9999.0","130","SE","-9999.0","-9999.0","1009","29.80","-999","-999","-9999","-9999","-9999.00","-9999.00","Clear","clear","0","0","0","0","0","0","METAR UKKK 142000Z 13003MPS CAVOK 25/12 Q1009 R08/CLRD70 NOSIG"
"11:30 PM EEST on July 14, 2016","2016","07","14","23","30","Europe/Kiev","8:30 PM GMT on July 14, 2016","2016","07","14","20","30","UTC","25.0","77.0","12.0","53.6","44","10.8","6.7","-9999.0","-9999.0","140","SE","-9999.0","-9999.0","1009","29.80","-999","-999","-9999","-9999","-9999.00","-9999.00","Clear","clear","0","0","0","0","0","0","METAR UKKK 142030Z 14003MPS CAVOK 25/12 Q1009 R08/CLRD70 NOSIG"
"12:00 AM EEST on July 15, 2016","2016","07","15","00","00","Europe/Kiev","9:00 PM GMT on July 14, 2016","2016","07","14","21","00","UTC","24","76","14","57","41","7.2","4.5","","","190","South","20","12","1009","29.81","-999","-999","-9999","-9999","","","","","0","0","0","0","0","0","AAXX 14211 33345 42998 01902 10242 20139 39901 40092 53010 555 10022"
"12:00 AM EEST on July 15, 2016","2016","07","15","00","00","Europe/Kiev","9:00 PM GMT on July 14, 2016","2016","07","14","21","00","UTC","25.0","77.0","13.0","55.4","47","7.2","4.5","-9999.0","-9999.0","150","SSE","-9999.0","-9999.0","1009","29.80","-999","-999","-9999","-9999","-9999.00","-9999.00","Clear","clear","0","0","0","0","0","0","METAR UKKK 142100Z 15002MPS 110V180 CAVOK 25/13 Q1009 R08/CLRD70 NOSIG"
"12:30 AM EEST on July 15, 2016","2016","07","15","00","30","Europe/Kiev","9:30 PM GMT on July 14, 2016","2016","07","14","21","30","UTC","24.0","75.2","13.0","55.4","50","7.2","4.5","-9999.0","-9999.0","160","SSE","-9999.0","-9999.0","1009","29.80","-999","-999","-9999","-9999","-9999.00","-9999.00","Clear","clear","0","0","0","0","0","0","METAR UKKK 142130Z 16002MPS 110V210 CAVOK 24/13 Q1009 R08/CLRD70 NOSIG"
"1:00 AM EEST on July 15, 2016","2016","07","15","01","00","Europe/Kiev","10:00 PM GMT on July 14, 2016","2016","07","14","22","00","UTC","25.0","77.0","14.0","57.2","50","7.2","4.5","-9999.0","-9999.0","170","South","-9999.0","-9999.0","1010","29.83","-999","-999","-9999","-9999","-9999.00","-9999.00","Clear","clear","0","0","0","0","0","0","METAR UKKK 142200Z 17002MPS 120V220 CAVOK 25/14 Q1010 R08/CLRD70 NOSIG"
"1:30 AM EEST on July 15, 2016","2016","07","15","01","30","Europe/Kiev","10:30 PM GMT on July 14, 2016","2016","07","14","22","30","UTC","24.0","75.2","14.0","57.2","53","3.6","2.2","-9999.0","-9999.0","0","Variable","-9999.0","-9999.0","1010","29.83","-999","-999","-9999","-9999","-9999.00","-9999.00","Clear","clear","0","0","0","0","0","0","METAR UKKK 142230Z VRB01MPS CAVOK 24/14 Q1010 R08/CLRD70 NOSIG"
"2:00 AM EEST on July 15, 2016","2016","07","15","02","00","Europe/Kiev","11:00 PM GMT on July 14, 2016","2016","07","14","23","00","UTC","24.0","75.2","14.0","57.2","53","7.2","4.5","-9999.0","-9999.0","160","SSE","-9999.0","-9999.0","1010","29.83","-999","-999","-9999","-9999","-9999.00","-9999.00","Clear","clear","0","0","0","0","0","0","METAR UKKK 142300Z 16002MPS 130V200 CAVOK 24/14 Q1010 R08/CLRD70 NOSIG"
"2:30 AM EEST on July 15, 2016","2016","07","15","02","30","Europe/Kiev","11:30 PM GMT on July 14, 2016","2016","07","14","23","30","UTC","24.0","75.2","14.0","57.2","53","7.2","4.5","-9999.0","-9999.0","150","SSE","-9999.0","-9999.0","1010","29.83","-999","-999","-9999","-9999","-9999.00","-9999.00","Clear","clear","0","0","0","0","0","0","METAR UKKK 142330Z 15002MPS CAVOK 24/14 Q1010 R08/CLRD70 NOSIG"
"3:00 AM EEST on July 15, 2016","2016","07","15","03","00","Europe/Kiev","12:00 AM GMT on July 15, 2016","2016","07","15","00","00","UTC","20","68","15","60","68","7.2","4.5","","","160","SSE","20","12","1010","29.82","-999","-999","-9999","-9999","","","","","0","0","0","0","0","0","AAXX 15001 33345 32998 01602 10201 20154 39903 40096 52002 555 10019"
"3:00 AM EEST on July 15, 2016","2016","07","15","03","00","Europe/Kiev","12:00 AM GMT on July 15, 2016","2016","07","15","00","00","UTC","23.0","73.4","14.0","57.2","57","7.2","4.5","-9999.0","-9999.0","150","SSE","-9999.0","-9999.0","1010","29.83","-999","-999","-9999","-9999","-9999.00","-9999.00","Clear","clear","0","0","0","0","0","0","METAR UKKK 150000Z 15002MPS 120V180 CAVOK 23/14 Q1010 R08/CLRD70 NOSIG"
"3:30 AM EEST on July 15, 2016","2016","07","15","03","30","Europe/Kiev","12:30 AM GMT on July 15, 2016","2016","07","15","00","30","UTC","23.0","73.4","15.0","59.0","61","3.6","2.2","-9999.0","-9999.0","0","Variable","-9999.0","-9999.0","1010","29.83","-999","-999","-9999","-9999","-9999.00","-9999.00","Clear","clear","0","0","0","0","0","0","METAR UKKK 150030Z VRB01MPS CAVOK 23/15 Q1010 R08/CLRD70 NOSIG"
"4:00 AM EEST on July 15, 2016","2016","07","15","04","00","Europe/Kiev","1:00 AM GMT on July 15, 2016","2016","07","15","01","00","UTC","22.0","71.6","15.0","59.0","64","7.2","4.5","-9999.0","-9999.0","190","South","-9999.0","-9999.0","1010","29.83","-999","-999","-9999","-9999","-9999.00","-9999.00","Clear","clear","0","0","0","0","0","0","METAR UKKK 150100Z 19002MPS 120V260 CAVOK 22/15 Q1010 R08/CLRD70 NOSIG"
"4:30 AM EEST on July 15, 2016","2016","07","15","04","30","Europe/Kiev","1:30 AM GMT on July 15, 2016","2016","07","15","01","30","UTC","21.0","69.8","14.0","57.2","64","3.6","2.2","-9999.0","-9999.0","0","Variable","-9999.0","-9999.0","1010","29.83","-999","-999","-9999","-9999","-9999.00","-9999.00","Clear","clear","0","0","0","0","0","0","METAR UKKK 150130Z VRB01MPS CAVOK 21/14 Q1010 R08/CLRD70 NOSIG"
"5:00 AM EEST on July 15, 2016","2016","07","15","05","00","Europe/Kiev","2:00 AM GMT on July 15, 2016","2016","07","15","02","00","UTC","19.0","66.2","15.0","59.0","78","0.0","0.0","-9999.0","-9999.0","0","North","-9999.0","-9999.0","1010","29.83","-999","-999","-9999","-9999","-9999.00","-9999.00","Clear","clear","0","0","0","0","0","0","METAR UKKK 150200Z 00000MPS CAVOK 19/15 Q1010 R08/CLRD70 NOSIG"
"5:30 AM EEST on July 15, 2016","2016","07","15","05","30","Europe/Kiev","2:30 AM GMT on July 15, 2016","2016","07","15","02","30","UTC","17.0","62.6","15.0","59.0","88","0.0","0.0","-9999.0","-9999.0","0","North","-9999.0","-9999.0","1010","29.83","-999","-999","-9999","-9999","-9999.00","-9999.00","Clear","clear","0","0","0","0","0","0","METAR UKKK 150230Z 00000MPS CAVOK 17/15 Q1010 R08/CLRD70 NOSIG"
"6:00 AM EEST on July 15, 2016","2016","07","15","06","00","Europe/Kiev","3:00 AM GMT on July 15, 2016","2016","07","15","03","00","UTC","20","67","16","61","75","0.0","0.0","","","","","20","12","1010","29.83","-999","-999","-9999","-9999","","","","","0","0","0","0","0","0","AAXX 15031 33345 42998 00000 10196 20161 39908 40102 52005 555 10018"
"6:00 AM EEST on July 15, 2016","2016","07","15","06","00","Europe/Kiev","3:00 AM GMT on July 15, 2016","2016","07","15","03","00","UTC","19.0","66.2","15.0","59.0","78","0.0","0.0","-9999.0","-9999.0","0","North","-9999.0","-9999.0","1010","29.83","-999","-999","-9999","-9999","-9999.00","-9999.00","Clear","clear","0","0","0","0","0","0","METAR UKKK 150300Z 00000MPS CAVOK 19/15 Q1010 R08/CLRD70 NOSIG"
"6:30 AM EEST on July 15, 2016","2016","07","15","06","30","Europe/Kiev","3:30 AM GMT on July 15, 2016","2016","07","15","03","30","UTC","21.0","69.8","16.0","60.8","73","3.6","2.2","-9999.0","-9999.0","0","Variable","-9999.0","-9999.0","1010","29.83","-999","-999","-9999","-9999","-9999.00","-9999.00","Clear","clear","0","0","0","0","0","0","METAR UKKK 150330Z VRB01MPS CAVOK 21/16 Q1010 R08/CLRD70 NOSIG"
"7:00 AM EEST on July 15, 2016","2016","07","15","07","00","Europe/Kiev","4:00 AM GMT on July 15, 2016","2016","07","15","04","00","UTC","23.0","73.4","16.0","60.8","65","7.2","4.5","-9999.0","-9999.0","210","SSW","-9999.0","-9999.0","1011","29.86","-999","-999","-9999","-9999","-9999.00","-9999.00","Clear","clear","0","0","0","0","0","0","METAR UKKK 150400Z 21002MPS 170V250 CAVOK 23/16 Q1011 R08/CLRD70 NOSIG"
"7:30 AM EEST on July 15, 2016","2016","07","15","07","30","Europe/Kiev","4:30 AM GMT on July 15, 2016","2016","07","15","04","30","UTC","23.0","73.4","16.0","60.8","65","10.8","6.7","-9999.0","-9999.0","260","West","-9999.0","-9999.0","1011","29.86","-999","-999","-9999","-9999","-9999.00","-9999.00","Clear","clear","0","0","0","0","0","0","METAR UKKK 150430Z 26003MPS CAVOK 23/16 Q1011 R26/CLRD70 NOSIG"
"8:00 AM EEST on July 15, 2016","2016","07","15","08","00","Europe/Kiev","5:00 AM GMT on July 15, 2016","2016","07","15","05","00","UTC","24.0","75.2","16.0","60.8","61","14.4","8.9","-9999.0","-9999.0","270","West","-9999.0","-9999.0","1011","29.86","-999","-999","-9999","-9999","-9999.00","-9999.00","Clear","clear","0","0","0","0","0","0","METAR UKKK 150500Z 27004MPS CAVOK 24/16 Q1011 R26/CLRD70 NOSIG"
"8:30 AM EEST on July 15, 2016","2016","07","15","08","30","Europe/Kiev","5:30 AM GMT on July 15, 2016","2016","07","15","05","30","UTC","24.0","75.2","16.0","60.8","61","14.4","8.9","-9999.0","-9999.0","280","West","-9999.0","-9999.0","1011","29.86","-999","-999","-9999","-9999","-9999.00","-9999.00","Clear","clear","0","0","0","0","0","0","METAR UKKK 150530Z 28004MPS CAVOK 24/16 Q1011 R26/CLRD70 NOSIG"
"9:00 AM EEST on July 15, 2016","2016","07","15","09","00","Europe/Kiev","6:00 AM GMT on July 15, 2016","2016","07","15","06","00","UTC","26","78","16","60","44","10.8","6.7","","","300","WNW","20","12","1011","29.85","-999","-999","-9999","-9999","","","","","0","0","0","0","0","0","AAXX 15061 33345 32998 03003 10256 20156 39918 40108 52010 333 20186 555 10035"
"9:00 AM EEST on July 15, 2016","2016","07","15","09","00","Europe/Kiev","6:00 AM GMT on July 15, 2016","2016","07","15","06","00","UTC","26.0","78.8","16.0","60.8","54","10.8","6.7","-9999.0","-9999.0","290","WNW","-9999.0","-9999.0","1011","29.86","-999","-999","-9999","-9999","-9999.00","-9999.00","Clear","clear","0","0","0","0","0","0","METAR UKKK 150600Z 29003MPS 260V320 CAVOK 26/16 Q1011 R26/CLRD70 NOSIG"
"9:30 AM EEST on July 15, 2016","2016","07","15","09","30","Europe/Kiev","6:30 AM GMT on July 15, 2016","2016","07","15","06","30","UTC","26.0","78.8","17.0","62.6","57","10.8","6.7","-9999.0","-9999.0","310","NW","-9999.0","-9999.0","1012","29.89","-999","-999","-9999","-9999","-9999.00","-9999.00","Clear","clear","0","0","0","0","0","0","METAR UKKK 150630Z 31003MPS CAVOK 26/17 Q1012 R26/CLRD70 NOSIG"
"10:00 AM EEST on July 15, 2016","2016","07","15","10","00","Europe/Kiev","7:00 AM GMT on July 15, 2016","2016","07","15","07","00","UTC","27.0","80.6","17.0","62.6","54","10.8","6.7","-9999.0","-9999.0","310","NW","-9999.0","-9999.0","1012","29.89","-999","-999","27.7","81.8","-9999.00","-9999.00","Clear","clear","0","0","0","0","0","0","METAR UKKK 150700Z 31003MPS 280V340 CAVOK 27/17 Q1012 R26/CLRD70 NOSIG"
"10:30 AM EEST on July 15, 2016","2016","07","15","10","30","Europe/Kiev","7:30 AM GMT on July 15, 2016","2016","07","15","07","30","UTC","27.0","80.6","17.0","62.6","54","10.8","6.7","-9999.0","-9999.0","280","West","-9999.0","-9999.0","1012","29.89","-999","-999","27.7","81.8","-9999.00","-9999.00","Clear","clear","0","0","0","0","0","0","METAR UKKK 150730Z 28003MPS 240V320 CAVOK 27/17 Q1012 R26/CLRD70 NOSIG"
"11:00 AM EEST on July 15, 2016","2016","07","15","11","00","Europe/Kiev","8:00 AM GMT on July 15, 2016","2016","07","15","08","00","UTC","28.0","82.4","17.0","62.6","51","10.8","6.7","-9999.0","-9999.0","310","NW","-9999.0","-9999.0","1012","29.89","-999","-999","28.5","83.4","-9999.00","-9999.00","Clear","clear","0","0","0","0","0","0","METAR UKKK 150800Z 31003MPS 230V010 CAVOK 28/17 Q1012 R26/CLRD70 NOSIG"
"11:30 AM EEST on July 15, 2016","2016","07","15","11","30","Europe/Kiev","8:30 AM GMT on July 15, 2016","2016","07","15","08","30","UTC","28.0","82.4","16.0","60.8","48","7.2","4.5","-9999.0","-9999.0","300","WNW","-9999.0","-9999.0","1012","29.89","-999","-999","28.3","82.9","-9999.00","-9999.00","Clear","clear","0","0","0","0","0","0","METAR UKKK 150830Z 30002MPS CAVOK 28/16 Q1012 R26/CLRD70 NOSIG"
"12:00 PM EEST on July 15, 2016","2016","07","15","12","00","Europe/Kiev","9:00 AM GMT on July 15, 2016","2016","07","15","09","00","UTC","30","86","16","62","34","10.8","6.7","","","270","West","20","12","1011","29.87","-999","-999","-9999","-9999","","","","","0","0","0","0","0","0","AAXX 15091 33345 42998 02703 10302 20164 39927 40114 52009 555 10051"
"12:00 PM EEST on July 15, 2016","2016","07","15","12","00","Europe/Kiev","9:00 AM GMT on July 15, 2016","2016","07","15","09","00","UTC","29.0","84.2","17.0","62.6","48","10.8","6.7","-9999.0","-9999.0","310","NW","-9999.0","-9999.0","1012","29.89","-999","-999","29.4","85.0","-9999.00","-9999.00","Clear","clear","0","0","0","0","0","0","METAR UKKK 150900Z 31003MPS 250V010 CAVOK 29/17 Q1012 R26/CLRD70 NOSIG"
"12:30 PM EEST on July 15, 2016","2016","07","15","12","30","Europe/Kiev","9:30 AM GMT on July 15, 2016","2016","07","15","09","30","UTC","30.0","86.0","17.0","62.6","45","10.8","6.7","-9999.0","-9999.0","290","WNW","-9999.0","-9999.0","1012","29.89","-999","-999","30.3","86.6","-9999.00","-9999.00","Clear","clear","0","0","0","0","0","0","METAR UKKK 150930Z 29003MPS 250V040 CAVOK 30/17 Q1012 R26/CLRD70 NOSIG"
"1:00 PM EEST on July 15, 2016","2016","07","15","13","00","Europe/Kiev","10:00 AM GMT on July 15, 2016","2016","07","15","10","00","UTC","30.0","86.0","17.0","62.6","45","10.8","6.7","-9999.0","-9999.0","320","NW","-9999.0","-9999.0","1012","29.89","-999","-999","30.3","86.6","-9999.00","-9999.00","Clear","clear","0","0","0","0","0","0","METAR UKKK 151000Z 32003MPS CAVOK 30/17 Q1012 R26/CLRD70 NOSIG"
"1:30 PM EEST on July 15, 2016","2016","07","15","13","30","Europe/Kiev","10:30 AM GMT on July 15, 2016","2016","07","15","10","30","UTC","31.0","87.8","17.0","62.6","43","10.8","6.7","-9999.0","-9999.0","330","NNW","-9999.0","-9999.0","1012","29.89","-999","-999","31.4","88.5","-9999.00","-9999.00","Clear","clear","0","0","0","0","0","0","METAR UKKK 151030Z 33003MPS CAVOK 31/17 Q1012 R26/CLRD70 NOSIG"
"2:00 PM EEST on July 15, 2016","2016","07","15","14","00","Europe/Kiev","11:00 AM GMT on July 15, 2016","2016","07","15","11","00","UTC","31.0","87.8","18.0","64.4","46","10.8","6.7","-9999.0","-9999.0","280","West","-9999.0","-9999.0","1012","29.89","-999","-999","31.9","89.4","-9999.00","-9999.00","Clear","clear","0","0","0","0","0","0","METAR UKKK 151100Z 28003MPS 240V340 CAVOK 31/18 Q1012 R26/CLRD70 NOSIG"
"2:30 PM EEST on July 15, 2016","2016","07","15","14","30","Europe/Kiev","11:30 AM GMT on July 15, 2016","2016","07","15","11","30","UTC","31.0","87.8","17.0","62.6","43","10.8","6.7","-9999.0","-9999.0","290","WNW","-9999.0","-9999.0","1013","29.92","-999","-999","31.4","88.5","-9999.00","-9999.00","Clear","clear","0","0","0","0","0","0","METAR UKKK 151130Z 29003MPS 240V330 CAVOK 31/17 Q1013 R26/CLRD70 NOSIG"
"3:00 PM EEST on July 15, 2016","2016","07","15","15","00","Europe/Kiev","12:00 PM GMT on July 15, 2016","2016","07","15","12","00","UTC","32","90","16","60","27","7.2","4.5","","","320","NW","20","12","1012","29.88","-999","-999","-9999","-9999","","","","","0","0","0","0","0","0","AAXX 15121 33345 32998 03202 10321 20157 39931 40117 52004 555 10055"
"3:00 PM EEST on July 15, 2016","2016","07","15","15","00","Europe/Kiev","12:00 PM GMT on July 15, 2016","2016","07","15","12","00","UTC","31.0","87.8","17.0","62.6","43","14.4","8.9","-9999.0","-9999.0","260","West","-9999.0","-9999.0","1013","29.92","-999","-999","31.4","88.5","-9999.00","-9999.00","Clear","clear","0","0","0","0","0","0","METAR UKKK 151200Z 26004MPS 200V330 CAVOK 31/17 Q1013 R26/CLRD70 NOSIG"
"3:30 PM EEST on July 15, 2016","2016","07","15","15","30","Europe/Kiev","12:30 PM GMT on July 15, 2016","2016","07","15","12","30","UTC","31.0","87.8","17.0","62.6","43","18.0","11.2","-9999.0","-9999.0","300","WNW","-9999.0","-9999.0","1013","29.92","-999","-999","31.4","88.5","-9999.00","-9999.00","Clear","clear","0","0","0","0","0","0","METAR UKKK 151230Z 30005MPS 240V340 CAVOK 31/17 Q1013 R26/CLRD70 NOSIG"
"4:00 PM EEST on July 15, 2016","2016","07","15","16","00","Europe/Kiev","1:00 PM GMT on July 15, 2016","2016","07","15","13","00","UTC","31.0","87.8","18.0","64.4","46","14.4","8.9","-9999.0","-9999.0","300","WNW","-9999.0","-9999.0","1013","29.92","-999","-999","31.9","89.4","-9999.00","-9999.00","Clear","clear","0","0","0","0","0","0","METAR UKKK 151300Z 30004MPS 260V350 CAVOK 31/18 Q1013 R26/CLRD70 NOSIG"
"4:30 PM EEST on July 15, 2016","2016","07","15","16","30","Europe/Kiev","1:30 PM GMT on July 15, 2016","2016","07","15","13","30","UTC","31.0","87.8","16.0","60.8","40","18.0","11.2","-9999.0","-9999.0","300","WNW","-9999.0","-9999.0","1013","29.92","-999","-999","30.9","87.6","-9999.00","-9999.00","Clear","clear","0","0","0","0","0","0","METAR UKKK 151330Z 30005MPS 270V330 CAVOK 31/16 Q1013 R26/CLRD70 NOSIG"
"5:00 PM EEST on July 15, 2016","2016","07","15","17","00","Europe/Kiev","2:00 PM GMT on July 15, 2016","2016","07","15","14","00","UTC","31.0","87.8","16.0","60.8","40","25.2","15.7","-9999.0","-9999.0","290","WNW","-9999.0","-9999.0","1013","29.92","-999","-999","30.9","87.6","-9999.00","-9999.00","Clear","clear","0","0","0","0","0","0","METAR UKKK 151400Z 29007MPS CAVOK 31/16 Q1013 R26/CLRD70 NOSIG"
"5:30 PM EEST on July 15, 2016","2016","07","15","17","30","Europe/Kiev","2:30 PM GMT on July 15, 2016","2016","07","15","14","30","UTC","30.0","86.0","15.0","59.0","40","21.6","13.4","-9999.0","-9999.0","330","NNW","9.0","5.6","1013","29.92","-999","-999","29.7","85.4","-9999.00","-9999.00","Clear","clear","0","0","0","0","0","0","METAR UKKK 151430Z 33006MPS 9000 SKC 30/15 Q1013 R26/CLRD70 NOSIG"
"6:00 PM EEST on July 15, 2016","2016","07","15","18","00","Europe/Kiev","3:00 PM GMT on July 15, 2016","2016","07","15","15","00","UTC","30","86","14","57","27","14.4","8.9","","","310","NW","20","12","1012","29.89","-999","-999","-9999","-9999","","","","","0","0","0","0","0","0","AAXX 15151 33345 42998 03104 10301 20137 39934 40122 52003 555 10042"
"6:00 PM EEST on July 15, 2016","2016","07","15","18","00","Europe/Kiev","3:00 PM GMT on July 15, 2016","2016","07","15","15","00","UTC","30.0","86.0","15.0","59.0","40","21.6","13.4","-9999.0","-9999.0","320","NW","-9999.0","-9999.0","1013","29.92","-999","-999","29.7","85.4","-9999.00","-9999.00","Clear","clear","0","0","0","0","0","0","METAR UKKK 151500Z 32006MPS CAVOK 30/15 Q1013 R26/CLRD70 NOSIG"
"6:30 PM EEST on July 15, 2016","2016","07","15","18","30","Europe/Kiev","3:30 PM GMT on July 15, 2016","2016","07","15","15","30","UTC","29.0","84.2","14.0","57.2","40","18.0","11.2","-9999.0","-9999.0","330","NNW","9.0","5.6","1013","29.92","-999","-999","28.6","83.5","-9999.00","-9999.00","Clear","clear","0","0","0","0","0","0","METAR UKKK 151530Z 33005MPS 300V360 9000 SKC 29/14 Q1013 R26/CLRD70 NOSIG"
"7:00 PM EEST on July 15, 2016","2016","07","15","19","00","Europe/Kiev","4:00 PM GMT on July 15, 2016","2016","07","15","16","00","UTC","29.0","84.2","14.0","57.2","40","25.2","15.7","-9999.0","-9999.0","310","NW","9.0","5.6","1014","29.95","-999","-999","28.6","83.5","-9999.00","-9999.00","Clear","clear","0","0","0","0","0","0","METAR UKKK 151600Z 31007MPS 9000 SKC 29/14 Q1014 R26/CLRD70 NOSIG"
"7:30 PM EEST on July 15, 2016","2016","07","15","19","30","Europe/Kiev","4:30 PM GMT on July 15, 2016","2016","07","15","16","30","UTC","28.0","82.4","14.0","57.2","42","21.6","13.4","-9999.0","-9999.0","320","NW","9.0","5.6","1014","29.95","-999","-999","27.8","82.0","-9999.00","-9999.00","Clear","clear","0","0","0","0","0","0","METAR UKKK 151630Z 32006MPS 9000 SKC 28/14 Q1014 R26/CLRD70 NOSIG"
"8:00 PM EEST on July 15, 2016","2016","07","15","20","00","Europe/Kiev","5:00 PM GMT on July 15, 2016","2016","07","15","17","00","UTC","28.0","82.4","13.0","55.4","39","18.0","11.2","-9999.0","-9999.0","320","NW","9.0","5.6","1014","29.95","-999","-999","27.6","81.7","-9999.00","-9999.00","Unknown","unknown","0","0","0","0","0","0","METAR UKKK 151700Z 32005MPS 9000 NSC 28/13 Q1014 R26/CLRD70 NOSIG"
"8:30 PM EEST on July 15, 2016","2016","07","15","20","30","Europe/Kiev","5:30 PM GMT on July 15, 2016","2016","07","15","17","30","UTC","27.0","80.6","13.0","55.4","42","18.0","11.2","-9999.0","-9999.0","330","NNW","-9999.0","-9999.0","1014","29.95","-999","-999","27.0","80.5","-9999.00","-9999.00","Clear","clear","0","0","0","0","0","0","METAR UKKK 151730Z 33005MPS CAVOK 27/13 Q1014 R26/CLRD70 NOSIG"
"9:00 PM EEST on July 15, 2016","2016","07","15","21","00","Europe/Kiev","6:00 PM GMT on July 15, 2016","2016","07","15","18","00","UTC","27","81","12","54","28","14.4","8.9","","","330","NNW","20","12","1014","29.94","-999","-999","-9999","-9999","","","Scattered Clouds","partlycloudy","0","0","0","0","0","0","AAXX 15181 33345 32998 23304 10270 20120 39947 40137 52013 82030 333 10326 555 10027"
"9:00 PM EEST on July 15, 2016","2016","07","15","21","00","Europe/Kiev","6:00 PM GMT on July 15, 2016","2016","07","15","18","00","UTC","26.0","78.8","12.0","53.6","42","18.0","11.2","-9999.0","-9999.0","320","NW","-9999.0","-9999.0","1015","29.98","-999","-999","-9999","-9999","-9999.00","-9999.00","Clear","clear","0","0","0","0","0","0","METAR UKKK 151800Z 32005MPS CAVOK 26/12 Q1015 R26/CLRD70 NOSIG"
"9:30 PM EEST on July 15, 2016","2016","07","15","21","30","Europe/Kiev","6:30 PM GMT on July 15, 2016","2016","07","15","18","30","UTC","25.0","77.0","12.0","53.6","44","21.6","13.4","-9999.0","-9999.0","320","NW","-9999.0","-9999.0","1015","29.98","-999","-999","-9999","-9999","-9999.00","-9999.00","Clear","clear","0","0","0","0","0","0","METAR UKKK 151830Z 32006MPS 300V360 CAVOK 25/12 Q1015 R26/CLRD70 NOSIG"
"10:00 PM EEST on July 15, 2016","2016","07","15","22","00","Europe/Kiev","7:00 PM GMT on July 15, 2016","2016","07","15","19","00","UTC","24.0","75.2","12.0","53.6","47","21.6","13.4","-9999.0","-9999.0","330","NNW","-9999.0","-9999.0","1015","29.98","-999","-999","-9999","-9999","-9999.00","-9999.00","Clear","clear","0","0","0","0","0","0","METAR UKKK 151900Z 33006MPS CAVOK 24/12 Q1015 R26/CLRD70 NOSIG"
"10:30 PM EEST on July 15, 2016","2016","07","15","22","30","Europe/Kiev","7:30 PM GMT on July 15, 2016","2016","07","15","19","30","UTC","23.0","73.4","12.0","53.6","50","18.0","11.2","-9999.0","-9999.0","330","NNW","-9999.0","-9999.0","1015","29.98","-999","-999","-9999","-9999","-9999.00","-9999.00","Clear","clear","0","0","0","0","0","0","METAR UKKK 151930Z 33005MPS CAVOK 23/12 Q1015 R26/CLRD70 NOSIG"
"11:00 PM EEST on July 15, 2016","2016","07","15","23","00","Europe/Kiev","8:00 PM GMT on July 15, 2016","2016","07","15","20","00","UTC","23.0","73.4","12.0","53.6","50","21.6","13.4","-9999.0","-9999.0","330","NNW","-9999.0","-9999.0","1016","30.01","-999","-999","-9999","-9999","-9999.00","-9999.00","Clear","clear","0","0","0","0","0","0","METAR UKKK 152000Z 33006MPS CAVOK 23/12 Q1016 R26/CLRD70 NOSIG"
"11:30 PM EEST on July 15, 2016","2016","07","15","23","30","Europe/Kiev","8:30 PM GMT on July 15, 2016","2016","07","15","20","30","UTC","22.0","71.6","12.0","53.6","53","21.6","13.4","-9999.0","-9999.0","340","NNW","-9999.0","-9999.0","1016","30.01","-999","-999","-9999","-9999","-9999.00","-9999.00","Clear","clear","0","0","0","0","0","0","METAR UKKK 152030Z 34006MPS 310V030 CAVOK 22/12 Q1016 R26/CLRD70 NOSIG"
"12:00 AM EEST on July 16, 2016","2016","07","16","00","00","Europe/Kiev","9:00 PM GMT on July 15, 2016","2016","07","15","21","00","UTC","22","72","12","54","43","14.4","8.9","","","350","North","20","12","1015","29.99","-999","-999","-9999","-9999","","","","","0","0","0","0","0","0","AAXX 15211 33345 42998 03504 10224 20124 39960 40153 52013 555 10022"
"12:00 AM EEST on July 16, 2016","2016","07","16","00","00","Europe/Kiev","9:00 PM GMT on July 15, 2016","2016","07","15","21","00","UTC","21.0","69.8","12.0","53.6","56","18.0","11.2","-9999.0","-9999.0","350","North","-9999.0","-9999.0","1016","30.01","-999","-999","-9999","-9999","-9999.00","-9999.00","Clear","clear","0","0","0","0","0","0","METAR UKKK 152100Z 35005MPS 310V030 CAVOK 21/12 Q1016 R26/CLRD70 NOSIG"
"12:30 AM EEST on July 16, 2016","2016","07","16","00","30","Europe/Kiev","9:30 PM GMT on July 15, 2016","2016","07","15","21","30","UTC","21.0","69.8","12.0","53.6","56","18.0","11.2","-9999.0","-9999.0","350","North","-9999.0","-9999.0","1016","30.01","-999","-999","-9999","-9999","-9999.00","-9999.00","Clear","clear","0","0","0","0","0","0","METAR UKKK 152130Z 35005MPS 320V020 CAVOK 21/12 Q1016 R26/CLRD70 NOSIG"
"1:00 AM EEST on July 16, 2016","2016","07","16","01","00","Europe/Kiev","10:00 PM GMT on July 15, 2016","2016","07","15","22","00","UTC","20.0","68.0","12.0","53.6","60","18.0","11.2","-9999.0","-9999.0","360","North","-9999.0","-9999.0","1016","30.01","-999","-999","-9999","-9999","-9999.00","-9999.00","Clear","clear","0","0","0","0","0","0","METAR UKKK 152200Z 36005MPS 330V030 CAVOK 20/12 Q1016 R26/CLRD70 NOSIG"
"1:30 AM EEST on July 16, 2016","2016","07","16","01","30","Europe/Kiev","10:30 PM GMT on July 15, 2016","2016","07","15","22","30","UTC","20.0","68.0","12.0","53.6","60","18.0","11.2","-9999.0","-9999.0","360","North","-9999.0","-9999.0","1016","30.01","-999","-999","-9999","-9999","-9999.00","-9999.00","Clear","clear","0","0","0","0","0","0","METAR UKKK 152230Z 36005MPS 330V040 CAVOK 20/12 Q1016 R26/CLRD70 NOSIG"
"2:00 AM EEST on July 16, 2016","2016","07","16","02","00","Europe/Kiev","11:00 PM GMT on July 15, 2016","2016","07","15","23","00","UTC","19.0","66.2","12.0","53.6","64","18.0","11.2","-9999.0","-9999.0","360","North","-9999.0","-9999.0","1017","30.04","-999","-999","-9999","-9999","-9999.00","-9999.00","Clear","clear","0","0","0","0","0","0","METAR UKKK 152300Z 36005MPS 340V040 CAVOK 19/12 Q1017 R26/CLRD70 NOSIG"
"2:30 AM EEST on July 16, 2016","2016","07","16","02","30","Europe/Kiev","11:30 PM GMT on July 15, 2016","2016","07","15","23","30","UTC","19.0","66.2","12.0","53.6","64","18.0","11.2","-9999.0","-9999.0","360","North","-9999.0","-9999.0","1017","30.04","-999","-999","-9999","-9999","-9999.00","-9999.00","Clear","clear","0","0","0","0","0","0","METAR UKKK 152330Z 36005MPS 330V030 CAVOK 19/12 Q1017 R26/CLRD70 NOSIG"
"3:00 AM EEST on July 16, 2016","2016","07","16","03","00","Europe/Kiev","12:00 AM GMT on July 16, 2016","2016","07","16","00","00","UTC","20","67","14","57","62","14.4","8.9","","","20","NNE","20","12","1017","30.02","-999","-999","-9999","-9999","","","Scattered Clouds","partlycloudy","0","0","0","0","0","0","AAXX 16001 33345 32998 20204 10195 20138 39971 40166 52011 82030 555 10020"
"3:00 AM EEST on July 16, 2016","2016","07","16","03","00","Europe/Kiev","12:00 AM GMT on July 16, 2016","2016","07","16","00","00","UTC","19.0","66.2","12.0","53.6","64","14.4","8.9","-9999.0","-9999.0","360","North","-9999.0","-9999.0","1017","30.04","-999","-999","-9999","-9999","-9999.00","-9999.00","Clear","clear","0","0","0","0","0","0","METAR UKKK 160000Z 36004MPS 320V040 CAVOK 19/12 Q1017 R26/CLRD70 NOSIG"
"3:30 AM EEST on July 16, 2016","2016","07","16","03","30","Europe/Kiev","12:30 AM GMT on July 16, 2016","2016","07","16","00","30","UTC","18.0","64.4","12.0","53.6","68","14.4","8.9","-9999.0","-9999.0","10","North","-9999.0","-9999.0","1017","30.04","-999","-999","-9999","-9999","-9999.00","-9999.00","Clear","clear","0","0","0","0","0","0","METAR UKKK 160030Z 01004MPS 340V050 CAVOK 18/12 Q1017 R26/CLRD70 NOSIG"
"4:00 AM EEST on July 16, 2016","2016","07","16","04","00","Europe/Kiev","1:00 AM GMT on July 16, 2016","2016","07","16","01","00","UTC","19.0","66.2","13.0","55.4","68","18.0","11.2","-9999.0","-9999.0","10","North","-9999.0","-9999.0","1017","30.04","-999","-999","-9999","-9999","-9999.00","-9999.00","Clear","clear","0","0","0","0","0","0","METAR UKKK 160100Z 01005MPS 340V050 CAVOK 19/13 Q1017 R26/CLRD70 NOSIG"
"4:30 AM EEST on July 16, 2016","2016","07","16","04","30","Europe/Kiev","1:30 AM GMT on July 16, 2016","2016","07","16","01","30","UTC","18.0","64.4","13.0","55.4","73","21.6","13.4","-9999.0","-9999.0","30","NNE","-9999.0","-9999.0","1017","30.04","-999","-999","-9999","-9999","-9999.00","-9999.00","Clear","clear","0","0","0","0","0","0","METAR UKKK 160130Z 03006MPS 350V060 CAVOK 18/13 Q1017 R26/CLRD70 NOSIG"
"5:00 AM EEST on July 16, 2016","2016","07","16","05","00","Europe/Kiev","2:00 AM GMT on July 16, 2016","2016","07","16","02","00","UTC","18.0","64.4","13.0","55.4","73","21.6","13.4","-9999.0","-9999.0","20","NNE","-9999.0","-9999.0","1017","30.04","-999","-999","-9999","-9999","-9999.00","-9999.00","Clear","clear","0","0","0","0","0","0","METAR UKKK 160200Z 02006MPS 350V050 CAVOK 18/13 Q1017 R26/CLRD70 NOSIG"
"5:30 AM EEST on July 16, 2016","2016","07","16","05","30","Europe/Kiev","2:30 AM GMT on July 16, 2016","2016","07","16","02","30","UTC","18.0","64.4","12.0","53.6","68","25.2","15.7","-9999.0","-9999.0","20","NNE","-9999.0","-9999.0","1017","30.04","-999","-999","-9999","-9999","-9999.00","-9999.00","Clear","clear","0","0","0","0","0","0","METAR UKKK 160230Z 02007MPS 350V050 CAVOK 18/12 Q1017 R08/CLRD70 NOSIG"
"6:00 AM EEST on July 16, 2016","2016","07","16","06","00","Europe/Kiev","3:00 AM GMT on July 16, 2016","2016","07","16","03","00","UTC","18","64","12","53","60","14.4","8.9","","","10","North","20","12","1017","30.04","-999","-999","-9999","-9999","","","Scattered Clouds","partlycloudy","0","0","0","0","0","0","AAXX 16031 33345 42998 60104 10179 20119 39973 40170 52002 82031 555 10018"
"6:00 AM EEST on July 16, 2016","2016","07","16","06","00","Europe/Kiev","3:00 AM GMT on July 16, 2016","2016","07","16","03","00","UTC","18.0","64.4","12.0","53.6","68","25.2","15.7","-9999.0","-9999.0","10","North","-9999.0","-9999.0","1017","30.04","-999","-999","-9999","-9999","-9999.00","-9999.00","Clear","clear","0","0","0","0","0","0","METAR UKKK 160300Z 01007MPS 350V050 CAVOK 18/12 Q1017 R08/CLRD70 TEMPO 02010G17MPS"
"6:30 AM EEST on July 16, 2016","2016","07","16","06","30","Europe/Kiev","3:30 AM GMT on July 16, 2016","2016","07","16","03","30","UTC","18.0","64.4","12.0","53.6","68","25.2","15.7","-9999.0","-9999.0","20","NNE","-9999.0","-9999.0","1017","30.04","-999","-999","-9999","-9999","-9999.00","-9999.00","Clear","clear","0","0","0","0","0","0","METAR UKKK 160330Z 02007MPS CAVOK 18/12 Q1017 R08/CLRD70 TEMPO 02010G17MPS"
"7:00 AM EEST on July 16, 2016","2016","07","16","07","00","Europe/Kiev","4:00 AM GMT on July 16, 2016","2016","07","16","04","00","UTC","18.0","64.4","12.0","53.6","68","21.6","13.4","-9999.0","-9999.0","20","NNE","-9999.0","-9999.0","1017","30.04","-999","-999","-9999","-9999","-9999.00","-9999.00","Clear","clear","0","0","0","0","0","0","METAR UKKK 160400Z 02006MPS CAVOK 18/12 Q1017 R08/CLRD70 TEMPO 02010G17MPS"
"7:30 AM EEST on July 16, 2016","2016","07","16","07","30","Europe/Kiev","4:30 AM GMT on July 16, 2016","2016","07","16","04","30","UTC","19.0","66.2","13.0","55.4","68","25.2","15.7","-9999.0","-9999.0","20","NNE","-9999.0","-9999.0","1017","30.04","-999","-999","-9999","-9999","-9999.00","-9999.00","Clear","clear","0","0","0","0","0","0","METAR UKKK 160430Z 02007MPS CAVOK 19/13 Q1017 R08/CLRD70 TEMPO 02010G17MPS"
"8:00 AM EEST on July 16, 2016","2016","07","16","08","00","Europe/Kiev","5:00 AM GMT on July 16, 2016","2016","07","16","05","00","UTC","19.0","66.2","12.0","53.6","64","25.2","15.7","-9999.0","-9999.0","20","NNE","-9999.0","-9999.0","1017","30.04","-999","-999","-9999","-9999","-9999.00","-9999.00","Clear","clear","0","0","0","0","0","0","METAR UKKK 160500Z 02007MPS CAVOK 19/12 Q1017 R08/CLRD70 NOSIG"
"8:30 AM EEST on July 16, 2016","2016","07","16","08","30","Europe/Kiev","5:30 AM GMT on July 16, 2016","2016","07","16","05","30","UTC","20.0","68.0","13.0","55.4","64","21.6","13.4","-9999.0","-9999.0","10","North","-9999.0","-9999.0","1017","30.04","-999","-999","-9999","-9999","-9999.00","-9999.00","Clear","clear","0","0","0","0","0","0","METAR UKKK 160530Z 01006MPS CAVOK 20/13 Q1017 R08/CLRD70 NOSIG"
"9:00 AM EEST on July 16, 2016","2016","07","16","09","00","Europe/Kiev","6:00 AM GMT on July 16, 2016","2016","07","16","06","00","UTC","20","67","13","55","55","18.0","11.2","","","20","NNE","20","12","1017","30.02","-999","-999","-9999","-9999","","","Scattered Clouds","partlycloudy","0","0","0","0","0","0","AAXX 16061 33345 32998 70205 10197 20126 39971 40166 58002 82031 333 20178 555 10028"
"9:00 AM EEST on July 16, 2016","2016","07","16","09","00","Europe/Kiev","6:00 AM GMT on July 16, 2016","2016","07","16","06","00","UTC","21.0","69.8","13.0","55.4","60","21.6","13.4","-9999.0","-9999.0","20","NNE","-9999.0","-9999.0","1017","30.04","-999","-999","-9999","-9999","-9999.00","-9999.00","Clear","clear","0","0","0","0","0","0","METAR UKKK 160600Z 02006MPS CAVOK 21/13 Q1017 R08/CLRD70 NOSIG"
"9:30 AM EEST on July 16, 2016","2016","07","16","09","30","Europe/Kiev","6:30 AM GMT on July 16, 2016","2016","07","16","06","30","UTC","22.0","71.6","14.0","57.2","60","21.6","13.4","-9999.0","-9999.0","20","NNE","-9999.0","-9999.0","1017","30.04","-999","-999","-9999","-9999","-9999.00","-9999.00","Clear","clear","0","0","0","0","0","0","METAR UKKK 160630Z 02006MPS 340V040 CAVOK 22/14 Q1017 R08/CLRD70 NOSIG"
"10:00 AM EEST on July 16, 2016","2016","07","16","10","00","Europe/Kiev","7:00 AM GMT on July 16, 2016","2016","07","16","07","00","UTC","22.0","71.6","14.0","57.2","60","21.6","13.4","-9999.0","-9999.0","20","NNE","-9999.0","-9999.0","1017","30.04","-999","-999","-9999","-9999","-9999.00","-9999.00","Clear","clear","0","0","0","0","0","0","METAR UKKK 160700Z 02006MPS 340V040 CAVOK 22/14 Q1017 R08/CLRD70 NOSIG"
"10:30 AM EEST on July 16, 2016","2016","07","16","10","30","Europe/Kiev","7:30 AM GMT on July 16, 2016","2016","07","16","07","30","UTC","23.0","73.4","14.0","57.2","57","25.2","15.7","-9999.0","-9999.0","360","North","-9999.0","-9999.0","1017","30.04","-999","-999","-9999","-9999","-9999.00","-9999.00","Clear","clear","0","0","0","0","0","0","METAR UKKK 160730Z 36007MPS CAVOK 23/14 Q1017 R08/CLRD70 NOSIG"
"11:00 AM EEST on July 16, 2016","2016","07","16","11","00","Europe/Kiev","8:00 AM GMT on July 16, 2016","2016","07","16","08","00","UTC","23.0","73.4","15.0","59.0","61","21.6","13.4","-9999.0","-9999.0","10","North","-9999.0","-9999.0","1017","30.04","-999","-999","-9999","-9999","-9999.00","-9999.00","Clear","clear","0","0","0","0","0","0","METAR UKKK 160800Z 01006MPS 350V050 CAVOK 23/15 Q1017 R08/CLRD70 NOSIG"
"11:30 AM EEST on July 16, 2016","2016","07","16","11","30","Europe/Kiev","8:30 AM GMT on July 16, 2016","2016","07","16","08","30","UTC","24.0","75.2","15.0","59.0","57","21.6","13.4","-9999.0","-9999.0","20","NNE","-9999.0","-9999.0","1017","30.04","-999","-999","-9999","-9999","-9999.00","-9999.00","Clear","clear","0","0","0","0","0","0","METAR UKKK 160830Z 02006MPS 340V050 CAVOK 24/15 Q1017 R08/CLRD70 NOSIG"
"12:00 PM EEST on July 16, 2016","2016","07","16","12","00","Europe/Kiev","9:00 AM GMT on July 16, 2016","2016","07","16","09","00","UTC","24","75","15","59","47","14.4","8.9","","","20","NNE","20","12","1016","30.00","-999","-999","-9999","-9999","","","Clear","clear","0","0","0","0","0","0","AAXX 16091 33345 42998 10204 10240 20148 39967 40159 57004 80001 555 10044"
"12:00 PM EEST on July 16, 2016","2016","07","16","12","00","Europe/Kiev","9:00 AM GMT on July 16, 2016","2016","07","16","09","00","UTC","25.0","77.0","15.0","59.0","54","21.6","13.4","-9999.0","-9999.0","10","North","-9999.0","-9999.0","1016","30.01","-999","-999","-9999","-9999","-9999.00","-9999.00","Clear","clear","0","0","0","0","0","0","METAR UKKK 160900Z 01006MPS CAVOK 25/15 Q1016 R08/CLRD70 NOSIG"
"12:30 PM EEST on July 16, 2016","2016","07","16","12","30","Europe/Kiev","9:30 AM GMT on July 16, 2016","2016","07","16","09","30","UTC","25.0","77.0","15.0","59.0","54","21.6","13.4","-9999.0","-9999.0","10","North","-9999.0","-9999.0","1016","30.01","-999","-999","-9999","-9999","-9999.00","-9999.00","Clear","clear","0","0","0","0","0","0","METAR UKKK 160930Z 01006MPS CAVOK 25/15 Q1016 R08/CLRD70 NOSIG"
"1:00 PM EEST on July 16, 2016","2016","07","16","13","00","Europe/Kiev","10:00 AM GMT on July 16, 2016","2016","07","16","10","00","UTC","26.0","78.8","15.0","59.0","51","25.2","15.7","-9999.0","-9999.0","30","NNE","-9999.0","-9999.0","1016","30.01","-999","-999","-9999","-9999","-9999.00","-9999.00","Clear","clear","0","0","0","0","0","0","METAR UKKK 161000Z 03007MPS CAVOK 26/15 Q1016 R08/CLRD70 NOSIG"
"1:30 PM EEST on July 16, 2016","2016","07","16","13","30","Europe/Kiev","10:30 AM GMT on July 16, 2016","2016","07","16","10","30","UTC","26.0","78.8","15.0","59.0","51","21.6","13.4","-9999.0","-9999.0","20","NNE","-9999.0","-9999.0","1016","30.01","-999","-999","-9999","-9999","-9999.00","-9999.00","Clear","clear","0","0","0","0","0","0","METAR UKKK 161030Z 02006MPS 350V050 CAVOK 26/15 Q1016 R08/CLRD70 NOSIG"
"2:00 PM EEST on July 16, 2016","2016","07","16","14","00","Europe/Kiev","11:00 AM GMT on July 16, 2016","2016","07","16","11","00","UTC","27.0","80.6","15.0","59.0","48","21.6","13.4","-9999.0","-9999.0","10","North","-9999.0","-9999.0","1016","30.01","-999","-999","27.3","81.1","-9999.00","-9999.00","Clear","clear","0","0","0","0","0","0","METAR UKKK 161100Z 01006MPS 340V050 CAVOK 27/15 Q1016 R08/CLRD70 NOSIG"
"2:30 PM EEST on July 16, 2016","2016","07","16","14","30","Europe/Kiev","11:30 AM GMT on July 16, 2016","2016","07","16","11","30","UTC","27.0","80.6","15.0","59.0","48","18.0","11.2","-9999.0","-9999.0","20","NNE","-9999.0","-9999.0","1016","30.01","-999","-999","27.3","81.1","-9999.00","-9999.00","Clear","clear","0","0","0","0","0","0","METAR UKKK 161130Z 02005MPS 350V060 CAVOK 27/15 Q1016 R08/CLRD70 NOSIG"
"3:00 PM EEST on July 16, 2016","2016","07","16","15","00","Europe/Kiev","12:00 PM GMT on July 16, 2016","2016","07","16","12","00","UTC","27","81","15","59","36","18.0","11.2","","","0","North","20","12","1015","29.98","-999","-999","-9999","-9999","","","","","0","0","0","0","0","0","AAXX 16121 33345 32998 03605 10273 20148 39961 40151 57006 555 10048"
"3:00 PM EEST on July 16, 2016","2016","07","16","15","00","Europe/Kiev","12:00 PM GMT on July 16, 2016","2016","07","16","12","00","UTC","28.0","82.4","15.0","59.0","45","21.6","13.4","-9999.0","-9999.0","30","NNE","-9999.0","-9999.0","1016","30.01","-999","-999","28.0","82.5","-9999.00","-9999.00","Clear","clear","0","0","0","0","0","0","METAR UKKK 161200Z 03006MPS 360V070 CAVOK 28/15 Q1016 R08/CLRD70 NOSIG"
"3:30 PM EEST on July 16, 2016","2016","07","16","15","30","Europe/Kiev","12:30 PM GMT on July 16, 2016","2016","07","16","12","30","UTC","28.0","82.4","16.0","60.8","48","21.6","13.4","-9999.0","-9999.0","20","NNE","-9999.0","-9999.0","1016","30.01","-999","-999","28.3","82.9","-9999.00","-9999.00","Clear","clear","0","0","0","0","0","0","METAR UKKK 161230Z 02006MPS 360V060 CAVOK 28/16 Q1016 R08/CLRD70 NOSIG"
"4:00 PM EEST on July 16, 2016","2016","07","16","16","00","Europe/Kiev","1:00 PM GMT on July 16, 2016","2016","07","16","13","00","UTC","28.0","82.4","15.0","59.0","45","25.2","15.7","-9999.0","-9999.0","20","NNE","-9999.0","-9999.0","1016","30.01","-999","-999","28.0","82.5","-9999.00","-9999.00","Clear","clear","0","0","0","0","0","0","METAR UKKK 161300Z 02007MPS 350V050 CAVOK 28/15 Q1016 R08/CLRD70 NOSIG"
"4:30 PM EEST on July 16, 2016","2016","07","16","16","30","Europe/Kiev","1:30 PM GMT on July 16, 2016","2016","07","16","13","30","UTC","29.0","84.2","16.0","60.8","45","21.6","13.4","-9999.0","-9999.0","20","NNE","-9999.0","-9999.0","1015","29.98","-999","-999","29.1","84.4","-9999.00","-9999.00","Clear","clear","0","0","0","0","0","0","METAR UKKK 161330Z 02006MPS 360V060 CAVOK 29/16 Q1015 R08/CLRD70 NOSIG"
"5:00 PM EEST on July 16, 2016","2016","07","16","17","00","Europe/Kiev","2:00 PM GMT on July 16, 2016","2016","07","16","14","00","UTC","29.0","84.2","16.0","60.8","45","21.6","13.4","-9999.0","-9999.0","20","NNE","-9999.0","-9999.0","1015","29.98","-999","-999","29.1","84.4","-9999.00","-9999.00","Clear","clear","0","0","0","0","0","0","METAR UKKK 161400Z 02006MPS 350V060 CAVOK 29/16 Q1015 R08/CLRD70 NOSIG"
"5:30 PM EEST on July 16, 2016","2016","07","16","17","30","Europe/Kiev","2:30 PM GMT on July 16, 2016","2016","07","16","14","30","UTC","29.0","84.2","17.0","62.6","48","21.6","13.4","-9999.0","-9999.0","20","NNE","-9999.0","-9999.0","1015","29.98","-999","-999","29.4","85.0","-9999.00","-9999.00","Clear","clear","0","0","0","0","0","0","METAR UKKK 161430Z 02006MPS 320V070 CAVOK 29/17 Q1015 R08/CLRD70 NOSIG"
"6:00 PM EEST on July 16, 2016","2016","07","16","18","00","Europe/Kiev","3:00 PM GMT on July 16, 2016","2016","07","16","15","00","UTC","29","84","16","62","37","10.8","6.7","","","60","ENE","20","12","1014","29.96","-999","-999","-9999","-9999","","","","","0","0","0","0","0","0","AAXX 16151 33345 42998 00603 10291 20165 39956 40145 56005 555 10048"
"6:00 PM EEST on July 16, 2016","2016","07","16","18","00","Europe/Kiev","3:00 PM GMT on July 16, 2016","2016","07","16","15","00","UTC","29.0","84.2","17.0","62.6","48","21.6","13.4","-9999.0","-9999.0","40","NE","9.0","5.6","1015","29.98","-999","-999","29.4","85.0","-9999.00","-9999.00","Unknown","unknown","0","0","0","0","0","0","METAR UKKK 161500Z 04006MPS 010V070 9000 NSC 29/17 Q1015 R08/CLRD70 NOSIG"
"6:30 PM EEST on July 16, 2016","2016","07","16","18","30","Europe/Kiev","3:30 PM GMT on July 16, 2016","2016","07","16","15","30","UTC","29.0","84.2","16.0","60.8","45","21.6","13.4","-9999.0","-9999.0","70","ENE","9.0","5.6","1015","29.98","-999","-999","29.1","84.4","-9999.00","-9999.00","Unknown","unknown","0","0","0","0","0","0","METAR UKKK 161530Z 07006MPS 9000 NSC 29/16 Q1015 R08/CLRD70 NOSIG"
"7:00 PM EEST on July 16, 2016","2016","07","16","19","00","Europe/Kiev","4:00 PM GMT on July 16, 2016","2016","07","16","16","00","UTC","28.0","82.4","16.0","60.8","48","21.6","13.4","-9999.0","-9999.0","50","NE","9.0","5.6","1015","29.98","-999","-999","28.3","82.9","-9999.00","-9999.00","Unknown","unknown","0","0","0","0","0","0","METAR UKKK 161600Z 05006MPS 9000 NSC 28/16 Q1015 R08/CLRD70 NOSIG"
"7:30 PM EEST on July 16, 2016","2016","07","16","19","30","Europe/Kiev","4:30 PM GMT on July 16, 2016","2016","07","16","16","30","UTC","28.0","82.4","17.0","62.6","51","18.0","11.2","-9999.0","-9999.0","50","NE","-9999.0","-9999.0","1015","29.98","-999","-999","28.5","83.4","-9999.00","-9999.00","Clear","clear","0","0","0","0","0","0","METAR UKKK 161630Z 05005MPS CAVOK 28/17 Q1015 R08/CLRD70 NOSIG"
"8:00 PM EEST on July 16, 2016","2016","07","16","20","00","Europe/Kiev","5:00 PM GMT on July 16, 2016","2016","07","16","17","00","UTC","27.0","80.6","16.0","60.8","51","18.0","11.2","-9999.0","-9999.0","50","NE","-9999.0","-9999.0","1015","29.98","-999","-999","27.5","81.5","-9999.00","-9999.00","Clear","clear","0","0","0","0","0","0","METAR UKKK 161700Z 05005MPS CAVOK 27/16 Q1015 R08/CLRD70 NOSIG"
"8:30 PM EEST on July 16, 2016","2016","07","16","20","30","Europe/Kiev","5:30 PM GMT on July 16, 2016","2016","07","16","17","30","UTC","26.0","78.8","17.0","62.6","57","14.4","8.9","-9999.0","-9999.0","40","NE","-9999.0","-9999.0","1015","29.98","-999","-999","-9999","-9999","-9999.00","-9999.00","Clear","clear","0","0","0","0","0","0","METAR UKKK 161730Z 04004MPS CAVOK 26/17 Q1015 R08/CLRD70 NOSIG"
"9:00 PM EEST on July 16, 2016","2016","07","16","21","00","Europe/Kiev","6:00 PM GMT on July 16, 2016","2016","07","16","18","00","UTC","26","79","16","62","46","14.4","8.9","","","40","NE","20","12","1014","29.96","-999","-999","-9999","-9999","","","","","0","0","0","0","0","0","AAXX 16181 33345 32998 00404 10260 20165 39954 40144 58002 333 10292 555 10026"
"9:00 PM EEST on July 16, 2016","2016","07","16","21","00","Europe/Kiev","6:00 PM GMT on July 16, 2016","2016","07","16","18","00","UTC","26.0","78.8","16.0","60.8","54","21.6","13.4","-9999.0","-9999.0","40","NE","-9999.0","-9999.0","1015","29.98","-999","-999","-9999","-9999","-9999.00","-9999.00","Clear","clear","0","0","0","0","0","0","METAR UKKK 161800Z 04006MPS CAVOK 26/16 Q1015 R08/CLRD70 NOSIG"
"9:30 PM EEST on July 16, 2016","2016","07","16","21","30","Europe/Kiev","6:30 PM GMT on July 16, 2016","2016","07","16","18","30","UTC","25.0","77.0","16.0","60.8","57","18.0","11.2","-9999.0","-9999.0","40","NE","-9999.0","-9999.0","1015","29.98","-999","-999","-9999","-9999","-9999.00","-9999.00","Clear","clear","0","0","0","0","0","0","METAR UKKK 161830Z 04005MPS CAVOK 25/16 Q1015 R08/CLRD70 NOSIG"
"10:00 PM EEST on July 16, 2016","2016","07","16","22","00","Europe/Kiev","7:00 PM GMT on July 16, 2016","2016","07","16","19","00","UTC","25.0","77.0","16.0","60.8","57","21.6","13.4","-9999.0","-9999.0","50","NE","-9999.0","-9999.0","1015","29.98","-999","-999","-9999","-9999","-9999.00","-9999.00","Clear","clear","0","0","0","0","0","0","METAR UKKK 161900Z 05006MPS CAVOK 25/16 Q1015 R08/CLRD70 NOSIG"
"10:30 PM EEST on July 16, 2016","2016","07","16","22","30","Europe/Kiev","7:30 PM GMT on July 16, 2016","2016","07","16","19","30","UTC","25.0","77.0","16.0","60.8","57","18.0","11.2","-9999.0","-9999.0","40","NE","-9999.0","-9999.0","1015","29.98","-999","-999","-9999","-9999","-9999.00","-9999.00","Clear","clear","0","0","0","0","0","0","METAR UKKK 161930Z 04005MPS CAVOK 25/16 Q1015 R08/CLRD70 NOSIG"
"11:00 PM EEST on July 16, 2016","2016","07","16","23","00","Europe/Kiev","8:00 PM GMT on July 16, 2016","2016","07","16","20","00","UTC","24.0","75.2","16.0","60.8","61","21.6","13.4","-9999.0","-9999.0","40","NE","-9999.0","-9999.0","1015","29.98","-999","-999","-9999","-9999","-9999.00","-9999.00","Clear","clear","0","0","0","0","0","0","METAR UKKK 162000Z 04006MPS CAVOK 24/16 Q1015 R08/CLRD70 NOSIG"
"11:30 PM EEST on July 16, 2016","2016","07","16","23","30","Europe/Kiev","8:30 PM GMT on July 16, 2016","2016","07","16","20","30","UTC","24.0","75.2","16.0","60.8","61","21.6","13.4","-9999.0","-9999.0","40","NE","-9999.0","-9999.0","1015","29.98","-999","-999","-9999","-9999","-9999.00","-9999.00","Clear","clear","0","0","0","0","0","0","METAR UKKK 162030Z 04006MPS CAVOK 24/16 Q1015 R08/CLRD70 NOSIG"
"12:00 AM EEST on July 17, 2016","2016","07","17","00","00","Europe/Kiev","9:00 PM GMT on July 16, 2016","2016","07","16","21","00","UTC","24","74","16","61","54","10.8","6.7","","","20","NNE","20","12","1015","29.98","-999","-999","-9999","-9999","","","","","0","0","0","0","0","0","AAXX 16211 33345 42998 00203 10236 20159 39958 40150 53004 555 10023"
"12:00 AM EEST on July 17, 2016","2016","07","17","00","00","Europe/Kiev","9:00 PM GMT on July 16, 2016","2016","07","16","21","00","UTC","24.0","75.2","16.0","60.8","61","18.0","11.2","-9999.0","-9999.0","30","NNE","-9999.0","-9999.0","1015","29.98","-999","-999","-9999","-9999","-9999.00","-9999.00","Clear","clear","0","0","0","0","0","0","METAR UKKK 162100Z 03005MPS CAVOK 24/16 Q1015 R08/CLRD70 NOSIG"
"12:30 AM EEST on July 17, 2016","2016","07","17","00","30","Europe/Kiev","9:30 PM GMT on July 16, 2016","2016","07","16","21","30","UTC","24.0","75.2","16.0","60.8","61","18.0","11.2","-9999.0","-9999.0","50","NE","-9999.0","-9999.0","1015","29.98","-999","-999","-9999","-9999","-9999.00","-9999.00","Clear","clear","0","0","0","0","0","0","METAR UKKK 162130Z 05005MPS CAVOK 24/16 Q1015 R08/CLRD70 NOSIG"
"1:00 AM EEST on July 17, 2016","2016","07","17","01","00","Europe/Kiev","10:00 PM GMT on July 16, 2016","2016","07","16","22","00","UTC","23.0","73.4","16.0","60.8","65","18.0","11.2","-9999.0","-9999.0","50","NE","-9999.0","-9999.0","1015","29.98","-999","-999","-9999","-9999","-9999.00","-9999.00","Clear","clear","0","0","0","0","0","0","METAR UKKK 162200Z 05005MPS CAVOK 23/16 Q1015 R08/CLRD70 NOSIG"
"1:30 AM EEST on July 17, 2016","2016","07","17","01","30","Europe/Kiev","10:30 PM GMT on July 16, 2016","2016","07","16","22","30","UTC","23.0","73.4","16.0","60.8","65","14.4","8.9","-9999.0","-9999.0","50","NE","-9999.0","-9999.0","1015","29.98","-999","-999","-9999","-9999","-9999.00","-9999.00","Clear","clear","0","0","0","0","0","0","METAR UKKK 162230Z 05004MPS CAVOK 23/16 Q1015 R08/CLRD70 NOSIG"
"2:00 AM EEST on July 17, 2016","2016","07","17","02","00","Europe/Kiev","11:00 PM GMT on July 16, 2016","2016","07","16","23","00","UTC","22.0","71.6","16.0","60.8","69","14.4","8.9","-9999.0","-9999.0","50","NE","-9999.0","-9999.0","1015","29.98","-999","-999","-9999","-9999","-9999.00","-9999.00","Clear","clear","0","0","0","0","0","0","METAR UKKK 162300Z 05004MPS CAVOK 22/16 Q1015 R08/CLRD70 NOSIG"
"2:30 AM EEST on July 17, 2016","2016","07","17","02","30","Europe/Kiev","11:30 PM GMT on July 16, 2016","2016","07","16","23","30","UTC","22.0","71.6","16.0","60.8","69","18.0","11.2","-9999.0","-9999.0","60","ENE","-9999.0","-9999.0","1014","29.95","-999","-999","-9999","-9999","-9999.00","-9999.00","Clear","clear","0","0","0","0","0","0","METAR UKKK 162330Z 06005MPS CAVOK 22/16 Q1014 R08/CLRD70 NOSIG"
"3:00 AM EEST on July 17, 2016","2016","07","17","03","00","Europe/Kiev","12:00 AM GMT on July 17, 2016","2016","07","17","00","00","UTC","22","71","16","60","61","10.8","6.7","","","30","NNE","20","12","1014","29.96","-999","-999","-9999","-9999","","","","","0","0","0","0","0","0","AAXX 17001 33345 32998 00303 10218 20157 39950 40143 58008 555 10021"
"3:00 AM EEST on July 17, 2016","2016","07","17","03","00","Europe/Kiev","12:00 AM GMT on July 17, 2016","2016","07","17","00","00","UTC","21.0","69.8","16.0","60.8","73","14.4","8.9","-9999.0","-9999.0","50","NE","-9999.0","-9999.0","1014","29.95","-999","-999","-9999","-9999","-9999.00","-9999.00","Clear","clear","0","0","0","0","0","0","METAR UKKK 170000Z 05004MPS CAVOK 21/16 Q1014 R08/CLRD70 NOSIG"
"3:30 AM EEST on July 17, 2016","2016","07","17","03","30","Europe/Kiev","12:30 AM GMT on July 17, 2016","2016","07","17","00","30","UTC","22.0","71.6","16.0","60.8","69","18.0","11.2","-9999.0","-9999.0","60","ENE","-9999.0","-9999.0","1014","29.95","-999","-999","-9999","-9999","-9999.00","-9999.00","Clear","clear","0","0","0","0","0","0","METAR UKKK 170030Z 06005MPS CAVOK 22/16 Q1014 R08/CLRD70 NOSIG"
"4:00 AM EEST on July 17, 2016","2016","07","17","04","00","Europe/Kiev","1:00 AM GMT on July 17, 2016","2016","07","17","01","00","UTC","21.0","69.8","16.0","60.8","73","18.0","11.2","-9999.0","-9999.0","60","ENE","-9999.0","-9999.0","1014","29.95","-999","-999","-9999","-9999","-9999.00","-9999.00","Clear","clear","0","0","0","0","0","0","METAR UKKK 170100Z 06005MPS CAVOK 21/16 Q1014 R08/CLRD70 NOSIG"
"4:30 AM EEST on July 17, 2016","2016","07","17","04","30","Europe/Kiev","1:30 AM GMT on July 17, 2016","2016","07","17","01","30","UTC","21.0","69.8","16.0","60.8","73","21.6","13.4","-9999.0","-9999.0","50","NE","-9999.0","-9999.0","1014","29.95","-999","-999","-9999","-9999","-9999.00","-9999.00","Clear","clear","0","0","0","0","0","0","METAR UKKK 170130Z 05006MPS CAVOK 21/16 Q1014 R08/CLRD70 NOSIG"
"5:00 AM EEST on July 17, 2016","2016","07","17","05","00","Europe/Kiev","2:00 AM GMT on July 17, 2016","2016","07","17","02","00","UTC","21.0","69.8","16.0","60.8","73","18.0","11.2","-9999.0","-9999.0","60","ENE","-9999.0","-9999.0","1013","29.92","-999","-999","-9999","-9999","-9999.00","-9999.00","Clear","clear","0","0","0","0","0","0","METAR UKKK 170200Z 06005MPS CAVOK 21/16 Q1013 R08/CLRD70 NOSIG"
"5:30 AM EEST on July 17, 2016","2016","07","17","05","30","Europe/Kiev","2:30 AM GMT on July 17, 2016","2016","07","17","02","30","UTC","21.0","69.8","16.0","60.8","73","18.0","11.2","-9999.0","-9999.0","60","ENE","-9999.0","-9999.0","1013","29.92","-999","-999","-9999","-9999","-9999.00","-9999.00","Clear","clear","0","0","0","0","0","0","METAR UKKK 170230Z 06005MPS CAVOK 21/16 Q1013 R08/CLRD70 NOSIG"
"6:00 AM EEST on July 17, 2016","2016","07","17","06","00","Europe/Kiev","3:00 AM GMT on July 17, 2016","2016","07","17","03","00","UTC","20","69","16","62","71","7.2","4.5","","","50","NE","20","12","1013","29.92","-999","-999","-9999","-9999","","","","","0","0","0","0","0","0","AAXX 17031 33345 42998 00502 10204 20164 39938 40132 57012 555 10020"
"6:00 AM EEST on July 17, 2016","2016","07","17","06","00","Europe/Kiev","3:00 AM GMT on July 17, 2016","2016","07","17","03","00","UTC","21.0","69.8","16.0","60.8","73","14.4","8.9","-9999.0","-9999.0","60","ENE","-9999.0","-9999.0","1013","29.92","-999","-999","-9999","-9999","-9999.00","-9999.00","Clear","clear","0","0","0","0","0","0","METAR UKKK 170300Z 06004MPS CAVOK 21/16 Q1013 R08/CLRD70 NOSIG"
"6:30 AM EEST on July 17, 2016","2016","07","17","06","30","Europe/Kiev","3:30 AM GMT on July 17, 2016","2016","07","17","03","30","UTC","21.0","69.8","17.0","62.6","78","18.0","11.2","-9999.0","-9999.0","60","ENE","-9999.0","-9999.0","1013","29.92","-999","-999","-9999","-9999","-9999.00","-9999.00","Clear","clear","0","0","0","0","0","0","METAR UKKK 170330Z 06005MPS CAVOK 21/17 Q1013 R08/CLRD70 NOSIG"
"7:00 AM EEST on July 17, 2016","2016","07","17","07","00","Europe/Kiev","4:00 AM GMT on July 17, 2016","2016","07","17","04","00","UTC","21.0","69.8","17.0","62.6","78","18.0","11.2","-9999.0","-9999.0","60","ENE","-9999.0","-9999.0","1013","29.92","-999","-999","-9999","-9999","-9999.00","-9999.00","Clear","clear","0","0","0","0","0","0","METAR UKKK 170400Z 06005MPS CAVOK 21/17 Q1013 R08/CLRD70 NOSIG"
"7:30 AM EEST on July 17, 2016","2016","07","17","07","30","Europe/Kiev","4:30 AM GMT on July 17, 2016","2016","07","17","04","30","UTC","22.0","71.6","17.0","62.6","73","18.0","11.2","-9999.0","-9999.0","60","ENE","-9999.0","-9999.0","1013","29.92","-999","-999","-9999","-9999","-9999.00","-9999.00","Clear","clear","0","0","0","0","0","0","METAR UKKK 170430Z 06005MPS CAVOK 22/17 Q1013 R08/CLRD70 NOSIG"
"8:00 AM EEST on July 17, 2016","2016","07","17","08","00","Europe/Kiev","5:00 AM GMT on July 17, 2016","2016","07","17","05","00","UTC","23.0","73.4","18.0","64.4","73","18.0","11.2","-9999.0","-9999.0","60","ENE","-9999.0","-9999.0","1012","29.89","-999","-999","-9999","-9999","-9999.00","-9999.00","Clear","clear","0","0","0","0","0","0","METAR UKKK 170500Z 06005MPS CAVOK 23/18 Q1012 R08/CLRD70 NOSIG"
"8:30 AM EEST on July 17, 2016","2016","07","17","08","30","Europe/Kiev","5:30 AM GMT on July 17, 2016","2016","07","17","05","30","UTC","23.0","73.4","18.0","64.4","73","18.0","11.2","-9999.0","-9999.0","60","ENE","-9999.0","-9999.0","1012","29.89","-999","-999","-9999","-9999","-9999.00","-9999.00","Clear","clear","0","0","0","0","0","0","METAR UKKK 170530Z 06005MPS CAVOK 23/18 Q1012 R08/CLRD70 NOSIG"
"9:00 AM EEST on July 17, 2016","2016","07","17","09","00","Europe/Kiev","6:00 AM GMT on July 17, 2016","2016","07","17","06","00","UTC","24","76","18","65","62","10.8","6.7","","","50","NE","20","12","1012","29.87","-999","-999","-9999","-9999","","","","","0","0","0","0","0","0","AAXX 17061 33345 32998 00503 10243 20185 39924 40115 57014 333 20204 555 10035"
"9:00 AM EEST on July 17, 2016","2016","07","17","09","00","Europe/Kiev","6:00 AM GMT on July 17, 2016","2016","07","17","06","00","UTC","24.0","75.2","19.0","66.2","73","14.4","8.9","-9999.0","-9999.0","60","ENE","-9999.0","-9999.0","1012","29.89","-999","-999","-9999","-9999","-9999.00","-9999.00","Clear","clear","0","0","0","0","0","0","METAR UKKK 170600Z 06004MPS CAVOK 24/19 Q1012 R08/CLRD70 NOSIG"
"9:30 AM EEST on July 17, 2016","2016","07","17","09","30","Europe/Kiev","6:30 AM GMT on July 17, 2016","2016","07","17","06","30","UTC","25.0","77.0","19.0","66.2","69","14.4","8.9","-9999.0","-9999.0","60","ENE","-9999.0","-9999.0","1012","29.89","-999","-999","-9999","-9999","-9999.00","-9999.00","Clear","clear","0","0","0","0","0","0","METAR UKKK 170630Z 06004MPS 040V110 CAVOK 25/19 Q1012 R08/CLRD70 NOSIG"
"10:00 AM EEST on July 17, 2016","2016","07","17","10","00","Europe/Kiev","7:00 AM GMT on July 17, 2016","2016","07","17","07","00","UTC","26.0","78.8","19.0","66.2","65","14.4","8.9","-9999.0","-9999.0","90","East","-9999.0","-9999.0","1011","29.86","-999","-999","-9999","-9999","-9999.00","-9999.00","Clear","clear","0","0","0","0","0","0","METAR UKKK 170700Z 09004MPS 060V120 CAVOK 26/19 Q1011 R08/CLRD70 NOSIG"
"10:30 AM EEST on July 17, 2016","2016","07","17","10","30","Europe/Kiev","7:30 AM GMT on July 17, 2016","2016","07","17","07","30","UTC","27.0","80.6","20.0","68.0","65","14.4","8.9","-9999.0","-9999.0","80","East","-9999.0","-9999.0","1011","29.86","-999","-999","28.5","83.2","-9999.00","-9999.00","Clear","clear","0","0","0","0","0","0","METAR UKKK 170730Z 08004MPS 050V110 CAVOK 27/20 Q1011 R08/CLRD70 NOSIG"
"11:00 AM EEST on July 17, 2016","2016","07","17","11","00","Europe/Kiev","8:00 AM GMT on July 17, 2016","2016","07","17","08","00","UTC","28.0","82.4","20.0","68.0","62","14.4","8.9","-9999.0","-9999.0","80","East","-9999.0","-9999.0","1011","29.86","-999","-999","29.7","85.4","-9999.00","-9999.00","Clear","clear","0","0","0","0","0","0","METAR UKKK 170800Z 08004MPS 050V110 CAVOK 28/20 Q1011 R08/CLRD70 NOSIG"
"11:30 AM EEST on July 17, 2016","2016","07","17","11","30","Europe/Kiev","8:30 AM GMT on July 17, 2016","2016","07","17","08","30","UTC","29.0","84.2","20.0","68.0","58","14.4","8.9","-9999.0","-9999.0","70","ENE","-9999.0","-9999.0","1011","29.86","-999","-999","30.7","87.3","-9999.00","-9999.00","Clear","clear","0","0","0","0","0","0","METAR UKKK 170830Z 07004MPS 040V100 CAVOK 29/20 Q1011 R08/CLRD70 NOSIG"
"12:00 PM EEST on July 17, 2016","2016","07","17","12","00","Europe/Kiev","9:00 AM GMT on July 17, 2016","2016","07","17","09","00","UTC","30","85","20","67","46","10.8","6.7","","","80","East","20","12","1010","29.82","-999","-999","-9999","-9999","","","","","0","0","0","0","0","0","AAXX 17091 33345 42998 00803 10297 20197 39911 40098 57013 555 10052"
"12:00 PM EEST on July 17, 2016","2016","07","17","12","00","Europe/Kiev","9:00 AM GMT on July 17, 2016","2016","07","17","09","00","UTC","29.0","84.2","20.0","68.0","58","14.4","8.9","-9999.0","-9999.0","70","ENE","-9999.0","-9999.0","1011","29.86","-999","-999","30.7","87.3","-9999.00","-9999.00","Clear","clear","0","0","0","0","0","0","METAR UKKK 170900Z 07004MPS 040V100 CAVOK 29/20 Q1011 R08/CLRD70 NOSIG"
"12:30 PM EEST on July 17, 2016","2016","07","17","12","30","Europe/Kiev","9:30 AM GMT on July 17, 2016","2016","07","17","09","30","UTC","30.0","86.0","21.0","69.8","58","14.4","8.9","-9999.0","-9999.0","90","East","-9999.0","-9999.0","1010","29.83","-999","-999","32.4","90.4","-9999.00","-9999.00","Clear","clear","0","0","0","0","0","0","METAR UKKK 170930Z 09004MPS 060V150 CAVOK 30/21 Q1010 R08/CLRD70 NOSIG"
"1:00 PM EEST on July 17, 2016","2016","07","17","13","00","Europe/Kiev","10:00 AM GMT on July 17, 2016","2016","07","17","10","00","UTC","32.0","89.6","21.0","69.8","52","14.4","8.9","-9999.0","-9999.0","80","East","-9999.0","-9999.0","1010","29.83","-999","-999","34.9","94.7","-9999.00","-9999.00","Clear","clear","0","0","0","0","0","0","METAR UKKK 171000Z 08004MPS 030V120 CAVOK 32/21 Q1010 R08/CLRD70 NOSIG"
"1:30 PM EEST on July 17, 2016","2016","07","17","13","30","Europe/Kiev","10:30 AM GMT on July 17, 2016","2016","07","17","10","30","UTC","32.0","89.6","20.0","68.0","49","14.4","8.9","-9999.0","-9999.0","120","ESE","-9999.0","-9999.0","1010","29.83","-999","-999","34.1","93.4","-9999.00","-9999.00","Clear","clear","0","0","0","0","0","0","METAR UKKK 171030Z 12004MPS 080V170 CAVOK 32/20 Q1010 R08/CLRD70 NOSIG"
"2:00 PM EEST on July 17, 2016","2016","07","17","14","00","Europe/Kiev","11:00 AM GMT on July 17, 2016","2016","07","17","11","00","UTC","34.0","93.2","19.0","66.2","41","14.4","8.9","-9999.0","-9999.0","120","ESE","-9999.0","-9999.0","1009","29.80","-999","-999","35.7","96.2","-9999.00","-9999.00","Clear","clear","0","0","0","0","0","0","METAR UKKK 171100Z 12004MPS 090V170 CAVOK 34/19 Q1009 R08/CLRD70 NOSIG"
"2:30 PM EEST on July 17, 2016","2016","07","17","14","30","Europe/Kiev","11:30 AM GMT on July 17, 2016","2016","07","17","11","30","UTC","34.0","93.2","19.0","66.2","41","14.4","8.9","-9999.0","-9999.0","110","ESE","-9999.0","-9999.0","1009","29.80","-999","-999","35.7","96.2","-9999.00","-9999.00","Clear","clear","0","0","0","0","0","0","METAR UKKK 171130Z 11004MPS 080V170 CAVOK 34/19 Q1009 R08/CLRD70 NOSIG"
"3:00 PM EEST on July 17, 2016","2016","07","17","15","00","Europe/Kiev","12:00 PM GMT on July 17, 2016","2016","07","17","12","00","UTC","35","94","18","64","28","14.4","8.9","","","170","South","20","12","1008","29.76","-999","-999","-9999","-9999","","","Scattered Clouds","partlycloudy","0","0","0","0","0","0","AAXX 17121 33345 32698 31704 10346 20179 39894 40078 57017 82801 555 10055"
"3:00 PM EEST on July 17, 2016","2016","07","17","15","00","Europe/Kiev","12:00 PM GMT on July 17, 2016","2016","07","17","12","00","UTC","34.0","93.2","19.0","66.2","41","14.4","8.9","-9999.0","-9999.0","150","SSE","-9999.0","-9999.0","1009","29.80","-999","-999","35.7","96.2","-9999.00","-9999.00","Clear","clear","0","0","0","0","0","0","METAR UKKK 171200Z 15004MPS 100V210 CAVOK 34/19 Q1009 R08/CLRD70 NOSIG"
"3:30 PM EEST on July 17, 2016","2016","07","17","15","30","Europe/Kiev","12:30 PM GMT on July 17, 2016","2016","07","17","12","30","UTC","34.0","93.2","18.0","64.4","38","18.0","11.2","-9999.0","-9999.0","140","SE","-9999.0","-9999.0","1008","29.77","-999","-999","34.9","94.9","-9999.00","-9999.00","Clear","clear","0","0","0","0","0","0","METAR UKKK 171230Z 14005MPS 100V200 CAVOK 34/18 Q1008 R08/CLRD70 NOSIG"
"4:00 PM EEST on July 17, 2016","2016","07","17","16","00","Europe/Kiev","1:00 PM GMT on July 17, 2016","2016","07","17","13","00","UTC","33.0","91.4","19.0","66.2","43","10.8","6.7","-9999.0","-9999.0","130","SE","-9999.0","-9999.0","1008","29.77","-999","-999","34.5","94.0","-9999.00","-9999.00","Clear","clear","0","0","0","0","0","0","METAR UKKK 171300Z 13003MPS 100V190 CAVOK 33/19 Q1008 R08/CLRD70 NOSIG"
"4:30 PM EEST on July 17, 2016","2016","07","17","16","30","Europe/Kiev","1:30 PM GMT on July 17, 2016","2016","07","17","13","30","UTC","33.0","91.4","19.0","66.2","43","10.8","6.7","-9999.0","-9999.0","130","SE","-9999.0","-9999.0","1008","29.77","-999","-999","34.5","94.0","-9999.00","-9999.00","Clear","clear","0","0","0","0","0","0","METAR UKKK 171330Z 13003MPS 100V200 CAVOK 33/19 Q1008 R08/CLRD70 NOSIG"
"5:00 PM EEST on July 17, 2016","2016","07","17","17","00","Europe/Kiev","2:00 PM GMT on July 17, 2016","2016","07","17","14","00","UTC","32.0","89.6","19.0","66.2","46","14.4","8.9","-9999.0","-9999.0","120","ESE","10.0","6.2","1007","29.74","-999","-999","33.5","92.2","-9999.00","-9999.00","Scattered Clouds","partlycloudy","0","0","0","0","0","0","METAR UKKK 171400Z 12004MPS 080V150 9999 FEW033TCU SCT100 32/19 Q1007 R08/CLRD70 NOSIG"
"5:30 PM EEST on July 17, 2016","2016","07","17","17","30","Europe/Kiev","2:30 PM GMT on July 17, 2016","2016","07","17","14","30","UTC","32.0","89.6","19.0","66.2","46","10.8","6.7","-9999.0","-9999.0","130","SE","10.0","6.2","1007","29.74","-999","-999","33.5","92.2","-9999.00","-9999.00","Mostly Cloudy","mostlycloudy","0","0","0","0","0","0","METAR UKKK 171430Z 13003MPS 100V170 9999 SCT033CB BKN100 32/19 Q1007 R08/CLRD70 TEMPO VRB11G19MPS 2100 -TSRAGR SQ BKN020CB"
"6:00 PM EEST on July 17, 2016","2016","07","17","18","00","Europe/Kiev","3:00 PM GMT on July 17, 2016","2016","07","17","15","00","UTC","33","92","18","65","31","10.8","6.7","","","170","South","20","12","1006","29.70","-999","-999","-9999","-9999","","","Partly Cloudy","partlycloudy","0","0","0","0","0","0","AAXX 17151 33345 42698 51703 10332 20182 39874 40058 57020 83275 555 10044"
"6:00 PM EEST on July 17, 2016","2016","07","17","18","00","Europe/Kiev","3:00 PM GMT on July 17, 2016","2016","07","17","15","00","UTC","32.0","89.6","19.0","66.2","46","18.0","11.2","-9999.0","-9999.0","140","SE","10.0","6.2","1007","29.74","-999","-999","33.5","92.2","-9999.00","-9999.00","Mostly Cloudy","mostlycloudy","0","0","0","0","0","0","METAR UKKK 171500Z 14005MPS 110V170 9999 FEW033CB BKN100 32/19 Q1007 R26/CLRD70 TEMPO VRB11G19MPS 2100 -TSRAGR SQ BKN020CB"
"6:30 PM EEST on July 17, 2016","2016","07","17","18","30","Europe/Kiev","3:30 PM GMT on July 17, 2016","2016","07","17","15","30","UTC","32.0","89.6","20.0","68.0","49","7.2","4.5","-9999.0","-9999.0","160","SSE","-9999.0","-9999.0","1007","29.74","-999","-999","34.1","93.4","-9999.00","-9999.00","Clear","clear","0","0","0","0","0","0","METAR UKKK 171530Z 16002MPS 100V260 CAVOK 32/20 Q1007 R08/CLRD70 TEMPO VRB11G19MPS 2100 -TSRAGR SQ BKN020CB"
"7:00 PM EEST on July 17, 2016","2016","07","17","19","00","Europe/Kiev","4:00 PM GMT on July 17, 2016","2016","07","17","16","00","UTC","31.0","87.8","20.0","68.0","52","3.6","2.2","-9999.0","-9999.0","0","Variable","-9999.0","-9999.0","1007","29.74","-999","-999","33.0","91.4","-9999.00","-9999.00","Clear","clear","0","0","0","0","0","0","METAR UKKK 171600Z VRB01MPS CAVOK 31/20 Q1007 R08/CLRD70 TEMPO VRB11G19MPS 2100 -TSRAGR SQ BKN020CB"
"7:30 PM EEST on July 17, 2016","2016","07","17","19","30","Europe/Kiev","4:30 PM GMT on July 17, 2016","2016","07","17","16","30","UTC","30.0","86.0","20.0","68.0","55","7.2","4.5","-9999.0","-9999.0","250","WSW","-9999.0","-9999.0","1007","29.74","-999","-999","31.9","89.4","-9999.00","-9999.00","Clear","clear","0","0","0","0","0","0","METAR UKKK 171630Z 25002MPS CAVOK 30/20 Q1007 R26/CLRD70 TEMPO VRB11G19MPS 2100 -TSRAGR SQ BKN020CB"
"8:00 PM EEST on July 17, 2016","2016","07","17","20","00","Europe/Kiev","5:00 PM GMT on July 17, 2016","2016","07","17","17","00","UTC","28.0","82.4","20.0","68.0","62","3.6","2.2","-9999.0","-9999.0","0","Variable","-9999.0","-9999.0","1006","29.71","-999","-999","29.7","85.4","-9999.00","-9999.00","Clear","clear","0","0","0","0","0","0","METAR UKKK 171700Z VRB01MPS CAVOK 28/20 Q1006 R26/CLRD70 TEMPO VRB11G19MPS 2100 -TSRAGR SQ BKN020CB"
"8:30 PM EEST on July 17, 2016","2016","07","17","20","30","Europe/Kiev","5:30 PM GMT on July 17, 2016","2016","07","17","17","30","UTC","28.0","82.4","20.0","68.0","62","7.2","4.5","-9999.0","-9999.0","180","South","-9999.0","-9999.0","1006","29.71","-999","-999","29.7","85.4","-9999.00","-9999.00","Clear","clear","0","0","0","0","0","0","METAR UKKK 171730Z 18002MPS CAVOK 28/20 Q1006 R26/CLRD70 TEMPO VRB11G19MPS 2100 -TSRAGR SQ BKN020CB"
"9:00 PM EEST on July 17, 2016","2016","07","17","21","00","Europe/Kiev","6:00 PM GMT on July 17, 2016","2016","07","17","18","00","UTC","29","83","18","64","43","3.6","2.2","","","160","SSE","20","12","1006","29.70","-999","-999","-9999","-9999","","","Scattered Clouds","partlycloudy","0","0","0","0","0","0","AAXX 17181 33345 32698 31601 10286 20178 39868 40055 56006 82205 333 10354 555 10029"
"9:00 PM EEST on July 17, 2016","2016","07","17","21","00","Europe/Kiev","6:00 PM GMT on July 17, 2016","2016","07","17","18","00","UTC","29.0","84.2","18.0","64.4","51","7.2","4.5","-9999.0","-9999.0","180","South","-9999.0","-9999.0","1006","29.71","-999","-999","29.8","85.6","-9999.00","-9999.00","Clear","clear","0","0","0","0","0","0","METAR UKKK 171800Z 18002MPS 150V210 CAVOK 29/18 Q1006 R26/CLRD70 NOSIG"
"9:30 PM EEST on July 17, 2016","2016","07","17","21","30","Europe/Kiev","6:30 PM GMT on July 17, 2016","2016","07","17","18","30","UTC","28.0","82.4","18.0","64.4","54","7.2","4.5","-9999.0","-9999.0","170","South","-9999.0","-9999.0","1006","29.71","-999","-999","28.8","83.9","-9999.00","-9999.00","Clear","clear","0","0","0","0","0","0","METAR UKKK 171830Z 17002MPS 140V210 CAVOK 28/18 Q1006 R26/CLRD70 NOSIG"
"10:00 PM EEST on July 17, 2016","2016","07","17","22","00","Europe/Kiev","7:00 PM GMT on July 17, 2016","2016","07","17","19","00","UTC","28.0","82.4","17.0","62.6","51","10.8","6.7","-9999.0","-9999.0","150","SSE","-9999.0","-9999.0","1006","29.71","-999","-999","28.5","83.4","-9999.00","-9999.00","Clear","clear","0","0","0","0","0","0","METAR UKKK 171900Z 15003MPS 120V190 CAVOK 28/17 Q1006 R26/CLRD70 NOSIG"
"10:30 PM EEST on July 17, 2016","2016","07","17","22","30","Europe/Kiev","7:30 PM GMT on July 17, 2016","2016","07","17","19","30","UTC","28.0","82.4","17.0","62.6","51","10.8","6.7","-9999.0","-9999.0","180","South","-9999.0","-9999.0","1006","29.71","-999","-999","28.5","83.4","-9999.00","-9999.00","Clear","clear","0","0","0","0","0","0","METAR UKKK 171930Z 18003MPS CAVOK 28/17 Q1006 R26/CLRD70 NOSIG"
"11:00 PM EEST on July 17, 2016","2016","07","17","23","00","Europe/Kiev","8:00 PM GMT on July 17, 2016","2016","07","17","20","00","UTC","28.0","82.4","17.0","62.6","51","10.8","6.7","-9999.0","-9999.0","190","South","-9999.0","-9999.0","1006","29.71","-999","-999","28.5","83.4","-9999.00","-9999.00","Clear","clear","0","0","0","0","0","0","METAR UKKK 172000Z 19003MPS CAVOK 28/17 Q1006 R26/CLRD70 NOSIG"
"11:30 PM EEST on July 17, 2016","2016","07","17","23","30","Europe/Kiev","8:30 PM GMT on July 17, 2016","2016","07","17","20","30","UTC","25.0","77.0","18.0","64.4","65","7.2","4.5","-9999.0","-9999.0","210","SSW","-9999.0","-9999.0","1006","29.71","-999","-999","-9999","-9999","-9999.00","-9999.00","Clear","clear","0","0","0","0","0","0","METAR UKKK 172030Z 21002MPS 180V250 CAVOK 25/18 Q1006 R26/CLRD70 NOSIG"
"12:00 AM EEST on July 18, 2016","2016","07","18","00","00","Europe/Kiev","9:00 PM GMT on July 17, 2016","2016","07","17","21","00","UTC","26","79","18","64","51","7.2","4.5","","","210","SSW","20","12","1005","29.69","-999","-999","-9999","-9999","","","","","0","0","0","0","0","0","AAXX 17211 33345 42998 02102 10261 20177 39865 40054 57003 555 10025"
"12:00 AM EEST on July 18, 2016","2016","07","18","00","00","Europe/Kiev","9:00 PM GMT on July 17, 2016","2016","07","17","21","00","UTC","24.0","75.2","18.0","64.4","69","7.2","4.5","-9999.0","-9999.0","240","WSW","-9999.0","-9999.0","1006","29.71","-999","-999","-9999","-9999","-9999.00","-9999.00","Clear","clear","0","0","0","0","0","0","METAR UKKK 172100Z 24002MPS 180V300 CAVOK 24/18 Q1006 R26/CLRD70 NOSIG"
"12:30 AM EEST on July 18, 2016","2016","07","18","00","30","Europe/Kiev","9:30 PM GMT on July 17, 2016","2016","07","17","21","30","UTC","23.0","73.4","18.0","64.4","73","7.2","4.5","-9999.0","-9999.0","220","SW","9.0","5.6","1006","29.71","-999","-999","-9999","-9999","-9999.00","-9999.00","Clear","clear","0","0","0","0","0","0","METAR UKKK 172130Z 22002MPS 190V250 9000 SKC 23/18 Q1006 R26/CLRD70 NOSIG"
"1:00 AM EEST on July 18, 2016","2016","07","18","01","00","Europe/Kiev","10:00 PM GMT on July 17, 2016","2016","07","17","22","00","UTC","23.0","73.4","18.0","64.4","73","7.2","4.5","-9999.0","-9999.0","240","WSW","-9999.0","-9999.0","1006","29.71","-999","-999","-9999","-9999","-9999.00","-9999.00","Clear","clear","0","0","0","0","0","0","METAR UKKK 172200Z 24002MPS 180V280 CAVOK 23/18 Q1006 R26/CLRD70 NOSIG"
"1:30 AM EEST on July 18, 2016","2016","07","18","01","30","Europe/Kiev","10:30 PM GMT on July 17, 2016","2016","07","17","22","30","UTC","25.0","77.0","17.0","62.6","61","3.6","2.2","-9999.0","-9999.0","0","Variable","-9999.0","-9999.0","1006","29.71","-999","-999","-9999","-9999","-9999.00","-9999.00","Clear","clear","0","0","0","0","0","0","METAR UKKK 172230Z VRB01MPS CAVOK 25/17 Q1006 R26/CLRD70 NOSIG"
"2:00 AM EEST on July 18, 2016","2016","07","18","02","00","Europe/Kiev","11:00 PM GMT on July 17, 2016","2016","07","17","23","00","UTC","24.0","75.2","18.0","64.4","69","7.2","4.5","25.2","15.7","270","West","-9999.0","-9999.0","1006","29.71","-999","-999","-9999","-9999","-9999.00","-9999.00","Clear","clear","0","0","0","0","0","0","METAR UKKK 172300Z 27002G07MPS 210V290 CAVOK 24/18 Q1006 R26/CLRD70 NOSIG"
"2:30 AM EEST on July 18, 2016","2016","07","18","02","30","Europe/Kiev","11:30 PM GMT on July 17, 2016","2016","07","17","23","30","UTC","24.0","75.2","18.0","64.4","69","21.6","13.4","-9999.0","-9999.0","330","NNW","-9999.0","-9999.0","1006","29.71","-999","-999","-9999","-9999","-9999.00","-9999.00","Clear","clear","0","0","0","0","0","0","METAR UKKK 172330Z 33006MPS 290V030 CAVOK 24/18 Q1006 R26/CLRD70 NOSIG"
"3:00 AM EEST on July 18, 2016","2016","07","18","03","00","Europe/Kiev","12:00 AM GMT on July 18, 2016","2016","07","18","00","00","UTC","24","75","18","64","60","18.0","11.2","","","330","NNW","20","12","1006","29.71","-999","-999","-9999","-9999","","","Scattered Clouds","partlycloudy","0","0","0","0","0","0","AAXX 18001 33345 32698 33305 10238 20176 39871 40061 53006 82502 555 10023"
"3:00 AM EEST on July 18, 2016","2016","07","18","03","00","Europe/Kiev","12:00 AM GMT on July 18, 2016","2016","07","18","00","00","UTC","23.0","73.4","17.0","62.6","69","21.6","13.4","39.6","24.6","330","NNW","-9999.0","-9999.0","1007","29.74","-999","-999","-9999","-9999","-9999.00","-9999.00","Clear","clear","0","0","0","0","0","0","METAR UKKK 180000Z 33006G11MPS CAVOK 23/17 Q1007 R26/CLRD70 NOSIG"
"3:30 AM EEST on July 18, 2016","2016","07","18","03","30","Europe/Kiev","12:30 AM GMT on July 18, 2016","2016","07","18","00","30","UTC","22.0","71.6","17.0","62.6","73","21.6","13.4","39.6","24.6","340","NNW","-9999.0","-9999.0","1007","29.74","-999","-999","-9999","-9999","-9999.00","-9999.00","Clear","clear","0","0","0","0","0","0","METAR UKKK 180030Z 34006G11MPS CAVOK 22/17 Q1007 R26/CLRD70 NOSIG"
"4:00 AM EEST on July 18, 2016","2016","07","18","04","00","Europe/Kiev","1:00 AM GMT on July 18, 2016","2016","07","18","01","00","UTC","22.0","71.6","16.0","60.8","69","18.0","11.2","-9999.0","-9999.0","360","North","-9999.0","-9999.0","1006","29.71","-999","-999","-9999","-9999","-9999.00","-9999.00","Clear","clear","0","0","0","0","0","0","METAR UKKK 180100Z 36005MPS 320V020 CAVOK 22/16 Q1006 R26/CLRD70 NOSIG"
"4:30 AM EEST on July 18, 2016","2016","07","18","04","30","Europe/Kiev","1:30 AM GMT on July 18, 2016","2016","07","18","01","30","UTC","22.0","71.6","16.0","60.8","69","21.6","13.4","-9999.0","-9999.0","360","North","-9999.0","-9999.0","1006","29.71","-999","-999","-9999","-9999","-9999.00","-9999.00","Clear","clear","0","0","0","0","0","0","METAR UKKK 180130Z 36006MPS CAVOK 22/16 Q1006 R26/CLRD70 NOSIG"
"5:00 AM EEST on July 18, 2016","2016","07","18","05","00","Europe/Kiev","2:00 AM GMT on July 18, 2016","2016","07","18","02","00","UTC","22.0","71.6","16.0","60.8","69","25.2","15.7","-9999.0","-9999.0","10","North","-9999.0","-9999.0","1005","29.68","-999","-999","-9999","-9999","-9999.00","-9999.00","Clear","clear","0","0","0","0","0","0","METAR UKKK 180200Z 01007MPS 350V060 CAVOK 22/16 Q1005 R26/CLRD70 NOSIG"
"5:30 AM EEST on July 18, 2016","2016","07","18","05","30","Europe/Kiev","2:30 AM GMT on July 18, 2016","2016","07","18","02","30","UTC","22.0","71.6","17.0","62.6","73","21.6","13.4","-9999.0","-9999.0","30","NNE","-9999.0","-9999.0","1005","29.68","-999","-999","-9999","-9999","-9999.00","-9999.00","Clear","clear","0","0","0","0","0","0","METAR UKKK 180230Z 03006MPS 350V060 CAVOK 22/17 Q1005 R26/CLRD70 NOSIG"
"6:00 AM EEST on July 18, 2016","2016","07","18","06","00","Europe/Kiev","3:00 AM GMT on July 18, 2016","2016","07","18","03","00","UTC","22","71","17","62","67","14.4","8.9","","","30","NNE","20","12","1005","29.67","-999","-999","-9999","-9999","","","Partly Cloudy","partlycloudy","0","0","0","0","0","0","AAXX 18031 33345 42598 50304 10219 20169 39855 40046 58016 83585 555 10022"
"6:00 AM EEST on July 18, 2016","2016","07","18","06","00","Europe/Kiev","3:00 AM GMT on July 18, 2016","2016","07","18","03","00","UTC","22.0","71.6","17.0","62.6","73","28.8","17.9","-9999.0","-9999.0","50","NE","10.0","6.2","1005","29.68","-999","-999","-9999","-9999","-9999.00","-9999.00","Mostly Cloudy","mostlycloudy","0","0","0","0","0","0","METAR UKKK 180300Z 05008MPS 9999 FEW030CB BKN100 22/17 Q1005 R08/CLRD70 NOSIG"
"6:30 AM EEST on July 18, 2016","2016","07","18","06","30","Europe/Kiev","3:30 AM GMT on July 18, 2016","2016","07","18","03","30","UTC","22.0","71.6","16.0","60.8","69","25.2","15.7","-9999.0","-9999.0","40","NE","10.0","6.2","1005","29.68","-999","-999","-9999","-9999","-9999.00","-9999.00","Mostly Cloudy","mostlycloudy","0","0","0","0","0","0","METAR UKKK 180330Z 04007MPS 9999 FEW030CB BKN100 22/16 Q1005 R08/CLRD70 TEMPO VRB11G18MPS 1200 TSRA BKN030CB"
"7:00 AM EEST on July 18, 2016","2016","07","18","07","00","Europe/Kiev","4:00 AM GMT on July 18, 2016","2016","07","18","04","00","UTC","22.0","71.6","16.0","60.8","69","21.6","13.4","-9999.0","-9999.0","40","NE","10.0","6.2","1004","29.65","-999","-999","-9999","-9999","-9999.00","-9999.00","Mostly Cloudy","mostlycloudy","0","0","0","0","0","0","METAR UKKK 180400Z 04006MPS 9999 FEW030CB BKN100 22/16 Q1004 R08/CLRD70 TEMPO VRB11G18MPS 1200 TSRA BKN030CB"
"7:30 AM EEST on July 18, 2016","2016","07","18","07","30","Europe/Kiev","4:30 AM GMT on July 18, 2016","2016","07","18","04","30","UTC","23.0","73.4","17.0","62.6","69","21.6","13.4","-9999.0","-9999.0","40","NE","10.0","6.2","1004","29.65","-999","-999","-9999","-9999","-9999.00","-9999.00","Mostly Cloudy","mostlycloudy","0","0","0","0","0","0","METAR UKKK 180430Z 04006MPS 9999 FEW030CB BKN100 23/17 Q1004 R08/CLRD70 TEMPO VRB11G18MPS 1200 TSRA BKN030CB"
"8:00 AM EEST on July 18, 2016","2016","07","18","08","00","Europe/Kiev","5:00 AM GMT on July 18, 2016","2016","07","18","05","00","UTC","23.0","73.4","16.0","60.8","65","14.4","8.9","-9999.0","-9999.0","30","NNE","10.0","6.2","1004","29.65","-999","-999","-9999","-9999","-9999.00","-9999.00","Mostly Cloudy","mostlycloudy","0","0","0","0","0","0","METAR UKKK 180500Z 03004MPS 330V070 9999 FEW030CB BKN100 23/16 Q1004 R08/CLRD70 TEMPO VRB11G18MPS 1200 TSRA BKN030CB"
"8:30 AM EEST on July 18, 2016","2016","07","18","08","30","Europe/Kiev","5:30 AM GMT on July 18, 2016","2016","07","18","05","30","UTC","24.0","75.2","17.0","62.6","65","14.4","8.9","-9999.0","-9999.0","350","North","10.0","6.2","1004","29.65","-999","-999","-9999","-9999","-9999.00","-9999.00","Mostly Cloudy","mostlycloudy","0","0","0","0","0","0","METAR UKKK 180530Z 35004MPS 310V020 9999 FEW030CB BKN100 24/17 Q1004 R08/CLRD70 TEMPO VRB11G18MPS 1200 TSRA BKN030CB"
"9:00 AM EEST on July 18, 2016","2016","07","18","09","00","Europe/Kiev","6:00 AM GMT on July 18, 2016","2016","07","18","06","00","UTC","24","75","17","62","55","14.4","8.9","","","10","North","20","12","1004","29.65","-999","-999","-9999","-9999","","","Light Thunderstorm","tstorms","0","0","0","0","1","0","AAXX 18061 33345 31598 60104 10240 20167 39849 40039 56006 72911 84949 333 20218 555 10034"
"9:00 AM EEST on July 18, 2016","2016","07","18","09","00","Europe/Kiev","6:00 AM GMT on July 18, 2016","2016","07","18","06","00","UTC","25.0","77.0","17.0","62.6","61","18.0","11.2","-9999.0","-9999.0","350","North","10.0","6.2","1005","29.68","-999","-999","-9999","-9999","-9999.00","-9999.00","Mostly Cloudy","mostlycloudy","0","0","0","0","0","0","METAR UKKK 180600Z 35005MPS 330V030 9999 FEW030CB BKN100 25/17 Q1005 R08/CLRD70 TEMPO VRB11G18MPS 1200 TSRA BKN030CB"
"9:30 AM EEST on July 18, 2016","2016","07","18","09","30","Europe/Kiev","6:30 AM GMT on July 18, 2016","2016","07","18","06","30","UTC","25.0","77.0","17.0","62.6","61","18.0","11.2","-9999.0","-9999.0","350","North","-9999.0","-9999.0","1005","29.68","-999","-999","-9999","-9999","-9999.00","-9999.00","Clear","clear","0","0","0","0","0","0","METAR UKKK 180630Z 35005MPS 300V020 CAVOK 25/17 Q1005 R08/CLRD70 TEMPO VRB11G18MPS 1200 TSRA BKN030CB"
"10:00 AM EEST on July 18, 2016","2016","07","18","10","00","Europe/Kiev","7:00 AM GMT on July 18, 2016","2016","07","18","07","00","UTC","24.0","75.2","17.0","62.6","65","18.0","11.2","36.0","22.4","360","North","-9999.0","-9999.0","1004","29.65","-999","-999","-9999","-9999","-9999.00","-9999.00","Clear","clear","0","0","0","0","0","0","METAR UKKK 180700Z 36005G10MPS 320V030 CAVOK 24/17 Q1004 R08/CLRD70 TEMPO VRB11G18MPS 1200 TSRAGR BKN030CB"
"10:30 AM EEST on July 18, 2016","2016","07","18","10","30","Europe/Kiev","7:30 AM GMT on July 18, 2016","2016","07","18","07","30","UTC","24.0","75.2","17.0","62.6","65","21.6","13.4","-9999.0","-9999.0","330","NNW","10.0","6.2","1004","29.65","-999","-999","-9999","-9999","-9999.00","-9999.00","Thunderstorm","tstorms","0","0","0","0","1","0","METAR UKKK 180730Z 33006MPS 300V360 9999 TS SCT030CB BKN073 24/17 Q1004 R08/CLRD70 TEMPO VRB11G18MPS 1200 TSRAGR BKN030CB"
"11:00 AM EEST on July 18, 2016","2016","07","18","11","00","Europe/Kiev","8:00 AM GMT on July 18, 2016","2016","07","18","08","00","UTC","23.0","73.4","17.0","62.6","69","25.2","15.7","-9999.0","-9999.0","10","North","10.0","6.2","1004","29.65","-999","-999","-9999","-9999","-9999.00","-9999.00","Thunderstorm","tstorms","0","0","0","0","1","0","METAR UKKK 180800Z 01007MPS 9999 TS SCT030CB BKN056 23/17 Q1004 R26/CLRD70 TEMPO VRB11G18MPS 1200 TSRAGR BKN030CB"
"11:30 AM EEST on July 18, 2016","2016","07","18","11","30","Europe/Kiev","8:30 AM GMT on July 18, 2016","2016","07","18","08","30","UTC","22.0","71.6","17.0","62.6","73","21.6","13.4","-9999.0","-9999.0","330","NNW","10.0","6.2","1004","29.65","-999","-999","-9999","-9999","-9999.00","-9999.00","Mostly Cloudy","mostlycloudy","0","0","0","0","0","0","METAR UKKK 180830Z 33006MPS 300V010 9999 FEW030CB BKN056 22/17 Q1004 RETS R26/CLRD70 TEMPO VRB11G18MPS 1200 TSRAGR BKN030CB"
"11:56 AM EEST on July 18, 2016","2016","07","18","11","56","Europe/Kiev","8:56 AM GMT on July 18, 2016","2016","07","18","08","56","UTC","23.0","73.4","17.0","62.6","69","18.0","11.2","-9999.0","-9999.0","10","North","10.0","6.2","1004","29.65","-999","-999","-9999","-9999","-9999.00","-9999.00","Thunderstorm","tstorms","0","0","0","0","1","0","SPECI UKKK 180856Z 01005MPS 320V050 9999 TS SCT030CB BKN056 23/17 Q1004 R26/CLRD70 TEMPO VRB11G18MPS 1200 TSRAGR BKN030CB"
"12:00 PM EEST on July 18, 2016","2016","07","18","12","00","Europe/Kiev","9:00 AM GMT on July 18, 2016","2016","07","18","09","00","UTC","24","75","17","62","56","18.0","11.2","","","10","North","20","12","1003","29.62","-999","-999","-9999","-9999","","","Light Thunderstorm","tstorms","0","0","0","0","1","0","AAXX 18091 33345 41598 60105 10238 20169 39841 40031 58008 72992 82363 555 10036"
"12:00 PM EEST on July 18, 2016","2016","07","18","12","00","Europe/Kiev","9:00 AM GMT on July 18, 2016","2016","07","18","09","00","UTC","22.0","71.6","17.0","62.6","73","21.6","13.4","-9999.0","-9999.0","360","North","10.0","6.2","1004","29.65","-999","-999","-9999","-9999","-9999.00","-9999.00","Thunderstorm","tstorms","0","0","0","0","1","0","METAR UKKK 180900Z 36006MPS 320V050 9999 TS SCT030CB BKN056 22/17 Q1004 R26/CLRD70 TEMPO VRB11G18MPS 1200 TSRAGR BKN030CB"
"12:30 PM EEST on July 18, 2016","2016","07","18","12","30","Europe/Kiev","9:30 AM GMT on July 18, 2016","2016","07","18","09","30","UTC","21.0","69.8","18.0","64.4","83","18.0","11.2","-9999.0","-9999.0","300","WNW","10.0","6.2","1005","29.68","-999","-999","-9999","-9999","-9999.00","-9999.00","Thunderstorm","tstorms","0","0","0","0","1","0","METAR UKKK 180930Z 30005MPS 270V340 9999 TS SCT030CB BKN056 21/18 Q1005 R26/CLRD70 TEMPO VRB11G18MPS 1200 TSRAGR BKN030CB"
"1:00 PM EEST on July 18, 2016","2016","07","18","13","00","Europe/Kiev","10:00 AM GMT on July 18, 2016","2016","07","18","10","00","UTC","20.0","68.0","18.0","64.4","88","18.0","11.2","-9999.0","-9999.0","320","NW","9.0","5.6","1005","29.68","-999","-999","-9999","-9999","-9999.00","-9999.00","Light Thunderstorms and Rain","tstorms","0","1","0","0","1","0","METAR UKKK 181000Z 32005MPS 260V020 9000 -TSRA SCT030CB BKN056 20/18 Q1005 R26/CLRD70 TEMPO VRB11G18MPS 1200 TSRAGR BKN030CB"
"1:30 PM EEST on July 18, 2016","2016","07","18","13","30","Europe/Kiev","10:30 AM GMT on July 18, 2016","2016","07","18","10","30","UTC","20.0","68.0","18.0","64.4","88","18.0","11.2","-9999.0","-9999.0","340","NNW","10.0","6.2","1004","29.65","-999","-999","-9999","-9999","-9999.00","-9999.00","Light Thunderstorms and Rain","tstorms","0","1","0","0","1","0","METAR UKKK 181030Z 34005MPS 9999 -TSRA SCT030CB BKN056 20/18 Q1004 R26/290158 TEMPO VRB11G18MPS 1200 TSRAGR BKN030CB"
"2:00 PM EEST on July 18, 2016","2016","07","18","14","00","Europe/Kiev","11:00 AM GMT on July 18, 2016","2016","07","18","11","00","UTC","20.0","68.0","18.0","64.4","88","18.0","11.2","-9999.0","-9999.0","320","NW","9.0","5.6","1005","29.68","-999","-999","-9999","-9999","-9999.00","-9999.00","Light Thunderstorms and Rain","tstorms","0","1","0","0","1","0","METAR UKKK 181100Z 32005MPS 9000 -TSRA SCT030CB BKN043 20/18 Q1005 R26/290158 TEMPO VRB11G18MPS 2100 -TSRAGR BKN030CB"
"2:30 PM EEST on July 18, 2016","2016","07","18","14","30","Europe/Kiev","11:30 AM GMT on July 18, 2016","2016","07","18","11","30","UTC","20.0","68.0","19.0","66.2","94","25.2","15.7","-9999.0","-9999.0","310","NW","9.0","5.6","1005","29.68","-999","-999","-9999","-9999","-9999.00","-9999.00","Light Thunderstorms and Rain","tstorms","0","1","0","0","1","0","METAR UKKK 181130Z 31007MPS 9000 -TSRA SCT026CB BKN043 20/19 Q1005 R26/290158 TEMPO VRB11G18MPS 2100 -TSRAGR BKN030CB"
"2:44 PM EEST on July 18, 2016","2016","07","18","14","44","Europe/Kiev","11:44 AM GMT on July 18, 2016","2016","07","18","11","44","UTC","20.0","68.0","19.0","66.2","94","25.2","15.7","-9999.0","-9999.0","310","NW","9.0","5.6","1005","29.68","-999","-999","-9999","-9999","-9999.00","-9999.00","Light Rain Showers","rain","0","1","0","0","1","0","SPECI UKKK 181144Z 31007MPS 9000 VCTS -SHRA FEW007 SCT030CB BKN056 20/19 Q1005 RETS R26/290158 TEMPO VRB11G18MPS 2100 -TSRAGR BKN030CB"
"3:00 PM EEST on July 18, 2016","2016","07","18","15","00","Europe/Kiev","12:00 PM GMT on July 18, 2016","2016","07","18","12","00","UTC","20","68","18","64","85","10.8","6.7","","","320","NW","10","6","1005","29.68","-999","-999","-9999","-9999","","","Thunderstorm","tstorms","0","0","0","0","1","0","AAXX 18121 33345 /1597 73203 10198 20180 39858 40051 53017 71798 86953 555 11024 60061"
"3:00 PM EEST on July 18, 2016","2016","07","18","15","00","Europe/Kiev","12:00 PM GMT on July 18, 2016","2016","07","18","12","00","UTC","19.0","66.2","19.0","66.2","100","21.6","13.4","-9999.0","-9999.0","310","NW","2.6","1.6","1006","29.71","-999","-999","-9999","-9999","-9999.00","-9999.00","Light Rain Showers","rain","0","1","0","0","0","0","METAR UKKK 181200Z 31006MPS 2600 -SHRA FEW008 SCT030CB BKN056 19/19 Q1006 R26/290158 TEMPO VRB11G18MPS 2100 -TSRAGR BKN030CB"
"3:30 PM EEST on July 18, 2016","2016","07","18","15","30","Europe/Kiev","12:30 PM GMT on July 18, 2016","2016","07","18","12","30","UTC","20.0","68.0","18.0","64.4","88","28.8","17.9","-9999.0","-9999.0","310","NW","10.0","6.2","1005","29.68","-999","-999","-9999","-9999","-9999.00","-9999.00","Light Rain Showers","rain","0","1","0","0","0","0","METAR UKKK 181230Z 31008MPS 9999 -SHRA SCT030CB BKN090 20/18 Q1005 R26/290158 TEMPO VRB11G18MPS 2100 -TSRAGR BKN020CB"
"3:39 PM EEST on July 18, 2016","2016","07","18","15","39","Europe/Kiev","12:39 PM GMT on July 18, 2016","2016","07","18","12","39","UTC","19.0","66.2","18.0","64.4","94","32.4","20.1","-9999.0","-9999.0","310","NW","10.0","6.2","1005","29.68","-999","-999","-9999","-9999","-9999.00","-9999.00","Thunderstorm","tstorms","0","0","0","0","1","0","SPECI UKKK 181239Z 31009MPS 9999 TS SCT030CB BKN090 19/18 Q1005 R26/290158 TEMPO VRB11G18MPS 2100 -TSRAGR BKN020CB"
"4:00 PM EEST on July 18, 2016","2016","07","18","16","00","Europe/Kiev","1:00 PM GMT on July 18, 2016","2016","07","18","13","00","UTC","20.0","68.0","19.0","66.2","94","28.8","17.9","-9999.0","-9999.0","310","NW","7.0","4.3","1005","29.68","-999","-999","-9999","-9999","-9999.00","-9999.00","Light Thunderstorms and Rain","tstorms","0","1","0","0","1","0","METAR UKKK 181300Z 31008MPS 7000 -TSRA SCT030CB BKN070 20/19 Q1005 R26/290158 TEMPO VRB11G18MPS 2100 -TSRAGR BKN020CB"
"4:15 PM EEST on July 18, 2016","2016","07","18","16","15","Europe/Kiev","1:15 PM GMT on July 18, 2016","2016","07","18","13","15","UTC","20.0","68.0","18.0","64.4","88","25.2","15.7","-9999.0","-9999.0","310","NW","10.0","6.2","1005","29.68","-999","-999","-9999","-9999","-9999.00","-9999.00","Light Rain Showers","rain","0","1","0","0","0","0","SPECI UKKK 181315Z 31007MPS 9999 -SHRA SCT030CB BKN070 20/18 Q1005 RETS R26/290158 TEMPO VRB11G18MPS 2100 -TSRAGR BKN020CB"
"4:27 PM EEST on July 18, 2016","2016","07","18","16","27","Europe/Kiev","1:27 PM GMT on July 18, 2016","2016","07","18","13","27","UTC","19.0","66.2","18.0","64.4","94","21.6","13.4","-9999.0","-9999.0","330","NNW","7.0","4.3","1005","29.68","-999","-999","-9999","-9999","-9999.00","-9999.00","Light Thunderstorms and Rain","tstorms","0","1","0","0","1","0","SPECI UKKK 181327Z 33006MPS 7000 -TSRA SCT030CB BKN050 19/18 Q1005 R26/290158 TEMPO VRB11G18MPS 1000 TSRAGR BKN020CB"
"4:30 PM EEST on July 18, 2016","2016","07","18","16","30","Europe/Kiev","1:30 PM GMT on July 18, 2016","2016","07","18","13","30","UTC","19.0","66.2","18.0","64.4","94","25.2","15.7","-9999.0","-9999.0","330","NNW","7.0","4.3","1005","29.68","-999","-999","-9999","-9999","-9999.00","-9999.00","Light Thunderstorms and Rain","tstorms","0","1","0","0","1","0","METAR UKKK 181330Z 33007MPS 7000 -TSRA SCT030CB BKN050 19/18 Q1005 R26/290158 TEMPO VRB11G18MPS 1000 TSRAGR BKN020CB"
"4:50 PM EEST on July 18, 2016","2016","07","18","16","50","Europe/Kiev","1:50 PM GMT on July 18, 2016","2016","07","18","13","50","UTC","20.0","68.0","18.0","64.4","88","25.2","15.7","-9999.0","-9999.0","310","NW","10.0","6.2","1005","29.68","-999","-999","-9999","-9999","-9999.00","-9999.00","Light Rain Showers","rain","0","1","0","0","0","0","SPECI UKKK 181350Z 31007MPS 9999 -SHRA SCT030CB BKN050 20/18 Q1005 RETS R26/290256 TEMPO VRB11G18MPS 2400 -TSRAGR BKN020CB"
"4:57 PM EEST on July 18, 2016","2016","07","18","16","57","Europe/Kiev","1:57 PM GMT on July 18, 2016","2016","07","18","13","57","UTC","20.0","68.0","18.0","64.4","88","25.2","15.7","43.2","26.8","320","NW","10.0","6.2","1005","29.68","-999","-999","-9999","-9999","-9999.00","-9999.00","Mostly Cloudy","mostlycloudy","0","0","0","0","0","0","SPECI UKKK 181357Z 32007G12MPS 9999 SCT030CB BKN050 20/18 Q1005 R26/290256 TEMPO VRB11G18MPS 2400 -TSRAGR BKN020CB"
"5:00 PM EEST on July 18, 2016","2016","07","18","17","00","Europe/Kiev","2:00 PM GMT on July 18, 2016","2016","07","18","14","00","UTC","20.0","68.0","18.0","64.4","88","28.8","17.9","-9999.0","-9999.0","320","NW","10.0","6.2","1005","29.68","-999","-999","-9999","-9999","-9999.00","-9999.00","Mostly Cloudy","mostlycloudy","0","0","0","0","0","0","METAR UKKK 181400Z 32008MPS 9999 SCT030CB BKN050 20/18 Q1005 R26/290256 TEMPO VRB11G18MPS 2400 -TSRAGR BKN020CB"
"5:30 PM EEST on July 18, 2016","2016","07","18","17","30","Europe/Kiev","2:30 PM GMT on July 18, 2016","2016","07","18","14","30","UTC","20.0","68.0","18.0","64.4","88","25.2","15.7","-9999.0","-9999.0","310","NW","8.0","5.0","1005","29.68","-999","-999","-9999","-9999","-9999.00","-9999.00","Mostly Cloudy","mostlycloudy","0","0","0","0","0","0","METAR UKKK 181430Z 31007MPS 8000 FEW030CB BKN050 20/18 Q1005 R26/290256 TEMPO VRB11G18MPS 2400 -TSRAGR BKN020CB"
"6:00 PM EEST on July 18, 2016","2016","07","18","18","00","Europe/Kiev","3:00 PM GMT on July 18, 2016","2016","07","18","15","00","UTC","20","68","18","64","82","14.4","8.9","","","340","NNW","20","12","1004","29.65","-999","-999","-9999","-9999","","","Partly Cloudy","partlycloudy","0","0","0","0","0","0","AAXX 18151 33345 41598 73404 10202 20176 39848 40040 58010 70298 83366 555 11022"
"6:00 PM EEST on July 18, 2016","2016","07","18","18","00","Europe/Kiev","3:00 PM GMT on July 18, 2016","2016","07","18","15","00","UTC","21.0","69.8","18.0","64.4","83","21.6","13.4","-9999.0","-9999.0","330","NNW","-9999.0","-9999.0","1004","29.65","-999","-999","-9999","-9999","-9999.00","-9999.00","Clear","clear","0","0","0","0","0","0","METAR UKKK 181500Z 33006MPS CAVOK 21/18 Q1004 R26/290256 NOSIG"
"6:30 PM EEST on July 18, 2016","2016","07","18","18","30","Europe/Kiev","3:30 PM GMT on July 18, 2016","2016","07","18","15","30","UTC","21.0","69.8","18.0","64.4","83","25.2","15.7","-9999.0","-9999.0","330","NNW","8.0","5.0","1004","29.65","-999","-999","-9999","-9999","-9999.00","-9999.00","Unknown","unknown","0","0","0","0","0","0","METAR UKKK 181530Z 33007MPS 8000 NSC 21/18 Q1004 R26/290058 NOSIG"
"7:00 PM EEST on July 18, 2016","2016","07","18","19","00","Europe/Kiev","4:00 PM GMT on July 18, 2016","2016","07","18","16","00","UTC","22.0","71.6","17.0","62.6","73","21.6","13.4","-9999.0","-9999.0","330","NNW","8.0","5.0","1003","29.62","-999","-999","-9999","-9999","-9999.00","-9999.00","Unknown","unknown","0","0","0","0","0","0","METAR UKKK 181600Z 33006MPS 8000 NSC 22/17 Q1003 R26/290058 NOSIG"
"7:30 PM EEST on July 18, 2016","2016","07","18","19","30","Europe/Kiev","4:30 PM GMT on July 18, 2016","2016","07","18","16","30","UTC","21.0","69.8","17.0","62.6","78","18.0","11.2","-9999.0","-9999.0","320","NW","-9999.0","-9999.0","1004","29.65","-999","-999","-9999","-9999","-9999.00","-9999.00","Clear","clear","0","0","0","0","0","0","METAR UKKK 181630Z 32005MPS CAVOK 21/17 Q1004 R26/CLRD70 NOSIG"
"8:00 PM EEST on July 18, 2016","2016","07","18","20","00","Europe/Kiev","5:00 PM GMT on July 18, 2016","2016","07","18","17","00","UTC","21.0","69.8","18.0","64.4","83","18.0","11.2","-9999.0","-9999.0","340","NNW","-9999.0","-9999.0","1004","29.65","-999","-999","-9999","-9999","-9999.00","-9999.00","Clear","clear","0","0","0","0","0","0","METAR UKKK 181700Z 34005MPS CAVOK 21/18 Q1004 R26/CLRD70 NOSIG"
"8:30 PM EEST on July 18, 2016","2016","07","18","20","30","Europe/Kiev","5:30 PM GMT on July 18, 2016","2016","07","18","17","30","UTC","21.0","69.8","18.0","64.4","83","21.6","13.4","-9999.0","-9999.0","330","NNW","10.0","6.2","1004","29.65","-999","-999","-9999","-9999","-9999.00","-9999.00","Mostly Cloudy","mostlycloudy","0","0","0","0","0","0","METAR UKKK 181730Z 33006MPS 9999 FEW015 BKN200 21/18 Q1004 R26/CLRD70 NOSIG"
"9:00 PM EEST on July 18, 2016","2016","07","18","21","00","Europe/Kiev","6:00 PM GMT on July 18, 2016","2016","07","18","18","00","UTC","21","69","18","64","79","14.4","8.9","","","330","NNW","10","6","1004","29.65","-999","-999","-9999","-9999","","","Partly Cloudy","partlycloudy","0","0","0","0","0","0","AAXX 18181 33345 11497 63304 10206 20177 39847 40039 56001 60072 70298 82465 333 10248 555 11020"
"9:00 PM EEST on July 18, 2016","2016","07","18","21","00","Europe/Kiev","6:00 PM GMT on July 18, 2016","2016","07","18","18","00","UTC","21.0","69.8","19.0","66.2","88","21.6","13.4","-9999.0","-9999.0","320","NW","10.0","6.2","1004","29.65","-999","-999","-9999","-9999","-9999.00","-9999.00","Mostly Cloudy","mostlycloudy","0","0","0","0","0","0","METAR UKKK 181800Z 32006MPS 9999 BKN013 21/19 Q1004 R26/CLRD70 NOSIG"
"9:30 PM EEST on July 18, 2016","2016","07","18","21","30","Europe/Kiev","6:30 PM GMT on July 18, 2016","2016","07","18","18","30","UTC","20.0","68.0","18.0","64.4","88","32.4","20.1","-9999.0","-9999.0","320","NW","10.0","6.2","1005","29.68","-999","-999","-9999","-9999","-9999.00","-9999.00","Mostly Cloudy","mostlycloudy","0","0","0","0","0","0","METAR UKKK 181830Z 32009MPS 9999 BKN013 20/18 Q1005 R26/CLRD70 NOSIG"
"10:00 PM EEST on July 18, 2016","2016","07","18","22","00","Europe/Kiev","7:00 PM GMT on July 18, 2016","2016","07","18","19","00","UTC","20.0","68.0","17.0","62.6","83","28.8","17.9","-9999.0","-9999.0","330","NNW","10.0","6.2","1005","29.68","-999","-999","-9999","-9999","-9999.00","-9999.00","Mostly Cloudy","mostlycloudy","0","0","0","0","0","0","METAR UKKK 181900Z 33008MPS 9999 BKN012 20/17 Q1005 R26/CLRD70 NOSIG"
"10:30 PM EEST on July 18, 2016","2016","07","18","22","30","Europe/Kiev","7:30 PM GMT on July 18, 2016","2016","07","18","19","30","UTC","19.0","66.2","17.0","62.6","88","28.8","17.9","-9999.0","-9999.0","330","NNW","10.0","6.2","1005","29.68","-999","-999","-9999","-9999","-9999.00","-9999.00","Mostly Cloudy","mostlycloudy","0","0","0","0","0","0","METAR UKKK 181930Z 33008MPS 300V360 9999 BKN012 19/17 Q1005 R26/CLRD70 NOSIG"
"11:00 PM EEST on July 18, 2016","2016","07","18","23","00","Europe/Kiev","8:00 PM GMT on July 18, 2016","2016","07","18","20","00","UTC","19.0","66.2","17.0","62.6","88","21.6","13.4","-9999.0","-9999.0","330","NNW","10.0","6.2","1006","29.71","-999","-999","-9999","-9999","-9999.00","-9999.00","Mostly Cloudy","mostlycloudy","0","0","0","0","0","0","METAR UKKK 182000Z 33006MPS 300V360 9999 BKN012 19/17 Q1006 R26/CLRD70 NOSIG"
"11:30 PM EEST on July 18, 2016","2016","07","18","23","30","Europe/Kiev","8:30 PM GMT on July 18, 2016","2016","07","18","20","30","UTC","19.0","66.2","17.0","62.6","88","21.6","13.4","-9999.0","-9999.0","340","NNW","10.0","6.2","1006","29.71","-999","-999","-9999","-9999","-9999.00","-9999.00","Mostly Cloudy","mostlycloudy","0","0","0","0","0","0","METAR UKKK 182030Z 34006MPS 9999 BKN012 19/17 Q1006 R26/CLRD70 NOSIG"
"12:00 AM EEST on July 19, 2016","2016","07","19","00","00","Europe/Kiev","9:00 PM GMT on July 18, 2016","2016","07","18","21","00","UTC","19","67","16","61","76","14.4","8.9","","","350","North","20","12","1006","29.70","-999","-999","-9999","-9999","","","Overcast","cloudy","0","0","0","0","0","0","AAXX 18211 33345 42498 83504 10192 20162 39865 40058 53018 886// 333 88712 555 11019"
"12:00 AM EEST on July 19, 2016","2016","07","19","00","00","Europe/Kiev","9:00 PM GMT on July 18, 2016","2016","07","18","21","00","UTC","19.0","66.2","16.0","60.8","83","21.6","13.4","-9999.0","-9999.0","340","NNW","10.0","6.2","1006","29.71","-999","-999","-9999","-9999","-9999.00","-9999.00","Mostly Cloudy","mostlycloudy","0","0","0","0","0","0","METAR UKKK 182100Z 34006MPS 310V020 9999 BKN011 19/16 Q1006 R26/CLRD70 NOSIG"
"12:30 AM EEST on July 19, 2016","2016","07","19","00","30","Europe/Kiev","9:30 PM GMT on July 18, 2016","2016","07","18","21","30","UTC","18.0","64.4","16.0","60.8","88","18.0","11.2","-9999.0","-9999.0","330","NNW","10.0","6.2","1006","29.71","-999","-999","-9999","-9999","-9999.00","-9999.00","Mostly Cloudy","mostlycloudy","0","0","0","0","0","0","METAR UKKK 182130Z 33005MPS 310V010 9999 BKN011 18/16 Q1006 R26/CLRD70 NOSIG"
"1:00 AM EEST on July 19, 2016","2016","07","19","01","00","Europe/Kiev","10:00 PM GMT on July 18, 2016","2016","07","18","22","00","UTC","18.0","64.4","16.0","60.8","88","21.6","13.4","-9999.0","-9999.0","330","NNW","10.0","6.2","1006","29.71","-999","-999","-9999","-9999","-9999.00","-9999.00","Mostly Cloudy","mostlycloudy","0","0","0","0","0","0","METAR UKKK 182200Z 33006MPS 9999 BKN011 18/16 Q1006 R26/CLRD70 NOSIG"
"1:30 AM EEST on July 19, 2016","2016","07","19","01","30","Europe/Kiev","10:30 PM GMT on July 18, 2016","2016","07","18","22","30","UTC","18.0","64.4","15.0","59.0","83","25.2","15.7","-9999.0","-9999.0","330","NNW","10.0","6.2","1006","29.71","-999","-999","-9999","-9999","-9999.00","-9999.00","Mostly Cloudy","mostlycloudy","0","0","0","0","0","0","METAR UKKK 182230Z 33007MPS 300V360 9999 BKN013 18/15 Q1006 R26/CLRD70 NOSIG"
"2:00 AM EEST on July 19, 2016","2016","07","19","02","00","Europe/Kiev","11:00 PM GMT on July 18, 2016","2016","07","18","23","00","UTC","18.0","64.4","15.0","59.0","83","28.8","17.9","-9999.0","-9999.0","320","NW","10.0","6.2","1006","29.71","-999","-999","-9999","-9999","-9999.00","-9999.00","Mostly Cloudy","mostlycloudy","0","0","0","0","0","0","METAR UKKK 182300Z 32008MPS 300V360 9999 BKN013 18/15 Q1006 R26/CLRD70 NOSIG"
"2:30 AM EEST on July 19, 2016","2016","07","19","02","30","Europe/Kiev","11:30 PM GMT on July 18, 2016","2016","07","18","23","30","UTC","17.0","62.6","15.0","59.0","88","21.6","13.4","39.6","24.6","330","NNW","10.0","6.2","1006","29.71","-999","-999","-9999","-9999","-9999.00","-9999.00","Mostly Cloudy","mostlycloudy","0","0","0","0","0","0","METAR UKKK 182330Z 33006G11MPS 9999 BKN012 17/15 Q1006 R26/CLRD70 NOSIG"
"3:00 AM EEST on July 19, 2016","2016","07","19","03","00","Europe/Kiev","12:00 AM GMT on July 19, 2016","2016","07","19","00","00","UTC","17","63","14","58","79","18.0","11.2","","","340","NNW","20","12","1006","29.70","-999","-999","-9999","-9999","","","Overcast","cloudy","0","0","0","0","0","0","AAXX 19001 33345 32498 83405 10174 20145 39863 40058 58002 8662/ 333 86711 555 11017"
"3:00 AM EEST on July 19, 2016","2016","07","19","03","00","Europe/Kiev","12:00 AM GMT on July 19, 2016","2016","07","19","00","00","UTC","17.0","62.6","15.0","59.0","88","21.6","13.4","39.6","24.6","340","NNW","10.0","6.2","1006","29.71","-999","-999","-9999","-9999","-9999.00","-9999.00","Mostly Cloudy","mostlycloudy","0","0","0","0","0","0","METAR UKKK 190000Z 34006G11MPS 300V010 9999 BKN011 17/15 Q1006 R26/CLRD70 NOSIG"
"3:30 AM EEST on July 19, 2016","2016","07","19","03","30","Europe/Kiev","12:30 AM GMT on July 19, 2016","2016","07","19","00","30","UTC","16.0","60.8","15.0","59.0","94","21.6","13.4","-9999.0","-9999.0","330","NNW","-9999.0","-9999.0","1006","29.71","-999","-999","-9999","-9999","-9999.00","-9999.00","Light Rain Showers","rain","0","1","0","0","0","0","METAR UKKK 190030Z 33006MPS 3300 -SHRA BR SCT008 BKN023CB 16/15 Q1006 R26/CLRD70 TEMPO VRB10G16MPS 1000 TSRA BKN005 BKN015CB"
"4:00 AM EEST on July 19, 2016","2016","07","19","04","00","Europe/Kiev","1:00 AM GMT on July 19, 2016","2016","07","19","01","00","UTC","16.0","60.8","15.0","59.0","94","21.6","13.4","-9999.0","-9999.0","330","NNW","-9999.0","-9999.0","1006","29.71","-999","-999","-9999","-9999","-9999.00","-9999.00","Light Rain Showers","rain","0","1","0","0","0","0","METAR UKKK 190100Z 33006MPS 4400 -SHRA BR SCT008 BKN023CB 16/15 Q1006 R26/CLRD70 TEMPO VRB10G16MPS 2100 -TSRA BKN005 BKN015CB"
"4:30 AM EEST on July 19, 2016","2016","07","19","04","30","Europe/Kiev","1:30 AM GMT on July 19, 2016","2016","07","19","01","30","UTC","16.0","60.8","15.0","59.0","94","21.6","13.4","-9999.0","-9999.0","330","NNW","7.0","4.3","1006","29.71","-999","-999","-9999","-9999","-9999.00","-9999.00","Light Rain Showers","rain","0","1","0","0","0","0","METAR UKKK 190130Z 33006MPS 7000 -SHRA SCT011CB BKN026 16/15 Q1006 R26/290158 TEMPO VRB10G16MPS 2100 -TSRA BKN005 BKN015CB"
"5:00 AM EEST on July 19, 2016","2016","07","19","05","00","Europe/Kiev","2:00 AM GMT on July 19, 2016","2016","07","19","02","00","UTC","16.0","60.8","15.0","59.0","94","21.6","13.4","-9999.0","-9999.0","330","NNW","10.0","6.2","1006","29.71","-999","-999","-9999","-9999","-9999.00","-9999.00","Overcast","cloudy","0","0","0","0","0","0","METAR UKKK 190200Z 33006MPS 9999 OVC009 16/15 Q1006 R26/290158 TEMPO VRB10G16MPS 2100 -TSRA BKN005 BKN015CB"
"5:30 AM EEST on July 19, 2016","2016","07","19","05","30","Europe/Kiev","2:30 AM GMT on July 19, 2016","2016","07","19","02","30","UTC","16.0","60.8","15.0","59.0","94","25.2","15.7","-9999.0","-9999.0","330","NNW","10.0","6.2","1006","29.71","-999","-999","-9999","-9999","-9999.00","-9999.00","Overcast","cloudy","0","0","0","0","0","0","METAR UKKK 190230Z 33007MPS 9999 OVC010 16/15 Q1006 R26/290158 TEMPO VRB10G16MPS 2100 -TSRA BKN015CB"
"6:00 AM EEST on July 19, 2016","2016","07","19","06","00","Europe/Kiev","3:00 AM GMT on July 19, 2016","2016","07","19","03","00","UTC","16","62","14","58","82","14.4","8.9","","","340","NNW","10","6","1006","29.71","-999","-999","-9999","-9999","","","Partly Cloudy","partlycloudy","0","0","0","0","0","0","AAXX 19031 33345 41397 83404 10165 20144 39865 40060 53002 70252 886// 333 88709 555 11017"
"6:00 AM EEST on July 19, 2016","2016","07","19","06","00","Europe/Kiev","3:00 AM GMT on July 19, 2016","2016","07","19","03","00","UTC","16.0","60.8","15.0","59.0","94","25.2","15.7","-9999.0","-9999.0","330","NNW","10.0","6.2","1006","29.71","-999","-999","-9999","-9999","-9999.00","-9999.00","Overcast","cloudy","0","0","0","0","0","0","METAR UKKK 190300Z 33007MPS 310V010 9999 OVC009 16/15 Q1006 R26/290158 TEMPO VRB10G16MPS 2100 -TSRA BKN015CB"
"6:30 AM EEST on July 19, 2016","2016","07","19","06","30","Europe/Kiev","3:30 AM GMT on July 19, 2016","2016","07","19","03","30","UTC","16.0","60.8","14.0","57.2","88","25.2","15.7","-9999.0","-9999.0","330","NNW","10.0","6.2","1006","29.71","-999","-999","-9999","-9999","-9999.00","-9999.00","Overcast","cloudy","0","0","0","0","0","0","METAR UKKK 190330Z 33007MPS 9999 OVC012 16/14 Q1006 R26/290158 TEMPO VRB10G16MPS 2100 -TSRA BKN015CB"
"7:00 AM EEST on July 19, 2016","2016","07","19","07","00","Europe/Kiev","4:00 AM GMT on July 19, 2016","2016","07","19","04","00","UTC","16.0","60.8","14.0","57.2","88","25.2","15.7","43.2","26.8","330","NNW","10.0","6.2","1006","29.71","-999","-999","-9999","-9999","-9999.00","-9999.00","Overcast","cloudy","0","0","0","0","0","0","METAR UKKK 190400Z 33007G12MPS 9999 OVC014 16/14 Q1006 R26/290158 TEMPO VRB10G16MPS 2100 -TSRA BKN015CB"
"7:30 AM EEST on July 19, 2016","2016","07","19","07","30","Europe/Kiev","4:30 AM GMT on July 19, 2016","2016","07","19","04","30","UTC","16.0","60.8","13.0","55.4","82","21.6","13.4","39.6","24.6","340","NNW","10.0","6.2","1006","29.71","-999","-999","-9999","-9999","-9999.00","-9999.00","Overcast","cloudy","0","0","0","0","0","0","METAR UKKK 190430Z 34006G11MPS 300V010 9999 BKN017 OVC041 16/13 Q1006 R26/290158 NOSIG"
"8:00 AM EEST on July 19, 2016","2016","07","19","08","00","Europe/Kiev","5:00 AM GMT on July 19, 2016","2016","07","19","05","00","UTC","17.0","62.6","13.0","55.4","77","25.2","15.7","-9999.0","-9999.0","330","NNW","10.0","6.2","1006","29.71","-999","-999","-9999","-9999","-9999.00","-9999.00","Mostly Cloudy","mostlycloudy","0","0","0","0","0","0","METAR UKKK 190500Z 33007MPS 300V360 9999 SCT018 BKN046 17/13 Q1006 R26/290158 NOSIG"
"8:30 AM EEST on July 19, 2016","2016","07","19","08","30","Europe/Kiev","5:30 AM GMT on July 19, 2016","2016","07","19","05","30","UTC","17.0","62.6","13.0","55.4","77","25.2","15.7","-9999.0","-9999.0","340","NNW","10.0","6.2","1007","29.74","-999","-999","-9999","-9999","-9999.00","-9999.00","Mostly Cloudy","mostlycloudy","0","0","0","0","0","0","METAR UKKK 190530Z 34007MPS 9999 SCT018 BKN050 17/13 Q1007 R26/290158 NOSIG"
"9:00 AM EEST on July 19, 2016","2016","07","19","09","00","Europe/Kiev","6:00 AM GMT on July 19, 2016","2016","07","19","06","00","UTC","17","63","13","55","69","18.0","11.2","","","350","North","20","12","1007","29.73","-999","-999","-9999","-9999","","","Partly Cloudy","partlycloudy","0","0","0","0","0","0","AAXX 19061 33345 11498 73505 10172 20129 39873 40068 52008 69902 70252 86630 333 20162 86713 555 11019"
"9:00 AM EEST on July 19, 2016","2016","07","19","09","00","Europe/Kiev","6:00 AM GMT on July 19, 2016","2016","07","19","06","00","UTC","18.0","64.4","13.0","55.4","73","25.2","15.7","-9999.0","-9999.0","330","NNW","10.0","6.2","1007","29.74","-999","-999","-9999","-9999","-9999.00","-9999.00","Mostly Cloudy","mostlycloudy","0","0","0","0","0","0","METAR UKKK 190600Z 33007MPS 9999 SCT018 BKN050 18/13 Q1007 R26/290158 NOSIG"
"9:30 AM EEST on July 19, 2016","2016","07","19","09","30","Europe/Kiev","6:30 AM GMT on July 19, 2016","2016","07","19","06","30","UTC","19.0","66.2","13.0","55.4","68","21.6","13.4","-9999.0","-9999.0","340","NNW","10.0","6.2","1007","29.74","-999","-999","-9999","-9999","-9999.00","-9999.00","Mostly Cloudy","mostlycloudy","0","0","0","0","0","0","METAR UKKK 190630Z 34006MPS 300V010 9999 SCT023 BKN100 19/13 Q1007 R26/190060 NOSIG"
"9:32 AM EEST on July 19, 2016","2016","07","19","09","32","Europe/Kiev","6:32 AM GMT on July 19, 2016","2016","07","19","06","32","UTC","19.0","66.2","13.0","55.4","68","25.2","15.7","46.8","29.1","340","NNW","10.0","6.2","1007","29.74","-999","-999","-9999","-9999","-9999.00","-9999.00","Mostly Cloudy","mostlycloudy","0","0","0","0","0","0","SPECI UKKK 190632Z 34007G13MPS 300V010 9999 SCT023 BKN100 19/13 Q1007 R26/190060 TEMPO 35009G14MPS"
"10:00 AM EEST on July 19, 2016","2016","07","19","10","00","Europe/Kiev","7:00 AM GMT on July 19, 2016","2016","07","19","07","00","UTC","19.0","66.2","13.0","55.4","68","28.8","17.9","46.8","29.1","330","NNW","10.0","6.2","1007","29.74","-999","-999","-9999","-9999","-9999.00","-9999.00","Mostly Cloudy","mostlycloudy","0","0","0","0","0","0","METAR UKKK 190700Z 33008G13MPS 9999 SCT026 BKN100 19/13 Q1007 R26/190060 TEMPO 35009G14MPS"
"10:30 AM EEST on July 19, 2016","2016","07","19","10","30","Europe/Kiev","7:30 AM GMT on July 19, 2016","2016","07","19","07","30","UTC","19.0","66.2","12.0","53.6","64","28.8","17.9","-9999.0","-9999.0","330","NNW","10.0","6.2","1007","29.74","-999","-999","-9999","-9999","-9999.00","-9999.00","Mostly Cloudy","mostlycloudy","0","0","0","0","0","0","METAR UKKK 190730Z 33008MPS 9999 SCT028 BKN100 19/12 Q1007 R26/CLRD70 TEMPO 35009G14MPS"
"11:00 AM EEST on July 19, 2016","2016","07","19","11","00","Europe/Kiev","8:00 AM GMT on July 19, 2016","2016","07","19","08","00","UTC","19.0","66.2","12.0","53.6","64","28.8","17.9","-9999.0","-9999.0","330","NNW","10.0","6.2","1007","29.74","-999","-999","-9999","-9999","-9999.00","-9999.00","Mostly Cloudy","mostlycloudy","0","0","0","0","0","0","METAR UKKK 190800Z 33008MPS 300V360 9999 SCT032 BKN100 19/12 Q1007 R26/CLRD70 TEMPO 33011G17MPS"
"11:30 AM EEST on July 19, 2016","2016","07","19","11","30","Europe/Kiev","8:30 AM GMT on July 19, 2016","2016","07","19","08","30","UTC","20.0","68.0","12.0","53.6","60","36.0","22.4","-9999.0","-9999.0","330","NNW","10.0","6.2","1007","29.74","-999","-999","-9999","-9999","-9999.00","-9999.00","Mostly Cloudy","mostlycloudy","0","0","0","0","0","0","METAR UKKK 190830Z 33010MPS 9999 SCT035 BKN100 20/12 Q1007 R26/CLRD70 TEMPO 33011G17MPS"
"12:00 PM EEST on July 19, 2016","2016","07","19","12","00","Europe/Kiev","9:00 AM GMT on July 19, 2016","2016","07","19","09","00","UTC","20","68","12","54","51","18.0","11.2","","","340","NNW","20","12","1007","29.74","-999","-999","-9999","-9999","","","Mostly Cloudy","mostlycloudy","0","0","0","0","0","0","AAXX 19091 33345 42498 63405 10200 20122 39878 40071 52005 86500 333 86618 555 10023"
"12:00 PM EEST on July 19, 2016","2016","07","19","12","00","Europe/Kiev","9:00 AM GMT on July 19, 2016","2016","07","19","09","00","UTC","21.0","69.8","12.0","53.6","56","32.4","20.1","-9999.0","-9999.0","330","NNW","10.0","6.2","1007","29.74","-999","-999","-9999","-9999","-9999.00","-9999.00","Mostly Cloudy","mostlycloudy","0","0","0","0","0","0","METAR UKKK 190900Z 33009MPS 300V360 9999 SCT036 BKN100 21/12 Q1007 R26/CLRD70 TEMPO 33011G17MPS"
"12:30 PM EEST on July 19, 2016","2016","07","19","12","30","Europe/Kiev","9:30 AM GMT on July 19, 2016","2016","07","19","09","30","UTC","21.0","69.8","12.0","53.6","56","25.2","15.7","-9999.0","-9999.0","330","NNW","10.0","6.2","1007","29.74","-999","-999","-9999","-9999","-9999.00","-9999.00","Mostly Cloudy","mostlycloudy","0","0","0","0","0","0","METAR UKKK 190930Z 33007MPS 310V010 9999 SCT037 BKN100 21/12 Q1007 R26/CLRD70 TEMPO 33011G17MPS"
"12:53 PM EEST on July 19, 2016","2016","07","19","12","53","Europe/Kiev","9:53 AM GMT on July 19, 2016","2016","07","19","09","53","UTC","21.0","69.8","11.0","51.8","53","28.8","17.9","46.8","29.1","320","NW","-9999.0","-9999.0","1007","29.74","-999","-999","-9999","-9999","-9999.00","-9999.00","Clear","clear","0","0","0","0","0","0","SPECI UKKK 190953Z 32008G13MPS CAVOK 21/11 Q1007 R26/CLRD70 TEMPO 33011G17MPS"
"1:00 PM EEST on July 19, 2016","2016","07","19","13","00","Europe/Kiev","10:00 AM GMT on July 19, 2016","2016","07","19","10","00","UTC","22.0","71.6","12.0","53.6","53","32.4","20.1","-9999.0","-9999.0","320","NW","-9999.0","-9999.0","1007","29.74","-999","-999","-9999","-9999","-9999.00","-9999.00","Clear","clear","0","0","0","0","0","0","METAR UKKK 191000Z 32009MPS CAVOK 22/12 Q1007 R26/CLRD70 TEMPO 33011G17MPS"
"1:04 PM EEST on July 19, 2016","2016","07","19","13","04","Europe/Kiev","10:04 AM GMT on July 19, 2016","2016","07","19","10","04","UTC","22.0","71.6","12.0","53.6","53","32.4","20.1","54.0","33.6","320","NW","-9999.0","-9999.0","1007","29.74","-999","-999","-9999","-9999","-9999.00","-9999.00","Clear","clear","0","0","0","0","0","0","SPECI UKKK 191004Z 32009G15MPS CAVOK 22/12 Q1007 R26/CLRD70 TEMPO 33011G17MPS"
"1:30 PM EEST on July 19, 2016","2016","07","19","13","30","Europe/Kiev","10:30 AM GMT on July 19, 2016","2016","07","19","10","30","UTC","22.0","71.6","12.0","53.6","53","32.4","20.1","-9999.0","-9999.0","330","NNW","-9999.0","-9999.0","1008","29.77","-999","-999","-9999","-9999","-9999.00","-9999.00","Clear","clear","0","0","0","0","0","0","METAR UKKK 191030Z 33009MPS CAVOK 22/12 Q1008 R26/CLRD70 TEMPO 33011G17MPS"
"2:00 PM EEST on July 19, 2016","2016","07","19","14","00","Europe/Kiev","11:00 AM GMT on July 19, 2016","2016","07","19","11","00","UTC","22.0","71.6","12.0","53.6","53","32.4","20.1","-9999.0","-9999.0","320","NW","10.0","6.2","1008","29.77","-999","-999","-9999","-9999","-9999.00","-9999.00","Mostly Cloudy","mostlycloudy","0","0","0","0","0","0","METAR UKKK 191100Z 32009MPS 9999 SCT043 BKN100 22/12 Q1008 R26/CLRD70 TEMPO 33011G17MPS"
"2:30 PM EEST on July 19, 2016","2016","07","19","14","30","Europe/Kiev","11:30 AM GMT on July 19, 2016","2016","07","19","11","30","UTC","22.0","71.6","12.0","53.6","53","32.4","20.1","-9999.0","-9999.0","320","NW","-9999.0","-9999.0","1008","29.77","-999","-999","-9999","-9999","-9999.00","-9999.00","Clear","clear","0","0","0","0","0","0","METAR UKKK 191130Z 32009MPS CAVOK 22/12 Q1008 R26/CLRD70 TEMPO 33011G17MPS"
"3:00 PM EEST on July 19, 2016","2016","07","19","15","00","Europe/Kiev","12:00 PM GMT on July 19, 2016","2016","07","19","12","00","UTC","22","71","11","52","40","14.4","8.9","","","330","NNW","20","12","1007","29.75","-999","-999","-9999","-9999","","","Mostly Cloudy","mostlycloudy","0","0","0","0","0","0","AAXX 19121 33345 32598 63304 10219 20109 39880 40072 52002 86500 555 10027"
"3:00 PM EEST on July 19, 2016","2016","07","19","15","00","Europe/Kiev","12:00 PM GMT on July 19, 2016","2016","07","19","12","00","UTC","23.0","73.4","12.0","53.6","50","25.2","15.7","-9999.0","-9999.0","310","NW","-9999.0","-9999.0","1008","29.77","-999","-999","-9999","-9999","-9999.00","-9999.00","Clear","clear","0","0","0","0","0","0","METAR UKKK 191200Z 31007MPS CAVOK 23/12 Q1008 R26/CLRD70 TEMPO 33011G17MPS"
"3:05 PM EEST on July 19, 2016","2016","07","19","15","05","Europe/Kiev","12:05 PM GMT on July 19, 2016","2016","07","19","12","05","UTC","23.0","73.4","11.0","51.8","47","28.8","17.9","50.4","31.3","310","NW","-9999.0","-9999.0","1008","29.77","-999","-999","-9999","-9999","-9999.00","-9999.00","Clear","clear","0","0","0","0","0","0","SPECI UKKK 191205Z 31008G14MPS CAVOK 23/11 Q1008 R26/CLRD70 TEMPO 33011G17MPS"
"3:30 PM EEST on July 19, 2016","2016","07","19","15","30","Europe/Kiev","12:30 PM GMT on July 19, 2016","2016","07","19","12","30","UTC","22.0","71.6","11.0","51.8","50","28.8","17.9","-9999.0","-9999.0","320","NW","-9999.0","-9999.0","1008","29.77","-999","-999","-9999","-9999","-9999.00","-9999.00","Clear","clear","0","0","0","0","0","0","METAR UKKK 191230Z 32008MPS 290V350 CAVOK 22/11 Q1008 R26/CLRD70 TEMPO 33011G17MPS"
"4:00 PM EEST on July 19, 2016","2016","07","19","16","00","Europe/Kiev","1:00 PM GMT on July 19, 2016","2016","07","19","13","00","UTC","22.0","71.6","11.0","51.8","50","32.4","20.1","-9999.0","-9999.0","320","NW","-9999.0","-9999.0","1008","29.77","-999","-999","-9999","-9999","-9999.00","-9999.00","Clear","clear","0","0","0","0","0","0","METAR UKKK 191300Z 32009MPS CAVOK 22/11 Q1008 R26/CLRD70 TEMPO 33011G17MPS"
"4:30 PM EEST on July 19, 2016","2016","07","19","16","30","Europe/Kiev","1:30 PM GMT on July 19, 2016","2016","07","19","13","30","UTC","22.0","71.6","11.0","51.8","50","21.6","13.4","-9999.0","-9999.0","330","NNW","-9999.0","-9999.0","1008","29.77","-999","-999","-9999","-9999","-9999.00","-9999.00","Clear","clear","0","0","0","0","0","0","METAR UKKK 191330Z 33006MPS CAVOK 22/11 Q1008 R26/CLRD70 TEMPO 33011G17MPS"
"5:00 PM EEST on July 19, 2016","2016","07","19","17","00","Europe/Kiev","2:00 PM GMT on July 19, 2016","2016","07","19","14","00","UTC","22.0","71.6","11.0","51.8","50","25.2","15.7","-9999.0","-9999.0","340","NNW","-9999.0","-9999.0","1008","29.77","-999","-999","-9999","-9999","-9999.00","-9999.00","Clear","clear","0","0","0","0","0","0","METAR UKKK 191400Z 34007MPS CAVOK 22/11 Q1008 R26/CLRD70 NOSIG"
"5:22 PM EEST on July 19, 2016","2016","07","19","17","22","Europe/Kiev","2:22 PM GMT on July 19, 2016","2016","07","19","14","22","UTC","22.0","71.6","11.0","51.8","50","25.2","15.7","43.2","26.8","340","NNW","-9999.0","-9999.0","1008","29.77","-999","-999","-9999","-9999","-9999.00","-9999.00","Clear","clear","0","0","0","0","0","0","SPECI UKKK 191422Z 34007G12MPS 310V010 CAVOK 22/11 Q1008 R26/CLRD70 NOSIG"
"5:30 PM EEST on July 19, 2016","2016","07","19","17","30","Europe/Kiev","2:30 PM GMT on July 19, 2016","2016","07","19","14","30","UTC","21.0","69.8","11.0","51.8","53","21.6","13.4","43.2","26.8","330","NNW","-9999.0","-9999.0","1008","29.77","-999","-999","-9999","-9999","-9999.00","-9999.00","Clear","clear","0","0","0","0","0","0","METAR UKKK 191430Z 33006G12MPS CAVOK 21/11 Q1008 R26/CLRD70 NOSIG"
"6:00 PM EEST on July 19, 2016","2016","07","19","18","00","Europe/Kiev","3:00 PM GMT on July 19, 2016","2016","07","19","15","00","UTC","21","70","11","51","41","18.0","11.2","","","350","North","20","12","1008","29.78","-999","-999","-9999","-9999","","","Mostly Cloudy","mostlycloudy","0","0","0","0","0","0","AAXX 19151 33345 42498 73505 10212 20107 39889 40082 52009 87500 333 87618 555 10024"
"6:00 PM EEST on July 19, 2016","2016","07","19","18","00","Europe/Kiev","3:00 PM GMT on July 19, 2016","2016","07","19","15","00","UTC","21.0","69.8","11.0","51.8","53","18.0","11.2","-9999.0","-9999.0","340","NNW","-9999.0","-9999.0","1009","29.80","-999","-999","-9999","-9999","-9999.00","-9999.00","Clear","clear","0","0","0","0","0","0","METAR UKKK 191500Z 34005MPS CAVOK 21/11 Q1009 R26/CLRD70 NOSIG"
"6:30 PM EEST on July 19, 2016","2016","07","19","18","30","Europe/Kiev","3:30 PM GMT on July 19, 2016","2016","07","19","15","30","UTC","21.0","69.8","11.0","51.8","53","21.6","13.4","-9999.0","-9999.0","330","NNW","-9999.0","-9999.0","1009","29.80","-999","-999","-9999","-9999","-9999.00","-9999.00","Clear","clear","0","0","0","0","0","0","METAR UKKK 191530Z 33006MPS CAVOK 21/11 Q1009 R26/CLRD70 NOSIG"
"7:00 PM EEST on July 19, 2016","2016","07","19","19","00","Europe/Kiev","4:00 PM GMT on July 19, 2016","2016","07","19","16","00","UTC","21.0","69.8","11.0","51.8","53","21.6","13.4","39.6","24.6","320","NW","-9999.0","-9999.0","1009","29.80","-999","-999","-9999","-9999","-9999.00","-9999.00","Clear","clear","0","0","0","0","0","0","METAR UKKK 191600Z 32006G11MPS CAVOK 21/11 Q1009 R26/CLRD70 NOSIG"
"7:30 PM EEST on July 19, 2016","2016","07","19","19","30","Europe/Kiev","4:30 PM GMT on July 19, 2016","2016","07","19","16","30","UTC","21.0","69.8","11.0","51.8","53","18.0","11.2","-9999.0","-9999.0","330","NNW","9.0","5.6","1009","29.80","-999","-999","-9999","-9999","-9999.00","-9999.00","Unknown","unknown","0","0","0","0","0","0","METAR UKKK 191630Z 33005MPS 9000 NSC 21/11 Q1009 R26/CLRD70 NOSIG"
"8:00 PM EEST on July 19, 2016","2016","07","19","20","00","Europe/Kiev","5:00 PM GMT on July 19, 2016","2016","07","19","17","00","UTC","21.0","69.8","11.0","51.8","53","21.6","13.4","-9999.0","-9999.0","320","NW","-9999.0","-9999.0","1009","29.80","-999","-999","-9999","-9999","-9999.00","-9999.00","Clear","clear","0","0","0","0","0","0","METAR UKKK 191700Z 32006MPS CAVOK 21/11 Q1009 R26/CLRD70 NOSIG"
"8:30 PM EEST on July 19, 2016","2016","07","19","20","30","Europe/Kiev","5:30 PM GMT on July 19, 2016","2016","07","19","17","30","UTC","20.0","68.0","11.0","51.8","56","21.6","13.4","-9999.0","-9999.0","330","NNW","-9999.0","-9999.0","1009","29.80","-999","-999","-9999","-9999","-9999.00","-9999.00","Clear","clear","0","0","0","0","0","0","METAR UKKK 191730Z 33006MPS CAVOK 20/11 Q1009 R26/CLRD70 NOSIG"
"9:00 PM EEST on July 19, 2016","2016","07","19","21","00","Europe/Kiev","6:00 PM GMT on July 19, 2016","2016","07","19","18","00","UTC","20","69","11","51","42","14.4","8.9","","","330","NNW","20","12","1009","29.80","-999","-999","-9999","-9999","","","Mostly Cloudy","mostlycloudy","0","0","0","0","0","0","AAXX 19181 33345 32498 73304 10203 20106 39896 40090 52007 87500 333 10226 87618 555 10020"
"9:00 PM EEST on July 19, 2016","2016","07","19","21","00","Europe/Kiev","6:00 PM GMT on July 19, 2016","2016","07","19","18","00","UTC","20.0","68.0","11.0","51.8","56","21.6","13.4","-9999.0","-9999.0","320","NW","-9999.0","-9999.0","1009","29.80","-999","-999","-9999","-9999","-9999.00","-9999.00","Clear","clear","0","0","0","0","0","0","METAR UKKK 191800Z 32006MPS CAVOK 20/11 Q1009 R26/CLRD70 NOSIG"
"9:30 PM EEST on July 19, 2016","2016","07","19","21","30","Europe/Kiev","6:30 PM GMT on July 19, 2016","2016","07","19","18","30","UTC","20.0","68.0","11.0","51.8","56","21.6","13.4","-9999.0","-9999.0","310","NW","-9999.0","-9999.0","1009","29.80","-999","-999","-9999","-9999","-9999.00","-9999.00","Clear","clear","0","0","0","0","0","0","METAR UKKK 191830Z 31006MPS 290V350 CAVOK 20/11 Q1009 R26/CLRD70 NOSIG"
"10:00 PM EEST on July 19, 2016","2016","07","19","22","00","Europe/Kiev","7:00 PM GMT on July 19, 2016","2016","07","19","19","00","UTC","19.0","66.2","11.0","51.8","60","18.0","11.2","-9999.0","-9999.0","320","NW","-9999.0","-9999.0","1009","29.80","-999","-999","-9999","-9999","-9999.00","-9999.00","Clear","clear","0","0","0","0","0","0","METAR UKKK 191900Z 32005MPS CAVOK 19/11 Q1009 R26/CLRD70 NOSIG"
"10:30 PM EEST on July 19, 2016","2016","07","19","22","30","Europe/Kiev","7:30 PM GMT on July 19, 2016","2016","07","19","19","30","UTC","19.0","66.2","11.0","51.8","60","25.2","15.7","-9999.0","-9999.0","310","NW","-9999.0","-9999.0","1010","29.83","-999","-999","-9999","-9999","-9999.00","-9999.00","Clear","clear","0","0","0","0","0","0","METAR UKKK 191930Z 31007MPS CAVOK 19/11 Q1010 R26/CLRD70 NOSIG"
"11:00 PM EEST on July 19, 2016","2016","07","19","23","00","Europe/Kiev","8:00 PM GMT on July 19, 2016","2016","07","19","20","00","UTC","19.0","66.2","11.0","51.8","60","21.6","13.4","-9999.0","-9999.0","310","NW","-9999.0","-9999.0","1010","29.83","-999","-999","-9999","-9999","-9999.00","-9999.00","Clear","clear","0","0","0","0","0","0","METAR UKKK 192000Z 31006MPS CAVOK 19/11 Q1010 R26/CLRD70 NOSIG"
"11:30 PM EEST on July 19, 2016","2016","07","19","23","30","Europe/Kiev","8:30 PM GMT on July 19, 2016","2016","07","19","20","30","UTC","19.0","66.2","11.0","51.8","60","25.2","15.7","-9999.0","-9999.0","310","NW","-9999.0","-9999.0","1010","29.83","-999","-999","-9999","-9999","-9999.00","-9999.00","Clear","clear","0","0","0","0","0","0","METAR UKKK 192030Z 31007MPS CAVOK 19/11 Q1010 R26/CLRD70 NOSIG"
"12:00 AM EEST on July 20, 2016","2016","07","20","00","00","Europe/Kiev","9:00 PM GMT on July 19, 2016","2016","07","19","21","00","UTC","19","65","11","52","53","14.4","8.9","","","330","NNW","20","12","1010","29.82","-999","-999","-9999","-9999","","","Mostly Cloudy","mostlycloudy","0","0","0","0","0","0","AAXX 19211 33345 42498 63304 10186 20111 39902 40097 52006 86500 333 86618 555 10018"
"12:00 AM EEST on July 20, 2016","2016","07","20","00","00","Europe/Kiev","9:00 PM GMT on July 19, 2016","2016","07","19","21","00","UTC","18.0","64.4","11.0","51.8","64","21.6","13.4","-9999.0","-9999.0","310","NW","-9999.0","-9999.0","1010","29.83","-999","-999","-9999","-9999","-9999.00","-9999.00","Clear","clear","0","0","0","0","0","0","METAR UKKK 192100Z 31006MPS CAVOK 18/11 Q1010 R26/CLRD70 NOSIG"
"12:30 AM EEST on July 20, 2016","2016","07","20","00","30","Europe/Kiev","9:30 PM GMT on July 19, 2016","2016","07","19","21","30","UTC","18.0","64.4","11.0","51.8","64","21.6","13.4","-9999.0","-9999.0","320","NW","-9999.0","-9999.0","1010","29.83","-999","-999","-9999","-9999","-9999.00","-9999.00","Clear","clear","0","0","0","0","0","0","METAR UKKK 192130Z 32006MPS CAVOK 18/11 Q1010 R26/CLRD70 NOSIG"
"1:00 AM EEST on July 20, 2016","2016","07","20","01","00","Europe/Kiev","10:00 PM GMT on July 19, 2016","2016","07","19","22","00","UTC","18.0","64.4","11.0","51.8","64","21.6","13.4","-9999.0","-9999.0","320","NW","-9999.0","-9999.0","1010","29.83","-999","-999","-9999","-9999","-9999.00","-9999.00","Clear","clear","0","0","0","0","0","0","METAR UKKK 192200Z 32006MPS CAVOK 18/11 Q1010 R26/CLRD70 NOSIG"
"1:30 AM EEST on July 20, 2016","2016","07","20","01","30","Europe/Kiev","10:30 PM GMT on July 19, 2016","2016","07","19","22","30","UTC","17.0","62.6","11.0","51.8","68","18.0","11.2","-9999.0","-9999.0","320","NW","-9999.0","-9999.0","1010","29.83","-999","-999","-9999","-9999","-9999.00","-9999.00","Clear","clear","0","0","0","0","0","0","METAR UKKK 192230Z 32005MPS CAVOK 17/11 Q1010 R26/CLRD70 NOSIG"
"2:00 AM EEST on July 20, 2016","2016","07","20","02","00","Europe/Kiev","11:00 PM GMT on July 19, 2016","2016","07","19","23","00","UTC","17.0","62.6","11.0","51.8","68","18.0","11.2","-9999.0","-9999.0","310","NW","-9999.0","-9999.0","1010","29.83","-999","-999","-9999","-9999","-9999.00","-9999.00","Clear","clear","0","0","0","0","0","0","METAR UKKK 192300Z 31005MPS CAVOK 17/11 Q1010 R26/CLRD70 NOSIG"
"2:30 AM EEST on July 20, 2016","2016","07","20","02","30","Europe/Kiev","11:30 PM GMT on July 19, 2016","2016","07","19","23","30","UTC","16.0","60.8","11.0","51.8","72","21.6","13.4","-9999.0","-9999.0","310","NW","-9999.0","-9999.0","1010","29.83","-999","-999","-9999","-9999","-9999.00","-9999.00","Clear","clear","0","0","0","0","0","0","METAR UKKK 192330Z 31006MPS CAVOK 16/11 Q1010 R26/CLRD70 NOSIG"
"3:00 AM EEST on July 20, 2016","2016","07","20","03","00","Europe/Kiev","12:00 AM GMT on July 20, 2016","2016","07","20","00","00","UTC","16","62","11","52","60","10.8","6.7","","","320","NW","20","12","1010","29.82","-999","-999","-9999","-9999","","","","","0","0","0","0","0","0","AAXX 20001 33345 32998 03203 10165 20109 39902 40098 54000 555 10015"
"3:00 AM EEST on July 20, 2016","2016","07","20","03","00","Europe/Kiev","12:00 AM GMT on July 20, 2016","2016","07","20","00","00","UTC","16.0","60.8","11.0","51.8","72","21.6","13.4","-9999.0","-9999.0","310","NW","-9999.0","-9999.0","1010","29.83","-999","-999","-9999","-9999","-9999.00","-9999.00","Clear","clear","0","0","0","0","0","0","METAR UKKK 200000Z 31006MPS CAVOK 16/11 Q1010 R26/CLRD70 NOSIG"
"3:30 AM EEST on July 20, 2016","2016","07","20","03","30","Europe/Kiev","12:30 AM GMT on July 20, 2016","2016","07","20","00","30","UTC","15.0","59.0","11.0","51.8","77","18.0","11.2","-9999.0","-9999.0","300","WNW","-9999.0","-9999.0","1010","29.83","-999","-999","-9999","-9999","-9999.00","-9999.00","Clear","clear","0","0","0","0","0","0","METAR UKKK 200030Z 30005MPS CAVOK 15/11 Q1010 R26/CLRD70 NOSIG"
"4:00 AM EEST on July 20, 2016","2016","07","20","04","00","Europe/Kiev","1:00 AM GMT on July 20, 2016","2016","07","20","01","00","UTC","15.0","59.0","11.0","51.8","77","18.0","11.2","-9999.0","-9999.0","300","WNW","-9999.0","-9999.0","1010","29.83","-999","-999","-9999","-9999","-9999.00","-9999.00","Clear","clear","0","0","0","0","0","0","METAR UKKK 200100Z 30005MPS CAVOK 15/11 Q1010 R26/CLRD70 NOSIG"
"4:30 AM EEST on July 20, 2016","2016","07","20","04","30","Europe/Kiev","1:30 AM GMT on July 20, 2016","2016","07","20","01","30","UTC","15.0","59.0","11.0","51.8","77","18.0","11.2","-9999.0","-9999.0","310","NW","-9999.0","-9999.0","1010","29.83","-999","-999","-9999","-9999","-9999.00","-9999.00","Clear","clear","0","0","0","0","0","0","METAR UKKK 200130Z 31005MPS CAVOK 15/11 Q1010 R26/CLRD70 NOSIG"
"5:00 AM EEST on July 20, 2016","2016","07","20","05","00","Europe/Kiev","2:00 AM GMT on July 20, 2016","2016","07","20","02","00","UTC","14.0","57.2","11.0","51.8","82","21.6","13.4","-9999.0","-9999.0","300","WNW","-9999.0","-9999.0","1010","29.83","-999","-999","-9999","-9999","-9999.00","-9999.00","Clear","clear","0","0","0","0","0","0","METAR UKKK 200200Z 30006MPS CAVOK 14/11 Q1010 R26/CLRD70 NOSIG"
"5:30 AM EEST on July 20, 2016","2016","07","20","05","30","Europe/Kiev","2:30 AM GMT on July 20, 2016","2016","07","20","02","30","UTC","14.0","57.2","11.0","51.8","82","18.0","11.2","-9999.0","-9999.0","300","WNW","-9999.0","-9999.0","1010","29.83","-999","-999","-9999","-9999","-9999.00","-9999.00","Clear","clear","0","0","0","0","0","0","METAR UKKK 200230Z 30005MPS CAVOK 14/11 Q1010 R26/CLRD70 NOSIG"
"6:00 AM EEST on July 20, 2016","2016","07","20","06","00","Europe/Kiev","3:00 AM GMT on July 20, 2016","2016","07","20","03","00","UTC","15","59","11","52","70","10.8","6.7","","","320","NW","20","12","1010","29.83","-999","-999","-9999","-9999","","","","","0","0","0","0","0","0","AAXX 20031 33345 42998 03203 10149 20110 39903 40100 53001 555 10013"
"6:00 AM EEST on July 20, 2016","2016","07","20","06","00","Europe/Kiev","3:00 AM GMT on July 20, 2016","2016","07","20","03","00","UTC","14.0","57.2","11.0","51.8","82","18.0","11.2","-9999.0","-9999.0","300","WNW","-9999.0","-9999.0","1010","29.83","-999","-999","-9999","-9999","-9999.00","-9999.00","Clear","clear","0","0","0","0","0","0","METAR UKKK 200300Z 30005MPS CAVOK 14/11 Q1010 R26/CLRD70 NOSIG"
"6:30 AM EEST on July 20, 2016","2016","07","20","06","30","Europe/Kiev","3:30 AM GMT on July 20, 2016","2016","07","20","03","30","UTC","14.0","57.2","11.0","51.8","82","18.0","11.2","-9999.0","-9999.0","290","WNW","-9999.0","-9999.0","1010","29.83","-999","-999","-9999","-9999","-9999.00","-9999.00","Clear","clear","0","0","0","0","0","0","METAR UKKK 200330Z 29005MPS CAVOK 14/11 Q1010 R26/CLRD70 NOSIG"
"7:00 AM EEST on July 20, 2016","2016","07","20","07","00","Europe/Kiev","4:00 AM GMT on July 20, 2016","2016","07","20","04","00","UTC","15.0","59.0","11.0","51.8","77","21.6","13.4","-9999.0","-9999.0","290","WNW","-9999.0","-9999.0","1010","29.83","-999","-999","-9999","-9999","-9999.00","-9999.00","Clear","clear","0","0","0","0","0","0","METAR UKKK 200400Z 29006MPS CAVOK 15/11 Q1010 R26/CLRD70 NOSIG"
"7:30 AM EEST on July 20, 2016","2016","07","20","07","30","Europe/Kiev","4:30 AM GMT on July 20, 2016","2016","07","20","04","30","UTC","15.0","59.0","11.0","51.8","77","21.6","13.4","-9999.0","-9999.0","290","WNW","-9999.0","-9999.0","1010","29.83","-999","-999","-9999","-9999","-9999.00","-9999.00","Clear","clear","0","0","0","0","0","0","METAR UKKK 200430Z 29006MPS CAVOK 15/11 Q1010 R26/CLRD70 NOSIG"
"8:00 AM EEST on July 20, 2016","2016","07","20","08","00","Europe/Kiev","5:00 AM GMT on July 20, 2016","2016","07","20","05","00","UTC","16.0","60.8","12.0","53.6","77","21.6","13.4","-9999.0","-9999.0","290","WNW","-9999.0","-9999.0","1010","29.83","-999","-999","-9999","-9999","-9999.00","-9999.00","Clear","clear","0","0","0","0","0","0","METAR UKKK 200500Z 29006MPS CAVOK 16/12 Q1010 R26/CLRD70 NOSIG"
"8:30 AM EEST on July 20, 2016","2016","07","20","08","30","Europe/Kiev","5:30 AM GMT on July 20, 2016","2016","07","20","05","30","UTC","17.0","62.6","12.0","53.6","72","18.0","11.2","-9999.0","-9999.0","290","WNW","-9999.0","-9999.0","1010","29.83","-999","-999","-9999","-9999","-9999.00","-9999.00","Clear","clear","0","0","0","0","0","0","METAR UKKK 200530Z 29005MPS CAVOK 17/12 Q1010 R26/CLRD70 NOSIG"
"9:00 AM EEST on July 20, 2016","2016","07","20","09","00","Europe/Kiev","6:00 AM GMT on July 20, 2016","2016","07","20","06","00","UTC","18","64","12","53","59","10.8","6.7","","","300","WNW","20","12","1010","29.83","-999","-999","-9999","-9999","","","","","0","0","0","0","0","0","AAXX 20061 33345 32998 03003 10179 20117 39904 40099 52001 333 20148 555 10026"
"9:00 AM EEST on July 20, 2016","2016","07","20","09","00","Europe/Kiev","6:00 AM GMT on July 20, 2016","2016","07","20","06","00","UTC","18.0","64.4","12.0","53.6","68","21.6","13.4","-9999.0","-9999.0","280","West","-9999.0","-9999.0","1010","29.83","-999","-999","-9999","-9999","-9999.00","-9999.00","Clear","clear","0","0","0","0","0","0","METAR UKKK 200600Z 28006MPS CAVOK 18/12 Q1010 R26/CLRD70 NOSIG"
"9:30 AM EEST on July 20, 2016","2016","07","20","09","30","Europe/Kiev","6:30 AM GMT on July 20, 2016","2016","07","20","06","30","UTC","19.0","66.2","12.0","53.6","64","18.0","11.2","-9999.0","-9999.0","280","West","-9999.0","-9999.0","1010","29.83","-999","-999","-9999","-9999","-9999.00","-9999.00","Clear","clear","0","0","0","0","0","0","METAR UKKK 200630Z 28005MPS CAVOK 19/12 Q1010 R26/CLRD70 NOSIG"
"10:00 AM EEST on July 20, 2016","2016","07","20","10","00","Europe/Kiev","7:00 AM GMT on July 20, 2016","2016","07","20","07","00","UTC","20.0","68.0","12.0","53.6","60","25.2","15.7","-9999.0","-9999.0","300","WNW","10.0","6.2","1010","29.83","-999","-999","-9999","-9999","-9999.00","-9999.00","Partly Cloudy","partlycloudy","0","0","0","0","0","0","METAR UKKK 200700Z 30007MPS 9999 FEW034 20/12 Q1010 R26/CLRD70 NOSIG"
"10:30 AM EEST on July 20, 2016","2016","07","20","10","30","Europe/Kiev","7:30 AM GMT on July 20, 2016","2016","07","20","07","30","UTC","21.0","69.8","12.0","53.6","56","25.2","15.7","-9999.0","-9999.0","300","WNW","10.0","6.2","1010","29.83","-999","-999","-9999","-9999","-9999.00","-9999.00","Scattered Clouds","partlycloudy","0","0","0","0","0","0","METAR UKKK 200730Z 30007MPS 270V330 9999 SCT033 21/12 Q1010 R26/CLRD70 NOSIG"
"11:00 AM EEST on July 20, 2016","2016","07","20","11","00","Europe/Kiev","8:00 AM GMT on July 20, 2016","2016","07","20","08","00","UTC","21.0","69.8","12.0","53.6","56","28.8","17.9","-9999.0","-9999.0","310","NW","10.0","6.2","1010","29.83","-999","-999","-9999","-9999","-9999.00","-9999.00","Mostly Cloudy","mostlycloudy","0","0","0","0","0","0","METAR UKKK 200800Z 31008MPS 9999 BKN038 21/12 Q1010 R26/CLRD70 NOSIG"
"11:30 AM EEST on July 20, 2016","2016","07","20","11","30","Europe/Kiev","8:30 AM GMT on July 20, 2016","2016","07","20","08","30","UTC","21.0","69.8","12.0","53.6","56","28.8","17.9","-9999.0","-9999.0","310","NW","10.0","6.2","1009","29.80","-999","-999","-9999","-9999","-9999.00","-9999.00","Mostly Cloudy","mostlycloudy","0","0","0","0","0","0","METAR UKKK 200830Z 31008MPS 280V340 9999 BKN043 21/12 Q1009 R26/CLRD70 NOSIG"
"12:00 PM EEST on July 20, 2016","2016","07","20","12","00","Europe/Kiev","9:00 AM GMT on July 20, 2016","2016","07","20","09","00","UTC","21","70","10","50","37","14.4","8.9","","","310","NW","20","12","1009","29.80","-999","-999","-9999","-9999","","","Mostly Cloudy","mostlycloudy","0","0","0","0","0","0","AAXX 20091 33345 42698 53104 10212 20098 39897 40090 58007 85200 555 10040"
"12:00 PM EEST on July 20, 2016","2016","07","20","12","00","Europe/Kiev","9:00 AM GMT on July 20, 2016","2016","07","20","09","00","UTC","22.0","71.6","12.0","53.6","53","25.2","15.7","-9999.0","-9999.0","300","WNW","10.0","6.2","1009","29.80","-999","-999","-9999","-9999","-9999.00","-9999.00","Mostly Cloudy","mostlycloudy","0","0","0","0","0","0","METAR UKKK 200900Z 30007MPS 9999 BKN042 22/12 Q1009 R26/CLRD70 NOSIG"
"12:30 PM EEST on July 20, 2016","2016","07","20","12","30","Europe/Kiev","9:30 AM GMT on July 20, 2016","2016","07","20","09","30","UTC","22.0","71.6","10.0","50.0","46","21.6","13.4","-9999.0","-9999.0","290","WNW","10.0","6.2","1009","29.80","-999","-999","-9999","-9999","-9999.00","-9999.00","Mostly Cloudy","mostlycloudy","0","0","0","0","0","0","METAR UKKK 200930Z 29006MPS 260V330 9999 BKN046 22/10 Q1009 R26/CLRD70 NOSIG"
"1:00 PM EEST on July 20, 2016","2016","07","20","13","00","Europe/Kiev","10:00 AM GMT on July 20, 2016","2016","07","20","10","00","UTC","22.0","71.6","11.0","51.8","50","25.2","15.7","-9999.0","-9999.0","310","NW","10.0","6.2","1009","29.80","-999","-999","-9999","-9999","-9999.00","-9999.00","Mostly Cloudy","mostlycloudy","0","0","0","0","0","0","METAR UKKK 201000Z 31007MPS 9999 FEW033CB SCT056 BKN083 22/11 Q1009 R26/CLRD70 NOSIG"
"1:30 PM EEST on July 20, 2016","2016","07","20","13","30","Europe/Kiev","10:30 AM GMT on July 20, 2016","2016","07","20","10","30","UTC","21.0","69.8","10.0","50.0","49","25.2","15.7","-9999.0","-9999.0","300","WNW","10.0","6.2","1009","29.80","-999","-999","-9999","-9999","-9999.00","-9999.00","Mostly Cloudy","mostlycloudy","0","0","0","0","0","0","METAR UKKK 201030Z 30007MPS 280V350 9999 FEW033CB SCT056 BKN083 21/10 Q1009 R26/CLRD70 NOSIG"
"2:00 PM EEST on July 20, 2016","2016","07","20","14","00","Europe/Kiev","11:00 AM GMT on July 20, 2016","2016","07","20","11","00","UTC","21.0","69.8","10.0","50.0","49","25.2","15.7","-9999.0","-9999.0","290","WNW","10.0","6.2","1009","29.80","-999","-999","-9999","-9999","-9999.00","-9999.00","Mostly Cloudy","mostlycloudy","0","0","0","0","0","0","METAR UKKK 201100Z 29007MPS 260V330 9999 FEW033CB SCT056 BKN083 21/10 Q1009 R26/CLRD70 NOSIG"
"2:30 PM EEST on July 20, 2016","2016","07","20","14","30","Europe/Kiev","11:30 AM GMT on July 20, 2016","2016","07","20","11","30","UTC","22.0","71.6","11.0","51.8","50","25.2","15.7","-9999.0","-9999.0","310","NW","10.0","6.2","1009","29.80","-999","-999","-9999","-9999","-9999.00","-9999.00","Mostly Cloudy","mostlycloudy","0","0","0","0","0","0","METAR UKKK 201130Z 31007MPS 280V340 9999 FEW033CB SCT056 BKN083 22/11 Q1009 R26/CLRD70 NOSIG"
"3:00 PM EEST on July 20, 2016","2016","07","20","15","00","Europe/Kiev","12:00 PM GMT on July 20, 2016","2016","07","20","12","00","UTC","22","72","9","48","31","14.4","8.9","","","340","NNW","20","12","1009","29.79","-999","-999","-9999","-9999","","","Mostly Cloudy","mostlycloudy","0","0","0","0","0","0","AAXX 20121 33345 32498 63404 10220 20087 39894 40086 57003 86300 555 10030"
"3:00 PM EEST on July 20, 2016","2016","07","20","15","00","Europe/Kiev","12:00 PM GMT on July 20, 2016","2016","07","20","12","00","UTC","22.0","71.6","9.0","48.2","43","21.6","13.4","39.6","24.6","340","NNW","10.0","6.2","1009","29.80","-999","-999","-9999","-9999","-9999.00","-9999.00","Light Rain Showers","rain","0","1","0","0","0","0","METAR UKKK 201200Z 34006G11MPS 280V030 9999 -SHRA SCT030CB BKN056 22/09 Q1009 R26/CLRD70 NOSIG"
"3:30 PM EEST on July 20, 2016","2016","07","20","15","30","Europe/Kiev","12:30 PM GMT on July 20, 2016","2016","07","20","12","30","UTC","20.0","68.0","12.0","53.6","60","14.4","8.9","-9999.0","-9999.0","310","NW","8.0","5.0","1009","29.80","-999","-999","-9999","-9999","-9999.00","-9999.00","Light Rain Showers","rain","0","1","0","0","0","0","METAR UKKK 201230Z 31004MPS 250V360 8000 -SHRA SCT030CB BKN056 20/12 Q1009 R26/290158 NOSIG"
"3:40 PM EEST on July 20, 2016","2016","07","20","15","40","Europe/Kiev","12:40 PM GMT on July 20, 2016","2016","07","20","12","40","UTC","20.0","68.0","12.0","53.6","60","25.2","15.7","43.2","26.8","310","NW","10.0","6.2","1009","29.80","-999","-999","-9999","-9999","-9999.00","-9999.00","Mostly Cloudy","mostlycloudy","0","0","0","0","0","0","SPECI UKKK 201240Z 31007G12MPS 270V340 9999 SCT030CB BKN056 20/12 Q1009 R26/290158 NOSIG"
"4:00 PM EEST on July 20, 2016","2016","07","20","16","00","Europe/Kiev","1:00 PM GMT on July 20, 2016","2016","07","20","13","00","UTC","20.0","68.0","12.0","53.6","60","25.2","15.7","-9999.0","-9999.0","280","West","10.0","6.2","1009","29.80","-999","-999","-9999","-9999","-9999.00","-9999.00","Mostly Cloudy","mostlycloudy","0","0","0","0","0","0","METAR UKKK 201300Z 28007MPS 9999 SCT032CB BKN056 20/12 Q1009 R26/290158 NOSIG"
"4:30 PM EEST on July 20, 2016","2016","07","20","16","30","Europe/Kiev","1:30 PM GMT on July 20, 2016","2016","07","20","13","30","UTC","21.0","69.8","9.0","48.2","46","32.4","20.1","-9999.0","-9999.0","310","NW","10.0","6.2","1009","29.80","-999","-999","-9999","-9999","-9999.00","-9999.00","Mostly Cloudy","mostlycloudy","0","0","0","0","0","0","METAR UKKK 201330Z 31009MPS 9999 SCT046 BKN100 21/09 Q1009 R26/290158 NOSIG"
"5:00 PM EEST on July 20, 2016","2016","07","20","17","00","Europe/Kiev","2:00 PM GMT on July 20, 2016","2016","07","20","14","00","UTC","21.0","69.8","9.0","48.2","46","28.8","17.9","-9999.0","-9999.0","300","WNW","-9999.0","-9999.0","1010","29.83","-999","-999","-9999","-9999","-9999.00","-9999.00","Clear","clear","0","0","0","0","0","0","METAR UKKK 201400Z 30008MPS CAVOK 21/09 Q1010 R26/CLRD70 NOSIG"
"5:30 PM EEST on July 20, 2016","2016","07","20","17","30","Europe/Kiev","2:30 PM GMT on July 20, 2016","2016","07","20","14","30","UTC","21.0","69.8","11.0","51.8","53","25.2","15.7","-9999.0","-9999.0","270","West","-9999.0","-9999.0","1010","29.83","-999","-999","-9999","-9999","-9999.00","-9999.00","Clear","clear","0","0","0","0","0","0","METAR UKKK 201430Z 27007MPS CAVOK 21/11 Q1010 R26/CLRD70 NOSIG"
"6:00 PM EEST on July 20, 2016","2016","07","20","18","00","Europe/Kiev","3:00 PM GMT on July 20, 2016","2016","07","20","15","00","UTC","21","70","10","50","39","14.4","8.9","","","270","West","20","12","1009","29.81","-999","-999","-9999","-9999","","","Partly Cloudy","partlycloudy","0","0","0","0","0","0","AAXX 20151 33345 41698 22704 10212 20102 39901 40094 53007 70281 82200 555 10033"
"6:00 PM EEST on July 20, 2016","2016","07","20","18","00","Europe/Kiev","3:00 PM GMT on July 20, 2016","2016","07","20","15","00","UTC","21.0","69.8","12.0","53.6","56","18.0","11.2","-9999.0","-9999.0","270","West","10.0","6.2","1009","29.80","-999","-999","-9999","-9999","-9999.00","-9999.00","Scattered Clouds","partlycloudy","0","0","0","0","0","0","METAR UKKK 201500Z 27005MPS 240V310 9999 SCT043 21/12 Q1009 R26/CLRD70 NOSIG"
"6:30 PM EEST on July 20, 2016","2016","07","20","18","30","Europe/Kiev","3:30 PM GMT on July 20, 2016","2016","07","20","15","30","UTC","21.0","69.8","11.0","51.8","53","21.6","13.4","-9999.0","-9999.0","290","WNW","10.0","6.2","1010","29.83","-999","-999","-9999","-9999","-9999.00","-9999.00","Scattered Clouds","partlycloudy","0","0","0","0","0","0","METAR UKKK 201530Z 29006MPS 9999 SCT043 21/11 Q1010 R26/CLRD70 NOSIG"
"7:00 PM EEST on July 20, 2016","2016","07","20","19","00","Europe/Kiev","4:00 PM GMT on July 20, 2016","2016","07","20","16","00","UTC","20.0","68.0","11.0","51.8","56","25.2","15.7","-9999.0","-9999.0","280","West","10.0","6.2","1010","29.83","-999","-999","-9999","-9999","-9999.00","-9999.00","Scattered Clouds","partlycloudy","0","0","0","0","0","0","METAR UKKK 201600Z 28007MPS 9999 SCT044 20/11 Q1010 R26/CLRD70 NOSIG"
"7:30 PM EEST on July 20, 2016","2016","07","20","19","30","Europe/Kiev","4:30 PM GMT on July 20, 2016","2016","07","20","16","30","UTC","19.0","66.2","11.0","51.8","60","21.6","13.4","-9999.0","-9999.0","290","WNW","10.0","6.2","1010","29.83","-999","-999","-9999","-9999","-9999.00","-9999.00","Scattered Clouds","partlycloudy","0","0","0","0","0","0","METAR UKKK 201630Z 29006MPS 9999 SCT043 19/11 Q1010 R26/CLRD70 NOSIG"
"8:00 PM EEST on July 20, 2016","2016","07","20","20","00","Europe/Kiev","5:00 PM GMT on July 20, 2016","2016","07","20","17","00","UTC","18.0","64.4","11.0","51.8","64","25.2","15.7","-9999.0","-9999.0","280","West","10.0","6.2","1010","29.83","-999","-999","-9999","-9999","-9999.00","-9999.00","Scattered Clouds","partlycloudy","0","0","0","0","0","0","METAR UKKK 201700Z 28007MPS 9999 SCT046 18/11 Q1010 R26/CLRD70 NOSIG"
"8:30 PM EEST on July 20, 2016","2016","07","20","20","30","Europe/Kiev","5:30 PM GMT on July 20, 2016","2016","07","20","17","30","UTC","18.0","64.4","12.0","53.6","68","25.2","15.7","-9999.0","-9999.0","290","WNW","10.0","6.2","1010","29.83","-999","-999","-9999","-9999","-9999.00","-9999.00","Mostly Cloudy","mostlycloudy","0","0","0","0","0","0","METAR UKKK 201730Z 29007MPS 9999 FEW030CB BKN100 18/12 Q1010 R26/CLRD70 NOSIG"
"9:00 PM EEST on July 20, 2016","2016","07","20","21","00","Europe/Kiev","6:00 PM GMT on July 20, 2016","2016","07","20","18","00","UTC","18","65","11","52","53","14.4","8.9","","","340","NNW","20","12","1010","29.84","-999","-999","-9999","-9999","","","Partly Cloudy","partlycloudy","0","0","0","0","0","0","AAXX 20181 33345 11598 23404 10182 20111 39909 40104 52008 69942 70281 82300 333 10226 555 10018"
"9:00 PM EEST on July 20, 2016","2016","07","20","21","00","Europe/Kiev","6:00 PM GMT on July 20, 2016","2016","07","20","18","00","UTC","17.0","62.6","11.0","51.8","68","21.6","13.4","-9999.0","-9999.0","330","NNW","10.0","6.2","1011","29.86","-999","-999","-9999","-9999","-9999.00","-9999.00","Mostly Cloudy","mostlycloudy","0","0","0","0","0","0","METAR UKKK 201800Z 33006MPS 9999 SCT030CB BKN090 17/11 Q1011 R26/CLRD70 NOSIG"
"9:30 PM EEST on July 20, 2016","2016","07","20","21","30","Europe/Kiev","6:30 PM GMT on July 20, 2016","2016","07","20","18","30","UTC","17.0","62.6","12.0","53.6","72","21.6","13.4","-9999.0","-9999.0","310","NW","10.0","6.2","1011","29.86","-999","-999","-9999","-9999","-9999.00","-9999.00","Mostly Cloudy","mostlycloudy","0","0","0","0","0","0","METAR UKKK 201830Z 31006MPS 9999 SCT030CB BKN090 17/12 Q1011 R26/CLRD70 NOSIG"
"10:00 PM EEST on July 20, 2016","2016","07","20","22","00","Europe/Kiev","7:00 PM GMT on July 20, 2016","2016","07","20","19","00","UTC","15.0","59.0","12.0","53.6","82","18.0","11.2","-9999.0","-9999.0","290","WNW","10.0","6.2","1010","29.83","-999","-999","-9999","-9999","-9999.00","-9999.00","Mostly Cloudy","mostlycloudy","0","0","0","0","0","0","METAR UKKK 201900Z 29005MPS 9999 FEW030CB BKN090 15/12 Q1010 R26/CLRD70 NOSIG"
"10:30 PM EEST on July 20, 2016","2016","07","20","22","30","Europe/Kiev","7:30 PM GMT on July 20, 2016","2016","07","20","19","30","UTC","16.0","60.8","12.0","53.6","77","14.4","8.9","-9999.0","-9999.0","300","WNW","10.0","6.2","1011","29.86","-999","-999","-9999","-9999","-9999.00","-9999.00","Mostly Cloudy","mostlycloudy","0","0","0","0","0","0","METAR UKKK 201930Z 30004MPS 9999 FEW027CB BKN083 16/12 Q1011 R26/CLRD70 NOSIG"
"11:00 PM EEST on July 20, 2016","2016","07","20","23","00","Europe/Kiev","8:00 PM GMT on July 20, 2016","2016","07","20","20","00","UTC","16.0","60.8","11.0","51.8","72","14.4","8.9","-9999.0","-9999.0","300","WNW","-9999.0","-9999.0","1010","29.83","-999","-999","-9999","-9999","-9999.00","-9999.00","Clear","clear","0","0","0","0","0","0","METAR UKKK 202000Z 30004MPS CAVOK 16/11 Q1010 R26/CLRD70 NOSIG"
"11:30 PM EEST on July 20, 2016","2016","07","20","23","30","Europe/Kiev","8:30 PM GMT on July 20, 2016","2016","07","20","20","30","UTC","14.0","57.2","11.0","51.8","82","14.4","8.9","-9999.0","-9999.0","290","WNW","-9999.0","-9999.0","1010","29.83","-999","-999","-9999","-9999","-9999.00","-9999.00","Clear","clear","0","0","0","0","0","0","METAR UKKK 202030Z 29004MPS CAVOK 14/11 Q1010 R26/CLRD70 NOSIG"
"12:00 AM EEST on July 21, 2016","2016","07","21","00","00","Europe/Kiev","9:00 PM GMT on July 20, 2016","2016","07","20","21","00","UTC","15","60","11","52","67","10.8","6.7","","","300","WNW","20","12","1010","29.84","-999","-999","-9999","-9999","","","Scattered Clouds","partlycloudy","0","0","0","0","0","0","AAXX 20211 33345 42998 23003 10153 20110 39907 40104 58002 82040 555 10015"
"12:00 AM EEST on July 21, 2016","2016","07","21","00","00","Europe/Kiev","9:00 PM GMT on July 20, 2016","2016","07","20","21","00","UTC","14.0","57.2","10.0","50.0","77","14.4","8.9","-9999.0","-9999.0","300","WNW","-9999.0","-9999.0","1010","29.83","-999","-999","-9999","-9999","-9999.00","-9999.00","Clear","clear","0","0","0","0","0","0","METAR UKKK 202100Z 30004MPS CAVOK 14/10 Q1010 R26/CLRD70 NOSIG"
"12:30 AM EEST on July 21, 2016","2016","07","21","00","30","Europe/Kiev","9:30 PM GMT on July 20, 2016","2016","07","20","21","30","UTC","13.0","55.4","10.0","50.0","82","14.4","8.9","-9999.0","-9999.0","270","West","-9999.0","-9999.0","1010","29.83","-999","-999","-9999","-9999","-9999.00","-9999.00","Clear","clear","0","0","0","0","0","0","METAR UKKK 202130Z 27004MPS CAVOK 13/10 Q1010 R26/CLRD70 NOSIG"
"1:00 AM EEST on July 21, 2016","2016","07","21","01","00","Europe/Kiev","10:00 PM GMT on July 20, 2016","2016","07","20","22","00","UTC","13.0","55.4","10.0","50.0","82","14.4","8.9","-9999.0","-9999.0","270","West","-9999.0","-9999.0","1010","29.83","-999","-999","-9999","-9999","-9999.00","-9999.00","Clear","clear","0","0","0","0","0","0","METAR UKKK 202200Z 27004MPS CAVOK 13/10 Q1010 R26/CLRD70 NOSIG"
"1:30 AM EEST on July 21, 2016","2016","07","21","01","30","Europe/Kiev","10:30 PM GMT on July 20, 2016","2016","07","20","22","30","UTC","13.0","55.4","11.0","51.8","88","10.8","6.7","-9999.0","-9999.0","260","West","-9999.0","-9999.0","1010","29.83","-999","-999","-9999","-9999","-9999.00","-9999.00","Clear","clear","0","0","0","0","0","0","METAR UKKK 202230Z 26003MPS CAVOK 13/11 Q1010 R26/CLRD70 NOSIG"
"2:00 AM EEST on July 21, 2016","2016","07","21","02","00","Europe/Kiev","11:00 PM GMT on July 20, 2016","2016","07","20","23","00","UTC","14.0","57.2","11.0","51.8","82","14.4","8.9","-9999.0","-9999.0","270","West","-9999.0","-9999.0","1010","29.83","-999","-999","-9999","-9999","-9999.00","-9999.00","Clear","clear","0","0","0","0","0","0","METAR UKKK 202300Z 27004MPS CAVOK 14/11 Q1010 R26/CLRD70 NOSIG"
"2:30 AM EEST on July 21, 2016","2016","07","21","02","30","Europe/Kiev","11:30 PM GMT on July 20, 2016","2016","07","20","23","30","UTC","13.0","55.4","11.0","51.8","88","14.4","8.9","-9999.0","-9999.0","260","West","-9999.0","-9999.0","1010","29.83","-999","-999","-9999","-9999","-9999.00","-9999.00","Clear","clear","0","0","0","0","0","0","METAR UKKK 202330Z 26004MPS CAVOK 13/11 Q1010 R26/CLRD70 NOSIG"
"3:00 AM EEST on July 21, 2016","2016","07","21","03","00","Europe/Kiev","12:00 AM GMT on July 21, 2016","2016","07","21","00","00","UTC","14","56","11","51","80","10.8","6.7","","","270","West","20","12","1010","29.83","-999","-999","-9999","-9999","","","Clear","clear","0","0","0","0","0","0","AAXX 21001 33345 32998 32703 10136 20108 39903 40101 57004 80009 555 10014"
"3:00 AM EEST on July 21, 2016","2016","07","21","03","00","Europe/Kiev","12:00 AM GMT on July 21, 2016","2016","07","21","00","00","UTC","13.0","55.4","11.0","51.8","88","14.4","8.9","-9999.0","-9999.0","260","West","-9999.0","-9999.0","1010","29.83","-999","-999","-9999","-9999","-9999.00","-9999.00","Clear","clear","0","0","0","0","0","0","METAR UKKK 210000Z 26004MPS CAVOK 13/11 Q1010 R26/CLRD70 NOSIG"
"3:30 AM EEST on July 21, 2016","2016","07","21","03","30","Europe/Kiev","12:30 AM GMT on July 21, 2016","2016","07","21","00","30","UTC","13.0","55.4","11.0","51.8","88","14.4","8.9","-9999.0","-9999.0","260","West","-9999.0","-9999.0","1010","29.83","-999","-999","-9999","-9999","-9999.00","-9999.00","Clear","clear","0","0","0","0","0","0","METAR UKKK 210030Z 26004MPS CAVOK 13/11 Q1010 R26/CLRD70 NOSIG"
"4:00 AM EEST on July 21, 2016","2016","07","21","04","00","Europe/Kiev","1:00 AM GMT on July 21, 2016","2016","07","21","01","00","UTC","13.0","55.4","11.0","51.8","88","10.8","6.7","-9999.0","-9999.0","260","West","-9999.0","-9999.0","1010","29.83","-999","-999","-9999","-9999","-9999.00","-9999.00","Clear","clear","0","0","0","0","0","0","METAR UKKK 210100Z 26003MPS CAVOK 13/11 Q1010 R26/CLRD70 NOSIG"
"4:30 AM EEST on July 21, 2016","2016","07","21","04","30","Europe/Kiev","1:30 AM GMT on July 21, 2016","2016","07","21","01","30","UTC","13.0","55.4","12.0","53.6","94","14.4","8.9","-9999.0","-9999.0","280","West","-9999.0","-9999.0","1010","29.83","-999","-999","-9999","-9999","-9999.00","-9999.00","Clear","clear","0","0","0","0","0","0","METAR UKKK 210130Z 28004MPS CAVOK 13/12 Q1010 R26/CLRD70 NOSIG"
"5:00 AM EEST on July 21, 2016","2016","07","21","05","00","Europe/Kiev","2:00 AM GMT on July 21, 2016","2016","07","21","02","00","UTC","13.0","55.4","12.0","53.6","94","14.4","8.9","-9999.0","-9999.0","270","West","-9999.0","-9999.0","1010","29.83","-999","-999","-9999","-9999","-9999.00","-9999.00","Clear","clear","0","0","0","0","0","0","METAR UKKK 210200Z 27004MPS CAVOK 13/12 Q1010 R26/CLRD70 NOSIG"
"5:30 AM EEST on July 21, 2016","2016","07","21","05","30","Europe/Kiev","2:30 AM GMT on July 21, 2016","2016","07","21","02","30","UTC","14.0","57.2","12.0","53.6","88","14.4","8.9","-9999.0","-9999.0","270","West","-9999.0","-9999.0","1010","29.83","-999","-999","-9999","-9999","-9999.00","-9999.00","Clear","clear","0","0","0","0","0","0","METAR UKKK 210230Z 27004MPS CAVOK 14/12 Q1010 R26/CLRD70 NOSIG"
"6:00 AM EEST on July 21, 2016","2016","07","21","06","00","Europe/Kiev","3:00 AM GMT on July 21, 2016","2016","07","21","03","00","UTC","14","57","11","53","80","7.2","4.5","","","280","West","20","12","1010","29.83","-999","-999","-9999","-9999","","","Mostly Cloudy","mostlycloudy","0","0","0","0","0","0","AAXX 21031 33345 42998 62802 10140 20114 39901 40099 57002 86040 555 10013"
"6:00 AM EEST on July 21, 2016","2016","07","21","06","00","Europe/Kiev","3:00 AM GMT on July 21, 2016","2016","07","21","03","00","UTC","14.0","57.2","12.0","53.6","88","10.8","6.7","-9999.0","-9999.0","270","West","10.0","6.2","1010","29.83","-999","-999","-9999","-9999","-9999.00","-9999.00","Mostly Cloudy","mostlycloudy","0","0","0","0","0","0","METAR UKKK 210300Z 27003MPS 9999 BKN046 14/12 Q1010 R26/CLRD70 NOSIG"
"6:30 AM EEST on July 21, 2016","2016","07","21","06","30","Europe/Kiev","3:30 AM GMT on July 21, 2016","2016","07","21","03","30","UTC","14.0","57.2","12.0","53.6","88","10.8","6.7","-9999.0","-9999.0","250","WSW","10.0","6.2","1010","29.83","-999","-999","-9999","-9999","-9999.00","-9999.00","Light Rain","rain","0","1","0","0","0","0","METAR UKKK 210330Z 25003MPS 9999 -RA OVC043 14/12 Q1010 R26/CLRD70 NOSIG"
"7:00 AM EEST on July 21, 2016","2016","07","21","07","00","Europe/Kiev","4:00 AM GMT on July 21, 2016","2016","07","21","04","00","UTC","14.0","57.2","12.0","53.6","88","10.8","6.7","-9999.0","-9999.0","240","WSW","10.0","6.2","1009","29.80","-999","-999","-9999","-9999","-9999.00","-9999.00","Light Rain","rain","0","1","0","0","0","0","METAR UKKK 210400Z 24003MPS 9999 -RA OVC043 14/12 Q1009 R26/190060 NOSIG"
"7:30 AM EEST on July 21, 2016","2016","07","21","07","30","Europe/Kiev","4:30 AM GMT on July 21, 2016","2016","07","21","04","30","UTC","14.0","57.2","12.0","53.6","88","10.8","6.7","-9999.0","-9999.0","240","WSW","10.0","6.2","1009","29.80","-999","-999","-9999","-9999","-9999.00","-9999.00","Overcast","cloudy","0","0","0","0","0","0","METAR UKKK 210430Z 24003MPS 9999 OVC043 14/12 Q1009 R26/190060 NOSIG"
"8:00 AM EEST on July 21, 2016","2016","07","21","08","00","Europe/Kiev","5:00 AM GMT on July 21, 2016","2016","07","21","05","00","UTC","15.0","59.0","12.0","53.6","82","14.4","8.9","-9999.0","-9999.0","240","WSW","-9999.0","-9999.0","1009","29.80","-999","-999","-9999","-9999","-9999.00","-9999.00","Clear","clear","0","0","0","0","0","0","METAR UKKK 210500Z 24004MPS 210V270 CAVOK 15/12 Q1009 R26/190060 NOSIG"
"8:30 AM EEST on July 21, 2016","2016","07","21","08","30","Europe/Kiev","5:30 AM GMT on July 21, 2016","2016","07","21","05","30","UTC","16.0","60.8","12.0","53.6","77","14.4","8.9","-9999.0","-9999.0","230","SW","-9999.0","-9999.0","1009","29.80","-999","-999","-9999","-9999","-9999.00","-9999.00","Clear","clear","0","0","0","0","0","0","METAR UKKK 210530Z 23004MPS 190V260 CAVOK 16/12 Q1009 R26/190060 NOSIG"
"9:00 AM EEST on July 21, 2016","2016","07","21","09","00","Europe/Kiev","6:00 AM GMT on July 21, 2016","2016","07","21","06","00","UTC","16","61","11","53","66","14.4","8.9","","","240","WSW","20","12","1009","29.80","-999","-999","-9999","-9999","","","Partly Cloudy","partlycloudy","0","0","0","0","0","0","AAXX 21061 33345 11498 82404 10160 20114 39893 40089 57008 69902 70261 883// 333 20134 88914 555 10020"
"9:00 AM EEST on July 21, 2016","2016","07","21","09","00","Europe/Kiev","6:00 AM GMT on July 21, 2016","2016","07","21","06","00","UTC","16.0","60.8","12.0","53.6","77","14.4","8.9","-9999.0","-9999.0","250","WSW","-9999.0","-9999.0","1009","29.80","-999","-999","-9999","-9999","-9999.00","-9999.00","Clear","clear","0","0","0","0","0","0","METAR UKKK 210600Z 25004MPS CAVOK 16/12 Q1009 R26/CLRD70 NOSIG"
"9:30 AM EEST on July 21, 2016","2016","07","21","09","30","Europe/Kiev","6:30 AM GMT on July 21, 2016","2016","07","21","06","30","UTC","16.0","60.8","12.0","53.6","77","14.4","8.9","-9999.0","-9999.0","250","WSW","10.0","6.2","1009","29.80","-999","-999","-9999","-9999","-9999.00","-9999.00","Light Rain Showers","rain","0","1","0","0","0","0","METAR UKKK 210630Z 25004MPS 9999 -SHRA SCT033CB BKN050 16/12 Q1009 R26/CLRD70 NOSIG"
"10:00 AM EEST on July 21, 2016","2016","07","21","10","00","Europe/Kiev","7:00 AM GMT on July 21, 2016","2016","07","21","07","00","UTC","15.0","59.0","13.0","55.4","88","10.8","6.7","-9999.0","-9999.0","220","SW","10.0","6.2","1009","29.80","-999","-999","-9999","-9999","-9999.00","-9999.00","Light Rain","rain","0","1","0","0","0","0","METAR UKKK 210700Z 22003MPS 9999 -RA OVC046 15/13 Q1009 R26/290058 NOSIG"
"10:30 AM EEST on July 21, 2016","2016","07","21","10","30","Europe/Kiev","7:30 AM GMT on July 21, 2016","2016","07","21","07","30","UTC","16.0","60.8","13.0","55.4","82","14.4","8.9","-9999.0","-9999.0","240","WSW","10.0","6.2","1009","29.80","-999","-999","-9999","-9999","-9999.00","-9999.00","Light Rain","rain","0","1","0","0","0","0","METAR UKKK 210730Z 24004MPS 9999 -RA OVC046 16/13 Q1009 R26/290058 NOSIG"
"11:00 AM EEST on July 21, 2016","2016","07","21","11","00","Europe/Kiev","8:00 AM GMT on July 21, 2016","2016","07","21","08","00","UTC","16.0","60.8","13.0","55.4","82","18.0","11.2","-9999.0","-9999.0","250","WSW","10.0","6.2","1009","29.80","-999","-999","-9999","-9999","-9999.00","-9999.00","Light Rain","rain","0","1","0","0","0","0","METAR UKKK 210800Z 25005MPS 9999 -RA OVC035 16/13 Q1009 R26/290058 NOSIG"
"11:30 AM EEST on July 21, 2016","2016","07","21","11","30","Europe/Kiev","8:30 AM GMT on July 21, 2016","2016","07","21","08","30","UTC","16.0","60.8","13.0","55.4","82","14.4","8.9","-9999.0","-9999.0","240","WSW","10.0","6.2","1008","29.77","-999","-999","-9999","-9999","-9999.00","-9999.00","Light Rain","rain","0","1","0","0","0","0","METAR UKKK 210830Z 24004MPS 9999 -RA OVC035 16/13 Q1008 R26/290058 NOSIG"
"12:00 PM EEST on July 21, 2016","2016","07","21","12","00","Europe/Kiev","9:00 AM GMT on July 21, 2016","2016","07","21","09","00","UTC","16","61","13","55","76","10.8","6.7","","","220","SW","20","12","1008","29.78","-999","-999","-9999","-9999","","","Light Rain","rain","0","1","0","0","0","0","AAXX 21091 33345 41498 82203 10160 20130 39889 40085 57004 76086 8352/ 555 11020"
"12:00 PM EEST on July 21, 2016","2016","07","21","12","00","Europe/Kiev","9:00 AM GMT on July 21, 2016","2016","07","21","09","00","UTC","16.0","60.8","13.0","55.4","82","18.0","11.2","-9999.0","-9999.0","240","WSW","10.0","6.2","1008","29.77","-999","-999","-9999","-9999","-9999.00","-9999.00","Light Rain","rain","0","1","0","0","0","0","METAR UKKK 210900Z 24005MPS 200V260 9999 -RA OVC033 16/13 Q1008 R26/290257 NOSIG"
"12:30 PM EEST on July 21, 2016","2016","07","21","12","30","Europe/Kiev","9:30 AM GMT on July 21, 2016","2016","07","21","09","30","UTC","15.0","59.0","13.0","55.4","88","18.0","11.2","-9999.0","-9999.0","240","WSW","10.0","6.2","1009","29.80","-999","-999","-9999","-9999","-9999.00","-9999.00","Light Rain","rain","0","1","0","0","0","0","METAR UKKK 210930Z 24005MPS 9999 -RA OVC036 15/13 Q1009 R26/290257 NOSIG"
"1:00 PM EEST on July 21, 2016","2016","07","21","13","00","Europe/Kiev","10:00 AM GMT on July 21, 2016","2016","07","21","10","00","UTC","15.0","59.0","14.0","57.2","94","18.0","11.2","-9999.0","-9999.0","230","SW","8.0","5.0","1009","29.80","-999","-999","-9999","-9999","-9999.00","-9999.00","Light Rain","rain","0","1","0","0","0","0","METAR UKKK 211000Z 23005MPS 8000 -RA SCT014 OVC033 15/14 Q1009 R26/290355 NOSIG"
"1:30 PM EEST on July 21, 2016","2016","07","21","13","30","Europe/Kiev","10:30 AM GMT on July 21, 2016","2016","07","21","10","30","UTC","15.0","59.0","14.0","57.2","94","18.0","11.2","-9999.0","-9999.0","220","SW","10.0","6.2","1009","29.80","-999","-999","-9999","-9999","-9999.00","-9999.00","Light Rain","rain","0","1","0","0","0","0","METAR UKKK 211030Z 22005MPS 190V260 9999 -RA FEW013 OVC030 15/14 Q1009 R26/290355 NOSIG"
"2:00 PM EEST on July 21, 2016","2016","07","21","14","00","Europe/Kiev","11:00 AM GMT on July 21, 2016","2016","07","21","11","00","UTC","14.0","57.2","13.0","55.4","94","21.6","13.4","-9999.0","-9999.0","220","SW","7.0","4.3","1008","29.77","-999","-999","-9999","-9999","-9999.00","-9999.00","Light Rain","rain","0","1","0","0","0","0","METAR UKKK 211100Z 22006MPS 190V250 7000 -RA SCT015 OVC028 14/13 Q1008 R26/290355 NOSIG"
"2:30 PM EEST on July 21, 2016","2016","07","21","14","30","Europe/Kiev","11:30 AM GMT on July 21, 2016","2016","07","21","11","30","UTC","14.0","57.2","13.0","55.4","94","18.0","11.2","-9999.0","-9999.0","220","SW","9.0","5.6","1008","29.77","-999","-999","-9999","-9999","-9999.00","-9999.00","Light Rain","rain","0","1","0","0","0","0","METAR UKKK 211130Z 22005MPS 9000 -RA SCT015 OVC028 14/13 Q1008 R26/290355 NOSIG"
"3:00 PM EEST on July 21, 2016","2016","07","21","15","00","Europe/Kiev","12:00 PM GMT on July 21, 2016","2016","07","21","12","00","UTC","14","58","13","56","89","14.4","8.9","","","200","SSW","4","2","1009","29.79","-999","-999","-9999","-9999","","","Rain","rain","0","1","0","0","0","0","AAXX 21121 33345 /1496 82004 10142 20131 39889 40086 54000 76386 8872/ 333 88713 555 11017 60071"
"3:00 PM EEST on July 21, 2016","2016","07","21","15","00","Europe/Kiev","12:00 PM GMT on July 21, 2016","2016","07","21","12","00","UTC","14.0","57.2","13.0","55.4","94","18.0","11.2","-9999.0","-9999.0","210","SSW","8.0","5.0","1008","29.77","-999","-999","-9999","-9999","-9999.00","-9999.00","Light Rain","rain","0","1","0","0","0","0","METAR UKKK 211200Z 21005MPS 180V240 8000 -RA FEW015 OVC028 14/13 Q1008 R26/290355 NOSIG"
"3:30 PM EEST on July 21, 2016","2016","07","21","15","30","Europe/Kiev","12:30 PM GMT on July 21, 2016","2016","07","21","12","30","UTC","14.0","57.2","13.0","55.4","94","18.0","11.2","-9999.0","-9999.0","210","SSW","9.0","5.6","1008","29.77","-999","-999","-9999","-9999","-9999.00","-9999.00","Light Rain","rain","0","1","0","0","0","0","METAR UKKK 211230Z 21005MPS 9000 -RA SCT011 OVC029 14/13 Q1008 R26/290355 NOSIG"
"4:00 PM EEST on July 21, 2016","2016","07","21","16","00","Europe/Kiev","1:00 PM GMT on July 21, 2016","2016","07","21","13","00","UTC","14.0","57.2","13.0","55.4","94","18.0","11.2","-9999.0","-9999.0","230","SW","2.9","1.8","1008","29.77","-999","-999","-9999","-9999","-9999.00","-9999.00","Light Rain","rain","0","1","0","0","0","0","METAR UKKK 211300Z 23005MPS 2900 -RA SCT010 OVC026 14/13 Q1008 R26/290355 NOSIG"
"4:30 PM EEST on July 21, 2016","2016","07","21","16","30","Europe/Kiev","1:30 PM GMT on July 21, 2016","2016","07","21","13","30","UTC","14.0","57.2","14.0","57.2","100","28.8","17.9","-9999.0","-9999.0","230","SW","-9999.0","-9999.0","1008","29.77","-999","-999","-9999","-9999","-9999.00","-9999.00","Light Rain","rain","0","1","0","0","0","0","METAR UKKK 211330Z 23008MPS 200V260 4200 -RA BKN008 OVC027 14/14 Q1008 R26/290355 NOSIG"
"5:00 PM EEST on July 21, 2016","2016","07","21","17","00","Europe/Kiev","2:00 PM GMT on July 21, 2016","2016","07","21","14","00","UTC","14.0","57.2","13.0","55.4","94","21.6","13.4","39.6","24.6","230","SW","4.0","2.5","1007","29.74","-999","-999","-9999","-9999","-9999.00","-9999.00","Light Rain","rain","0","1","0","0","0","0","METAR UKKK 211400Z 23006G11MPS 190V260 4000 -RA BKN007 OVC023 14/13 Q1007 R26/290355 NOSIG"
"5:30 PM EEST on July 21, 2016","2016","07","21","17","30","Europe/Kiev","2:30 PM GMT on July 21, 2016","2016","07","21","14","30","UTC","14.0","57.2","13.0","55.4","94","21.6","13.4","-9999.0","-9999.0","230","SW","5.0","3.1","1007","29.74","-999","-999","-9999","-9999","-9999.00","-9999.00","Light Rain","rain","0","1","0","0","0","0","METAR UKKK 211430Z 23006MPS 5000 -RA BKN007 OVC023 14/13 Q1007 R26/290355 NOSIG"
"6:00 PM EEST on July 21, 2016","2016","07","21","18","00","Europe/Kiev","3:00 PM GMT on July 21, 2016","2016","07","21","15","00","UTC","14","56","13","55","95","18.0","11.2","","","220","SW","4","2","1007","29.75","-999","-999","-9999","-9999","","","Light Rain","rain","0","1","0","0","0","0","AAXX 21151 33345 41496 82205 10136 20127 39875 40072 58014 76166 8872/ 333 88711 555 11015"
"6:00 PM EEST on July 21, 2016","2016","07","21","18","00","Europe/Kiev","3:00 PM GMT on July 21, 2016","2016","07","21","15","00","UTC","14.0","57.2","13.0","55.4","94","25.2","15.7","43.2","26.8","230","SW","5.0","3.1","1007","29.74","-999","-999","-9999","-9999","-9999.00","-9999.00","Light Rain","rain","0","1","0","0","0","0","METAR UKKK 211500Z 23007G12MPS 5000 -RA BKN007 OVC023 14/13 Q1007 R26/290355 NOSIG"
"6:30 PM EEST on July 21, 2016","2016","07","21","18","30","Europe/Kiev","3:30 PM GMT on July 21, 2016","2016","07","21","15","30","UTC","14.0","57.2","13.0","55.4","94","25.2","15.7","-9999.0","-9999.0","230","SW","7.0","4.3","1007","29.74","-999","-999","-9999","-9999","-9999.00","-9999.00","Light Rain","rain","0","1","0","0","0","0","METAR UKKK 211530Z 23007MPS 7000 -RA BKN007 OVC023 14/13 Q1007 R26/290355 NOSIG"
"7:00 PM EEST on July 21, 2016","2016","07","21","19","00","Europe/Kiev","4:00 PM GMT on July 21, 2016","2016","07","21","16","00","UTC","14.0","57.2","13.0","55.4","94","21.6","13.4","-9999.0","-9999.0","240","WSW","10.0","6.2","1007","29.74","-999","-999","-9999","-9999","-9999.00","-9999.00","Light Rain","rain","0","1","0","0","0","0","METAR UKKK 211600Z 24006MPS 210V270 9999 -RA BKN007 OVC023 14/13 Q1007 R26/290355 NOSIG"
"7:30 PM EEST on July 21, 2016","2016","07","21","19","30","Europe/Kiev","4:30 PM GMT on July 21, 2016","2016","07","21","16","30","UTC","14.0","57.2","13.0","55.4","94","18.0","11.2","-9999.0","-9999.0","230","SW","10.0","6.2","1006","29.71","-999","-999","-9999","-9999","-9999.00","-9999.00","Light Rain","rain","0","1","0","0","0","0","METAR UKKK 211630Z 23005MPS 9999 -RA BKN007 OVC017 14/13 Q1006 R26/290355 NOSIG"
"8:00 PM EEST on July 21, 2016","2016","07","21","20","00","Europe/Kiev","5:00 PM GMT on July 21, 2016","2016","07","21","17","00","UTC","14.0","57.2","14.0","57.2","100","18.0","11.2","-9999.0","-9999.0","240","WSW","9.0","5.6","1006","29.71","-999","-999","-9999","-9999","-9999.00","-9999.00","Light Rain","rain","0","1","0","0","0","0","METAR UKKK 211700Z 24005MPS 210V270 9000 -RA BKN006 OVC017 14/14 Q1006 R26/290355 NOSIG"
"8:30 PM EEST on July 21, 2016","2016","07","21","20","30","Europe/Kiev","5:30 PM GMT on July 21, 2016","2016","07","21","17","30","UTC","14.0","57.2","14.0","57.2","100","18.0","11.2","-9999.0","-9999.0","240","WSW","10.0","6.2","1006","29.71","-999","-999","-9999","-9999","-9999.00","-9999.00","Overcast","cloudy","0","0","0","0","0","0","METAR UKKK 211730Z 24005MPS 9999 OVC007 14/14 Q1006 R26/290355 NOSIG"
"9:00 PM EEST on July 21, 2016","2016","07","21","21","00","Europe/Kiev","6:00 PM GMT on July 21, 2016","2016","07","21","18","00","UTC","14","57","14","56","97","10.8","6.7","","","230","SW","1","1","1006","29.73","-999","-999","-9999","-9999","","","Drizzle","rain","0","1","0","0","0","0","AAXX 21181 33345 11394 82303 10140 20136 39868 40065 56007 60202 75365 886// 333 10167 88709 555 11015"
"9:00 PM EEST on July 21, 2016","2016","07","21","21","00","Europe/Kiev","6:00 PM GMT on July 21, 2016","2016","07","21","18","00","UTC","14.0","57.2","14.0","57.2","100","18.0","11.2","-9999.0","-9999.0","240","WSW","5.0","3.1","1006","29.71","-999","-999","-9999","-9999","-9999.00","-9999.00","Light Drizzle","rain","0","0","0","0","0","0","METAR UKKK 211800Z 24005MPS 5000 -DZ OVC007 14/14 Q1006 R26/290355 NOSIG"
"9:30 PM EEST on July 21, 2016","2016","07","21","21","30","Europe/Kiev","6:30 PM GMT on July 21, 2016","2016","07","21","18","30","UTC","14.0","57.2","14.0","57.2","100","14.4","8.9","-9999.0","-9999.0","240","WSW","8.0","5.0","1006","29.71","-999","-999","-9999","-9999","-9999.00","-9999.00","Light Drizzle","rain","0","0","0","0","0","0","METAR UKKK 211830Z 24004MPS 8000 -DZ OVC006 14/14 Q1006 R26/290355 NOSIG"
"10:00 PM EEST on July 21, 2016","2016","07","21","22","00","Europe/Kiev","7:00 PM GMT on July 21, 2016","2016","07","21","19","00","UTC","15.0","59.0","14.0","57.2","94","14.4","8.9","-9999.0","-9999.0","240","WSW","9.0","5.6","1006","29.71","-999","-999","-9999","-9999","-9999.00","-9999.00","Light Drizzle","rain","0","0","0","0","0","0","METAR UKKK 211900Z 24004MPS 9000 -DZ OVC006 15/14 Q1006 R26/290355 NOSIG"
"10:30 PM EEST on July 21, 2016","2016","07","21","22","30","Europe/Kiev","7:30 PM GMT on July 21, 2016","2016","07","21","19","30","UTC","15.0","59.0","14.0","57.2","94","18.0","11.2","-9999.0","-9999.0","250","WSW","9.0","5.6","1006","29.71","-999","-999","-9999","-9999","-9999.00","-9999.00","Light Rain","rain","0","1","0","0","0","0","METAR UKKK 211930Z 25005MPS 9000 -RA BKN005 OVC016 15/14 Q1006 R26/290355 NOSIG"
"11:00 PM EEST on July 21, 2016","2016","07","21","23","00","Europe/Kiev","8:00 PM GMT on July 21, 2016","2016","07","21","20","00","UTC","15.0","59.0","14.0","57.2","94","18.0","11.2","-9999.0","-9999.0","250","WSW","7.0","4.3","1006","29.71","-999","-999","-9999","-9999","-9999.00","-9999.00","Light Rain","rain","0","1","0","0","0","0","METAR UKKK 212000Z 25005MPS 7000 -RA BKN004 OVC016 15/14 Q1006 R26/290355 TEMPO BKN003"
"11:30 PM EEST on July 21, 2016","2016","07","21","23","30","Europe/Kiev","8:30 PM GMT on July 21, 2016","2016","07","21","20","30","UTC","15.0","59.0","14.0","57.2","94","14.4","8.9","-9999.0","-9999.0","250","WSW","4.5","2.8","1006","29.71","-999","-999","-9999","-9999","-9999.00","-9999.00","Light Rain","rain","0","1","0","0","0","0","METAR UKKK 212030Z 25004MPS 4500 -RA BR BKN004 OVC016 15/14 Q1006 R26/290355 TEMPO BKN003"
"12:00 AM EEST on July 22, 2016","2016","07","22","00","00","Europe/Kiev","9:00 PM GMT on July 21, 2016","2016","07","21","21","00","UTC","15","58","14","57","97","14.4","8.9","","","260","West","4","2","1006","29.70","-999","-999","-9999","-9999","","","Light Rain","rain","0","1","0","0","0","0","AAXX 21211 33345 41496 82604 10146 20141 39861 40057 57007 76165 8872/ 333 88713 555 11015"
"12:00 AM EEST on July 22, 2016","2016","07","22","00","00","Europe/Kiev","9:00 PM GMT on July 21, 2016","2016","07","21","21","00","UTC","15.0","59.0","15.0","59.0","100","18.0","11.2","-9999.0","-9999.0","260","West","2.9","1.8","1006","29.71","-999","-999","-9999","-9999","-9999.00","-9999.00","Light Rain","rain","0","1","0","0","0","0","METAR UKKK 212100Z 26005MPS 2900 -RA BR BKN003 OVC016 15/15 Q1006 R26/290355 TEMPO BKN002"
"12:30 AM EEST on July 22, 2016","2016","07","22","00","30","Europe/Kiev","9:30 PM GMT on July 21, 2016","2016","07","21","21","30","UTC","15.0","59.0","15.0","59.0","100","18.0","11.2","-9999.0","-9999.0","280","West","9.0","5.6","1006","29.71","-999","-999","-9999","-9999","-9999.00","-9999.00","Overcast","cloudy","0","0","0","0","0","0","METAR UKKK 212130Z 28005MPS 9000 OVC004 15/15 Q1006 R26/290355 TEMPO BKN002"
"1:00 AM EEST on July 22, 2016","2016","07","22","01","00","Europe/Kiev","10:00 PM GMT on July 21, 2016","2016","07","21","22","00","UTC","15.0","59.0","15.0","59.0","100","21.6","13.4","-9999.0","-9999.0","290","WNW","9.0","5.6","1006","29.71","-999","-999","-9999","-9999","-9999.00","-9999.00","Overcast","cloudy","0","0","0","0","0","0","METAR UKKK 212200Z 29006MPS 9000 OVC004 15/15 Q1006 R26/290355 TEMPO BKN003"
"1:30 AM EEST on July 22, 2016","2016","07","22","01","30","Europe/Kiev","10:30 PM GMT on July 21, 2016","2016","07","21","22","30","UTC","15.0","59.0","15.0","59.0","100","18.0","11.2","-9999.0","-9999.0","300","WNW","10.0","6.2","1006","29.71","-999","-999","-9999","-9999","-9999.00","-9999.00","Overcast","cloudy","0","0","0","0","0","0","METAR UKKK 212230Z 30005MPS 9999 OVC006 15/15 Q1006 R26/290355 TEMPO BKN003"
"2:00 AM EEST on July 22, 2016","2016","07","22","02","00","Europe/Kiev","11:00 PM GMT on July 21, 2016","2016","07","21","23","00","UTC","15.0","59.0","15.0","59.0","100","21.6","13.4","-9999.0","-9999.0","310","NW","10.0","6.2","1006","29.71","-999","-999","-9999","-9999","-9999.00","-9999.00","Overcast","cloudy","0","0","0","0","0","0","METAR UKKK 212300Z 31006MPS 9999 OVC007 15/15 Q1006 R26/290355 TEMPO BKN005"
"2:30 AM EEST on July 22, 2016","2016","07","22","02","30","Europe/Kiev","11:30 PM GMT on July 21, 2016","2016","07","21","23","30","UTC","15.0","59.0","15.0","59.0","100","18.0","11.2","-9999.0","-9999.0","320","NW","9.0","5.6","1006","29.71","-999","-999","-9999","-9999","-9999.00","-9999.00","Light Rain","rain","0","1","0","0","0","0","METAR UKKK 212330Z 32005MPS 9000 -RA BKN007 OVC021 15/15 Q1006 R26/290355 NOSIG"
"3:00 AM EEST on July 22, 2016","2016","07","22","03","00","Europe/Kiev","12:00 AM GMT on July 22, 2016","2016","07","22","00","00","UTC","15","59","14","57","91","10.8","6.7","","","330","NNW","4","2","1006","29.73","-999","-999","-9999","-9999","","","Mist","hazy","0","0","0","0","0","0","AAXX 22001 33345 /1496 73303 10150 20139 39869 40065 53008 71065 87500 333 87711 555 11015 60021"
"3:00 AM EEST on July 22, 2016","2016","07","22","03","00","Europe/Kiev","12:00 AM GMT on July 22, 2016","2016","07","22","00","00","UTC","15.0","59.0","14.0","57.2","94","21.6","13.4","-9999.0","-9999.0","320","NW","10.0","6.2","1006","29.71","-999","-999","-9999","-9999","-9999.00","-9999.00","Overcast","cloudy","0","0","0","0","0","0","METAR UKKK 220000Z 32006MPS 9999 BKN008 OVC049 15/14 Q1006 R26/290355 NOSIG"
"3:30 AM EEST on July 22, 2016","2016","07","22","03","30","Europe/Kiev","12:30 AM GMT on July 22, 2016","2016","07","22","00","30","UTC","15.0","59.0","14.0","57.2","94","21.6","13.4","-9999.0","-9999.0","310","NW","9.0","5.6","1007","29.74","-999","-999","-9999","-9999","-9999.00","-9999.00","Overcast","cloudy","0","0","0","0","0","0","METAR UKKK 220030Z 31006MPS 9000 BKN008 OVC040 15/14 Q1007 R26/290355 NOSIG"
"4:00 AM EEST on July 22, 2016","2016","07","22","04","00","Europe/Kiev","1:00 AM GMT on July 22, 2016","2016","07","22","01","00","UTC","15.0","59.0","14.0","57.2","94","18.0","11.2","-9999.0","-9999.0","330","NNW","6.0","3.7","1007","29.74","-999","-999","-9999","-9999","-9999.00","-9999.00","Light Rain","rain","0","1","0","0","0","0","METAR UKKK 220100Z 33005MPS 6000 -RA BKN009 OVC026 15/14 Q1007 R26/290355 NOSIG"
"4:30 AM EEST on July 22, 2016","2016","07","22","04","30","Europe/Kiev","1:30 AM GMT on July 22, 2016","2016","07","22","01","30","UTC","14.0","57.2","13.0","55.4","94","21.6","13.4","-9999.0","-9999.0","320","NW","10.0","6.2","1007","29.74","-999","-999","-9999","-9999","-9999.00","-9999.00","Overcast","cloudy","0","0","0","0","0","0","METAR UKKK 220130Z 32006MPS 9999 OVC008 14/13 Q1007 R26/290355 NOSIG"
"5:00 AM EEST on July 22, 2016","2016","07","22","05","00","Europe/Kiev","2:00 AM GMT on July 22, 2016","2016","07","22","02","00","UTC","14.0","57.2","13.0","55.4","94","18.0","11.2","-9999.0","-9999.0","320","NW","10.0","6.2","1007","29.74","-999","-999","-9999","-9999","-9999.00","-9999.00","Overcast","cloudy","0","0","0","0","0","0","METAR UKKK 220200Z 32005MPS 9999 OVC008 14/13 Q1007 R26/290355 NOSIG"
"5:30 AM EEST on July 22, 2016","2016","07","22","05","30","Europe/Kiev","2:30 AM GMT on July 22, 2016","2016","07","22","02","30","UTC","14.0","57.2","13.0","55.4","94","21.6","13.4","-9999.0","-9999.0","310","NW","10.0","6.2","1008","29.77","-999","-999","-9999","-9999","-9999.00","-9999.00","Overcast","cloudy","0","0","0","0","0","0","METAR UKKK 220230Z 31006MPS 9999 OVC010 14/13 Q1008 R26/290355 NOSIG"
"6:00 AM EEST on July 22, 2016","2016","07","22","06","00","Europe/Kiev","3:00 AM GMT on July 22, 2016","2016","07","22","03","00","UTC","14","57","12","54","88","14.4","8.9","","","320","NW","4","2","1008","29.76","-999","-999","-9999","-9999","","","Mist","hazy","0","0","0","0","0","0","AAXX 22031 33345 41496 83204 10141 20125 39881 40078 52012 71062 885// 333 88711 555 11014"
"6:00 AM EEST on July 22, 2016","2016","07","22","06","00","Europe/Kiev","3:00 AM GMT on July 22, 2016","2016","07","22","03","00","UTC","14.0","57.2","13.0","55.4","94","21.6","13.4","-9999.0","-9999.0","320","NW","10.0","6.2","1008","29.77","-999","-999","-9999","-9999","-9999.00","-9999.00","Overcast","cloudy","0","0","0","0","0","0","METAR UKKK 220300Z 32006MPS 9999 OVC009 14/13 Q1008 R26/290158 NOSIG"
"6:30 AM EEST on July 22, 2016","2016","07","22","06","30","Europe/Kiev","3:30 AM GMT on July 22, 2016","2016","07","22","03","30","UTC","14.0","57.2","13.0","55.4","94","21.6","13.4","-9999.0","-9999.0","310","NW","4.5","2.8","1008","29.77","-999","-999","-9999","-9999","-9999.00","-9999.00","Light Drizzle","rain","0","0","0","0","0","0","METAR UKKK 220330Z 31006MPS 4500 -DZ OVC006 14/13 Q1008 R26/290158 TEMPO BKN005"
"7:00 AM EEST on July 22, 2016","2016","07","22","07","00","Europe/Kiev","4:00 AM GMT on July 22, 2016","2016","07","22","04","00","UTC","14.0","57.2","13.0","55.4","94","21.6","13.4","-9999.0","-9999.0","310","NW","10.0","6.2","1008","29.77","-999","-999","-9999","-9999","-9999.00","-9999.00","Overcast","cloudy","0","0","0","0","0","0","METAR UKKK 220400Z 31006MPS 9999 OVC007 14/13 Q1008 R26/290158 TEMPO BKN005"
"7:30 AM EEST on July 22, 2016","2016","07","22","07","30","Europe/Kiev","4:30 AM GMT on July 22, 2016","2016","07","22","04","30","UTC","14.0","57.2","13.0","55.4","94","21.6","13.4","-9999.0","-9999.0","320","NW","8.0","5.0","1008","29.77","-999","-999","-9999","-9999","-9999.00","-9999.00","Light Drizzle","rain","0","0","0","0","0","0","METAR UKKK 220430Z 32006MPS 8000 -DZ OVC007 14/13 Q1008 R26/290158 NOSIG"
"8:00 AM EEST on July 22, 2016","2016","07","22","08","00","Europe/Kiev","5:00 AM GMT on July 22, 2016","2016","07","22","05","00","UTC","14.0","57.2","13.0","55.4","94","21.6","13.4","-9999.0","-9999.0","320","NW","-9999.0","-9999.0","1008","29.77","-999","-999","-9999","-9999","-9999.00","-9999.00","Light Drizzle","rain","0","0","0","0","0","0","METAR UKKK 220500Z 32006MPS 4600 -DZ BR OVC004 14/13 Q1008 R26/290158 TEMPO BKN003"
"8:30 AM EEST on July 22, 2016","2016","07","22","08","30","Europe/Kiev","5:30 AM GMT on July 22, 2016","2016","07","22","05","30","UTC","14.0","57.2","13.0","55.4","94","18.0","11.2","-9999.0","-9999.0","320","NW","6.0","3.7","1009","29.80","-999","-999","-9999","-9999","-9999.00","-9999.00","Light Drizzle","rain","0","0","0","0","0","0","METAR UKKK 220530Z 32005MPS 6000 -DZ OVC006 14/13 Q1009 R26/290158 TEMPO BKN003"
"9:00 AM EEST on July 22, 2016","2016","07","22","09","00","Europe/Kiev","6:00 AM GMT on July 22, 2016","2016","07","22","06","00","UTC","14","57","13","56","94","10.8","6.7","","","350","North","4","2","1009","29.81","-999","-999","-9999","-9999","","","Light Rain","rain","0","1","0","0","0","0","AAXX 22061 33345 11396 83503 10139 20132 39895 40093 52014 60032 76162 8872/ 333 20139 88708 555 11015"
"9:00 AM EEST on July 22, 2016","2016","07","22","09","00","Europe/Kiev","6:00 AM GMT on July 22, 2016","2016","07","22","06","00","UTC","14.0","57.2","14.0","57.2","100","18.0","11.2","-9999.0","-9999.0","330","NNW","7.0","4.3","1009","29.80","-999","-999","-9999","-9999","-9999.00","-9999.00","Light Drizzle","rain","0","0","0","0","0","0","METAR UKKK 220600Z 33005MPS 7000 -DZ OVC005 14/14 Q1009 R26/290158 TEMPO BKN003"
"9:30 AM EEST on July 22, 2016","2016","07","22","09","30","Europe/Kiev","6:30 AM GMT on July 22, 2016","2016","07","22","06","30","UTC","14.0","57.2","14.0","57.2","100","14.4","8.9","-9999.0","-9999.0","350","North","10.0","6.2","1010","29.83","-999","-999","-9999","-9999","-9999.00","-9999.00","Light Drizzle","rain","0","0","0","0","0","0","METAR UKKK 220630Z 35004MPS 320V030 9999 -DZ OVC008 14/14 Q1010 R26/290158 TEMPO BKN004"
"10:00 AM EEST on July 22, 2016","2016","07","22","10","00","Europe/Kiev","7:00 AM GMT on July 22, 2016","2016","07","22","07","00","UTC","15.0","59.0","14.0","57.2","94","10.8","6.7","-9999.0","-9999.0","350","North","10.0","6.2","1010","29.83","-999","-999","-9999","-9999","-9999.00","-9999.00","Overcast","cloudy","0","0","0","0","0","0","METAR UKKK 220700Z 35003MPS 300V020 9999 BKN008 OVC025 15/14 Q1010 R26/290158 NOSIG"
"10:30 AM EEST on July 22, 2016","2016","07","22","10","30","Europe/Kiev","7:30 AM GMT on July 22, 2016","2016","07","22","07","30","UTC","15.0","59.0","13.0","55.4","88","10.8","6.7","-9999.0","-9999.0","350","North","10.0","6.2","1010","29.83","-999","-999","-9999","-9999","-9999.00","-9999.00","Overcast","cloudy","0","0","0","0","0","0","METAR UKKK 220730Z 35003MPS 310V020 9999 BKN008 OVC025 15/13 Q1010 R26/290158 NOSIG"
"11:00 AM EEST on July 22, 2016","2016","07","22","11","00","Europe/Kiev","8:00 AM GMT on July 22, 2016","2016","07","22","08","00","UTC","15.0","59.0","13.0","55.4","88","14.4","8.9","-9999.0","-9999.0","330","NNW","10.0","6.2","1011","29.86","-999","-999","-9999","-9999","-9999.00","-9999.00","Overcast","cloudy","0","0","0","0","0","0","METAR UKKK 220800Z 33004MPS 290V360 9999 BKN010 OVC026 15/13 Q1011 R26/290158 NOSIG"
"11:30 AM EEST on July 22, 2016","2016","07","22","11","30","Europe/Kiev","8:30 AM GMT on July 22, 2016","2016","07","22","08","30","UTC","15.0","59.0","13.0","55.4","88","18.0","11.2","-9999.0","-9999.0","350","North","10.0","6.2","1011","29.86","-999","-999","-9999","-9999","-9999.00","-9999.00","Overcast","cloudy","0","0","0","0","0","0","METAR UKKK 220830Z 35005MPS 320V020 9999 SCT010 OVC026 15/13 Q1011 R26/290158 NOSIG"
"12:00 PM EEST on July 22, 2016","2016","07","22","12","00","Europe/Kiev","9:00 AM GMT on July 22, 2016","2016","07","22","09","00","UTC","16","60","13","56","82","10.8","6.7","","","330","NNW","20","12","1011","29.87","-999","-999","-9999","-9999","","","Partly Cloudy","partlycloudy","0","0","0","0","0","0","AAXX 22091 33345 41498 73303 10156 20133 39917 40114 52022 70262 87800 333 84814 555 11020"
"12:00 PM EEST on July 22, 2016","2016","07","22","12","00","Europe/Kiev","9:00 AM GMT on July 22, 2016","2016","07","22","09","00","UTC","15.0","59.0","12.0","53.6","82","14.4","8.9","-9999.0","-9999.0","330","NNW","9.0","5.6","1011","29.86","-999","-999","-9999","-9999","-9999.00","-9999.00","Mostly Cloudy","mostlycloudy","0","0","0","0","0","0","METAR UKKK 220900Z 33004MPS 310V020 9000 BKN022 15/12 Q1011 R26/190060 NOSIG"
"12:30 PM EEST on July 22, 2016","2016","07","22","12","30","Europe/Kiev","9:30 AM GMT on July 22, 2016","2016","07","22","09","30","UTC","16.0","60.8","13.0","55.4","82","14.4","8.9","-9999.0","-9999.0","350","North","10.0","6.2","1011","29.86","-999","-999","-9999","-9999","-9999.00","-9999.00","Mostly Cloudy","mostlycloudy","0","0","0","0","0","0","METAR UKKK 220930Z 35004MPS 310V020 9999 SCT016 BKN026 16/13 Q1011 R26/190060 NOSIG"
"1:00 PM EEST on July 22, 2016","2016","07","22","13","00","Europe/Kiev","10:00 AM GMT on July 22, 2016","2016","07","22","10","00","UTC","18.0","64.4","13.0","55.4","73","14.4","8.9","-9999.0","-9999.0","340","NNW","10.0","6.2","1012","29.89","-999","-999","-9999","-9999","-9999.00","-9999.00","Mostly Cloudy","mostlycloudy","0","0","0","0","0","0","METAR UKKK 221000Z 34004MPS 300V040 9999 SCT016 BKN026 18/13 Q1012 R26/190060 NOSIG"
"1:30 PM EEST on July 22, 2016","2016","07","22","13","30","Europe/Kiev","10:30 AM GMT on July 22, 2016","2016","07","22","10","30","UTC","18.0","64.4","12.0","53.6","68","18.0","11.2","-9999.0","-9999.0","340","NNW","10.0","6.2","1012","29.89","-999","-999","-9999","-9999","-9999.00","-9999.00","Mostly Cloudy","mostlycloudy","0","0","0","0","0","0","METAR UKKK 221030Z 34005MPS 9999 SCT019 BKN036 18/12 Q1012 R26/CLRD70 NOSIG"
"2:00 PM EEST on July 22, 2016","2016","07","22","14","00","Europe/Kiev","11:00 AM GMT on July 22, 2016","2016","07","22","11","00","UTC","19.0","66.2","13.0","55.4","68","14.4","8.9","-9999.0","-9999.0","360","North","10.0","6.2","1012","29.89","-999","-999","-9999","-9999","-9999.00","-9999.00","Mostly Cloudy","mostlycloudy","0","0","0","0","0","0","METAR UKKK 221100Z 36004MPS 320V050 9999 BKN028 19/13 Q1012 R26/CLRD70 NOSIG"
"2:30 PM EEST on July 22, 2016","2016","07","22","14","30","Europe/Kiev","11:30 AM GMT on July 22, 2016","2016","07","22","11","30","UTC","20.0","68.0","12.0","53.6","60","10.8","6.7","-9999.0","-9999.0","350","North","10.0","6.2","1012","29.89","-999","-999","-9999","-9999","-9999.00","-9999.00","Mostly Cloudy","mostlycloudy","0","0","0","0","0","0","METAR UKKK 221130Z 35003MPS 9999 BKN032 20/12 Q1012 R26/CLRD70 NOSIG"
"3:00 PM EEST on July 22, 2016","2016","07","22","15","00","Europe/Kiev","12:00 PM GMT on July 22, 2016","2016","07","22","12","00","UTC","20","67","11","53","50","14.4","8.9","","","0","North","20","12","1012","29.88","-999","-999","-9999","-9999","","","Partly Cloudy","partlycloudy","0","0","0","0","0","0","AAXX 22121 33345 /1598 63604 10197 20114 39925 40119 52008 70262 85230 555 11028 69931"
"3:00 PM EEST on July 22, 2016","2016","07","22","15","00","Europe/Kiev","12:00 PM GMT on July 22, 2016","2016","07","22","12","00","UTC","20.0","68.0","11.0","51.8","56","14.4","8.9","-9999.0","-9999.0","360","North","10.0","6.2","1012","29.89","-999","-999","-9999","-9999","-9999.00","-9999.00","Mostly Cloudy","mostlycloudy","0","0","0","0","0","0","METAR UKKK 221200Z 36004MPS 310V040 9999 BKN032 20/11 Q1012 R26/CLRD70 NOSIG"
"3:30 PM EEST on July 22, 2016","2016","07","22","15","30","Europe/Kiev","12:30 PM GMT on July 22, 2016","2016","07","22","12","30","UTC","21.0","69.8","12.0","53.6","56","10.8","6.7","-9999.0","-9999.0","340","NNW","10.0","6.2","1012","29.89","-999","-999","-9999","-9999","-9999.00","-9999.00","Mostly Cloudy","mostlycloudy","0","0","0","0","0","0","METAR UKKK 221230Z 34003MPS 290V040 9999 BKN032 21/12 Q1012 R26/CLRD70 NOSIG"
"4:00 PM EEST on July 22, 2016","2016","07","22","16","00","Europe/Kiev","1:00 PM GMT on July 22, 2016","2016","07","22","13","00","UTC","21.0","69.8","12.0","53.6","56","10.8","6.7","-9999.0","-9999.0","360","North","10.0","6.2","1012","29.89","-999","-999","-9999","-9999","-9999.00","-9999.00","Mostly Cloudy","mostlycloudy","0","0","0","0","0","0","METAR UKKK 221300Z 36003MPS 9999 BKN040 21/12 Q1012 R26/CLRD70 NOSIG"
"4:30 PM EEST on July 22, 2016","2016","07","22","16","30","Europe/Kiev","1:30 PM GMT on July 22, 2016","2016","07","22","13","30","UTC","21.0","69.8","12.0","53.6","56","14.4","8.9","-9999.0","-9999.0","360","North","10.0","6.2","1012","29.89","-999","-999","-9999","-9999","-9999.00","-9999.00","Mostly Cloudy","mostlycloudy","0","0","0","0","0","0","METAR UKKK 221330Z 36004MPS 330V040 9999 BKN040 21/12 Q1012 R26/CLRD70 NOSIG"
"5:00 PM EEST on July 22, 2016","2016","07","22","17","00","Europe/Kiev","2:00 PM GMT on July 22, 2016","2016","07","22","14","00","UTC","22.0","71.6","11.0","51.8","50","7.2","4.5","-9999.0","-9999.0","340","NNW","10.0","6.2","1012","29.89","-999","-999","-9999","-9999","-9999.00","-9999.00","Mostly Cloudy","mostlycloudy","0","0","0","0","0","0","METAR UKKK 221400Z 34002MPS 300V040 9999 BKN040 22/11 Q1012 R26/CLRD70 NOSIG"
"5:30 PM EEST on July 22, 2016","2016","07","22","17","30","Europe/Kiev","2:30 PM GMT on July 22, 2016","2016","07","22","14","30","UTC","21.0","69.8","12.0","53.6","56","14.4","8.9","-9999.0","-9999.0","310","NW","10.0","6.2","1012","29.89","-999","-999","-9999","-9999","-9999.00","-9999.00","Scattered Clouds","partlycloudy","0","0","0","0","0","0","METAR UKKK 221430Z 31004MPS 270V340 9999 SCT040 21/12 Q1012 R26/CLRD70 NOSIG"
"6:00 PM EEST on July 22, 2016","2016","07","22","18","00","Europe/Kiev","3:00 PM GMT on July 22, 2016","2016","07","22","15","00","UTC","21","70","12","53","44","7.2","4.5","","","320","NW","20","12","1012","29.90","-999","-999","-9999","-9999","","","Partly Cloudy","partlycloudy","0","0","0","0","0","0","AAXX 22151 33345 42598 63202 10211 20116 39929 40123 52004 84260 333 84832 555 11028"
"6:00 PM EEST on July 22, 2016","2016","07","22","18","00","Europe/Kiev","3:00 PM GMT on July 22, 2016","2016","07","22","15","00","UTC","22.0","71.6","12.0","53.6","53","14.4","8.9","-9999.0","-9999.0","310","NW","10.0","6.2","1012","29.89","-999","-999","-9999","-9999","-9999.00","-9999.00","Scattered Clouds","partlycloudy","0","0","0","0","0","0","METAR UKKK 221500Z 31004MPS 280V360 9999 SCT040 22/12 Q1012 R26/CLRD70 NOSIG"
"6:30 PM EEST on July 22, 2016","2016","07","22","18","30","Europe/Kiev","3:30 PM GMT on July 22, 2016","2016","07","22","15","30","UTC","22.0","71.6","13.0","55.4","57","14.4","8.9","-9999.0","-9999.0","320","NW","9.0","5.6","1013","29.92","-999","-999","-9999","-9999","-9999.00","-9999.00","Scattered Clouds","partlycloudy","0","0","0","0","0","0","METAR UKKK 221530Z 32004MPS 280V350 9000 SCT040 22/13 Q1013 R26/CLRD70 NOSIG"
"7:00 PM EEST on July 22, 2016","2016","07","22","19","00","Europe/Kiev","4:00 PM GMT on July 22, 2016","2016","07","22","16","00","UTC","22.0","71.6","12.0","53.6","53","18.0","11.2","-9999.0","-9999.0","310","NW","10.0","6.2","1013","29.92","-999","-999","-9999","-9999","-9999.00","-9999.00","Scattered Clouds","partlycloudy","0","0","0","0","0","0","METAR UKKK 221600Z 31005MPS 9999 SCT040 22/12 Q1013 R26/CLRD70 NOSIG"
"7:30 PM EEST on July 22, 2016","2016","07","22","19","30","Europe/Kiev","4:30 PM GMT on July 22, 2016","2016","07","22","16","30","UTC","21.0","69.8","12.0","53.6","56","18.0","11.2","-9999.0","-9999.0","320","NW","10.0","6.2","1013","29.92","-999","-999","-9999","-9999","-9999.00","-9999.00","Scattered Clouds","partlycloudy","0","0","0","0","0","0","METAR UKKK 221630Z 32005MPS 9999 SCT040 21/12 Q1013 R26/CLRD70 NOSIG"
"8:00 PM EEST on July 22, 2016","2016","07","22","20","00","Europe/Kiev","5:00 PM GMT on July 22, 2016","2016","07","22","17","00","UTC","21.0","69.8","12.0","53.6","56","14.4","8.9","-9999.0","-9999.0","300","WNW","-9999.0","-9999.0","1013","29.92","-999","-999","-9999","-9999","-9999.00","-9999.00","Clear","clear","0","0","0","0","0","0","METAR UKKK 221700Z 30004MPS CAVOK 21/12 Q1013 R26/CLRD70 NOSIG"
"8:30 PM EEST on July 22, 2016","2016","07","22","20","30","Europe/Kiev","5:30 PM GMT on July 22, 2016","2016","07","22","17","30","UTC","20.0","68.0","13.0","55.4","64","14.4","8.9","-9999.0","-9999.0","280","West","-9999.0","-9999.0","1013","29.92","-999","-999","-9999","-9999","-9999.00","-9999.00","Clear","clear","0","0","0","0","0","0","METAR UKKK 221730Z 28004MPS CAVOK 20/13 Q1013 R26/CLRD70 NOSIG"
"9:00 PM EEST on July 22, 2016","2016","07","22","21","00","Europe/Kiev","6:00 PM GMT on July 22, 2016","2016","07","22","18","00","UTC","20","68","12","54","52","7.2","4.5","","","280","West","20","12","1013","29.92","-999","-999","-9999","-9999","","","Partly Cloudy","partlycloudy","0","0","0","0","0","0","AAXX 22181 33345 12598 62802 10199 20125 39936 40130 52007 69932 84460 333 10219 555 11018"
"9:00 PM EEST on July 22, 2016","2016","07","22","21","00","Europe/Kiev","6:00 PM GMT on July 22, 2016","2016","07","22","18","00","UTC","19.0","66.2","13.0","55.4","68","14.4","8.9","-9999.0","-9999.0","280","West","-9999.0","-9999.0","1013","29.92","-999","-999","-9999","-9999","-9999.00","-9999.00","Clear","clear","0","0","0","0","0","0","METAR UKKK 221800Z 28004MPS CAVOK 19/13 Q1013 R26/CLRD70 NOSIG"
"9:30 PM EEST on July 22, 2016","2016","07","22","21","30","Europe/Kiev","6:30 PM GMT on July 22, 2016","2016","07","22","18","30","UTC","18.0","64.4","13.0","55.4","73","14.4","8.9","-9999.0","-9999.0","280","West","-9999.0","-9999.0","1013","29.92","-999","-999","-9999","-9999","-9999.00","-9999.00","Clear","clear","0","0","0","0","0","0","METAR UKKK 221830Z 28004MPS CAVOK 18/13 Q1013 R26/CLRD70 NOSIG"
"10:00 PM EEST on July 22, 2016","2016","07","22","22","00","Europe/Kiev","7:00 PM GMT on July 22, 2016","2016","07","22","19","00","UTC","18.0","64.4","13.0","55.4","73","14.4","8.9","-9999.0","-9999.0","290","WNW","-9999.0","-9999.0","1014","29.95","-999","-999","-9999","-9999","-9999.00","-9999.00","Clear","clear","0","0","0","0","0","0","METAR UKKK 221900Z 29004MPS CAVOK 18/13 Q1014 R26/CLRD70 NOSIG"
"10:30 PM EEST on July 22, 2016","2016","07","22","22","30","Europe/Kiev","7:30 PM GMT on July 22, 2016","2016","07","22","19","30","UTC","17.0","62.6","13.0","55.4","77","10.8","6.7","-9999.0","-9999.0","280","West","-9999.0","-9999.0","1014","29.95","-999","-999","-9999","-9999","-9999.00","-9999.00","Clear","clear","0","0","0","0","0","0","METAR UKKK 221930Z 28003MPS CAVOK 17/13 Q1014 R26/CLRD70 NOSIG"
"11:00 PM EEST on July 22, 2016","2016","07","22","23","00","Europe/Kiev","8:00 PM GMT on July 22, 2016","2016","07","22","20","00","UTC","17.0","62.6","13.0","55.4","77","10.8","6.7","-9999.0","-9999.0","280","West","10.0","6.2","1014","29.95","-999","-999","-9999","-9999","-9999.00","-9999.00","Mostly Cloudy","mostlycloudy","0","0","0","0","0","0","METAR UKKK 222000Z 28003MPS 9999 BKN046 17/13 Q1014 R26/CLRD70 NOSIG"
"11:30 PM EEST on July 22, 2016","2016","07","22","23","30","Europe/Kiev","8:30 PM GMT on July 22, 2016","2016","07","22","20","30","UTC","17.0","62.6","13.0","55.4","77","14.4","8.9","-9999.0","-9999.0","270","West","-9999.0","-9999.0","1014","29.95","-999","-999","-9999","-9999","-9999.00","-9999.00","Clear","clear","0","0","0","0","0","0","METAR UKKK 222030Z 27004MPS CAVOK 17/13 Q1014 R26/CLRD70 NOSIG"
"12:00 AM EEST on July 23, 2016","2016","07","23","00","00","Europe/Kiev","9:00 PM GMT on July 22, 2016","2016","07","22","21","00","UTC","18","64","13","55","64","7.2","4.5","","","310","NW","20","12","1014","29.93","-999","-999","-9999","-9999","","","Mostly Cloudy","mostlycloudy","0","0","0","0","0","0","AAXX 22211 33345 42998 63102 10178 20126 39939 40135 51003 86030 555 11015"
"12:00 AM EEST on July 23, 2016","2016","07","23","00","00","Europe/Kiev","9:00 PM GMT on July 22, 2016","2016","07","22","21","00","UTC","16.0","60.8","13.0","55.4","82","14.4","8.9","-9999.0","-9999.0","280","West","-9999.0","-9999.0","1014","29.95","-999","-999","-9999","-9999","-9999.00","-9999.00","Clear","clear","0","0","0","0","0","0","METAR UKKK 222100Z 28004MPS CAVOK 16/13 Q1014 R26/CLRD70 NOSIG"
"12:30 AM EEST on July 23, 2016","2016","07","23","00","30","Europe/Kiev","9:30 PM GMT on July 22, 2016","2016","07","22","21","30","UTC","16.0","60.8","13.0","55.4","82","14.4","8.9","-9999.0","-9999.0","270","West","-9999.0","-9999.0","1014","29.95","-999","-999","-9999","-9999","-9999.00","-9999.00","Clear","clear","0","0","0","0","0","0","METAR UKKK 222130Z 27004MPS CAVOK 16/13 Q1014 R26/CLRD70 NOSIG"
"1:00 AM EEST on July 23, 2016","2016","07","23","01","00","Europe/Kiev","10:00 PM GMT on July 22, 2016","2016","07","22","22","00","UTC","15.0","59.0","12.0","53.6","82","14.4","8.9","-9999.0","-9999.0","270","West","-9999.0","-9999.0","1014","29.95","-999","-999","-9999","-9999","-9999.00","-9999.00","Clear","clear","0","0","0","0","0","0","METAR UKKK 222200Z 27004MPS CAVOK 15/12 Q1014 R26/CLRD70 NOSIG"
"1:30 AM EEST on July 23, 2016","2016","07","23","01","30","Europe/Kiev","10:30 PM GMT on July 22, 2016","2016","07","22","22","30","UTC","15.0","59.0","12.0","53.6","82","14.4","8.9","-9999.0","-9999.0","270","West","-9999.0","-9999.0","1014","29.95","-999","-999","-9999","-9999","-9999.00","-9999.00","Clear","clear","0","0","0","0","0","0","METAR UKKK 222230Z 27004MPS CAVOK 15/12 Q1014 R26/CLRD70 NOSIG"
"2:00 AM EEST on July 23, 2016","2016","07","23","02","00","Europe/Kiev","11:00 PM GMT on July 22, 2016","2016","07","22","23","00","UTC","15.0","59.0","12.0","53.6","82","10.8","6.7","-9999.0","-9999.0","280","West","-9999.0","-9999.0","1014","29.95","-999","-999","-9999","-9999","-9999.00","-9999.00","Clear","clear","0","0","0","0","0","0","METAR UKKK 222300Z 28003MPS CAVOK 15/12 Q1014 R26/CLRD70 NOSIG"
"2:30 AM EEST on July 23, 2016","2016","07","23","02","30","Europe/Kiev","11:30 PM GMT on July 22, 2016","2016","07","22","23","30","UTC","15.0","59.0","12.0","53.6","82","10.8","6.7","-9999.0","-9999.0","280","West","-9999.0","-9999.0","1014","29.95","-999","-999","-9999","-9999","-9999.00","-9999.00","Clear","clear","0","0","0","0","0","0","METAR UKKK 222330Z 28003MPS CAVOK 15/12 Q1014 R26/CLRD70 NOSIG"
"3:00 AM EEST on July 23, 2016","2016","07","23","03","00","Europe/Kiev","12:00 AM GMT on July 23, 2016","2016","07","23","00","00","UTC","16","61","12","54","70","7.2","4.5","","","300","WNW","20","12","1014","29.94","-999","-999","-9999","-9999","","","","","0","0","0","0","0","0","AAXX 23001 33345 32998 03002 10162 20120 39940 40137 53001 555 11014"
"3:00 AM EEST on July 23, 2016","2016","07","23","03","00","Europe/Kiev","12:00 AM GMT on July 23, 2016","2016","07","23","00","00","UTC","15.0","59.0","12.0","53.6","82","14.4","8.9","-9999.0","-9999.0","280","West","-9999.0","-9999.0","1014","29.95","-999","-999","-9999","-9999","-9999.00","-9999.00","Clear","clear","0","0","0","0","0","0","METAR UKKK 230000Z 28004MPS CAVOK 15/12 Q1014 R26/CLRD70 NOSIG"
"3:30 AM EEST on July 23, 2016","2016","07","23","03","30","Europe/Kiev","12:30 AM GMT on July 23, 2016","2016","07","23","00","30","UTC","14.0","57.2","12.0","53.6","88","14.4","8.9","-9999.0","-9999.0","270","West","-9999.0","-9999.0","1014","29.95","-999","-999","-9999","-9999","-9999.00","-9999.00","Clear","clear","0","0","0","0","0","0","METAR UKKK 230030Z 27004MPS CAVOK 14/12 Q1014 R26/CLRD70 NOSIG"
"4:00 AM EEST on July 23, 2016","2016","07","23","04","00","Europe/Kiev","1:00 AM GMT on July 23, 2016","2016","07","23","01","00","UTC","14.0","57.2","13.0","55.4","94","14.4","8.9","-9999.0","-9999.0","270","West","-9999.0","-9999.0","1013","29.92","-999","-999","-9999","-9999","-9999.00","-9999.00","Clear","clear","0","0","0","0","0","0","METAR UKKK 230100Z 27004MPS CAVOK 14/13 Q1013 R26/CLRD70 NOSIG"
"4:30 AM EEST on July 23, 2016","2016","07","23","04","30","Europe/Kiev","1:30 AM GMT on July 23, 2016","2016","07","23","01","30","UTC","14.0","57.2","13.0","55.4","94","14.4","8.9","-9999.0","-9999.0","270","West","-9999.0","-9999.0","1013","29.92","-999","-999","-9999","-9999","-9999.00","-9999.00","Clear","clear","0","0","0","0","0","0","METAR UKKK 230130Z 27004MPS CAVOK 14/13 Q1013 R26/CLRD70 NOSIG"
"5:00 AM EEST on July 23, 2016","2016","07","23","05","00","Europe/Kiev","2:00 AM GMT on July 23, 2016","2016","07","23","02","00","UTC","14.0","57.2","13.0","55.4","94","14.4","8.9","-9999.0","-9999.0","270","West","-9999.0","-9999.0","1013","29.92","-999","-999","-9999","-9999","-9999.00","-9999.00","Clear","clear","0","0","0","0","0","0","METAR UKKK 230200Z 27004MPS CAVOK 14/13 Q1013 R26/CLRD70 NOSIG"
"5:30 AM EEST on July 23, 2016","2016","07","23","05","30","Europe/Kiev","2:30 AM GMT on July 23, 2016","2016","07","23","02","30","UTC","14.0","57.2","13.0","55.4","94","14.4","8.9","-9999.0","-9999.0","260","West","-9999.0","-9999.0","1013","29.92","-999","-999","-9999","-9999","-9999.00","-9999.00","Clear","clear","0","0","0","0","0","0","METAR UKKK 230230Z 26004MPS CAVOK 14/13 Q1013 R26/CLRD70 NOSIG"
"6:00 AM EEST on July 23, 2016","2016","07","23","06","00","Europe/Kiev","3:00 AM GMT on July 23, 2016","2016","07","23","03","00","UTC","15","58","13","56","90","10.8","6.7","","","300","WNW","10","6","1013","29.92","-999","-999","-9999","-9999","","","Clear","clear","0","0","0","0","0","0","AAXX 23031 33345 42997 23003 10146 20132 39933 40131 58007 80001 555 11013"
"6:00 AM EEST on July 23, 2016","2016","07","23","06","00","Europe/Kiev","3:00 AM GMT on July 23, 2016","2016","07","23","03","00","UTC","14.0","57.2","13.0","55.4","94","10.8","6.7","-9999.0","-9999.0","260","West","-9999.0","-9999.0","1013","29.92","-999","-999","-9999","-9999","-9999.00","-9999.00","Clear","clear","0","0","0","0","0","0","METAR UKKK 230300Z 26003MPS CAVOK 14/13 Q1013 R26/CLRD70 NOSIG"
"6:30 AM EEST on July 23, 2016","2016","07","23","06","30","Europe/Kiev","3:30 AM GMT on July 23, 2016","2016","07","23","03","30","UTC","15.0","59.0","14.0","57.2","94","14.4","8.9","-9999.0","-9999.0","270","West","-9999.0","-9999.0","1013","29.92","-999","-999","-9999","-9999","-9999.00","-9999.00","Clear","clear","0","0","0","0","0","0","METAR UKKK 230330Z 27004MPS CAVOK 15/14 Q1013 R26/CLRD70 NOSIG"
"7:00 AM EEST on July 23, 2016","2016","07","23","07","00","Europe/Kiev","4:00 AM GMT on July 23, 2016","2016","07","23","04","00","UTC","15.0","59.0","14.0","57.2","94","14.4","8.9","-9999.0","-9999.0","270","West","-9999.0","-9999.0","1013","29.92","-999","-999","-9999","-9999","-9999.00","-9999.00","Clear","clear","0","0","0","0","0","0","METAR UKKK 230400Z 27004MPS CAVOK 15/14 Q1013 R26/CLRD70 NOSIG"
"7:30 AM EEST on July 23, 2016","2016","07","23","07","30","Europe/Kiev","4:30 AM GMT on July 23, 2016","2016","07","23","04","30","UTC","16.0","60.8","14.0","57.2","88","14.4","8.9","-9999.0","-9999.0","290","WNW","-9999.0","-9999.0","1013","29.92","-999","-999","-9999","-9999","-9999.00","-9999.00","Clear","clear","0","0","0","0","0","0","METAR UKKK 230430Z 29004MPS CAVOK 16/14 Q1013 R26/CLRD70 NOSIG"
"8:00 AM EEST on July 23, 2016","2016","07","23","08","00","Europe/Kiev","5:00 AM GMT on July 23, 2016","2016","07","23","05","00","UTC","17.0","62.6","15.0","59.0","88","18.0","11.2","-9999.0","-9999.0","280","West","-9999.0","-9999.0","1013","29.92","-999","-999","-9999","-9999","-9999.00","-9999.00","Clear","clear","0","0","0","0","0","0","METAR UKKK 230500Z 28005MPS CAVOK 17/15 Q1013 R26/CLRD70 NOSIG"
"8:30 AM EEST on July 23, 2016","2016","07","23","08","30","Europe/Kiev","5:30 AM GMT on July 23, 2016","2016","07","23","05","30","UTC","18.0","64.4","15.0","59.0","83","18.0","11.2","-9999.0","-9999.0","280","West","-9999.0","-9999.0","1013","29.92","-999","-999","-9999","-9999","-9999.00","-9999.00","Clear","clear","0","0","0","0","0","0","METAR UKKK 230530Z 28005MPS CAVOK 18/15 Q1013 R26/CLRD70 NOSIG"
"9:00 AM EEST on July 23, 2016","2016","07","23","09","00","Europe/Kiev","6:00 AM GMT on July 23, 2016","2016","07","23","06","00","UTC","19","65","14","58","72","10.8","6.7","","","280","West","20","12","1013","29.91","-999","-999","-9999","-9999","","","","","0","0","0","0","0","0","AAXX 23061 33345 32998 02803 10186 20145 39934 40129 53001 333 20146 555 11027"
"9:00 AM EEST on July 23, 2016","2016","07","23","09","00","Europe/Kiev","6:00 AM GMT on July 23, 2016","2016","07","23","06","00","UTC","19.0","66.2","15.0","59.0","78","18.0","11.2","-9999.0","-9999.0","290","WNW","-9999.0","-9999.0","1013","29.92","-999","-999","-9999","-9999","-9999.00","-9999.00","Clear","clear","0","0","0","0","0","0","METAR UKKK 230600Z 29005MPS CAVOK 19/15 Q1013 R26/CLRD70 NOSIG"
"9:30 AM EEST on July 23, 2016","2016","07","23","09","30","Europe/Kiev","6:30 AM GMT on July 23, 2016","2016","07","23","06","30","UTC","20.0","68.0","15.0","59.0","73","18.0","11.2","-9999.0","-9999.0","290","WNW","-9999.0","-9999.0","1013","29.92","-999","-999","-9999","-9999","-9999.00","-9999.00","Clear","clear","0","0","0","0","0","0","METAR UKKK 230630Z 29005MPS CAVOK 20/15 Q1013 R26/CLRD70 NOSIG"
"10:00 AM EEST on July 23, 2016","2016","07","23","10","00","Europe/Kiev","7:00 AM GMT on July 23, 2016","2016","07","23","07","00","UTC","20.0","68.0","15.0","59.0","73","14.4","8.9","-9999.0","-9999.0","280","West","-9999.0","-9999.0","1013","29.92","-999","-999","-9999","-9999","-9999.00","-9999.00","Clear","clear","0","0","0","0","0","0","METAR UKKK 230700Z 28004MPS 250V310 CAVOK 20/15 Q1013 R26/CLRD70 NOSIG"
"10:30 AM EEST on July 23, 2016","2016","07","23","10","30","Europe/Kiev","7:30 AM GMT on July 23, 2016","2016","07","23","07","30","UTC","21.0","69.8","15.0","59.0","68","18.0","11.2","-9999.0","-9999.0","300","WNW","-9999.0","-9999.0","1013","29.92","-999","-999","-9999","-9999","-9999.00","-9999.00","Clear","clear","0","0","0","0","0","0","METAR UKKK 230730Z 30005MPS CAVOK 21/15 Q1013 R26/CLRD70 NOSIG"
"11:00 AM EEST on July 23, 2016","2016","07","23","11","00","Europe/Kiev","8:00 AM GMT on July 23, 2016","2016","07","23","08","00","UTC","21.0","69.8","15.0","59.0","68","14.4","8.9","-9999.0","-9999.0","290","WNW","-9999.0","-9999.0","1013","29.92","-999","-999","-9999","-9999","-9999.00","-9999.00","Clear","clear","0","0","0","0","0","0","METAR UKKK 230800Z 29004MPS CAVOK 21/15 Q1013 R26/CLRD70 NOSIG"
"11:30 AM EEST on July 23, 2016","2016","07","23","11","30","Europe/Kiev","8:30 AM GMT on July 23, 2016","2016","07","23","08","30","UTC","23.0","73.4","15.0","59.0","61","18.0","11.2","-9999.0","-9999.0","300","WNW","-9999.0","-9999.0","1013","29.92","-999","-999","-9999","-9999","-9999.00","-9999.00","Clear","clear","0","0","0","0","0","0","METAR UKKK 230830Z 30005MPS 250V340 CAVOK 23/15 Q1013 R26/CLRD70 NOSIG"
"12:00 PM EEST on July 23, 2016","2016","07","23","12","00","Europe/Kiev","9:00 AM GMT on July 23, 2016","2016","07","23","09","00","UTC","23","73","15","59","51","10.8","6.7","","","320","NW","20","12","1012","29.89","-999","-999","-9999","-9999","","","Partly Cloudy","partlycloudy","0","0","0","0","0","0","AAXX 23091 33345 42598 63203 10230 20148 39930 40122 58004 83204 555 10040"
"12:00 PM EEST on July 23, 2016","2016","07","23","12","00","Europe/Kiev","9:00 AM GMT on July 23, 2016","2016","07","23","09","00","UTC","23.0","73.4","15.0","59.0","61","18.0","11.2","-9999.0","-9999.0","320","NW","-9999.0","-9999.0","1013","29.92","-999","-999","-9999","-9999","-9999.00","-9999.00","Clear","clear","0","0","0","0","0","0","METAR UKKK 230900Z 32005MPS 270V360 CAVOK 23/15 Q1013 R26/CLRD70 NOSIG"
"12:30 PM EEST on July 23, 2016","2016","07","23","12","30","Europe/Kiev","9:30 AM GMT on July 23, 2016","2016","07","23","09","30","UTC","24.0","75.2","14.0","57.2","53","21.6","13.4","-9999.0","-9999.0","320","NW","10.0","6.2","1012","29.89","-999","-999","-9999","-9999","-9999.00","-9999.00","Mostly Cloudy","mostlycloudy","0","0","0","0","0","0","METAR UKKK 230930Z 32006MPS 9999 SCT041 BKN200 24/14 Q1012 R26/CLRD70 NOSIG"
"1:00 PM EEST on July 23, 2016","2016","07","23","13","00","Europe/Kiev","10:00 AM GMT on July 23, 2016","2016","07","23","10","00","UTC","25.0","77.0","13.0","55.4","47","21.6","13.4","-9999.0","-9999.0","320","NW","10.0","6.2","1012","29.89","-999","-999","-9999","-9999","-9999.00","-9999.00","Mostly Cloudy","mostlycloudy","0","0","0","0","0","0","METAR UKKK 231000Z 32006MPS 280V350 9999 SCT046 BKN200 25/13 Q1012 R26/CLRD70 NOSIG"
"1:30 PM EEST on July 23, 2016","2016","07","23","13","30","Europe/Kiev","10:30 AM GMT on July 23, 2016","2016","07","23","10","30","UTC","25.0","77.0","14.0","57.2","50","21.6","13.4","-9999.0","-9999.0","320","NW","-9999.0","-9999.0","1012","29.89","-999","-999","-9999","-9999","-9999.00","-9999.00","Clear","clear","0","0","0","0","0","0","METAR UKKK 231030Z 32006MPS CAVOK 25/14 Q1012 R26/CLRD70 NOSIG"
"2:00 PM EEST on July 23, 2016","2016","07","23","14","00","Europe/Kiev","11:00 AM GMT on July 23, 2016","2016","07","23","11","00","UTC","26.0","78.8","14.0","57.2","47","25.2","15.7","-9999.0","-9999.0","310","NW","-9999.0","-9999.0","1012","29.89","-999","-999","-9999","-9999","-9999.00","-9999.00","Clear","clear","0","0","0","0","0","0","METAR UKKK 231100Z 31007MPS 280V340 CAVOK 26/14 Q1012 R26/CLRD70 NOSIG"
"2:30 PM EEST on July 23, 2016","2016","07","23","14","30","Europe/Kiev","11:30 AM GMT on July 23, 2016","2016","07","23","11","30","UTC","26.0","78.8","13.0","55.4","44","25.2","15.7","-9999.0","-9999.0","290","WNW","-9999.0","-9999.0","1012","29.89","-999","-999","-9999","-9999","-9999.00","-9999.00","Clear","clear","0","0","0","0","0","0","METAR UKKK 231130Z 29007MPS 260V330 CAVOK 26/13 Q1012 R26/CLRD70 NOSIG"
"3:00 PM EEST on July 23, 2016","2016","07","23","15","00","Europe/Kiev","12:00 PM GMT on July 23, 2016","2016","07","23","12","00","UTC","25","77","11","52","31","14.4","8.9","","","320","NW","20","12","1012","29.87","-999","-999","-9999","-9999","","","Mostly Cloudy","mostlycloudy","0","0","0","0","0","0","AAXX 23121 33345 32698 63204 10252 20113 39924 40115 57006 86200 555 10040"
"3:00 PM EEST on July 23, 2016","2016","07","23","15","00","Europe/Kiev","12:00 PM GMT on July 23, 2016","2016","07","23","12","00","UTC","26.0","78.8","13.0","55.4","44","28.8","17.9","-9999.0","-9999.0","300","WNW","-9999.0","-9999.0","1012","29.89","-999","-999","-9999","-9999","-9999.00","-9999.00","Clear","clear","0","0","0","0","0","0","METAR UKKK 231200Z 30008MPS 270V330 CAVOK 26/13 Q1012 R26/CLRD70 NOSIG"
"3:30 PM EEST on July 23, 2016","2016","07","23","15","30","Europe/Kiev","12:30 PM GMT on July 23, 2016","2016","07","23","12","30","UTC","25.0","77.0","13.0","55.4","47","25.2","15.7","-9999.0","-9999.0","330","NNW","-9999.0","-9999.0","1012","29.89","-999","-999","-9999","-9999","-9999.00","-9999.00","Clear","clear","0","0","0","0","0","0","METAR UKKK 231230Z 33007MPS 300V360 CAVOK 25/13 Q1012 R26/CLRD70 NOSIG"
"4:00 PM EEST on July 23, 2016","2016","07","23","16","00","Europe/Kiev","1:00 PM GMT on July 23, 2016","2016","07","23","13","00","UTC","25.0","77.0","12.0","53.6","44","25.2","15.7","-9999.0","-9999.0","320","NW","-9999.0","-9999.0","1012","29.89","-999","-999","-9999","-9999","-9999.00","-9999.00","Clear","clear","0","0","0","0","0","0","METAR UKKK 231300Z 32007MPS CAVOK 25/12 Q1012 R26/CLRD70 NOSIG"
"4:30 PM EEST on July 23, 2016","2016","07","23","16","30","Europe/Kiev","1:30 PM GMT on July 23, 2016","2016","07","23","13","30","UTC","26.0","78.8","12.0","53.6","42","28.8","17.9","-9999.0","-9999.0","310","NW","-9999.0","-9999.0","1012","29.89","-999","-999","-9999","-9999","-9999.00","-9999.00","Clear","clear","0","0","0","0","0","0","METAR UKKK 231330Z 31008MPS CAVOK 26/12 Q1012 R26/CLRD70 NOSIG"
"5:00 PM EEST on July 23, 2016","2016","07","23","17","00","Europe/Kiev","2:00 PM GMT on July 23, 2016","2016","07","23","14","00","UTC","27.0","80.6","13.0","55.4","42","25.2","15.7","-9999.0","-9999.0","330","NNW","-9999.0","-9999.0","1012","29.89","-999","-999","27.0","80.5","-9999.00","-9999.00","Clear","clear","0","0","0","0","0","0","METAR UKKK 231400Z 33007MPS CAVOK 27/13 Q1012 R26/CLRD70 NOSIG"
"5:30 PM EEST on July 23, 2016","2016","07","23","17","30","Europe/Kiev","2:30 PM GMT on July 23, 2016","2016","07","23","14","30","UTC","26.0","78.8","13.0","55.4","44","28.8","17.9","-9999.0","-9999.0","320","NW","-9999.0","-9999.0","1011","29.86","-999","-999","-9999","-9999","-9999.00","-9999.00","Clear","clear","0","0","0","0","0","0","METAR UKKK 231430Z 32008MPS 290V360 CAVOK 26/13 Q1011 R26/CLRD70 NOSIG"
"6:00 PM EEST on July 23, 2016","2016","07","23","18","00","Europe/Kiev","3:00 PM GMT on July 23, 2016","2016","07","23","15","00","UTC","26","79","12","53","30","18.0","11.2","","","340","NNW","20","12","1011","29.85","-999","-999","-9999","-9999","","","","","0","0","0","0","0","0","AAXX 23151 33345 42998 03405 10259 20118 39918 40108 57006 555 10035"
"6:00 PM EEST on July 23, 2016","2016","07","23","18","00","Europe/Kiev","3:00 PM GMT on July 23, 2016","2016","07","23","15","00","UTC","26.0","78.8","13.0","55.4","44","25.2","15.7","-9999.0","-9999.0","330","NNW","-9999.0","-9999.0","1011","29.86","-999","-999","-9999","-9999","-9999.00","-9999.00","Clear","clear","0","0","0","0","0","0","METAR UKKK 231500Z 33007MPS CAVOK 26/13 Q1011 R26/CLRD70 NOSIG"
"6:30 PM EEST on July 23, 2016","2016","07","23","18","30","Europe/Kiev","3:30 PM GMT on July 23, 2016","2016","07","23","15","30","UTC","26.0","78.8","13.0","55.4","44","25.2","15.7","-9999.0","-9999.0","310","NW","-9999.0","-9999.0","1011","29.86","-999","-999","-9999","-9999","-9999.00","-9999.00","Clear","clear","0","0","0","0","0","0","METAR UKKK 231530Z 31007MPS CAVOK 26/13 Q1011 R26/CLRD70 NOSIG"
"7:00 PM EEST on July 23, 2016","2016","07","23","19","00","Europe/Kiev","4:00 PM GMT on July 23, 2016","2016","07","23","16","00","UTC","25.0","77.0","13.0","55.4","47","32.4","20.1","-9999.0","-9999.0","310","NW","-9999.0","-9999.0","1011","29.86","-999","-999","-9999","-9999","-9999.00","-9999.00","Clear","clear","0","0","0","0","0","0","METAR UKKK 231600Z 31009MPS CAVOK 25/13 Q1011 R26/CLRD70 NOSIG"
"7:30 PM EEST on July 23, 2016","2016","07","23","19","30","Europe/Kiev","4:30 PM GMT on July 23, 2016","2016","07","23","16","30","UTC","25.0","77.0","13.0","55.4","47","21.6","13.4","-9999.0","-9999.0","320","NW","-9999.0","-9999.0","1012","29.89","-999","-999","-9999","-9999","-9999.00","-9999.00","Clear","clear","0","0","0","0","0","0","METAR UKKK 231630Z 32006MPS CAVOK 25/13 Q1012 R26/CLRD70 NOSIG"
"8:00 PM EEST on July 23, 2016","2016","07","23","20","00","Europe/Kiev","5:00 PM GMT on July 23, 2016","2016","07","23","17","00","UTC","25.0","77.0","13.0","55.4","47","18.0","11.2","-9999.0","-9999.0","330","NNW","-9999.0","-9999.0","1012","29.89","-999","-999","-9999","-9999","-9999.00","-9999.00","Clear","clear","0","0","0","0","0","0","METAR UKKK 231700Z 33005MPS CAVOK 25/13 Q1012 R26/CLRD70 NOSIG"
"8:30 PM EEST on July 23, 2016","2016","07","23","20","30","Europe/Kiev","5:30 PM GMT on July 23, 2016","2016","07","23","17","30","UTC","24.0","75.2","13.0","55.4","50","18.0","11.2","-9999.0","-9999.0","320","NW","-9999.0","-9999.0","1012","29.89","-999","-999","-9999","-9999","-9999.00","-9999.00","Clear","clear","0","0","0","0","0","0","METAR UKKK 231730Z 32005MPS CAVOK 24/13 Q1012 R26/CLRD70 NOSIG"
"9:00 PM EEST on July 23, 2016","2016","07","23","21","00","Europe/Kiev","6:00 PM GMT on July 23, 2016","2016","07","23","18","00","UTC","24","75","13","55","40","14.4","8.9","","","320","NW","20","12","1011","29.87","-999","-999","-9999","-9999","","","Mostly Cloudy","mostlycloudy","0","0","0","0","0","0","AAXX 23181 33345 32998 63204 10238 20130 39922 40114 53004 86030 333 10262 555 10022"
"9:00 PM EEST on July 23, 2016","2016","07","23","21","00","Europe/Kiev","6:00 PM GMT on July 23, 2016","2016","07","23","18","00","UTC","23.0","73.4","13.0","55.4","53","18.0","11.2","-9999.0","-9999.0","310","NW","-9999.0","-9999.0","1012","29.89","-999","-999","-9999","-9999","-9999.00","-9999.00","Clear","clear","0","0","0","0","0","0","METAR UKKK 231800Z 31005MPS CAVOK 23/13 Q1012 R26/CLRD70 NOSIG"
"9:30 PM EEST on July 23, 2016","2016","07","23","21","30","Europe/Kiev","6:30 PM GMT on July 23, 2016","2016","07","23","18","30","UTC","23.0","73.4","14.0","57.2","57","18.0","11.2","-9999.0","-9999.0","300","WNW","-9999.0","-9999.0","1012","29.89","-999","-999","-9999","-9999","-9999.00","-9999.00","Clear","clear","0","0","0","0","0","0","METAR UKKK 231830Z 30005MPS CAVOK 23/14 Q1012 R26/CLRD70 NOSIG"
"10:00 PM EEST on July 23, 2016","2016","07","23","22","00","Europe/Kiev","7:00 PM GMT on July 23, 2016","2016","07","23","19","00","UTC","23.0","73.4","14.0","57.2","57","7.2","4.5","-9999.0","-9999.0","50","NE","-9999.0","-9999.0","1012","29.89","-999","-999","-9999","-9999","-9999.00","-9999.00","Clear","clear","0","0","0","0","0","0","METAR UKKK 231900Z 05002MPS CAVOK 23/14 Q1012 R26/CLRD70 NOSIG"
"10:30 PM EEST on July 23, 2016","2016","07","23","22","30","Europe/Kiev","7:30 PM GMT on July 23, 2016","2016","07","23","19","30","UTC","21.0","69.8","17.0","62.6","78","10.8","6.7","-9999.0","-9999.0","10","North","-9999.0","-9999.0","1012","29.89","-999","-999","-9999","-9999","-9999.00","-9999.00","Clear","clear","0","0","0","0","0","0","METAR UKKK 231930Z 01003MPS 340V050 CAVOK 21/17 Q1012 R26/CLRD70 NOSIG"
"11:00 PM EEST on July 23, 2016","2016","07","23","23","00","Europe/Kiev","8:00 PM GMT on July 23, 2016","2016","07","23","20","00","UTC","20.0","68.0","17.0","62.6","83","10.8","6.7","-9999.0","-9999.0","10","North","-9999.0","-9999.0","1012","29.89","-999","-999","-9999","-9999","-9999.00","-9999.00","Clear","clear","0","0","0","0","0","0","METAR UKKK 232000Z 01003MPS 330V040 CAVOK 20/17 Q1012 R26/CLRD70 NOSIG"
"11:30 PM EEST on July 23, 2016","2016","07","23","23","30","Europe/Kiev","8:30 PM GMT on July 23, 2016","2016","07","23","20","30","UTC","20.0","68.0","18.0","64.4","88","14.4","8.9","-9999.0","-9999.0","340","NNW","8.0","5.0","1013","29.92","-999","-999","-9999","-9999","-9999.00","-9999.00","Light Rain Showers","rain","0","1","0","0","0","0","METAR UKKK 232030Z 34004MPS 8000 -SHRA SCT023CB BKN046 20/18 Q1013 R08/CLRD70 NOSIG"
"12:00 AM EEST on July 24, 2016","2016","07","24","00","00","Europe/Kiev","9:00 PM GMT on July 23, 2016","2016","07","23","21","00","UTC","20","67","18","65","89","10.8","6.7","","","0","North","20","12","1013","29.91","-999","-999","-9999","-9999","","","Heavy Rain Showers","rain","0","1","0","0","0","0","AAXX 23211 33345 41498 83603 10195 20181 39933 40127 52011 78182 883// 333 88916 555 11020"
"12:00 AM EEST on July 24, 2016","2016","07","24","00","00","Europe/Kiev","9:00 PM GMT on July 23, 2016","2016","07","23","21","00","UTC","20.0","68.0","18.0","64.4","88","10.8","6.7","-9999.0","-9999.0","20","NNE","9.0","5.6","1013","29.92","-999","-999","-9999","-9999","-9999.00","-9999.00","Light Rain Showers","rain","0","1","0","0","0","0","METAR UKKK 232100Z 02003MPS 9000 -SHRA SCT026CB BKN046 20/18 Q1013 R08/290256 NOSIG"
"12:30 AM EEST on July 24, 2016","2016","07","24","00","30","Europe/Kiev","9:30 PM GMT on July 23, 2016","2016","07","23","21","30","UTC","19.0","66.2","18.0","64.4","94","14.4","8.9","-9999.0","-9999.0","20","NNE","10.0","6.2","1013","29.92","-999","-999","-9999","-9999","-9999.00","-9999.00","Mostly Cloudy","mostlycloudy","0","0","0","0","0","0","METAR UKKK 232130Z 02004MPS 9999 FEW010 BKN046 19/18 Q1013 R08/290256 NOSIG"
"1:00 AM EEST on July 24, 2016","2016","07","24","01","00","Europe/Kiev","10:00 PM GMT on July 23, 2016","2016","07","23","22","00","UTC","19.0","66.2","18.0","64.4","94","10.8","6.7","-9999.0","-9999.0","20","NNE","-9999.0","-9999.0","1013","29.92","-999","-999","-9999","-9999","-9999.00","-9999.00","Clear","clear","0","0","0","0","0","0","METAR UKKK 232200Z 02003MPS CAVOK 19/18 Q1013 R08/290256 NOSIG"
"1:30 AM EEST on July 24, 2016","2016","07","24","01","30","Europe/Kiev","10:30 PM GMT on July 23, 2016","2016","07","23","22","30","UTC","18.0","64.4","17.0","62.6","94","10.8","6.7","-9999.0","-9999.0","30","NNE","-9999.0","-9999.0","1014","29.95","-999","-999","-9999","-9999","-9999.00","-9999.00","Clear","clear","0","0","0","0","0","0","METAR UKKK 232230Z 03003MPS CAVOK 18/17 Q1014 R08/290256 NOSIG"
"2:00 AM EEST on July 24, 2016","2016","07","24","02","00","Europe/Kiev","11:00 PM GMT on July 23, 2016","2016","07","23","23","00","UTC","18.0","64.4","17.0","62.6","94","10.8","6.7","-9999.0","-9999.0","10","North","-9999.0","-9999.0","1014","29.95","-999","-999","-9999","-9999","-9999.00","-9999.00","Clear","clear","0","0","0","0","0","0","METAR UKKK 232300Z 01003MPS CAVOK 18/17 Q1014 R08/290256 NOSIG"
"2:30 AM EEST on July 24, 2016","2016","07","24","02","30","Europe/Kiev","11:30 PM GMT on July 23, 2016","2016","07","23","23","30","UTC","17.0","62.6","17.0","62.6","100","10.8","6.7","-9999.0","-9999.0","20","NNE","-9999.0","-9999.0","1014","29.95","-999","-999","-9999","-9999","-9999.00","-9999.00","Clear","clear","0","0","0","0","0","0","METAR UKKK 232330Z 02003MPS CAVOK 17/17 Q1014 R08/290058 NOSIG"
"3:00 AM EEST on July 24, 2016","2016","07","24","03","00","Europe/Kiev","12:00 AM GMT on July 24, 2016","2016","07","24","00","00","UTC","18","64","16","61","88","3.6","2.2","","","350","North","10","6","1014","29.94","-999","-999","-9999","-9999","","","Partly Cloudy","partlycloudy","0","0","0","0","0","0","AAXX 24001 33345 /1997 03501 10176 20163 39942 40138 52009 70281 555 11016 60021"
"3:00 AM EEST on July 24, 2016","2016","07","24","03","00","Europe/Kiev","12:00 AM GMT on July 24, 2016","2016","07","24","00","00","UTC","17.0","62.6","16.0","60.8","94","7.2","4.5","-9999.0","-9999.0","10","North","-9999.0","-9999.0","1014","29.95","-999","-999","-9999","-9999","-9999.00","-9999.00","Clear","clear","0","0","0","0","0","0","METAR UKKK 240000Z 01002MPS CAVOK 17/16 Q1014 R08/290058 NOSIG"
"3:30 AM EEST on July 24, 2016","2016","07","24","03","30","Europe/Kiev","12:30 AM GMT on July 24, 2016","2016","07","24","00","30","UTC","16.0","60.8","16.0","60.8","100","3.6","2.2","-9999.0","-9999.0","260","West","7.0","4.3","1014","29.95","-999","-999","-9999","-9999","-9999.00","-9999.00","Unknown","unknown","0","0","0","0","0","0","METAR UKKK 240030Z 26001MPS 7000 NSC 16/16 Q1014 R08/290058 NOSIG"
"4:00 AM EEST on July 24, 2016","2016","07","24","04","00","Europe/Kiev","1:00 AM GMT on July 24, 2016","2016","07","24","01","00","UTC","16.0","60.8","16.0","60.8","100","7.2","4.5","-9999.0","-9999.0","270","West","1.0","0.6","1014","29.95","-999","-999","-9999","-9999","-9999.00","-9999.00","Mist","hazy","0","0","0","0","0","0","METAR UKKK 240100Z 27002MPS 1000 R26/P2000D BR NSC 16/16 Q1014 R26/290058 TEMPO 1200 BR"
"4:17 AM EEST on July 24, 2016","2016","07","24","04","17","Europe/Kiev","1:17 AM GMT on July 24, 2016","2016","07","24","01","17","UTC","16.0","60.8","16.0","60.8","100","3.6","2.2","-9999.0","-9999.0","0","Variable","7.0","4.3","1014","29.95","-999","-999","-9999","-9999","-9999.00","-9999.00","Unknown","unknown","0","0","0","0","0","0","SPECI UKKK 240117Z VRB01MPS 7000 NSC 16/16 Q1014 R26/290058 TEMPO 0300 FG VV002"
"4:30 AM EEST on July 24, 2016","2016","07","24","04","30","Europe/Kiev","1:30 AM GMT on July 24, 2016","2016","07","24","01","30","UTC","16.0","60.8","16.0","60.8","100","7.2","4.5","-9999.0","-9999.0","350","North","8.0","5.0","1014","29.95","-999","-999","-9999","-9999","-9999.00","-9999.00","Clear","clear","0","0","0","0","0","0","METAR UKKK 240130Z 35002MPS 320V020 8000 SKC 16/16 Q1014 R26/290058 TEMPO 0300 FG VV002"
"4:36 AM EEST on July 24, 2016","2016","07","24","04","36","Europe/Kiev","1:36 AM GMT on July 24, 2016","2016","07","24","01","36","UTC","16.0","60.8","15.0","59.0","94","7.2","4.5","-9999.0","-9999.0","340","NNW","0.9","0.6","1014","29.95","-999","-999","-9999","-9999","-9999.00","-9999.00","Clear","clear","0","0","0","0","0","0","SPECI UKKK 240136Z 34002MPS 310V020 0900 R26/P2000N PRFG SKC 16/15 Q1014 R26/290058 TEMPO 0300 FG VV002"
"4:48 AM EEST on July 24, 2016","2016","07","24","04","48","Europe/Kiev","1:48 AM GMT on July 24, 2016","2016","07","24","01","48","UTC","17.0","62.6","17.0","62.6","100","7.2","4.5","-9999.0","-9999.0","300","WNW","7.0","4.3","1014","29.95","-999","-999","-9999","-9999","-9999.00","-9999.00","Clear","clear","0","0","0","0","0","0","SPECI UKKK 240148Z 30002MPS 260V340 7000 SKC 17/17 Q1014 R26/290058 TEMPO 0300 FG VV002"
"5:00 AM EEST on July 24, 2016","2016","07","24","05","00","Europe/Kiev","2:00 AM GMT on July 24, 2016","2016","07","24","02","00","UTC","17.0","62.6","17.0","62.6","100","7.2","4.5","-9999.0","-9999.0","290","WNW","2.9","1.8","1014","29.95","-999","-999","-9999","-9999","-9999.00","-9999.00","Mostly Cloudy","mostlycloudy","0","0","0","0","0","0","METAR UKKK 240200Z 29002MPS 2900 BR BKN002 17/17 Q1014 R26/290058 TEMPO 0300 FG VV002"
"5:02 AM EEST on July 24, 2016","2016","07","24","05","02","Europe/Kiev","2:02 AM GMT on July 24, 2016","2016","07","24","02","02","UTC","17.0","62.6","17.0","62.6","100","7.2","4.5","-9999.0","-9999.0","290","WNW","1.2","0.7","1014","29.95","-999","-999","-9999","-9999","-9999.00","-9999.00","Mostly Cloudy","mostlycloudy","0","0","0","0","0","0","SPECI UKKK 240202Z 29002MPS 1200 R26/1400VP2000D BR BKN002 17/17 Q1014 R26/290058 TEMPO 0300 FG VV002"
"5:30 AM EEST on July 24, 2016","2016","07","24","05","30","Europe/Kiev","2:30 AM GMT on July 24, 2016","2016","07","24","02","30","UTC","17.0","62.6","17.0","62.6","100","10.8","6.7","-9999.0","-9999.0","310","NW","5.0","3.1","1015","29.98","-999","-999","-9999","-9999","-9999.00","-9999.00","Mostly Cloudy","mostlycloudy","0","0","0","0","0","0","METAR UKKK 240230Z 31003MPS 290V350 5000 BR BKN003 17/17 Q1015 R26/190060 TEMPO 0300 FG VV002"
"6:00 AM EEST on July 24, 2016","2016","07","24","06","00","Europe/Kiev","3:00 AM GMT on July 24, 2016","2016","07","24","03","00","UTC","17","63","16","61","92","7.2","4.5","","","310","NW","4","2","1014","29.96","-999","-999","-9999","-9999","","","Mist","hazy","0","0","0","0","0","0","AAXX 24031 33345 41996 43102 10170 20163 39949 40145 52007 71000 84040 555 11017"
"6:00 AM EEST on July 24, 2016","2016","07","24","06","00","Europe/Kiev","3:00 AM GMT on July 24, 2016","2016","07","24","03","00","UTC","17.0","62.6","17.0","62.6","100","0.0","0.0","-9999.0","-9999.0","0","North","6.0","3.7","1015","29.98","-999","-999","-9999","-9999","-9999.00","-9999.00","Mostly Cloudy","mostlycloudy","0","0","0","0","0","0","METAR UKKK 240300Z 00000MPS 6000 BKN004 17/17 Q1015 R26/190060 TEMPO 1200 BR BKN003"
"6:14 AM EEST on July 24, 2016","2016","07","24","06","14","Europe/Kiev","3:14 AM GMT on July 24, 2016","2016","07","24","03","14","UTC","17.0","62.6","17.0","62.6","100","3.6","2.2","-9999.0","-9999.0","0","Variable","8.0","5.0","1015","29.98","-999","-999","-9999","-9999","-9999.00","-9999.00","Scattered Clouds","partlycloudy","0","0","0","0","0","0","SPECI UKKK 240314Z VRB01MPS 8000 SCT006 17/17 Q1015 R26/190060 TEMPO 1200 BR BKN003"
"6:30 AM EEST on July 24, 2016","2016","07","24","06","30","Europe/Kiev","3:30 AM GMT on July 24, 2016","2016","07","24","03","30","UTC","17.0","62.6","17.0","62.6","100","7.2","4.5","-9999.0","-9999.0","330","NNW","9.0","5.6","1015","29.98","-999","-999","-9999","-9999","-9999.00","-9999.00","Clear","clear","0","0","0","0","0","0","METAR UKKK 240330Z 33002MPS 300V360 9000 SKC 17/17 Q1015 R26/190060 TEMPO BKN005"
"7:00 AM EEST on July 24, 2016","2016","07","24","07","00","Europe/Kiev","4:00 AM GMT on July 24, 2016","2016","07","24","04","00","UTC","18.0","64.4","17.0","62.6","94","10.8","6.7","-9999.0","-9999.0","310","NW","-9999.0","-9999.0","1015","29.98","-999","-999","-9999","-9999","-9999.00","-9999.00","Clear","clear","0","0","0","0","0","0","METAR UKKK 240400Z 31003MPS CAVOK 18/17 Q1015 R26/CLRD70 NOSIG"
"7:30 AM EEST on July 24, 2016","2016","07","24","07","30","Europe/Kiev","4:30 AM GMT on July 24, 2016","2016","07","24","04","30","UTC","18.0","64.4","17.0","62.6","94","10.8","6.7","-9999.0","-9999.0","320","NW","-9999.0","-9999.0","1015","29.98","-999","-999","-9999","-9999","-9999.00","-9999.00","Clear","clear","0","0","0","0","0","0","METAR UKKK 240430Z 32003MPS CAVOK 18/17 Q1015 R26/CLRD70 NOSIG"
"8:00 AM EEST on July 24, 2016","2016","07","24","08","00","Europe/Kiev","5:00 AM GMT on July 24, 2016","2016","07","24","05","00","UTC","19.0","66.2","16.0","60.8","83","10.8","6.7","-9999.0","-9999.0","320","NW","-9999.0","-9999.0","1015","29.98","-999","-999","-9999","-9999","-9999.00","-9999.00","Clear","clear","0","0","0","0","0","0","METAR UKKK 240500Z 32003MPS CAVOK 19/16 Q1015 R26/CLRD70 NOSIG"
"8:30 AM EEST on July 24, 2016","2016","07","24","08","30","Europe/Kiev","5:30 AM GMT on July 24, 2016","2016","07","24","05","30","UTC","20.0","68.0","17.0","62.6","83","10.8","6.7","-9999.0","-9999.0","330","NNW","-9999.0","-9999.0","1015","29.98","-999","-999","-9999","-9999","-9999.00","-9999.00","Clear","clear","0","0","0","0","0","0","METAR UKKK 240530Z 33003MPS 290V360 CAVOK 20/17 Q1015 R26/CLRD70 NOSIG"
"9:00 AM EEST on July 24, 2016","2016","07","24","09","00","Europe/Kiev","6:00 AM GMT on July 24, 2016","2016","07","24","06","00","UTC","21","69","16","62","71","7.2","4.5","","","0","North","20","12","1015","29.98","-999","-999","-9999","-9999","","","","","0","0","0","0","0","0","AAXX 24061 33345 12998 03602 10206 20165 39956 40150 52007 60022 333 20168 555 11027"
"9:00 AM EEST on July 24, 2016","2016","07","24","09","00","Europe/Kiev","6:00 AM GMT on July 24, 2016","2016","07","24","06","00","UTC","21.0","69.8","16.0","60.8","73","10.8","6.7","-9999.0","-9999.0","330","NNW","-9999.0","-9999.0","1015","29.98","-999","-999","-9999","-9999","-9999.00","-9999.00","Clear","clear","0","0","0","0","0","0","METAR UKKK 240600Z 33003MPS 300V360 CAVOK 21/16 Q1015 R26/CLRD70 NOSIG"
"9:30 AM EEST on July 24, 2016","2016","07","24","09","30","Europe/Kiev","6:30 AM GMT on July 24, 2016","2016","07","24","06","30","UTC","22.0","71.6","16.0","60.8","69","14.4","8.9","-9999.0","-9999.0","340","NNW","-9999.0","-9999.0","1015","29.98","-999","-999","-9999","-9999","-9999.00","-9999.00","Clear","clear","0","0","0","0","0","0","METAR UKKK 240630Z 34004MPS CAVOK 22/16 Q1015 R26/CLRD70 NOSIG"
"10:00 AM EEST on July 24, 2016","2016","07","24","10","00","Europe/Kiev","7:00 AM GMT on July 24, 2016","2016","07","24","07","00","UTC","23.0","73.4","16.0","60.8","65","14.4","8.9","-9999.0","-9999.0","360","North","-9999.0","-9999.0","1015","29.98","-999","-999","-9999","-9999","-9999.00","-9999.00","Clear","clear","0","0","0","0","0","0","METAR UKKK 240700Z 36004MPS 330V060 CAVOK 23/16 Q1015 R26/CLRD70 NOSIG"
"10:30 AM EEST on July 24, 2016","2016","07","24","10","30","Europe/Kiev","7:30 AM GMT on July 24, 2016","2016","07","24","07","30","UTC","23.0","73.4","15.0","59.0","61","14.4","8.9","-9999.0","-9999.0","340","NNW","10.0","6.2","1015","29.98","-999","-999","-9999","-9999","-9999.00","-9999.00","Partly Cloudy","partlycloudy","0","0","0","0","0","0","METAR UKKK 240730Z 34004MPS 300V010 9999 FEW033 23/15 Q1015 R26/CLRD70 NOSIG"
"11:00 AM EEST on July 24, 2016","2016","07","24","11","00","Europe/Kiev","8:00 AM GMT on July 24, 2016","2016","07","24","08","00","UTC","24.0","75.2","15.0","59.0","57","14.4","8.9","-9999.0","-9999.0","350","North","10.0","6.2","1015","29.98","-999","-999","-9999","-9999","-9999.00","-9999.00","Mostly Cloudy","mostlycloudy","0","0","0","0","0","0","METAR UKKK 240800Z 35004MPS 310V020 9999 BKN034 24/15 Q1015 R26/CLRD70 NOSIG"
"11:30 AM EEST on July 24, 2016","2016","07","24","11","30","Europe/Kiev","8:30 AM GMT on July 24, 2016","2016","07","24","08","30","UTC","24.0","75.2","15.0","59.0","57","14.4","8.9","-9999.0","-9999.0","10","North","10.0","6.2","1015","29.98","-999","-999","-9999","-9999","-9999.00","-9999.00","Mostly Cloudy","mostlycloudy","0","0","0","0","0","0","METAR UKKK 240830Z 01004MPS 300V070 9999 BKN038 24/15 Q1015 R26/CLRD70 NOSIG"
"12:00 PM EEST on July 24, 2016","2016","07","24","12","00","Europe/Kiev","9:00 AM GMT on July 24, 2016","2016","07","24","09","00","UTC","24","76","15","58","44","14.4","8.9","","","20","NNE","20","12","1015","29.97","-999","-999","-9999","-9999","","","Scattered Clouds","partlycloudy","0","0","0","0","0","0","AAXX 24091 33345 42598 20204 10242 20147 39956 40148 54000 82200 555 10044"
"12:00 PM EEST on July 24, 2016","2016","07","24","12","00","Europe/Kiev","9:00 AM GMT on July 24, 2016","2016","07","24","09","00","UTC","25.0","77.0","16.0","60.8","57","18.0","11.2","-9999.0","-9999.0","330","NNW","10.0","6.2","1015","29.98","-999","-999","-9999","-9999","-9999.00","-9999.00","Mostly Cloudy","mostlycloudy","0","0","0","0","0","0","METAR UKKK 240900Z 33005MPS 300V360 9999 BKN039 25/16 Q1015 R26/CLRD70 NOSIG"
"12:30 PM EEST on July 24, 2016","2016","07","24","12","30","Europe/Kiev","9:30 AM GMT on July 24, 2016","2016","07","24","09","30","UTC","26.0","78.8","16.0","60.8","54","14.4","8.9","-9999.0","-9999.0","10","North","10.0","6.2","1015","29.98","-999","-999","-9999","-9999","-9999.00","-9999.00","Mostly Cloudy","mostlycloudy","0","0","0","0","0","0","METAR UKKK 240930Z 01004MPS 340V050 9999 BKN040 26/16 Q1015 R26/CLRD70 NOSIG"
"1:00 PM EEST on July 24, 2016","2016","07","24","13","00","Europe/Kiev","10:00 AM GMT on July 24, 2016","2016","07","24","10","00","UTC","25.0","77.0","15.0","59.0","54","14.4","8.9","-9999.0","-9999.0","10","North","10.0","6.2","1015","29.98","-999","-999","-9999","-9999","-9999.00","-9999.00","Mostly Cloudy","mostlycloudy","0","0","0","0","0","0","METAR UKKK 241000Z 01004MPS 320V060 9999 BKN043 25/15 Q1015 R26/CLRD70 NOSIG"
"1:30 PM EEST on July 24, 2016","2016","07","24","13","30","Europe/Kiev","10:30 AM GMT on July 24, 2016","2016","07","24","10","30","UTC","26.0","78.8","16.0","60.8","54","18.0","11.2","-9999.0","-9999.0","350","North","10.0","6.2","1015","29.98","-999","-999","-9999","-9999","-9999.00","-9999.00","Mostly Cloudy","mostlycloudy","0","0","0","0","0","0","METAR UKKK 241030Z 35005MPS 310V020 9999 BKN044 26/16 Q1015 R26/CLRD70 NOSIG"
"2:00 PM EEST on July 24, 2016","2016","07","24","14","00","Europe/Kiev","11:00 AM GMT on July 24, 2016","2016","07","24","11","00","UTC","26.0","78.8","16.0","60.8","54","18.0","11.2","-9999.0","-9999.0","20","NNE","10.0","6.2","1015","29.98","-999","-999","-9999","-9999","-9999.00","-9999.00","Scattered Clouds","partlycloudy","0","0","0","0","0","0","METAR UKKK 241100Z 02005MPS 320V100 9999 SCT044 26/16 Q1015 R26/CLRD70 NOSIG"
"2:30 PM EEST on July 24, 2016","2016","07","24","14","30","Europe/Kiev","11:30 AM GMT on July 24, 2016","2016","07","24","11","30","UTC","27.0","80.6","16.0","60.8","51","14.4","8.9","-9999.0","-9999.0","10","North","10.0","6.2","1015","29.98","-999","-999","27.5","81.5","-9999.00","-9999.00","Scattered Clouds","partlycloudy","0","0","0","0","0","0","METAR UKKK 241130Z 01004MPS 330V050 9999 SCT044 27/16 Q1015 R26/CLRD70 NOSIG"
"3:00 PM EEST on July 24, 2016","2016","07","24","15","00","Europe/Kiev","12:00 PM GMT on July 24, 2016","2016","07","24","12","00","UTC","26","78","14","57","39","18.0","11.2","","","20","NNE","20","12","1015","29.96","-999","-999","-9999","-9999","","","Scattered Clouds","partlycloudy","0","0","0","0","0","0","AAXX 24121 33345 32598 10205 10257 20141 39955 40146 58001 81200 555 10046"
"3:00 PM EEST on July 24, 2016","2016","07","24","15","00","Europe/Kiev","12:00 PM GMT on July 24, 2016","2016","07","24","12","00","UTC","27.0","80.6","16.0","60.8","51","18.0","11.2","-9999.0","-9999.0","30","NNE","-9999.0","-9999.0","1015","29.98","-999","-999","27.5","81.5","-9999.00","-9999.00","Clear","clear","0","0","0","0","0","0","METAR UKKK 241200Z 03005MPS 350V070 CAVOK 27/16 Q1015 R26/CLRD70 NOSIG"
"3:30 PM EEST on July 24, 2016","2016","07","24","15","30","Europe/Kiev","12:30 PM GMT on July 24, 2016","2016","07","24","12","30","UTC","27.0","80.6","15.0","59.0","48","21.6","13.4","-9999.0","-9999.0","10","North","-9999.0","-9999.0","1015","29.98","-999","-999","27.3","81.1","-9999.00","-9999.00","Clear","clear","0","0","0","0","0","0","METAR UKKK 241230Z 01006MPS 340V060 CAVOK 27/15 Q1015 R08/CLRD70 NOSIG"
"4:00 PM EEST on July 24, 2016","2016","07","24","16","00","Europe/Kiev","1:00 PM GMT on July 24, 2016","2016","07","24","13","00","UTC","28.0","82.4","15.0","59.0","45","18.0","11.2","-9999.0","-9999.0","360","North","-9999.0","-9999.0","1015","29.98","-999","-999","28.0","82.5","-9999.00","-9999.00","Clear","clear","0","0","0","0","0","0","METAR UKKK 241300Z 36005MPS 330V030 CAVOK 28/15 Q1015 R08/CLRD70 NOSIG"
"4:30 PM EEST on July 24, 2016","2016","07","24","16","30","Europe/Kiev","1:30 PM GMT on July 24, 2016","2016","07","24","13","30","UTC","27.0","80.6","15.0","59.0","48","18.0","11.2","-9999.0","-9999.0","10","North","-9999.0","-9999.0","1015","29.98","-999","-999","27.3","81.1","-9999.00","-9999.00","Clear","clear","0","0","0","0","0","0","METAR UKKK 241330Z 01005MPS 320V050 CAVOK 27/15 Q1015 R08/CLRD70 NOSIG"
"5:00 PM EEST on July 24, 2016","2016","07","24","17","00","Europe/Kiev","2:00 PM GMT on July 24, 2016","2016","07","24","14","00","UTC","28.0","82.4","15.0","59.0","45","14.4","8.9","-9999.0","-9999.0","340","NNW","-9999.0","-9999.0","1015","29.98","-999","-999","28.0","82.5","-9999.00","-9999.00","Clear","clear","0","0","0","0","0","0","METAR UKKK 241400Z 34004MPS 310V020 CAVOK 28/15 Q1015 R08/CLRD70 NOSIG"
"5:30 PM EEST on July 24, 2016","2016","07","24","17","30","Europe/Kiev","2:30 PM GMT on July 24, 2016","2016","07","24","14","30","UTC","27.0","80.6","14.0","57.2","45","18.0","11.2","-9999.0","-9999.0","340","NNW","-9999.0","-9999.0","1015","29.98","-999","-999","27.1","80.8","-9999.00","-9999.00","Clear","clear","0","0","0","0","0","0","METAR UKKK 241430Z 34005MPS CAVOK 27/14 Q1015 R08/CLRD70 NOSIG"
"6:00 PM EEST on July 24, 2016","2016","07","24","18","00","Europe/Kiev","3:00 PM GMT on July 24, 2016","2016","07","24","15","00","UTC","27","81","14","57","34","10.8","6.7","","","10","North","20","12","1014","29.95","-999","-999","-9999","-9999","","","","","0","0","0","0","0","0","AAXX 24151 33345 42998 00103 10270 20140 39951 40141 57004 555 10037"
"6:00 PM EEST on July 24, 2016","2016","07","24","18","00","Europe/Kiev","3:00 PM GMT on July 24, 2016","2016","07","24","15","00","UTC","27.0","80.6","15.0","59.0","48","18.0","11.2","-9999.0","-9999.0","350","North","-9999.0","-9999.0","1015","29.98","-999","-999","27.3","81.1","-9999.00","-9999.00","Clear","clear","0","0","0","0","0","0","METAR UKKK 241500Z 35005MPS CAVOK 27/15 Q1015 R08/CLRD70 NOSIG"
"6:30 PM EEST on July 24, 2016","2016","07","24","18","30","Europe/Kiev","3:30 PM GMT on July 24, 2016","2016","07","24","15","30","UTC","27.0","80.6","16.0","60.8","51","18.0","11.2","-9999.0","-9999.0","10","North","-9999.0","-9999.0","1015","29.98","-999","-999","27.5","81.5","-9999.00","-9999.00","Clear","clear","0","0","0","0","0","0","METAR UKKK 241530Z 01005MPS CAVOK 27/16 Q1015 R08/CLRD70 NOSIG"
"7:00 PM EEST on July 24, 2016","2016","07","24","19","00","Europe/Kiev","4:00 PM GMT on July 24, 2016","2016","07","24","16","00","UTC","27.0","80.6","16.0","60.8","51","14.4","8.9","-9999.0","-9999.0","360","North","-9999.0","-9999.0","1015","29.98","-999","-999","27.5","81.5","-9999.00","-9999.00","Clear","clear","0","0","0","0","0","0","METAR UKKK 241600Z 36004MPS 330V030 CAVOK 27/16 Q1015 R08/CLRD70 NOSIG"
"7:30 PM EEST on July 24, 2016","2016","07","24","19","30","Europe/Kiev","4:30 PM GMT on July 24, 2016","2016","07","24","16","30","UTC","26.0","78.8","15.0","59.0","51","14.4","8.9","-9999.0","-9999.0","20","NNE","-9999.0","-9999.0","1015","29.98","-999","-999","-9999","-9999","-9999.00","-9999.00","Clear","clear","0","0","0","0","0","0","METAR UKKK 241630Z 02004MPS CAVOK 26/15 Q1015 R08/CLRD70 NOSIG"
"8:00 PM EEST on July 24, 2016","2016","07","24","20","00","Europe/Kiev","5:00 PM GMT on July 24, 2016","2016","07","24","17","00","UTC","26.0","78.8","14.0","57.2","47","14.4","8.9","-9999.0","-9999.0","10","North","9.0","5.6","1015","29.98","-999","-999","-9999","-9999","-9999.00","-9999.00","Clear","clear","0","0","0","0","0","0","METAR UKKK 241700Z 01004MPS 9000 SKC 26/14 Q1015 R08/CLRD70 NOSIG"
"8:30 PM EEST on July 24, 2016","2016","07","24","20","30","Europe/Kiev","5:30 PM GMT on July 24, 2016","2016","07","24","17","30","UTC","24.0","75.2","15.0","59.0","57","10.8","6.7","-9999.0","-9999.0","10","North","-9999.0","-9999.0","1015","29.98","-999","-999","-9999","-9999","-9999.00","-9999.00","Clear","clear","0","0","0","0","0","0","METAR UKKK 241730Z 01003MPS 340V040 CAVOK 24/15 Q1015 R08/CLRD70 NOSIG"
"9:00 PM EEST on July 24, 2016","2016","07","24","21","00","Europe/Kiev","6:00 PM GMT on July 24, 2016","2016","07","24","18","00","UTC","25","76","15","58","44","7.2","4.5","","","350","North","20","12","1015","29.97","-999","-999","-9999","-9999","","","Scattered Clouds","partlycloudy","0","0","0","0","0","0","AAXX 24181 33345 32998 13502 10247 20147 39956 40148 53005 81030 333 10271 555 10023"
"9:00 PM EEST on July 24, 2016","2016","07","24","21","00","Europe/Kiev","6:00 PM GMT on July 24, 2016","2016","07","24","18","00","UTC","24.0","75.2","15.0","59.0","57","7.2","4.5","-9999.0","-9999.0","10","North","-9999.0","-9999.0","1015","29.98","-999","-999","-9999","-9999","-9999.00","-9999.00","Clear","clear","0","0","0","0","0","0","METAR UKKK 241800Z 01002MPS CAVOK 24/15 Q1015 R08/CLRD70 NOSIG"
"9:30 PM EEST on July 24, 2016","2016","07","24","21","30","Europe/Kiev","6:30 PM GMT on July 24, 2016","2016","07","24","18","30","UTC","23.0","73.4","15.0","59.0","61","10.8","6.7","-9999.0","-9999.0","350","North","-9999.0","-9999.0","1016","30.01","-999","-999","-9999","-9999","-9999.00","-9999.00","Clear","clear","0","0","0","0","0","0","METAR UKKK 241830Z 35003MPS CAVOK 23/15 Q1016 R08/CLRD70 NOSIG"
"10:00 PM EEST on July 24, 2016","2016","07","24","22","00","Europe/Kiev","7:00 PM GMT on July 24, 2016","2016","07","24","19","00","UTC","23.0","73.4","16.0","60.8","65","7.2","4.5","-9999.0","-9999.0","360","North","-9999.0","-9999.0","1016","30.01","-999","-999","-9999","-9999","-9999.00","-9999.00","Clear","clear","0","0","0","0","0","0","METAR UKKK 241900Z 36002MPS CAVOK 23/16 Q1016 R08/CLRD70 NOSIG"
"10:30 PM EEST on July 24, 2016","2016","07","24","22","30","Europe/Kiev","7:30 PM GMT on July 24, 2016","2016","07","24","19","30","UTC","23.0","73.4","16.0","60.8","65","10.8","6.7","-9999.0","-9999.0","10","North","-9999.0","-9999.0","1016","30.01","-999","-999","-9999","-9999","-9999.00","-9999.00","Clear","clear","0","0","0","0","0","0","METAR UKKK 241930Z 01003MPS CAVOK 23/16 Q1016 R08/CLRD70 NOSIG"
"11:00 PM EEST on July 24, 2016","2016","07","24","23","00","Europe/Kiev","8:00 PM GMT on July 24, 2016","2016","07","24","20","00","UTC","22.0","71.6","16.0","60.8","69","10.8","6.7","-9999.0","-9999.0","10","North","-9999.0","-9999.0","1016","30.01","-999","-999","-9999","-9999","-9999.00","-9999.00","Clear","clear","0","0","0","0","0","0","METAR UKKK 242000Z 01003MPS CAVOK 22/16 Q1016 R08/CLRD70 NOSIG"
"11:30 PM EEST on July 24, 2016","2016","07","24","23","30","Europe/Kiev","8:30 PM GMT on July 24, 2016","2016","07","24","20","30","UTC","21.0","69.8","17.0","62.6","78","10.8","6.7","-9999.0","-9999.0","20","NNE","-9999.0","-9999.0","1016","30.01","-999","-999","-9999","-9999","-9999.00","-9999.00","Clear","clear","0","0","0","0","0","0","METAR UKKK 242030Z 02003MPS CAVOK 21/17 Q1016 R08/CLRD70 NOSIG"
"12:00 AM EEST on July 25, 2016","2016","07","25","00","00","Europe/Kiev","9:00 PM GMT on July 24, 2016","2016","07","24","21","00","UTC","22","72","16","62","62","7.2","4.5","","","350","North","20","12","1016","30.00","-999","-999","-9999","-9999","","","","","0","0","0","0","0","0","AAXX 24211 33345 42998 03502 10224 20165 39965 40157 52009 555 10021"
"12:00 AM EEST on July 25, 2016","2016","07","25","00","00","Europe/Kiev","9:00 PM GMT on July 24, 2016","2016","07","24","21","00","UTC","21.0","69.8","17.0","62.6","78","10.8","6.7","-9999.0","-9999.0","10","North","-9999.0","-9999.0","1016","30.01","-999","-999","-9999","-9999","-9999.00","-9999.00","Clear","clear","0","0","0","0","0","0","METAR UKKK 242100Z 01003MPS CAVOK 21/17 Q1016 R08/CLRD70 NOSIG"
"12:30 AM EEST on July 25, 2016","2016","07","25","00","30","Europe/Kiev","9:30 PM GMT on July 24, 2016","2016","07","24","21","30","UTC","20.0","68.0","17.0","62.6","83","7.2","4.5","-9999.0","-9999.0","10","North","-9999.0","-9999.0","1016","30.01","-999","-999","-9999","-9999","-9999.00","-9999.00","Clear","clear","0","0","0","0","0","0","METAR UKKK 242130Z 01002MPS CAVOK 20/17 Q1016 R08/CLRD70 NOSIG"
"1:00 AM EEST on July 25, 2016","2016","07","25","01","00","Europe/Kiev","10:00 PM GMT on July 24, 2016","2016","07","24","22","00","UTC","19.0","66.2","17.0","62.6","88","3.6","2.2","-9999.0","-9999.0","0","Variable","-9999.0","-9999.0","1016","30.01","-999","-999","-9999","-9999","-9999.00","-9999.00","Clear","clear","0","0","0","0","0","0","METAR UKKK 242200Z VRB01MPS CAVOK 19/17 Q1016 R08/CLRD70 NOSIG"
"1:30 AM EEST on July 25, 2016","2016","07","25","01","30","Europe/Kiev","10:30 PM GMT on July 24, 2016","2016","07","24","22","30","UTC","19.0","66.2","17.0","62.6","88","0.0","0.0","-9999.0","-9999.0","0","North","-9999.0","-9999.0","1016","30.01","-999","-999","-9999","-9999","-9999.00","-9999.00","Clear","clear","0","0","0","0","0","0","METAR UKKK 242230Z 00000MPS CAVOK 19/17 Q1016 R08/CLRD70 NOSIG"
"2:00 AM EEST on July 25, 2016","2016","07","25","02","00","Europe/Kiev","11:00 PM GMT on July 24, 2016","2016","07","24","23","00","UTC","19.0","66.2","17.0","62.6","88","7.2","4.5","-9999.0","-9999.0","340","NNW","-9999.0","-9999.0","1016","30.01","-999","-999","-9999","-9999","-9999.00","-9999.00","Clear","clear","0","0","0","0","0","0","METAR UKKK 242300Z 34002MPS CAVOK 19/17 Q1016 R08/CLRD70 NOSIG"
"2:30 AM EEST on July 25, 2016","2016","07","25","02","30","Europe/Kiev","11:30 PM GMT on July 24, 2016","2016","07","24","23","30","UTC","19.0","66.2","17.0","62.6","88","7.2","4.5","-9999.0","-9999.0","20","NNE","-9999.0","-9999.0","1016","30.01","-999","-999","-9999","-9999","-9999.00","-9999.00","Clear","clear","0","0","0","0","0","0","METAR UKKK 242330Z 02002MPS 350V070 CAVOK 19/17 Q1016 R08/CLRD70 NOSIG"
"3:00 AM EEST on July 25, 2016","2016","07","25","03","00","Europe/Kiev","12:00 AM GMT on July 25, 2016","2016","07","25","00","00","UTC","21","69","17","63","74","3.6","2.2","","","20","NNE","20","12","1016","30.01","-999","-999","-9999","-9999","","","","","0","0","0","0","0","0","AAXX 25001 33345 32998 00201 10208 20170 39968 40162 52003 555 10018"
"3:00 AM EEST on July 25, 2016","2016","07","25","03","00","Europe/Kiev","12:00 AM GMT on July 25, 2016","2016","07","25","00","00","UTC","19.0","66.2","17.0","62.6","88","7.2","4.5","-9999.0","-9999.0","20","NNE","-9999.0","-9999.0","1016","30.01","-999","-999","-9999","-9999","-9999.00","-9999.00","Clear","clear","0","0","0","0","0","0","METAR UKKK 250000Z 02002MPS CAVOK 19/17 Q1016 R08/CLRD70 NOSIG"
"3:30 AM EEST on July 25, 2016","2016","07","25","03","30","Europe/Kiev","12:30 AM GMT on July 25, 2016","2016","07","25","00","30","UTC","19.0","66.2","17.0","62.6","88","3.6","2.2","-9999.0","-9999.0","0","Variable","-9999.0","-9999.0","1016","30.01","-999","-999","-9999","-9999","-9999.00","-9999.00","Clear","clear","0","0","0","0","0","0","METAR UKKK 250030Z VRB01MPS CAVOK 19/17 Q1016 R08/CLRD70 NOSIG"
"4:00 AM EEST on July 25, 2016","2016","07","25","04","00","Europe/Kiev","1:00 AM GMT on July 25, 2016","2016","07","25","01","00","UTC","18.0","64.4","17.0","62.6","94","3.6","2.2","-9999.0","-9999.0","60","ENE","-9999.0","-9999.0","1016","30.01","-999","-999","-9999","-9999","-9999.00","-9999.00","Clear","clear","0","0","0","0","0","0","METAR UKKK 250100Z 06001MPS CAVOK 18/17 Q1016 R08/CLRD70 NOSIG"
"4:30 AM EEST on July 25, 2016","2016","07","25","04","30","Europe/Kiev","1:30 AM GMT on July 25, 2016","2016","07","25","01","30","UTC","17.0","62.6","16.0","60.8","94","0.0","0.0","-9999.0","-9999.0","0","North","9.0","5.6","1016","30.01","-999","-999","-9999","-9999","-9999.00","-9999.00","Clear","clear","0","0","0","0","0","0","METAR UKKK 250130Z 00000MPS 9000 SKC 17/16 Q1016 R08/CLRD70 NOSIG"
"5:00 AM EEST on July 25, 2016","2016","07","25","05","00","Europe/Kiev","2:00 AM GMT on July 25, 2016","2016","07","25","02","00","UTC","17.0","62.6","17.0","62.6","100","3.6","2.2","-9999.0","-9999.0","300","WNW","6.0","3.7","1017","30.04","-999","-999","-9999","-9999","-9999.00","-9999.00","Clear","clear","0","0","0","0","0","0","METAR UKKK 250200Z 30001MPS 6000 SKC 17/17 Q1017 R08/CLRD70 NOSIG"
"5:30 AM EEST on July 25, 2016","2016","07","25","05","30","Europe/Kiev","2:30 AM GMT on July 25, 2016","2016","07","25","02","30","UTC","17.0","62.6","17.0","62.6","100","3.6","2.2","-9999.0","-9999.0","0","Variable","8.0","5.0","1017","30.04","-999","-999","-9999","-9999","-9999.00","-9999.00","Clear","clear","0","0","0","0","0","0","METAR UKKK 250230Z VRB01MPS 8000 SKC 17/17 Q1017 R08/CLRD70 NOSIG"
"6:00 AM EEST on July 25, 2016","2016","07","25","06","00","Europe/Kiev","3:00 AM GMT on July 25, 2016","2016","07","25","03","00","UTC","19","67","17","63","82","3.6","2.2","","","350","North","20","12","1017","30.03","-999","-999","-9999","-9999","","","","","0","0","0","0","0","0","AAXX 25031 33345 42998 03501 10194 20171 39974 40169 53006 555 11018"
"6:00 AM EEST on July 25, 2016","2016","07","25","06","00","Europe/Kiev","3:00 AM GMT on July 25, 2016","2016","07","25","03","00","UTC","17.0","62.6","17.0","62.6","100","3.6","2.2","-9999.0","-9999.0","310","NW","7.0","4.3","1017","30.04","-999","-999","-9999","-9999","-9999.00","-9999.00","Clear","clear","0","0","0","0","0","0","METAR UKKK 250300Z 31001MPS 7000 SKC 17/17 Q1017 R08/CLRD70 NOSIG"
"6:30 AM EEST on July 25, 2016","2016","07","25","06","30","Europe/Kiev","3:30 AM GMT on July 25, 2016","2016","07","25","03","30","UTC","18.0","64.4","18.0","64.4","100","0.0","0.0","-9999.0","-9999.0","0","North","7.0","4.3","1017","30.04","-999","-999","-9999","-9999","-9999.00","-9999.00","Clear","clear","0","0","0","0","0","0","METAR UKKK 250330Z 00000MPS 7000 SKC 18/18 Q1017 R08/CLRD70 NOSIG"
"7:00 AM EEST on July 25, 2016","2016","07","25","07","00","Europe/Kiev","4:00 AM GMT on July 25, 2016","2016","07","25","04","00","UTC","19.0","66.2","19.0","66.2","100","0.0","0.0","-9999.0","-9999.0","0","North","8.0","5.0","1017","30.04","-999","-999","-9999","-9999","-9999.00","-9999.00","Clear","clear","0","0","0","0","0","0","METAR UKKK 250400Z 00000MPS 8000 SKC 19/19 Q1017 R08/CLRD70 NOSIG"
"7:30 AM EEST on July 25, 2016","2016","07","25","07","30","Europe/Kiev","4:30 AM GMT on July 25, 2016","2016","07","25","04","30","UTC","21.0","69.8","18.0","64.4","83","7.2","4.5","-9999.0","-9999.0","30","NNE","-9999.0","-9999.0","1017","30.04","-999","-999","-9999","-9999","-9999.00","-9999.00","Clear","clear","0","0","0","0","0","0","METAR UKKK 250430Z 03002MPS 010V080 CAVOK 21/18 Q1017 R08/CLRD70 NOSIG"
"8:00 AM EEST on July 25, 2016","2016","07","25","08","00","Europe/Kiev","5:00 AM GMT on July 25, 2016","2016","07","25","05","00","UTC","22.0","71.6","18.0","64.4","78","7.2","4.5","-9999.0","-9999.0","20","NNE","-9999.0","-9999.0","1017","30.04","-999","-999","-9999","-9999","-9999.00","-9999.00","Clear","clear","0","0","0","0","0","0","METAR UKKK 250500Z 02002MPS 360V060 CAVOK 22/18 Q1017 R08/CLRD70 NOSIG"
"8:30 AM EEST on July 25, 2016","2016","07","25","08","30","Europe/Kiev","5:30 AM GMT on July 25, 2016","2016","07","25","05","30","UTC","23.0","73.4","18.0","64.4","73","7.2","4.5","-9999.0","-9999.0","10","North","9.0","5.6","1017","30.04","-999","-999","-9999","-9999","-9999.00","-9999.00","Unknown","unknown","0","0","0","0","0","0","METAR UKKK 250530Z 01002MPS 9000 NSC 23/18 Q1017 R08/CLRD70 NOSIG"
"9:00 AM EEST on July 25, 2016","2016","07","25","09","00","Europe/Kiev","6:00 AM GMT on July 25, 2016","2016","07","25","06","00","UTC","23","73","17","63","63","7.2","4.5","","","70","ENE","20","12","1017","30.04","-999","-999","-9999","-9999","","","","","0","0","0","0","0","0","AAXX 25061 33345 32998 00702 10230 20172 39979 40172 52005 333 20193 555 10030"
"9:00 AM EEST on July 25, 2016","2016","07","25","09","00","Europe/Kiev","6:00 AM GMT on July 25, 2016","2016","07","25","06","00","UTC","24.0","75.2","18.0","64.4","69","10.8","6.7","-9999.0","-9999.0","10","North","9.0","5.6","1017","30.04","-999","-999","-9999","-9999","-9999.00","-9999.00","Unknown","unknown","0","0","0","0","0","0","METAR UKKK 250600Z 01003MPS 350V060 9000 NSC 24/18 Q1017 R08/CLRD70 NOSIG"
"9:30 AM EEST on July 25, 2016","2016","07","25","09","30","Europe/Kiev","6:30 AM GMT on July 25, 2016","2016","07","25","06","30","UTC","24.0","75.2","18.0","64.4","69","10.8","6.7","-9999.0","-9999.0","30","NNE","9.0","5.6","1017","30.04","-999","-999","-9999","-9999","-9999.00","-9999.00","Unknown","unknown","0","0","0","0","0","0","METAR UKKK 250630Z 03003MPS 9000 NSC 24/18 Q1017 R08/CLRD70 NOSIG"
"10:00 AM EEST on July 25, 2016","2016","07","25","10","00","Europe/Kiev","7:00 AM GMT on July 25, 2016","2016","07","25","07","00","UTC","25.0","77.0","18.0","64.4","65","7.2","4.5","-9999.0","-9999.0","360","North","9.0","5.6","1017","30.04","-999","-999","-9999","-9999","-9999.00","-9999.00","Unknown","unknown","0","0","0","0","0","0","METAR UKKK 250700Z 36002MPS 320V050 9000 NSC 25/18 Q1017 R08/CLRD70 NOSIG"
"10:30 AM EEST on July 25, 2016","2016","07","25","10","30","Europe/Kiev","7:30 AM GMT on July 25, 2016","2016","07","25","07","30","UTC","26.0","78.8","18.0","64.4","61","10.8","6.7","-9999.0","-9999.0","20","NNE","8.0","5.0","1017","30.04","-999","-999","-9999","-9999","-9999.00","-9999.00","Unknown","unknown","0","0","0","0","0","0","METAR UKKK 250730Z 02003MPS 340V070 8000 NSC 26/18 Q1017 R08/CLRD70 NOSIG"
"11:00 AM EEST on July 25, 2016","2016","07","25","11","00","Europe/Kiev","8:00 AM GMT on July 25, 2016","2016","07","25","08","00","UTC","26.0","78.8","18.0","64.4","61","18.0","11.2","-9999.0","-9999.0","40","NE","8.0","5.0","1017","30.04","-999","-999","-9999","-9999","-9999.00","-9999.00","Unknown","unknown","0","0","0","0","0","0","METAR UKKK 250800Z 04005MPS 8000 NSC 26/18 Q1017 R08/CLRD70 NOSIG"
"11:30 AM EEST on July 25, 2016","2016","07","25","11","30","Europe/Kiev","8:30 AM GMT on July 25, 2016","2016","07","25","08","30","UTC","27.0","80.6","17.0","62.6","54","14.4","8.9","-9999.0","-9999.0","40","NE","9.0","5.6","1017","30.04","-999","-999","27.7","81.8","-9999.00","-9999.00","Unknown","unknown","0","0","0","0","0","0","METAR UKKK 250830Z 04004MPS 010V070 9000 NSC 27/17 Q1017 R08/CLRD70 NOSIG"
"12:00 PM EEST on July 25, 2016","2016","07","25","12","00","Europe/Kiev","9:00 AM GMT on July 25, 2016","2016","07","25","09","00","UTC","27","80","18","64","48","10.8","6.7","","","60","ENE","20","12","1016","30.02","-999","-999","-9999","-9999","","","Scattered Clouds","partlycloudy","0","0","0","0","0","0","AAXX 25091 33345 42698 50603 10267 20175 39975 40165 58004 82205 555 10047"
"12:00 PM EEST on July 25, 2016","2016","07","25","12","00","Europe/Kiev","9:00 AM GMT on July 25, 2016","2016","07","25","09","00","UTC","27.0","80.6","18.0","64.4","58","18.0","11.2","-9999.0","-9999.0","50","NE","8.0","5.0","1017","30.04","-999","-999","27.9","82.3","-9999.00","-9999.00","Mostly Cloudy","mostlycloudy","0","0","0","0","0","0","METAR UKKK 250900Z 05005MPS 360V090 8000 FEW037 BKN200 27/18 Q1017 R08/CLRD70 NOSIG"
"12:30 PM EEST on July 25, 2016","2016","07","25","12","30","Europe/Kiev","9:30 AM GMT on July 25, 2016","2016","07","25","09","30","UTC","28.0","82.4","18.0","64.4","54","14.4","8.9","-9999.0","-9999.0","50","NE","8.0","5.0","1017","30.04","-999","-999","28.8","83.9","-9999.00","-9999.00","Mostly Cloudy","mostlycloudy","0","0","0","0","0","0","METAR UKKK 250930Z 05004MPS 360V090 8000 FEW044 BKN200 28/18 Q1017 R08/CLRD70 NOSIG"
"1:00 PM EEST on July 25, 2016","2016","07","25","13","00","Europe/Kiev","10:00 AM GMT on July 25, 2016","2016","07","25","10","00","UTC","28.0","82.4","18.0","64.4","54","10.8","6.7","28.8","17.9","40","NE","8.0","5.0","1017","30.04","-999","-999","28.8","83.9","-9999.00","-9999.00","Mostly Cloudy","mostlycloudy","0","0","0","0","0","0","METAR UKKK 251000Z 04003G08MPS 350V110 8000 SCT045 BKN200 28/18 Q1017 R08/CLRD70 NOSIG"
"1:30 PM EEST on July 25, 2016","2016","07","25","13","30","Europe/Kiev","10:30 AM GMT on July 25, 2016","2016","07","25","10","30","UTC","27.0","80.6","17.0","62.6","54","14.4","8.9","-9999.0","-9999.0","40","NE","8.0","5.0","1017","30.04","-999","-999","27.7","81.8","-9999.00","-9999.00","Unknown","unknown","0","0","0","0","0","0","METAR UKKK 251030Z 04004MPS 360V090 8000 NSC 27/17 Q1017 R08/CLRD70 NOSIG"
"2:00 PM EEST on July 25, 2016","2016","07","25","14","00","Europe/Kiev","11:00 AM GMT on July 25, 2016","2016","07","25","11","00","UTC","28.0","82.4","17.0","62.6","51","14.4","8.9","-9999.0","-9999.0","50","NE","8.0","5.0","1017","30.04","-999","-999","28.5","83.4","-9999.00","-9999.00","Mostly Cloudy","mostlycloudy","0","0","0","0","0","0","METAR UKKK 251100Z 05004MPS 010V100 8000 SCT049 BKN200 28/17 Q1017 R08/CLRD70 NOSIG"
"2:30 PM EEST on July 25, 2016","2016","07","25","14","30","Europe/Kiev","11:30 AM GMT on July 25, 2016","2016","07","25","11","30","UTC","28.0","82.4","16.0","60.8","48","14.4","8.9","-9999.0","-9999.0","50","NE","8.0","5.0","1017","30.04","-999","-999","28.3","82.9","-9999.00","-9999.00","Unknown","unknown","0","0","0","0","0","0","METAR UKKK 251130Z 05004MPS 360V080 8000 NSC 28/16 Q1017 R08/CLRD70 NOSIG"
"3:00 PM EEST on July 25, 2016","2016","07","25","15","00","Europe/Kiev","12:00 PM GMT on July 25, 2016","2016","07","25","12","00","UTC","28","83","16","61","37","7.2","4.5","","","90","East","20","12","1016","30.01","-999","-999","-9999","-9999","","","Partly Cloudy","partlycloudy","0","0","0","0","0","0","AAXX 25121 33345 32698 60902 10284 20160 39973 40162 56002 84206 555 10048"
"3:00 PM EEST on July 25, 2016","2016","07","25","15","00","Europe/Kiev","12:00 PM GMT on July 25, 2016","2016","07","25","12","00","UTC","28.0","82.4","16.0","60.8","48","10.8","6.7","-9999.0","-9999.0","60","ENE","8.0","5.0","1017","30.04","-999","-999","28.3","82.9","-9999.00","-9999.00","Mostly Cloudy","mostlycloudy","0","0","0","0","0","0","METAR UKKK 251200Z 06003MPS 8000 SCT040 BKN200 28/16 Q1017 R08/CLRD70 NOSIG"
"3:30 PM EEST on July 25, 2016","2016","07","25","15","30","Europe/Kiev","12:30 PM GMT on July 25, 2016","2016","07","25","12","30","UTC","29.0","84.2","17.0","62.6","48","18.0","11.2","-9999.0","-9999.0","30","NNE","8.0","5.0","1017","30.04","-999","-999","29.4","85.0","-9999.00","-9999.00","Mostly Cloudy","mostlycloudy","0","0","0","0","0","0","METAR UKKK 251230Z 03005MPS 360V070 8000 SCT038 BKN200 29/17 Q1017 R08/CLRD70 NOSIG"
"4:00 PM EEST on July 25, 2016","2016","07","25","16","00","Europe/Kiev","1:00 PM GMT on July 25, 2016","2016","07","25","13","00","UTC","28.0","82.4","16.0","60.8","48","14.4","8.9","-9999.0","-9999.0","70","ENE","9.0","5.6","1017","30.04","-999","-999","28.3","82.9","-9999.00","-9999.00","Unknown","unknown","0","0","0","0","0","0","METAR UKKK 251300Z 07004MPS 030V100 9000 NSC 28/16 Q1017 R08/CLRD70 NOSIG"
"4:30 PM EEST on July 25, 2016","2016","07","25","16","30","Europe/Kiev","1:30 PM GMT on July 25, 2016","2016","07","25","13","30","UTC","29.0","84.2","16.0","60.8","45","14.4","8.9","-9999.0","-9999.0","40","NE","8.0","5.0","1017","30.04","-999","-999","29.1","84.4","-9999.00","-9999.00","Unknown","unknown","0","0","0","0","0","0","METAR UKKK 251330Z 04004MPS 010V070 8000 NSC 29/16 Q1017 R08/CLRD70 NOSIG"
"5:00 PM EEST on July 25, 2016","2016","07","25","17","00","Europe/Kiev","2:00 PM GMT on July 25, 2016","2016","07","25","14","00","UTC","29.0","84.2","17.0","62.6","48","10.8","6.7","-9999.0","-9999.0","50","NE","9.0","5.6","1017","30.04","-999","-999","29.4","85.0","-9999.00","-9999.00","Unknown","unknown","0","0","0","0","0","0","METAR UKKK 251400Z 05003MPS 340V100 9000 NSC 29/17 Q1017 R08/CLRD70 NOSIG"
"5:30 PM EEST on July 25, 2016","2016","07","25","17","30","Europe/Kiev","2:30 PM GMT on July 25, 2016","2016","07","25","14","30","UTC","29.0","84.2","16.0","60.8","45","10.8","6.7","-9999.0","-9999.0","30","NNE","9.0","5.6","1016","30.01","-999","-999","29.1","84.4","-9999.00","-9999.00","Unknown","unknown","0","0","0","0","0","0","METAR UKKK 251430Z 03003MPS 360V070 9000 NSC 29/16 Q1016 R08/CLRD70 NOSIG"
"6:00 PM EEST on July 25, 2016","2016","07","25","18","00","Europe/Kiev","3:00 PM GMT on July 25, 2016","2016","07","25","15","00","UTC","28","83","16","61","37","10.8","6.7","","","60","ENE","20","12","1016","30.00","-999","-999","-9999","-9999","","","Partly Cloudy","partlycloudy","0","0","0","0","0","0","AAXX 25151 33345 42598 50603 10283 20159 39968 40157 57005 83805 555 10039"
"6:00 PM EEST on July 25, 2016","2016","07","25","18","00","Europe/Kiev","3:00 PM GMT on July 25, 2016","2016","07","25","15","00","UTC","28.0","82.4","16.0","60.8","48","10.8","6.7","-9999.0","-9999.0","30","NNE","9.0","5.6","1016","30.01","-999","-999","28.3","82.9","-9999.00","-9999.00","Unknown","unknown","0","0","0","0","0","0","METAR UKKK 251500Z 03003MPS 340V080 9000 NSC 28/16 Q1016 R08/CLRD70 NOSIG"
"6:30 PM EEST on July 25, 2016","2016","07","25","18","30","Europe/Kiev","3:30 PM GMT on July 25, 2016","2016","07","25","15","30","UTC","28.0","82.4","16.0","60.8","48","10.8","6.7","-9999.0","-9999.0","30","NNE","9.0","5.6","1016","30.01","-999","-999","28.3","82.9","-9999.00","-9999.00","Unknown","unknown","0","0","0","0","0","0","METAR UKKK 251530Z 03003MPS 350V050 9000 NSC 28/16 Q1016 R08/CLRD70 NOSIG"
"7:00 PM EEST on July 25, 2016","2016","07","25","19","00","Europe/Kiev","4:00 PM GMT on July 25, 2016","2016","07","25","16","00","UTC","27.0","80.6","16.0","60.8","51","10.8","6.7","-9999.0","-9999.0","30","NNE","9.0","5.6","1016","30.01","-999","-999","27.5","81.5","-9999.00","-9999.00","Clear","clear","0","0","0","0","0","0","METAR UKKK 251600Z 03003MPS 9000 SKC 27/16 Q1016 R08/CLRD70 NOSIG"
"7:30 PM EEST on July 25, 2016","2016","07","25","19","30","Europe/Kiev","4:30 PM GMT on July 25, 2016","2016","07","25","16","30","UTC","27.0","80.6","16.0","60.8","51","10.8","6.7","-9999.0","-9999.0","10","North","9.0","5.6","1016","30.01","-999","-999","27.5","81.5","-9999.00","-9999.00","Clear","clear","0","0","0","0","0","0","METAR UKKK 251630Z 01003MPS 310V030 9000 SKC 27/16 Q1016 R08/CLRD70 NOSIG"
"8:00 PM EEST on July 25, 2016","2016","07","25","20","00","Europe/Kiev","5:00 PM GMT on July 25, 2016","2016","07","25","17","00","UTC","26.0","78.8","16.0","60.8","54","10.8","6.7","-9999.0","-9999.0","10","North","8.0","5.0","1016","30.01","-999","-999","-9999","-9999","-9999.00","-9999.00","Clear","clear","0","0","0","0","0","0","METAR UKKK 251700Z 01003MPS 8000 SKC 26/16 Q1016 R08/CLRD70 NOSIG"
"8:30 PM EEST on July 25, 2016","2016","07","25","20","30","Europe/Kiev","5:30 PM GMT on July 25, 2016","2016","07","25","17","30","UTC","25.0","77.0","16.0","60.8","57","7.2","4.5","-9999.0","-9999.0","10","North","8.0","5.0","1017","30.04","-999","-999","-9999","-9999","-9999.00","-9999.00","Clear","clear","0","0","0","0","0","0","METAR UKKK 251730Z 01002MPS 8000 SKC 25/16 Q1017 R08/CLRD70 NOSIG"
"9:00 PM EEST on July 25, 2016","2016","07","25","21","00","Europe/Kiev","6:00 PM GMT on July 25, 2016","2016","07","25","18","00","UTC","25","78","16","60","44","3.6","2.2","","","20","NNE","20","12","1016","30.01","-999","-999","-9999","-9999","","","Clear","clear","0","0","0","0","0","0","AAXX 25181 33345 32998 20201 10254 20156 39972 40163 53004 80002 333 10293 555 10023"
"9:00 PM EEST on July 25, 2016","2016","07","25","21","00","Europe/Kiev","6:00 PM GMT on July 25, 2016","2016","07","25","18","00","UTC","23.0","73.4","16.0","60.8","65","7.2","4.5","-9999.0","-9999.0","350","North","8.0","5.0","1017","30.04","-999","-999","-9999","-9999","-9999.00","-9999.00","Clear","clear","0","0","0","0","0","0","METAR UKKK 251800Z 35002MPS 8000 SKC 23/16 Q1017 R08/CLRD70 NOSIG"
"9:30 PM EEST on July 25, 2016","2016","07","25","21","30","Europe/Kiev","6:30 PM GMT on July 25, 2016","2016","07","25","18","30","UTC","22.0","71.6","17.0","62.6","73","0.0","0.0","-9999.0","-9999.0","0","North","7.0","4.3","1017","30.04","-999","-999","-9999","-9999","-9999.00","-9999.00","Clear","clear","0","0","0","0","0","0","METAR UKKK 251830Z 00000MPS 7000 SKC 22/17 Q1017 R08/CLRD70 NOSIG"
"10:00 PM EEST on July 25, 2016","2016","07","25","22","00","Europe/Kiev","7:00 PM GMT on July 25, 2016","2016","07","25","19","00","UTC","21.0","69.8","17.0","62.6","78","0.0","0.0","-9999.0","-9999.0","0","North","6.0","3.7","1017","30.04","-999","-999","-9999","-9999","-9999.00","-9999.00","Clear","clear","0","0","0","0","0","0","METAR UKKK 251900Z 00000MPS 6000 SKC 21/17 Q1017 R08/CLRD70 NOSIG"
"10:30 PM EEST on July 25, 2016","2016","07","25","22","30","Europe/Kiev","7:30 PM GMT on July 25, 2016","2016","07","25","19","30","UTC","20.0","68.0","17.0","62.6","83","0.0","0.0","-9999.0","-9999.0","0","North","6.0","3.7","1017","30.04","-999","-999","-9999","-9999","-9999.00","-9999.00","Clear","clear","0","0","0","0","0","0","METAR UKKK 251930Z 00000MPS 6000 SKC 20/17 Q1017 R08/CLRD70 NOSIG"
"11:00 PM EEST on July 25, 2016","2016","07","25","23","00","Europe/Kiev","8:00 PM GMT on July 25, 2016","2016","07","25","20","00","UTC","20.0","68.0","17.0","62.6","83","0.0","0.0","-9999.0","-9999.0","0","North","6.0","3.7","1018","30.06","-999","-999","-9999","-9999","-9999.00","-9999.00","Clear","clear","0","0","0","0","0","0","METAR UKKK 252000Z 00000MPS 6000 SKC 20/17 Q1018 R08/CLRD70 NOSIG"
"11:30 PM EEST on July 25, 2016","2016","07","25","23","30","Europe/Kiev","8:30 PM GMT on July 25, 2016","2016","07","25","20","30","UTC","20.0","68.0","17.0","62.6","83","0.0","0.0","-9999.0","-9999.0","0","North","5.0","3.1","1018","30.06","-999","-999","-9999","-9999","-9999.00","-9999.00","Clear","clear","0","0","0","0","0","0","METAR UKKK 252030Z 00000MPS 5000 BR SKC 20/17 Q1018 R26/CLRD70 NOSIG"
"12:00 AM EEST on July 26, 2016","2016","07","26","00","00","Europe/Kiev","9:00 PM GMT on July 25, 2016","2016","07","25","21","00","UTC","22","72","16","62","62","0.0","0.0","","","","","20","12","1018","30.05","-999","-999","-9999","-9999","","","","","0","0","0","0","0","0","AAXX 25211 33345 42998 00000 10222 20165 39982 40175 52010 555 10020"
"12:00 AM EEST on July 26, 2016","2016","07","26","00","00","Europe/Kiev","9:00 PM GMT on July 25, 2016","2016","07","25","21","00","UTC","19.0","66.2","17.0","62.6","88","0.0","0.0","-9999.0","-9999.0","0","North","5.0","3.1","1018","30.06","-999","-999","-9999","-9999","-9999.00","-9999.00","Clear","clear","0","0","0","0","0","0","METAR UKKK 252100Z 00000MPS 5000 BR SKC 19/17 Q1018 R26/CLRD70 NOSIG"
"12:30 AM EEST on July 26, 2016","2016","07","26","00","30","Europe/Kiev","9:30 PM GMT on July 25, 2016","2016","07","25","21","30","UTC","19.0","66.2","17.0","62.6","88","0.0","0.0","-9999.0","-9999.0","0","North","6.0","3.7","1018","30.06","-999","-999","-9999","-9999","-9999.00","-9999.00","Clear","clear","0","0","0","0","0","0","METAR UKKK 252130Z 00000MPS 6000 SKC 19/17 Q1018 R26/CLRD70 NOSIG"
"1:00 AM EEST on July 26, 2016","2016","07","26","01","00","Europe/Kiev","10:00 PM GMT on July 25, 2016","2016","07","25","22","00","UTC","19.0","66.2","17.0","62.6","88","0.0","0.0","-9999.0","-9999.0","0","North","5.0","3.1","1018","30.06","-999","-999","-9999","-9999","-9999.00","-9999.00","Clear","clear","0","0","0","0","0","0","METAR UKKK 252200Z 00000MPS 5000 BR SKC 19/17 Q1018 R26/CLRD70 NOSIG"
"1:30 AM EEST on July 26, 2016","2016","07","26","01","30","Europe/Kiev","10:30 PM GMT on July 25, 2016","2016","07","25","22","30","UTC","18.0","64.4","16.0","60.8","88","0.0","0.0","-9999.0","-9999.0","0","North","5.0","3.1","1018","30.06","-999","-999","-9999","-9999","-9999.00","-9999.00","Clear","clear","0","0","0","0","0","0","METAR UKKK 252230Z 00000MPS 5000 BR SKC 18/16 Q1018 R26/CLRD70 NOSIG"
"2:00 AM EEST on July 26, 2016","2016","07","26","02","00","Europe/Kiev","11:00 PM GMT on July 25, 2016","2016","07","25","23","00","UTC","18.0","64.4","17.0","62.6","94","0.0","0.0","-9999.0","-9999.0","0","North","5.0","3.1","1018","30.06","-999","-999","-9999","-9999","-9999.00","-9999.00","Clear","clear","0","0","0","0","0","0","METAR UKKK 252300Z 00000MPS 5000 BR SKC 18/17 Q1018 R26/CLRD70 NOSIG"
"2:30 AM EEST on July 26, 2016","2016","07","26","02","30","Europe/Kiev","11:30 PM GMT on July 25, 2016","2016","07","25","23","30","UTC","17.0","62.6","17.0","62.6","100","0.0","0.0","-9999.0","-9999.0","0","North","-9999.0","-9999.0","1017","30.04","-999","-999","-9999","-9999","-9999.00","-9999.00","Clear","clear","0","0","0","0","0","0","METAR UKKK 252330Z 00000MPS 3900 BR SKC 17/17 Q1017 R26/CLRD70 NOSIG"
"3:00 AM EEST on July 26, 2016","2016","07","26","03","00","Europe/Kiev","12:00 AM GMT on July 26, 2016","2016","07","26","00","00","UTC","21","69","17","62","73","0.0","0.0","","","","","10","6","1017","30.04","-999","-999","-9999","-9999","","","","","0","0","0","0","0","0","AAXX 26001 33345 32997 00000 10206 20168 39979 40173 58003 555 10018"
"3:00 AM EEST on July 26, 2016","2016","07","26","03","00","Europe/Kiev","12:00 AM GMT on July 26, 2016","2016","07","26","00","00","UTC","17.0","62.6","17.0","62.6","100","0.0","0.0","-9999.0","-9999.0","0","North","-9999.0","-9999.0","1017","30.04","-999","-999","-9999","-9999","-9999.00","-9999.00","Clear","clear","0","0","0","0","0","0","METAR UKKK 260000Z 00000MPS 4400 BR SKC 17/17 Q1017 R26/CLRD70 NOSIG"
"3:30 AM EEST on July 26, 2016","2016","07","26","03","30","Europe/Kiev","12:30 AM GMT on July 26, 2016","2016","07","26","00","30","UTC","17.0","62.6","16.0","60.8","94","0.0","0.0","-9999.0","-9999.0","0","North","-9999.0","-9999.0","1017","30.04","-999","-999","-9999","-9999","-9999.00","-9999.00","Clear","clear","0","0","0","0","0","0","METAR UKKK 260030Z 00000MPS 3700 BR SKC 17/16 Q1017 R26/CLRD70 NOSIG"
"4:00 AM EEST on July 26, 2016","2016","07","26","04","00","Europe/Kiev","1:00 AM GMT on July 26, 2016","2016","07","26","01","00","UTC","17.0","62.6","16.0","60.8","94","0.0","0.0","-9999.0","-9999.0","0","North","2.7","1.7","1017","30.04","-999","-999","-9999","-9999","-9999.00","-9999.00","Clear","clear","0","0","0","0","0","0","METAR UKKK 260100Z 00000MPS 2700 BR SKC 17/16 Q1017 R26/CLRD70 NOSIG"
"4:30 AM EEST on July 26, 2016","2016","07","26","04","30","Europe/Kiev","1:30 AM GMT on July 26, 2016","2016","07","26","01","30","UTC","16.0","60.8","16.0","60.8","100","0.0","0.0","-9999.0","-9999.0","0","North","3.0","1.9","1017","30.04","-999","-999","-9999","-9999","-9999.00","-9999.00","Clear","clear","0","0","0","0","0","0","METAR UKKK 260130Z 00000MPS 3000 BR SKC 16/16 Q1017 R26/CLRD70 NOSIG"
"5:00 AM EEST on July 26, 2016","2016","07","26","05","00","Europe/Kiev","2:00 AM GMT on July 26, 2016","2016","07","26","02","00","UTC","16.0","60.8","16.0","60.8","100","0.0","0.0","-9999.0","-9999.0","0","North","2.4","1.5","1018","30.06","-999","-999","-9999","-9999","-9999.00","-9999.00","Clear","clear","0","0","0","0","0","0","METAR UKKK 260200Z 00000MPS 2400 BR SKC 16/16 Q1018 R26/CLRD70 TEMPO 1000 BR"
"5:30 AM EEST on July 26, 2016","2016","07","26","05","30","Europe/Kiev","2:30 AM GMT on July 26, 2016","2016","07","26","02","30","UTC","16.0","60.8","16.0","60.8","100","0.0","0.0","-9999.0","-9999.0","0","North","1.7","1.1","1018","30.06","-999","-999","-9999","-9999","-9999.00","-9999.00","Clear","clear","0","0","0","0","0","0","METAR UKKK 260230Z 00000MPS 1700 BR SKC 16/16 Q1018 R26/CLRD70 TEMPO 1000 BR"
"5:35 AM EEST on July 26, 2016","2016","07","26","05","35","Europe/Kiev","2:35 AM GMT on July 26, 2016","2016","07","26","02","35","UTC","16.0","60.8","16.0","60.8","100","0.0","0.0","-9999.0","-9999.0","0","North","1.4","0.9","1018","30.06","-999","-999","-9999","-9999","-9999.00","-9999.00","Clear","clear","0","0","0","0","0","0","SPECI UKKK 260235Z 00000MPS 1400 R26/P2000D BR SKC 16/16 Q1018 R26/CLRD70 TEMPO 1000 BR"
"6:00 AM EEST on July 26, 2016","2016","07","26","06","00","Europe/Kiev","3:00 AM GMT on July 26, 2016","2016","07","26","03","00","UTC","19","67","17","63","82","0.0","0.0","","","","","4","2","1017","30.05","-999","-999","-9999","-9999","","","Mist","hazy","0","0","0","0","0","0","AAXX 26031 33345 41996 00000 10194 20171 39979 40174 54000 71000 555 10017"
"6:00 AM EEST on July 26, 2016","2016","07","26","06","00","Europe/Kiev","3:00 AM GMT on July 26, 2016","2016","07","26","03","00","UTC","16.0","60.8","16.0","60.8","100","0.0","0.0","-9999.0","-9999.0","0","North","2.1","1.3","1018","30.06","-999","-999","-9999","-9999","-9999.00","-9999.00","Clear","clear","0","0","0","0","0","0","METAR UKKK 260300Z 00000MPS 2100 BR SKC 16/16 Q1018 R26/CLRD70 TEMPO 0400 FG"
"6:30 AM EEST on July 26, 2016","2016","07","26","06","30","Europe/Kiev","3:30 AM GMT on July 26, 2016","2016","07","26","03","30","UTC","17.0","62.6","17.0","62.6","100","7.2","4.5","-9999.0","-9999.0","270","West","4.0","2.5","1018","30.06","-999","-999","-9999","-9999","-9999.00","-9999.00","Clear","clear","0","0","0","0","0","0","METAR UKKK 260330Z 27002MPS 4000 BR SKC 17/17 Q1018 R26/CLRD70 NOSIG"
"7:00 AM EEST on July 26, 2016","2016","07","26","07","00","Europe/Kiev","4:00 AM GMT on July 26, 2016","2016","07","26","04","00","UTC","19.0","66.2","19.0","66.2","100","0.0","0.0","-9999.0","-9999.0","0","North","-9999.0","-9999.0","1018","30.06","-999","-999","-9999","-9999","-9999.00","-9999.00","Clear","clear","0","0","0","0","0","0","METAR UKKK 260400Z 00000MPS 4200 BR SKC 19/19 Q1018 R26/CLRD70 NOSIG"
"7:30 AM EEST on July 26, 2016","2016","07","26","07","30","Europe/Kiev","4:30 AM GMT on July 26, 2016","2016","07","26","04","30","UTC","21.0","69.8","18.0","64.4","83","0.0","0.0","-9999.0","-9999.0","0","North","-9999.0","-9999.0","1018","30.06","-999","-999","-9999","-9999","-9999.00","-9999.00","Clear","clear","0","0","0","0","0","0","METAR UKKK 260430Z 00000MPS 3700 BR SKC 21/18 Q1018 R26/CLRD70 NOSIG"
"8:00 AM EEST on July 26, 2016","2016","07","26","08","00","Europe/Kiev","5:00 AM GMT on July 26, 2016","2016","07","26","05","00","UTC","23.0","73.4","19.0","66.2","78","3.6","2.2","-9999.0","-9999.0","0","Variable","-9999.0","-9999.0","1018","30.06","-999","-999","-9999","-9999","-9999.00","-9999.00","Clear","clear","0","0","0","0","0","0","METAR UKKK 260500Z VRB01MPS 4700 BR SKC 23/19 Q1018 R26/CLRD70 NOSIG"
"8:30 AM EEST on July 26, 2016","2016","07","26","08","30","Europe/Kiev","5:30 AM GMT on July 26, 2016","2016","07","26","05","30","UTC","24.0","75.2","18.0","64.4","69","0.0","0.0","-9999.0","-9999.0","0","North","7.0","4.3","1018","30.06","-999","-999","-9999","-9999","-9999.00","-9999.00","Clear","clear","0","0","0","0","0","0","METAR UKKK 260530Z 00000MPS 7000 SKC 24/18 Q1018 R08/CLRD70 NOSIG"
"9:00 AM EEST on July 26, 2016","2016","07","26","09","00","Europe/Kiev","6:00 AM GMT on July 26, 2016","2016","07","26","06","00","UTC","25","78","18","64","54","0.0","0.0","","","","","20","12","1018","30.06","-999","-999","-9999","-9999","","","","","0","0","0","0","0","0","AAXX 26061 33345 32998 00000 10254 20180 39989 40180 53010 333 20193 555 10032"
"9:00 AM EEST on July 26, 2016","2016","07","26","09","00","Europe/Kiev","6:00 AM GMT on July 26, 2016","2016","07","26","06","00","UTC","26.0","78.8","19.0","66.2","65","0.0","0.0","-9999.0","-9999.0","0","North","8.0","5.0","1019","30.09","-999","-999","-9999","-9999","-9999.00","-9999.00","Clear","clear","0","0","0","0","0","0","METAR UKKK 260600Z 00000MPS 8000 SKC 26/19 Q1019 R08/CLRD70 NOSIG"
"9:30 AM EEST on July 26, 2016","2016","07","26","09","30","Europe/Kiev","6:30 AM GMT on July 26, 2016","2016","07","26","06","30","UTC","26.0","78.8","17.0","62.6","57","3.6","2.2","-9999.0","-9999.0","0","Variable","9.0","5.6","1018","30.06","-999","-999","-9999","-9999","-9999.00","-9999.00","Unknown","unknown","0","0","0","0","0","0","METAR UKKK 260630Z VRB01MPS 9000 NSC 26/17 Q1018 R08/CLRD70 NOSIG"
"10:00 AM EEST on July 26, 2016","2016","07","26","10","00","Europe/Kiev","7:00 AM GMT on July 26, 2016","2016","07","26","07","00","UTC","27.0","80.6","16.0","60.8","51","3.6","2.2","-9999.0","-9999.0","0","Variable","-9999.0","-9999.0","1018","30.06","-999","-999","27.5","81.5","-9999.00","-9999.00","Clear","clear","0","0","0","0","0","0","METAR UKKK 260700Z VRB01MPS CAVOK 27/16 Q1018 R08/CLRD70 NOSIG"
"10:30 AM EEST on July 26, 2016","2016","07","26","10","30","Europe/Kiev","7:30 AM GMT on July 26, 2016","2016","07","26","07","30","UTC","27.0","80.6","16.0","60.8","51","3.6","2.2","-9999.0","-9999.0","0","Variable","10.0","6.2","1019","30.09","-999","-999","27.5","81.5","-9999.00","-9999.00","Mostly Cloudy","mostlycloudy","0","0","0","0","0","0","METAR UKKK 260730Z VRB01MPS 9999 SCT046 BKN200 27/16 Q1019 R08/CLRD70 NOSIG"
"11:00 AM EEST on July 26, 2016","2016","07","26","11","00","Europe/Kiev","8:00 AM GMT on July 26, 2016","2016","07","26","08","00","UTC","27.0","80.6","17.0","62.6","54","3.6","2.2","-9999.0","-9999.0","0","Variable","10.0","6.2","1018","30.06","-999","-999","27.7","81.8","-9999.00","-9999.00","Mostly Cloudy","mostlycloudy","0","0","0","0","0","0","METAR UKKK 260800Z VRB01MPS 9999 SCT046 BKN200 27/17 Q1018 R08/CLRD70 NOSIGT"
"11:30 AM EEST on July 26, 2016","2016","07","26","11","30","Europe/Kiev","8:30 AM GMT on July 26, 2016","2016","07","26","08","30","UTC","28.0","82.4","16.0","60.8","48","3.6","2.2","-9999.0","-9999.0","0","Variable","-9999.0","-9999.0","1018","30.06","-999","-999","28.3","82.9","-9999.00","-9999.00","Clear","clear","0","0","0","0","0","0","METAR UKKK 260830Z VRB01MPS CAVOK 28/16 Q1018 R08/CLRD70 NOSIG"
"12:00 PM EEST on July 26, 2016","2016","07","26","12","00","Europe/Kiev","9:00 AM GMT on July 26, 2016","2016","07","26","09","00","UTC","28","82","16","61","39","7.2","4.5","","","60","ENE","20","12","1018","30.05","-999","-999","-9999","-9999","","","Partly Cloudy","partlycloudy","0","0","0","0","0","0","AAXX 26091 33345 42598 60602 10277 20161 39986 40176 58003 83205 555 10048"
"12:00 PM EEST on July 26, 2016","2016","07","26","12","00","Europe/Kiev","9:00 AM GMT on July 26, 2016","2016","07","26","09","00","UTC","28.0","82.4","15.0","59.0","45","3.6","2.2","-9999.0","-9999.0","0","Variable","-9999.0","-9999.0","1018","30.06","-999","-999","28.0","82.5","-9999.00","-9999.00","Clear","clear","0","0","0","0","0","0","METAR UKKK 260900Z VRB01MPS CAVOK 28/15 Q1018 R08/CLRD70 NOSIG"
"12:30 PM EEST on July 26, 2016","2016","07","26","12","30","Europe/Kiev","9:30 AM GMT on July 26, 2016","2016","07","26","09","30","UTC","29.0","84.2","16.0","60.8","45","10.8","6.7","-9999.0","-9999.0","70","ENE","-9999.0","-9999.0","1018","30.06","-999","-999","29.1","84.4","-9999.00","-9999.00","Clear","clear","0","0","0","0","0","0","METAR UKKK 260930Z 07003MPS 040V100 CAVOK 29/16 Q1018 R08/CLRD70 NOSIG"
"1:00 PM EEST on July 26, 2016","2016","07","26","13","00","Europe/Kiev","10:00 AM GMT on July 26, 2016","2016","07","26","10","00","UTC","29.0","84.2","16.0","60.8","45","7.2","4.5","-9999.0","-9999.0","160","SSE","9.0","5.6","1018","30.06","-999","-999","29.1","84.4","-9999.00","-9999.00","Unknown","unknown","0","0","0","0","0","0","METAR UKKK 261000Z 16002MPS 9000 NSC 29/16 Q1018 R08/CLRD70 NOSIG"
"1:30 PM EEST on July 26, 2016","2016","07","26","13","30","Europe/Kiev","10:30 AM GMT on July 26, 2016","2016","07","26","10","30","UTC","30.0","86.0","16.0","60.8","43","3.6","2.2","-9999.0","-9999.0","0","Variable","-9999.0","-9999.0","1018","30.06","-999","-999","30.1","86.1","-9999.00","-9999.00","Clear","clear","0","0","0","0","0","0","METAR UKKK 261030Z VRB01MPS CAVOK 30/16 Q1018 R08/CLRD70 NOSIG"
"2:00 PM EEST on July 26, 2016","2016","07","26","14","00","Europe/Kiev","11:00 AM GMT on July 26, 2016","2016","07","26","11","00","UTC","29.0","84.2","16.0","60.8","45","7.2","4.5","-9999.0","-9999.0","130","SE","-9999.0","-9999.0","1018","30.06","-999","-999","29.1","84.4","-9999.00","-9999.00","Clear","clear","0","0","0","0","0","0","METAR UKKK 261100Z 13002MPS CAVOK 29/16 Q1018 R08/CLRD70 NOSIG"
"2:30 PM EEST on July 26, 2016","2016","07","26","14","30","Europe/Kiev","11:30 AM GMT on July 26, 2016","2016","07","26","11","30","UTC","30.0","86.0","16.0","60.8","43","3.6","2.2","-9999.0","-9999.0","0","Variable","-9999.0","-9999.0","1018","30.06","-999","-999","30.1","86.1","-9999.00","-9999.00","Clear","clear","0","0","0","0","0","0","METAR UKKK 261130Z VRB01MPS CAVOK 30/16 Q1018 R08/CLRD70 NOSIG"
"3:00 PM EEST on July 26, 2016","2016","07","26","15","00","Europe/Kiev","12:00 PM GMT on July 26, 2016","2016","07","26","12","00","UTC","30","87","15","59","29","3.6","2.2","","","140","SE","20","12","1017","30.03","-999","-999","-9999","-9999","","","Partly Cloudy","partlycloudy","0","0","0","0","0","0","AAXX 26121 33345 32698 61401 10304 20150 39979 40167 57007 84205 555 10053"
"3:00 PM EEST on July 26, 2016","2016","07","26","15","00","Europe/Kiev","12:00 PM GMT on July 26, 2016","2016","07","26","12","00","UTC","29.0","84.2","16.0","60.8","45","3.6","2.2","-9999.0","-9999.0","0","Variable","-9999.0","-9999.0","1017","30.04","-999","-999","29.1","84.4","-9999.00","-9999.00","Clear","clear","0","0","0","0","0","0","METAR UKKK 261200Z VRB01MPS CAVOK 29/16 Q1017 R08/CLRD70 NOSIG"
"3:30 PM EEST on July 26, 2016","2016","07","26","15","30","Europe/Kiev","12:30 PM GMT on July 26, 2016","2016","07","26","12","30","UTC","30.0","86.0","15.0","59.0","40","3.6","2.2","-9999.0","-9999.0","0","Variable","-9999.0","-9999.0","1017","30.04","-999","-999","29.7","85.4","-9999.00","-9999.00","Clear","clear","0","0","0","0","0","0","METAR UKKK 261230Z VRB01MPS CAVOK 30/15 Q1017 R08/CLRD70 NOSIG"
"4:00 PM EEST on July 26, 2016","2016","07","26","16","00","Europe/Kiev","1:00 PM GMT on July 26, 2016","2016","07","26","13","00","UTC","28.0","82.4","16.0","60.8","48","7.2","4.5","-9999.0","-9999.0","130","SE","-9999.0","-9999.0","1017","30.04","-999","-999","28.3","82.9","-9999.00","-9999.00","Clear","clear","0","0","0","0","0","0","METAR UKKK 261300Z 13002MPS 100V170 CAVOK 28/16 Q1017 R08/CLRD70 NOSIG"
"4:30 PM EEST on July 26, 2016","2016","07","26","16","30","Europe/Kiev","1:30 PM GMT on July 26, 2016","2016","07","26","13","30","UTC","29.0","84.2","14.0","57.2","40","7.2","4.5","-9999.0","-9999.0","180","South","-9999.0","-9999.0","1017","30.04","-999","-999","28.6","83.5","-9999.00","-9999.00","Clear","clear","0","0","0","0","0","0","METAR UKKK 261330Z 18002MPS 150V270 CAVOK 29/14 Q1017 R08/CLRD70 NOSIG"
"5:00 PM EEST on July 26, 2016","2016","07","26","17","00","Europe/Kiev","2:00 PM GMT on July 26, 2016","2016","07","26","14","00","UTC","30.0","86.0","16.0","60.8","43","3.6","2.2","-9999.0","-9999.0","0","Variable","-9999.0","-9999.0","1017","30.04","-999","-999","30.1","86.1","-9999.00","-9999.00","Clear","clear","0","0","0","0","0","0","METAR UKKK 261400Z VRB01MPS CAVOK 30/16 Q1017 R08/CLRD70 NOSIG"
"5:30 PM EEST on July 26, 2016","2016","07","26","17","30","Europe/Kiev","2:30 PM GMT on July 26, 2016","2016","07","26","14","30","UTC","29.0","84.2","15.0","59.0","42","7.2","4.5","-9999.0","-9999.0","100","East","-9999.0","-9999.0","1016","30.01","-999","-999","28.8","83.8","-9999.00","-9999.00","Clear","clear","0","0","0","0","0","0","METAR UKKK 261430Z 10002MPS 080V150 CAVOK 29/15 Q1016 R08/CLRD70 NOSIG"
"6:00 PM EEST on July 26, 2016","2016","07","26","18","00","Europe/Kiev","3:00 PM GMT on July 26, 2016","2016","07","26","15","00","UTC","29","85","14","57","28","3.6","2.2","","","320","NW","20","12","1016","30.00","-999","-999","-9999","-9999","","","Scattered Clouds","partlycloudy","0","0","0","0","0","0","AAXX 26151 33345 42698 43201 10294 20138 39968 40157 56011 82206 555 10040"
"6:00 PM EEST on July 26, 2016","2016","07","26","18","00","Europe/Kiev","3:00 PM GMT on July 26, 2016","2016","07","26","15","00","UTC","29.0","84.2","16.0","60.8","45","7.2","4.5","-9999.0","-9999.0","110","ESE","-9999.0","-9999.0","1016","30.01","-999","-999","29.1","84.4","-9999.00","-9999.00","Clear","clear","0","0","0","0","0","0","METAR UKKK 261500Z 11002MPS 080V150 CAVOK 29/16 Q1016 R08/CLRD70 NOSIG"
"6:30 PM EEST on July 26, 2016","2016","07","26","18","30","Europe/Kiev","3:30 PM GMT on July 26, 2016","2016","07","26","15","30","UTC","30.0","86.0","16.0","60.8","43","0.0","0.0","-9999.0","-9999.0","0","North","9.0","5.6","1016","30.01","-999","-999","30.1","86.1","-9999.00","-9999.00","Unknown","unknown","0","0","0","0","0","0","METAR UKKK 261530Z 00000MPS 9000 NSC 30/16 Q1016 R08/CLRD70 NOSIG"
"7:00 PM EEST on July 26, 2016","2016","07","26","19","00","Europe/Kiev","4:00 PM GMT on July 26, 2016","2016","07","26","16","00","UTC","28.0","82.4","16.0","60.8","48","0.0","0.0","-9999.0","-9999.0","0","North","-9999.0","-9999.0","1017","30.04","-999","-999","28.3","82.9","-9999.00","-9999.00","Clear","clear","0","0","0","0","0","0","METAR UKKK 261600Z 00000MPS CAVOK 28/16 Q1017 R08/CLRD70 NOSIG"
"7:30 PM EEST on July 26, 2016","2016","07","26","19","30","Europe/Kiev","4:30 PM GMT on July 26, 2016","2016","07","26","16","30","UTC","27.0","80.6","16.0","60.8","51","0.0","0.0","-9999.0","-9999.0","0","North","10.0","6.2","1017","30.04","-999","-999","27.5","81.5","-9999.00","-9999.00","Mostly Cloudy","mostlycloudy","0","0","0","0","0","0","METAR UKKK 261630Z 00000MPS 9999 FEW033CB BKN050 27/16 Q1017 R08/CLRD70 NOSIG"
"8:00 PM EEST on July 26, 2016","2016","07","26","20","00","Europe/Kiev","5:00 PM GMT on July 26, 2016","2016","07","26","17","00","UTC","25.0","77.0","18.0","64.4","65","0.0","0.0","-9999.0","-9999.0","0","North","10.0","6.2","1017","30.04","-999","-999","-9999","-9999","-9999.00","-9999.00","Mostly Cloudy","mostlycloudy","0","0","0","0","0","0","METAR UKKK 261700Z 00000MPS 9999 FEW033CB BKN050 25/18 Q1017 R08/CLRD70 NOSIG"
"8:30 PM EEST on July 26, 2016","2016","07","26","20","30","Europe/Kiev","5:30 PM GMT on July 26, 2016","2016","07","26","17","30","UTC","25.0","77.0","17.0","62.6","61","0.0","0.0","-9999.0","-9999.0","0","North","-9999.0","-9999.0","1017","30.04","-999","-999","-9999","-9999","-9999.00","-9999.00","Clear","clear","0","0","0","0","0","0","METAR UKKK 261730Z 00000MPS CAVOK 25/17 Q1017 R08/CLRD70 NOSIG"
"9:00 PM EEST on July 26, 2016","2016","07","26","21","00","Europe/Kiev","6:00 PM GMT on July 26, 2016","2016","07","26","18","00","UTC","24","76","17","62","53","0.0","0.0","","","","","10","6","1017","30.03","-999","-999","-9999","-9999","","","Scattered Clouds","partlycloudy","0","0","0","0","0","0","AAXX 26181 33345 32997 60000 10244 20168 39977 40169 53009 82066 333 10310 555 10024"
"9:00 PM EEST on July 26, 2016","2016","07","26","21","00","Europe/Kiev","6:00 PM GMT on July 26, 2016","2016","07","26","18","00","UTC","24.0","75.2","16.0","60.8","61","0.0","0.0","-9999.0","-9999.0","0","North","-9999.0","-9999.0","1017","30.04","-999","-999","-9999","-9999","-9999.00","-9999.00","Clear","clear","0","0","0","0","0","0","METAR UKKK 261800Z 00000MPS CAVOK 24/16 Q1017 R08/CLRD70 NOSIG"
"9:30 PM EEST on July 26, 2016","2016","07","26","21","30","Europe/Kiev","6:30 PM GMT on July 26, 2016","2016","07","26","18","30","UTC","22.0","71.6","18.0","64.4","78","3.6","2.2","-9999.0","-9999.0","0","Variable","9.0","5.6","1017","30.04","-999","-999","-9999","-9999","-9999.00","-9999.00","Unknown","unknown","0","0","0","0","0","0","METAR UKKK 261830Z VRB01MPS 9000 NSC 22/18 Q1017 R08/CLRD70 NOSIG"
"10:00 PM EEST on July 26, 2016","2016","07","26","22","00","Europe/Kiev","7:00 PM GMT on July 26, 2016","2016","07","26","19","00","UTC","22.0","71.6","17.0","62.6","73","0.0","0.0","-9999.0","-9999.0","0","North","7.0","4.3","1017","30.04","-999","-999","-9999","-9999","-9999.00","-9999.00","Unknown","unknown","0","0","0","0","0","0","METAR UKKK 261900Z 00000MPS 7000 NSC 22/17 Q1017 R08/CLRD70 NOSIG"
"10:30 PM EEST on July 26, 2016","2016","07","26","22","30","Europe/Kiev","7:30 PM GMT on July 26, 2016","2016","07","26","19","30","UTC","21.0","69.8","17.0","62.6","78","0.0","0.0","-9999.0","-9999.0","0","North","6.0","3.7","1018","30.06","-999","-999","-9999","-9999","-9999.00","-9999.00","Unknown","unknown","0","0","0","0","0","0","METAR UKKK 261930Z 00000MPS 6000 NSC 21/17 Q1018 R08/CLRD70 NOSIG"
"11:00 PM EEST on July 26, 2016","2016","07","26","23","00","Europe/Kiev","8:00 PM GMT on July 26, 2016","2016","07","26","20","00","UTC","21.0","69.8","17.0","62.6","78","0.0","0.0","-9999.0","-9999.0","0","North","8.0","5.0","1018","30.06","-999","-999","-9999","-9999","-9999.00","-9999.00","Unknown","unknown","0","0","0","0","0","0","METAR UKKK 262000Z 00000MPS 8000 NSC 21/17 Q1018 R08/CLRD70 NOSIG"
"11:30 PM EEST on July 26, 2016","2016","07","26","23","30","Europe/Kiev","8:30 PM GMT on July 26, 2016","2016","07","26","20","30","UTC","20.0","68.0","17.0","62.6","83","0.0","0.0","-9999.0","-9999.0","0","North","7.0","4.3","1018","30.06","-999","-999","-9999","-9999","-9999.00","-9999.00","Unknown","unknown","0","0","0","0","0","0","METAR UKKK 262030Z 00000MPS 7000 NSC 20/17 Q1018 R08/CLRD70 NOSIG"
"12:00 AM EEST on July 27, 2016","2016","07","27","00","00","Europe/Kiev","9:00 PM GMT on July 26, 2016","2016","07","26","21","00","UTC","22","72","16","61","60","0.0","0.0","","","","","10","6","1018","30.05","-999","-999","-9999","-9999","","","","","0","0","0","0","0","0","AAXX 26211 33345 42997 00000 10222 20161 39982 40176 52005 555 10021"
"12:00 AM EEST on July 27, 2016","2016","07","27","00","00","Europe/Kiev","9:00 PM GMT on July 26, 2016","2016","07","26","21","00","UTC","19.0","66.2","17.0","62.6","88","0.0","0.0","-9999.0","-9999.0","0","North","7.0","4.3","1018","30.06","-999","-999","-9999","-9999","-9999.00","-9999.00","Unknown","unknown","0","0","0","0","0","0","METAR UKKK 262100Z 00000MPS 7000 NSC 19/17 Q1018 R08/CLRD70 NOSIG"
"12:30 AM EEST on July 27, 2016","2016","07","27","00","30","Europe/Kiev","9:30 PM GMT on July 26, 2016","2016","07","26","21","30","UTC","19.0","66.2","17.0","62.6","88","0.0","0.0","-9999.0","-9999.0","0","North","5.0","3.1","1018","30.06","-999","-999","-9999","-9999","-9999.00","-9999.00","Mist","hazy","0","0","0","0","0","0","METAR UKKK 262130Z 00000MPS 5000 BR NSC 19/17 Q1018 R08/CLRD70 NOSIG"
"1:00 AM EEST on July 27, 2016","2016","07","27","01","00","Europe/Kiev","10:00 PM GMT on July 26, 2016","2016","07","26","22","00","UTC","19.0","66.2","17.0","62.6","88","0.0","0.0","-9999.0","-9999.0","0","North","8.0","5.0","1018","30.06","-999","-999","-9999","-9999","-9999.00","-9999.00","Unknown","unknown","0","0","0","0","0","0","METAR UKKK 262200Z 00000MPS 8000 NSC 19/17 Q1018 R08/CLRD70 TEMPO 0400 FG VV001"
"1:30 AM EEST on July 27, 2016","2016","07","27","01","30","Europe/Kiev","10:30 PM GMT on July 26, 2016","2016","07","26","22","30","UTC","19.0","66.2","17.0","62.6","88","0.0","0.0","-9999.0","-9999.0","0","North","5.0","3.1","1018","30.06","-999","-999","-9999","-9999","-9999.00","-9999.00","Mist","hazy","0","0","0","0","0","0","METAR UKKK 262230Z 00000MPS 5000 BR NSC 19/17 Q1018 R26/CLRD70 TEMPO 0400 FG VV001"
"2:00 AM EEST on July 27, 2016","2016","07","27","02","00","Europe/Kiev","11:00 PM GMT on July 26, 2016","2016","07","26","23","00","UTC","19.0","66.2","17.0","62.6","88","0.0","0.0","-9999.0","-9999.0","0","North","7.0","4.3","1018","30.06","-999","-999","-9999","-9999","-9999.00","-9999.00","Unknown","unknown","0","0","0","0","0","0","METAR UKKK 262300Z 00000MPS 7000 NSC 19/17 Q1018 R26/CLRD70 NOSIG"
"2:30 AM EEST on July 27, 2016","2016","07","27","02","30","Europe/Kiev","11:30 PM GMT on July 26, 2016","2016","07","26","23","30","UTC","18.0","64.4","17.0","62.6","94","0.0","0.0","-9999.0","-9999.0","0","North","7.0","4.3","1018","30.06","-999","-999","-9999","-9999","-9999.00","-9999.00","Unknown","unknown","0","0","0","0","0","0","METAR UKKK 262330Z 00000MPS 7000 NSC 18/17 Q1018 R26/CLRD70 TEMPO 0400 FG VV001"
"3:00 AM EEST on July 27, 2016","2016","07","27","03","00","Europe/Kiev","12:00 AM GMT on July 27, 2016","2016","07","27","00","00","UTC","21","70","17","62","69","0.0","0.0","","","","","10","6","1018","30.05","-999","-999","-9999","-9999","","","","","0","0","0","0","0","0","AAXX 27001 33345 32997 00000 10209 20166 39982 40176 54000 555 10019"
"3:00 AM EEST on July 27, 2016","2016","07","27","03","00","Europe/Kiev","12:00 AM GMT on July 27, 2016","2016","07","27","00","00","UTC","18.0","64.4","17.0","62.6","94","0.0","0.0","-9999.0","-9999.0","0","North","6.0","3.7","1018","30.06","-999","-999","-9999","-9999","-9999.00","-9999.00","Unknown","unknown","0","0","0","0","0","0","METAR UKKK 270000Z 00000MPS 6000 NSC 18/17 Q1018 R26/CLRD70 TEMPO 0400 FG VV001"
"3:30 AM EEST on July 27, 2016","2016","07","27","03","30","Europe/Kiev","12:30 AM GMT on July 27, 2016","2016","07","27","00","30","UTC","18.0","64.4","17.0","62.6","94","0.0","0.0","-9999.0","-9999.0","0","North","7.0","4.3","1018","30.06","-999","-999","-9999","-9999","-9999.00","-9999.00","Unknown","unknown","0","0","0","0","0","0","METAR UKKK 270030Z 00000MPS 7000 NSC 18/17 Q1018 R26/CLRD70 TEMPO 0400 FG VV001"
"4:00 AM EEST on July 27, 2016","2016","07","27","04","00","Europe/Kiev","1:00 AM GMT on July 27, 2016","2016","07","27","01","00","UTC","18.0","64.4","17.0","62.6","94","0.0","0.0","-9999.0","-9999.0","0","North","6.0","3.7","1018","30.06","-999","-999","-9999","-9999","-9999.00","-9999.00","Unknown","unknown","0","0","0","0","0","0","METAR UKKK 270100Z 00000MPS 6000 NSC 18/17 Q1018 R26/CLRD70 TEMPO 0400 FG VV001"
"4:30 AM EEST on July 27, 2016","2016","07","27","04","30","Europe/Kiev","1:30 AM GMT on July 27, 2016","2016","07","27","01","30","UTC","17.0","62.6","17.0","62.6","100","0.0","0.0","-9999.0","-9999.0","0","North","6.0","3.7","1018","30.06","-999","-999","-9999","-9999","-9999.00","-9999.00","Unknown","unknown","0","0","0","0","0","0","METAR UKKK 270130Z 00000MPS 6000 NSC 17/17 Q1018 R08/CLRD70 TEMPO 0400 FG VV001"
"5:00 AM EEST on July 27, 2016","2016","07","27","05","00","Europe/Kiev","2:00 AM GMT on July 27, 2016","2016","07","27","02","00","UTC","17.0","62.6","16.0","60.8","94","0.0","0.0","-9999.0","-9999.0","0","North","6.0","3.7","1018","30.06","-999","-999","-9999","-9999","-9999.00","-9999.00","Unknown","unknown","0","0","0","0","0","0","METAR UKKK 270200Z 00000MPS 6000 NSC 17/16 Q1018 R08/CLRD70 TEMPO 0400 FG VV001"
"5:30 AM EEST on July 27, 2016","2016","07","27","05","30","Europe/Kiev","2:30 AM GMT on July 27, 2016","2016","07","27","02","30","UTC","17.0","62.6","17.0","62.6","100","0.0","0.0","-9999.0","-9999.0","0","North","6.0","3.7","1018","30.06","-999","-999","-9999","-9999","-9999.00","-9999.00","Unknown","unknown","0","0","0","0","0","0","METAR UKKK 270230Z 00000MPS 6000 NSC 17/17 Q1018 R08/CLRD70 NOSIG"
"6:00 AM EEST on July 27, 2016","2016","07","27","06","00","Europe/Kiev","3:00 AM GMT on July 27, 2016","2016","07","27","03","00","UTC","20","68","17","63","79","0.0","0.0","","","","","4","2","1018","30.06","-999","-999","-9999","-9999","","","Mist","hazy","0","0","0","0","0","0","AAXX 27031 33345 41996 00000 10201 20172 39984 40179 53002 71000 555 10018"
"6:00 AM EEST on July 27, 2016","2016","07","27","06","00","Europe/Kiev","3:00 AM GMT on July 27, 2016","2016","07","27","03","00","UTC","17.0","62.6","17.0","62.6","100","0.0","0.0","-9999.0","-9999.0","0","North","5.0","3.1","1018","30.06","-999","-999","-9999","-9999","-9999.00","-9999.00","Mist","hazy","0","0","0","0","0","0","METAR UKKK 270300Z 00000MPS 5000 BR NSC 17/17 Q1018 R08/CLRD70 NOSIG"
"6:30 AM EEST on July 27, 2016","2016","07","27","06","30","Europe/Kiev","3:30 AM GMT on July 27, 2016","2016","07","27","03","30","UTC","18.0","64.4","17.0","62.6","94","0.0","0.0","-9999.0","-9999.0","0","North","7.0","4.3","1018","30.06","-999","-999","-9999","-9999","-9999.00","-9999.00","Unknown","unknown","0","0","0","0","0","0","METAR UKKK 270330Z 00000MPS 7000 NSC 18/17 Q1018 R08/CLRD70 NOSIG"
"7:00 AM EEST on July 27, 2016","2016","07","27","07","00","Europe/Kiev","4:00 AM GMT on July 27, 2016","2016","07","27","04","00","UTC","20.0","68.0","18.0","64.4","88","0.0","0.0","-9999.0","-9999.0","0","North","7.0","4.3","1018","30.06","-999","-999","-9999","-9999","-9999.00","-9999.00","Unknown","unknown","0","0","0","0","0","0","METAR UKKK 270400Z 00000MPS 7000 NSC 20/18 Q1018 R08/CLRD70 NOSIG"
"7:30 AM EEST on July 27, 2016","2016","07","27","07","30","Europe/Kiev","4:30 AM GMT on July 27, 2016","2016","07","27","04","30","UTC","21.0","69.8","18.0","64.4","83","0.0","0.0","-9999.0","-9999.0","0","North","8.0","5.0","1018","30.06","-999","-999","-9999","-9999","-9999.00","-9999.00","Unknown","unknown","0","0","0","0","0","0","METAR UKKK 270430Z 00000MPS 8000 NSC 21/18 Q1018 R08/CLRD70 NOSIG"
"8:00 AM EEST on July 27, 2016","2016","07","27","08","00","Europe/Kiev","5:00 AM GMT on July 27, 2016","2016","07","27","05","00","UTC","23.0","73.4","19.0","66.2","78","0.0","0.0","-9999.0","-9999.0","0","North","8.0","5.0","1018","30.06","-999","-999","-9999","-9999","-9999.00","-9999.00","Unknown","unknown","0","0","0","0","0","0","METAR UKKK 270500Z 00000MPS 8000 NSC 23/19 Q1018 R08/CLRD70 NOSIG"
"8:30 AM EEST on July 27, 2016","2016","07","27","08","30","Europe/Kiev","5:30 AM GMT on July 27, 2016","2016","07","27","05","30","UTC","25.0","77.0","18.0","64.4","65","0.0","0.0","-9999.0","-9999.0","0","North","9.0","5.6","1018","30.06","-999","-999","-9999","-9999","-9999.00","-9999.00","Unknown","unknown","0","0","0","0","0","0","METAR UKKK 270530Z 00000MPS 9000 NSC 25/18 Q1018 R08/CLRD70 NOSIG"
"9:00 AM EEST on July 27, 2016","2016","07","27","09","00","Europe/Kiev","6:00 AM GMT on July 27, 2016","2016","07","27","06","00","UTC","26","78","18","65","56","0.0","0.0","","","","","20","12","1018","30.06","-999","-999","-9999","-9999","","","","","0","0","0","0","0","0","AAXX 27061 33345 32998 00000 10258 20184 39988 40179 52004 333 20199 555 10033"
"9:00 AM EEST on July 27, 2016","2016","07","27","09","00","Europe/Kiev","6:00 AM GMT on July 27, 2016","2016","07","27","06","00","UTC","26.0","78.8","18.0","64.4","61","0.0","0.0","-9999.0","-9999.0","0","North","-9999.0","-9999.0","1018","30.06","-999","-999","-9999","-9999","-9999.00","-9999.00","Clear","clear","0","0","0","0","0","0","METAR UKKK 270600Z 00000MPS CAVOK 26/18 Q1018 R08/CLRD70 NOSIG"
"9:30 AM EEST on July 27, 2016","2016","07","27","09","30","Europe/Kiev","6:30 AM GMT on July 27, 2016","2016","07","27","06","30","UTC","27.0","80.6","17.0","62.6","54","0.0","0.0","-9999.0","-9999.0","0","North","-9999.0","-9999.0","1018","30.06","-999","-999","27.7","81.8","-9999.00","-9999.00","Clear","clear","0","0","0","0","0","0","METAR UKKK 270630Z 00000MPS CAVOK 27/17 Q1018 R08/CLRD70 NOSIG"
"10:00 AM EEST on July 27, 2016","2016","07","27","10","00","Europe/Kiev","7:00 AM GMT on July 27, 2016","2016","07","27","07","00","UTC","27.0","80.6","17.0","62.6","54","3.6","2.2","-9999.0","-9999.0","0","Variable","-9999.0","-9999.0","1018","30.06","-999","-999","27.7","81.8","-9999.00","-9999.00","Clear","clear","0","0","0","0","0","0","METAR UKKK 270700Z VRB01MPS CAVOK 27/17 Q1018 R08/CLRD70 NOSIG"
"10:30 AM EEST on July 27, 2016","2016","07","27","10","30","Europe/Kiev","7:30 AM GMT on July 27, 2016","2016","07","27","07","30","UTC","28.0","82.4","17.0","62.6","51","3.6","2.2","-9999.0","-9999.0","0","Variable","-9999.0","-9999.0","1018","30.06","-999","-999","28.5","83.4","-9999.00","-9999.00","Clear","clear","0","0","0","0","0","0","METAR UKKK 270730Z VRB01MPS CAVOK 28/17 Q1018 R08/CLRD70 NOSIG"
"11:00 AM EEST on July 27, 2016","2016","07","27","11","00","Europe/Kiev","8:00 AM GMT on July 27, 2016","2016","07","27","08","00","UTC","28.0","82.4","17.0","62.6","51","3.6","2.2","-9999.0","-9999.0","0","Variable","-9999.0","-9999.0","1018","30.06","-999","-999","28.5","83.4","-9999.00","-9999.00","Clear","clear","0","0","0","0","0","0","METAR UKKK 270800Z VRB01MPS CAVOK 28/17 Q1018 R08/CLRD70 NOSIG"
"11:30 AM EEST on July 27, 2016","2016","07","27","11","30","Europe/Kiev","8:30 AM GMT on July 27, 2016","2016","07","27","08","30","UTC","29.0","84.2","18.0","64.4","51","7.2","4.5","-9999.0","-9999.0","290","WNW","9.0","5.6","1018","30.06","-999","-999","29.8","85.6","-9999.00","-9999.00","Unknown","unknown","0","0","0","0","0","0","METAR UKKK 270830Z 29002MPS 9000 NSC 29/18 Q1018 R08/CLRD70 NOSIG"
"12:00 PM EEST on July 27, 2016","2016","07","27","12","00","Europe/Kiev","9:00 AM GMT on July 27, 2016","2016","07","27","09","00","UTC","30","86","16","60","31","3.6","2.2","","","160","SSE","20","12","1018","30.05","-999","-999","-9999","-9999","","","Partly Cloudy","partlycloudy","0","0","0","0","0","0","AAXX 27091 33345 42698 41601 10300 20155 39987 40176 58001 84200 555 10053"
"12:00 PM EEST on July 27, 2016","2016","07","27","12","00","Europe/Kiev","9:00 AM GMT on July 27, 2016","2016","07","27","09","00","UTC","29.0","84.2","18.0","64.4","51","3.6","2.2","-9999.0","-9999.0","0","Variable","-9999.0","-9999.0","1018","30.06","-999","-999","29.8","85.6","-9999.00","-9999.00","Clear","clear","0","0","0","0","0","0","METAR UKKK 270900Z VRB01MPS CAVOK 29/18 Q1018 R08/CLRD70 NOSIG"
"12:30 PM EEST on July 27, 2016","2016","07","27","12","30","Europe/Kiev","9:30 AM GMT on July 27, 2016","2016","07","27","09","30","UTC","29.0","84.2","17.0","62.6","48","7.2","4.5","-9999.0","-9999.0","240","WSW","-9999.0","-9999.0","1018","30.06","-999","-999","29.4","85.0","-9999.00","-9999.00","Clear","clear","0","0","0","0","0","0","METAR UKKK 270930Z 24002MPS CAVOK 29/17 Q1018 R08/CLRD70 NOSIG"
"1:00 PM EEST on July 27, 2016","2016","07","27","13","00","Europe/Kiev","10:00 AM GMT on July 27, 2016","2016","07","27","10","00","UTC","30.0","86.0","16.0","60.8","43","3.6","2.2","-9999.0","-9999.0","0","Variable","-9999.0","-9999.0","1018","30.06","-999","-999","30.1","86.1","-9999.00","-9999.00","Clear","clear","0","0","0","0","0","0","METAR UKKK 271000Z VRB01MPS CAVOK 30/16 Q1018 R08/CLRD70 NOSIG"
"1:30 PM EEST on July 27, 2016","2016","07","27","13","30","Europe/Kiev","10:30 AM GMT on July 27, 2016","2016","07","27","10","30","UTC","29.0","84.2","16.0","60.8","45","7.2","4.5","-9999.0","-9999.0","280","West","-9999.0","-9999.0","1018","30.06","-999","-999","29.1","84.4","-9999.00","-9999.00","Clear","clear","0","0","0","0","0","0","METAR UKKK 271030Z 28002MPS 230V360 CAVOK 29/16 Q1018 R08/CLRD70 NOSIG"
"2:00 PM EEST on July 27, 2016","2016","07","27","14","00","Europe/Kiev","11:00 AM GMT on July 27, 2016","2016","07","27","11","00","UTC","30.0","86.0","17.0","62.6","45","7.2","4.5","-9999.0","-9999.0","250","WSW","-9999.0","-9999.0","1018","30.06","-999","-999","30.3","86.6","-9999.00","-9999.00","Clear","clear","0","0","0","0","0","0","METAR UKKK 271100Z 25002MPS 200V320 CAVOK 30/17 Q1018 R08/CLRD70 NOSIG"
"2:30 PM EEST on July 27, 2016","2016","07","27","14","30","Europe/Kiev","11:30 AM GMT on July 27, 2016","2016","07","27","11","30","UTC","30.0","86.0","16.0","60.8","43","10.8","6.7","-9999.0","-9999.0","250","WSW","-9999.0","-9999.0","1017","30.04","-999","-999","30.1","86.1","-9999.00","-9999.00","Clear","clear","0","0","0","0","0","0","METAR UKKK 271130Z 25003MPS 220V280 CAVOK 30/16 Q1017 R08/CLRD70 NOSIG"
"3:00 PM EEST on July 27, 2016","2016","07","27","15","00","Europe/Kiev","12:00 PM GMT on July 27, 2016","2016","07","27","12","00","UTC","31","88","14","58","26","3.6","2.2","","","120","ESE","20","12","1017","30.02","-999","-999","-9999","-9999","","","Mostly Cloudy","mostlycloudy","0","0","0","0","0","0","AAXX 27121 33345 32698 51201 10312 20144 39978 40166 57009 85200 555 10053"
"3:00 PM EEST on July 27, 2016","2016","07","27","15","00","Europe/Kiev","12:00 PM GMT on July 27, 2016","2016","07","27","12","00","UTC","31.0","87.8","15.0","59.0","38","7.2","4.5","-9999.0","-9999.0","230","SW","9.0","5.6","1017","30.04","-999","-999","30.6","87.1","-9999.00","-9999.00","Unknown","unknown","0","0","0","0","0","0","METAR UKKK 271200Z 23002MPS 170V280 9000 NSC 31/15 Q1017 R08/CLRD70 NOSIG"
"3:30 PM EEST on July 27, 2016","2016","07","27","15","30","Europe/Kiev","12:30 PM GMT on July 27, 2016","2016","07","27","12","30","UTC","30.0","86.0","16.0","60.8","43","7.2","4.5","-9999.0","-9999.0","20","NNE","-9999.0","-9999.0","1017","30.04","-999","-999","30.1","86.1","-9999.00","-9999.00","Clear","clear","0","0","0","0","0","0","METAR UKKK 271230Z 02002MPS 310V070 CAVOK 30/16 Q1017 R08/CLRD70 NOSIG"
"4:00 PM EEST on July 27, 2016","2016","07","27","16","00","Europe/Kiev","1:00 PM GMT on July 27, 2016","2016","07","27","13","00","UTC","30.0","86.0","15.0","59.0","40","0.0","0.0","-9999.0","-9999.0","0","North","10.0","6.2","1017","30.04","-999","-999","29.7","85.4","-9999.00","-9999.00","Mostly Cloudy","mostlycloudy","0","0","0","0","0","0","METAR UKKK 271300Z 00000MPS 9999 FEW033CB BKN200 30/15 Q1017 R08/CLRD70 NOSIG"
"4:30 PM EEST on July 27, 2016","2016","07","27","16","30","Europe/Kiev","1:30 PM GMT on July 27, 2016","2016","07","27","13","30","UTC","30.0","86.0","17.0","62.6","45","14.4","8.9","-9999.0","-9999.0","280","West","-9999.0","-9999.0","1017","30.04","-999","-999","30.3","86.6","-9999.00","-9999.00","Clear","clear","0","0","0","0","0","0","METAR UKKK 271330Z 28004MPS CAVOK 30/17 Q1017 R08/CLRD70 NOSIG"
"5:00 PM EEST on July 27, 2016","2016","07","27","17","00","Europe/Kiev","2:00 PM GMT on July 27, 2016","2016","07","27","14","00","UTC","29.0","84.2","16.0","60.8","45","14.4","8.9","-9999.0","-9999.0","270","West","9.0","5.6","1016","30.01","-999","-999","29.1","84.4","-9999.00","-9999.00","Unknown","unknown","0","0","0","0","0","0","METAR UKKK 271400Z 27004MPS 9000 NSC 29/16 Q1016 R26/CLRD70 NOSIG"
"5:30 PM EEST on July 27, 2016","2016","07","27","17","30","Europe/Kiev","2:30 PM GMT on July 27, 2016","2016","07","27","14","30","UTC","30.0","86.0","16.0","60.8","43","10.8","6.7","-9999.0","-9999.0","260","West","9.0","5.6","1016","30.01","-999","-999","30.1","86.1","-9999.00","-9999.00","Unknown","unknown","0","0","0","0","0","0","METAR UKKK 271430Z 26003MPS 220V280 9000 NSC 30/16 Q1016 R26/CLRD70 NOSIG"
"6:00 PM EEST on July 27, 2016","2016","07","27","18","00","Europe/Kiev","3:00 PM GMT on July 27, 2016","2016","07","27","15","00","UTC","31","87","15","59","29","7.2","4.5","","","320","NW","20","12","1015","29.98","-999","-999","-9999","-9999","","","Scattered Clouds","partlycloudy","0","0","0","0","0","0","AAXX 27151 33345 42698 33202 10308 20151 39964 40152 57014 82260 555 10041"
"6:00 PM EEST on July 27, 2016","2016","07","27","18","00","Europe/Kiev","3:00 PM GMT on July 27, 2016","2016","07","27","15","00","UTC","30.0","86.0","16.0","60.8","43","10.8","6.7","-9999.0","-9999.0","270","West","9.0","5.6","1016","30.01","-999","-999","30.1","86.1","-9999.00","-9999.00","Unknown","unknown","0","0","0","0","0","0","METAR UKKK 271500Z 27003MPS 9000 NSC 30/16 Q1016 R26/CLRD70 NOSIG"
"6:30 PM EEST on July 27, 2016","2016","07","27","18","30","Europe/Kiev","3:30 PM GMT on July 27, 2016","2016","07","27","15","30","UTC","30.0","86.0","16.0","60.8","43","7.2","4.5","-9999.0","-9999.0","260","West","-9999.0","-9999.0","1016","30.01","-999","-999","30.1","86.1","-9999.00","-9999.00","Clear","clear","0","0","0","0","0","0","METAR UKKK 271530Z 26002MPS CAVOK 30/16 Q1016 R26/CLRD70 NOSIG"
"7:00 PM EEST on July 27, 2016","2016","07","27","19","00","Europe/Kiev","4:00 PM GMT on July 27, 2016","2016","07","27","16","00","UTC","29.0","84.2","16.0","60.8","45","7.2","4.5","-9999.0","-9999.0","240","WSW","-9999.0","-9999.0","1016","30.01","-999","-999","29.1","84.4","-9999.00","-9999.00","Clear","clear","0","0","0","0","0","0","METAR UKKK 271600Z 24002MPS CAVOK 29/16 Q1016 R26/CLRD70 NOSIG"
"7:30 PM EEST on July 27, 2016","2016","07","27","19","30","Europe/Kiev","4:30 PM GMT on July 27, 2016","2016","07","27","16","30","UTC","28.0","82.4","16.0","60.8","48","7.2","4.5","-9999.0","-9999.0","240","WSW","-9999.0","-9999.0","1016","30.01","-999","-999","28.3","82.9","-9999.00","-9999.00","Clear","clear","0","0","0","0","0","0","METAR UKKK 271630Z 24002MPS CAVOK 28/16 Q1016 R26/CLRD70 NOSIG"
"8:00 PM EEST on July 27, 2016","2016","07","27","20","00","Europe/Kiev","5:00 PM GMT on July 27, 2016","2016","07","27","17","00","UTC","28.0","82.4","16.0","60.8","48","7.2","4.5","-9999.0","-9999.0","260","West","9.0","5.6","1016","30.01","-999","-999","28.3","82.9","-9999.00","-9999.00","Unknown","unknown","0","0","0","0","0","0","METAR UKKK 271700Z 26002MPS 9000 NSC 28/16 Q1016 R26/CLRD70 NOSIG"
"8:30 PM EEST on July 27, 2016","2016","07","27","20","30","Europe/Kiev","5:30 PM GMT on July 27, 2016","2016","07","27","17","30","UTC","27.0","80.6","16.0","60.8","51","3.6","2.2","-9999.0","-9999.0","260","West","8.0","5.0","1016","30.01","-999","-999","27.5","81.5","-9999.00","-9999.00","Unknown","unknown","0","0","0","0","0","0","METAR UKKK 271730Z 26001MPS 8000 NSC 27/16 Q1016 R26/CLRD70 NOSIG"
"9:00 PM EEST on July 27, 2016","2016","07","27","21","00","Europe/Kiev","6:00 PM GMT on July 27, 2016","2016","07","27","18","00","UTC","26","80","17","63","47","0.0","0.0","","","","","20","12","1016","30.01","-999","-999","-9999","-9999","","","Mostly Cloudy","mostlycloudy","0","0","0","0","0","0","AAXX 27181 33345 32998 60000 10264 20173 39970 40160 53006 86030 333 10320 555 10027"
"9:00 PM EEST on July 27, 2016","2016","07","27","21","00","Europe/Kiev","6:00 PM GMT on July 27, 2016","2016","07","27","18","00","UTC","25.0","77.0","18.0","64.4","65","0.0","0.0","-9999.0","-9999.0","0","North","8.0","5.0","1017","30.04","-999","-999","-9999","-9999","-9999.00","-9999.00","Unknown","unknown","0","0","0","0","0","0","METAR UKKK 271800Z 00000MPS 8000 NSC 25/18 Q1017 R26/CLRD70 NOSIG"
"9:30 PM EEST on July 27, 2016","2016","07","27","21","30","Europe/Kiev","6:30 PM GMT on July 27, 2016","2016","07","27","18","30","UTC","25.0","77.0","18.0","64.4","65","7.2","4.5","-9999.0","-9999.0","150","SSE","7.0","4.3","1017","30.04","-999","-999","-9999","-9999","-9999.00","-9999.00","Light Rain Showers","rain","0","1","0","0","0","0","METAR UKKK 271830Z 15002MPS 120V180 7000 -SHRA SCT030CB BKN100 25/18 Q1017 R26/190060 NOSIG"
"10:00 PM EEST on July 27, 2016","2016","07","27","22","00","Europe/Kiev","7:00 PM GMT on July 27, 2016","2016","07","27","19","00","UTC","24.0","75.2","20.0","68.0","78","0.0","0.0","-9999.0","-9999.0","0","North","8.0","5.0","1017","30.04","-999","-999","-9999","-9999","-9999.00","-9999.00","Unknown","unknown","0","0","0","0","0","0","METAR UKKK 271900Z 00000MPS 8000 NSC 24/20 Q1017 R26/190060 NOSIG"
"10:30 PM EEST on July 27, 2016","2016","07","27","22","30","Europe/Kiev","7:30 PM GMT on July 27, 2016","2016","07","27","19","30","UTC","22.0","71.6","19.0","66.2","83","0.0","0.0","-9999.0","-9999.0","0","North","6.0","3.7","1017","30.04","-999","-999","-9999","-9999","-9999.00","-9999.00","Unknown","unknown","0","0","0","0","0","0","METAR UKKK 271930Z 00000MPS 6000 NSC 22/19 Q1017 R26/190060 NOSIG"
"11:00 PM EEST on July 27, 2016","2016","07","27","23","00","Europe/Kiev","8:00 PM GMT on July 27, 2016","2016","07","27","20","00","UTC","21.0","69.8","19.0","66.2","88","0.0","0.0","-9999.0","-9999.0","0","North","5.0","3.1","1017","30.04","-999","-999","-9999","-9999","-9999.00","-9999.00","Mist","hazy","0","0","0","0","0","0","METAR UKKK 272000Z 00000MPS 5000 BR NSC 21/19 Q1017 R26/190060 NOSIG"
"11:30 PM EEST on July 27, 2016","2016","07","27","23","30","Europe/Kiev","8:30 PM GMT on July 27, 2016","2016","07","27","20","30","UTC","21.0","69.8","19.0","66.2","88","3.6","2.2","-9999.0","-9999.0","170","South","7.0","4.3","1017","30.04","-999","-999","-9999","-9999","-9999.00","-9999.00","Unknown","unknown","0","0","0","0","0","0","METAR UKKK 272030Z 17001MPS 7000 NSC 21/19 Q1017 R26/190060 NOSIG"
"12:00 AM EEST on July 28, 2016","2016","07","28","00","00","Europe/Kiev","9:00 PM GMT on July 27, 2016","2016","07","27","21","00","UTC","23","73","16","60","55","3.6","2.2","","","260","West","20","12","1016","30.02","-999","-999","-9999","-9999","","","","","0","0","0","0","0","0","AAXX 27211 33345 42998 02601 10229 20156 39972 40165 52002 555 10021"
"12:00 AM EEST on July 28, 2016","2016","07","28","00","00","Europe/Kiev","9:00 PM GMT on July 27, 2016","2016","07","27","21","00","UTC","21.0","69.8","18.0","64.4","83","0.0","0.0","-9999.0","-9999.0","0","North","8.0","5.0","1017","30.04","-999","-999","-9999","-9999","-9999.00","-9999.00","Unknown","unknown","0","0","0","0","0","0","METAR UKKK 272100Z 00000MPS 8000 NSC 21/18 Q1017 R26/CLRD70 NOSIG"
"12:30 AM EEST on July 28, 2016","2016","07","28","00","30","Europe/Kiev","9:30 PM GMT on July 27, 2016","2016","07","27","21","30","UTC","20.0","68.0","18.0","64.4","88","0.0","0.0","-9999.0","-9999.0","0","North","7.0","4.3","1017","30.04","-999","-999","-9999","-9999","-9999.00","-9999.00","Unknown","unknown","0","0","0","0","0","0","METAR UKKK 272130Z 00000MPS 7000 NSC 20/18 Q1017 R26/CLRD70 NOSIG"
"1:00 AM EEST on July 28, 2016","2016","07","28","01","00","Europe/Kiev","10:00 PM GMT on July 27, 2016","2016","07","27","22","00","UTC","20.0","68.0","18.0","64.4","88","0.0","0.0","-9999.0","-9999.0","0","North","7.0","4.3","1017","30.04","-999","-999","-9999","-9999","-9999.00","-9999.00","Unknown","unknown","0","0","0","0","0","0","METAR UKKK 272200Z 00000MPS 7000 NSC 20/18 Q1017 R26/CLRD70 NOSIG"
"1:30 AM EEST on July 28, 2016","2016","07","28","01","30","Europe/Kiev","10:30 PM GMT on July 27, 2016","2016","07","27","22","30","UTC","19.0","66.2","17.0","62.6","88","0.0","0.0","-9999.0","-9999.0","0","North","7.0","4.3","1017","30.04","-999","-999","-9999","-9999","-9999.00","-9999.00","Unknown","unknown","0","0","0","0","0","0","METAR UKKK 272230Z 00000MPS 7000 NSC 19/17 Q1017 R26/CLRD70 NOSIG"
"2:00 AM EEST on July 28, 2016","2016","07","28","02","00","Europe/Kiev","11:00 PM GMT on July 27, 2016","2016","07","27","23","00","UTC","19.0","66.2","17.0","62.6","88","3.6","2.2","-9999.0","-9999.0","290","WNW","7.0","4.3","1017","30.04","-999","-999","-9999","-9999","-9999.00","-9999.00","Unknown","unknown","0","0","0","0","0","0","METAR UKKK 272300Z 29001MPS 7000 NSC 19/17 Q1017 R26/CLRD70 NOSIG"
"2:30 AM EEST on July 28, 2016","2016","07","28","02","30","Europe/Kiev","11:30 PM GMT on July 27, 2016","2016","07","27","23","30","UTC","19.0","66.2","17.0","62.6","88","3.6","2.2","-9999.0","-9999.0","300","WNW","6.0","3.7","1017","30.04","-999","-999","-9999","-9999","-9999.00","-9999.00","Unknown","unknown","0","0","0","0","0","0","METAR UKKK 272330Z 30001MPS 6000 NSC 19/17 Q1017 R26/CLRD70 NOSIG"
"3:00 AM EEST on July 28, 2016","2016","07","28","03","00","Europe/Kiev","12:00 AM GMT on July 28, 2016","2016","07","28","00","00","UTC","22","72","15","60","56","3.6","2.2","","","260","West","20","12","1017","30.03","-999","-999","-9999","-9999","","","","","0","0","0","0","0","0","AAXX 28001 33345 32998 02601 10223 20153 39974 40167 52002 555 10020"
"3:00 AM EEST on July 28, 2016","2016","07","28","03","00","Europe/Kiev","12:00 AM GMT on July 28, 2016","2016","07","28","00","00","UTC","19.0","66.2","17.0","62.6","88","0.0","0.0","-9999.0","-9999.0","0","North","6.0","3.7","1017","30.04","-999","-999","-9999","-9999","-9999.00","-9999.00","Unknown","unknown","0","0","0","0","0","0","METAR UKKK 280000Z 00000MPS 6000 NSC 19/17 Q1017 R26/CLRD70 NOSIG"
"3:30 AM EEST on July 28, 2016","2016","07","28","03","30","Europe/Kiev","12:30 AM GMT on July 28, 2016","2016","07","28","00","30","UTC","18.0","64.4","16.0","60.8","88","0.0","0.0","-9999.0","-9999.0","0","North","7.0","4.3","1017","30.04","-999","-999","-9999","-9999","-9999.00","-9999.00","Unknown","unknown","0","0","0","0","0","0","METAR UKKK 280030Z 00000MPS 7000 NSC 18/16 Q1017 R08/CLRD70 NOSIG"
"4:00 AM EEST on July 28, 2016","2016","07","28","04","00","Europe/Kiev","1:00 AM GMT on July 28, 2016","2016","07","28","01","00","UTC","18.0","64.4","16.0","60.8","88","0.0","0.0","-9999.0","-9999.0","0","North","8.0","5.0","1017","30.04","-999","-999","-9999","-9999","-9999.00","-9999.00","Unknown","unknown","0","0","0","0","0","0","METAR UKKK 280100Z 00000MPS 8000 NSC 18/16 Q1017 R08/CLRD70 NOSIG"
"4:30 AM EEST on July 28, 2016","2016","07","28","04","30","Europe/Kiev","1:30 AM GMT on July 28, 2016","2016","07","28","01","30","UTC","18.0","64.4","16.0","60.8","88","0.0","0.0","-9999.0","-9999.0","0","North","8.0","5.0","1017","30.04","-999","-999","-9999","-9999","-9999.00","-9999.00","Unknown","unknown","0","0","0","0","0","0","METAR UKKK 280130Z 00000MPS 8000 NSC 18/16 Q1017 R08/CLRD70 NOSIG"
"5:00 AM EEST on July 28, 2016","2016","07","28","05","00","Europe/Kiev","2:00 AM GMT on July 28, 2016","2016","07","28","02","00","UTC","18.0","64.4","16.0","60.8","88","0.0","0.0","-9999.0","-9999.0","0","North","8.0","5.0","1017","30.04","-999","-999","-9999","-9999","-9999.00","-9999.00","Unknown","unknown","0","0","0","0","0","0","METAR UKKK 280200Z 00000MPS 8000 NSC 18/16 Q1017 R08/CLRD70 NOSIG"
"5:30 AM EEST on July 28, 2016","2016","07","28","05","30","Europe/Kiev","2:30 AM GMT on July 28, 2016","2016","07","28","02","30","UTC","17.0","62.6","16.0","60.8","94","0.0","0.0","-9999.0","-9999.0","0","North","8.0","5.0","1017","30.04","-999","-999","-9999","-9999","-9999.00","-9999.00","Unknown","unknown","0","0","0","0","0","0","METAR UKKK 280230Z 00000MPS 8000 NSC 17/16 Q1017 R08/CLRD70 NOSIG"
"6:00 AM EEST on July 28, 2016","2016","07","28","06","00","Europe/Kiev","3:00 AM GMT on July 28, 2016","2016","07","28","03","00","UTC","22","71","15","60","59","7.2","4.5","","","260","West","20","12","1017","30.04","-999","-999","-9999","-9999","","","","","0","0","0","0","0","0","AAXX 28031 33345 42998 02602 10218 20153 39976 40170 52002 555 10019"
"6:00 AM EEST on July 28, 2016","2016","07","28","06","00","Europe/Kiev","3:00 AM GMT on July 28, 2016","2016","07","28","03","00","UTC","18.0","64.4","16.0","60.8","88","0.0","0.0","-9999.0","-9999.0","0","North","8.0","5.0","1017","30.04","-999","-999","-9999","-9999","-9999.00","-9999.00","Clear","clear","0","0","0","0","0","0","METAR UKKK 280300Z 00000MPS 8000 SKC 18/16 Q1017 R08/CLRD70 NOSIG"
"6:30 AM EEST on July 28, 2016","2016","07","28","06","30","Europe/Kiev","3:30 AM GMT on July 28, 2016","2016","07","28","03","30","UTC","18.0","64.4","17.0","62.6","94","0.0","0.0","-9999.0","-9999.0","0","North","7.0","4.3","1017","30.04","-999","-999","-9999","-9999","-9999.00","-9999.00","Clear","clear","0","0","0","0","0","0","METAR UKKK 280330Z 00000MPS 7000 SKC 18/17 Q1017 R08/CLRD70 NOSIG"
"7:00 AM EEST on July 28, 2016","2016","07","28","07","00","Europe/Kiev","4:00 AM GMT on July 28, 2016","2016","07","28","04","00","UTC","20.0","68.0","18.0","64.4","88","0.0","0.0","-9999.0","-9999.0","0","North","8.0","5.0","1017","30.04","-999","-999","-9999","-9999","-9999.00","-9999.00","Clear","clear","0","0","0","0","0","0","METAR UKKK 280400Z 00000MPS 8000 SKC 20/18 Q1017 R08/CLRD70 NOSIG"
"7:30 AM EEST on July 28, 2016","2016","07","28","07","30","Europe/Kiev","4:30 AM GMT on July 28, 2016","2016","07","28","04","30","UTC","22.0","71.6","17.0","62.6","73","0.0","0.0","-9999.0","-9999.0","0","North","8.0","5.0","1017","30.04","-999","-999","-9999","-9999","-9999.00","-9999.00","Clear","clear","0","0","0","0","0","0","METAR UKKK 280430Z 00000MPS 8000 SKC 22/17 Q1017 R08/CLRD70 NOSIG"
"8:00 AM EEST on July 28, 2016","2016","07","28","08","00","Europe/Kiev","5:00 AM GMT on July 28, 2016","2016","07","28","05","00","UTC","23.0","73.4","18.0","64.4","73","3.6","2.2","-9999.0","-9999.0","0","Variable","9.0","5.6","1017","30.04","-999","-999","-9999","-9999","-9999.00","-9999.00","Clear","clear","0","0","0","0","0","0","METAR UKKK 280500Z VRB01MPS 9000 SKC 23/18 Q1017 R08/CLRD70 NOSIG"
"8:30 AM EEST on July 28, 2016","2016","07","28","08","30","Europe/Kiev","5:30 AM GMT on July 28, 2016","2016","07","28","05","30","UTC","24.0","75.2","18.0","64.4","69","7.2","4.5","-9999.0","-9999.0","250","WSW","9.0","5.6","1017","30.04","-999","-999","-9999","-9999","-9999.00","-9999.00","Clear","clear","0","0","0","0","0","0","METAR UKKK 280530Z 25002MPS 9000 SKC 24/18 Q1017 R26/CLRD70 NOSIG"
"9:00 AM EEST on July 28, 2016","2016","07","28","09","00","Europe/Kiev","6:00 AM GMT on July 28, 2016","2016","07","28","06","00","UTC","26","78","17","63","50","7.2","4.5","","","260","West","20","12","1017","30.02","-999","-999","-9999","-9999","","","","","0","0","0","0","0","0","AAXX 28061 33345 32998 02602 10256 20171 39975 40166 58001 333 20209 555 10034"
"9:00 AM EEST on July 28, 2016","2016","07","28","09","00","Europe/Kiev","6:00 AM GMT on July 28, 2016","2016","07","28","06","00","UTC","26.0","78.8","17.0","62.6","57","7.2","4.5","-9999.0","-9999.0","220","SW","9.0","5.6","1017","30.04","-999","-999","-9999","-9999","-9999.00","-9999.00","Clear","clear","0","0","0","0","0","0","METAR UKKK 280600Z 22002MPS 190V260 9000 SKC 26/17 Q1017 R26/CLRD70 NOSIG"
"9:30 AM EEST on July 28, 2016","2016","07","28","09","30","Europe/Kiev","6:30 AM GMT on July 28, 2016","2016","07","28","06","30","UTC","27.0","80.6","18.0","64.4","58","7.2","4.5","-9999.0","-9999.0","230","SW","9.0","5.6","1017","30.04","-999","-999","27.9","82.3","-9999.00","-9999.00","Clear","clear","0","0","0","0","0","0","METAR UKKK 280630Z 23002MPS 190V270 9000 SKC 27/18 Q1017 R26/CLRD70 NOSIG"
"10:00 AM EEST on July 28, 2016","2016","07","28","10","00","Europe/Kiev","7:00 AM GMT on July 28, 2016","2016","07","28","07","00","UTC","27.0","80.6","18.0","64.4","58","10.8","6.7","-9999.0","-9999.0","230","SW","-9999.0","-9999.0","1017","30.04","-999","-999","27.9","82.3","-9999.00","-9999.00","Clear","clear","0","0","0","0","0","0","METAR UKKK 280700Z 23003MPS CAVOK 27/18 Q1017 R26/CLRD70 NOSIG"
"10:30 AM EEST on July 28, 2016","2016","07","28","10","30","Europe/Kiev","7:30 AM GMT on July 28, 2016","2016","07","28","07","30","UTC","28.0","82.4","17.0","62.6","51","7.2","4.5","-9999.0","-9999.0","230","SW","-9999.0","-9999.0","1017","30.04","-999","-999","28.5","83.4","-9999.00","-9999.00","Clear","clear","0","0","0","0","0","0","METAR UKKK 280730Z 23002MPS 180V290 CAVOK 28/17 Q1017 R26/CLRD70 NOSIG"
"11:00 AM EEST on July 28, 2016","2016","07","28","11","00","Europe/Kiev","8:00 AM GMT on July 28, 2016","2016","07","28","08","00","UTC","29.0","84.2","18.0","64.4","51","7.2","4.5","-9999.0","-9999.0","210","SSW","-9999.0","-9999.0","1017","30.04","-999","-999","29.8","85.6","-9999.00","-9999.00","Clear","clear","0","0","0","0","0","0","METAR UKKK 280800Z 21002MPS 140V280 CAVOK 29/18 Q1017 R26/CLRD70 NOSIG"
"11:30 AM EEST on July 28, 2016","2016","07","28","11","30","Europe/Kiev","8:30 AM GMT on July 28, 2016","2016","07","28","08","30","UTC","29.0","84.2","17.0","62.6","48","7.2","4.5","-9999.0","-9999.0","250","WSW","-9999.0","-9999.0","1017","30.04","-999","-999","29.4","85.0","-9999.00","-9999.00","Clear","clear","0","0","0","0","0","0","METAR UKKK 280830Z 25002MPS CAVOK 29/17 Q1017 R26/CLRD70 NOSIG"
"12:00 PM EEST on July 28, 2016","2016","07","28","12","00","Europe/Kiev","9:00 AM GMT on July 28, 2016","2016","07","28","09","00","UTC","30","86","15","60","31","7.2","4.5","","","210","SSW","20","12","1016","30.01","-999","-999","-9999","-9999","","","","","0","0","0","0","0","0","AAXX 28091 33345 42998 02102 10300 20153 39973 40161 57002 555 10051"
"12:00 PM EEST on July 28, 2016","2016","07","28","12","00","Europe/Kiev","9:00 AM GMT on July 28, 2016","2016","07","28","09","00","UTC","30.0","86.0","17.0","62.6","45","10.8","6.7","-9999.0","-9999.0","220","SW","-9999.0","-9999.0","1017","30.04","-999","-999","30.3","86.6","-9999.00","-9999.00","Clear","clear","0","0","0","0","0","0","METAR UKKK 280900Z 22003MPS 180V270 CAVOK 30/17 Q1017 R26/CLRD70 NOSIG"
"12:30 PM EEST on July 28, 2016","2016","07","28","12","30","Europe/Kiev","9:30 AM GMT on July 28, 2016","2016","07","28","09","30","UTC","29.0","84.2","16.0","60.8","45","7.2","4.5","-9999.0","-9999.0","290","WNW","-9999.0","-9999.0","1017","30.04","-999","-999","29.1","84.4","-9999.00","-9999.00","Clear","clear","0","0","0","0","0","0","METAR UKKK 280930Z 29002MPS CAVOK 29/16 Q1017 R26/CLRD70 NOSIG"
"1:00 PM EEST on July 28, 2016","2016","07","28","13","00","Europe/Kiev","10:00 AM GMT on July 28, 2016","2016","07","28","10","00","UTC","31.0","87.8","17.0","62.6","43","7.2","4.5","-9999.0","-9999.0","150","SSE","-9999.0","-9999.0","1017","30.04","-999","-999","31.4","88.5","-9999.00","-9999.00","Clear","clear","0","0","0","0","0","0","METAR UKKK 281000Z 15002MPS 070V230 CAVOK 31/17 Q1017 R26/CLRD70 NOSIG"
"1:30 PM EEST on July 28, 2016","2016","07","28","13","30","Europe/Kiev","10:30 AM GMT on July 28, 2016","2016","07","28","10","30","UTC","30.0","86.0","16.0","60.8","43","0.0","0.0","-9999.0","-9999.0","0","North","-9999.0","-9999.0","1017","30.04","-999","-999","30.1","86.1","-9999.00","-9999.00","Clear","clear","0","0","0","0","0","0","METAR UKKK 281030Z 00000MPS CAVOK 30/16 Q1017 R26/CLRD70 NOSIG"
"2:00 PM EEST on July 28, 2016","2016","07","28","14","00","Europe/Kiev","11:00 AM GMT on July 28, 2016","2016","07","28","11","00","UTC","31.0","87.8","15.0","59.0","38","10.8","6.7","-9999.0","-9999.0","240","WSW","-9999.0","-9999.0","1016","30.01","-999","-999","30.6","87.1","-9999.00","-9999.00","Clear","clear","0","0","0","0","0","0","METAR UKKK 281100Z 24003MPS 200V290 CAVOK 31/15 Q1016 R26/CLRD70 NOSIG"
"2:30 PM EEST on July 28, 2016","2016","07","28","14","30","Europe/Kiev","11:30 AM GMT on July 28, 2016","2016","07","28","11","30","UTC","31.0","87.8","15.0","59.0","38","10.8","6.7","-9999.0","-9999.0","250","WSW","-9999.0","-9999.0","1016","30.01","-999","-999","30.6","87.1","-9999.00","-9999.00","Clear","clear","0","0","0","0","0","0","METAR UKKK 281130Z 25003MPS 180V300 CAVOK 31/15 Q1016 R26/CLRD70 NOSIG"
"3:00 PM EEST on July 28, 2016","2016","07","28","15","00","Europe/Kiev","12:00 PM GMT on July 28, 2016","2016","07","28","12","00","UTC","32","89","16","62","30","7.2","4.5","","","140","SE","20","12","1015","29.98","-999","-999","-9999","-9999","","","","","0","0","0","0","0","0","AAXX 28121 33345 32998 01402 10318 20165 39964 40151 57009 555 10052"
"3:00 PM EEST on July 28, 2016","2016","07","28","15","00","Europe/Kiev","12:00 PM GMT on July 28, 2016","2016","07","28","12","00","UTC","31.0","87.8","15.0","59.0","38","10.8","6.7","-9999.0","-9999.0","130","SE","-9999.0","-9999.0","1016","30.01","-999","-999","30.6","87.1","-9999.00","-9999.00","Clear","clear","0","0","0","0","0","0","METAR UKKK 281200Z 13003MPS CAVOK 31/15 Q1016 R26/CLRD70 NOSIG"
"3:30 PM EEST on July 28, 2016","2016","07","28","15","30","Europe/Kiev","12:30 PM GMT on July 28, 2016","2016","07","28","12","30","UTC","31.0","87.8","15.0","59.0","38","7.2","4.5","-9999.0","-9999.0","250","WSW","-9999.0","-9999.0","1016","30.01","-999","-999","30.6","87.1","-9999.00","-9999.00","Clear","clear","0","0","0","0","0","0","METAR UKKK 281230Z 25002MPS CAVOK 31/15 Q1016 R26/CLRD70 NOSIG"
"4:00 PM EEST on July 28, 2016","2016","07","28","16","00","Europe/Kiev","1:00 PM GMT on July 28, 2016","2016","07","28","13","00","UTC","31.0","87.8","15.0","59.0","38","7.2","4.5","-9999.0","-9999.0","180","South","-9999.0","-9999.0","1016","30.01","-999","-999","30.6","87.1","-9999.00","-9999.00","Clear","clear","0","0","0","0","0","0","METAR UKKK 281300Z 18002MPS CAVOK 31/15 Q1016 R26/CLRD70 NOSIG"
"4:30 PM EEST on July 28, 2016","2016","07","28","16","30","Europe/Kiev","1:30 PM GMT on July 28, 2016","2016","07","28","13","30","UTC","31.0","87.8","13.0","55.4","33","10.8","6.7","-9999.0","-9999.0","240","WSW","-9999.0","-9999.0","1015","29.98","-999","-999","30.0","86.1","-9999.00","-9999.00","Clear","clear","0","0","0","0","0","0","METAR UKKK 281330Z 24003MPS 190V280 CAVOK 31/13 Q1015 R26/CLRD70 NOSIG"
"5:00 PM EEST on July 28, 2016","2016","07","28","17","00","Europe/Kiev","2:00 PM GMT on July 28, 2016","2016","07","28","14","00","UTC","31.0","87.8","16.0","60.8","40","7.2","4.5","-9999.0","-9999.0","220","SW","-9999.0","-9999.0","1015","29.98","-999","-999","30.9","87.6","-9999.00","-9999.00","Clear","clear","0","0","0","0","0","0","METAR UKKK 281400Z 22002MPS 180V280 CAVOK 31/16 Q1015 R26/CLRD70 NOSIG"
"5:30 PM EEST on July 28, 2016","2016","07","28","17","30","Europe/Kiev","2:30 PM GMT on July 28, 2016","2016","07","28","14","30","UTC","31.0","87.8","15.0","59.0","38","7.2","4.5","-9999.0","-9999.0","200","SSW","-9999.0","-9999.0","1015","29.98","-999","-999","30.6","87.1","-9999.00","-9999.00","Clear","clear","0","0","0","0","0","0","METAR UKKK 281430Z 20002MPS 150V250 CAVOK 31/15 Q1015 R26/CLRD70 NOSIG"
"6:00 PM EEST on July 28, 2016","2016","07","28","18","00","Europe/Kiev","3:00 PM GMT on July 28, 2016","2016","07","28","15","00","UTC","31","88","15","60","28","7.2","4.5","","","180","South","20","12","1014","29.94","-999","-999","-9999","-9999","","","Scattered Clouds","partlycloudy","0","0","0","0","0","0","AAXX 28151 33345 42598 11802 10311 20153 39952 40139 57012 81100 555 10042"
"6:00 PM EEST on July 28, 2016","2016","07","28","18","00","Europe/Kiev","3:00 PM GMT on July 28, 2016","2016","07","28","15","00","UTC","31.0","87.8","16.0","60.8","40","7.2","4.5","-9999.0","-9999.0","180","South","-9999.0","-9999.0","1015","29.98","-999","-999","30.9","87.6","-9999.00","-9999.00","Clear","clear","0","0","0","0","0","0","METAR UKKK 281500Z 18002MPS 140V220 CAVOK 31/16 Q1015 R26/CLRD70 NOSIG"
"6:30 PM EEST on July 28, 2016","2016","07","28","18","30","Europe/Kiev","3:30 PM GMT on July 28, 2016","2016","07","28","15","30","UTC","30.0","86.0","16.0","60.8","43","10.8","6.7","-9999.0","-9999.0","160","SSE","-9999.0","-9999.0","1014","29.95","-999","-999","30.1","86.1","-9999.00","-9999.00","Clear","clear","0","0","0","0","0","0","METAR UKKK 281530Z 16003MPS 140V200 CAVOK 30/16 Q1014 R26/CLRD70 NOSIG"
"7:00 PM EEST on July 28, 2016","2016","07","28","19","00","Europe/Kiev","4:00 PM GMT on July 28, 2016","2016","07","28","16","00","UTC","30.0","86.0","15.0","59.0","40","7.2","4.5","-9999.0","-9999.0","170","South","-9999.0","-9999.0","1014","29.95","-999","-999","29.7","85.4","-9999.00","-9999.00","Clear","clear","0","0","0","0","0","0","METAR UKKK 281600Z 17002MPS 140V200 CAVOK 30/15 Q1014 R26/CLRD70 NOSIG"
"7:30 PM EEST on July 28, 2016","2016","07","28","19","30","Europe/Kiev","4:30 PM GMT on July 28, 2016","2016","07","28","16","30","UTC","29.0","84.2","15.0","59.0","42","7.2","4.5","-9999.0","-9999.0","170","South","-9999.0","-9999.0","1014","29.95","-999","-999","28.8","83.8","-9999.00","-9999.00","Clear","clear","0","0","0","0","0","0","METAR UKKK 281630Z 17002MPS 140V210 CAVOK 29/15 Q1014 R08/CLRD70 NOSIG"
"8:00 PM EEST on July 28, 2016","2016","07","28","20","00","Europe/Kiev","5:00 PM GMT on July 28, 2016","2016","07","28","17","00","UTC","29.0","84.2","15.0","59.0","42","7.2","4.5","-9999.0","-9999.0","170","South","8.0","5.0","1014","29.95","-999","-999","28.8","83.8","-9999.00","-9999.00","Unknown","unknown","0","0","0","0","0","0","METAR UKKK 281700Z 17002MPS 140V210 8000 NSC 29/15 Q1014 R08/CLRD70 NOSIG"
"8:30 PM EEST on July 28, 2016","2016","07","28","20","30","Europe/Kiev","5:30 PM GMT on July 28, 2016","2016","07","28","17","30","UTC","27.0","80.6","15.0","59.0","48","3.6","2.2","-9999.0","-9999.0","0","Variable","-9999.0","-9999.0","1014","29.95","-999","-999","27.3","81.1","-9999.00","-9999.00","Clear","clear","0","0","0","0","0","0","METAR UKKK 281730Z VRB01MPS CAVOK 27/15 Q1014 R08/CLRD70 NOSIG"
"9:00 PM EEST on July 28, 2016","2016","07","28","21","00","Europe/Kiev","6:00 PM GMT on July 28, 2016","2016","07","28","18","00","UTC","25","77","18","64","55","3.6","2.2","","","200","SSW","20","12","1014","29.95","-999","-999","-9999","-9999","","","","","0","0","0","0","0","0","AAXX 28181 33345 32998 02001 10252 20177 39951 40142 56001 333 10322 555 10025"
"9:00 PM EEST on July 28, 2016","2016","07","28","21","00","Europe/Kiev","6:00 PM GMT on July 28, 2016","2016","07","28","18","00","UTC","25.0","77.0","15.0","59.0","54","3.6","2.2","-9999.0","-9999.0","0","Variable","-9999.0","-9999.0","1015","29.98","-999","-999","-9999","-9999","-9999.00","-9999.00","Clear","clear","0","0","0","0","0","0","METAR UKKK 281800Z VRB01MPS CAVOK 25/15 Q1015 R08/CLRD70 NOSIG"
"9:30 PM EEST on July 28, 2016","2016","07","28","21","30","Europe/Kiev","6:30 PM GMT on July 28, 2016","2016","07","28","18","30","UTC","25.0","77.0","16.0","60.8","57","3.6","2.2","-9999.0","-9999.0","170","South","-9999.0","-9999.0","1015","29.98","-999","-999","-9999","-9999","-9999.00","-9999.00","Clear","clear","0","0","0","0","0","0","METAR UKKK 281830Z 17001MPS CAVOK 25/16 Q1015 R08/CLRD70 NOSIG"
"10:00 PM EEST on July 28, 2016","2016","07","28","22","00","Europe/Kiev","7:00 PM GMT on July 28, 2016","2016","07","28","19","00","UTC","25.0","77.0","16.0","60.8","57","7.2","4.5","-9999.0","-9999.0","170","South","-9999.0","-9999.0","1015","29.98","-999","-999","-9999","-9999","-9999.00","-9999.00","Clear","clear","0","0","0","0","0","0","METAR UKKK 281900Z 17002MPS 130V210 CAVOK 25/16 Q1015 R08/CLRD70 NOSIG"
"10:30 PM EEST on July 28, 2016","2016","07","28","22","30","Europe/Kiev","7:30 PM GMT on July 28, 2016","2016","07","28","19","30","UTC","25.0","77.0","16.0","60.8","57","3.6","2.2","-9999.0","-9999.0","0","Variable","-9999.0","-9999.0","1015","29.98","-999","-999","-9999","-9999","-9999.00","-9999.00","Clear","clear","0","0","0","0","0","0","METAR UKKK 281930Z VRB01MPS CAVOK 25/16 Q1015 R08/CLRD70 NOSIG"
"11:00 PM EEST on July 28, 2016","2016","07","28","23","00","Europe/Kiev","8:00 PM GMT on July 28, 2016","2016","07","28","20","00","UTC","25.0","77.0","16.0","60.8","57","7.2","4.5","-9999.0","-9999.0","180","South","-9999.0","-9999.0","1015","29.98","-999","-999","-9999","-9999","-9999.00","-9999.00","Clear","clear","0","0","0","0","0","0","METAR UKKK 282000Z 18002MPS 140V210 CAVOK 25/16 Q1015 R08/CLRD70 NOSIG"
"11:30 PM EEST on July 28, 2016","2016","07","28","23","30","Europe/Kiev","8:30 PM GMT on July 28, 2016","2016","07","28","20","30","UTC","25.0","77.0","16.0","60.8","57","7.2","4.5","-9999.0","-9999.0","170","South","-9999.0","-9999.0","1015","29.98","-999","-999","-9999","-9999","-9999.00","-9999.00","Clear","clear","0","0","0","0","0","0","METAR UKKK 282030Z 17002MPS 130V210 CAVOK 25/16 Q1015 R08/CLRD70 NOSIG"
"12:00 AM EEST on July 29, 2016","2016","07","29","00","00","Europe/Kiev","9:00 PM GMT on July 28, 2016","2016","07","28","21","00","UTC","25","77","15","60","45","10.8","6.7","","","210","SSW","20","12","1014","29.96","-999","-999","-9999","-9999","","","","","0","0","0","0","0","0","AAXX 28211 33345 42998 02103 10249 20153 39952 40143 53001 555 10022"
"12:00 AM EEST on July 29, 2016","2016","07","29","00","00","Europe/Kiev","9:00 PM GMT on July 28, 2016","2016","07","28","21","00","UTC","25.0","77.0","16.0","60.8","57","7.2","4.5","-9999.0","-9999.0","180","South","-9999.0","-9999.0","1015","29.98","-999","-999","-9999","-9999","-9999.00","-9999.00","Clear","clear","0","0","0","0","0","0","METAR UKKK 282100Z 18002MPS 110V230 CAVOK 25/16 Q1015 R08/CLRD70 NOSIG"
"12:30 AM EEST on July 29, 2016","2016","07","29","00","30","Europe/Kiev","9:30 PM GMT on July 28, 2016","2016","07","28","21","30","UTC","24.0","75.2","16.0","60.8","61","7.2","4.5","-9999.0","-9999.0","170","South","-9999.0","-9999.0","1015","29.98","-999","-999","-9999","-9999","-9999.00","-9999.00","Clear","clear","0","0","0","0","0","0","METAR UKKK 282130Z 17002MPS 120V230 CAVOK 24/16 Q1015 R08/CLRD70 NOSIG"
"1:00 AM EEST on July 29, 2016","2016","07","29","01","00","Europe/Kiev","10:00 PM GMT on July 28, 2016","2016","07","28","22","00","UTC","23.0","73.4","16.0","60.8","65","3.6","2.2","-9999.0","-9999.0","0","Variable","-9999.0","-9999.0","1015","29.98","-999","-999","-9999","-9999","-9999.00","-9999.00","Clear","clear","0","0","0","0","0","0","METAR UKKK 282200Z VRB01MPS CAVOK 23/16 Q1015 R08/CLRD70 NOSIG"
"1:30 AM EEST on July 29, 2016","2016","07","29","01","30","Europe/Kiev","10:30 PM GMT on July 28, 2016","2016","07","28","22","30","UTC","23.0","73.4","15.0","59.0","61","7.2","4.5","-9999.0","-9999.0","200","SSW","-9999.0","-9999.0","1015","29.98","-999","-999","-9999","-9999","-9999.00","-9999.00","Clear","clear","0","0","0","0","0","0","METAR UKKK 282230Z 20002MPS 140V240 CAVOK 23/15 Q1015 R08/CLRD70 NOSIG"
"2:00 AM EEST on July 29, 2016","2016","07","29","02","00","Europe/Kiev","11:00 PM GMT on July 28, 2016","2016","07","28","23","00","UTC","22.0","71.6","15.0","59.0","64","3.6","2.2","-9999.0","-9999.0","0","Variable","-9999.0","-9999.0","1015","29.98","-999","-999","-9999","-9999","-9999.00","-9999.00","Clear","clear","0","0","0","0","0","0","METAR UKKK 282300Z VRB01MPS CAVOK 22/15 Q1015 R08/CLRD70 NOSIG"
"2:30 AM EEST on July 29, 2016","2016","07","29","02","30","Europe/Kiev","11:30 PM GMT on July 28, 2016","2016","07","28","23","30","UTC","21.0","69.8","15.0","59.0","68","3.6","2.2","-9999.0","-9999.0","0","Variable","-9999.0","-9999.0","1014","29.95","-999","-999","-9999","-9999","-9999.00","-9999.00","Clear","clear","0","0","0","0","0","0","METAR UKKK 282330Z VRB01MPS CAVOK 21/15 Q1014 R08/CLRD70 NOSIG"
"3:00 AM EEST on July 29, 2016","2016","07","29","03","00","Europe/Kiev","12:00 AM GMT on July 29, 2016","2016","07","29","00","00","UTC","23","73","15","59","52","10.8","6.7","","","210","SSW","20","12","1014","29.95","-999","-999","-9999","-9999","","","","","0","0","0","0","0","0","AAXX 29001 33345 32998 02103 10227 20150 39947 40140 58005 555 10020"
"3:00 AM EEST on July 29, 2016","2016","07","29","03","00","Europe/Kiev","12:00 AM GMT on July 29, 2016","2016","07","29","00","00","UTC","20.0","68.0","15.0","59.0","73","0.0","0.0","-9999.0","-9999.0","0","North","-9999.0","-9999.0","1014","29.95","-999","-999","-9999","-9999","-9999.00","-9999.00","Clear","clear","0","0","0","0","0","0","METAR UKKK 290000Z 00000MPS CAVOK 20/15 Q1014 R08/CLRD70 NOSIG"
"3:30 AM EEST on July 29, 2016","2016","07","29","03","30","Europe/Kiev","12:30 AM GMT on July 29, 2016","2016","07","29","00","30","UTC","20.0","68.0","16.0","60.8","78","0.0","0.0","-9999.0","-9999.0","0","North","-9999.0","-9999.0","1014","29.95","-999","-999","-9999","-9999","-9999.00","-9999.00","Clear","clear","0","0","0","0","0","0","METAR UKKK 290030Z 00000MPS CAVOK 20/16 Q1014 R08/CLRD70 NOSIG"
"4:00 AM EEST on July 29, 2016","2016","07","29","04","00","Europe/Kiev","1:00 AM GMT on July 29, 2016","2016","07","29","01","00","UTC","18.0","64.4","16.0","60.8","88","0.0","0.0","-9999.0","-9999.0","0","North","-9999.0","-9999.0","1014","29.95","-999","-999","-9999","-9999","-9999.00","-9999.00","Clear","clear","0","0","0","0","0","0","METAR UKKK 290100Z 00000MPS CAVOK 18/16 Q1014 R08/CLRD70 NOSIG"
"4:30 AM EEST on July 29, 2016","2016","07","29","04","30","Europe/Kiev","1:30 AM GMT on July 29, 2016","2016","07","29","01","30","UTC","20.0","68.0","16.0","60.8","78","3.6","2.2","-9999.0","-9999.0","0","Variable","-9999.0","-9999.0","1014","29.95","-999","-999","-9999","-9999","-9999.00","-9999.00","Clear","clear","0","0","0","0","0","0","METAR UKKK 290130Z VRB01MPS CAVOK 20/16 Q1014 R08/CLRD70 NOSIG"
"5:00 AM EEST on July 29, 2016","2016","07","29","05","00","Europe/Kiev","2:00 AM GMT on July 29, 2016","2016","07","29","02","00","UTC","18.0","64.4","16.0","60.8","88","0.0","0.0","-9999.0","-9999.0","0","North","9.0","5.6","1014","29.95","-999","-999","-9999","-9999","-9999.00","-9999.00","Clear","clear","0","0","0","0","0","0","METAR UKKK 290200Z 00000MPS 9000 SKC 18/16 Q1014 R08/CLRD70 NOSIG"
"5:30 AM EEST on July 29, 2016","2016","07","29","05","30","Europe/Kiev","2:30 AM GMT on July 29, 2016","2016","07","29","02","30","UTC","18.0","64.4","16.0","60.8","88","0.0","0.0","-9999.0","-9999.0","0","North","-9999.0","-9999.0","1014","29.95","-999","-999","-9999","-9999","-9999.00","-9999.00","Clear","clear","0","0","0","0","0","0","METAR UKKK 290230Z 00000MPS CAVOK 18/16 Q1014 R08/CLRD70 NOSIG"
"6:00 AM EEST on July 29, 2016","2016","07","29","06","00","Europe/Kiev","3:00 AM GMT on July 29, 2016","2016","07","29","03","00","UTC","21","69","15","60","65","3.6","2.2","","","240","WSW","20","12","1014","29.95","-999","-999","-9999","-9999","","","","","0","0","0","0","0","0","AAXX 29031 33345 42998 02401 10206 20154 39947 40141 54000 555 10019"
"6:00 AM EEST on July 29, 2016","2016","07","29","06","00","Europe/Kiev","3:00 AM GMT on July 29, 2016","2016","07","29","03","00","UTC","18.0","64.4","16.0","60.8","88","0.0","0.0","-9999.0","-9999.0","0","North","-9999.0","-9999.0","1014","29.95","-999","-999","-9999","-9999","-9999.00","-9999.00","Clear","clear","0","0","0","0","0","0","METAR UKKK 290300Z 00000MPS CAVOK 18/16 Q1014 R08/CLRD70 NOSIG"
"6:30 AM EEST on July 29, 2016","2016","07","29","06","30","Europe/Kiev","3:30 AM GMT on July 29, 2016","2016","07","29","03","30","UTC","19.0","66.2","16.0","60.8","83","0.0","0.0","-9999.0","-9999.0","0","North","9.0","5.6","1014","29.95","-999","-999","-9999","-9999","-9999.00","-9999.00","Clear","clear","0","0","0","0","0","0","METAR UKKK 290330Z 00000MPS 9000 SKC 19/16 Q1014 R08/CLRD70 NOSIG"
"7:00 AM EEST on July 29, 2016","2016","07","29","07","00","Europe/Kiev","4:00 AM GMT on July 29, 2016","2016","07","29","04","00","UTC","20.0","68.0","17.0","62.6","83","0.0","0.0","-9999.0","-9999.0","0","North","9.0","5.6","1014","29.95","-999","-999","-9999","-9999","-9999.00","-9999.00","Clear","clear","0","0","0","0","0","0","METAR UKKK 290400Z 00000MPS 9000 SKC 20/17 Q1014 R08/CLRD70 NOSIG"
"7:30 AM EEST on July 29, 2016","2016","07","29","07","30","Europe/Kiev","4:30 AM GMT on July 29, 2016","2016","07","29","04","30","UTC","23.0","73.4","17.0","62.6","69","0.0","0.0","-9999.0","-9999.0","0","North","-9999.0","-9999.0","1014","29.95","-999","-999","-9999","-9999","-9999.00","-9999.00","Clear","clear","0","0","0","0","0","0","METAR UKKK 290430Z 00000MPS CAVOK 23/17 Q1014 R08/CLRD70 NOSIG"
"8:00 AM EEST on July 29, 2016","2016","07","29","08","00","Europe/Kiev","5:00 AM GMT on July 29, 2016","2016","07","29","05","00","UTC","24.0","75.2","17.0","62.6","65","0.0","0.0","-9999.0","-9999.0","0","North","-9999.0","-9999.0","1014","29.95","-999","-999","-9999","-9999","-9999.00","-9999.00","Clear","clear","0","0","0","0","0","0","METAR UKKK 290500Z 00000MPS CAVOK 24/17 Q1014 R08/CLRD70 NOSIG"
"8:30 AM EEST on July 29, 2016","2016","07","29","08","30","Europe/Kiev","5:30 AM GMT on July 29, 2016","2016","07","29","05","30","UTC","25.0","77.0","18.0","64.4","65","7.2","4.5","-9999.0","-9999.0","230","SW","-9999.0","-9999.0","1014","29.95","-999","-999","-9999","-9999","-9999.00","-9999.00","Clear","clear","0","0","0","0","0","0","METAR UKKK 290530Z 23002MPS 190V270 CAVOK 25/18 Q1014 R26/CLRD70 NOSIG"
"9:00 AM EEST on July 29, 2016","2016","07","29","09","00","Europe/Kiev","6:00 AM GMT on July 29, 2016","2016","07","29","06","00","UTC","25","78","17","63","50","7.2","4.5","","","240","WSW","20","12","1014","29.94","-999","-999","-9999","-9999","","","","","0","0","0","0","0","0","AAXX 29061 33345 32998 02402 10253 20170 39947 40138 54000 333 20205 555 10034"
"9:00 AM EEST on July 29, 2016","2016","07","29","09","00","Europe/Kiev","6:00 AM GMT on July 29, 2016","2016","07","29","06","00","UTC","26.0","78.8","17.0","62.6","57","10.8","6.7","-9999.0","-9999.0","230","SW","-9999.0","-9999.0","1014","29.95","-999","-999","-9999","-9999","-9999.00","-9999.00","Clear","clear","0","0","0","0","0","0","METAR UKKK 290600Z 23003MPS 200V260 CAVOK 26/17 Q1014 R26/CLRD70 NOSIG"
"9:30 AM EEST on July 29, 2016","2016","07","29","09","30","Europe/Kiev","6:30 AM GMT on July 29, 2016","2016","07","29","06","30","UTC","27.0","80.6","17.0","62.6","54","10.8","6.7","-9999.0","-9999.0","210","SSW","-9999.0","-9999.0","1014","29.95","-999","-999","27.7","81.8","-9999.00","-9999.00","Clear","clear","0","0","0","0","0","0","METAR UKKK 290630Z 21003MPS 180V250 CAVOK 27/17 Q1014 R26/CLRD70 NOSIG"
"10:00 AM EEST on July 29, 2016","2016","07","29","10","00","Europe/Kiev","7:00 AM GMT on July 29, 2016","2016","07","29","07","00","UTC","28.0","82.4","17.0","62.6","51","10.8","6.7","-9999.0","-9999.0","240","WSW","-9999.0","-9999.0","1014","29.95","-999","-999","28.5","83.4","-9999.00","-9999.00","Clear","clear","0","0","0","0","0","0","METAR UKKK 290700Z 24003MPS 180V260 CAVOK 28/17 Q1014 R26/CLRD70 NOSIG"
"10:30 AM EEST on July 29, 2016","2016","07","29","10","30","Europe/Kiev","7:30 AM GMT on July 29, 2016","2016","07","29","07","30","UTC","29.0","84.2","18.0","64.4","51","10.8","6.7","-9999.0","-9999.0","210","SSW","-9999.0","-9999.0","1014","29.95","-999","-999","29.8","85.6","-9999.00","-9999.00","Clear","clear","0","0","0","0","0","0","METAR UKKK 290730Z 21003MPS 160V250 CAVOK 29/18 Q1014 R26/CLRD70 NOSIG"
"11:00 AM EEST on July 29, 2016","2016","07","29","11","00","Europe/Kiev","8:00 AM GMT on July 29, 2016","2016","07","29","08","00","UTC","30.0","86.0","17.0","62.6","45","10.8","6.7","-9999.0","-9999.0","210","SSW","-9999.0","-9999.0","1014","29.95","-999","-999","30.3","86.6","-9999.00","-9999.00","Clear","clear","0","0","0","0","0","0","METAR UKKK 290800Z 21003MPS 170V260 CAVOK 30/17 Q1014 R26/CLRD70 NOSIG"
"11:30 AM EEST on July 29, 2016","2016","07","29","11","30","Europe/Kiev","8:30 AM GMT on July 29, 2016","2016","07","29","08","30","UTC","30.0","86.0","16.0","60.8","43","10.8","6.7","-9999.0","-9999.0","210","SSW","-9999.0","-9999.0","1014","29.95","-999","-999","30.1","86.1","-9999.00","-9999.00","Clear","clear","0","0","0","0","0","0","METAR UKKK 290830Z 21003MPS 170V250 CAVOK 30/16 Q1014 R26/CLRD70 NOSIG"
"12:00 PM EEST on July 29, 2016","2016","07","29","12","00","Europe/Kiev","9:00 AM GMT on July 29, 2016","2016","07","29","09","00","UTC","31","88","15","58","26","10.8","6.7","","","210","SSW","20","12","1013","29.91","-999","-999","-9999","-9999","","","","","0","0","0","0","0","0","AAXX 29091 33345 42998 02103 10312 20146 39942 40129 58005 555 10051"
"12:00 PM EEST on July 29, 2016","2016","07","29","12","00","Europe/Kiev","9:00 AM GMT on July 29, 2016","2016","07","29","09","00","UTC","31.0","87.8","15.0","59.0","38","14.4","8.9","-9999.0","-9999.0","220","SW","-9999.0","-9999.0","1014","29.95","-999","-999","30.6","87.1","-9999.00","-9999.00","Clear","clear","0","0","0","0","0","0","METAR UKKK 290900Z 22004MPS 180V250 CAVOK 31/15 Q1014 R26/CLRD70 NOSIG"
"12:30 PM EEST on July 29, 2016","2016","07","29","12","30","Europe/Kiev","9:30 AM GMT on July 29, 2016","2016","07","29","09","30","UTC","31.0","87.8","14.0","57.2","35","10.8","6.7","-9999.0","-9999.0","190","South","-9999.0","-9999.0","1014","29.95","-999","-999","30.3","86.5","-9999.00","-9999.00","Clear","clear","0","0","0","0","0","0","METAR UKKK 290930Z 19003MPS 150V230 CAVOK 31/14 Q1014 R26/CLRD70 NOSIG"
"1:00 PM EEST on July 29, 2016","2016","07","29","13","00","Europe/Kiev","10:00 AM GMT on July 29, 2016","2016","07","29","10","00","UTC","32.0","89.6","17.0","62.6","40","10.8","6.7","-9999.0","-9999.0","160","SSE","-9999.0","-9999.0","1013","29.92","-999","-999","32.3","90.1","-9999.00","-9999.00","Clear","clear","0","0","0","0","0","0","METAR UKKK 291000Z 16003MPS 130V210 CAVOK 32/17 Q1013 R26/CLRD70 NOSIG"
"1:30 PM EEST on July 29, 2016","2016","07","29","13","30","Europe/Kiev","10:30 AM GMT on July 29, 2016","2016","07","29","10","30","UTC","32.0","89.6","17.0","62.6","40","10.8","6.7","-9999.0","-9999.0","190","South","-9999.0","-9999.0","1013","29.92","-999","-999","32.3","90.1","-9999.00","-9999.00","Clear","clear","0","0","0","0","0","0","METAR UKKK 291030Z 19003MPS 130V260 CAVOK 32/17 Q1013 R26/CLRD70 NOSIG"
"2:00 PM EEST on July 29, 2016","2016","07","29","14","00","Europe/Kiev","11:00 AM GMT on July 29, 2016","2016","07","29","11","00","UTC","32.0","89.6","14.0","57.2","33","10.8","6.7","-9999.0","-9999.0","180","South","-9999.0","-9999.0","1013","29.92","-999","-999","31.2","88.1","-9999.00","-9999.00","Clear","clear","0","0","0","0","0","0","METAR UKKK 291100Z 18003MPS 100V240 CAVOK 32/14 Q1013 R26/CLRD70 NOSIG"
"2:30 PM EEST on July 29, 2016","2016","07","29","14","30","Europe/Kiev","11:30 AM GMT on July 29, 2016","2016","07","29","11","30","UTC","32.0","89.6","15.0","59.0","36","10.8","6.7","-9999.0","-9999.0","190","South","-9999.0","-9999.0","1013","29.92","-999","-999","31.6","88.9","-9999.00","-9999.00","Clear","clear","0","0","0","0","0","0","METAR UKKK 291130Z 19003MPS 140V240 CAVOK 32/15 Q1013 R26/CLRD70 NOSIG"
"3:00 PM EEST on July 29, 2016","2016","07","29","15","00","Europe/Kiev","12:00 PM GMT on July 29, 2016","2016","07","29","12","00","UTC","33","91","14","58","23","7.2","4.5","","","140","SE","20","12","1012","29.87","-999","-999","-9999","-9999","","","Partly Cloudy","partlycloudy","0","0","0","0","0","0","AAXX 29121 33345 32698 41402 10330 20143 39929 40115 58013 83802 555 10052"
"3:00 PM EEST on July 29, 2016","2016","07","29","15","00","Europe/Kiev","12:00 PM GMT on July 29, 2016","2016","07","29","12","00","UTC","31.0","87.8","15.0","59.0","38","10.8","6.7","-9999.0","-9999.0","120","ESE","-9999.0","-9999.0","1012","29.89","-999","-999","30.6","87.1","-9999.00","-9999.00","Clear","clear","0","0","0","0","0","0","METAR UKKK 291200Z 12003MPS 060V190 CAVOK 31/15 Q1012 R26/CLRD70 NOSIG"
"3:30 PM EEST on July 29, 2016","2016","07","29","15","30","Europe/Kiev","12:30 PM GMT on July 29, 2016","2016","07","29","12","30","UTC","32.0","89.6","15.0","59.0","36","7.2","4.5","-9999.0","-9999.0","190","South","-9999.0","-9999.0","1012","29.89","-999","-999","31.6","88.9","-9999.00","-9999.00","Clear","clear","0","0","0","0","0","0","METAR UKKK 291230Z 19002MPS 160V220 CAVOK 32/15 Q1012 R26/CLRD70 NOSIG"
"4:00 PM EEST on July 29, 2016","2016","07","29","16","00","Europe/Kiev","1:00 PM GMT on July 29, 2016","2016","07","29","13","00","UTC","31.0","87.8","16.0","60.8","40","7.2","4.5","-9999.0","-9999.0","200","SSW","10.0","6.2","1012","29.89","-999","-999","30.9","87.6","-9999.00","-9999.00","Mostly Cloudy","mostlycloudy","0","0","0","0","0","0","METAR UKKK 291300Z 20002MPS 170V250 9999 FEW033CB BKN100 31/16 Q1012 R26/CLRD70 NOSIG"
"4:30 PM EEST on July 29, 2016","2016","07","29","16","30","Europe/Kiev","1:30 PM GMT on July 29, 2016","2016","07","29","13","30","UTC","31.0","87.8","16.0","60.8","40","14.4","8.9","-9999.0","-9999.0","180","South","10.0","6.2","1011","29.86","-999","-999","30.9","87.6","-9999.00","-9999.00","Mostly Cloudy","mostlycloudy","0","0","0","0","0","0","METAR UKKK 291330Z 18004MPS 150V230 9999 FEW033CB BKN100 31/16 Q1011 R26/CLRD70 NOSIG"
"5:00 PM EEST on July 29, 2016","2016","07","29","17","00","Europe/Kiev","2:00 PM GMT on July 29, 2016","2016","07","29","14","00","UTC","30.0","86.0","16.0","60.8","43","14.4","8.9","-9999.0","-9999.0","210","SSW","10.0","6.2","1011","29.86","-999","-999","30.1","86.1","-9999.00","-9999.00","Mostly Cloudy","mostlycloudy","0","0","0","0","0","0","METAR UKKK 291400Z 21004MPS 190V250 9999 FEW033CB BKN100 30/16 Q1011 R26/CLRD70 NOSIG"
"5:30 PM EEST on July 29, 2016","2016","07","29","17","30","Europe/Kiev","2:30 PM GMT on July 29, 2016","2016","07","29","14","30","UTC","31.0","87.8","16.0","60.8","40","7.2","4.5","-9999.0","-9999.0","180","South","-9999.0","-9999.0","1011","29.86","-999","-999","30.9","87.6","-9999.00","-9999.00","Clear","clear","0","0","0","0","0","0","METAR UKKK 291430Z 18002MPS 130V220 CAVOK 31/16 Q1011 R26/CLRD70 NOSIG"
"6:00 PM EEST on July 29, 2016","2016","07","29","18","00","Europe/Kiev","3:00 PM GMT on July 29, 2016","2016","07","29","15","00","UTC","32","89","14","57","24","7.2","4.5","","","200","SSW","20","12","1010","29.83","-999","-999","-9999","-9999","","","Scattered Clouds","partlycloudy","0","0","0","0","0","0","AAXX 29151 33345 42698 42002 10316 20141 39913 40099 57016 82189 555 10040"
"6:00 PM EEST on July 29, 2016","2016","07","29","18","00","Europe/Kiev","3:00 PM GMT on July 29, 2016","2016","07","29","15","00","UTC","31.0","87.8","16.0","60.8","40","10.8","6.7","-9999.0","-9999.0","180","South","-9999.0","-9999.0","1011","29.86","-999","-999","30.9","87.6","-9999.00","-9999.00","Clear","clear","0","0","0","0","0","0","METAR UKKK 291500Z 18003MPS 140V210 CAVOK 31/16 Q1011 R26/CLRD70 NOSIG"
"6:30 PM EEST on July 29, 2016","2016","07","29","18","30","Europe/Kiev","3:30 PM GMT on July 29, 2016","2016","07","29","15","30","UTC","31.0","87.8","16.0","60.8","40","10.8","6.7","-9999.0","-9999.0","170","South","-9999.0","-9999.0","1011","29.86","-999","-999","30.9","87.6","-9999.00","-9999.00","Clear","clear","0","0","0","0","0","0","METAR UKKK 291530Z 17003MPS 140V200 CAVOK 31/16 Q1011 R26/CLRD70 NOSIG"
"7:00 PM EEST on July 29, 2016","2016","07","29","19","00","Europe/Kiev","4:00 PM GMT on July 29, 2016","2016","07","29","16","00","UTC","30.0","86.0","16.0","60.8","43","10.8","6.7","-9999.0","-9999.0","190","South","9.0","5.6","1011","29.86","-999","-999","30.1","86.1","-9999.00","-9999.00","Unknown","unknown","0","0","0","0","0","0","METAR UKKK 291600Z 19003MPS 140V220 9000 NSC 30/16 Q1011 R26/CLRD70 NOSIG"
"7:30 PM EEST on July 29, 2016","2016","07","29","19","30","Europe/Kiev","4:30 PM GMT on July 29, 2016","2016","07","29","16","30","UTC","29.0","84.2","17.0","62.6","48","3.6","2.2","-9999.0","-9999.0","0","Variable","-9999.0","-9999.0","1011","29.86","-999","-999","29.4","85.0","-9999.00","-9999.00","Clear","clear","0","0","0","0","0","0","METAR UKKK 291630Z VRB01MPS CAVOK 29/17 Q1011 R26/CLRD70 NOSIG"
"8:00 PM EEST on July 29, 2016","2016","07","29","20","00","Europe/Kiev","5:00 PM GMT on July 29, 2016","2016","07","29","17","00","UTC","27.0","80.6","17.0","62.6","54","7.2","4.5","-9999.0","-9999.0","180","South","-9999.0","-9999.0","1011","29.86","-999","-999","27.7","81.8","-9999.00","-9999.00","Clear","clear","0","0","0","0","0","0","METAR UKKK 291700Z 18002MPS 150V210 CAVOK 27/17 Q1011 R26/CLRD70 NOSIG"
"8:30 PM EEST on July 29, 2016","2016","07","29","20","30","Europe/Kiev","5:30 PM GMT on July 29, 2016","2016","07","29","17","30","UTC","26.0","78.8","17.0","62.6","57","3.6","2.2","-9999.0","-9999.0","190","South","-9999.0","-9999.0","1011","29.86","-999","-999","-9999","-9999","-9999.00","-9999.00","Clear","clear","0","0","0","0","0","0","METAR UKKK 291730Z 19001MPS CAVOK 26/17 Q1011 R26/CLRD70 NOSIG"
"9:00 PM EEST on July 29, 2016","2016","07","29","21","00","Europe/Kiev","6:00 PM GMT on July 29, 2016","2016","07","29","18","00","UTC","27","80","17","63","47","3.6","2.2","","","250","WSW","20","12","1010","29.84","-999","-999","-9999","-9999","","","Overcast","cloudy","0","0","0","0","0","0","AAXX 29181 33345 32698 82501 10269 20174 39916 40105 53003 8557/ 333 10336 555 10026"
"9:00 PM EEST on July 29, 2016","2016","07","29","21","00","Europe/Kiev","6:00 PM GMT on July 29, 2016","2016","07","29","18","00","UTC","25.0","77.0","18.0","64.4","65","0.0","0.0","-9999.0","-9999.0","0","North","9.0","5.6","1011","29.86","-999","-999","-9999","-9999","-9999.00","-9999.00","Unknown","unknown","0","0","0","0","0","0","METAR UKKK 291800Z 00000MPS 9000 NSC 25/18 Q1011 R26/CLRD70 NOSIG"
"9:30 PM EEST on July 29, 2016","2016","07","29","21","30","Europe/Kiev","6:30 PM GMT on July 29, 2016","2016","07","29","18","30","UTC","25.0","77.0","17.0","62.6","61","7.2","4.5","-9999.0","-9999.0","150","SSE","9.0","5.6","1011","29.86","-999","-999","-9999","-9999","-9999.00","-9999.00","Unknown","unknown","0","0","0","0","0","0","METAR UKKK 291830Z 15002MPS 120V180 9000 NSC 25/17 Q1011 R26/CLRD70 NOSIG"
"10:00 PM EEST on July 29, 2016","2016","07","29","22","00","Europe/Kiev","7:00 PM GMT on July 29, 2016","2016","07","29","19","00","UTC","24.0","75.2","17.0","62.6","65","7.2","4.5","25.2","15.7","230","SW","9.0","5.6","1011","29.86","-999","-999","-9999","-9999","-9999.00","-9999.00","Unknown","unknown","0","0","0","0","0","0","METAR UKKK 291900Z 23002G07MPS 160V280 9000 NSC 24/17 Q1011 R26/CLRD70 NOSIG"
"10:30 PM EEST on July 29, 2016","2016","07","29","22","30","Europe/Kiev","7:30 PM GMT on July 29, 2016","2016","07","29","19","30","UTC","23.0","73.4","17.0","62.6","69","7.2","4.5","-9999.0","-9999.0","260","West","10.0","6.2","1011","29.86","-999","-999","-9999","-9999","-9999.00","-9999.00","Unknown","unknown","0","0","0","0","0","0","METAR UKKK 291930Z 26002MPS 200V290 9999 NSC 23/17 Q1011 R26/CLRD70 NOSIG"
"11:00 PM EEST on July 29, 2016","2016","07","29","23","00","Europe/Kiev","8:00 PM GMT on July 29, 2016","2016","07","29","20","00","UTC","23.0","73.4","17.0","62.6","69","3.6","2.2","-9999.0","-9999.0","0","Variable","-9999.0","-9999.0","1011","29.86","-999","-999","-9999","-9999","-9999.00","-9999.00","Clear","clear","0","0","0","0","0","0","METAR UKKK 292000Z VRB01MPS CAVOK 23/17 Q1011 R26/CLRD70 NOSIG"
"11:30 PM EEST on July 29, 2016","2016","07","29","23","30","Europe/Kiev","8:30 PM GMT on July 29, 2016","2016","07","29","20","30","UTC","24.0","75.2","16.0","60.8","61","10.8","6.7","-9999.0","-9999.0","260","West","-9999.0","-9999.0","1012","29.89","-999","-999","-9999","-9999","-9999.00","-9999.00","Clear","clear","0","0","0","0","0","0","METAR UKKK 292030Z 26003MPS CAVOK 24/16 Q1012 R26/CLRD70 NOSIG"
"12:00 AM EEST on July 30, 2016","2016","07","30","00","00","Europe/Kiev","9:00 PM GMT on July 29, 2016","2016","07","29","21","00","UTC","26","78","15","59","42","3.6","2.2","","","350","North","20","12","1011","29.86","-999","-999","-9999","-9999","","","Partly Cloudy","partlycloudy","0","0","0","0","0","0","AAXX 29211 33345 42998 33501 10255 20151 39919 40109 52003 83070 555 10023"
"12:00 AM EEST on July 30, 2016","2016","07","30","00","00","Europe/Kiev","9:00 PM GMT on July 29, 2016","2016","07","29","21","00","UTC","23.0","73.4","17.0","62.6","69","7.2","4.5","-9999.0","-9999.0","300","WNW","-9999.0","-9999.0","1011","29.86","-999","-999","-9999","-9999","-9999.00","-9999.00","Clear","clear","0","0","0","0","0","0","METAR UKKK 292100Z 30002MPS CAVOK 23/17 Q1011 R26/CLRD70 NOSIG"
"12:30 AM EEST on July 30, 2016","2016","07","30","00","30","Europe/Kiev","9:30 PM GMT on July 29, 2016","2016","07","29","21","30","UTC","24.0","75.2","16.0","60.8","61","10.8","6.7","-9999.0","-9999.0","320","NW","-9999.0","-9999.0","1011","29.86","-999","-999","-9999","-9999","-9999.00","-9999.00","Clear","clear","0","0","0","0","0","0","METAR UKKK 292130Z 32003MPS CAVOK 24/16 Q1011 R26/CLRD70 NOSIG"
"1:00 AM EEST on July 30, 2016","2016","07","30","01","00","Europe/Kiev","10:00 PM GMT on July 29, 2016","2016","07","29","22","00","UTC","24.0","75.2","17.0","62.6","65","7.2","4.5","-9999.0","-9999.0","320","NW","-9999.0","-9999.0","1011","29.86","-999","-999","-9999","-9999","-9999.00","-9999.00","Clear","clear","0","0","0","0","0","0","METAR UKKK 292200Z 32002MPS 270V010 CAVOK 24/17 Q1011 R26/CLRD70 NOSIG"
"1:30 AM EEST on July 30, 2016","2016","07","30","01","30","Europe/Kiev","10:30 PM GMT on July 29, 2016","2016","07","29","22","30","UTC","22.0","71.6","17.0","62.6","73","3.6","2.2","-9999.0","-9999.0","0","Variable","-9999.0","-9999.0","1011","29.86","-999","-999","-9999","-9999","-9999.00","-9999.00","Clear","clear","0","0","0","0","0","0","METAR UKKK 292230Z VRB01MPS CAVOK 22/17 Q1011 R08/CLRD70 NOSIG"
"2:00 AM EEST on July 30, 2016","2016","07","30","02","00","Europe/Kiev","11:00 PM GMT on July 29, 2016","2016","07","29","23","00","UTC","22.0","71.6","17.0","62.6","73","18.0","11.2","-9999.0","-9999.0","290","WNW","-9999.0","-9999.0","1011","29.86","-999","-999","-9999","-9999","-9999.00","-9999.00","Clear","clear","0","0","0","0","0","0","METAR UKKK 292300Z 29005MPS CAVOK 22/17 Q1011 R08/CLRD70 NOSIG"
"2:30 AM EEST on July 30, 2016","2016","07","30","02","30","Europe/Kiev","11:30 PM GMT on July 29, 2016","2016","07","29","23","30","UTC","22.0","71.6","16.0","60.8","69","3.6","2.2","-9999.0","-9999.0","0","Variable","-9999.0","-9999.0","1011","29.86","-999","-999","-9999","-9999","-9999.00","-9999.00","Clear","clear","0","0","0","0","0","0","METAR UKKK 292330Z VRB01MPS CAVOK 22/16 Q1011 R08/CLRD70 NOSIG"
"3:00 AM EEST on July 30, 2016","2016","07","30","03","00","Europe/Kiev","12:00 AM GMT on July 30, 2016","2016","07","30","00","00","UTC","23","74","16","62","57","7.2","4.5","","","330","NNW","20","12","1011","29.86","-999","-999","-9999","-9999","","","Scattered Clouds","partlycloudy","0","0","0","0","0","0","AAXX 30001 33345 32998 53302 10233 20165 39918 40110 58001 82082 555 10021"
"3:00 AM EEST on July 30, 2016","2016","07","30","03","00","Europe/Kiev","12:00 AM GMT on July 30, 2016","2016","07","30","00","00","UTC","21.0","69.8","17.0","62.6","78","10.8","6.7","-9999.0","-9999.0","280","West","-9999.0","-9999.0","1012","29.89","-999","-999","-9999","-9999","-9999.00","-9999.00","Clear","clear","0","0","0","0","0","0","METAR UKKK 300000Z 28003MPS 250V310 CAVOK 21/17 Q1012 R08/CLRD70 NOSIG"
"3:30 AM EEST on July 30, 2016","2016","07","30","03","30","Europe/Kiev","12:30 AM GMT on July 30, 2016","2016","07","30","00","30","UTC","20.0","68.0","16.0","60.8","78","10.8","6.7","-9999.0","-9999.0","280","West","-9999.0","-9999.0","1012","29.89","-999","-999","-9999","-9999","-9999.00","-9999.00","Clear","clear","0","0","0","0","0","0","METAR UKKK 300030Z 28003MPS CAVOK 20/16 Q1012 R08/CLRD70 NOSIG"
"4:00 AM EEST on July 30, 2016","2016","07","30","04","00","Europe/Kiev","1:00 AM GMT on July 30, 2016","2016","07","30","01","00","UTC","20.0","68.0","17.0","62.6","83","10.8","6.7","-9999.0","-9999.0","270","West","-9999.0","-9999.0","1012","29.89","-999","-999","-9999","-9999","-9999.00","-9999.00","Clear","clear","0","0","0","0","0","0","METAR UKKK 300100Z 27003MPS CAVOK 20/17 Q1012 R26/CLRD70 NOSIG"
"4:30 AM EEST on July 30, 2016","2016","07","30","04","30","Europe/Kiev","1:30 AM GMT on July 30, 2016","2016","07","30","01","30","UTC","20.0","68.0","17.0","62.6","83","14.4","8.9","-9999.0","-9999.0","270","West","-9999.0","-9999.0","1012","29.89","-999","-999","-9999","-9999","-9999.00","-9999.00","Clear","clear","0","0","0","0","0","0","METAR UKKK 300130Z 27004MPS CAVOK 20/17 Q1012 R26/CLRD70 NOSIG"
"5:00 AM EEST on July 30, 2016","2016","07","30","05","00","Europe/Kiev","2:00 AM GMT on July 30, 2016","2016","07","30","02","00","UTC","20.0","68.0","17.0","62.6","83","14.4","8.9","-9999.0","-9999.0","270","West","-9999.0","-9999.0","1012","29.89","-999","-999","-9999","-9999","-9999.00","-9999.00","Clear","clear","0","0","0","0","0","0","METAR UKKK 300200Z 27004MPS CAVOK 20/17 Q1012 R26/CLRD70 NOSIG"
"5:30 AM EEST on July 30, 2016","2016","07","30","05","30","Europe/Kiev","2:30 AM GMT on July 30, 2016","2016","07","30","02","30","UTC","20.0","68.0","17.0","62.6","83","10.8","6.7","-9999.0","-9999.0","290","WNW","-9999.0","-9999.0","1012","29.89","-999","-999","-9999","-9999","-9999.00","-9999.00","Clear","clear","0","0","0","0","0","0","METAR UKKK 300230Z 29003MPS CAVOK 20/17 Q1012 R26/CLRD70 NOSIG"
"6:00 AM EEST on July 30, 2016","2016","07","30","06","00","Europe/Kiev","3:00 AM GMT on July 30, 2016","2016","07","30","03","00","UTC","21","70","16","61","67","10.8","6.7","","","0","North","20","12","1012","29.88","-999","-999","-9999","-9999","","","Partly Cloudy","partlycloudy","0","0","0","0","0","0","AAXX 30031 33345 42598 73603 10212 20163 39924 40117 53006 83979 555 10021"
"6:00 AM EEST on July 30, 2016","2016","07","30","06","00","Europe/Kiev","3:00 AM GMT on July 30, 2016","2016","07","30","03","00","UTC","21.0","69.8","17.0","62.6","78","10.8","6.7","-9999.0","-9999.0","310","NW","-9999.0","-9999.0","1012","29.89","-999","-999","-9999","-9999","-9999.00","-9999.00","Clear","clear","0","0","0","0","0","0","METAR UKKK 300300Z 31003MPS CAVOK 21/17 Q1012 R26/CLRD70 NOSIG"
"6:30 AM EEST on July 30, 2016","2016","07","30","06","30","Europe/Kiev","3:30 AM GMT on July 30, 2016","2016","07","30","03","30","UTC","21.0","69.8","17.0","62.6","78","14.4","8.9","-9999.0","-9999.0","310","NW","-9999.0","-9999.0","1012","29.89","-999","-999","-9999","-9999","-9999.00","-9999.00","Clear","clear","0","0","0","0","0","0","METAR UKKK 300330Z 31004MPS CAVOK 21/17 Q1012 R26/CLRD70 NOSIG"
"7:00 AM EEST on July 30, 2016","2016","07","30","07","00","Europe/Kiev","4:00 AM GMT on July 30, 2016","2016","07","30","04","00","UTC","21.0","69.8","17.0","62.6","78","14.4","8.9","-9999.0","-9999.0","310","NW","-9999.0","-9999.0","1012","29.89","-999","-999","-9999","-9999","-9999.00","-9999.00","Clear","clear","0","0","0","0","0","0","METAR UKKK 300400Z 31004MPS CAVOK 21/17 Q1012 R26/CLRD70 NOSIG"
"7:30 AM EEST on July 30, 2016","2016","07","30","07","30","Europe/Kiev","4:30 AM GMT on July 30, 2016","2016","07","30","04","30","UTC","21.0","69.8","17.0","62.6","78","14.4","8.9","-9999.0","-9999.0","330","NNW","-9999.0","-9999.0","1013","29.92","-999","-999","-9999","-9999","-9999.00","-9999.00","Clear","clear","0","0","0","0","0","0","METAR UKKK 300430Z 33004MPS 300V360 CAVOK 21/17 Q1013 R26/CLRD70 NOSIG"
"8:00 AM EEST on July 30, 2016","2016","07","30","08","00","Europe/Kiev","5:00 AM GMT on July 30, 2016","2016","07","30","05","00","UTC","21.0","69.8","18.0","64.4","83","14.4","8.9","-9999.0","-9999.0","330","NNW","-9999.0","-9999.0","1013","29.92","-999","-999","-9999","-9999","-9999.00","-9999.00","Clear","clear","0","0","0","0","0","0","METAR UKKK 300500Z 33004MPS 310V010 CAVOK 21/18 Q1013 R26/CLRD70 NOSIG"
"8:30 AM EEST on July 30, 2016","2016","07","30","08","30","Europe/Kiev","5:30 AM GMT on July 30, 2016","2016","07","30","05","30","UTC","21.0","69.8","17.0","62.6","78","18.0","11.2","-9999.0","-9999.0","320","NW","-9999.0","-9999.0","1013","29.92","-999","-999","-9999","-9999","-9999.00","-9999.00","Clear","clear","0","0","0","0","0","0","METAR UKKK 300530Z 32005MPS CAVOK 21/17 Q1013 R26/CLRD70 NOSIG"
"9:00 AM EEST on July 30, 2016","2016","07","30","09","00","Europe/Kiev","6:00 AM GMT on July 30, 2016","2016","07","30","06","00","UTC","22","71","17","62","65","7.2","4.5","","","350","North","20","12","1013","29.91","-999","-999","-9999","-9999","","","Partly Cloudy","partlycloudy","0","0","0","0","0","0","AAXX 30061 33345 32598 73502 10217 20166 39935 40128 52011 84572 333 20211 555 10026"
"9:00 AM EEST on July 30, 2016","2016","07","30","09","00","Europe/Kiev","6:00 AM GMT on July 30, 2016","2016","07","30","06","00","UTC","21.0","69.8","18.0","64.4","83","14.4","8.9","-9999.0","-9999.0","320","NW","-9999.0","-9999.0","1013","29.92","-999","-999","-9999","-9999","-9999.00","-9999.00","Clear","clear","0","0","0","0","0","0","METAR UKKK 300600Z 32004MPS CAVOK 21/18 Q1013 R26/CLRD70 NOSIG"
"9:30 AM EEST on July 30, 2016","2016","07","30","09","30","Europe/Kiev","6:30 AM GMT on July 30, 2016","2016","07","30","06","30","UTC","22.0","71.6","17.0","62.6","73","14.4","8.9","-9999.0","-9999.0","320","NW","-9999.0","-9999.0","1013","29.92","-999","-999","-9999","-9999","-9999.00","-9999.00","Clear","clear","0","0","0","0","0","0","METAR UKKK 300630Z 32004MPS CAVOK 22/17 Q1013 R26/CLRD70 NOSIG"
"10:00 AM EEST on July 30, 2016","2016","07","30","10","00","Europe/Kiev","7:00 AM GMT on July 30, 2016","2016","07","30","07","00","UTC","22.0","71.6","18.0","64.4","78","14.4","8.9","-9999.0","-9999.0","320","NW","-9999.0","-9999.0","1013","29.92","-999","-999","-9999","-9999","-9999.00","-9999.00","Clear","clear","0","0","0","0","0","0","METAR UKKK 300700Z 32004MPS CAVOK 22/18 Q1013 R26/CLRD70 NOSIG"
"10:30 AM EEST on July 30, 2016","2016","07","30","10","30","Europe/Kiev","7:30 AM GMT on July 30, 2016","2016","07","30","07","30","UTC","23.0","73.4","18.0","64.4","73","14.4","8.9","-9999.0","-9999.0","320","NW","-9999.0","-9999.0","1013","29.92","-999","-999","-9999","-9999","-9999.00","-9999.00","Clear","clear","0","0","0","0","0","0","METAR UKKK 300730Z 32004MPS CAVOK 23/18 Q1013 R26/CLRD70 NOSIG"
"11:00 AM EEST on July 30, 2016","2016","07","30","11","00","Europe/Kiev","8:00 AM GMT on July 30, 2016","2016","07","30","08","00","UTC","24.0","75.2","17.0","62.6","65","14.4","8.9","-9999.0","-9999.0","320","NW","-9999.0","-9999.0","1013","29.92","-999","-999","-9999","-9999","-9999.00","-9999.00","Clear","clear","0","0","0","0","0","0","METAR UKKK 300800Z 32004MPS 300V010 CAVOK 24/17 Q1013 R26/CLRD70 NOSIG"
"11:30 AM EEST on July 30, 2016","2016","07","30","11","30","Europe/Kiev","8:30 AM GMT on July 30, 2016","2016","07","30","08","30","UTC","24.0","75.2","16.0","60.8","61","10.8","6.7","-9999.0","-9999.0","310","NW","-9999.0","-9999.0","1013","29.92","-999","-999","-9999","-9999","-9999.00","-9999.00","Clear","clear","0","0","0","0","0","0","METAR UKKK 300830Z 31003MPS 280V020 CAVOK 24/16 Q1013 R26/CLRD70 NOSIG"
"12:00 PM EEST on July 30, 2016","2016","07","30","12","00","Europe/Kiev","9:00 AM GMT on July 30, 2016","2016","07","30","09","00","UTC","25","76","16","62","52","10.8","6.7","","","10","North","20","12","1013","29.92","-999","-999","-9999","-9999","","","Scattered Clouds","partlycloudy","0","0","0","0","0","0","AAXX 30091 33345 42698 70103 10247 20164 39940 40131 52005 81136 555 10044"
"12:00 PM EEST on July 30, 2016","2016","07","30","12","00","Europe/Kiev","9:00 AM GMT on July 30, 2016","2016","07","30","09","00","UTC","25.0","77.0","16.0","60.8","57","14.4","8.9","-9999.0","-9999.0","350","North","-9999.0","-9999.0","1014","29.95","-999","-999","-9999","-9999","-9999.00","-9999.00","Clear","clear","0","0","0","0","0","0","METAR UKKK 300900Z 35004MPS 320V030 CAVOK 25/16 Q1014 R26/CLRD70 NOSIG"
"12:30 PM EEST on July 30, 2016","2016","07","30","12","30","Europe/Kiev","9:30 AM GMT on July 30, 2016","2016","07","30","09","30","UTC","25.0","77.0","16.0","60.8","57","14.4","8.9","-9999.0","-9999.0","320","NW","-9999.0","-9999.0","1014","29.95","-999","-999","-9999","-9999","-9999.00","-9999.00","Clear","clear","0","0","0","0","0","0","METAR UKKK 300930Z 32004MPS 280V350 CAVOK 25/16 Q1014 R26/CLRD70 NOSIG"
"1:00 PM EEST on July 30, 2016","2016","07","30","13","00","Europe/Kiev","10:00 AM GMT on July 30, 2016","2016","07","30","10","00","UTC","26.0","78.8","16.0","60.8","54","10.8","6.7","-9999.0","-9999.0","330","NNW","-9999.0","-9999.0","1014","29.95","-999","-999","-9999","-9999","-9999.00","-9999.00","Clear","clear","0","0","0","0","0","0","METAR UKKK 301000Z 33003MPS 260V020 CAVOK 26/16 Q1014 R26/CLRD70 NOSIG"
"1:30 PM EEST on July 30, 2016","2016","07","30","13","30","Europe/Kiev","10:30 AM GMT on July 30, 2016","2016","07","30","10","30","UTC","26.0","78.8","15.0","59.0","51","7.2","4.5","-9999.0","-9999.0","300","WNW","-9999.0","-9999.0","1014","29.95","-999","-999","-9999","-9999","-9999.00","-9999.00","Clear","clear","0","0","0","0","0","0","METAR UKKK 301030Z 30002MPS CAVOK 26/15 Q1014 R26/CLRD70 NOSIG"
"2:00 PM EEST on July 30, 2016","2016","07","30","14","00","Europe/Kiev","11:00 AM GMT on July 30, 2016","2016","07","30","11","00","UTC","28.0","82.4","15.0","59.0","45","10.8","6.7","-9999.0","-9999.0","290","WNW","-9999.0","-9999.0","1013","29.92","-999","-999","28.0","82.5","-9999.00","-9999.00","Clear","clear","0","0","0","0","0","0","METAR UKKK 301100Z 29003MPS 230V350 CAVOK 28/15 Q1013 R26/CLRD70 NOSIG"
"2:30 PM EEST on July 30, 2016","2016","07","30","14","30","Europe/Kiev","11:30 AM GMT on July 30, 2016","2016","07","30","11","30","UTC","28.0","82.4","15.0","59.0","45","7.2","4.5","-9999.0","-9999.0","290","WNW","-9999.0","-9999.0","1013","29.92","-999","-999","28.0","82.5","-9999.00","-9999.00","Clear","clear","0","0","0","0","0","0","METAR UKKK 301130Z 29002MPS 230V010 CAVOK 28/15 Q1013 R26/CLRD70 NOSIG"
"3:00 PM EEST on July 30, 2016","2016","07","30","15","00","Europe/Kiev","12:00 PM GMT on July 30, 2016","2016","07","30","12","00","UTC","28","82","15","58","34","3.6","2.2","","","330","NNW","20","12","1012","29.90","-999","-999","-9999","-9999","","","Partly Cloudy","partlycloudy","0","0","0","0","0","0","AAXX 30121 33345 32998 53301 10280 20147 39936 40125 58004 83039 555 10053"
"3:00 PM EEST on July 30, 2016","2016","07","30","15","00","Europe/Kiev","12:00 PM GMT on July 30, 2016","2016","07","30","12","00","UTC","27.0","80.6","15.0","59.0","48","10.8","6.7","-9999.0","-9999.0","290","WNW","-9999.0","-9999.0","1013","29.92","-999","-999","27.3","81.1","-9999.00","-9999.00","Clear","clear","0","0","0","0","0","0","METAR UKKK 301200Z 29003MPS 250V330 CAVOK 27/15 Q1013 R26/CLRD70 NOSIG"
"3:30 PM EEST on July 30, 2016","2016","07","30","15","30","Europe/Kiev","12:30 PM GMT on July 30, 2016","2016","07","30","12","30","UTC","28.0","82.4","15.0","59.0","45","14.4","8.9","-9999.0","-9999.0","320","NW","-9999.0","-9999.0","1013","29.92","-999","-999","28.0","82.5","-9999.00","-9999.00","Clear","clear","0","0","0","0","0","0","METAR UKKK 301230Z 32004MPS 280V020 CAVOK 28/15 Q1013 R26/CLRD70 NOSIG"
"4:00 PM EEST on July 30, 2016","2016","07","30","16","00","Europe/Kiev","1:00 PM GMT on July 30, 2016","2016","07","30","13","00","UTC","28.0","82.4","15.0","59.0","45","10.8","6.7","-9999.0","-9999.0","300","WNW","-9999.0","-9999.0","1013","29.92","-999","-999","28.0","82.5","-9999.00","-9999.00","Clear","clear","0","0","0","0","0","0","METAR UKKK 301300Z 30003MPS CAVOK 28/15 Q1013 R26/CLRD70 NOSIG"
"4:30 PM EEST on July 30, 2016","2016","07","30","16","30","Europe/Kiev","1:30 PM GMT on July 30, 2016","2016","07","30","13","30","UTC","28.0","82.4","15.0","59.0","45","10.8","6.7","-9999.0","-9999.0","340","NNW","-9999.0","-9999.0","1012","29.89","-999","-999","28.0","82.5","-9999.00","-9999.00","Clear","clear","0","0","0","0","0","0","METAR UKKK 301330Z 34003MPS 270V040 CAVOK 28/15 Q1012 R26/CLRD70 NOSIG"
"5:00 PM EEST on July 30, 2016","2016","07","30","17","00","Europe/Kiev","2:00 PM GMT on July 30, 2016","2016","07","30","14","00","UTC","29.0","84.2","14.0","57.2","40","18.0","11.2","-9999.0","-9999.0","300","WNW","-9999.0","-9999.0","1012","29.89","-999","-999","28.6","83.5","-9999.00","-9999.00","Clear","clear","0","0","0","0","0","0","METAR UKKK 301400Z 30005MPS CAVOK 29/14 Q1012 R26/CLRD70 NOSIG"
"5:30 PM EEST on July 30, 2016","2016","07","30","17","30","Europe/Kiev","2:30 PM GMT on July 30, 2016","2016","07","30","14","30","UTC","29.0","84.2","15.0","59.0","42","10.8","6.7","-9999.0","-9999.0","300","WNW","9.0","5.6","1012","29.89","-999","-999","28.8","83.8","-9999.00","-9999.00","Unknown","unknown","0","0","0","0","0","0","METAR UKKK 301430Z 30003MPS 9000 NSC 29/15 Q1012 R26/CLRD70 NOSIG"
"6:00 PM EEST on July 30, 2016","2016","07","30","18","00","Europe/Kiev","3:00 PM GMT on July 30, 2016","2016","07","30","15","00","UTC","29","84","15","58","32","10.8","6.7","","","330","NNW","20","12","1012","29.87","-999","-999","-9999","-9999","","","Scattered Clouds","partlycloudy","0","0","0","0","0","0","AAXX 30151 33345 42598 13303 10288 20147 39927 40115 56009 81100 555 10041"
"6:00 PM EEST on July 30, 2016","2016","07","30","18","00","Europe/Kiev","3:00 PM GMT on July 30, 2016","2016","07","30","15","00","UTC","28.0","82.4","15.0","59.0","45","14.4","8.9","-9999.0","-9999.0","300","WNW","-9999.0","-9999.0","1012","29.89","-999","-999","28.0","82.5","-9999.00","-9999.00","Clear","clear","0","0","0","0","0","0","METAR UKKK 301500Z 30004MPS 260V340 CAVOK 28/15 Q1012 R26/CLRD70 NOSIG"
"6:30 PM EEST on July 30, 2016","2016","07","30","18","30","Europe/Kiev","3:30 PM GMT on July 30, 2016","2016","07","30","15","30","UTC","28.0","82.4","15.0","59.0","45","14.4","8.9","-9999.0","-9999.0","310","NW","-9999.0","-9999.0","1012","29.89","-999","-999","28.0","82.5","-9999.00","-9999.00","Clear","clear","0","0","0","0","0","0","METAR UKKK 301530Z 31004MPS CAVOK 28/15 Q1012 R26/CLRD70 NOSIG"
"7:00 PM EEST on July 30, 2016","2016","07","30","19","00","Europe/Kiev","4:00 PM GMT on July 30, 2016","2016","07","30","16","00","UTC","27.0","80.6","15.0","59.0","48","10.8","6.7","-9999.0","-9999.0","300","WNW","9.0","5.6","1012","29.89","-999","-999","27.3","81.1","-9999.00","-9999.00","Clear","clear","0","0","0","0","0","0","METAR UKKK 301600Z 30003MPS 9000 SKC 27/15 Q1012 R26/CLRD70 NOSIG"
"7:30 PM EEST on July 30, 2016","2016","07","30","19","30","Europe/Kiev","4:30 PM GMT on July 30, 2016","2016","07","30","16","30","UTC","27.0","80.6","16.0","60.8","51","10.8","6.7","-9999.0","-9999.0","270","West","-9999.0","-9999.0","1013","29.92","-999","-999","27.5","81.5","-9999.00","-9999.00","Clear","clear","0","0","0","0","0","0","METAR UKKK 301630Z 27003MPS CAVOK 27/16 Q1013 R26/CLRD70 NOSIG"
"8:00 PM EEST on July 30, 2016","2016","07","30","20","00","Europe/Kiev","5:00 PM GMT on July 30, 2016","2016","07","30","17","00","UTC","26.0","78.8","16.0","60.8","54","10.8","6.7","-9999.0","-9999.0","250","WSW","-9999.0","-9999.0","1013","29.92","-999","-999","-9999","-9999","-9999.00","-9999.00","Clear","clear","0","0","0","0","0","0","METAR UKKK 301700Z 25003MPS CAVOK 26/16 Q1013 R26/CLRD70 NOSIG"
"8:30 PM EEST on July 30, 2016","2016","07","30","20","30","Europe/Kiev","5:30 PM GMT on July 30, 2016","2016","07","30","17","30","UTC","25.0","77.0","16.0","60.8","57","10.8","6.7","-9999.0","-9999.0","260","West","-9999.0","-9999.0","1013","29.92","-999","-999","-9999","-9999","-9999.00","-9999.00","Clear","clear","0","0","0","0","0","0","METAR UKKK 301730Z 26003MPS CAVOK 25/16 Q1013 R26/CLRD70 NOSIG"
"9:00 PM EEST on July 30, 2016","2016","07","30","21","00","Europe/Kiev","6:00 PM GMT on July 30, 2016","2016","07","30","18","00","UTC","25","78","15","60","43","3.6","2.2","","","280","West","20","12","1012","29.90","-999","-999","-9999","-9999","","","Scattered Clouds","partlycloudy","0","0","0","0","0","0","AAXX 30181 33345 32998 22801 10254 20154 39933 40124 53006 82040 333 10290 555 10024"
"9:00 PM EEST on July 30, 2016","2016","07","30","21","00","Europe/Kiev","6:00 PM GMT on July 30, 2016","2016","07","30","18","00","UTC","23.0","73.4","17.0","62.6","69","7.2","4.5","-9999.0","-9999.0","240","WSW","9.0","5.6","1013","29.92","-999","-999","-9999","-9999","-9999.00","-9999.00","Clear","clear","0","0","0","0","0","0","METAR UKKK 301800Z 24002MPS 9000 SKC 23/17 Q1013 R26/CLRD70 NOSIG"
"9:30 PM EEST on July 30, 2016","2016","07","30","21","30","Europe/Kiev","6:30 PM GMT on July 30, 2016","2016","07","30","18","30","UTC","21.0","69.8","17.0","62.6","78","3.6","2.2","-9999.0","-9999.0","240","WSW","9.0","5.6","1013","29.92","-999","-999","-9999","-9999","-9999.00","-9999.00","Clear","clear","0","0","0","0","0","0","METAR UKKK 301830Z 24001MPS 9000 SKC 21/17 Q1013 R26/CLRD70 NOSIG"
"10:00 PM EEST on July 30, 2016","2016","07","30","22","00","Europe/Kiev","7:00 PM GMT on July 30, 2016","2016","07","30","19","00","UTC","21.0","69.8","17.0","62.6","78","7.2","4.5","-9999.0","-9999.0","230","SW","8.0","5.0","1013","29.92","-999","-999","-9999","-9999","-9999.00","-9999.00","Clear","clear","0","0","0","0","0","0","METAR UKKK 301900Z 23002MPS 8000 SKC 21/17 Q1013 R26/CLRD70 NOSIG"
"10:30 PM EEST on July 30, 2016","2016","07","30","22","30","Europe/Kiev","7:30 PM GMT on July 30, 2016","2016","07","30","19","30","UTC","21.0","69.8","17.0","62.6","78","7.2","4.5","-9999.0","-9999.0","240","WSW","8.0","5.0","1013","29.92","-999","-999","-9999","-9999","-9999.00","-9999.00","Clear","clear","0","0","0","0","0","0","METAR UKKK 301930Z 24002MPS 8000 SKC 21/17 Q1013 R26/CLRD70 NOSIG"
"11:00 PM EEST on July 30, 2016","2016","07","30","23","00","Europe/Kiev","8:00 PM GMT on July 30, 2016","2016","07","30","20","00","UTC","20.0","68.0","17.0","62.6","83","3.6","2.2","-9999.0","-9999.0","210","SSW","8.0","5.0","1014","29.95","-999","-999","-9999","-9999","-9999.00","-9999.00","Clear","clear","0","0","0","0","0","0","METAR UKKK 302000Z 21001MPS 8000 SKC 20/17 Q1014 R08/CLRD70 NOSIG"
"11:30 PM EEST on July 30, 2016","2016","07","30","23","30","Europe/Kiev","8:30 PM GMT on July 30, 2016","2016","07","30","20","30","UTC","19.0","66.2","17.0","62.6","88","0.0","0.0","-9999.0","-9999.0","0","North","9.0","5.6","1014","29.95","-999","-999","-9999","-9999","-9999.00","-9999.00","Unknown","unknown","0","0","0","0","0","0","METAR UKKK 302030Z 00000MPS 9000 NSC 19/17 Q1014 R08/CLRD70 NOSIG"
"12:00 AM EEST on July 31, 2016","2016","07","31","00","00","Europe/Kiev","9:00 PM GMT on July 30, 2016","2016","07","30","21","00","UTC","24","74","16","60","53","3.6","2.2","","","300","WNW","20","12","1013","29.93","-999","-999","-9999","-9999","","","Scattered Clouds","partlycloudy","0","0","0","0","0","0","AAXX 30211 33345 42998 23001 10236 20157 39942 40134 52009 82030 555 10021"
"12:00 AM EEST on July 31, 2016","2016","07","31","00","00","Europe/Kiev","9:00 PM GMT on July 30, 2016","2016","07","30","21","00","UTC","19.0","66.2","17.0","62.6","88","0.0","0.0","-9999.0","-9999.0","0","North","8.0","5.0","1014","29.95","-999","-999","-9999","-9999","-9999.00","-9999.00","Unknown","unknown","0","0","0","0","0","0","METAR UKKK 302100Z 00000MPS 8000 NSC 19/17 Q1014 R08/CLRD70 NOSIG"
"12:30 AM EEST on July 31, 2016","2016","07","31","00","30","Europe/Kiev","9:30 PM GMT on July 30, 2016","2016","07","30","21","30","UTC","20.0","68.0","17.0","62.6","83","0.0","0.0","-9999.0","-9999.0","0","North","10.0","6.2","1014","29.95","-999","-999","-9999","-9999","-9999.00","-9999.00","Unknown","unknown","0","0","0","0","0","0","METAR UKKK 302130Z 00000MPS 9999 NSC 20/17 Q1014 R08/CLRD70 NOSIG"
"1:00 AM EEST on July 31, 2016","2016","07","31","01","00","Europe/Kiev","10:00 PM GMT on July 30, 2016","2016","07","30","22","00","UTC","20.0","68.0","17.0","62.6","83","3.6","2.2","-9999.0","-9999.0","210","SSW","10.0","6.2","1014","29.95","-999","-999","-9999","-9999","-9999.00","-9999.00","Unknown","unknown","0","0","0","0","0","0","METAR UKKK 302200Z 21001MPS 9999 NSC 20/17 Q1014 R08/CLRD70 NOSIG"
"1:30 AM EEST on July 31, 2016","2016","07","31","01","30","Europe/Kiev","10:30 PM GMT on July 30, 2016","2016","07","30","22","30","UTC","20.0","68.0","17.0","62.6","83","3.6","2.2","-9999.0","-9999.0","220","SW","9.0","5.6","1014","29.95","-999","-999","-9999","-9999","-9999.00","-9999.00","Unknown","unknown","0","0","0","0","0","0","METAR UKKK 302230Z 22001MPS 9000 NSC 20/17 Q1014 R08/CLRD70 NOSIG"
"2:00 AM EEST on July 31, 2016","2016","07","31","02","00","Europe/Kiev","11:00 PM GMT on July 30, 2016","2016","07","30","23","00","UTC","19.0","66.2","17.0","62.6","88","0.0","0.0","-9999.0","-9999.0","0","North","9.0","5.6","1014","29.95","-999","-999","-9999","-9999","-9999.00","-9999.00","Unknown","unknown","0","0","0","0","0","0","METAR UKKK 302300Z 00000MPS 9000 NSC 19/17 Q1014 R08/CLRD70 NOSIG"
"2:30 AM EEST on July 31, 2016","2016","07","31","02","30","Europe/Kiev","11:30 PM GMT on July 30, 2016","2016","07","30","23","30","UTC","20.0","68.0","17.0","62.6","83","7.2","4.5","-9999.0","-9999.0","230","SW","-9999.0","-9999.0","1014","29.95","-999","-999","-9999","-9999","-9999.00","-9999.00","Clear","clear","0","0","0","0","0","0","METAR UKKK 302330Z 23002MPS CAVOK 20/17 Q1014 R08/CLRD70 NOSIG"
"3:00 AM EEST on July 31, 2016","2016","07","31","03","00","Europe/Kiev","12:00 AM GMT on July 31, 2016","2016","07","31","00","00","UTC","22","72","16","61","60","7.2","4.5","","","300","WNW","20","12","1014","29.93","-999","-999","-9999","-9999","","","","","0","0","0","0","0","0","AAXX 31001 33345 32998 03002 10222 20161 39942 40135 54000 555 10019"
"3:00 AM EEST on July 31, 2016","2016","07","31","03","00","Europe/Kiev","12:00 AM GMT on July 31, 2016","2016","07","31","00","00","UTC","18.0","64.4","16.0","60.8","88","7.2","4.5","-9999.0","-9999.0","220","SW","-9999.0","-9999.0","1014","29.95","-999","-999","-9999","-9999","-9999.00","-9999.00","Clear","clear","0","0","0","0","0","0","METAR UKKK 310000Z 22002MPS CAVOK 18/16 Q1014 R08/CLRD70 NOSIG"
"3:30 AM EEST on July 31, 2016","2016","07","31","03","30","Europe/Kiev","12:30 AM GMT on July 31, 2016","2016","07","31","00","30","UTC","19.0","66.2","17.0","62.6","88","7.2","4.5","-9999.0","-9999.0","240","WSW","9.0","5.6","1014","29.95","-999","-999","-9999","-9999","-9999.00","-9999.00","Unknown","unknown","0","0","0","0","0","0","METAR UKKK 310030Z 24002MPS 9000 NSC 19/17 Q1014 R26/CLRD70 NOSIG"
"4:00 AM EEST on July 31, 2016","2016","07","31","04","00","Europe/Kiev","1:00 AM GMT on July 31, 2016","2016","07","31","01","00","UTC","18.0","64.4","16.0","60.8","88","7.2","4.5","-9999.0","-9999.0","250","WSW","-9999.0","-9999.0","1014","29.95","-999","-999","-9999","-9999","-9999.00","-9999.00","Clear","clear","0","0","0","0","0","0","METAR UKKK 310100Z 25002MPS CAVOK 18/16 Q1014 R26/CLRD70 NOSIG"
"4:30 AM EEST on July 31, 2016","2016","07","31","04","30","Europe/Kiev","1:30 AM GMT on July 31, 2016","2016","07","31","01","30","UTC","17.0","62.6","16.0","60.8","94","7.2","4.5","-9999.0","-9999.0","240","WSW","2.1","1.3","1014","29.95","-999","-999","-9999","-9999","-9999.00","-9999.00","Smoke","hazy","0","0","0","0","0","0","METAR UKKK 310130Z 24002MPS 2100 FU NSC 17/16 Q1014 R26/CLRD70 NOSIG"
"5:00 AM EEST on July 31, 2016","2016","07","31","05","00","Europe/Kiev","2:00 AM GMT on July 31, 2016","2016","07","31","02","00","UTC","17.0","62.6","16.0","60.8","94","7.2","4.5","-9999.0","-9999.0","240","WSW","9.0","5.6","1014","29.95","-999","-999","-9999","-9999","-9999.00","-9999.00","Unknown","unknown","0","0","0","0","0","0","METAR UKKK 310200Z 24002MPS 9000 NSC 17/16 Q1014 R26/CLRD70 NOSIG"
"5:30 AM EEST on July 31, 2016","2016","07","31","05","30","Europe/Kiev","2:30 AM GMT on July 31, 2016","2016","07","31","02","30","UTC","17.0","62.6","16.0","60.8","94","7.2","4.5","-9999.0","-9999.0","260","West","-9999.0","-9999.0","1014","29.95","-999","-999","-9999","-9999","-9999.00","-9999.00","Smoke","hazy","0","0","0","0","0","0","METAR UKKK 310230Z 26002MPS 4300 FU NSC 17/16 Q1014 R26/CLRD70 NOSIG"
"6:00 AM EEST on July 31, 2016","2016","07","31","06","00","Europe/Kiev","3:00 AM GMT on July 31, 2016","2016","07","31","03","00","UTC","21","69","16","61","68","7.2","4.5","","","320","NW","20","12","1014","29.94","-999","-999","-9999","-9999","","","Scattered Clouds","partlycloudy","0","0","0","0","0","0","AAXX 31031 33345 42998 23202 10208 20160 39944 40138 53002 82040 555 10018"
"6:00 AM EEST on July 31, 2016","2016","07","31","06","00","Europe/Kiev","3:00 AM GMT on July 31, 2016","2016","07","31","03","00","UTC","17.0","62.6","16.0","60.8","94","7.2","4.5","-9999.0","-9999.0","230","SW","9.0","5.6","1014","29.95","-999","-999","-9999","-9999","-9999.00","-9999.00","Unknown","unknown","0","0","0","0","0","0","METAR UKKK 310300Z 23002MPS 9000 NSC 17/16 Q1014 R26/CLRD70 NOSIG"
"6:30 AM EEST on July 31, 2016","2016","07","31","06","30","Europe/Kiev","3:30 AM GMT on July 31, 2016","2016","07","31","03","30","UTC","18.0","64.4","17.0","62.6","94","7.2","4.5","-9999.0","-9999.0","250","WSW","10.0","6.2","1014","29.95","-999","-999","-9999","-9999","-9999.00","-9999.00","Unknown","unknown","0","0","0","0","0","0","METAR UKKK 310330Z 25002MPS 9999 NSC 18/17 Q1014 R26/CLRD70 NOSIG"
"7:00 AM EEST on July 31, 2016","2016","07","31","07","00","Europe/Kiev","4:00 AM GMT on July 31, 2016","2016","07","31","04","00","UTC","20.0","68.0","18.0","64.4","88","7.2","4.5","-9999.0","-9999.0","260","West","-9999.0","-9999.0","1014","29.95","-999","-999","-9999","-9999","-9999.00","-9999.00","Clear","clear","0","0","0","0","0","0","METAR UKKK 310400Z 26002MPS CAVOK 20/18 Q1014 R26/CLRD70 NOSIG"
"7:30 AM EEST on July 31, 2016","2016","07","31","07","30","Europe/Kiev","4:30 AM GMT on July 31, 2016","2016","07","31","04","30","UTC","22.0","71.6","18.0","64.4","78","7.2","4.5","-9999.0","-9999.0","260","West","-9999.0","-9999.0","1014","29.95","-999","-999","-9999","-9999","-9999.00","-9999.00","Clear","clear","0","0","0","0","0","0","METAR UKKK 310430Z 26002MPS CAVOK 22/18 Q1014 R26/CLRD70 NOSIG"
"8:00 AM EEST on July 31, 2016","2016","07","31","08","00","Europe/Kiev","5:00 AM GMT on July 31, 2016","2016","07","31","05","00","UTC","23.0","73.4","18.0","64.4","73","7.2","4.5","-9999.0","-9999.0","270","West","-9999.0","-9999.0","1014","29.95","-999","-999","-9999","-9999","-9999.00","-9999.00","Clear","clear","0","0","0","0","0","0","METAR UKKK 310500Z 27002MPS CAVOK 23/18 Q1014 R26/CLRD70 NOSIG"
"8:30 AM EEST on July 31, 2016","2016","07","31","08","30","Europe/Kiev","5:30 AM GMT on July 31, 2016","2016","07","31","05","30","UTC","24.0","75.2","18.0","64.4","69","7.2","4.5","-9999.0","-9999.0","260","West","-9999.0","-9999.0","1015","29.98","-999","-999","-9999","-9999","-9999.00","-9999.00","Clear","clear","0","0","0","0","0","0","METAR UKKK 310530Z 26002MPS CAVOK 24/18 Q1015 R26/CLRD70 NOSIG"
"9:00 AM EEST on July 31, 2016","2016","07","31","09","00","Europe/Kiev","6:00 AM GMT on July 31, 2016","2016","07","31","06","00","UTC","26","78","16","61","47","7.2","4.5","","","310","NW","20","12","1014","29.95","-999","-999","-9999","-9999","","","","","0","0","0","0","0","0","AAXX 31061 33345 32998 03102 10255 20163 39951 40142 52007 333 20202 555 10036"
"9:00 AM EEST on July 31, 2016","2016","07","31","09","00","Europe/Kiev","6:00 AM GMT on July 31, 2016","2016","07","31","06","00","UTC","25.0","77.0","18.0","64.4","65","7.2","4.5","-9999.0","-9999.0","270","West","-9999.0","-9999.0","1015","29.98","-999","-999","-9999","-9999","-9999.00","-9999.00","Clear","clear","0","0","0","0","0","0","METAR UKKK 310600Z 27002MPS 240V300 CAVOK 25/18 Q1015 R26/CLRD70 NOSIG"
"9:30 AM EEST on July 31, 2016","2016","07","31","09","30","Europe/Kiev","6:30 AM GMT on July 31, 2016","2016","07","31","06","30","UTC","26.0","78.8","17.0","62.6","57","7.2","4.5","-9999.0","-9999.0","280","West","-9999.0","-9999.0","1015","29.98","-999","-999","-9999","-9999","-9999.00","-9999.00","Clear","clear","0","0","0","0","0","0","METAR UKKK 310630Z 28002MPS 230V320 CAVOK 26/17 Q1015 R26/CLRD70 NOSIG"
"10:00 AM EEST on July 31, 2016","2016","07","31","10","00","Europe/Kiev","7:00 AM GMT on July 31, 2016","2016","07","31","07","00","UTC","27.0","80.6","18.0","64.4","58","7.2","4.5","-9999.0","-9999.0","270","West","-9999.0","-9999.0","1015","29.98","-999","-999","27.9","82.3","-9999.00","-9999.00","Clear","clear","0","0","0","0","0","0","METAR UKKK 310700Z 27002MPS 230V310 CAVOK 27/18 Q1015 R26/CLRD70 NOSIG"
"10:30 AM EEST on July 31, 2016","2016","07","31","10","30","Europe/Kiev","7:30 AM GMT on July 31, 2016","2016","07","31","07","30","UTC","28.0","82.4","17.0","62.6","51","7.2","4.5","-9999.0","-9999.0","280","West","-9999.0","-9999.0","1015","29.98","-999","-999","28.5","83.4","-9999.00","-9999.00","Clear","clear","0","0","0","0","0","0","METAR UKKK 310730Z 28002MPS 210V340 CAVOK 28/17 Q1015 R26/CLRD70 NOSIG"
"11:00 AM EEST on July 31, 2016","2016","07","31","11","00","Europe/Kiev","8:00 AM GMT on July 31, 2016","2016","07","31","08","00","UTC","28.0","82.4","16.0","60.8","48","10.8","6.7","-9999.0","-9999.0","290","WNW","-9999.0","-9999.0","1015","29.98","-999","-999","28.3","82.9","-9999.00","-9999.00","Clear","clear","0","0","0","0","0","0","METAR UKKK 310800Z 29003MPS 230V340 CAVOK 28/16 Q1015 R26/CLRD70 NOSIG"
"11:30 AM EEST on July 31, 2016","2016","07","31","11","30","Europe/Kiev","8:30 AM GMT on July 31, 2016","2016","07","31","08","30","UTC","27.0","80.6","16.0","60.8","51","10.8","6.7","-9999.0","-9999.0","250","WSW","-9999.0","-9999.0","1015","29.98","-999","-999","27.5","81.5","-9999.00","-9999.00","Clear","clear","0","0","0","0","0","0","METAR UKKK 310830Z 25003MPS 220V280 CAVOK 27/16 Q1015 R26/CLRD70 NOSIG"
"12:00 PM EEST on July 31, 2016","2016","07","31","12","00","Europe/Kiev","9:00 AM GMT on July 31, 2016","2016","07","31","09","00","UTC","28","83","14","58","32","7.2","4.5","","","290","WNW","20","12","1014","29.95","-999","-999","-9999","-9999","","","Mostly Cloudy","mostlycloudy","0","0","0","0","0","0","AAXX 31091 33345 42698 62902 10283 20144 39953 40142 51002 86200 555 10056"
"12:00 PM EEST on July 31, 2016","2016","07","31","12","00","Europe/Kiev","9:00 AM GMT on July 31, 2016","2016","07","31","09","00","UTC","28.0","82.4","17.0","62.6","51","10.8","6.7","-9999.0","-9999.0","270","West","-9999.0","-9999.0","1015","29.98","-999","-999","28.5","83.4","-9999.00","-9999.00","Clear","clear","0","0","0","0","0","0","METAR UKKK 310900Z 27003MPS CAVOK 28/17 Q1015 R26/CLRD70 NOSIG"
"12:30 PM EEST on July 31, 2016","2016","07","31","12","30","Europe/Kiev","9:30 AM GMT on July 31, 2016","2016","07","31","09","30","UTC","28.0","82.4","15.0","59.0","45","18.0","11.2","-9999.0","-9999.0","270","West","-9999.0","-9999.0","1015","29.98","-999","-999","28.0","82.5","-9999.00","-9999.00","Clear","clear","0","0","0","0","0","0","METAR UKKK 310930Z 27005MPS 230V290 CAVOK 28/15 Q1015 R26/CLRD70 NOSIG"
"1:00 PM EEST on July 31, 2016","2016","07","31","13","00","Europe/Kiev","10:00 AM GMT on July 31, 2016","2016","07","31","10","00","UTC","28.0","82.4","16.0","60.8","48","14.4","8.9","-9999.0","-9999.0","290","WNW","-9999.0","-9999.0","1015","29.98","-999","-999","28.3","82.9","-9999.00","-9999.00","Clear","clear","0","0","0","0","0","0","METAR UKKK 311000Z 29004MPS CAVOK 28/16 Q1015 R26/CLRD70 NOSIG"
"1:30 PM EEST on July 31, 2016","2016","07","31","13","30","Europe/Kiev","10:30 AM GMT on July 31, 2016","2016","07","31","10","30","UTC","29.0","84.2","16.0","60.8","45","7.2","4.5","-9999.0","-9999.0","260","West","-9999.0","-9999.0","1015","29.98","-999","-999","29.1","84.4","-9999.00","-9999.00","Clear","clear","0","0","0","0","0","0","METAR UKKK 311030Z 26002MPS CAVOK 29/16 Q1015 R26/CLRD70 NOSIG"
"2:00 PM EEST on July 31, 2016","2016","07","31","14","00","Europe/Kiev","11:00 AM GMT on July 31, 2016","2016","07","31","11","00","UTC","30.0","86.0","16.0","60.8","43","7.2","4.5","-9999.0","-9999.0","270","West","-9999.0","-9999.0","1014","29.95","-999","-999","30.1","86.1","-9999.00","-9999.00","Clear","clear","0","0","0","0","0","0","METAR UKKK 311100Z 27002MPS CAVOK 30/16 Q1014 R26/CLRD70 NOSIG"
"2:30 PM EEST on July 31, 2016","2016","07","31","14","30","Europe/Kiev","11:30 AM GMT on July 31, 2016","2016","07","31","11","30","UTC","30.0","86.0","15.0","59.0","40","10.8","6.7","-9999.0","-9999.0","270","West","-9999.0","-9999.0","1014","29.95","-999","-999","29.7","85.4","-9999.00","-9999.00","Clear","clear","0","0","0","0","0","0","METAR UKKK 311130Z 27003MPS 210V320 CAVOK 30/15 Q1014 R26/CLRD70 NOSIG"
"3:00 PM EEST on July 31, 2016","2016","07","31","15","00","Europe/Kiev","12:00 PM GMT on July 31, 2016","2016","07","31","12","00","UTC","31","87","14","57","26","10.8","6.7","","","260","West","20","12","1013","29.92","-999","-999","-9999","-9999","","","Partly Cloudy","partlycloudy","0","0","0","0","0","0","AAXX 31121 33345 32698 42603 10308 20140 39943 40130 58010 84200 555 10056"
"3:00 PM EEST on July 31, 2016","2016","07","31","15","00","Europe/Kiev","12:00 PM GMT on July 31, 2016","2016","07","31","12","00","UTC","30.0","86.0","15.0","59.0","40","10.8","6.7","-9999.0","-9999.0","50","NE","-9999.0","-9999.0","1014","29.95","-999","-999","29.7","85.4","-9999.00","-9999.00","Clear","clear","0","0","0","0","0","0","METAR UKKK 311200Z 05003MPS 010V090 CAVOK 30/15 Q1014 R26/CLRD70 NOSIG"
"3:30 PM EEST on July 31, 2016","2016","07","31","15","30","Europe/Kiev","12:30 PM GMT on July 31, 2016","2016","07","31","12","30","UTC","31.0","87.8","16.0","60.8","40","7.2","4.5","-9999.0","-9999.0","230","SW","-9999.0","-9999.0","1014","29.95","-999","-999","30.9","87.6","-9999.00","-9999.00","Clear","clear","0","0","0","0","0","0","METAR UKKK 311230Z 23002MPS 170V310 CAVOK 31/16 Q1014 R26/CLRD70 NOSIG"
"4:00 PM EEST on July 31, 2016","2016","07","31","16","00","Europe/Kiev","1:00 PM GMT on July 31, 2016","2016","07","31","13","00","UTC","31.0","87.8","15.0","59.0","38","7.2","4.5","-9999.0","-9999.0","300","WNW","-9999.0","-9999.0","1014","29.95","-999","-999","30.6","87.1","-9999.00","-9999.00","Clear","clear","0","0","0","0","0","0","METAR UKKK 311300Z 30002MPS 240V350 CAVOK 31/15 Q1014 R26/CLRD70 NOSIG"
"4:30 PM EEST on July 31, 2016","2016","07","31","16","30","Europe/Kiev","1:30 PM GMT on July 31, 2016","2016","07","31","13","30","UTC","31.0","87.8","15.0","59.0","38","10.8","6.7","-9999.0","-9999.0","300","WNW","-9999.0","-9999.0","1014","29.95","-999","-999","30.6","87.1","-9999.00","-9999.00","Clear","clear","0","0","0","0","0","0","METAR UKKK 311330Z 30003MPS 260V340 CAVOK 31/15 Q1014 R26/CLRD70 NOSIG"
"5:00 PM EEST on July 31, 2016","2016","07","31","17","00","Europe/Kiev","2:00 PM GMT on July 31, 2016","2016","07","31","14","00","UTC","31.0","87.8","16.0","60.8","40","7.2","4.5","-9999.0","-9999.0","350","North","9.0","5.6","1014","29.95","-999","-999","30.9","87.6","-9999.00","-9999.00","Mostly Cloudy","mostlycloudy","0","0","0","0","0","0","METAR UKKK 311400Z 35002MPS 260V040 9000 FEW033CB BKN100 31/16 Q1014 R26/CLRD70 NOSIG"
"5:30 PM EEST on July 31, 2016","2016","07","31","17","30","Europe/Kiev","2:30 PM GMT on July 31, 2016","2016","07","31","14","30","UTC","30.0","86.0","15.0","59.0","40","14.4","8.9","-9999.0","-9999.0","270","West","-9999.0","-9999.0","1013","29.92","-999","-999","29.7","85.4","-9999.00","-9999.00","Clear","clear","0","0","0","0","0","0","METAR UKKK 311430Z 27004MPS 210V310 CAVOK 30/15 Q1013 R26/CLRD70 NOSIG"
"6:00 PM EEST on July 31, 2016","2016","07","31","18","00","Europe/Kiev","3:00 PM GMT on July 31, 2016","2016","07","31","15","00","UTC","31","88","14","57","25","7.2","4.5","","","280","West","20","12","1012","29.90","-999","-999","-9999","-9999","","","Scattered Clouds","partlycloudy","0","0","0","0","0","0","AAXX 31151 33345 42698 42802 10313 20141 39937 40124 57006 81260 555 10044"
"6:00 PM EEST on July 31, 2016","2016","07","31","18","00","Europe/Kiev","3:00 PM GMT on July 31, 2016","2016","07","31","15","00","UTC","30.0","86.0","15.0","59.0","40","10.8","6.7","-9999.0","-9999.0","260","West","-9999.0","-9999.0","1013","29.92","-999","-999","29.7","85.4","-9999.00","-9999.00","Clear","clear","0","0","0","0","0","0","METAR UKKK 311500Z 26003MPS 230V300 CAVOK 30/15 Q1013 R26/CLRD70 NOSIG"
"6:30 PM EEST on July 31, 2016","2016","07","31","18","30","Europe/Kiev","3:30 PM GMT on July 31, 2016","2016","07","31","15","30","UTC","30.0","86.0","15.0","59.0","40","7.2","4.5","-9999.0","-9999.0","250","WSW","9.0","5.6","1013","29.92","-999","-999","29.7","85.4","-9999.00","-9999.00","Unknown","unknown","0","0","0","0","0","0","METAR UKKK 311530Z 25002MPS 220V280 9000 NSC 30/15 Q1013 R26/CLRD70 NOSIG"
"7:00 PM EEST on July 31, 2016","2016","07","31","19","00","Europe/Kiev","4:00 PM GMT on July 31, 2016","2016","07","31","16","00","UTC","29.0","84.2","16.0","60.8","45","10.8","6.7","-9999.0","-9999.0","280","West","-9999.0","-9999.0","1013","29.92","-999","-999","29.1","84.4","-9999.00","-9999.00","Clear","clear","0","0","0","0","0","0","METAR UKKK 311600Z 28003MPS CAVOK 29/16 Q1013 R26/CLRD70 NOSIG"
"7:30 PM EEST on July 31, 2016","2016","07","31","19","30","Europe/Kiev","4:30 PM GMT on July 31, 2016","2016","07","31","16","30","UTC","29.0","84.2","16.0","60.8","45","7.2","4.5","-9999.0","-9999.0","260","West","-9999.0","-9999.0","1013","29.92","-999","-999","29.1","84.4","-9999.00","-9999.00","Clear","clear","0","0","0","0","0","0","METAR UKKK 311630Z 26002MPS CAVOK 29/16 Q1013 R26/CLRD70 NOSIG"
"8:00 PM EEST on July 31, 2016","2016","07","31","20","00","Europe/Kiev","5:00 PM GMT on July 31, 2016","2016","07","31","17","00","UTC","27.0","80.6","16.0","60.8","51","7.2","4.5","-9999.0","-9999.0","260","West","-9999.0","-9999.0","1013","29.92","-999","-999","27.5","81.5","-9999.00","-9999.00","Clear","clear","0","0","0","0","0","0","METAR UKKK 311700Z 26002MPS CAVOK 27/16 Q1013 R26/CLRD70 NOSIG"
"8:30 PM EEST on July 31, 2016","2016","07","31","20","30","Europe/Kiev","5:30 PM GMT on July 31, 2016","2016","07","31","17","30","UTC","26.0","78.8","16.0","60.8","54","7.2","4.5","-9999.0","-9999.0","260","West","-9999.0","-9999.0","1014","29.95","-999","-999","-9999","-9999","-9999.00","-9999.00","Clear","clear","0","0","0","0","0","0","METAR UKKK 311730Z 26002MPS CAVOK 26/16 Q1014 R26/CLRD70 NOSIG"
"9:00 PM EEST on July 31, 2016","2016","07","31","21","00","Europe/Kiev","6:00 PM GMT on July 31, 2016","2016","07","31","18","00","UTC","27","81","16","60","39","0.0","0.0","","","","","20","12","1013","29.92","-999","-999","-9999","-9999","","","Scattered Clouds","partlycloudy","0","0","0","0","0","0","AAXX 31181 33345 32998 20000 10273 20156 39942 40131 53005 82060 333 10314 555 10025"
"9:00 PM EEST on July 31, 2016","2016","07","31","21","00","Europe/Kiev","6:00 PM GMT on July 31, 2016","2016","07","31","18","00","UTC","23.0","73.4","16.0","60.8","65","0.0","0.0","-9999.0","-9999.0","0","North","9.0","5.6","1014","29.95","-999","-999","-9999","-9999","-9999.00","-9999.00","Unknown","unknown","0","0","0","0","0","0","METAR UKKK 311800Z 00000MPS 9000 NSC 23/16 Q1014 R26/CLRD70 NOSIG"
"9:17 PM EEST on July 31, 2016","2016","07","31","21","17","Europe/Kiev","6:17 PM GMT on July 31, 2016","2016","07","31","18","17","UTC","23.0","73.4","17.0","62.6","69","0.0","0.0","-9999.0","-9999.0","0","North","1.1","0.7","1014","29.95","-999","-999","-9999","-9999","-9999.00","-9999.00","Smoke","hazy","0","0","0","0","0","0","SPECI UKKK 311817Z 00000MPS 1100 R26/P2000N FU NSC 23/17 Q1014 R26/CLRD70 TEMPO 1000 FU"
"9:23 PM EEST on July 31, 2016","2016","07","31","21","23","Europe/Kiev","6:23 PM GMT on July 31, 2016","2016","07","31","18","23","UTC","22.0","71.6","17.0","62.6","73","0.0","0.0","-9999.0","-9999.0","0","North","-9999.0","-9999.0","1014","29.95","-999","-999","-9999","-9999","-9999.00","-9999.00","Smoke","hazy","0","0","0","0","0","0","SPECI UKKK 311823Z 00000MPS 0750 R26/P2000N FU NSC 22/17 Q1014 R26/CLRD70 TEMPO 1000 FU"
"9:30 PM EEST on July 31, 2016","2016","07","31","21","30","Europe/Kiev","6:30 PM GMT on July 31, 2016","2016","07","31","18","30","UTC","22.0","71.6","17.0","62.6","73","0.0","0.0","-9999.0","-9999.0","0","North","0.8","0.5","1014","29.95","-999","-999","-9999","-9999","-9999.00","-9999.00","Smoke","hazy","0","0","0","0","0","0","METAR UKKK 311830Z 00000MPS 0800 R26/P2000N FU NSC 22/17 Q1014 R26/CLRD70 NOSIG"
"10:00 PM EEST on July 31, 2016","2016","07","31","22","00","Europe/Kiev","7:00 PM GMT on July 31, 2016","2016","07","31","19","00","UTC","22.0","71.6","16.0","60.8","69","0.0","0.0","-9999.0","-9999.0","0","North","-9999.0","-9999.0","1014","29.95","-999","-999","-9999","-9999","-9999.00","-9999.00","Smoke","hazy","0","0","0","0","0","0","METAR UKKK 311900Z 00000MPS 3200 FU NSC 22/16 Q1014 R26/CLRD70 NOSIG"
"10:30 PM EEST on July 31, 2016","2016","07","31","22","30","Europe/Kiev","7:30 PM GMT on July 31, 2016","2016","07","31","19","30","UTC","21.0","69.8","17.0","62.6","78","0.0","0.0","-9999.0","-9999.0","0","North","-9999.0","-9999.0","1014","29.95","-999","-999","-9999","-9999","-9999.00","-9999.00","Smoke","hazy","0","0","0","0","0","0","METAR UKKK 311930Z 00000MPS 4900 FU NSC 21/17 Q1014 R26/CLRD70 NOSIG"
"11:00 PM EEST on July 31, 2016","2016","07","31","23","00","Europe/Kiev","8:00 PM GMT on July 31, 2016","2016","07","31","20","00","UTC","21.0","69.8","17.0","62.6","78","0.0","0.0","-9999.0","-9999.0","0","North","6.0","3.7","1015","29.98","-999","-999","-9999","-9999","-9999.00","-9999.00","Clear","clear","0","0","0","0","0","0","METAR UKKK 312000Z 00000MPS 6000 SKC 21/17 Q1015 R26/CLRD70 NOSIG"
"11:30 PM EEST on July 31, 2016","2016","07","31","23","30","Europe/Kiev","8:30 PM GMT on July 31, 2016","2016","07","31","20","30","UTC","20.0","68.0","17.0","62.6","83","0.0","0.0","-9999.0","-9999.0","0","North","9.0","5.6","1015","29.98","-999","-999","-9999","-9999","-9999.00","-9999.00","Clear","clear","0","0","0","0","0","0","METAR UKKK 312030Z 00000MPS 9000 SKC 20/17 Q1015 R26/CLRD70 NOSIG"
