"date.pretty","date.year","date.mon","date.mday","date.hour","date.min","date.tzname","utcdate.pretty","utcdate.year","utcdate.mon","utcdate.mday","utcdate.hour","utcdate.min","utcdate.tzname","tempm","tempi","dewptm","dewpti","hum","wspdm","wspdi","wgustm","wgusti","wdird","wdire","vism","visi","pressurem","pressurei","windchillm","windchilli","heatindexm","heatindexi","precipm","precipi","conds","icon","fog","rain","snow","hail","thunder","tornado","metar"
"12:00 AM EEST on June 01, 2016","2016","06","01","00","00","Europe/Kiev","9:00 PM GMT on May 31, 2016","2016","05","31","21","00","UTC","19","66","17","63","88","7.2","4.5","","","60","ENE","10","6","1012","29.90","-999","-999","-9999","-9999","","","","","0","0","0","0","0","0","AAXX 31211 33345 42997 00602 10189 20174 39928 40123 52007 555 11018"
"12:00 AM EEST on June 01, 2016","2016","06","01","00","00","Europe/Kiev","9:00 PM GMT on May 31, 2016","2016","05","31","21","00","UTC","19.0","66.2","18.0","64.4","94","10.8","6.7","-9999.0","-9999.0","70","ENE","-9999.0","-9999.0","1012","29.89","-999","-999","-9999","-9999","-9999.00","-9999.00","Clear","clear","0","0","0","0","0","0","METAR UKKK 312100Z 07003MPS 040V100 CAVOK 19/18 Q1012 R08/190060 NOSIG"
"12:30 AM EEST on June 01, 2016","2016","06","01","00","30","Europe/Kiev","9:30 PM GMT on May 31, 2016","2016","05","31","21","30","UTC","19.0","66.2","18.0","64.4","94","14.4","8.9","-9999.0","-9999.0","60","ENE","-9999.0","-9999.0","1012","29.89","-999","-999","-9999","-9999","-9999.00","-9999.00","Clear","clear","0","0","0","0","0","0","METAR UKKK 312130Z 06004MPS CAVOK 19/18 Q1012 R08/190060 NOSIG"
"1:00 AM EEST on June 01, 2016","2016","06","01","01","00","Europe/Kiev","10:00 PM GMT on May 31, 2016","2016","05","31","22","00","UTC","19.0","66.2","18.0","64.4","94","18.0","11.2","-9999.0","-9999.0","70","ENE","-9999.0","-9999.0","1012","29.89","-999","-999","-9999","-9999","-9999.00","-9999.00","Clear","clear","0","0","0","0","0","0","METAR UKKK 312200Z 07005MPS CAVOK 19/18 Q1012 R08/190060 NOSIG"
"1:30 AM EEST on June 01, 2016","2016","06","01","01","30","Europe/Kiev","10:30 PM GMT on May 31, 2016","2016","05","31","22","30","UTC","18.0","64.4","18.0","64.4","100","14.4","8.9","-9999.0","-9999.0","80","East","-9999.0","-9999.0","1012","29.89","-999","-999","-9999","-9999","-9999.00","-9999.00","Clear","clear","0","0","0","0","0","0","METAR UKKK 312230Z 08004MPS CAVOK 18/18 Q1012 R08/190060 NOSIG"
"2:00 AM EEST on June 01, 2016","2016","06","01","02","00","Europe/Kiev","11:00 PM GMT on May 31, 2016","2016","05","31","23","00","UTC","18.0","64.4","18.0","64.4","100","14.4","8.9","-9999.0","-9999.0","70","ENE","-9999.0","-9999.0","1013","29.92","-999","-999","-9999","-9999","-9999.00","-9999.00","Clear","clear","0","0","0","0","0","0","METAR UKKK 312300Z 07004MPS CAVOK 18/18 Q1013 R08/190060 NOSIG"
"2:30 AM EEST on June 01, 2016","2016","06","01","02","30","Europe/Kiev","11:30 PM GMT on May 31, 2016","2016","05","31","23","30","UTC","18.0","64.4","17.0","62.6","94","14.4","8.9","-9999.0","-9999.0","60","ENE","-9999.0","-9999.0","1013","29.92","-999","-999","-9999","-9999","-9999.00","-9999.00","Clear","clear","0","0","0","0","0","0","METAR UKKK 312330Z 06004MPS CAVOK 18/17 Q1013 R08/190060 NOSIG"
"3:00 AM EEST on June 01, 2016","2016","06","01","03","00","Europe/Kiev","12:00 AM GMT on June 01, 2016","2016","06","01","00","00","UTC","18","64","16","62","89","3.6","2.2","","","60","ENE","10","6","1013","29.92","-999","-999","-9999","-9999","","","Scattered Clouds","partlycloudy","0","0","0","0","0","0","AAXX 01001 33345 32497 20601 10176 20164 39936 40132 52008 82600 555 11017"
"3:00 AM EEST on June 01, 2016","2016","06","01","03","00","Europe/Kiev","12:00 AM GMT on June 01, 2016","2016","06","01","00","00","UTC","18.0","64.4","17.0","62.6","94","14.4","8.9","-9999.0","-9999.0","70","ENE","-9999.0","-9999.0","1013","29.92","-999","-999","-9999","-9999","-9999.00","-9999.00","Clear","clear","0","0","0","0","0","0","METAR UKKK 010000Z 07004MPS CAVOK 18/17 Q1013 R08/190060 NOSIG"
"3:30 AM EEST on June 01, 2016","2016","06","01","03","30","Europe/Kiev","12:30 AM GMT on June 01, 2016","2016","06","01","00","30","UTC","18.0","64.4","17.0","62.6","94","14.4","8.9","-9999.0","-9999.0","90","East","10.0","6.2","1013","29.92","-999","-999","-9999","-9999","-9999.00","-9999.00","Mostly Cloudy","mostlycloudy","0","0","0","0","0","0","METAR UKKK 010030Z 09004MPS 9999 FEW011 BKN029 18/17 Q1013 R08/190060 NOSIG"
"4:00 AM EEST on June 01, 2016","2016","06","01","04","00","Europe/Kiev","1:00 AM GMT on June 01, 2016","2016","06","01","01","00","UTC","17.0","62.6","17.0","62.6","100","14.4","8.9","-9999.0","-9999.0","90","East","10.0","6.2","1013","29.92","-999","-999","-9999","-9999","-9999.00","-9999.00","Mostly Cloudy","mostlycloudy","0","0","0","0","0","0","METAR UKKK 010100Z 09004MPS 9999 SCT010 BKN029 17/17 Q1013 R08/190060 NOSIG"
"4:30 AM EEST on June 01, 2016","2016","06","01","04","30","Europe/Kiev","1:30 AM GMT on June 01, 2016","2016","06","01","01","30","UTC","17.0","62.6","17.0","62.6","100","10.8","6.7","-9999.0","-9999.0","90","East","10.0","6.2","1014","29.95","-999","-999","-9999","-9999","-9999.00","-9999.00","Mostly Cloudy","mostlycloudy","0","0","0","0","0","0","METAR UKKK 010130Z 09003MPS 9999 SCT010 BKN040 17/17 Q1014 R08/CLRD70 NOSIG"
"5:00 AM EEST on June 01, 2016","2016","06","01","05","00","Europe/Kiev","2:00 AM GMT on June 01, 2016","2016","06","01","02","00","UTC","18.0","64.4","17.0","62.6","94","18.0","11.2","-9999.0","-9999.0","80","East","10.0","6.2","1014","29.95","-999","-999","-9999","-9999","-9999.00","-9999.00","Overcast","cloudy","0","0","0","0","0","0","METAR UKKK 010200Z 08005MPS 9999 OVC009 18/17 Q1014 R08/CLRD70 NOSIG"
"5:30 AM EEST on June 01, 2016","2016","06","01","05","30","Europe/Kiev","2:30 AM GMT on June 01, 2016","2016","06","01","02","30","UTC","18.0","64.4","17.0","62.6","94","18.0","11.2","-9999.0","-9999.0","80","East","10.0","6.2","1014","29.95","-999","-999","-9999","-9999","-9999.00","-9999.00","Overcast","cloudy","0","0","0","0","0","0","METAR UKKK 010230Z 08005MPS 9999 OVC010 18/17 Q1014 R08/CLRD70 NOSIG"
"6:00 AM EEST on June 01, 2016","2016","06","01","06","00","Europe/Kiev","3:00 AM GMT on June 01, 2016","2016","06","01","03","00","UTC","18","64","16","61","85","10.8","6.7","","","70","ENE","10","6","1014","29.95","-999","-999","-9999","-9999","","","Overcast","cloudy","0","0","0","0","0","0","AAXX 01031 33345 42497 80703 10176 20159 39944 40140 52008 8661/ 333 86711 555 11018"
"6:00 AM EEST on June 01, 2016","2016","06","01","06","00","Europe/Kiev","3:00 AM GMT on June 01, 2016","2016","06","01","03","00","UTC","18.0","64.4","16.0","60.8","88","18.0","11.2","-9999.0","-9999.0","80","East","10.0","6.2","1014","29.95","-999","-999","-9999","-9999","-9999.00","-9999.00","Overcast","cloudy","0","0","0","0","0","0","METAR UKKK 010300Z 08005MPS 9999 OVC013 18/16 Q1014 R08/CLRD70 NOSIG"
"6:30 AM EEST on June 01, 2016","2016","06","01","06","30","Europe/Kiev","3:30 AM GMT on June 01, 2016","2016","06","01","03","30","UTC","18.0","64.4","16.0","60.8","88","18.0","11.2","-9999.0","-9999.0","80","East","10.0","6.2","1014","29.95","-999","-999","-9999","-9999","-9999.00","-9999.00","Mostly Cloudy","mostlycloudy","0","0","0","0","0","0","METAR UKKK 010330Z 08005MPS 9999 BKN016 18/16 Q1014 R08/CLRD70 NOSIG"
"7:00 AM EEST on June 01, 2016","2016","06","01","07","00","Europe/Kiev","4:00 AM GMT on June 01, 2016","2016","06","01","04","00","UTC","18.0","64.4","16.0","60.8","88","18.0","11.2","-9999.0","-9999.0","80","East","10.0","6.2","1014","29.95","-999","-999","-9999","-9999","-9999.00","-9999.00","Mostly Cloudy","mostlycloudy","0","0","0","0","0","0","METAR UKKK 010400Z 08005MPS 9999 BKN015 18/16 Q1014 R08/CLRD70 NOSIG"
"7:30 AM EEST on June 01, 2016","2016","06","01","07","30","Europe/Kiev","4:30 AM GMT on June 01, 2016","2016","06","01","04","30","UTC","18.0","64.4","16.0","60.8","88","18.0","11.2","-9999.0","-9999.0","80","East","10.0","6.2","1014","29.95","-999","-999","-9999","-9999","-9999.00","-9999.00","Mostly Cloudy","mostlycloudy","0","0","0","0","0","0","METAR UKKK 010430Z 08005MPS 9999 SCT014 BKN031 18/16 Q1014 R08/CLRD70 NOSIG"
"8:00 AM EEST on June 01, 2016","2016","06","01","08","00","Europe/Kiev","5:00 AM GMT on June 01, 2016","2016","06","01","05","00","UTC","18.0","64.4","16.0","60.8","88","21.6","13.4","-9999.0","-9999.0","80","East","10.0","6.2","1014","29.95","-999","-999","-9999","-9999","-9999.00","-9999.00","Mostly Cloudy","mostlycloudy","0","0","0","0","0","0","METAR UKKK 010500Z 08006MPS 9999 SCT012 BKN031 18/16 Q1014 R08/CLRD70 NOSIG"
"8:30 AM EEST on June 01, 2016","2016","06","01","08","30","Europe/Kiev","5:30 AM GMT on June 01, 2016","2016","06","01","05","30","UTC","18.0","64.4","16.0","60.8","88","18.0","11.2","-9999.0","-9999.0","80","East","10.0","6.2","1015","29.98","-999","-999","-9999","-9999","-9999.00","-9999.00","Mostly Cloudy","mostlycloudy","0","0","0","0","0","0","METAR UKKK 010530Z 08005MPS 9999 SCT013 BKN031 18/16 Q1015 R08/CLRD70 NOSIG"
"9:00 AM EEST on June 01, 2016","2016","06","01","09","00","Europe/Kiev","6:00 AM GMT on June 01, 2016","2016","06","01","06","00","UTC","17","63","14","58","79","10.8","6.7","","","70","ENE","20","12","1015","29.98","-999","-999","-9999","-9999","","","Overcast","cloudy","0","0","0","0","0","0","AAXX 01061 33345 32498 80703 10173 20145 39955 40151 52011 886// 333 20173 88712 555 11019"
"9:00 AM EEST on June 01, 2016","2016","06","01","09","00","Europe/Kiev","6:00 AM GMT on June 01, 2016","2016","06","01","06","00","UTC","18.0","64.4","15.0","59.0","83","18.0","11.2","-9999.0","-9999.0","80","East","10.0","6.2","1015","29.98","-999","-999","-9999","-9999","-9999.00","-9999.00","Overcast","cloudy","0","0","0","0","0","0","METAR UKKK 010600Z 08005MPS 9999 OVC012 18/15 Q1015 R08/CLRD70 NOSIG"
"9:30 AM EEST on June 01, 2016","2016","06","01","09","30","Europe/Kiev","6:30 AM GMT on June 01, 2016","2016","06","01","06","30","UTC","18.0","64.4","15.0","59.0","83","14.4","8.9","-9999.0","-9999.0","70","ENE","10.0","6.2","1015","29.98","-999","-999","-9999","-9999","-9999.00","-9999.00","Mostly Cloudy","mostlycloudy","0","0","0","0","0","0","METAR UKKK 010630Z 07004MPS 9999 BKN014 18/15 Q1015 R08/CLRD70 NOSIG"
"10:00 AM EEST on June 01, 2016","2016","06","01","10","00","Europe/Kiev","7:00 AM GMT on June 01, 2016","2016","06","01","07","00","UTC","18.0","64.4","15.0","59.0","83","18.0","11.2","-9999.0","-9999.0","70","ENE","10.0","6.2","1015","29.98","-999","-999","-9999","-9999","-9999.00","-9999.00","Mostly Cloudy","mostlycloudy","0","0","0","0","0","0","METAR UKKK 010700Z 07005MPS 9999 BKN017 18/15 Q1015 R08/CLRD70 NOSIG"
"10:30 AM EEST on June 01, 2016","2016","06","01","10","30","Europe/Kiev","7:30 AM GMT on June 01, 2016","2016","06","01","07","30","UTC","19.0","66.2","15.0","59.0","78","21.6","13.4","-9999.0","-9999.0","70","ENE","10.0","6.2","1015","29.98","-999","-999","-9999","-9999","-9999.00","-9999.00","Mostly Cloudy","mostlycloudy","0","0","0","0","0","0","METAR UKKK 010730Z 07006MPS 9999 SCT018 BKN026 19/15 Q1015 R08/CLRD70 NOSIG"
"11:00 AM EEST on June 01, 2016","2016","06","01","11","00","Europe/Kiev","8:00 AM GMT on June 01, 2016","2016","06","01","08","00","UTC","20.0","68.0","15.0","59.0","73","21.6","13.4","-9999.0","-9999.0","80","East","10.0","6.2","1016","30.01","-999","-999","-9999","-9999","-9999.00","-9999.00","Mostly Cloudy","mostlycloudy","0","0","0","0","0","0","METAR UKKK 010800Z 08006MPS 9999 BKN021 20/15 Q1016 R08/CLRD70 NOSIG"
"11:30 AM EEST on June 01, 2016","2016","06","01","11","30","Europe/Kiev","8:30 AM GMT on June 01, 2016","2016","06","01","08","30","UTC","20.0","68.0","15.0","59.0","73","21.6","13.4","-9999.0","-9999.0","90","East","10.0","6.2","1016","30.01","-999","-999","-9999","-9999","-9999.00","-9999.00","Mostly Cloudy","mostlycloudy","0","0","0","0","0","0","METAR UKKK 010830Z 09006MPS 040V110 9999 BKN022 20/15 Q1016 R08/CLRD70 NOSIG"
"12:00 PM EEST on June 01, 2016","2016","06","01","12","00","Europe/Kiev","9:00 AM GMT on June 01, 2016","2016","06","01","09","00","UTC","20","68","14","57","59","10.8","6.7","","","80","East","20","12","1016","30.00","-999","-999","-9999","-9999","","","Mostly Cloudy","mostlycloudy","0","0","0","0","0","0","AAXX 01091 33345 42698 50803 10198 20139 39963 40158 52008 85100 555 11030"
"12:00 PM EEST on June 01, 2016","2016","06","01","12","00","Europe/Kiev","9:00 AM GMT on June 01, 2016","2016","06","01","09","00","UTC","20.0","68.0","15.0","59.0","73","18.0","11.2","-9999.0","-9999.0","100","East","10.0","6.2","1016","30.01","-999","-999","-9999","-9999","-9999.00","-9999.00","Mostly Cloudy","mostlycloudy","0","0","0","0","0","0","METAR UKKK 010900Z 10005MPS 060V130 9999 BKN023 20/15 Q1016 R08/CLRD70 NOSIG"
"12:30 PM EEST on June 01, 2016","2016","06","01","12","30","Europe/Kiev","9:30 AM GMT on June 01, 2016","2016","06","01","09","30","UTC","20.0","68.0","15.0","59.0","73","21.6","13.4","-9999.0","-9999.0","80","East","10.0","6.2","1016","30.01","-999","-999","-9999","-9999","-9999.00","-9999.00","Mostly Cloudy","mostlycloudy","0","0","0","0","0","0","METAR UKKK 010930Z 08006MPS 050V110 9999 BKN025 20/15 Q1016 R08/CLRD70 NOSIG"
"1:00 PM EEST on June 01, 2016","2016","06","01","13","00","Europe/Kiev","10:00 AM GMT on June 01, 2016","2016","06","01","10","00","UTC","20.0","68.0","15.0","59.0","73","21.6","13.4","-9999.0","-9999.0","90","East","10.0","6.2","1016","30.01","-999","-999","-9999","-9999","-9999.00","-9999.00","Scattered Clouds","partlycloudy","0","0","0","0","0","0","METAR UKKK 011000Z 09006MPS 9999 SCT027 20/15 Q1016 R08/CLRD70 NOSIG"
"1:30 PM EEST on June 01, 2016","2016","06","01","13","30","Europe/Kiev","10:30 AM GMT on June 01, 2016","2016","06","01","10","30","UTC","20.0","68.0","15.0","59.0","73","21.6","13.4","-9999.0","-9999.0","90","East","10.0","6.2","1016","30.01","-999","-999","-9999","-9999","-9999.00","-9999.00","Scattered Clouds","partlycloudy","0","0","0","0","0","0","METAR UKKK 011030Z 09006MPS 060V120 9999 SCT026 20/15 Q1016 R08/CLRD70 NOSIG"
"2:00 PM EEST on June 01, 2016","2016","06","01","14","00","Europe/Kiev","11:00 AM GMT on June 01, 2016","2016","06","01","11","00","UTC","20.0","68.0","15.0","59.0","73","21.6","13.4","-9999.0","-9999.0","80","East","10.0","6.2","1016","30.01","-999","-999","-9999","-9999","-9999.00","-9999.00","Scattered Clouds","partlycloudy","0","0","0","0","0","0","METAR UKKK 011100Z 08006MPS 9999 SCT026 20/15 Q1016 R08/CLRD70 NOSIG"
"2:30 PM EEST on June 01, 2016","2016","06","01","14","30","Europe/Kiev","11:30 AM GMT on June 01, 2016","2016","06","01","11","30","UTC","20.0","68.0","14.0","57.2","68","21.6","13.4","-9999.0","-9999.0","90","East","10.0","6.2","1016","30.01","-999","-999","-9999","-9999","-9999.00","-9999.00","Mostly Cloudy","mostlycloudy","0","0","0","0","0","0","METAR UKKK 011130Z 09006MPS 060V130 9999 BKN029 20/14 Q1016 R08/CLRD70 NOSIG"
"3:00 PM EEST on June 01, 2016","2016","06","01","15","00","Europe/Kiev","12:00 PM GMT on June 01, 2016","2016","06","01","12","00","UTC","21","69","14","57","56","10.8","6.7","","","140","SE","20","12","1016","30.01","-999","-999","-9999","-9999","","","Partly Cloudy","partlycloudy","0","0","0","0","0","0","AAXX 01121 33345 32698 41403 10207 20138 39969 40163 52006 84800 555 11029"
"3:00 PM EEST on June 01, 2016","2016","06","01","15","00","Europe/Kiev","12:00 PM GMT on June 01, 2016","2016","06","01","12","00","UTC","20.0","68.0","14.0","57.2","68","21.6","13.4","-9999.0","-9999.0","100","East","10.0","6.2","1016","30.01","-999","-999","-9999","-9999","-9999.00","-9999.00","Mostly Cloudy","mostlycloudy","0","0","0","0","0","0","METAR UKKK 011200Z 10006MPS 070V140 9999 BKN027 20/14 Q1016 R08/CLRD70 NOSIG"
"3:30 PM EEST on June 01, 2016","2016","06","01","15","30","Europe/Kiev","12:30 PM GMT on June 01, 2016","2016","06","01","12","30","UTC","20.0","68.0","14.0","57.2","68","21.6","13.4","-9999.0","-9999.0","100","East","10.0","6.2","1016","30.01","-999","-999","-9999","-9999","-9999.00","-9999.00","Mostly Cloudy","mostlycloudy","0","0","0","0","0","0","METAR UKKK 011230Z 10006MPS 070V140 9999 BKN026 20/14 Q1016 R08/CLRD70 NOSIG"
"4:00 PM EEST on June 01, 2016","2016","06","01","16","00","Europe/Kiev","1:00 PM GMT on June 01, 2016","2016","06","01","13","00","UTC","21.0","69.8","14.0","57.2","64","18.0","11.2","-9999.0","-9999.0","110","ESE","10.0","6.2","1016","30.01","-999","-999","-9999","-9999","-9999.00","-9999.00","Mostly Cloudy","mostlycloudy","0","0","0","0","0","0","METAR UKKK 011300Z 11005MPS 080V140 9999 BKN026 21/14 Q1016 R08/CLRD70 NOSIG"
"4:30 PM EEST on June 01, 2016","2016","06","01","16","30","Europe/Kiev","1:30 PM GMT on June 01, 2016","2016","06","01","13","30","UTC","21.0","69.8","14.0","57.2","64","14.4","8.9","-9999.0","-9999.0","130","SE","10.0","6.2","1016","30.01","-999","-999","-9999","-9999","-9999.00","-9999.00","Mostly Cloudy","mostlycloudy","0","0","0","0","0","0","METAR UKKK 011330Z 13004MPS 070V160 9999 BKN033 21/14 Q1016 R08/CLRD70 NOSIG"
"5:00 PM EEST on June 01, 2016","2016","06","01","17","00","Europe/Kiev","2:00 PM GMT on June 01, 2016","2016","06","01","14","00","UTC","21.0","69.8","14.0","57.2","64","18.0","11.2","-9999.0","-9999.0","100","East","10.0","6.2","1016","30.01","-999","-999","-9999","-9999","-9999.00","-9999.00","Mostly Cloudy","mostlycloudy","0","0","0","0","0","0","METAR UKKK 011400Z 10005MPS 070V130 9999 BKN033 21/14 Q1016 R08/CLRD70 NOSIG"
"5:30 PM EEST on June 01, 2016","2016","06","01","17","30","Europe/Kiev","2:30 PM GMT on June 01, 2016","2016","06","01","14","30","UTC","21.0","69.8","13.0","55.4","60","21.6","13.4","-9999.0","-9999.0","80","East","10.0","6.2","1016","30.01","-999","-999","-9999","-9999","-9999.00","-9999.00","Mostly Cloudy","mostlycloudy","0","0","0","0","0","0","METAR UKKK 011430Z 08006MPS 9999 BKN040 21/13 Q1016 R08/CLRD70 NOSIG"
"6:00 PM EEST on June 01, 2016","2016","06","01","18","00","Europe/Kiev","3:00 PM GMT on June 01, 2016","2016","06","01","15","00","UTC","21","70","12","54","48","10.8","6.7","","","80","East","20","12","1016","30.00","-999","-999","-9999","-9999","","","Partly Cloudy","partlycloudy","0","0","0","0","0","0","AAXX 01151 33345 42598 40803 10211 20125 39964 40158 58005 84500 555 11023"
"6:00 PM EEST on June 01, 2016","2016","06","01","18","00","Europe/Kiev","3:00 PM GMT on June 01, 2016","2016","06","01","15","00","UTC","22.0","71.6","13.0","55.4","57","21.6","13.4","-9999.0","-9999.0","80","East","10.0","6.2","1016","30.01","-999","-999","-9999","-9999","-9999.00","-9999.00","Mostly Cloudy","mostlycloudy","0","0","0","0","0","0","METAR UKKK 011500Z 08006MPS 050V110 9999 BKN046 22/13 Q1016 R08/CLRD70 NOSIG"
"6:30 PM EEST on June 01, 2016","2016","06","01","18","30","Europe/Kiev","3:30 PM GMT on June 01, 2016","2016","06","01","15","30","UTC","21.0","69.8","12.0","53.6","56","18.0","11.2","-9999.0","-9999.0","80","East","10.0","6.2","1016","30.01","-999","-999","-9999","-9999","-9999.00","-9999.00","Mostly Cloudy","mostlycloudy","0","0","0","0","0","0","METAR UKKK 011530Z 08005MPS 9999 BKN046 21/12 Q1016 R08/CLRD70 NOSIG"
"7:00 PM EEST on June 01, 2016","2016","06","01","19","00","Europe/Kiev","4:00 PM GMT on June 01, 2016","2016","06","01","16","00","UTC","20.0","68.0","12.0","53.6","60","18.0","11.2","-9999.0","-9999.0","80","East","10.0","6.2","1016","30.01","-999","-999","-9999","-9999","-9999.00","-9999.00","Scattered Clouds","partlycloudy","0","0","0","0","0","0","METAR UKKK 011600Z 08005MPS 9999 SCT045 20/12 Q1016 R08/CLRD70 NOSIG"
"7:30 PM EEST on June 01, 2016","2016","06","01","19","30","Europe/Kiev","4:30 PM GMT on June 01, 2016","2016","06","01","16","30","UTC","20.0","68.0","12.0","53.6","60","18.0","11.2","-9999.0","-9999.0","70","ENE","-9999.0","-9999.0","1016","30.01","-999","-999","-9999","-9999","-9999.00","-9999.00","Clear","clear","0","0","0","0","0","0","METAR UKKK 011630Z 07005MPS CAVOK 20/12 Q1016 R08/CLRD70 NOSIG"
"8:00 PM EEST on June 01, 2016","2016","06","01","20","00","Europe/Kiev","5:00 PM GMT on June 01, 2016","2016","06","01","17","00","UTC","20.0","68.0","12.0","53.6","60","18.0","11.2","-9999.0","-9999.0","70","ENE","-9999.0","-9999.0","1017","30.04","-999","-999","-9999","-9999","-9999.00","-9999.00","Clear","clear","0","0","0","0","0","0","METAR UKKK 011700Z 07005MPS CAVOK 20/12 Q1017 R08/CLRD70 NOSIG"
"8:30 PM EEST on June 01, 2016","2016","06","01","20","30","Europe/Kiev","5:30 PM GMT on June 01, 2016","2016","06","01","17","30","UTC","19.0","66.2","12.0","53.6","64","18.0","11.2","-9999.0","-9999.0","70","ENE","10.0","6.2","1017","30.04","-999","-999","-9999","-9999","-9999.00","-9999.00","Scattered Clouds","partlycloudy","0","0","0","0","0","0","METAR UKKK 011730Z 07005MPS 9999 SCT042 19/12 Q1017 R08/CLRD70 NOSIG"
"9:00 PM EEST on June 01, 2016","2016","06","01","21","00","Europe/Kiev","6:00 PM GMT on June 01, 2016","2016","06","01","18","00","UTC","19","66","12","53","53","10.8","6.7","","","60","ENE","20","12","1017","30.04","-999","-999","-9999","-9999","","","Scattered Clouds","partlycloudy","0","0","0","0","0","0","AAXX 01181 33345 32998 20603 10189 20115 39974 40170 53010 82031 333 10221 555 11017"
"9:00 PM EEST on June 01, 2016","2016","06","01","21","00","Europe/Kiev","6:00 PM GMT on June 01, 2016","2016","06","01","18","00","UTC","19.0","66.2","11.0","51.8","60","18.0","11.2","-9999.0","-9999.0","70","ENE","10.0","6.2","1017","30.04","-999","-999","-9999","-9999","-9999.00","-9999.00","Scattered Clouds","partlycloudy","0","0","0","0","0","0","METAR UKKK 011800Z 07005MPS 9999 SCT046 19/11 Q1017 R08/CLRD70 NOSIG"
"9:30 PM EEST on June 01, 2016","2016","06","01","21","30","Europe/Kiev","6:30 PM GMT on June 01, 2016","2016","06","01","18","30","UTC","18.0","64.4","11.0","51.8","64","14.4","8.9","-9999.0","-9999.0","70","ENE","10.0","6.2","1017","30.04","-999","-999","-9999","-9999","-9999.00","-9999.00","Scattered Clouds","partlycloudy","0","0","0","0","0","0","METAR UKKK 011830Z 07004MPS 9999 SCT046 18/11 Q1017 R08/CLRD70 NOSIG"
"10:00 PM EEST on June 01, 2016","2016","06","01","22","00","Europe/Kiev","7:00 PM GMT on June 01, 2016","2016","06","01","19","00","UTC","16.0","60.8","11.0","51.8","72","10.8","6.7","-9999.0","-9999.0","80","East","-9999.0","-9999.0","1017","30.04","-999","-999","-9999","-9999","-9999.00","-9999.00","Clear","clear","0","0","0","0","0","0","METAR UKKK 011900Z 08003MPS CAVOK 16/11 Q1017 R08/CLRD70 NOSIG"
"10:30 PM EEST on June 01, 2016","2016","06","01","22","30","Europe/Kiev","7:30 PM GMT on June 01, 2016","2016","06","01","19","30","UTC","17.0","62.6","11.0","51.8","68","14.4","8.9","-9999.0","-9999.0","80","East","-9999.0","-9999.0","1017","30.04","-999","-999","-9999","-9999","-9999.00","-9999.00","Clear","clear","0","0","0","0","0","0","METAR UKKK 011930Z 08004MPS CAVOK 17/11 Q1017 R08/CLRD70 NOSIG"
"11:00 PM EEST on June 01, 2016","2016","06","01","23","00","Europe/Kiev","8:00 PM GMT on June 01, 2016","2016","06","01","20","00","UTC","16.0","60.8","10.0","50.0","68","18.0","11.2","-9999.0","-9999.0","80","East","-9999.0","-9999.0","1017","30.04","-999","-999","-9999","-9999","-9999.00","-9999.00","Clear","clear","0","0","0","0","0","0","METAR UKKK 012000Z 08005MPS CAVOK 16/10 Q1017 R08/CLRD70 NOSIG"
"11:30 PM EEST on June 01, 2016","2016","06","01","23","30","Europe/Kiev","8:30 PM GMT on June 01, 2016","2016","06","01","20","30","UTC","15.0","59.0","10.0","50.0","72","14.4","8.9","-9999.0","-9999.0","80","East","-9999.0","-9999.0","1017","30.04","-999","-999","-9999","-9999","-9999.00","-9999.00","Clear","clear","0","0","0","0","0","0","METAR UKKK 012030Z 08004MPS CAVOK 15/10 Q1017 R08/CLRD70 NOSIG"
"12:00 AM EEST on June 02, 2016","2016","06","02","00","00","Europe/Kiev","9:00 PM GMT on June 01, 2016","2016","06","01","21","00","UTC","16","62","9","48","50","10.8","6.7","","","80","East","20","12","1018","30.05","-999","-999","-9999","-9999","","","","","0","0","0","0","0","0","AAXX 01211 33345 42998 00803 10165 20090 39978 40176 52004 555 11014"
"12:00 AM EEST on June 02, 2016","2016","06","02","00","00","Europe/Kiev","9:00 PM GMT on June 01, 2016","2016","06","01","21","00","UTC","15.0","59.0","10.0","50.0","72","10.8","6.7","-9999.0","-9999.0","80","East","-9999.0","-9999.0","1017","30.04","-999","-999","-9999","-9999","-9999.00","-9999.00","Clear","clear","0","0","0","0","0","0","METAR UKKK 012100Z 08003MPS CAVOK 15/10 Q1017 R08/CLRD70 NOSIG"
"12:30 AM EEST on June 02, 2016","2016","06","02","00","30","Europe/Kiev","9:30 PM GMT on June 01, 2016","2016","06","01","21","30","UTC","14.0","57.2","9.0","48.2","72","10.8","6.7","-9999.0","-9999.0","90","East","-9999.0","-9999.0","1017","30.04","-999","-999","-9999","-9999","-9999.00","-9999.00","Clear","clear","0","0","0","0","0","0","METAR UKKK 012130Z 09003MPS CAVOK 14/09 Q1017 R08/CLRD70 NOSIG"
"1:00 AM EEST on June 02, 2016","2016","06","02","01","00","Europe/Kiev","10:00 PM GMT on June 01, 2016","2016","06","01","22","00","UTC","14.0","57.2","9.0","48.2","72","10.8","6.7","-9999.0","-9999.0","100","East","-9999.0","-9999.0","1017","30.04","-999","-999","-9999","-9999","-9999.00","-9999.00","Clear","clear","0","0","0","0","0","0","METAR UKKK 012200Z 10003MPS CAVOK 14/09 Q1017 R08/CLRD70 NOSIG"
"1:30 AM EEST on June 02, 2016","2016","06","02","01","30","Europe/Kiev","10:30 PM GMT on June 01, 2016","2016","06","01","22","30","UTC","14.0","57.2","10.0","50.0","77","10.8","6.7","-9999.0","-9999.0","90","East","-9999.0","-9999.0","1017","30.04","-999","-999","-9999","-9999","-9999.00","-9999.00","Clear","clear","0","0","0","0","0","0","METAR UKKK 012230Z 09003MPS CAVOK 14/10 Q1017 R08/CLRD70 NOSIG"
"2:00 AM EEST on June 02, 2016","2016","06","02","02","00","Europe/Kiev","11:00 PM GMT on June 01, 2016","2016","06","01","23","00","UTC","14.0","57.2","9.0","48.2","72","7.2","4.5","-9999.0","-9999.0","120","ESE","-9999.0","-9999.0","1017","30.04","-999","-999","-9999","-9999","-9999.00","-9999.00","Clear","clear","0","0","0","0","0","0","METAR UKKK 012300Z 12002MPS CAVOK 14/09 Q1017 R08/CLRD70 NOSIG"
"2:30 AM EEST on June 02, 2016","2016","06","02","02","30","Europe/Kiev","11:30 PM GMT on June 01, 2016","2016","06","01","23","30","UTC","14.0","57.2","9.0","48.2","72","14.4","8.9","-9999.0","-9999.0","100","East","-9999.0","-9999.0","1017","30.04","-999","-999","-9999","-9999","-9999.00","-9999.00","Clear","clear","0","0","0","0","0","0","METAR UKKK 012330Z 10004MPS CAVOK 14/09 Q1017 R08/CLRD70 NOSIG"
"3:00 AM EEST on June 02, 2016","2016","06","02","03","00","Europe/Kiev","12:00 AM GMT on June 02, 2016","2016","06","02","00","00","UTC","13","56","10","49","72","0.0","0.0","","","","","20","12","1018","30.06","-999","-999","-9999","-9999","","","","","0","0","0","0","0","0","AAXX 02001 33345 32998 00000 10132 20097 39978 40178 54000 555 11012"
"3:00 AM EEST on June 02, 2016","2016","06","02","03","00","Europe/Kiev","12:00 AM GMT on June 02, 2016","2016","06","02","00","00","UTC","13.0","55.4","10.0","50.0","82","10.8","6.7","-9999.0","-9999.0","100","East","-9999.0","-9999.0","1017","30.04","-999","-999","-9999","-9999","-9999.00","-9999.00","Clear","clear","0","0","0","0","0","0","METAR UKKK 020000Z 10003MPS CAVOK 13/10 Q1017 R08/CLRD70 NOSIG"
"3:30 AM EEST on June 02, 2016","2016","06","02","03","30","Europe/Kiev","12:30 AM GMT on June 02, 2016","2016","06","02","00","30","UTC","12.0","53.6","10.0","50.0","88","7.2","4.5","-9999.0","-9999.0","100","East","-9999.0","-9999.0","1017","30.04","-999","-999","-9999","-9999","-9999.00","-9999.00","Clear","clear","0","0","0","0","0","0","METAR UKKK 020030Z 10002MPS CAVOK 12/10 Q1017 R08/CLRD70 NOSIG"
"4:00 AM EEST on June 02, 2016","2016","06","02","04","00","Europe/Kiev","1:00 AM GMT on June 02, 2016","2016","06","02","01","00","UTC","12.0","53.6","10.0","50.0","88","7.2","4.5","-9999.0","-9999.0","100","East","-9999.0","-9999.0","1017","30.04","-999","-999","-9999","-9999","-9999.00","-9999.00","Clear","clear","0","0","0","0","0","0","METAR UKKK 020100Z 10002MPS CAVOK 12/10 Q1017 R08/CLRD70 NOSIG"
"4:30 AM EEST on June 02, 2016","2016","06","02","04","30","Europe/Kiev","1:30 AM GMT on June 02, 2016","2016","06","02","01","30","UTC","12.0","53.6","10.0","50.0","88","10.8","6.7","-9999.0","-9999.0","110","ESE","-9999.0","-9999.0","1017","30.04","-999","-999","-9999","-9999","-9999.00","-9999.00","Clear","clear","0","0","0","0","0","0","METAR UKKK 020130Z 11003MPS CAVOK 12/10 Q1017 R08/CLRD70 NOSIG"
"5:00 AM EEST on June 02, 2016","2016","06","02","05","00","Europe/Kiev","2:00 AM GMT on June 02, 2016","2016","06","02","02","00","UTC","12.0","53.6","10.0","50.0","88","10.8","6.7","-9999.0","-9999.0","90","East","-9999.0","-9999.0","1017","30.04","-999","-999","-9999","-9999","-9999.00","-9999.00","Clear","clear","0","0","0","0","0","0","METAR UKKK 020200Z 09003MPS CAVOK 12/10 Q1017 R08/CLRD70 NOSIG"
"5:30 AM EEST on June 02, 2016","2016","06","02","05","30","Europe/Kiev","2:30 AM GMT on June 02, 2016","2016","06","02","02","30","UTC","11.0","51.8","10.0","50.0","94","10.8","6.7","-9999.0","-9999.0","90","East","-9999.0","-9999.0","1017","30.04","-999","-999","-9999","-9999","-9999.00","-9999.00","Clear","clear","0","0","0","0","0","0","METAR UKKK 020230Z 09003MPS CAVOK 11/10 Q1017 R08/CLRD70 NOSIG"
"6:00 AM EEST on June 02, 2016","2016","06","02","06","00","Europe/Kiev","3:00 AM GMT on June 02, 2016","2016","06","02","03","00","UTC","12","53","10","50","85","3.6","2.2","","","160","SSE","10","6","1018","30.06","-999","-999","-9999","-9999","","","","","0","0","0","0","0","0","AAXX 02031 33345 42997 01601 10119 20099 39978 40179 54000 555 11011"
"6:00 AM EEST on June 02, 2016","2016","06","02","06","00","Europe/Kiev","3:00 AM GMT on June 02, 2016","2016","06","02","03","00","UTC","13.0","55.4","11.0","51.8","88","10.8","6.7","-9999.0","-9999.0","100","East","-9999.0","-9999.0","1017","30.04","-999","-999","-9999","-9999","-9999.00","-9999.00","Clear","clear","0","0","0","0","0","0","METAR UKKK 020300Z 10003MPS CAVOK 13/11 Q1017 R08/CLRD70 NOSIG"
"6:30 AM EEST on June 02, 2016","2016","06","02","06","30","Europe/Kiev","3:30 AM GMT on June 02, 2016","2016","06","02","03","30","UTC","14.0","57.2","11.0","51.8","82","7.2","4.5","-9999.0","-9999.0","80","East","-9999.0","-9999.0","1017","30.04","-999","-999","-9999","-9999","-9999.00","-9999.00","Clear","clear","0","0","0","0","0","0","METAR UKKK 020330Z 08002MPS CAVOK 14/11 Q1017 R08/CLRD70 NOSIG"
"7:00 AM EEST on June 02, 2016","2016","06","02","07","00","Europe/Kiev","4:00 AM GMT on June 02, 2016","2016","06","02","04","00","UTC","15.0","59.0","12.0","53.6","82","10.8","6.7","-9999.0","-9999.0","70","ENE","-9999.0","-9999.0","1017","30.04","-999","-999","-9999","-9999","-9999.00","-9999.00","Clear","clear","0","0","0","0","0","0","METAR UKKK 020400Z 07003MPS CAVOK 15/12 Q1017 R08/CLRD70 NOSIG"
"7:30 AM EEST on June 02, 2016","2016","06","02","07","30","Europe/Kiev","4:30 AM GMT on June 02, 2016","2016","06","02","04","30","UTC","15.0","59.0","11.0","51.8","77","18.0","11.2","-9999.0","-9999.0","80","East","-9999.0","-9999.0","1017","30.04","-999","-999","-9999","-9999","-9999.00","-9999.00","Clear","clear","0","0","0","0","0","0","METAR UKKK 020430Z 08005MPS CAVOK 15/11 Q1017 R08/CLRD70 NOSIG"
"8:00 AM EEST on June 02, 2016","2016","06","02","08","00","Europe/Kiev","5:00 AM GMT on June 02, 2016","2016","06","02","05","00","UTC","15.0","59.0","11.0","51.8","77","21.6","13.4","-9999.0","-9999.0","80","East","-9999.0","-9999.0","1017","30.04","-999","-999","-9999","-9999","-9999.00","-9999.00","Clear","clear","0","0","0","0","0","0","METAR UKKK 020500Z 08006MPS CAVOK 15/11 Q1017 R08/CLRD70 NOSIG"
"8:30 AM EEST on June 02, 2016","2016","06","02","08","30","Europe/Kiev","5:30 AM GMT on June 02, 2016","2016","06","02","05","30","UTC","16.0","60.8","9.0","48.2","63","25.2","15.7","-9999.0","-9999.0","80","East","-9999.0","-9999.0","1017","30.04","-999","-999","-9999","-9999","-9999.00","-9999.00","Clear","clear","0","0","0","0","0","0","METAR UKKK 020530Z 08007MPS CAVOK 16/09 Q1017 R08/CLRD70 NOSIG"
"9:00 AM EEST on June 02, 2016","2016","06","02","09","00","Europe/Kiev","6:00 AM GMT on June 02, 2016","2016","06","02","06","00","UTC","17","62","9","48","50","14.4","8.9","","","90","East","20","12","1018","30.06","-999","-999","-9999","-9999","","","","","0","0","0","0","0","0","AAXX 02061 33345 32998 00904 10167 20090 39980 40178 53002 333 20114 555 10022"
"9:00 AM EEST on June 02, 2016","2016","06","02","09","00","Europe/Kiev","6:00 AM GMT on June 02, 2016","2016","06","02","06","00","UTC","17.0","62.6","9.0","48.2","59","21.6","13.4","-9999.0","-9999.0","80","East","-9999.0","-9999.0","1017","30.04","-999","-999","-9999","-9999","-9999.00","-9999.00","Clear","clear","0","0","0","0","0","0","METAR UKKK 020600Z 08006MPS CAVOK 17/09 Q1017 R08/CLRD70 NOSIG"
"9:30 AM EEST on June 02, 2016","2016","06","02","09","30","Europe/Kiev","6:30 AM GMT on June 02, 2016","2016","06","02","06","30","UTC","17.0","62.6","9.0","48.2","59","21.6","13.4","-9999.0","-9999.0","90","East","10.0","6.2","1018","30.06","-999","-999","-9999","-9999","-9999.00","-9999.00","Scattered Clouds","partlycloudy","0","0","0","0","0","0","METAR UKKK 020630Z 09006MPS 9999 SCT040 17/09 Q1018 R08/CLRD70 NOSIG"
"10:00 AM EEST on June 02, 2016","2016","06","02","10","00","Europe/Kiev","7:00 AM GMT on June 02, 2016","2016","06","02","07","00","UTC","17.0","62.6","10.0","50.0","63","21.6","13.4","-9999.0","-9999.0","90","East","10.0","6.2","1018","30.06","-999","-999","-9999","-9999","-9999.00","-9999.00","Scattered Clouds","partlycloudy","0","0","0","0","0","0","METAR UKKK 020700Z 09006MPS 060V130 9999 SCT037 17/10 Q1018 R08/CLRD70 NOSIG"
"10:30 AM EEST on June 02, 2016","2016","06","02","10","30","Europe/Kiev","7:30 AM GMT on June 02, 2016","2016","06","02","07","30","UTC","17.0","62.6","9.0","48.2","59","25.2","15.7","-9999.0","-9999.0","110","ESE","10.0","6.2","1018","30.06","-999","-999","-9999","-9999","-9999.00","-9999.00","Scattered Clouds","partlycloudy","0","0","0","0","0","0","METAR UKKK 020730Z 11007MPS 9999 SCT039 17/09 Q1018 R08/CLRD70 NOSIG"
"11:00 AM EEST on June 02, 2016","2016","06","02","11","00","Europe/Kiev","8:00 AM GMT on June 02, 2016","2016","06","02","08","00","UTC","18.0","64.4","10.0","50.0","59","18.0","11.2","-9999.0","-9999.0","110","ESE","10.0","6.2","1018","30.06","-999","-999","-9999","-9999","-9999.00","-9999.00","Scattered Clouds","partlycloudy","0","0","0","0","0","0","METAR UKKK 020800Z 11005MPS 080V150 9999 SCT041 18/10 Q1018 R08/CLRD70 NOSIG"
"11:30 AM EEST on June 02, 2016","2016","06","02","11","30","Europe/Kiev","8:30 AM GMT on June 02, 2016","2016","06","02","08","30","UTC","17.0","62.6","9.0","48.2","59","18.0","11.2","-9999.0","-9999.0","100","East","10.0","6.2","1018","30.06","-999","-999","-9999","-9999","-9999.00","-9999.00","Scattered Clouds","partlycloudy","0","0","0","0","0","0","METAR UKKK 020830Z 10005MPS 070V130 9999 SCT046 17/09 Q1018 R08/CLRD70 NOSIG"
"12:00 PM EEST on June 02, 2016","2016","06","02","12","00","Europe/Kiev","9:00 AM GMT on June 02, 2016","2016","06","02","09","00","UTC","20","67","9","48","39","10.8","6.7","","","130","SE","20","12","1018","30.06","-999","-999","-9999","-9999","","","Mostly Cloudy","mostlycloudy","0","0","0","0","0","0","AAXX 02091 33345 42598 61303 10195 20089 39981 40177 52001 86200 555 10028"
"12:00 PM EEST on June 02, 2016","2016","06","02","12","00","Europe/Kiev","9:00 AM GMT on June 02, 2016","2016","06","02","09","00","UTC","17.0","62.6","9.0","48.2","59","21.6","13.4","-9999.0","-9999.0","90","East","10.0","6.2","1018","30.06","-999","-999","-9999","-9999","-9999.00","-9999.00","Mostly Cloudy","mostlycloudy","0","0","0","0","0","0","METAR UKKK 020900Z 09006MPS 060V120 9999 BKN044 17/09 Q1018 R08/CLRD70 NOSIG"
"12:30 PM EEST on June 02, 2016","2016","06","02","12","30","Europe/Kiev","9:30 AM GMT on June 02, 2016","2016","06","02","09","30","UTC","19.0","66.2","9.0","48.2","52","21.6","13.4","-9999.0","-9999.0","90","East","10.0","6.2","1017","30.04","-999","-999","-9999","-9999","-9999.00","-9999.00","Mostly Cloudy","mostlycloudy","0","0","0","0","0","0","METAR UKKK 020930Z 09006MPS 9999 BKN046 19/09 Q1017 R08/CLRD70 NOSIG"
"1:00 PM EEST on June 02, 2016","2016","06","02","13","00","Europe/Kiev","10:00 AM GMT on June 02, 2016","2016","06","02","10","00","UTC","19.0","66.2","9.0","48.2","52","25.2","15.7","-9999.0","-9999.0","80","East","10.0","6.2","1017","30.04","-999","-999","-9999","-9999","-9999.00","-9999.00","Mostly Cloudy","mostlycloudy","0","0","0","0","0","0","METAR UKKK 021000Z 08007MPS 9999 BKN049 19/09 Q1017 R08/CLRD70 NOSIG"
"1:30 PM EEST on June 02, 2016","2016","06","02","13","30","Europe/Kiev","10:30 AM GMT on June 02, 2016","2016","06","02","10","30","UTC","20.0","68.0","9.0","48.2","49","21.6","13.4","-9999.0","-9999.0","110","ESE","-9999.0","-9999.0","1017","30.04","-999","-999","-9999","-9999","-9999.00","-9999.00","Clear","clear","0","0","0","0","0","0","METAR UKKK 021030Z 11006MPS 080V140 CAVOK 20/09 Q1017 R08/CLRD70 NOSIG"
"2:00 PM EEST on June 02, 2016","2016","06","02","14","00","Europe/Kiev","11:00 AM GMT on June 02, 2016","2016","06","02","11","00","UTC","20.0","68.0","9.0","48.2","49","21.6","13.4","-9999.0","-9999.0","80","East","-9999.0","-9999.0","1017","30.04","-999","-999","-9999","-9999","-9999.00","-9999.00","Clear","clear","0","0","0","0","0","0","METAR UKKK 021100Z 08006MPS CAVOK 20/09 Q1017 R08/CLRD70 NOSIG"
"2:30 PM EEST on June 02, 2016","2016","06","02","14","30","Europe/Kiev","11:30 AM GMT on June 02, 2016","2016","06","02","11","30","UTC","19.0","66.2","8.0","46.4","49","25.2","15.7","-9999.0","-9999.0","60","ENE","-9999.0","-9999.0","1016","30.01","-999","-999","-9999","-9999","-9999.00","-9999.00","Clear","clear","0","0","0","0","0","0","METAR UKKK 021130Z 06007MPS CAVOK 19/08 Q1016 WS RWY08 R08/CLRD70 NOSIG"
"3:00 PM EEST on June 02, 2016","2016","06","02","15","00","Europe/Kiev","12:00 PM GMT on June 02, 2016","2016","06","02","12","00","UTC","20","68","8","47","36","10.8","6.7","","","90","East","20","12","1016","30.01","-999","-999","-9999","-9999","","","Mostly Cloudy","mostlycloudy","0","0","0","0","0","0","AAXX 02121 33345 32698 50903 10201 20085 39967 40162 58014 85200 555 10035"
"3:00 PM EEST on June 02, 2016","2016","06","02","15","00","Europe/Kiev","12:00 PM GMT on June 02, 2016","2016","06","02","12","00","UTC","19.0","66.2","9.0","48.2","52","25.2","15.7","-9999.0","-9999.0","70","ENE","-9999.0","-9999.0","1016","30.01","-999","-999","-9999","-9999","-9999.00","-9999.00","Clear","clear","0","0","0","0","0","0","METAR UKKK 021200Z 07007MPS 040V100 CAVOK 19/09 Q1016 R08/CLRD70 NOSIG"
"3:30 PM EEST on June 02, 2016","2016","06","02","15","30","Europe/Kiev","12:30 PM GMT on June 02, 2016","2016","06","02","12","30","UTC","19.0","66.2","9.0","48.2","52","21.6","13.4","-9999.0","-9999.0","80","East","-9999.0","-9999.0","1016","30.01","-999","-999","-9999","-9999","-9999.00","-9999.00","Clear","clear","0","0","0","0","0","0","METAR UKKK 021230Z 08006MPS 050V120 CAVOK 19/09 Q1016 R08/CLRD70 NOSIG"
"4:00 PM EEST on June 02, 2016","2016","06","02","16","00","Europe/Kiev","1:00 PM GMT on June 02, 2016","2016","06","02","13","00","UTC","20.0","68.0","10.0","50.0","52","18.0","11.2","-9999.0","-9999.0","100","East","-9999.0","-9999.0","1016","30.01","-999","-999","-9999","-9999","-9999.00","-9999.00","Clear","clear","0","0","0","0","0","0","METAR UKKK 021300Z 10005MPS 060V150 CAVOK 20/10 Q1016 R08/CLRD70 NOSIG"
"4:30 PM EEST on June 02, 2016","2016","06","02","16","30","Europe/Kiev","1:30 PM GMT on June 02, 2016","2016","06","02","13","30","UTC","20.0","68.0","9.0","48.2","49","21.6","13.4","-9999.0","-9999.0","80","East","-9999.0","-9999.0","1016","30.01","-999","-999","-9999","-9999","-9999.00","-9999.00","Clear","clear","0","0","0","0","0","0","METAR UKKK 021330Z 08006MPS CAVOK 20/09 Q1016 R08/CLRD70 NOSIG"
"5:00 PM EEST on June 02, 2016","2016","06","02","17","00","Europe/Kiev","2:00 PM GMT on June 02, 2016","2016","06","02","14","00","UTC","20.0","68.0","8.0","46.4","46","18.0","11.2","-9999.0","-9999.0","100","East","-9999.0","-9999.0","1016","30.01","-999","-999","-9999","-9999","-9999.00","-9999.00","Clear","clear","0","0","0","0","0","0","METAR UKKK 021400Z 10005MPS 050V130 CAVOK 20/08 Q1016 R08/CLRD70 NOSIG"
"5:30 PM EEST on June 02, 2016","2016","06","02","17","30","Europe/Kiev","2:30 PM GMT on June 02, 2016","2016","06","02","14","30","UTC","19.0","66.2","8.0","46.4","49","21.6","13.4","-9999.0","-9999.0","80","East","-9999.0","-9999.0","1016","30.01","-999","-999","-9999","-9999","-9999.00","-9999.00","Clear","clear","0","0","0","0","0","0","METAR UKKK 021430Z 08006MPS 060V120 CAVOK 19/08 Q1016 R08/CLRD70 NOSIG"
"6:00 PM EEST on June 02, 2016","2016","06","02","18","00","Europe/Kiev","3:00 PM GMT on June 02, 2016","2016","06","02","15","00","UTC","20","69","7","45","31","10.8","6.7","","","110","ESE","20","12","1016","29.99","-999","-999","-9999","-9999","","","Mostly Cloudy","mostlycloudy","0","0","0","0","0","0","AAXX 02151 33345 42598 61103 10205 20073 39960 40155 57007 86400 555 10033"
"6:00 PM EEST on June 02, 2016","2016","06","02","18","00","Europe/Kiev","3:00 PM GMT on June 02, 2016","2016","06","02","15","00","UTC","19.0","66.2","8.0","46.4","49","14.4","8.9","-9999.0","-9999.0","100","East","-9999.0","-9999.0","1015","29.98","-999","-999","-9999","-9999","-9999.00","-9999.00","Clear","clear","0","0","0","0","0","0","METAR UKKK 021500Z 10004MPS CAVOK 19/08 Q1015 R08/CLRD70 NOSIG"
"6:30 PM EEST on June 02, 2016","2016","06","02","18","30","Europe/Kiev","3:30 PM GMT on June 02, 2016","2016","06","02","15","30","UTC","19.0","66.2","8.0","46.4","49","14.4","8.9","-9999.0","-9999.0","90","East","-9999.0","-9999.0","1015","29.98","-999","-999","-9999","-9999","-9999.00","-9999.00","Clear","clear","0","0","0","0","0","0","METAR UKKK 021530Z 09004MPS 050V130 CAVOK 19/08 Q1015 R08/CLRD70 NOSIG"
"7:00 PM EEST on June 02, 2016","2016","06","02","19","00","Europe/Kiev","4:00 PM GMT on June 02, 2016","2016","06","02","16","00","UTC","20.0","68.0","8.0","46.4","46","10.8","6.7","-9999.0","-9999.0","110","ESE","-9999.0","-9999.0","1015","29.98","-999","-999","-9999","-9999","-9999.00","-9999.00","Clear","clear","0","0","0","0","0","0","METAR UKKK 021600Z 11003MPS 080V150 CAVOK 20/08 Q1015 R08/CLRD70 NOSIG"
"7:30 PM EEST on June 02, 2016","2016","06","02","19","30","Europe/Kiev","4:30 PM GMT on June 02, 2016","2016","06","02","16","30","UTC","19.0","66.2","9.0","48.2","52","10.8","6.7","-9999.0","-9999.0","100","East","-9999.0","-9999.0","1015","29.98","-999","-999","-9999","-9999","-9999.00","-9999.00","Clear","clear","0","0","0","0","0","0","METAR UKKK 021630Z 10003MPS CAVOK 19/09 Q1015 R08/CLRD70 NOSIG"
"8:00 PM EEST on June 02, 2016","2016","06","02","20","00","Europe/Kiev","5:00 PM GMT on June 02, 2016","2016","06","02","17","00","UTC","18.0","64.4","8.0","46.4","52","14.4","8.9","-9999.0","-9999.0","90","East","-9999.0","-9999.0","1015","29.98","-999","-999","-9999","-9999","-9999.00","-9999.00","Clear","clear","0","0","0","0","0","0","METAR UKKK 021700Z 09004MPS CAVOK 18/08 Q1015 R08/CLRD70 NOSIG"
"8:30 PM EEST on June 02, 2016","2016","06","02","20","30","Europe/Kiev","5:30 PM GMT on June 02, 2016","2016","06","02","17","30","UTC","17.0","62.6","8.0","46.4","55","10.8","6.7","-9999.0","-9999.0","100","East","-9999.0","-9999.0","1015","29.98","-999","-999","-9999","-9999","-9999.00","-9999.00","Clear","clear","0","0","0","0","0","0","METAR UKKK 021730Z 10003MPS CAVOK 17/08 Q1015 R08/CLRD70 NOSIG"
"9:00 PM EEST on June 02, 2016","2016","06","02","21","00","Europe/Kiev","6:00 PM GMT on June 02, 2016","2016","06","02","18","00","UTC","18","64","8","46","40","7.2","4.5","","","80","East","20","12","1016","29.99","-999","-999","-9999","-9999","","","Scattered Clouds","partlycloudy","0","0","0","0","0","0","AAXX 02181 33345 32598 30802 10178 20076 39958 40155 57002 82501 333 10213 555 10017"
"9:00 PM EEST on June 02, 2016","2016","06","02","21","00","Europe/Kiev","6:00 PM GMT on June 02, 2016","2016","06","02","18","00","UTC","17.0","62.6","8.0","46.4","55","10.8","6.7","-9999.0","-9999.0","100","East","-9999.0","-9999.0","1015","29.98","-999","-999","-9999","-9999","-9999.00","-9999.00","Clear","clear","0","0","0","0","0","0","METAR UKKK 021800Z 10003MPS CAVOK 17/08 Q1015 R08/CLRD70 NOSIG"
"9:30 PM EEST on June 02, 2016","2016","06","02","21","30","Europe/Kiev","6:30 PM GMT on June 02, 2016","2016","06","02","18","30","UTC","16.0","60.8","8.0","46.4","59","7.2","4.5","-9999.0","-9999.0","80","East","-9999.0","-9999.0","1016","30.01","-999","-999","-9999","-9999","-9999.00","-9999.00","Clear","clear","0","0","0","0","0","0","METAR UKKK 021830Z 08002MPS CAVOK 16/08 Q1016 R08/CLRD70 NOSIG"
"10:00 PM EEST on June 02, 2016","2016","06","02","22","00","Europe/Kiev","7:00 PM GMT on June 02, 2016","2016","06","02","19","00","UTC","15.0","59.0","9.0","48.2","67","7.2","4.5","-9999.0","-9999.0","70","ENE","8.0","5.0","1016","30.01","-999","-999","-9999","-9999","-9999.00","-9999.00","Unknown","unknown","0","0","0","0","0","0","METAR UKKK 021900Z 07002MPS 8000 NSC 15/09 Q1016 R08/CLRD70 NOSIG"
"10:30 PM EEST on June 02, 2016","2016","06","02","22","30","Europe/Kiev","7:30 PM GMT on June 02, 2016","2016","06","02","19","30","UTC","15.0","59.0","9.0","48.2","67","7.2","4.5","-9999.0","-9999.0","70","ENE","-9999.0","-9999.0","1015","29.98","-999","-999","-9999","-9999","-9999.00","-9999.00","Clear","clear","0","0","0","0","0","0","METAR UKKK 021930Z 07002MPS CAVOK 15/09 Q1015 R08/CLRD70 NOSIG"
"11:00 PM EEST on June 02, 2016","2016","06","02","23","00","Europe/Kiev","8:00 PM GMT on June 02, 2016","2016","06","02","20","00","UTC","14.0","57.2","9.0","48.2","72","7.2","4.5","-9999.0","-9999.0","70","ENE","-9999.0","-9999.0","1015","29.98","-999","-999","-9999","-9999","-9999.00","-9999.00","Clear","clear","0","0","0","0","0","0","METAR UKKK 022000Z 07002MPS CAVOK 14/09 Q1015 R08/CLRD70 NOSIG"
"11:30 PM EEST on June 02, 2016","2016","06","02","23","30","Europe/Kiev","8:30 PM GMT on June 02, 2016","2016","06","02","20","30","UTC","14.0","57.2","9.0","48.2","72","7.2","4.5","-9999.0","-9999.0","90","East","-9999.0","-9999.0","1015","29.98","-999","-999","-9999","-9999","-9999.00","-9999.00","Clear","clear","0","0","0","0","0","0","METAR UKKK 022030Z 09002MPS CAVOK 14/09 Q1015 R08/CLRD70 NOSIG"
"12:00 AM EEST on June 03, 2016","2016","06","03","00","00","Europe/Kiev","9:00 PM GMT on June 02, 2016","2016","06","02","21","00","UTC","16","61","8","47","50","7.2","4.5","","","40","NE","20","12","1016","29.99","-999","-999","-9999","-9999","","","Mostly Cloudy","mostlycloudy","0","0","0","0","0","0","AAXX 02211 33345 42998 70402 10159 20085 39957 40155 57001 87030 555 10015"
"12:00 AM EEST on June 03, 2016","2016","06","03","00","00","Europe/Kiev","9:00 PM GMT on June 02, 2016","2016","06","02","21","00","UTC","15.0","59.0","9.0","48.2","67","7.2","4.5","-9999.0","-9999.0","80","East","-9999.0","-9999.0","1015","29.98","-999","-999","-9999","-9999","-9999.00","-9999.00","Clear","clear","0","0","0","0","0","0","METAR UKKK 022100Z 08002MPS CAVOK 15/09 Q1015 R08/CLRD70 NOSIG"
"12:30 AM EEST on June 03, 2016","2016","06","03","00","30","Europe/Kiev","9:30 PM GMT on June 02, 2016","2016","06","02","21","30","UTC","15.0","59.0","10.0","50.0","72","10.8","6.7","-9999.0","-9999.0","70","ENE","-9999.0","-9999.0","1015","29.98","-999","-999","-9999","-9999","-9999.00","-9999.00","Clear","clear","0","0","0","0","0","0","METAR UKKK 022130Z 07003MPS CAVOK 15/10 Q1015 R08/CLRD70 NOSIG"
"1:00 AM EEST on June 03, 2016","2016","06","03","01","00","Europe/Kiev","10:00 PM GMT on June 02, 2016","2016","06","02","22","00","UTC","15.0","59.0","9.0","48.2","67","10.8","6.7","-9999.0","-9999.0","80","East","-9999.0","-9999.0","1015","29.98","-999","-999","-9999","-9999","-9999.00","-9999.00","Clear","clear","0","0","0","0","0","0","METAR UKKK 022200Z 08003MPS CAVOK 15/09 Q1015 R08/CLRD70 NOSIG"
"1:30 AM EEST on June 03, 2016","2016","06","03","01","30","Europe/Kiev","10:30 PM GMT on June 02, 2016","2016","06","02","22","30","UTC","15.0","59.0","9.0","48.2","67","10.8","6.7","-9999.0","-9999.0","70","ENE","-9999.0","-9999.0","1015","29.98","-999","-999","-9999","-9999","-9999.00","-9999.00","Clear","clear","0","0","0","0","0","0","METAR UKKK 022230Z 07003MPS CAVOK 15/09 Q1015 R08/CLRD70 NOSIG"
"2:00 AM EEST on June 03, 2016","2016","06","03","02","00","Europe/Kiev","11:00 PM GMT on June 02, 2016","2016","06","02","23","00","UTC","14.0","57.2","9.0","48.2","72","10.8","6.7","-9999.0","-9999.0","80","East","-9999.0","-9999.0","1015","29.98","-999","-999","-9999","-9999","-9999.00","-9999.00","Clear","clear","0","0","0","0","0","0","METAR UKKK 022300Z 08003MPS CAVOK 14/09 Q1015 R08/CLRD70 NOSIG"
"2:30 AM EEST on June 03, 2016","2016","06","03","02","30","Europe/Kiev","11:30 PM GMT on June 02, 2016","2016","06","02","23","30","UTC","13.0","55.4","9.0","48.2","77","10.8","6.7","-9999.0","-9999.0","70","ENE","-9999.0","-9999.0","1015","29.98","-999","-999","-9999","-9999","-9999.00","-9999.00","Clear","clear","0","0","0","0","0","0","METAR UKKK 022330Z 07003MPS CAVOK 13/09 Q1015 R08/CLRD70 NOSIG"
"3:00 AM EEST on June 03, 2016","2016","06","03","03","00","Europe/Kiev","12:00 AM GMT on June 03, 2016","2016","06","03","00","00","UTC","14","58","8","46","56","3.6","2.2","","","30","NNE","20","12","1015","29.98","-999","-999","-9999","-9999","","","Partly Cloudy","partlycloudy","0","0","0","0","0","0","AAXX 03001 33345 32998 40301 10144 20080 39951 40150 57006 84030 555 10013"
"3:00 AM EEST on June 03, 2016","2016","06","03","03","00","Europe/Kiev","12:00 AM GMT on June 03, 2016","2016","06","03","00","00","UTC","12.0","53.6","8.0","46.4","77","10.8","6.7","-9999.0","-9999.0","70","ENE","-9999.0","-9999.0","1015","29.98","-999","-999","-9999","-9999","-9999.00","-9999.00","Clear","clear","0","0","0","0","0","0","METAR UKKK 030000Z 07003MPS CAVOK 12/08 Q1015 R08/CLRD70 NOSIG"
"3:30 AM EEST on June 03, 2016","2016","06","03","03","30","Europe/Kiev","12:30 AM GMT on June 03, 2016","2016","06","03","00","30","UTC","12.0","53.6","8.0","46.4","77","10.8","6.7","-9999.0","-9999.0","70","ENE","-9999.0","-9999.0","1015","29.98","-999","-999","-9999","-9999","-9999.00","-9999.00","Clear","clear","0","0","0","0","0","0","METAR UKKK 030030Z 07003MPS CAVOK 12/08 Q1015 R08/CLRD70 NOSIG"
"4:00 AM EEST on June 03, 2016","2016","06","03","04","00","Europe/Kiev","1:00 AM GMT on June 03, 2016","2016","06","03","01","00","UTC","11.0","51.8","8.0","46.4","82","10.8","6.7","-9999.0","-9999.0","70","ENE","-9999.0","-9999.0","1015","29.98","-999","-999","-9999","-9999","-9999.00","-9999.00","Clear","clear","0","0","0","0","0","0","METAR UKKK 030100Z 07003MPS CAVOK 11/08 Q1015 R08/CLRD70 NOSIG"
"4:30 AM EEST on June 03, 2016","2016","06","03","04","30","Europe/Kiev","1:30 AM GMT on June 03, 2016","2016","06","03","01","30","UTC","12.0","53.6","8.0","46.4","77","10.8","6.7","-9999.0","-9999.0","80","East","-9999.0","-9999.0","1015","29.98","-999","-999","-9999","-9999","-9999.00","-9999.00","Clear","clear","0","0","0","0","0","0","METAR UKKK 030130Z 08003MPS CAVOK 12/08 Q1015 R08/CLRD70 NOSIG"
"5:00 AM EEST on June 03, 2016","2016","06","03","05","00","Europe/Kiev","2:00 AM GMT on June 03, 2016","2016","06","03","02","00","UTC","12.0","53.6","8.0","46.4","77","10.8","6.7","-9999.0","-9999.0","80","East","-9999.0","-9999.0","1015","29.98","-999","-999","-9999","-9999","-9999.00","-9999.00","Clear","clear","0","0","0","0","0","0","METAR UKKK 030200Z 08003MPS CAVOK 12/08 Q1015 R08/CLRD70 NOSIG"
"5:30 AM EEST on June 03, 2016","2016","06","03","05","30","Europe/Kiev","2:30 AM GMT on June 03, 2016","2016","06","03","02","30","UTC","11.0","51.8","8.0","46.4","82","10.8","6.7","-9999.0","-9999.0","80","East","-9999.0","-9999.0","1015","29.98","-999","-999","-9999","-9999","-9999.00","-9999.00","Clear","clear","0","0","0","0","0","0","METAR UKKK 030230Z 08003MPS CAVOK 11/08 Q1015 R08/CLRD70 NOSIG"
"6:00 AM EEST on June 03, 2016","2016","06","03","06","00","Europe/Kiev","3:00 AM GMT on June 03, 2016","2016","06","03","03","00","UTC","13","56","8","46","60","3.6","2.2","","","30","NNE","20","12","1015","29.98","-999","-999","-9999","-9999","","","Mostly Cloudy","mostlycloudy","0","0","0","0","0","0","AAXX 03031 33345 42998 60301 10131 20078 39951 40151 54000 86030 555 10012"
"6:00 AM EEST on June 03, 2016","2016","06","03","06","00","Europe/Kiev","3:00 AM GMT on June 03, 2016","2016","06","03","03","00","UTC","12.0","53.6","9.0","48.2","82","7.2","4.5","-9999.0","-9999.0","80","East","-9999.0","-9999.0","1015","29.98","-999","-999","-9999","-9999","-9999.00","-9999.00","Clear","clear","0","0","0","0","0","0","METAR UKKK 030300Z 08002MPS CAVOK 12/09 Q1015 R08/CLRD70 NOSIG"
"6:30 AM EEST on June 03, 2016","2016","06","03","06","30","Europe/Kiev","3:30 AM GMT on June 03, 2016","2016","06","03","03","30","UTC","13.0","55.4","10.0","50.0","82","7.2","4.5","-9999.0","-9999.0","80","East","-9999.0","-9999.0","1015","29.98","-999","-999","-9999","-9999","-9999.00","-9999.00","Clear","clear","0","0","0","0","0","0","METAR UKKK 030330Z 08002MPS CAVOK 13/10 Q1015 R08/CLRD70 NOSIG"
"7:00 AM EEST on June 03, 2016","2016","06","03","07","00","Europe/Kiev","4:00 AM GMT on June 03, 2016","2016","06","03","04","00","UTC","15.0","59.0","9.0","48.2","67","10.8","6.7","-9999.0","-9999.0","70","ENE","-9999.0","-9999.0","1015","29.98","-999","-999","-9999","-9999","-9999.00","-9999.00","Clear","clear","0","0","0","0","0","0","METAR UKKK 030400Z 07003MPS CAVOK 15/09 Q1015 R08/CLRD70 NOSIG"
"7:30 AM EEST on June 03, 2016","2016","06","03","07","30","Europe/Kiev","4:30 AM GMT on June 03, 2016","2016","06","03","04","30","UTC","15.0","59.0","9.0","48.2","67","14.4","8.9","-9999.0","-9999.0","70","ENE","-9999.0","-9999.0","1015","29.98","-999","-999","-9999","-9999","-9999.00","-9999.00","Clear","clear","0","0","0","0","0","0","METAR UKKK 030430Z 07004MPS CAVOK 15/09 Q1015 R08/CLRD70 NOSIG"
"8:00 AM EEST on June 03, 2016","2016","06","03","08","00","Europe/Kiev","5:00 AM GMT on June 03, 2016","2016","06","03","05","00","UTC","15.0","59.0","9.0","48.2","67","10.8","6.7","-9999.0","-9999.0","70","ENE","-9999.0","-9999.0","1015","29.98","-999","-999","-9999","-9999","-9999.00","-9999.00","Clear","clear","0","0","0","0","0","0","METAR UKKK 030500Z 07003MPS CAVOK 15/09 Q1015 R08/CLRD70 NOSIG"
"8:30 AM EEST on June 03, 2016","2016","06","03","08","30","Europe/Kiev","5:30 AM GMT on June 03, 2016","2016","06","03","05","30","UTC","16.0","60.8","9.0","48.2","63","10.8","6.7","-9999.0","-9999.0","80","East","-9999.0","-9999.0","1015","29.98","-999","-999","-9999","-9999","-9999.00","-9999.00","Clear","clear","0","0","0","0","0","0","METAR UKKK 030530Z 08003MPS CAVOK 16/09 Q1015 R08/CLRD70 NOSIG"
"9:00 AM EEST on June 03, 2016","2016","06","03","09","00","Europe/Kiev","6:00 AM GMT on June 03, 2016","2016","06","03","06","00","UTC","17","63","8","47","45","7.2","4.5","","","60","ENE","20","12","1015","29.97","-999","-999","-9999","-9999","","","Scattered Clouds","partlycloudy","0","0","0","0","0","0","AAXX 03061 33345 32998 20602 10170 20084 39951 40148 54000 82030 333 20128 555 10027"
"9:00 AM EEST on June 03, 2016","2016","06","03","09","00","Europe/Kiev","6:00 AM GMT on June 03, 2016","2016","06","03","06","00","UTC","18.0","64.4","9.0","48.2","56","10.8","6.7","-9999.0","-9999.0","70","ENE","-9999.0","-9999.0","1015","29.98","-999","-999","-9999","-9999","-9999.00","-9999.00","Clear","clear","0","0","0","0","0","0","METAR UKKK 030600Z 07003MPS 030V090 CAVOK 18/09 Q1015 R08/CLRD70 NOSIG"
"9:30 AM EEST on June 03, 2016","2016","06","03","09","30","Europe/Kiev","6:30 AM GMT on June 03, 2016","2016","06","03","06","30","UTC","19.0","66.2","9.0","48.2","52","14.4","8.9","-9999.0","-9999.0","80","East","-9999.0","-9999.0","1014","29.95","-999","-999","-9999","-9999","-9999.00","-9999.00","Clear","clear","0","0","0","0","0","0","METAR UKKK 030630Z 08004MPS 050V110 CAVOK 19/09 Q1014 R08/CLRD70 NOSIG"
"10:00 AM EEST on June 03, 2016","2016","06","03","10","00","Europe/Kiev","7:00 AM GMT on June 03, 2016","2016","06","03","07","00","UTC","19.0","66.2","9.0","48.2","52","14.4","8.9","-9999.0","-9999.0","80","East","-9999.0","-9999.0","1014","29.95","-999","-999","-9999","-9999","-9999.00","-9999.00","Clear","clear","0","0","0","0","0","0","METAR UKKK 030700Z 08004MPS 060V120 CAVOK 19/09 Q1014 R08/CLRD70 NOSIG"
"10:30 AM EEST on June 03, 2016","2016","06","03","10","30","Europe/Kiev","7:30 AM GMT on June 03, 2016","2016","06","03","07","30","UTC","20.0","68.0","8.0","46.4","46","18.0","11.2","-9999.0","-9999.0","70","ENE","10.0","6.2","1014","29.95","-999","-999","-9999","-9999","-9999.00","-9999.00","Partly Cloudy","partlycloudy","0","0","0","0","0","0","METAR UKKK 030730Z 07005MPS 9999 FEW033 20/08 Q1014 R08/CLRD70 NOSIG"
"11:00 AM EEST on June 03, 2016","2016","06","03","11","00","Europe/Kiev","8:00 AM GMT on June 03, 2016","2016","06","03","08","00","UTC","20.0","68.0","8.0","46.4","46","14.4","8.9","-9999.0","-9999.0","90","East","-9999.0","-9999.0","1014","29.95","-999","-999","-9999","-9999","-9999.00","-9999.00","Clear","clear","0","0","0","0","0","0","METAR UKKK 030800Z 09004MPS 040V140 CAVOK 20/08 Q1014 R08/CLRD70 NOSIG"
"11:30 AM EEST on June 03, 2016","2016","06","03","11","30","Europe/Kiev","8:30 AM GMT on June 03, 2016","2016","06","03","08","30","UTC","20.0","68.0","8.0","46.4","46","18.0","11.2","-9999.0","-9999.0","90","East","-9999.0","-9999.0","1014","29.95","-999","-999","-9999","-9999","-9999.00","-9999.00","Clear","clear","0","0","0","0","0","0","METAR UKKK 030830Z 09005MPS CAVOK 20/08 Q1014 R08/CLRD70 NOSIG"
"12:00 PM EEST on June 03, 2016","2016","06","03","12","00","Europe/Kiev","9:00 AM GMT on June 03, 2016","2016","06","03","09","00","UTC","21","70","8","46","31","10.8","6.7","","","90","East","20","12","1014","29.94","-999","-999","-9999","-9999","","","Mostly Cloudy","mostlycloudy","0","0","0","0","0","0","AAXX 03091 33345 42598 50903 10213 20079 39945 40139 58006 85800 555 10040"
"12:00 PM EEST on June 03, 2016","2016","06","03","12","00","Europe/Kiev","9:00 AM GMT on June 03, 2016","2016","06","03","09","00","UTC","21.0","69.8","9.0","48.2","46","14.4","8.9","-9999.0","-9999.0","60","ENE","-9999.0","-9999.0","1014","29.95","-999","-999","-9999","-9999","-9999.00","-9999.00","Clear","clear","0","0","0","0","0","0","METAR UKKK 030900Z 06004MPS 030V110 CAVOK 21/09 Q1014 R08/CLRD70 NOSIG"
"12:30 PM EEST on June 03, 2016","2016","06","03","12","30","Europe/Kiev","9:30 AM GMT on June 03, 2016","2016","06","03","09","30","UTC","20.0","68.0","8.0","46.4","46","18.0","11.2","-9999.0","-9999.0","60","ENE","-9999.0","-9999.0","1014","29.95","-999","-999","-9999","-9999","-9999.00","-9999.00","Clear","clear","0","0","0","0","0","0","METAR UKKK 030930Z 06005MPS 010V120 CAVOK 20/08 Q1014 R08/CLRD70 NOSIG"
"1:00 PM EEST on June 03, 2016","2016","06","03","13","00","Europe/Kiev","10:00 AM GMT on June 03, 2016","2016","06","03","10","00","UTC","20.0","68.0","8.0","46.4","46","18.0","11.2","-9999.0","-9999.0","90","East","-9999.0","-9999.0","1014","29.95","-999","-999","-9999","-9999","-9999.00","-9999.00","Clear","clear","0","0","0","0","0","0","METAR UKKK 031000Z 09005MPS 060V130 CAVOK 20/08 Q1014 R08/CLRD70 NOSIG"
"1:30 PM EEST on June 03, 2016","2016","06","03","13","30","Europe/Kiev","10:30 AM GMT on June 03, 2016","2016","06","03","10","30","UTC","20.0","68.0","7.0","44.6","43","14.4","8.9","-9999.0","-9999.0","80","East","-9999.0","-9999.0","1014","29.95","-999","-999","-9999","-9999","-9999.00","-9999.00","Clear","clear","0","0","0","0","0","0","METAR UKKK 031030Z 08004MPS 040V120 CAVOK 20/07 Q1014 R08/CLRD70 NOSIG"
"2:00 PM EEST on June 03, 2016","2016","06","03","14","00","Europe/Kiev","11:00 AM GMT on June 03, 2016","2016","06","03","11","00","UTC","21.0","69.8","8.0","46.4","43","14.4","8.9","-9999.0","-9999.0","100","East","-9999.0","-9999.0","1013","29.92","-999","-999","-9999","-9999","-9999.00","-9999.00","Clear","clear","0","0","0","0","0","0","METAR UKKK 031100Z 10004MPS 070V130 CAVOK 21/08 Q1013 R08/CLRD70 NOSIG"
"2:30 PM EEST on June 03, 2016","2016","06","03","14","30","Europe/Kiev","11:30 AM GMT on June 03, 2016","2016","06","03","11","30","UTC","20.0","68.0","8.0","46.4","46","14.4","8.9","-9999.0","-9999.0","60","ENE","-9999.0","-9999.0","1013","29.92","-999","-999","-9999","-9999","-9999.00","-9999.00","Clear","clear","0","0","0","0","0","0","METAR UKKK 031130Z 06004MPS CAVOK 20/08 Q1013 R08/CLRD70 NOSIG"
"3:00 PM EEST on June 03, 2016","2016","06","03","15","00","Europe/Kiev","12:00 PM GMT on June 03, 2016","2016","06","03","12","00","UTC","23","73","9","48","29","10.8","6.7","","","110","ESE","20","12","1013","29.91","-999","-999","-9999","-9999","","","Mostly Cloudy","mostlycloudy","0","0","0","0","0","0","AAXX 03121 33345 32598 61103 10229 20087 39936 40129 57009 86502 555 10045"
"3:00 PM EEST on June 03, 2016","2016","06","03","15","00","Europe/Kiev","12:00 PM GMT on June 03, 2016","2016","06","03","12","00","UTC","20.0","68.0","7.0","44.6","43","14.4","8.9","-9999.0","-9999.0","60","ENE","-9999.0","-9999.0","1013","29.92","-999","-999","-9999","-9999","-9999.00","-9999.00","Clear","clear","0","0","0","0","0","0","METAR UKKK 031200Z 06004MPS 030V120 CAVOK 20/07 Q1013 R08/CLRD70 NOSIG"
"3:30 PM EEST on June 03, 2016","2016","06","03","15","30","Europe/Kiev","12:30 PM GMT on June 03, 2016","2016","06","03","12","30","UTC","20.0","68.0","8.0","46.4","46","10.8","6.7","-9999.0","-9999.0","100","East","-9999.0","-9999.0","1013","29.92","-999","-999","-9999","-9999","-9999.00","-9999.00","Clear","clear","0","0","0","0","0","0","METAR UKKK 031230Z 10003MPS 040V150 CAVOK 20/08 Q1013 R08/CLRD70 NOSIG"
"4:00 PM EEST on June 03, 2016","2016","06","03","16","00","Europe/Kiev","1:00 PM GMT on June 03, 2016","2016","06","03","13","00","UTC","21.0","69.8","8.0","46.4","43","14.4","8.9","-9999.0","-9999.0","80","East","-9999.0","-9999.0","1013","29.92","-999","-999","-9999","-9999","-9999.00","-9999.00","Clear","clear","0","0","0","0","0","0","METAR UKKK 031300Z 08004MPS 030V120 CAVOK 21/08 Q1013 R08/CLRD70 NOSIG"
"4:30 PM EEST on June 03, 2016","2016","06","03","16","30","Europe/Kiev","1:30 PM GMT on June 03, 2016","2016","06","03","13","30","UTC","20.0","68.0","8.0","46.4","46","18.0","11.2","-9999.0","-9999.0","70","ENE","-9999.0","-9999.0","1012","29.89","-999","-999","-9999","-9999","-9999.00","-9999.00","Clear","clear","0","0","0","0","0","0","METAR UKKK 031330Z 07005MPS CAVOK 20/08 Q1012 R08/CLRD70 NOSIG"
"5:00 PM EEST on June 03, 2016","2016","06","03","17","00","Europe/Kiev","2:00 PM GMT on June 03, 2016","2016","06","03","14","00","UTC","21.0","69.8","7.0","44.6","40","7.2","4.5","-9999.0","-9999.0","110","ESE","-9999.0","-9999.0","1012","29.89","-999","-999","-9999","-9999","-9999.00","-9999.00","Clear","clear","0","0","0","0","0","0","METAR UKKK 031400Z 11002MPS 060V210 CAVOK 21/07 Q1012 R08/CLRD70 NOSIG"
"5:30 PM EEST on June 03, 2016","2016","06","03","17","30","Europe/Kiev","2:30 PM GMT on June 03, 2016","2016","06","03","14","30","UTC","21.0","69.8","8.0","46.4","43","14.4","8.9","-9999.0","-9999.0","80","East","-9999.0","-9999.0","1012","29.89","-999","-999","-9999","-9999","-9999.00","-9999.00","Clear","clear","0","0","0","0","0","0","METAR UKKK 031430Z 08004MPS CAVOK 21/08 Q1012 R08/CLRD70 NOSIG"
"6:00 PM EEST on June 03, 2016","2016","06","03","18","00","Europe/Kiev","3:00 PM GMT on June 03, 2016","2016","06","03","15","00","UTC","20","69","8","47","33","7.2","4.5","","","80","East","20","12","1012","29.88","-999","-999","-9999","-9999","","","Partly Cloudy","partlycloudy","0","0","0","0","0","0","AAXX 03151 33345 42598 60802 10205 20081 39925 40119 57011 84502 555 10027"
"6:00 PM EEST on June 03, 2016","2016","06","03","18","00","Europe/Kiev","3:00 PM GMT on June 03, 2016","2016","06","03","15","00","UTC","21.0","69.8","9.0","48.2","46","10.8","6.7","-9999.0","-9999.0","100","East","-9999.0","-9999.0","1012","29.89","-999","-999","-9999","-9999","-9999.00","-9999.00","Clear","clear","0","0","0","0","0","0","METAR UKKK 031500Z 10003MPS 070V180 CAVOK 21/09 Q1012 R08/CLRD70 NOSIG"
"6:30 PM EEST on June 03, 2016","2016","06","03","18","30","Europe/Kiev","3:30 PM GMT on June 03, 2016","2016","06","03","15","30","UTC","19.0","66.2","8.0","46.4","49","10.8","6.7","-9999.0","-9999.0","90","East","-9999.0","-9999.0","1012","29.89","-999","-999","-9999","-9999","-9999.00","-9999.00","Clear","clear","0","0","0","0","0","0","METAR UKKK 031530Z 09003MPS CAVOK 19/08 Q1012 R08/CLRD70 NOSIG"
"7:00 PM EEST on June 03, 2016","2016","06","03","19","00","Europe/Kiev","4:00 PM GMT on June 03, 2016","2016","06","03","16","00","UTC","20.0","68.0","8.0","46.4","46","10.8","6.7","-9999.0","-9999.0","80","East","-9999.0","-9999.0","1012","29.89","-999","-999","-9999","-9999","-9999.00","-9999.00","Clear","clear","0","0","0","0","0","0","METAR UKKK 031600Z 08003MPS 040V120 CAVOK 20/08 Q1012 R08/CLRD70 NOSIG"
"7:30 PM EEST on June 03, 2016","2016","06","03","19","30","Europe/Kiev","4:30 PM GMT on June 03, 2016","2016","06","03","16","30","UTC","20.0","68.0","8.0","46.4","46","10.8","6.7","-9999.0","-9999.0","60","ENE","-9999.0","-9999.0","1012","29.89","-999","-999","-9999","-9999","-9999.00","-9999.00","Clear","clear","0","0","0","0","0","0","METAR UKKK 031630Z 06003MPS CAVOK 20/08 Q1012 R08/CLRD70 NOSIG"
"8:00 PM EEST on June 03, 2016","2016","06","03","20","00","Europe/Kiev","5:00 PM GMT on June 03, 2016","2016","06","03","17","00","UTC","19.0","66.2","8.0","46.4","49","10.8","6.7","-9999.0","-9999.0","70","ENE","-9999.0","-9999.0","1012","29.89","-999","-999","-9999","-9999","-9999.00","-9999.00","Clear","clear","0","0","0","0","0","0","METAR UKKK 031700Z 07003MPS CAVOK 19/08 Q1012 R08/CLRD70 NOSIG"
"8:30 PM EEST on June 03, 2016","2016","06","03","20","30","Europe/Kiev","5:30 PM GMT on June 03, 2016","2016","06","03","17","30","UTC","18.0","64.4","8.0","46.4","52","7.2","4.5","-9999.0","-9999.0","60","ENE","-9999.0","-9999.0","1012","29.89","-999","-999","-9999","-9999","-9999.00","-9999.00","Clear","clear","0","0","0","0","0","0","METAR UKKK 031730Z 06002MPS CAVOK 18/08 Q1012 R08/CLRD70 NOSIG"
"9:00 PM EEST on June 03, 2016","2016","06","03","21","00","Europe/Kiev","6:00 PM GMT on June 03, 2016","2016","06","03","18","00","UTC","18","65","7","45","37","3.6","2.2","","","30","NNE","20","12","1012","29.88","-999","-999","-9999","-9999","","","Scattered Clouds","partlycloudy","0","0","0","0","0","0","AAXX 03181 33345 32598 30301 10184 20072 39923 40119 56002 82402 333 10234 555 10018"
"9:00 PM EEST on June 03, 2016","2016","06","03","21","00","Europe/Kiev","6:00 PM GMT on June 03, 2016","2016","06","03","18","00","UTC","17.0","62.6","8.0","46.4","55","7.2","4.5","-9999.0","-9999.0","70","ENE","-9999.0","-9999.0","1012","29.89","-999","-999","-9999","-9999","-9999.00","-9999.00","Clear","clear","0","0","0","0","0","0","METAR UKKK 031800Z 07002MPS CAVOK 17/08 Q1012 R08/CLRD70 NOSIG"
"9:30 PM EEST on June 03, 2016","2016","06","03","21","30","Europe/Kiev","6:30 PM GMT on June 03, 2016","2016","06","03","18","30","UTC","17.0","62.6","7.0","44.6","52","3.6","2.2","-9999.0","-9999.0","70","ENE","-9999.0","-9999.0","1012","29.89","-999","-999","-9999","-9999","-9999.00","-9999.00","Clear","clear","0","0","0","0","0","0","METAR UKKK 031830Z 07001MPS CAVOK 17/07 Q1012 R08/CLRD70 NOSIG"
"10:00 PM EEST on June 03, 2016","2016","06","03","22","00","Europe/Kiev","7:00 PM GMT on June 03, 2016","2016","06","03","19","00","UTC","14.0","57.2","10.0","50.0","77","0.0","0.0","-9999.0","-9999.0","0","North","-9999.0","-9999.0","1012","29.89","-999","-999","-9999","-9999","-9999.00","-9999.00","Clear","clear","0","0","0","0","0","0","METAR UKKK 031900Z 00000MPS CAVOK 14/10 Q1012 R08/CLRD70 NOSIG"
"10:30 PM EEST on June 03, 2016","2016","06","03","22","30","Europe/Kiev","7:30 PM GMT on June 03, 2016","2016","06","03","19","30","UTC","13.0","55.4","9.0","48.2","77","0.0","0.0","-9999.0","-9999.0","0","North","9.0","5.6","1012","29.89","-999","-999","-9999","-9999","-9999.00","-9999.00","Clear","clear","0","0","0","0","0","0","METAR UKKK 031930Z 00000MPS 9000 SKC 13/09 Q1012 R08/CLRD70 NOSIG"
"11:00 PM EEST on June 03, 2016","2016","06","03","23","00","Europe/Kiev","8:00 PM GMT on June 03, 2016","2016","06","03","20","00","UTC","13.0","55.4","8.0","46.4","72","0.0","0.0","-9999.0","-9999.0","0","North","-9999.0","-9999.0","1012","29.89","-999","-999","-9999","-9999","-9999.00","-9999.00","Clear","clear","0","0","0","0","0","0","METAR UKKK 032000Z 00000MPS CAVOK 13/08 Q1012 R08/CLRD70 NOSIG"
"11:30 PM EEST on June 03, 2016","2016","06","03","23","30","Europe/Kiev","8:30 PM GMT on June 03, 2016","2016","06","03","20","30","UTC","12.0","53.6","9.0","48.2","82","0.0","0.0","-9999.0","-9999.0","0","North","-9999.0","-9999.0","1012","29.89","-999","-999","-9999","-9999","-9999.00","-9999.00","Clear","clear","0","0","0","0","0","0","METAR UKKK 032030Z 00000MPS CAVOK 12/09 Q1012 R08/CLRD70 NOSIG"
"12:00 AM EEST on June 04, 2016","2016","06","04","00","00","Europe/Kiev","9:00 PM GMT on June 03, 2016","2016","06","03","21","00","UTC","15","59","8","47","53","0.0","0.0","","","","","20","12","1012","29.89","-999","-999","-9999","-9999","","","","","0","0","0","0","0","0","AAXX 03211 33345 42998 00000 10150 20081 39922 40120 57001 555 10014"
"12:00 AM EEST on June 04, 2016","2016","06","04","00","00","Europe/Kiev","9:00 PM GMT on June 03, 2016","2016","06","03","21","00","UTC","12.0","53.6","9.0","48.2","82","0.0","0.0","-9999.0","-9999.0","0","North","-9999.0","-9999.0","1012","29.89","-999","-999","-9999","-9999","-9999.00","-9999.00","Clear","clear","0","0","0","0","0","0","METAR UKKK 032100Z 00000MPS CAVOK 12/09 Q1012 R08/CLRD70 NOSIG"
"12:30 AM EEST on June 04, 2016","2016","06","04","00","30","Europe/Kiev","9:30 PM GMT on June 03, 2016","2016","06","03","21","30","UTC","12.0","53.6","9.0","48.2","82","0.0","0.0","-9999.0","-9999.0","0","North","9.0","5.6","1012","29.89","-999","-999","-9999","-9999","-9999.00","-9999.00","Clear","clear","0","0","0","0","0","0","METAR UKKK 032130Z 00000MPS 9000 SKC 12/09 Q1012 R08/CLRD70 NOSIG"
"1:00 AM EEST on June 04, 2016","2016","06","04","01","00","Europe/Kiev","10:00 PM GMT on June 03, 2016","2016","06","03","22","00","UTC","11.0","51.8","10.0","50.0","94","0.0","0.0","-9999.0","-9999.0","0","North","-9999.0","-9999.0","1011","29.86","-999","-999","-9999","-9999","-9999.00","-9999.00","Clear","clear","0","0","0","0","0","0","METAR UKKK 032200Z 00000MPS CAVOK 11/10 Q1011 R08/CLRD70 NOSIG"
"1:30 AM EEST on June 04, 2016","2016","06","04","01","30","Europe/Kiev","10:30 PM GMT on June 03, 2016","2016","06","03","22","30","UTC","11.0","51.8","9.0","48.2","88","0.0","0.0","-9999.0","-9999.0","0","North","-9999.0","-9999.0","1011","29.86","-999","-999","-9999","-9999","-9999.00","-9999.00","Clear","clear","0","0","0","0","0","0","METAR UKKK 032230Z 00000MPS CAVOK 11/09 Q1011 R08/CLRD70 NOSIG"
"2:00 AM EEST on June 04, 2016","2016","06","04","02","00","Europe/Kiev","11:00 PM GMT on June 03, 2016","2016","06","03","23","00","UTC","10.0","50.0","9.0","48.2","94","0.0","0.0","-9999.0","-9999.0","0","North","-9999.0","-9999.0","1011","29.86","-999","-999","-9999","-9999","-9999.00","-9999.00","Clear","clear","0","0","0","0","0","0","METAR UKKK 032300Z 00000MPS CAVOK 10/09 Q1011 R08/CLRD70 NOSIG"
"2:30 AM EEST on June 04, 2016","2016","06","04","02","30","Europe/Kiev","11:30 PM GMT on June 03, 2016","2016","06","03","23","30","UTC","10.0","50.0","9.0","48.2","94","0.0","0.0","-9999.0","-9999.0","0","North","-9999.0","-9999.0","1011","29.86","-999","-999","-9999","-9999","-9999.00","-9999.00","Clear","clear","0","0","0","0","0","0","METAR UKKK 032330Z 00000MPS CAVOK 10/09 Q1011 R08/CLRD70 NOSIG"
"3:00 AM EEST on June 04, 2016","2016","06","04","03","00","Europe/Kiev","12:00 AM GMT on June 04, 2016","2016","06","04","00","00","UTC","13","56","8","47","63","0.0","0.0","","","","","20","12","1012","29.88","-999","-999","-9999","-9999","","","","","0","0","0","0","0","0","AAXX 04001 33345 32998 00000 10131 20083 39919 40118 57003 555 10011"
"3:00 AM EEST on June 04, 2016","2016","06","04","03","00","Europe/Kiev","12:00 AM GMT on June 04, 2016","2016","06","04","00","00","UTC","10.0","50.0","9.0","48.2","94","0.0","0.0","-9999.0","-9999.0","0","North","-9999.0","-9999.0","1011","29.86","-999","-999","-9999","-9999","-9999.00","-9999.00","Clear","clear","0","0","0","0","0","0","METAR UKKK 040000Z 00000MPS CAVOK 10/09 Q1011 R08/CLRD70 NOSIG"
"3:30 AM EEST on June 04, 2016","2016","06","04","03","30","Europe/Kiev","12:30 AM GMT on June 04, 2016","2016","06","04","00","30","UTC","10.0","50.0","9.0","48.2","94","0.0","0.0","-9999.0","-9999.0","0","North","-9999.0","-9999.0","1011","29.86","-999","-999","-9999","-9999","-9999.00","-9999.00","Clear","clear","0","0","0","0","0","0","METAR UKKK 040030Z 00000MPS CAVOK 10/09 Q1011 R08/CLRD70 NOSIG"
"4:00 AM EEST on June 04, 2016","2016","06","04","04","00","Europe/Kiev","1:00 AM GMT on June 04, 2016","2016","06","04","01","00","UTC","10.0","50.0","9.0","48.2","94","0.0","0.0","-9999.0","-9999.0","0","North","-9999.0","-9999.0","1011","29.86","-999","-999","-9999","-9999","-9999.00","-9999.00","Clear","clear","0","0","0","0","0","0","METAR UKKK 040100Z 00000MPS CAVOK 10/09 Q1011 R08/CLRD70 NOSIG"
"4:30 AM EEST on June 04, 2016","2016","06","04","04","30","Europe/Kiev","1:30 AM GMT on June 04, 2016","2016","06","04","01","30","UTC","9.0","48.2","9.0","48.2","100","0.0","0.0","-9999.0","-9999.0","0","North","-9999.0","-9999.0","1011","29.86","-999","-999","-9999","-9999","-9999.00","-9999.00","Clear","clear","0","0","0","0","0","0","METAR UKKK 040130Z 00000MPS CAVOK 09/09 Q1011 R08/CLRD70 NOSIG"
"5:00 AM EEST on June 04, 2016","2016","06","04","05","00","Europe/Kiev","2:00 AM GMT on June 04, 2016","2016","06","04","02","00","UTC","10.0","50.0","9.0","48.2","94","0.0","0.0","-9999.0","-9999.0","0","North","-9999.0","-9999.0","1011","29.86","-999","-999","-9999","-9999","-9999.00","-9999.00","Clear","clear","0","0","0","0","0","0","METAR UKKK 040200Z 00000MPS CAVOK 10/09 Q1011 R08/CLRD70 NOSIG"
"5:30 AM EEST on June 04, 2016","2016","06","04","05","30","Europe/Kiev","2:30 AM GMT on June 04, 2016","2016","06","04","02","30","UTC","9.0","48.2","9.0","48.2","100","0.0","0.0","-9999.0","-9999.0","0","North","-9999.0","-9999.0","1011","29.86","-999","-999","-9999","-9999","-9999.00","-9999.00","Clear","clear","0","0","0","0","0","0","METAR UKKK 040230Z 00000MPS CAVOK 09/09 Q1011 R08/CLRD70 NOSIG"
"6:00 AM EEST on June 04, 2016","2016","06","04","06","00","Europe/Kiev","3:00 AM GMT on June 04, 2016","2016","06","04","03","00","UTC","13","55","10","49","75","0.0","0.0","","","","","20","12","1012","29.88","-999","-999","-9999","-9999","","","Scattered Clouds","partlycloudy","0","0","0","0","0","0","AAXX 04031 33345 42998 20000 10129 20096 39918 40117 57001 82041 555 10011"
"6:00 AM EEST on June 04, 2016","2016","06","04","06","00","Europe/Kiev","3:00 AM GMT on June 04, 2016","2016","06","04","03","00","UTC","10.0","50.0","10.0","50.0","100","0.0","0.0","-9999.0","-9999.0","0","North","-9999.0","-9999.0","1011","29.86","-999","-999","-9999","-9999","-9999.00","-9999.00","Clear","clear","0","0","0","0","0","0","METAR UKKK 040300Z 00000MPS CAVOK 10/10 Q1011 R08/CLRD70 NOSIG"
"6:30 AM EEST on June 04, 2016","2016","06","04","06","30","Europe/Kiev","3:30 AM GMT on June 04, 2016","2016","06","04","03","30","UTC","14.0","57.2","12.0","53.6","88","0.0","0.0","-9999.0","-9999.0","0","North","-9999.0","-9999.0","1011","29.86","-999","-999","-9999","-9999","-9999.00","-9999.00","Clear","clear","0","0","0","0","0","0","METAR UKKK 040330Z 00000MPS CAVOK 14/12 Q1011 R08/CLRD70 NOSIG"
"7:00 AM EEST on June 04, 2016","2016","06","04","07","00","Europe/Kiev","4:00 AM GMT on June 04, 2016","2016","06","04","04","00","UTC","15.0","59.0","12.0","53.6","82","0.0","0.0","-9999.0","-9999.0","0","North","9.0","5.6","1011","29.86","-999","-999","-9999","-9999","-9999.00","-9999.00","Clear","clear","0","0","0","0","0","0","METAR UKKK 040400Z 00000MPS 9000 SKC 15/12 Q1011 R08/CLRD70 NOSIG"
"7:30 AM EEST on June 04, 2016","2016","06","04","07","30","Europe/Kiev","4:30 AM GMT on June 04, 2016","2016","06","04","04","30","UTC","17.0","62.6","11.0","51.8","68","0.0","0.0","-9999.0","-9999.0","0","North","-9999.0","-9999.0","1011","29.86","-999","-999","-9999","-9999","-9999.00","-9999.00","Clear","clear","0","0","0","0","0","0","METAR UKKK 040430Z 00000MPS CAVOK 17/11 Q1011 R08/CLRD70 NOSIG"
"8:00 AM EEST on June 04, 2016","2016","06","04","08","00","Europe/Kiev","5:00 AM GMT on June 04, 2016","2016","06","04","05","00","UTC","18.0","64.4","11.0","51.8","64","0.0","0.0","-9999.0","-9999.0","0","North","-9999.0","-9999.0","1011","29.86","-999","-999","-9999","-9999","-9999.00","-9999.00","Clear","clear","0","0","0","0","0","0","METAR UKKK 040500Z 00000MPS CAVOK 18/11 Q1011 R08/CLRD70 NOSIG"
"8:30 AM EEST on June 04, 2016","2016","06","04","08","30","Europe/Kiev","5:30 AM GMT on June 04, 2016","2016","06","04","05","30","UTC","20.0","68.0","10.0","50.0","52","3.6","2.2","-9999.0","-9999.0","0","Variable","-9999.0","-9999.0","1011","29.86","-999","-999","-9999","-9999","-9999.00","-9999.00","Clear","clear","0","0","0","0","0","0","METAR UKKK 040530Z VRB01MPS CAVOK 20/10 Q1011 R08/CLRD70 NOSIG"
"9:00 AM EEST on June 04, 2016","2016","06","04","09","00","Europe/Kiev","6:00 AM GMT on June 04, 2016","2016","06","04","06","00","UTC","20","69","8","46","33","3.6","2.2","","","80","East","20","12","1011","29.86","-999","-999","-9999","-9999","","","Scattered Clouds","partlycloudy","0","0","0","0","0","0","AAXX 04061 33345 32998 40801 10204 20079 39918 40112 54000 82085 333 20125 555 10029"
"9:00 AM EEST on June 04, 2016","2016","06","04","09","00","Europe/Kiev","6:00 AM GMT on June 04, 2016","2016","06","04","06","00","UTC","20.0","68.0","9.0","48.2","49","7.2","4.5","-9999.0","-9999.0","100","East","-9999.0","-9999.0","1011","29.86","-999","-999","-9999","-9999","-9999.00","-9999.00","Clear","clear","0","0","0","0","0","0","METAR UKKK 040600Z 10002MPS 080V150 CAVOK 20/09 Q1011 R08/CLRD70 NOSIG"
"9:30 AM EEST on June 04, 2016","2016","06","04","09","30","Europe/Kiev","6:30 AM GMT on June 04, 2016","2016","06","04","06","30","UTC","21.0","69.8","9.0","48.2","46","3.6","2.2","-9999.0","-9999.0","0","Variable","-9999.0","-9999.0","1011","29.86","-999","-999","-9999","-9999","-9999.00","-9999.00","Clear","clear","0","0","0","0","0","0","METAR UKKK 040630Z VRB01MPS CAVOK 21/09 Q1011 R08/CLRD70 NOSIG"
"10:00 AM EEST on June 04, 2016","2016","06","04","10","00","Europe/Kiev","7:00 AM GMT on June 04, 2016","2016","06","04","07","00","UTC","21.0","69.8","9.0","48.2","46","7.2","4.5","-9999.0","-9999.0","120","ESE","-9999.0","-9999.0","1011","29.86","-999","-999","-9999","-9999","-9999.00","-9999.00","Clear","clear","0","0","0","0","0","0","METAR UKKK 040700Z 12002MPS 060V210 CAVOK 21/09 Q1011 R08/CLRD70 NOSIG"
"10:30 AM EEST on June 04, 2016","2016","06","04","10","30","Europe/Kiev","7:30 AM GMT on June 04, 2016","2016","06","04","07","30","UTC","21.0","69.8","8.0","46.4","43","7.2","4.5","-9999.0","-9999.0","70","ENE","-9999.0","-9999.0","1011","29.86","-999","-999","-9999","-9999","-9999.00","-9999.00","Clear","clear","0","0","0","0","0","0","METAR UKKK 040730Z 07002MPS CAVOK 21/08 Q1011 R08/CLRD70 NOSIG"
"11:00 AM EEST on June 04, 2016","2016","06","04","11","00","Europe/Kiev","8:00 AM GMT on June 04, 2016","2016","06","04","08","00","UTC","22.0","71.6","9.0","48.2","43","3.6","2.2","-9999.0","-9999.0","0","Variable","-9999.0","-9999.0","1011","29.86","-999","-999","-9999","-9999","-9999.00","-9999.00","Clear","clear","0","0","0","0","0","0","METAR UKKK 040800Z VRB01MPS CAVOK 22/09 Q1011 R08/CLRD70 NOSIG"
"11:30 AM EEST on June 04, 2016","2016","06","04","11","30","Europe/Kiev","8:30 AM GMT on June 04, 2016","2016","06","04","08","30","UTC","21.0","69.8","8.0","46.4","43","10.8","6.7","-9999.0","-9999.0","80","East","-9999.0","-9999.0","1011","29.86","-999","-999","-9999","-9999","-9999.00","-9999.00","Clear","clear","0","0","0","0","0","0","METAR UKKK 040830Z 08003MPS CAVOK 21/08 Q1011 R08/CLRD70 NOSIG"
"12:00 PM EEST on June 04, 2016","2016","06","04","12","00","Europe/Kiev","9:00 AM GMT on June 04, 2016","2016","06","04","09","00","UTC","22","72","7","45","27","10.8","6.7","","","30","NNE","20","12","1011","29.86","-999","-999","-9999","-9999","","","Mostly Cloudy","mostlycloudy","0","0","0","0","0","0","AAXX 04091 33345 42698 60303 10225 20071 39917 40110 58001 85201 555 10043"
"12:00 PM EEST on June 04, 2016","2016","06","04","12","00","Europe/Kiev","9:00 AM GMT on June 04, 2016","2016","06","04","09","00","UTC","22.0","71.6","10.0","50.0","46","3.6","2.2","-9999.0","-9999.0","0","Variable","-9999.0","-9999.0","1011","29.86","-999","-999","-9999","-9999","-9999.00","-9999.00","Clear","clear","0","0","0","0","0","0","METAR UKKK 040900Z VRB01MPS CAVOK 22/10 Q1011 R08/CLRD70 NOSIG"
"12:30 PM EEST on June 04, 2016","2016","06","04","12","30","Europe/Kiev","9:30 AM GMT on June 04, 2016","2016","06","04","09","30","UTC","21.0","69.8","9.0","48.2","46","10.8","6.7","-9999.0","-9999.0","60","ENE","-9999.0","-9999.0","1011","29.86","-999","-999","-9999","-9999","-9999.00","-9999.00","Clear","clear","0","0","0","0","0","0","METAR UKKK 040930Z 06003MPS 350V100 CAVOK 21/09 Q1011 R08/CLRD70 NOSIG"
"1:00 PM EEST on June 04, 2016","2016","06","04","13","00","Europe/Kiev","10:00 AM GMT on June 04, 2016","2016","06","04","10","00","UTC","22.0","71.6","8.0","46.4","41","7.2","4.5","-9999.0","-9999.0","150","SSE","-9999.0","-9999.0","1011","29.86","-999","-999","-9999","-9999","-9999.00","-9999.00","Clear","clear","0","0","0","0","0","0","METAR UKKK 041000Z 15002MPS 110V190 CAVOK 22/08 Q1011 R08/CLRD70 NOSIG"
"1:30 PM EEST on June 04, 2016","2016","06","04","13","30","Europe/Kiev","10:30 AM GMT on June 04, 2016","2016","06","04","10","30","UTC","23.0","73.4","7.0","44.6","36","3.6","2.2","-9999.0","-9999.0","0","Variable","-9999.0","-9999.0","1011","29.86","-999","-999","-9999","-9999","-9999.00","-9999.00","Clear","clear","0","0","0","0","0","0","METAR UKKK 041030Z VRB01MPS CAVOK 23/07 Q1011 R08/CLRD70 NOSIG"
"2:00 PM EEST on June 04, 2016","2016","06","04","14","00","Europe/Kiev","11:00 AM GMT on June 04, 2016","2016","06","04","11","00","UTC","22.0","71.6","9.0","48.2","43","7.2","4.5","-9999.0","-9999.0","60","ENE","-9999.0","-9999.0","1011","29.86","-999","-999","-9999","-9999","-9999.00","-9999.00","Clear","clear","0","0","0","0","0","0","METAR UKKK 041100Z 06002MPS 350V090 CAVOK 22/09 Q1011 R08/CLRD70 NOSIG"
"2:30 PM EEST on June 04, 2016","2016","06","04","14","30","Europe/Kiev","11:30 AM GMT on June 04, 2016","2016","06","04","11","30","UTC","22.0","71.6","9.0","48.2","43","7.2","4.5","-9999.0","-9999.0","110","ESE","-9999.0","-9999.0","1011","29.86","-999","-999","-9999","-9999","-9999.00","-9999.00","Clear","clear","0","0","0","0","0","0","METAR UKKK 041130Z 11002MPS CAVOK 22/09 Q1011 R08/CLRD70 NOSIG"
"3:00 PM EEST on June 04, 2016","2016","06","04","15","00","Europe/Kiev","12:00 PM GMT on June 04, 2016","2016","06","04","12","00","UTC","23","74","8","47","27","3.6","2.2","","","80","East","20","12","1010","29.83","-999","-999","-9999","-9999","","","Partly Cloudy","partlycloudy","0","0","0","0","0","0","AAXX 04121 33345 32698 60801 10233 20083 39908 40100 57009 84201 555 10040"
"3:00 PM EEST on June 04, 2016","2016","06","04","15","00","Europe/Kiev","12:00 PM GMT on June 04, 2016","2016","06","04","12","00","UTC","24.0","75.2","9.0","48.2","38","3.6","2.2","-9999.0","-9999.0","0","Variable","-9999.0","-9999.0","1010","29.83","-999","-999","-9999","-9999","-9999.00","-9999.00","Clear","clear","0","0","0","0","0","0","METAR UKKK 041200Z VRB01MPS CAVOK 24/09 Q1010 R08/CLRD70 NOSIG"
"3:30 PM EEST on June 04, 2016","2016","06","04","15","30","Europe/Kiev","12:30 PM GMT on June 04, 2016","2016","06","04","12","30","UTC","23.0","73.4","8.0","46.4","38","3.6","2.2","-9999.0","-9999.0","0","Variable","-9999.0","-9999.0","1010","29.83","-999","-999","-9999","-9999","-9999.00","-9999.00","Clear","clear","0","0","0","0","0","0","METAR UKKK 041230Z VRB01MPS CAVOK 23/08 Q1010 R08/CLRD70 NOSIG"
"4:00 PM EEST on June 04, 2016","2016","06","04","16","00","Europe/Kiev","1:00 PM GMT on June 04, 2016","2016","06","04","13","00","UTC","24.0","75.2","9.0","48.2","38","3.6","2.2","-9999.0","-9999.0","0","Variable","-9999.0","-9999.0","1010","29.83","-999","-999","-9999","-9999","-9999.00","-9999.00","Clear","clear","0","0","0","0","0","0","METAR UKKK 041300Z VRB01MPS CAVOK 24/09 Q1010 R08/CLRD70 NOSIG"
"4:30 PM EEST on June 04, 2016","2016","06","04","16","30","Europe/Kiev","1:30 PM GMT on June 04, 2016","2016","06","04","13","30","UTC","23.0","73.4","8.0","46.4","38","7.2","4.5","-9999.0","-9999.0","250","WSW","-9999.0","-9999.0","1010","29.83","-999","-999","-9999","-9999","-9999.00","-9999.00","Clear","clear","0","0","0","0","0","0","METAR UKKK 041330Z 25002MPS 170V310 CAVOK 23/08 Q1010 R08/CLRD70 NOSIG"
"5:00 PM EEST on June 04, 2016","2016","06","04","17","00","Europe/Kiev","2:00 PM GMT on June 04, 2016","2016","06","04","14","00","UTC","23.0","73.4","10.0","50.0","44","7.2","4.5","-9999.0","-9999.0","170","South","-9999.0","-9999.0","1009","29.80","-999","-999","-9999","-9999","-9999.00","-9999.00","Clear","clear","0","0","0","0","0","0","METAR UKKK 041400Z 17002MPS 090V230 CAVOK 23/10 Q1009 R08/CLRD70 NOSIG"
"5:30 PM EEST on June 04, 2016","2016","06","04","17","30","Europe/Kiev","2:30 PM GMT on June 04, 2016","2016","06","04","14","30","UTC","23.0","73.4","9.0","48.2","41","10.8","6.7","-9999.0","-9999.0","210","SSW","-9999.0","-9999.0","1009","29.80","-999","-999","-9999","-9999","-9999.00","-9999.00","Clear","clear","0","0","0","0","0","0","METAR UKKK 041430Z 21003MPS 170V260 CAVOK 23/09 Q1009 R08/CLRD70 NOSIG"
"6:00 PM EEST on June 04, 2016","2016","06","04","18","00","Europe/Kiev","3:00 PM GMT on June 04, 2016","2016","06","04","15","00","UTC","24","74","8","46","26","10.8","6.7","","","220","SW","20","12","1009","29.79","-999","-999","-9999","-9999","","","Scattered Clouds","partlycloudy","0","0","0","0","0","0","AAXX 04151 33345 42698 32203 10235 20079 39895 40087 57013 82260 555 10034"
"6:00 PM EEST on June 04, 2016","2016","06","04","18","00","Europe/Kiev","3:00 PM GMT on June 04, 2016","2016","06","04","15","00","UTC","23.0","73.4","9.0","48.2","41","10.8","6.7","-9999.0","-9999.0","260","West","-9999.0","-9999.0","1009","29.80","-999","-999","-9999","-9999","-9999.00","-9999.00","Clear","clear","0","0","0","0","0","0","METAR UKKK 041500Z 26003MPS 220V290 CAVOK 23/09 Q1009 R26/CLRD70 NOSIG"
"6:30 PM EEST on June 04, 2016","2016","06","04","18","30","Europe/Kiev","3:30 PM GMT on June 04, 2016","2016","06","04","15","30","UTC","23.0","73.4","9.0","48.2","41","10.8","6.7","-9999.0","-9999.0","260","West","-9999.0","-9999.0","1009","29.80","-999","-999","-9999","-9999","-9999.00","-9999.00","Clear","clear","0","0","0","0","0","0","METAR UKKK 041530Z 26003MPS 230V290 CAVOK 23/09 Q1009 R26/CLRD70 NOSIG"
"7:00 PM EEST on June 04, 2016","2016","06","04","19","00","Europe/Kiev","4:00 PM GMT on June 04, 2016","2016","06","04","16","00","UTC","23.0","73.4","9.0","48.2","41","14.4","8.9","-9999.0","-9999.0","270","West","-9999.0","-9999.0","1009","29.80","-999","-999","-9999","-9999","-9999.00","-9999.00","Clear","clear","0","0","0","0","0","0","METAR UKKK 041600Z 27004MPS CAVOK 23/09 Q1009 R26/CLRD70 NOSIG"
"7:30 PM EEST on June 04, 2016","2016","06","04","19","30","Europe/Kiev","4:30 PM GMT on June 04, 2016","2016","06","04","16","30","UTC","22.0","71.6","9.0","48.2","43","14.4","8.9","-9999.0","-9999.0","270","West","-9999.0","-9999.0","1009","29.80","-999","-999","-9999","-9999","-9999.00","-9999.00","Clear","clear","0","0","0","0","0","0","METAR UKKK 041630Z 27004MPS CAVOK 22/09 Q1009 R26/CLRD70 NOSIG"
"8:00 PM EEST on June 04, 2016","2016","06","04","20","00","Europe/Kiev","5:00 PM GMT on June 04, 2016","2016","06","04","17","00","UTC","21.0","69.8","9.0","48.2","46","14.4","8.9","-9999.0","-9999.0","260","West","-9999.0","-9999.0","1009","29.80","-999","-999","-9999","-9999","-9999.00","-9999.00","Clear","clear","0","0","0","0","0","0","METAR UKKK 041700Z 26004MPS CAVOK 21/09 Q1009 R26/CLRD70 NOSIG"
"8:30 PM EEST on June 04, 2016","2016","06","04","20","30","Europe/Kiev","5:30 PM GMT on June 04, 2016","2016","06","04","17","30","UTC","21.0","69.8","9.0","48.2","46","7.2","4.5","-9999.0","-9999.0","230","SW","-9999.0","-9999.0","1009","29.80","-999","-999","-9999","-9999","-9999.00","-9999.00","Clear","clear","0","0","0","0","0","0","METAR UKKK 041730Z 23002MPS CAVOK 21/09 Q1009 R26/CLRD70 NOSIG"
"9:00 PM EEST on June 04, 2016","2016","06","04","21","00","Europe/Kiev","6:00 PM GMT on June 04, 2016","2016","06","04","18","00","UTC","20","69","8","47","35","7.2","4.5","","","230","SW","20","12","1009","29.79","-999","-999","-9999","-9999","","","","","0","0","0","0","0","0","AAXX 04181 33345 32998 02302 10203 20085 39893 40087 56002 333 10246 555 10019"
"9:00 PM EEST on June 04, 2016","2016","06","04","21","00","Europe/Kiev","6:00 PM GMT on June 04, 2016","2016","06","04","18","00","UTC","19.0","66.2","10.0","50.0","56","7.2","4.5","-9999.0","-9999.0","230","SW","-9999.0","-9999.0","1009","29.80","-999","-999","-9999","-9999","-9999.00","-9999.00","Clear","clear","0","0","0","0","0","0","METAR UKKK 041800Z 23002MPS CAVOK 19/10 Q1009 R26/CLRD70 NOSIG"
"9:30 PM EEST on June 04, 2016","2016","06","04","21","30","Europe/Kiev","6:30 PM GMT on June 04, 2016","2016","06","04","18","30","UTC","18.0","64.4","9.0","48.2","56","7.2","4.5","-9999.0","-9999.0","230","SW","-9999.0","-9999.0","1009","29.80","-999","-999","-9999","-9999","-9999.00","-9999.00","Clear","clear","0","0","0","0","0","0","METAR UKKK 041830Z 23002MPS CAVOK 18/09 Q1009 R26/CLRD70 NOSIG"
"10:00 PM EEST on June 04, 2016","2016","06","04","22","00","Europe/Kiev","7:00 PM GMT on June 04, 2016","2016","06","04","19","00","UTC","16.0","60.8","10.0","50.0","68","7.2","4.5","-9999.0","-9999.0","220","SW","-9999.0","-9999.0","1009","29.80","-999","-999","-9999","-9999","-9999.00","-9999.00","Clear","clear","0","0","0","0","0","0","METAR UKKK 041900Z 22002MPS CAVOK 16/10 Q1009 R26/CLRD70 NOSIG"
"10:30 PM EEST on June 04, 2016","2016","06","04","22","30","Europe/Kiev","7:30 PM GMT on June 04, 2016","2016","06","04","19","30","UTC","17.0","62.6","10.0","50.0","63","10.8","6.7","-9999.0","-9999.0","220","SW","-9999.0","-9999.0","1009","29.80","-999","-999","-9999","-9999","-9999.00","-9999.00","Clear","clear","0","0","0","0","0","0","METAR UKKK 041930Z 22003MPS CAVOK 17/10 Q1009 R26/CLRD70 NOSIG"
"11:00 PM EEST on June 04, 2016","2016","06","04","23","00","Europe/Kiev","8:00 PM GMT on June 04, 2016","2016","06","04","20","00","UTC","16.0","60.8","10.0","50.0","68","10.8","6.7","-9999.0","-9999.0","220","SW","-9999.0","-9999.0","1009","29.80","-999","-999","-9999","-9999","-9999.00","-9999.00","Clear","clear","0","0","0","0","0","0","METAR UKKK 042000Z 22003MPS CAVOK 16/10 Q1009 R26/CLRD70 NOSIG"
"11:30 PM EEST on June 04, 2016","2016","06","04","23","30","Europe/Kiev","8:30 PM GMT on June 04, 2016","2016","06","04","20","30","UTC","16.0","60.8","10.0","50.0","68","7.2","4.5","-9999.0","-9999.0","240","WSW","-9999.0","-9999.0","1009","29.80","-999","-999","-9999","-9999","-9999.00","-9999.00","Clear","clear","0","0","0","0","0","0","METAR UKKK 042030Z 24002MPS 210V270 CAVOK 16/10 Q1009 R26/CLRD70 NOSIG"
"12:00 AM EEST on June 05, 2016","2016","06","05","00","00","Europe/Kiev","9:00 PM GMT on June 04, 2016","2016","06","04","21","00","UTC","18","64","9","47","44","10.8","6.7","","","230","SW","20","12","1009","29.81","-999","-999","-9999","-9999","","","Mostly Cloudy","mostlycloudy","0","0","0","0","0","0","AAXX 04211 33345 42998 52303 10180 20086 39898 40093 53005 85030 555 10016"
"12:00 AM EEST on June 05, 2016","2016","06","05","00","00","Europe/Kiev","9:00 PM GMT on June 04, 2016","2016","06","04","21","00","UTC","15.0","59.0","10.0","50.0","72","7.2","4.5","-9999.0","-9999.0","240","WSW","-9999.0","-9999.0","1009","29.80","-999","-999","-9999","-9999","-9999.00","-9999.00","Clear","clear","0","0","0","0","0","0","METAR UKKK 042100Z 24002MPS CAVOK 15/10 Q1009 R26/CLRD70 NOSIG"
"12:30 AM EEST on June 05, 2016","2016","06","05","00","30","Europe/Kiev","9:30 PM GMT on June 04, 2016","2016","06","04","21","30","UTC","15.0","59.0","10.0","50.0","72","7.2","4.5","-9999.0","-9999.0","250","WSW","-9999.0","-9999.0","1009","29.80","-999","-999","-9999","-9999","-9999.00","-9999.00","Clear","clear","0","0","0","0","0","0","METAR UKKK 042130Z 25002MPS CAVOK 15/10 Q1009 R26/CLRD70 NOSIG"
"1:00 AM EEST on June 05, 2016","2016","06","05","01","00","Europe/Kiev","10:00 PM GMT on June 04, 2016","2016","06","04","22","00","UTC","16.0","60.8","10.0","50.0","68","7.2","4.5","-9999.0","-9999.0","260","West","-9999.0","-9999.0","1009","29.80","-999","-999","-9999","-9999","-9999.00","-9999.00","Clear","clear","0","0","0","0","0","0","METAR UKKK 042200Z 26002MPS CAVOK 16/10 Q1009 R26/CLRD70 NOSIG"
"1:30 AM EEST on June 05, 2016","2016","06","05","01","30","Europe/Kiev","10:30 PM GMT on June 04, 2016","2016","06","04","22","30","UTC","16.0","60.8","10.0","50.0","68","7.2","4.5","-9999.0","-9999.0","230","SW","10.0","6.2","1009","29.80","-999","-999","-9999","-9999","-9999.00","-9999.00","Partly Cloudy","partlycloudy","0","0","0","0","0","0","METAR UKKK 042230Z 23002MPS 9999 FEW030CB 16/10 Q1009 R26/CLRD70 NOSIG"
"2:00 AM EEST on June 05, 2016","2016","06","05","02","00","Europe/Kiev","11:00 PM GMT on June 04, 2016","2016","06","04","23","00","UTC","16.0","60.8","11.0","51.8","72","10.8","6.7","-9999.0","-9999.0","250","WSW","10.0","6.2","1009","29.80","-999","-999","-9999","-9999","-9999.00","-9999.00","Light Rain Showers","rain","0","1","0","0","0","0","METAR UKKK 042300Z 25003MPS 9999 -SHRA SCT030CB BKN100 16/11 Q1009 R26/CLRD70 NOSIG"
"2:30 AM EEST on June 05, 2016","2016","06","05","02","30","Europe/Kiev","11:30 PM GMT on June 04, 2016","2016","06","04","23","30","UTC","16.0","60.8","12.0","53.6","77","7.2","4.5","-9999.0","-9999.0","240","WSW","9.0","5.6","1009","29.80","-999","-999","-9999","-9999","-9999.00","-9999.00","Light Rain Showers","rain","0","1","0","0","0","0","METAR UKKK 042330Z 24002MPS 220V290 9000 -SHRA SCT030CB BKN067 16/12 Q1009 R26/CLRD70 NOSIG"
"3:00 AM EEST on June 05, 2016","2016","06","05","03","00","Europe/Kiev","12:00 AM GMT on June 05, 2016","2016","06","05","00","00","UTC","16","61","13","55","75","10.8","6.7","","","220","SW","10","6","1009","29.80","-999","-999","-9999","-9999","","","Light Rain Showers","rain","0","1","0","0","0","0","AAXX 05001 33345 /1697 82203 10159 20129 39895 40091 58003 78081 8695/ 333 86936 555 11016 60011"
"3:00 AM EEST on June 05, 2016","2016","06","05","03","00","Europe/Kiev","12:00 AM GMT on June 05, 2016","2016","06","05","00","00","UTC","15.0","59.0","13.0","55.4","88","7.2","4.5","-9999.0","-9999.0","210","SSW","10.0","6.2","1009","29.80","-999","-999","-9999","-9999","-9999.00","-9999.00","Scattered Clouds","partlycloudy","0","0","0","0","0","0","METAR UKKK 050000Z 21002MPS 180V280 9999 SCT030CB 15/13 Q1009 R26/CLRD70 NOSIG"
"3:30 AM EEST on June 05, 2016","2016","06","05","03","30","Europe/Kiev","12:30 AM GMT on June 05, 2016","2016","06","05","00","30","UTC","15.0","59.0","14.0","57.2","94","3.6","2.2","-9999.0","-9999.0","290","WNW","10.0","6.2","1009","29.80","-999","-999","-9999","-9999","-9999.00","-9999.00","Partly Cloudy","partlycloudy","0","0","0","0","0","0","METAR UKKK 050030Z 29001MPS 9999 FEW030CB 15/14 Q1009 R26/CLRD70 NOSIG"
"4:00 AM EEST on June 05, 2016","2016","06","05","04","00","Europe/Kiev","1:00 AM GMT on June 05, 2016","2016","06","05","01","00","UTC","15.0","59.0","14.0","57.2","94","7.2","4.5","-9999.0","-9999.0","260","West","-9999.0","-9999.0","1009","29.80","-999","-999","-9999","-9999","-9999.00","-9999.00","Clear","clear","0","0","0","0","0","0","METAR UKKK 050100Z 26002MPS CAVOK 15/14 Q1009 R26/CLRD70 NOSIG"
"4:30 AM EEST on June 05, 2016","2016","06","05","04","30","Europe/Kiev","1:30 AM GMT on June 05, 2016","2016","06","05","01","30","UTC","15.0","59.0","14.0","57.2","94","10.8","6.7","-9999.0","-9999.0","270","West","-9999.0","-9999.0","1009","29.80","-999","-999","-9999","-9999","-9999.00","-9999.00","Clear","clear","0","0","0","0","0","0","METAR UKKK 050130Z 27003MPS CAVOK 15/14 Q1009 R26/CLRD70 NOSIG"
"5:00 AM EEST on June 05, 2016","2016","06","05","05","00","Europe/Kiev","2:00 AM GMT on June 05, 2016","2016","06","05","02","00","UTC","15.0","59.0","13.0","55.4","88","10.8","6.7","-9999.0","-9999.0","260","West","-9999.0","-9999.0","1009","29.80","-999","-999","-9999","-9999","-9999.00","-9999.00","Clear","clear","0","0","0","0","0","0","METAR UKKK 050200Z 26003MPS CAVOK 15/13 Q1009 R26/CLRD70 NOSIG"
"5:30 AM EEST on June 05, 2016","2016","06","05","05","30","Europe/Kiev","2:30 AM GMT on June 05, 2016","2016","06","05","02","30","UTC","15.0","59.0","13.0","55.4","88","7.2","4.5","-9999.0","-9999.0","250","WSW","-9999.0","-9999.0","1009","29.80","-999","-999","-9999","-9999","-9999.00","-9999.00","Clear","clear","0","0","0","0","0","0","METAR UKKK 050230Z 25002MPS CAVOK 15/13 Q1009 R26/190060 NOSIG"
"6:00 AM EEST on June 05, 2016","2016","06","05","06","00","Europe/Kiev","3:00 AM GMT on June 05, 2016","2016","06","05","03","00","UTC","16","61","12","54","73","3.6","2.2","","","300","WNW","20","12","1009","29.80","-999","-999","-9999","-9999","","","Partly Cloudy","partlycloudy","0","0","0","0","0","0","AAXX 05031 33345 41998 73001 10161 20125 39893 40089 57002 70282 80040 555 11016"
"6:00 AM EEST on June 05, 2016","2016","06","05","06","00","Europe/Kiev","3:00 AM GMT on June 05, 2016","2016","06","05","03","00","UTC","15.0","59.0","13.0","55.4","88","10.8","6.7","-9999.0","-9999.0","260","West","-9999.0","-9999.0","1009","29.80","-999","-999","-9999","-9999","-9999.00","-9999.00","Clear","clear","0","0","0","0","0","0","METAR UKKK 050300Z 26003MPS CAVOK 15/13 Q1009 R26/190060 NOSIG"
"6:30 AM EEST on June 05, 2016","2016","06","05","06","30","Europe/Kiev","3:30 AM GMT on June 05, 2016","2016","06","05","03","30","UTC","16.0","60.8","14.0","57.2","88","10.8","6.7","-9999.0","-9999.0","260","West","-9999.0","-9999.0","1009","29.80","-999","-999","-9999","-9999","-9999.00","-9999.00","Clear","clear","0","0","0","0","0","0","METAR UKKK 050330Z 26003MPS CAVOK 16/14 Q1009 R26/190060 NOSIG"
"7:00 AM EEST on June 05, 2016","2016","06","05","07","00","Europe/Kiev","4:00 AM GMT on June 05, 2016","2016","06","05","04","00","UTC","17.0","62.6","13.0","55.4","77","10.8","6.7","-9999.0","-9999.0","270","West","-9999.0","-9999.0","1009","29.80","-999","-999","-9999","-9999","-9999.00","-9999.00","Clear","clear","0","0","0","0","0","0","METAR UKKK 050400Z 27003MPS CAVOK 17/13 Q1009 R26/190060 NOSIG"
"7:30 AM EEST on June 05, 2016","2016","06","05","07","30","Europe/Kiev","4:30 AM GMT on June 05, 2016","2016","06","05","04","30","UTC","17.0","62.6","13.0","55.4","77","10.8","6.7","-9999.0","-9999.0","280","West","-9999.0","-9999.0","1009","29.80","-999","-999","-9999","-9999","-9999.00","-9999.00","Clear","clear","0","0","0","0","0","0","METAR UKKK 050430Z 28003MPS CAVOK 17/13 Q1009 R26/190060 NOSIG"
"8:00 AM EEST on June 05, 2016","2016","06","05","08","00","Europe/Kiev","5:00 AM GMT on June 05, 2016","2016","06","05","05","00","UTC","17.0","62.6","14.0","57.2","82","10.8","6.7","-9999.0","-9999.0","260","West","-9999.0","-9999.0","1009","29.80","-999","-999","-9999","-9999","-9999.00","-9999.00","Clear","clear","0","0","0","0","0","0","METAR UKKK 050500Z 26003MPS CAVOK 17/14 Q1009 R26/190060 NOSIG"
"8:30 AM EEST on June 05, 2016","2016","06","05","08","30","Europe/Kiev","5:30 AM GMT on June 05, 2016","2016","06","05","05","30","UTC","18.0","64.4","14.0","57.2","77","10.8","6.7","-9999.0","-9999.0","250","WSW","-9999.0","-9999.0","1009","29.80","-999","-999","-9999","-9999","-9999.00","-9999.00","Clear","clear","0","0","0","0","0","0","METAR UKKK 050530Z 25003MPS CAVOK 18/14 Q1009 R26/190060 NOSIG"
"9:00 AM EEST on June 05, 2016","2016","06","05","09","00","Europe/Kiev","6:00 AM GMT on June 05, 2016","2016","06","05","06","00","UTC","18","65","13","56","65","7.2","4.5","","","300","WNW","20","12","1009","29.80","-999","-999","-9999","-9999","","","Partly Cloudy","partlycloudy","0","0","0","0","0","0","AAXX 05061 33345 11998 73002 10184 20133 39896 40091 53003 60012 70282 82089 333 20156 555 11024"
"9:00 AM EEST on June 05, 2016","2016","06","05","09","00","Europe/Kiev","6:00 AM GMT on June 05, 2016","2016","06","05","06","00","UTC","19.0","66.2","14.0","57.2","73","14.4","8.9","-9999.0","-9999.0","270","West","-9999.0","-9999.0","1009","29.80","-999","-999","-9999","-9999","-9999.00","-9999.00","Clear","clear","0","0","0","0","0","0","METAR UKKK 050600Z 27004MPS 240V300 CAVOK 19/14 Q1009 R26/190060 NOSIG"
"9:30 AM EEST on June 05, 2016","2016","06","05","09","30","Europe/Kiev","6:30 AM GMT on June 05, 2016","2016","06","05","06","30","UTC","20.0","68.0","14.0","57.2","68","14.4","8.9","-9999.0","-9999.0","270","West","-9999.0","-9999.0","1009","29.80","-999","-999","-9999","-9999","-9999.00","-9999.00","Clear","clear","0","0","0","0","0","0","METAR UKKK 050630Z 27004MPS CAVOK 20/14 Q1009 R26/CLRD70 NOSIG"
"10:00 AM EEST on June 05, 2016","2016","06","05","10","00","Europe/Kiev","7:00 AM GMT on June 05, 2016","2016","06","05","07","00","UTC","21.0","69.8","15.0","59.0","68","18.0","11.2","-9999.0","-9999.0","270","West","-9999.0","-9999.0","1009","29.80","-999","-999","-9999","-9999","-9999.00","-9999.00","Clear","clear","0","0","0","0","0","0","METAR UKKK 050700Z 27005MPS CAVOK 21/15 Q1009 R26/CLRD70 NOSIG"
"10:30 AM EEST on June 05, 2016","2016","06","05","10","30","Europe/Kiev","7:30 AM GMT on June 05, 2016","2016","06","05","07","30","UTC","22.0","71.6","14.0","57.2","60","18.0","11.2","-9999.0","-9999.0","270","West","-9999.0","-9999.0","1009","29.80","-999","-999","-9999","-9999","-9999.00","-9999.00","Clear","clear","0","0","0","0","0","0","METAR UKKK 050730Z 27005MPS 250V310 CAVOK 22/14 Q1009 R26/CLRD70 NOSIG"
"11:00 AM EEST on June 05, 2016","2016","06","05","11","00","Europe/Kiev","8:00 AM GMT on June 05, 2016","2016","06","05","08","00","UTC","23.0","73.4","13.0","55.4","53","21.6","13.4","-9999.0","-9999.0","300","WNW","-9999.0","-9999.0","1009","29.80","-999","-999","-9999","-9999","-9999.00","-9999.00","Clear","clear","0","0","0","0","0","0","METAR UKKK 050800Z 30006MPS CAVOK 23/13 Q1009 R26/CLRD70 NOSIG"
"11:30 AM EEST on June 05, 2016","2016","06","05","11","30","Europe/Kiev","8:30 AM GMT on June 05, 2016","2016","06","05","08","30","UTC","23.0","73.4","11.0","51.8","47","14.4","8.9","-9999.0","-9999.0","300","WNW","-9999.0","-9999.0","1009","29.80","-999","-999","-9999","-9999","-9999.00","-9999.00","Clear","clear","0","0","0","0","0","0","METAR UKKK 050830Z 30004MPS 260V340 CAVOK 23/11 Q1009 R26/CLRD70 NOSIG"
"12:00 PM EEST on June 05, 2016","2016","06","05","12","00","Europe/Kiev","9:00 AM GMT on June 05, 2016","2016","06","05","09","00","UTC","24","75","9","49","28","10.8","6.7","","","310","NW","20","12","1009","29.79","-999","-999","-9999","-9999","","","Scattered Clouds","partlycloudy","0","0","0","0","0","0","AAXX 05091 33345 42698 33103 10237 20092 39897 40088 52001 82201 555 10036"
"12:00 PM EEST on June 05, 2016","2016","06","05","12","00","Europe/Kiev","9:00 AM GMT on June 05, 2016","2016","06","05","09","00","UTC","23.0","73.4","12.0","53.6","50","14.4","8.9","-9999.0","-9999.0","280","West","-9999.0","-9999.0","1009","29.80","-999","-999","-9999","-9999","-9999.00","-9999.00","Clear","clear","0","0","0","0","0","0","METAR UKKK 050900Z 28004MPS 260V330 CAVOK 23/12 Q1009 R26/CLRD70 NOSIG"
"12:30 PM EEST on June 05, 2016","2016","06","05","12","30","Europe/Kiev","9:30 AM GMT on June 05, 2016","2016","06","05","09","30","UTC","24.0","75.2","11.0","51.8","44","18.0","11.2","-9999.0","-9999.0","290","WNW","-9999.0","-9999.0","1009","29.80","-999","-999","-9999","-9999","-9999.00","-9999.00","Clear","clear","0","0","0","0","0","0","METAR UKKK 050930Z 29005MPS 240V320 CAVOK 24/11 Q1009 R26/CLRD70 NOSIG"
"1:00 PM EEST on June 05, 2016","2016","06","05","13","00","Europe/Kiev","10:00 AM GMT on June 05, 2016","2016","06","05","10","00","UTC","23.0","73.4","12.0","53.6","50","14.4","8.9","-9999.0","-9999.0","310","NW","-9999.0","-9999.0","1009","29.80","-999","-999","-9999","-9999","-9999.00","-9999.00","Clear","clear","0","0","0","0","0","0","METAR UKKK 051000Z 31004MPS CAVOK 23/12 Q1009 R26/CLRD70 NOSIG"
"1:30 PM EEST on June 05, 2016","2016","06","05","13","30","Europe/Kiev","10:30 AM GMT on June 05, 2016","2016","06","05","10","30","UTC","24.0","75.2","12.0","53.6","47","14.4","8.9","-9999.0","-9999.0","300","WNW","10.0","6.2","1009","29.80","-999","-999","-9999","-9999","-9999.00","-9999.00","Scattered Clouds","partlycloudy","0","0","0","0","0","0","METAR UKKK 051030Z 30004MPS 260V350 9999 FEW030CB SCT050 24/12 Q1009 R26/CLRD70 TEMPO VRB10G16MPS 2100 -TSRAGR BKN015CB"
"2:00 PM EEST on June 05, 2016","2016","06","05","14","00","Europe/Kiev","11:00 AM GMT on June 05, 2016","2016","06","05","11","00","UTC","24.0","75.2","10.0","50.0","41","18.0","11.2","-9999.0","-9999.0","280","West","10.0","6.2","1009","29.80","-999","-999","-9999","-9999","-9999.00","-9999.00","Scattered Clouds","partlycloudy","0","0","0","0","0","0","METAR UKKK 051100Z 28005MPS 250V320 9999 FEW030CB SCT050 24/10 Q1009 R26/CLRD70 TEMPO VRB10G16MPS 2100 -TSRAGR BKN015CB"
"2:30 PM EEST on June 05, 2016","2016","06","05","14","30","Europe/Kiev","11:30 AM GMT on June 05, 2016","2016","06","05","11","30","UTC","24.0","75.2","10.0","50.0","41","21.6","13.4","-9999.0","-9999.0","270","West","10.0","6.2","1009","29.80","-999","-999","-9999","-9999","-9999.00","-9999.00","Partly Cloudy","partlycloudy","0","0","0","0","0","0","METAR UKKK 051130Z 27006MPS 240V300 9999 FEW033CB 24/10 Q1009 R26/CLRD70 TEMPO VRB10G16MPS 2100 -TSRAGR BKN015CB"
"3:00 PM EEST on June 05, 2016","2016","06","05","15","00","Europe/Kiev","12:00 PM GMT on June 05, 2016","2016","06","05","12","00","UTC","25","77","8","46","22","14.4","8.9","","","290","WNW","20","12","1008","29.77","-999","-999","-9999","-9999","","","Scattered Clouds","partlycloudy","0","0","0","0","0","0","AAXX 05121 33345 32698 42904 10248 20075 39890 40081 58007 82201 555 10041"
"3:00 PM EEST on June 05, 2016","2016","06","05","15","00","Europe/Kiev","12:00 PM GMT on June 05, 2016","2016","06","05","12","00","UTC","24.0","75.2","10.0","50.0","41","18.0","11.2","-9999.0","-9999.0","270","West","-9999.0","-9999.0","1009","29.80","-999","-999","-9999","-9999","-9999.00","-9999.00","Clear","clear","0","0","0","0","0","0","METAR UKKK 051200Z 27005MPS 240V310 CAVOK 24/10 Q1009 R26/CLRD70 TEMPO VRB10G16MPS 2100 -TSRAGR BKN015CB"
"3:30 PM EEST on June 05, 2016","2016","06","05","15","30","Europe/Kiev","12:30 PM GMT on June 05, 2016","2016","06","05","12","30","UTC","25.0","77.0","10.0","50.0","39","21.6","13.4","-9999.0","-9999.0","320","NW","-9999.0","-9999.0","1008","29.77","-999","-999","-9999","-9999","-9999.00","-9999.00","Clear","clear","0","0","0","0","0","0","METAR UKKK 051230Z 32006MPS 280V350 CAVOK 25/10 Q1008 R26/CLRD70 TEMPO VRB10G16MPS 2100 -TSRAGR BKN015CB"
"4:00 PM EEST on June 05, 2016","2016","06","05","16","00","Europe/Kiev","1:00 PM GMT on June 05, 2016","2016","06","05","13","00","UTC","24.0","75.2","7.0","44.6","34","25.2","15.7","-9999.0","-9999.0","320","NW","-9999.0","-9999.0","1008","29.77","-999","-999","-9999","-9999","-9999.00","-9999.00","Clear","clear","0","0","0","0","0","0","METAR UKKK 051300Z 32007MPS 290V350 CAVOK 24/07 Q1008 R26/CLRD70 TEMPO VRB10G16MPS 2100 -TSRAGR BKN015CB"
"4:30 PM EEST on June 05, 2016","2016","06","05","16","30","Europe/Kiev","1:30 PM GMT on June 05, 2016","2016","06","05","13","30","UTC","25.0","77.0","7.0","44.6","32","25.2","15.7","-9999.0","-9999.0","300","WNW","-9999.0","-9999.0","1008","29.77","-999","-999","-9999","-9999","-9999.00","-9999.00","Clear","clear","0","0","0","0","0","0","METAR UKKK 051330Z 30007MPS 270V330 CAVOK 25/07 Q1008 R26/CLRD70 TEMPO VRB10G16MPS 2100 -TSRAGR BKN015CB"
"5:00 PM EEST on June 05, 2016","2016","06","05","17","00","Europe/Kiev","2:00 PM GMT on June 05, 2016","2016","06","05","14","00","UTC","25.0","77.0","4.0","39.2","26","25.2","15.7","-9999.0","-9999.0","290","WNW","-9999.0","-9999.0","1008","29.77","-999","-999","-9999","-9999","-9999.00","-9999.00","Clear","clear","0","0","0","0","0","0","METAR UKKK 051400Z 29007MPS CAVOK 25/04 Q1008 R26/CLRD70 TEMPO VRB10G16MPS 2100 -TSRAGR BKN015CB"
"5:30 PM EEST on June 05, 2016","2016","06","05","17","30","Europe/Kiev","2:30 PM GMT on June 05, 2016","2016","06","05","14","30","UTC","25.0","77.0","4.0","39.2","26","25.2","15.7","-9999.0","-9999.0","300","WNW","-9999.0","-9999.0","1008","29.77","-999","-999","-9999","-9999","-9999.00","-9999.00","Clear","clear","0","0","0","0","0","0","METAR UKKK 051430Z 30007MPS CAVOK 25/04 Q1008 R26/CLRD70 NOSIG"
"6:00 PM EEST on June 05, 2016","2016","06","05","18","00","Europe/Kiev","3:00 PM GMT on June 05, 2016","2016","06","05","15","00","UTC","25","76","3","38","15","10.8","6.7","","","320","NW","20","12","1008","29.76","-999","-999","-9999","-9999","","","Scattered Clouds","partlycloudy","0","0","0","0","0","0","AAXX 05151 33345 42998 23203 10247 20031 39886 40077 57004 82030 555 10035"
"6:00 PM EEST on June 05, 2016","2016","06","05","18","00","Europe/Kiev","3:00 PM GMT on June 05, 2016","2016","06","05","15","00","UTC","25.0","77.0","7.0","44.6","32","18.0","11.2","-9999.0","-9999.0","320","NW","-9999.0","-9999.0","1008","29.77","-999","-999","-9999","-9999","-9999.00","-9999.00","Clear","clear","0","0","0","0","0","0","METAR UKKK 051500Z 32005MPS 300V360 CAVOK 25/07 Q1008 R26/CLRD70 NOSIG"
"6:30 PM EEST on June 05, 2016","2016","06","05","18","30","Europe/Kiev","3:30 PM GMT on June 05, 2016","2016","06","05","15","30","UTC","24.0","75.2","7.0","44.6","34","21.6","13.4","-9999.0","-9999.0","310","NW","-9999.0","-9999.0","1008","29.77","-999","-999","-9999","-9999","-9999.00","-9999.00","Clear","clear","0","0","0","0","0","0","METAR UKKK 051530Z 31006MPS 280V340 CAVOK 24/07 Q1008 R26/CLRD70 NOSIG"
"7:00 PM EEST on June 05, 2016","2016","06","05","19","00","Europe/Kiev","4:00 PM GMT on June 05, 2016","2016","06","05","16","00","UTC","24.0","75.2","7.0","44.6","34","21.6","13.4","-9999.0","-9999.0","310","NW","-9999.0","-9999.0","1008","29.77","-999","-999","-9999","-9999","-9999.00","-9999.00","Clear","clear","0","0","0","0","0","0","METAR UKKK 051600Z 31006MPS CAVOK 24/07 Q1008 R26/CLRD70 NOSIG"
"7:30 PM EEST on June 05, 2016","2016","06","05","19","30","Europe/Kiev","4:30 PM GMT on June 05, 2016","2016","06","05","16","30","UTC","23.0","73.4","7.0","44.6","36","18.0","11.2","-9999.0","-9999.0","300","WNW","-9999.0","-9999.0","1008","29.77","-999","-999","-9999","-9999","-9999.00","-9999.00","Clear","clear","0","0","0","0","0","0","METAR UKKK 051630Z 30005MPS CAVOK 23/07 Q1008 R26/CLRD70 NOSIG"
"8:00 PM EEST on June 05, 2016","2016","06","05","20","00","Europe/Kiev","5:00 PM GMT on June 05, 2016","2016","06","05","17","00","UTC","23.0","73.4","8.0","46.4","38","18.0","11.2","-9999.0","-9999.0","290","WNW","-9999.0","-9999.0","1008","29.77","-999","-999","-9999","-9999","-9999.00","-9999.00","Clear","clear","0","0","0","0","0","0","METAR UKKK 051700Z 29005MPS CAVOK 23/08 Q1008 R26/CLRD70 NOSIG"
"8:30 PM EEST on June 05, 2016","2016","06","05","20","30","Europe/Kiev","5:30 PM GMT on June 05, 2016","2016","06","05","17","30","UTC","22.0","71.6","8.0","46.4","41","14.4","8.9","-9999.0","-9999.0","300","WNW","-9999.0","-9999.0","1008","29.77","-999","-999","-9999","-9999","-9999.00","-9999.00","Clear","clear","0","0","0","0","0","0","METAR UKKK 051730Z 30004MPS CAVOK 22/08 Q1008 R26/CLRD70 NOSIG"
"9:00 PM EEST on June 05, 2016","2016","06","05","21","00","Europe/Kiev","6:00 PM GMT on June 05, 2016","2016","06","05","18","00","UTC","22","72","8","46","28","7.2","4.5","","","330","NNW","20","12","1008","29.78","-999","-999","-9999","-9999","","","Scattered Clouds","partlycloudy","0","0","0","0","0","0","AAXX 05181 33345 32598 23302 10222 20075 39890 40082 53004 82500 333 10258 555 10021"
"9:00 PM EEST on June 05, 2016","2016","06","05","21","00","Europe/Kiev","6:00 PM GMT on June 05, 2016","2016","06","05","18","00","UTC","21.0","69.8","8.0","46.4","43","10.8","6.7","-9999.0","-9999.0","340","NNW","-9999.0","-9999.0","1009","29.80","-999","-999","-9999","-9999","-9999.00","-9999.00","Clear","clear","0","0","0","0","0","0","METAR UKKK 051800Z 34003MPS CAVOK 21/08 Q1009 R26/CLRD70 NOSIG"
"9:30 PM EEST on June 05, 2016","2016","06","05","21","30","Europe/Kiev","6:30 PM GMT on June 05, 2016","2016","06","05","18","30","UTC","21.0","69.8","9.0","48.2","46","10.8","6.7","-9999.0","-9999.0","340","NNW","-9999.0","-9999.0","1009","29.80","-999","-999","-9999","-9999","-9999.00","-9999.00","Clear","clear","0","0","0","0","0","0","METAR UKKK 051830Z 34003MPS CAVOK 21/09 Q1009 R26/CLRD70 NOSIG"
"10:00 PM EEST on June 05, 2016","2016","06","05","22","00","Europe/Kiev","7:00 PM GMT on June 05, 2016","2016","06","05","19","00","UTC","20.0","68.0","9.0","48.2","49","10.8","6.7","-9999.0","-9999.0","330","NNW","-9999.0","-9999.0","1009","29.80","-999","-999","-9999","-9999","-9999.00","-9999.00","Clear","clear","0","0","0","0","0","0","METAR UKKK 051900Z 33003MPS CAVOK 20/09 Q1009 R26/CLRD70 NOSIG"
"10:30 PM EEST on June 05, 2016","2016","06","05","22","30","Europe/Kiev","7:30 PM GMT on June 05, 2016","2016","06","05","19","30","UTC","20.0","68.0","10.0","50.0","52","10.8","6.7","-9999.0","-9999.0","360","North","-9999.0","-9999.0","1009","29.80","-999","-999","-9999","-9999","-9999.00","-9999.00","Clear","clear","0","0","0","0","0","0","METAR UKKK 051930Z 36003MPS 330V040 CAVOK 20/10 Q1009 R26/CLRD70 NOSIG"
"11:00 PM EEST on June 05, 2016","2016","06","05","23","00","Europe/Kiev","8:00 PM GMT on June 05, 2016","2016","06","05","20","00","UTC","17.0","62.6","9.0","48.2","59","10.8","6.7","-9999.0","-9999.0","10","North","-9999.0","-9999.0","1009","29.80","-999","-999","-9999","-9999","-9999.00","-9999.00","Clear","clear","0","0","0","0","0","0","METAR UKKK 052000Z 01003MPS 330V050 CAVOK 17/09 Q1009 R26/CLRD70 NOSIG"
"11:30 PM EEST on June 05, 2016","2016","06","05","23","30","Europe/Kiev","8:30 PM GMT on June 05, 2016","2016","06","05","20","30","UTC","19.0","66.2","10.0","50.0","56","14.4","8.9","-9999.0","-9999.0","10","North","-9999.0","-9999.0","1009","29.80","-999","-999","-9999","-9999","-9999.00","-9999.00","Clear","clear","0","0","0","0","0","0","METAR UKKK 052030Z 01004MPS 330V030 CAVOK 19/10 Q1009 R26/CLRD70 NOSIG"
"12:00 AM EEST on June 06, 2016","2016","06","06","00","00","Europe/Kiev","9:00 PM GMT on June 05, 2016","2016","06","05","21","00","UTC","19","67","9","47","38","7.2","4.5","","","30","NNE","20","12","1010","29.82","-999","-999","-9999","-9999","","","","","0","0","0","0","0","0","AAXX 05211 33345 42998 00302 10193 20086 39902 40096 52012 555 10017"
"12:00 AM EEST on June 06, 2016","2016","06","06","00","00","Europe/Kiev","9:00 PM GMT on June 05, 2016","2016","06","05","21","00","UTC","18.0","64.4","9.0","48.2","56","18.0","11.2","-9999.0","-9999.0","30","NNE","-9999.0","-9999.0","1010","29.83","-999","-999","-9999","-9999","-9999.00","-9999.00","Clear","clear","0","0","0","0","0","0","METAR UKKK 052100Z 03005MPS CAVOK 18/09 Q1010 R26/CLRD70 NOSIG"
"12:30 AM EEST on June 06, 2016","2016","06","06","00","30","Europe/Kiev","9:30 PM GMT on June 05, 2016","2016","06","05","21","30","UTC","17.0","62.6","7.0","44.6","52","10.8","6.7","-9999.0","-9999.0","40","NE","-9999.0","-9999.0","1010","29.83","-999","-999","-9999","-9999","-9999.00","-9999.00","Clear","clear","0","0","0","0","0","0","METAR UKKK 052130Z 04003MPS CAVOK 17/07 Q1010 R08/CLRD70 NOSIG"
"1:00 AM EEST on June 06, 2016","2016","06","06","01","00","Europe/Kiev","10:00 PM GMT on June 05, 2016","2016","06","05","22","00","UTC","17.0","62.6","6.0","42.8","48","14.4","8.9","-9999.0","-9999.0","30","NNE","-9999.0","-9999.0","1010","29.83","-999","-999","-9999","-9999","-9999.00","-9999.00","Clear","clear","0","0","0","0","0","0","METAR UKKK 052200Z 03004MPS CAVOK 17/06 Q1010 R08/CLRD70 NOSIG"
"1:30 AM EEST on June 06, 2016","2016","06","06","01","30","Europe/Kiev","10:30 PM GMT on June 05, 2016","2016","06","05","22","30","UTC","17.0","62.6","5.0","41.0","45","18.0","11.2","-9999.0","-9999.0","40","NE","-9999.0","-9999.0","1009","29.80","-999","-999","-9999","-9999","-9999.00","-9999.00","Clear","clear","0","0","0","0","0","0","METAR UKKK 052230Z 04005MPS CAVOK 17/05 Q1009 R08/CLRD70 NOSIG"
"2:00 AM EEST on June 06, 2016","2016","06","06","02","00","Europe/Kiev","11:00 PM GMT on June 05, 2016","2016","06","05","23","00","UTC","16.0","60.8","5.0","41.0","48","18.0","11.2","-9999.0","-9999.0","30","NNE","-9999.0","-9999.0","1010","29.83","-999","-999","-9999","-9999","-9999.00","-9999.00","Clear","clear","0","0","0","0","0","0","METAR UKKK 052300Z 03005MPS CAVOK 16/05 Q1010 R08/CLRD70 NOSIG"
"2:30 AM EEST on June 06, 2016","2016","06","06","02","30","Europe/Kiev","11:30 PM GMT on June 05, 2016","2016","06","05","23","30","UTC","15.0","59.0","5.0","41.0","51","10.8","6.7","-9999.0","-9999.0","50","NE","-9999.0","-9999.0","1009","29.80","-999","-999","-9999","-9999","-9999.00","-9999.00","Clear","clear","0","0","0","0","0","0","METAR UKKK 052330Z 05003MPS CAVOK 15/05 Q1009 R08/CLRD70 NOSIG"
"3:00 AM EEST on June 06, 2016","2016","06","06","03","00","Europe/Kiev","12:00 AM GMT on June 06, 2016","2016","06","06","00","00","UTC","15","59","5","42","41","3.6","2.2","","","20","NNE","20","12","1010","29.81","-999","-999","-9999","-9999","","","Scattered Clouds","partlycloudy","0","0","0","0","0","0","AAXX 06001 33345 32998 20201 10152 20054 39898 40095 58004 82030 555 10013"
"3:00 AM EEST on June 06, 2016","2016","06","06","03","00","Europe/Kiev","12:00 AM GMT on June 06, 2016","2016","06","06","00","00","UTC","14.0","57.2","6.0","42.8","59","3.6","2.2","-9999.0","-9999.0","0","Variable","-9999.0","-9999.0","1009","29.80","-999","-999","-9999","-9999","-9999.00","-9999.00","Clear","clear","0","0","0","0","0","0","METAR UKKK 060000Z VRB01MPS CAVOK 14/06 Q1009 R08/CLRD70 NOSIG"
"3:30 AM EEST on June 06, 2016","2016","06","06","03","30","Europe/Kiev","12:30 AM GMT on June 06, 2016","2016","06","06","00","30","UTC","13.0","55.4","7.0","44.6","67","3.6","2.2","-9999.0","-9999.0","0","Variable","-9999.0","-9999.0","1009","29.80","-999","-999","-9999","-9999","-9999.00","-9999.00","Clear","clear","0","0","0","0","0","0","METAR UKKK 060030Z VRB01MPS CAVOK 13/07 Q1009 R08/CLRD70 NOSIG"
"4:00 AM EEST on June 06, 2016","2016","06","06","04","00","Europe/Kiev","1:00 AM GMT on June 06, 2016","2016","06","06","01","00","UTC","14.0","57.2","7.0","44.6","63","7.2","4.5","-9999.0","-9999.0","40","NE","-9999.0","-9999.0","1009","29.80","-999","-999","-9999","-9999","-9999.00","-9999.00","Clear","clear","0","0","0","0","0","0","METAR UKKK 060100Z 04002MPS CAVOK 14/07 Q1009 R08/CLRD70 NOSIG"
"4:30 AM EEST on June 06, 2016","2016","06","06","04","30","Europe/Kiev","1:30 AM GMT on June 06, 2016","2016","06","06","01","30","UTC","14.0","57.2","6.0","42.8","59","7.2","4.5","-9999.0","-9999.0","20","NNE","-9999.0","-9999.0","1009","29.80","-999","-999","-9999","-9999","-9999.00","-9999.00","Clear","clear","0","0","0","0","0","0","METAR UKKK 060130Z 02002MPS CAVOK 14/06 Q1009 R08/CLRD70 NOSIG"
"5:00 AM EEST on June 06, 2016","2016","06","06","05","00","Europe/Kiev","2:00 AM GMT on June 06, 2016","2016","06","06","02","00","UTC","12.0","53.6","7.0","44.6","72","0.0","0.0","-9999.0","-9999.0","0","North","-9999.0","-9999.0","1009","29.80","-999","-999","-9999","-9999","-9999.00","-9999.00","Clear","clear","0","0","0","0","0","0","METAR UKKK 060200Z 00000MPS CAVOK 12/07 Q1009 R08/CLRD70 NOSIG"
"5:30 AM EEST on June 06, 2016","2016","06","06","05","30","Europe/Kiev","2:30 AM GMT on June 06, 2016","2016","06","06","02","30","UTC","12.0","53.6","7.0","44.6","72","3.6","2.2","-9999.0","-9999.0","0","Variable","-9999.0","-9999.0","1010","29.83","-999","-999","-9999","-9999","-9999.00","-9999.00","Clear","clear","0","0","0","0","0","0","METAR UKKK 060230Z VRB01MPS CAVOK 12/07 Q1010 R08/CLRD70 NOSIG"
"6:00 AM EEST on June 06, 2016","2016","06","06","06","00","Europe/Kiev","3:00 AM GMT on June 06, 2016","2016","06","06","03","00","UTC","14","57","6","44","50","3.6","2.2","","","20","NNE","20","12","1010","29.83","-999","-999","-9999","-9999","","","Scattered Clouds","partlycloudy","0","0","0","0","0","0","AAXX 06031 33345 42998 20201 10140 20064 39901 40099 53003 82030 555 10013"
"6:00 AM EEST on June 06, 2016","2016","06","06","06","00","Europe/Kiev","3:00 AM GMT on June 06, 2016","2016","06","06","03","00","UTC","13.0","55.4","9.0","48.2","77","3.6","2.2","-9999.0","-9999.0","0","Variable","-9999.0","-9999.0","1010","29.83","-999","-999","-9999","-9999","-9999.00","-9999.00","Clear","clear","0","0","0","0","0","0","METAR UKKK 060300Z VRB01MPS CAVOK 13/09 Q1010 R08/CLRD70 NOSIG"
"6:30 AM EEST on June 06, 2016","2016","06","06","06","30","Europe/Kiev","3:30 AM GMT on June 06, 2016","2016","06","06","03","30","UTC","15.0","59.0","7.0","44.6","59","18.0","11.2","-9999.0","-9999.0","10","North","-9999.0","-9999.0","1010","29.83","-999","-999","-9999","-9999","-9999.00","-9999.00","Clear","clear","0","0","0","0","0","0","METAR UKKK 060330Z 01005MPS CAVOK 15/07 Q1010 R08/CLRD70 NOSIG"
"7:00 AM EEST on June 06, 2016","2016","06","06","07","00","Europe/Kiev","4:00 AM GMT on June 06, 2016","2016","06","06","04","00","UTC","14.0","57.2","7.0","44.6","63","25.2","15.7","-9999.0","-9999.0","20","NNE","-9999.0","-9999.0","1010","29.83","-999","-999","-9999","-9999","-9999.00","-9999.00","Clear","clear","0","0","0","0","0","0","METAR UKKK 060400Z 02007MPS CAVOK 14/07 Q1010 R08/CLRD70 NOSIG"
"7:30 AM EEST on June 06, 2016","2016","06","06","07","30","Europe/Kiev","4:30 AM GMT on June 06, 2016","2016","06","06","04","30","UTC","13.0","55.4","6.0","42.8","63","25.2","15.7","-9999.0","-9999.0","40","NE","-9999.0","-9999.0","1011","29.86","-999","-999","-9999","-9999","-9999.00","-9999.00","Clear","clear","0","0","0","0","0","0","METAR UKKK 060430Z 04007MPS CAVOK 13/06 Q1011 R08/CLRD70 NOSIG"
"8:00 AM EEST on June 06, 2016","2016","06","06","08","00","Europe/Kiev","5:00 AM GMT on June 06, 2016","2016","06","06","05","00","UTC","13.0","55.4","6.0","42.8","63","25.2","15.7","-9999.0","-9999.0","40","NE","-9999.0","-9999.0","1011","29.86","-999","-999","-9999","-9999","-9999.00","-9999.00","Clear","clear","0","0","0","0","0","0","METAR UKKK 060500Z 04007MPS CAVOK 13/06 Q1011 R08/CLRD70 NOSIG"
"8:30 AM EEST on June 06, 2016","2016","06","06","08","30","Europe/Kiev","5:30 AM GMT on June 06, 2016","2016","06","06","05","30","UTC","14.0","57.2","6.0","42.8","59","25.2","15.7","-9999.0","-9999.0","10","North","-9999.0","-9999.0","1012","29.89","-999","-999","-9999","-9999","-9999.00","-9999.00","Clear","clear","0","0","0","0","0","0","METAR UKKK 060530Z 01007MPS 340V050 CAVOK 14/06 Q1012 R08/CLRD70 NOSIG"
"9:00 AM EEST on June 06, 2016","2016","06","06","09","00","Europe/Kiev","6:00 AM GMT on June 06, 2016","2016","06","06","06","00","UTC","13","55","4","39","44","21.6","13.4","","","30","NNE","20","12","1012","29.90","-999","-999","-9999","-9999","","","Scattered Clouds","partlycloudy","0","0","0","0","0","0","AAXX 06061 33345 32998 20306 10130 20040 39924 40123 52023 82030 333 20127 555 10023"
"9:00 AM EEST on June 06, 2016","2016","06","06","09","00","Europe/Kiev","6:00 AM GMT on June 06, 2016","2016","06","06","06","00","UTC","14.0","57.2","6.0","42.8","59","25.2","15.7","-9999.0","-9999.0","20","NNE","-9999.0","-9999.0","1012","29.89","-999","-999","-9999","-9999","-9999.00","-9999.00","Clear","clear","0","0","0","0","0","0","METAR UKKK 060600Z 02007MPS 350V060 CAVOK 14/06 Q1012 R08/CLRD70 NOSIG"
"9:30 AM EEST on June 06, 2016","2016","06","06","09","30","Europe/Kiev","6:30 AM GMT on June 06, 2016","2016","06","06","06","30","UTC","13.0","55.4","5.0","41.0","58","28.8","17.9","-9999.0","-9999.0","20","NNE","-9999.0","-9999.0","1012","29.89","-999","-999","-9999","-9999","-9999.00","-9999.00","Clear","clear","0","0","0","0","0","0","METAR UKKK 060630Z 02008MPS 350V050 CAVOK 13/05 Q1012 R08/CLRD70 NOSIG"
"10:00 AM EEST on June 06, 2016","2016","06","06","10","00","Europe/Kiev","7:00 AM GMT on June 06, 2016","2016","06","06","07","00","UTC","12.0","53.6","6.0","42.8","67","21.6","13.4","-9999.0","-9999.0","20","NNE","10.0","6.2","1013","29.92","-999","-999","-9999","-9999","-9999.00","-9999.00","Light Rain Showers","rain","0","1","0","0","0","0","METAR UKKK 060700Z 02006MPS 9999 -SHRA SCT033CB BKN050 12/06 Q1013 R08/290158 NOSIG"
"10:30 AM EEST on June 06, 2016","2016","06","06","10","30","Europe/Kiev","7:30 AM GMT on June 06, 2016","2016","06","06","07","30","UTC","14.0","57.2","7.0","44.6","63","18.0","11.2","-9999.0","-9999.0","20","NNE","-9999.0","-9999.0","1013","29.92","-999","-999","-9999","-9999","-9999.00","-9999.00","Clear","clear","0","0","0","0","0","0","METAR UKKK 060730Z 02005MPS 360V060 CAVOK 14/07 Q1013 R08/290158 NOSIG"
"11:00 AM EEST on June 06, 2016","2016","06","06","11","00","Europe/Kiev","8:00 AM GMT on June 06, 2016","2016","06","06","08","00","UTC","13.0","55.4","7.0","44.6","67","18.0","11.2","-9999.0","-9999.0","350","North","-9999.0","-9999.0","1013","29.92","-999","-999","-9999","-9999","-9999.00","-9999.00","Clear","clear","0","0","0","0","0","0","METAR UKKK 060800Z 35005MPS 330V040 CAVOK 13/07 Q1013 R08/290158 NOSIG"
"11:30 AM EEST on June 06, 2016","2016","06","06","11","30","Europe/Kiev","8:30 AM GMT on June 06, 2016","2016","06","06","08","30","UTC","13.0","55.4","9.0","48.2","77","18.0","11.2","-9999.0","-9999.0","20","NNE","10.0","6.2","1014","29.95","-999","-999","-9999","-9999","-9999.00","-9999.00","Partly Cloudy","partlycloudy","0","0","0","0","0","0","METAR UKKK 060830Z 02005MPS 9999 FEW033CB 13/09 Q1014 R08/190060 NOSIG"
"12:00 PM EEST on June 06, 2016","2016","06","06","12","00","Europe/Kiev","9:00 AM GMT on June 06, 2016","2016","06","06","09","00","UTC","12","54","5","40","49","14.4","8.9","","","20","NNE","20","12","1014","29.95","-999","-999","-9999","-9999","","","Light Rain Showers","rain","0","1","0","0","0","0","AAXX 06091 33345 41498 70204 10123 20047 39942 40142 52018 72581 87900 333 87919 555 10022"
"12:00 PM EEST on June 06, 2016","2016","06","06","12","00","Europe/Kiev","9:00 AM GMT on June 06, 2016","2016","06","06","09","00","UTC","13.0","55.4","8.0","46.4","72","18.0","11.2","-9999.0","-9999.0","20","NNE","10.0","6.2","1014","29.95","-999","-999","-9999","-9999","-9999.00","-9999.00","Partly Cloudy","partlycloudy","0","0","0","0","0","0","METAR UKKK 060900Z 02005MPS 350V050 9999 FEW019 13/08 Q1014 R08/190060 NOSIG"
"12:30 PM EEST on June 06, 2016","2016","06","06","12","30","Europe/Kiev","9:30 AM GMT on June 06, 2016","2016","06","06","09","30","UTC","15.0","59.0","7.0","44.6","59","18.0","11.2","-9999.0","-9999.0","350","North","10.0","6.2","1014","29.95","-999","-999","-9999","-9999","-9999.00","-9999.00","Mostly Cloudy","mostlycloudy","0","0","0","0","0","0","METAR UKKK 060930Z 35005MPS 320V040 9999 BKN026 15/07 Q1014 R08/190060 NOSIG"
"1:00 PM EEST on June 06, 2016","2016","06","06","13","00","Europe/Kiev","10:00 AM GMT on June 06, 2016","2016","06","06","10","00","UTC","16.0","60.8","5.0","41.0","48","25.2","15.7","-9999.0","-9999.0","360","North","10.0","6.2","1014","29.95","-999","-999","-9999","-9999","-9999.00","-9999.00","Mostly Cloudy","mostlycloudy","0","0","0","0","0","0","METAR UKKK 061000Z 36007MPS 330V040 9999 BKN046 16/05 Q1014 R08/190060 NOSIG"
"1:30 PM EEST on June 06, 2016","2016","06","06","13","30","Europe/Kiev","10:30 AM GMT on June 06, 2016","2016","06","06","10","30","UTC","17.0","62.6","5.0","41.0","45","21.6","13.4","-9999.0","-9999.0","10","North","-9999.0","-9999.0","1014","29.95","-999","-999","-9999","-9999","-9999.00","-9999.00","Clear","clear","0","0","0","0","0","0","METAR UKKK 061030Z 01006MPS CAVOK 17/05 Q1014 R08/CLRD70 NOSIG"
"2:00 PM EEST on June 06, 2016","2016","06","06","14","00","Europe/Kiev","11:00 AM GMT on June 06, 2016","2016","06","06","11","00","UTC","16.0","60.8","4.0","39.2","45","18.0","11.2","-9999.0","-9999.0","10","North","-9999.0","-9999.0","1014","29.95","-999","-999","-9999","-9999","-9999.00","-9999.00","Clear","clear","0","0","0","0","0","0","METAR UKKK 061100Z 01005MPS 320V060 CAVOK 16/04 Q1014 R26/CLRD70 NOSIG"
"2:30 PM EEST on June 06, 2016","2016","06","06","14","30","Europe/Kiev","11:30 AM GMT on June 06, 2016","2016","06","06","11","30","UTC","16.0","60.8","3.0","37.4","42","18.0","11.2","-9999.0","-9999.0","30","NNE","-9999.0","-9999.0","1014","29.95","-999","-999","-9999","-9999","-9999.00","-9999.00","Clear","clear","0","0","0","0","0","0","METAR UKKK 061130Z 03005MPS 360V070 CAVOK 16/03 Q1014 R26/CLRD70 NOSIG"
"3:00 PM EEST on June 06, 2016","2016","06","06","15","00","Europe/Kiev","12:00 PM GMT on June 06, 2016","2016","06","06","12","00","UTC","17","63","3","37","26","18.0","11.2","","","0","North","20","12","1014","29.95","-999","-999","-9999","-9999","","","Partly Cloudy","partlycloudy","0","0","0","0","0","0","AAXX 06121 33345 /1598 53605 10170 20028 39943 40140 51001 70281 85800 555 10036 69901"
"3:00 PM EEST on June 06, 2016","2016","06","06","15","00","Europe/Kiev","12:00 PM GMT on June 06, 2016","2016","06","06","12","00","UTC","17.0","62.6","2.0","35.6","37","18.0","11.2","-9999.0","-9999.0","10","North","-9999.0","-9999.0","1014","29.95","-999","-999","-9999","-9999","-9999.00","-9999.00","Clear","clear","0","0","0","0","0","0","METAR UKKK 061200Z 01005MPS 330V050 CAVOK 17/02 Q1014 R26/CLRD70 NOSIG"
"3:30 PM EEST on June 06, 2016","2016","06","06","15","30","Europe/Kiev","12:30 PM GMT on June 06, 2016","2016","06","06","12","30","UTC","17.0","62.6","2.0","35.6","37","25.2","15.7","-9999.0","-9999.0","20","NNE","-9999.0","-9999.0","1014","29.95","-999","-999","-9999","-9999","-9999.00","-9999.00","Clear","clear","0","0","0","0","0","0","METAR UKKK 061230Z 02007MPS 340V050 CAVOK 17/02 Q1014 R08/CLRD70 NOSIG"
"4:00 PM EEST on June 06, 2016","2016","06","06","16","00","Europe/Kiev","1:00 PM GMT on June 06, 2016","2016","06","06","13","00","UTC","17.0","62.6","1.0","33.8","34","18.0","11.2","36.0","22.4","340","NNW","-9999.0","-9999.0","1014","29.95","-999","-999","-9999","-9999","-9999.00","-9999.00","Clear","clear","0","0","0","0","0","0","METAR UKKK 061300Z 34005G10MPS CAVOK 17/01 Q1014 R08/CLRD70 NOSIG"
"4:30 PM EEST on June 06, 2016","2016","06","06","16","30","Europe/Kiev","1:30 PM GMT on June 06, 2016","2016","06","06","13","30","UTC","17.0","62.6","1.0","33.8","34","25.2","15.7","43.2","26.8","350","North","-9999.0","-9999.0","1014","29.95","-999","-999","-9999","-9999","-9999.00","-9999.00","Clear","clear","0","0","0","0","0","0","METAR UKKK 061330Z 35007G12MPS CAVOK 17/01 Q1014 R08/CLRD70 NOSIG"
"5:00 PM EEST on June 06, 2016","2016","06","06","17","00","Europe/Kiev","2:00 PM GMT on June 06, 2016","2016","06","06","14","00","UTC","17.0","62.6","1.0","33.8","34","25.2","15.7","-9999.0","-9999.0","360","North","-9999.0","-9999.0","1014","29.95","-999","-999","-9999","-9999","-9999.00","-9999.00","Clear","clear","0","0","0","0","0","0","METAR UKKK 061400Z 36007MPS 330V030 CAVOK 17/01 Q1014 R26/CLRD70 NOSIG"
"5:30 PM EEST on June 06, 2016","2016","06","06","17","30","Europe/Kiev","2:30 PM GMT on June 06, 2016","2016","06","06","14","30","UTC","17.0","62.6","2.0","35.6","37","21.6","13.4","39.6","24.6","360","North","-9999.0","-9999.0","1014","29.95","-999","-999","-9999","-9999","-9999.00","-9999.00","Clear","clear","0","0","0","0","0","0","METAR UKKK 061430Z 36006G11MPS 320V040 CAVOK 17/02 Q1014 R26/CLRD70 NOSIG"
"6:00 PM EEST on June 06, 2016","2016","06","06","18","00","Europe/Kiev","3:00 PM GMT on June 06, 2016","2016","06","06","15","00","UTC","16","61","-0","32","21","21.6","13.4","","","350","North","20","12","1014","29.96","-999","-999","-9999","-9999","","","Partly Cloudy","partlycloudy","0","0","0","0","0","0","AAXX 06151 33345 42598 43506 10162 21002 39947 40145 52004 84400 555 10025"
"6:00 PM EEST on June 06, 2016","2016","06","06","18","00","Europe/Kiev","3:00 PM GMT on June 06, 2016","2016","06","06","15","00","UTC","17.0","62.6","2.0","35.6","37","21.6","13.4","-9999.0","-9999.0","360","North","-9999.0","-9999.0","1014","29.95","-999","-999","-9999","-9999","-9999.00","-9999.00","Clear","clear","0","0","0","0","0","0","METAR UKKK 061500Z 36006MPS 330V040 CAVOK 17/02 Q1014 R26/CLRD70 NOSIG"
"6:30 PM EEST on June 06, 2016","2016","06","06","18","30","Europe/Kiev","3:30 PM GMT on June 06, 2016","2016","06","06","15","30","UTC","16.0","60.8","1.0","33.8","36","21.6","13.4","-9999.0","-9999.0","360","North","-9999.0","-9999.0","1015","29.98","-999","-999","-9999","-9999","-9999.00","-9999.00","Clear","clear","0","0","0","0","0","0","METAR UKKK 061530Z 36006MPS 330V030 CAVOK 16/01 Q1015 R26/CLRD70 NOSIG"
"7:00 PM EEST on June 06, 2016","2016","06","06","19","00","Europe/Kiev","4:00 PM GMT on June 06, 2016","2016","06","06","16","00","UTC","16.0","60.8","1.0","33.8","36","21.6","13.4","-9999.0","-9999.0","10","North","-9999.0","-9999.0","1015","29.98","-999","-999","-9999","-9999","-9999.00","-9999.00","Clear","clear","0","0","0","0","0","0","METAR UKKK 061600Z 01006MPS 330V040 CAVOK 16/01 Q1015 R26/CLRD70 NOSIG"
"7:30 PM EEST on June 06, 2016","2016","06","06","19","30","Europe/Kiev","4:30 PM GMT on June 06, 2016","2016","06","06","16","30","UTC","15.0","59.0","1.0","33.8","39","18.0","11.2","-9999.0","-9999.0","340","NNW","-9999.0","-9999.0","1015","29.98","-999","-999","-9999","-9999","-9999.00","-9999.00","Clear","clear","0","0","0","0","0","0","METAR UKKK 061630Z 34005MPS 310V020 CAVOK 15/01 Q1015 R26/CLRD70 NOSIG"
"8:00 PM EEST on June 06, 2016","2016","06","06","20","00","Europe/Kiev","5:00 PM GMT on June 06, 2016","2016","06","06","17","00","UTC","14.0","57.2","0.0","32.0","38","18.0","11.2","-9999.0","-9999.0","350","North","-9999.0","-9999.0","1016","30.01","-999","-999","-9999","-9999","-9999.00","-9999.00","Clear","clear","0","0","0","0","0","0","METAR UKKK 061700Z 35005MPS CAVOK 14/M00 Q1016 R26/CLRD70 NOSIG"
"8:30 PM EEST on June 06, 2016","2016","06","06","20","30","Europe/Kiev","5:30 PM GMT on June 06, 2016","2016","06","06","17","30","UTC","14.0","57.2","0.0","32.0","38","14.4","8.9","-9999.0","-9999.0","340","NNW","-9999.0","-9999.0","1016","30.01","-999","-999","-9999","-9999","-9999.00","-9999.00","Clear","clear","0","0","0","0","0","0","METAR UKKK 061730Z 34004MPS CAVOK 14/00 Q1016 R26/CLRD70 NOSIG"
"9:00 PM EEST on June 06, 2016","2016","06","06","21","00","Europe/Kiev","6:00 PM GMT on June 06, 2016","2016","06","06","18","00","UTC","14","58","-0","32","25","10.8","6.7","","","350","North","20","12","1016","30.01","-999","-999","-9999","-9999","","","Partly Cloudy","partlycloudy","0","0","0","0","0","0","AAXX 06181 33345 12598 43503 10144 21001 39964 40163 52017 69902 84500 333 10171 555 10014"
"9:00 PM EEST on June 06, 2016","2016","06","06","21","00","Europe/Kiev","6:00 PM GMT on June 06, 2016","2016","06","06","18","00","UTC","14.0","57.2","0.0","32.0","38","18.0","11.2","-9999.0","-9999.0","340","NNW","-9999.0","-9999.0","1016","30.01","-999","-999","-9999","-9999","-9999.00","-9999.00","Clear","clear","0","0","0","0","0","0","METAR UKKK 061800Z 34005MPS CAVOK 14/00 Q1016 R26/CLRD70 NOSIG"
"9:30 PM EEST on June 06, 2016","2016","06","06","21","30","Europe/Kiev","6:30 PM GMT on June 06, 2016","2016","06","06","18","30","UTC","13.0","55.4","1.0","33.8","44","18.0","11.2","-9999.0","-9999.0","340","NNW","-9999.0","-9999.0","1016","30.01","-999","-999","-9999","-9999","-9999.00","-9999.00","Clear","clear","0","0","0","0","0","0","METAR UKKK 061830Z 34005MPS CAVOK 13/01 Q1016 R26/CLRD70 NOSIG"
"10:00 PM EEST on June 06, 2016","2016","06","06","22","00","Europe/Kiev","7:00 PM GMT on June 06, 2016","2016","06","06","19","00","UTC","13.0","55.4","1.0","33.8","44","18.0","11.2","-9999.0","-9999.0","330","NNW","-9999.0","-9999.0","1017","30.04","-999","-999","-9999","-9999","-9999.00","-9999.00","Clear","clear","0","0","0","0","0","0","METAR UKKK 061900Z 33005MPS CAVOK 13/01 Q1017 R26/CLRD70 NOSIG"
"10:30 PM EEST on June 06, 2016","2016","06","06","22","30","Europe/Kiev","7:30 PM GMT on June 06, 2016","2016","06","06","19","30","UTC","13.0","55.4","1.0","33.8","44","14.4","8.9","-9999.0","-9999.0","330","NNW","-9999.0","-9999.0","1017","30.04","-999","-999","-9999","-9999","-9999.00","-9999.00","Clear","clear","0","0","0","0","0","0","METAR UKKK 061930Z 33004MPS CAVOK 13/01 Q1017 R26/CLRD70 NOSIG"
"11:00 PM EEST on June 06, 2016","2016","06","06","23","00","Europe/Kiev","8:00 PM GMT on June 06, 2016","2016","06","06","20","00","UTC","12.0","53.6","2.0","35.6","51","14.4","8.9","-9999.0","-9999.0","340","NNW","-9999.0","-9999.0","1017","30.04","-999","-999","-9999","-9999","-9999.00","-9999.00","Clear","clear","0","0","0","0","0","0","METAR UKKK 062000Z 34004MPS 310V010 CAVOK 12/02 Q1017 R26/CLRD70 NOSIG"
"11:30 PM EEST on June 06, 2016","2016","06","06","23","30","Europe/Kiev","8:30 PM GMT on June 06, 2016","2016","06","06","20","30","UTC","12.0","53.6","2.0","35.6","51","14.4","8.9","-9999.0","-9999.0","350","North","-9999.0","-9999.0","1017","30.04","-999","-999","-9999","-9999","-9999.00","-9999.00","Clear","clear","0","0","0","0","0","0","METAR UKKK 062030Z 35004MPS CAVOK 12/02 Q1017 R26/CLRD70 NOSIG"
"12:00 AM EEST on June 07, 2016","2016","06","07","00","00","Europe/Kiev","9:00 PM GMT on June 06, 2016","2016","06","06","21","00","UTC","13","55","3","37","39","14.4","8.9","","","10","North","20","12","1018","30.06","-999","-999","-9999","-9999","","","Mostly Cloudy","mostlycloudy","0","0","0","0","0","0","AAXX 06211 33345 42998 70104 10127 20027 39976 40177 52012 87070 555 10012"
"12:00 AM EEST on June 07, 2016","2016","06","07","00","00","Europe/Kiev","9:00 PM GMT on June 06, 2016","2016","06","06","21","00","UTC","11.0","51.8","2.0","35.6","54","14.4","8.9","-9999.0","-9999.0","360","North","-9999.0","-9999.0","1017","30.04","-999","-999","-9999","-9999","-9999.00","-9999.00","Clear","clear","0","0","0","0","0","0","METAR UKKK 062100Z 36004MPS 330V030 CAVOK 11/02 Q1017 R26/CLRD70 NOSIG"
"12:30 AM EEST on June 07, 2016","2016","06","07","00","30","Europe/Kiev","9:30 PM GMT on June 06, 2016","2016","06","06","21","30","UTC","12.0","53.6","2.0","35.6","51","14.4","8.9","-9999.0","-9999.0","340","NNW","-9999.0","-9999.0","1018","30.06","-999","-999","-9999","-9999","-9999.00","-9999.00","Clear","clear","0","0","0","0","0","0","METAR UKKK 062130Z 34004MPS CAVOK 12/02 Q1018 R08/CLRD70 NOSIG"
"1:00 AM EEST on June 07, 2016","2016","06","07","01","00","Europe/Kiev","10:00 PM GMT on June 06, 2016","2016","06","06","22","00","UTC","11.0","51.8","3.0","37.4","58","7.2","4.5","-9999.0","-9999.0","340","NNW","-9999.0","-9999.0","1018","30.06","-999","-999","-9999","-9999","-9999.00","-9999.00","Clear","clear","0","0","0","0","0","0","METAR UKKK 062200Z 34002MPS 300V010 CAVOK 11/03 Q1018 R08/CLRD70 NOSIG"
"1:30 AM EEST on June 07, 2016","2016","06","07","01","30","Europe/Kiev","10:30 PM GMT on June 06, 2016","2016","06","06","22","30","UTC","10.0","50.0","3.0","37.4","62","7.2","4.5","-9999.0","-9999.0","320","NW","-9999.0","-9999.0","1018","30.06","-999","-999","-9999","-9999","-9999.00","-9999.00","Clear","clear","0","0","0","0","0","0","METAR UKKK 062230Z 32002MPS CAVOK 10/03 Q1018 R08/CLRD70 NOSIG"
"2:00 AM EEST on June 07, 2016","2016","06","07","02","00","Europe/Kiev","11:00 PM GMT on June 06, 2016","2016","06","06","23","00","UTC","10.0","50.0","3.0","37.4","62","10.8","6.7","-9999.0","-9999.0","320","NW","-9999.0","-9999.0","1018","30.06","-999","-999","-9999","-9999","-9999.00","-9999.00","Clear","clear","0","0","0","0","0","0","METAR UKKK 062300Z 32003MPS CAVOK 10/03 Q1018 R08/CLRD70 NOSIG"
"2:30 AM EEST on June 07, 2016","2016","06","07","02","30","Europe/Kiev","11:30 PM GMT on June 06, 2016","2016","06","06","23","30","UTC","9.0","48.2","3.0","37.4","66","7.2","4.5","-9999.0","-9999.0","340","NNW","-9999.0","-9999.0","1018","30.06","-999","-999","-9999","-9999","-9999.00","-9999.00","Clear","clear","0","0","0","0","0","0","METAR UKKK 062330Z 34002MPS CAVOK 09/03 Q1018 R08/CLRD70 NOSIG"
"3:00 AM EEST on June 07, 2016","2016","06","07","03","00","Europe/Kiev","12:00 AM GMT on June 07, 2016","2016","06","07","00","00","UTC","10","51","3","38","50","7.2","4.5","","","340","NNW","20","12","1018","30.08","-999","-999","-9999","-9999","","","","","0","0","0","0","0","0","AAXX 07001 33345 32998 03402 10104 20033 39982 40184 51006 555 10009"
"3:00 AM EEST on June 07, 2016","2016","06","07","03","00","Europe/Kiev","12:00 AM GMT on June 07, 2016","2016","06","07","00","00","UTC","9.0","48.2","3.0","37.4","66","10.8","6.7","-9999.0","-9999.0","350","North","-9999.0","-9999.0","1018","30.06","-999","-999","-9999","-9999","-9999.00","-9999.00","Clear","clear","0","0","0","0","0","0","METAR UKKK 070000Z 35003MPS CAVOK 09/03 Q1018 R08/CLRD70 NOSIG"
"3:30 AM EEST on June 07, 2016","2016","06","07","03","30","Europe/Kiev","12:30 AM GMT on June 07, 2016","2016","06","07","00","30","UTC","9.0","48.2","3.0","37.4","66","10.8","6.7","-9999.0","-9999.0","330","NNW","-9999.0","-9999.0","1018","30.06","-999","-999","-9999","-9999","-9999.00","-9999.00","Clear","clear","0","0","0","0","0","0","METAR UKKK 070030Z 33003MPS CAVOK 09/03 Q1018 R08/CLRD70 NOSIG"
"4:00 AM EEST on June 07, 2016","2016","06","07","04","00","Europe/Kiev","1:00 AM GMT on June 07, 2016","2016","06","07","01","00","UTC","8.0","46.4","3.0","37.4","71","10.8","6.7","-9999.0","-9999.0","320","NW","-9999.0","-9999.0","1018","30.06","6.1","43.0","-9999","-9999","-9999.00","-9999.00","Clear","clear","0","0","0","0","0","0","METAR UKKK 070100Z 32003MPS CAVOK 08/03 Q1018 R26/CLRD70 NOSIG"
"4:30 AM EEST on June 07, 2016","2016","06","07","04","30","Europe/Kiev","1:30 AM GMT on June 07, 2016","2016","06","07","01","30","UTC","8.0","46.4","3.0","37.4","71","10.8","6.7","-9999.0","-9999.0","330","NNW","-9999.0","-9999.0","1018","30.06","6.1","43.0","-9999","-9999","-9999.00","-9999.00","Clear","clear","0","0","0","0","0","0","METAR UKKK 070130Z 33003MPS CAVOK 08/03 Q1018 R26/CLRD70 NOSIG"
"5:00 AM EEST on June 07, 2016","2016","06","07","05","00","Europe/Kiev","2:00 AM GMT on June 07, 2016","2016","06","07","02","00","UTC","7.0","44.6","3.0","37.4","76","10.8","6.7","-9999.0","-9999.0","320","NW","-9999.0","-9999.0","1018","30.06","4.9","40.8","-9999","-9999","-9999.00","-9999.00","Clear","clear","0","0","0","0","0","0","METAR UKKK 070200Z 32003MPS CAVOK 07/03 Q1018 R26/CLRD70 NOSIG"
"5:30 AM EEST on June 07, 2016","2016","06","07","05","30","Europe/Kiev","2:30 AM GMT on June 07, 2016","2016","06","07","02","30","UTC","7.0","44.6","3.0","37.4","76","10.8","6.7","-9999.0","-9999.0","320","NW","-9999.0","-9999.0","1019","30.09","4.9","40.8","-9999","-9999","-9999.00","-9999.00","Clear","clear","0","0","0","0","0","0","METAR UKKK 070230Z 32003MPS CAVOK 07/03 Q1019 R26/CLRD70 NOSIG"
"6:00 AM EEST on June 07, 2016","2016","06","07","06","00","Europe/Kiev","3:00 AM GMT on June 07, 2016","2016","06","07","03","00","UTC","9","47","4","39","66","7.2","4.5","","","310","NW","20","12","1019","30.10","-999","-999","-9999","-9999","","","","","0","0","0","0","0","0","AAXX 07031 33345 42998 03102 10086 20040 39988 40192 52006 555 10008"
"6:00 AM EEST on June 07, 2016","2016","06","07","06","00","Europe/Kiev","3:00 AM GMT on June 07, 2016","2016","06","07","03","00","UTC","8.0","46.4","3.0","37.4","71","10.8","6.7","-9999.0","-9999.0","330","NNW","-9999.0","-9999.0","1019","30.09","6.1","43.0","-9999","-9999","-9999.00","-9999.00","Clear","clear","0","0","0","0","0","0","METAR UKKK 070300Z 33003MPS CAVOK 08/03 Q1019 R26/CLRD70 NOSIG"
"6:30 AM EEST on June 07, 2016","2016","06","07","06","30","Europe/Kiev","3:30 AM GMT on June 07, 2016","2016","06","07","03","30","UTC","9.0","48.2","3.0","37.4","66","10.8","6.7","-9999.0","-9999.0","320","NW","-9999.0","-9999.0","1019","30.09","-999","-999","-9999","-9999","-9999.00","-9999.00","Clear","clear","0","0","0","0","0","0","METAR UKKK 070330Z 32003MPS CAVOK 09/03 Q1019 R26/CLRD70 NOSIG"
"7:00 AM EEST on June 07, 2016","2016","06","07","07","00","Europe/Kiev","4:00 AM GMT on June 07, 2016","2016","06","07","04","00","UTC","10.0","50.0","4.0","39.2","66","10.8","6.7","-9999.0","-9999.0","10","North","-9999.0","-9999.0","1019","30.09","-999","-999","-9999","-9999","-9999.00","-9999.00","Clear","clear","0","0","0","0","0","0","METAR UKKK 070400Z 01003MPS 330V040 CAVOK 10/04 Q1019 R26/CLRD70 NOSIG"
"7:30 AM EEST on June 07, 2016","2016","06","07","07","30","Europe/Kiev","4:30 AM GMT on June 07, 2016","2016","06","07","04","30","UTC","11.0","51.8","6.0","42.8","71","10.8","6.7","-9999.0","-9999.0","360","North","-9999.0","-9999.0","1019","30.09","-999","-999","-9999","-9999","-9999.00","-9999.00","Clear","clear","0","0","0","0","0","0","METAR UKKK 070430Z 36003MPS 320V030 CAVOK 11/06 Q1019 R26/CLRD70 NOSIG"
"8:00 AM EEST on June 07, 2016","2016","06","07","08","00","Europe/Kiev","5:00 AM GMT on June 07, 2016","2016","06","07","05","00","UTC","11.0","51.8","6.0","42.8","71","10.8","6.7","-9999.0","-9999.0","10","North","-9999.0","-9999.0","1019","30.09","-999","-999","-9999","-9999","-9999.00","-9999.00","Clear","clear","0","0","0","0","0","0","METAR UKKK 070500Z 01003MPS 320V050 CAVOK 11/06 Q1019 R26/CLRD70 NOSIG"
"8:30 AM EEST on June 07, 2016","2016","06","07","08","30","Europe/Kiev","5:30 AM GMT on June 07, 2016","2016","06","07","05","30","UTC","13.0","55.4","6.0","42.8","63","18.0","11.2","-9999.0","-9999.0","350","North","10.0","6.2","1019","30.09","-999","-999","-9999","-9999","-9999.00","-9999.00","Scattered Clouds","partlycloudy","0","0","0","0","0","0","METAR UKKK 070530Z 35005MPS 9999 SCT028 13/06 Q1019 R26/CLRD70 NOSIG"
"9:00 AM EEST on June 07, 2016","2016","06","07","09","00","Europe/Kiev","6:00 AM GMT on June 07, 2016","2016","06","07","06","00","UTC","12","54","5","41","52","14.4","8.9","","","20","NNE","20","12","1020","30.12","-999","-999","-9999","-9999","","","Scattered Clouds","partlycloudy","0","0","0","0","0","0","AAXX 07061 33345 32598 50204 10121 20052 39998 40199 52010 82980 333 20080 555 10022"
"9:00 AM EEST on June 07, 2016","2016","06","07","09","00","Europe/Kiev","6:00 AM GMT on June 07, 2016","2016","06","07","06","00","UTC","13.0","55.4","4.0","39.2","54","18.0","11.2","-9999.0","-9999.0","10","North","10.0","6.2","1020","30.12","-999","-999","-9999","-9999","-9999.00","-9999.00","Scattered Clouds","partlycloudy","0","0","0","0","0","0","METAR UKKK 070600Z 01005MPS 340V050 9999 SCT036 13/04 Q1020 R26/CLRD70 NOSIG"
"9:30 AM EEST on June 07, 2016","2016","06","07","09","30","Europe/Kiev","6:30 AM GMT on June 07, 2016","2016","06","07","06","30","UTC","13.0","55.4","5.0","41.0","58","18.0","11.2","-9999.0","-9999.0","360","North","10.0","6.2","1020","30.12","-999","-999","-9999","-9999","-9999.00","-9999.00","Scattered Clouds","partlycloudy","0","0","0","0","0","0","METAR UKKK 070630Z 36005MPS 310V030 9999 SCT040 13/05 Q1020 R26/CLRD70 NOSIG"
"10:00 AM EEST on June 07, 2016","2016","06","07","10","00","Europe/Kiev","7:00 AM GMT on June 07, 2016","2016","06","07","07","00","UTC","12.0","53.6","3.0","37.4","54","18.0","11.2","-9999.0","-9999.0","350","North","10.0","6.2","1020","30.12","-999","-999","-9999","-9999","-9999.00","-9999.00","Mostly Cloudy","mostlycloudy","0","0","0","0","0","0","METAR UKKK 070700Z 35005MPS 300V050 9999 BKN042 12/03 Q1020 R26/CLRD70 NOSIG"
"10:30 AM EEST on June 07, 2016","2016","06","07","10","30","Europe/Kiev","7:30 AM GMT on June 07, 2016","2016","06","07","07","30","UTC","13.0","55.4","3.0","37.4","51","21.6","13.4","-9999.0","-9999.0","320","NW","10.0","6.2","1020","30.12","-999","-999","-9999","-9999","-9999.00","-9999.00","Mostly Cloudy","mostlycloudy","0","0","0","0","0","0","METAR UKKK 070730Z 32006MPS 9999 BKN048 13/03 Q1020 R26/CLRD70 NOSIG"
"11:00 AM EEST on June 07, 2016","2016","06","07","11","00","Europe/Kiev","8:00 AM GMT on June 07, 2016","2016","06","07","08","00","UTC","13.0","55.4","4.0","39.2","54","21.6","13.4","-9999.0","-9999.0","350","North","9.0","5.6","1020","30.12","-999","-999","-9999","-9999","-9999.00","-9999.00","Scattered Clouds","partlycloudy","0","0","0","0","0","0","METAR UKKK 070800Z 35006MPS 310V020 9000 SCT047 13/04 Q1020 R26/CLRD70 NOSIG"
"11:30 AM EEST on June 07, 2016","2016","06","07","11","30","Europe/Kiev","8:30 AM GMT on June 07, 2016","2016","06","07","08","30","UTC","13.0","55.4","3.0","37.4","51","14.4","8.9","-9999.0","-9999.0","360","North","10.0","6.2","1020","30.12","-999","-999","-9999","-9999","-9999.00","-9999.00","Scattered Clouds","partlycloudy","0","0","0","0","0","0","METAR UKKK 070830Z 36004MPS 300V040 9999 SCT046 13/03 Q1020 R26/CLRD70 NOSIG"
"12:00 PM EEST on June 07, 2016","2016","06","07","12","00","Europe/Kiev","9:00 AM GMT on June 07, 2016","2016","06","07","09","00","UTC","13","55","3","37","39","14.4","8.9","","","10","North","20","12","1020","30.14","-999","-999","-9999","-9999","","","Mostly Cloudy","mostlycloudy","0","0","0","0","0","0","AAXX 07091 33345 42598 70104 10130 20028 30003 40204 52005 85932 555 10022"
"12:00 PM EEST on June 07, 2016","2016","06","07","12","00","Europe/Kiev","9:00 AM GMT on June 07, 2016","2016","06","07","09","00","UTC","12.0","53.6","5.0","41.0","62","18.0","11.2","-9999.0","-9999.0","320","NW","10.0","6.2","1020","30.12","-999","-999","-9999","-9999","-9999.00","-9999.00","Mostly Cloudy","mostlycloudy","0","0","0","0","0","0","METAR UKKK 070900Z 32005MPS 9999 BKN047 12/05 Q1020 R26/190060 NOSIG"
"12:30 PM EEST on June 07, 2016","2016","06","07","12","30","Europe/Kiev","9:30 AM GMT on June 07, 2016","2016","06","07","09","30","UTC","13.0","55.4","3.0","37.4","51","14.4","8.9","-9999.0","-9999.0","360","North","10.0","6.2","1020","30.12","-999","-999","-9999","-9999","-9999.00","-9999.00","Mostly Cloudy","mostlycloudy","0","0","0","0","0","0","METAR UKKK 070930Z 36004MPS 310V040 9999 BKN047 13/03 Q1020 R26/190060 NOSIG"
"1:00 PM EEST on June 07, 2016","2016","06","07","13","00","Europe/Kiev","10:00 AM GMT on June 07, 2016","2016","06","07","10","00","UTC","14.0","57.2","3.0","37.4","48","14.4","8.9","-9999.0","-9999.0","350","North","10.0","6.2","1020","30.12","-999","-999","-9999","-9999","-9999.00","-9999.00","Mostly Cloudy","mostlycloudy","0","0","0","0","0","0","METAR UKKK 071000Z 35004MPS 290V050 9999 BKN047 14/03 Q1020 R26/190060 NOSIG"
"1:30 PM EEST on June 07, 2016","2016","06","07","13","30","Europe/Kiev","10:30 AM GMT on June 07, 2016","2016","06","07","10","30","UTC","14.0","57.2","3.0","37.4","48","18.0","11.2","-9999.0","-9999.0","360","North","10.0","6.2","1020","30.12","-999","-999","-9999","-9999","-9999.00","-9999.00","Mostly Cloudy","mostlycloudy","0","0","0","0","0","0","METAR UKKK 071030Z 36005MPS 330V040 9999 BKN047 14/03 Q1020 R26/190060 NOSIG"
"2:00 PM EEST on June 07, 2016","2016","06","07","14","00","Europe/Kiev","11:00 AM GMT on June 07, 2016","2016","06","07","11","00","UTC","13.0","55.4","3.0","37.4","51","18.0","11.2","-9999.0","-9999.0","320","NW","-9999.0","-9999.0","1020","30.12","-999","-999","-9999","-9999","-9999.00","-9999.00","Clear","clear","0","0","0","0","0","0","METAR UKKK 071100Z 32005MPS 290V010 CAVOK 13/03 Q1020 R26/190060 NOSIG"
"2:30 PM EEST on June 07, 2016","2016","06","07","14","30","Europe/Kiev","11:30 AM GMT on June 07, 2016","2016","06","07","11","30","UTC","14.0","57.2","3.0","37.4","48","18.0","11.2","-9999.0","-9999.0","340","NNW","-9999.0","-9999.0","1020","30.12","-999","-999","-9999","-9999","-9999.00","-9999.00","Clear","clear","0","0","0","0","0","0","METAR UKKK 071130Z 34005MPS 300V020 CAVOK 14/03 Q1020 R26/190060 NOSIG"
"3:00 PM EEST on June 07, 2016","2016","06","07","15","00","Europe/Kiev","12:00 PM GMT on June 07, 2016","2016","06","07","12","00","UTC","14","58","1","33","27","14.4","8.9","","","0","North","20","12","1020","30.14","-999","-999","-9999","-9999","","","Partly Cloudy","partlycloudy","0","0","0","0","0","0","AAXX 07121 33345 /1598 73604 10143 20007 30005 40205 51002 70282 84932 555 10026 69901"
"3:00 PM EEST on June 07, 2016","2016","06","07","15","00","Europe/Kiev","12:00 PM GMT on June 07, 2016","2016","06","07","12","00","UTC","14.0","57.2","2.0","35.6","44","21.6","13.4","-9999.0","-9999.0","350","North","-9999.0","-9999.0","1020","30.12","-999","-999","-9999","-9999","-9999.00","-9999.00","Clear","clear","0","0","0","0","0","0","METAR UKKK 071200Z 35006MPS CAVOK 14/02 Q1020 R26/CLRD70 NOSIG"
"3:30 PM EEST on June 07, 2016","2016","06","07","15","30","Europe/Kiev","12:30 PM GMT on June 07, 2016","2016","06","07","12","30","UTC","14.0","57.2","3.0","37.4","48","21.6","13.4","-9999.0","-9999.0","20","NNE","-9999.0","-9999.0","1020","30.12","-999","-999","-9999","-9999","-9999.00","-9999.00","Clear","clear","0","0","0","0","0","0","METAR UKKK 071230Z 02006MPS 340V040 CAVOK 14/03 Q1020 R08/CLRD70 NOSIG"
"4:00 PM EEST on June 07, 2016","2016","06","07","16","00","Europe/Kiev","1:00 PM GMT on June 07, 2016","2016","06","07","13","00","UTC","15.0","59.0","2.0","35.6","42","18.0","11.2","-9999.0","-9999.0","350","North","-9999.0","-9999.0","1020","30.12","-999","-999","-9999","-9999","-9999.00","-9999.00","Clear","clear","0","0","0","0","0","0","METAR UKKK 071300Z 35005MPS CAVOK 15/02 Q1020 R08/CLRD70 NOSIG"
"4:30 PM EEST on June 07, 2016","2016","06","07","16","30","Europe/Kiev","1:30 PM GMT on June 07, 2016","2016","06","07","13","30","UTC","14.0","57.2","1.0","33.8","41","14.4","8.9","-9999.0","-9999.0","320","NW","-9999.0","-9999.0","1020","30.12","-999","-999","-9999","-9999","-9999.00","-9999.00","Clear","clear","0","0","0","0","0","0","METAR UKKK 071330Z 32004MPS 290V360 CAVOK 14/01 Q1020 R08/CLRD70 NOSIG"
"5:00 PM EEST on June 07, 2016","2016","06","07","17","00","Europe/Kiev","2:00 PM GMT on June 07, 2016","2016","06","07","14","00","UTC","14.0","57.2","1.0","33.8","41","18.0","11.2","-9999.0","-9999.0","360","North","-9999.0","-9999.0","1020","30.12","-999","-999","-9999","-9999","-9999.00","-9999.00","Clear","clear","0","0","0","0","0","0","METAR UKKK 071400Z 36005MPS 320V030 CAVOK 14/01 Q1020 R08/CLRD70 NOSIG"
"5:30 PM EEST on June 07, 2016","2016","06","07","17","30","Europe/Kiev","2:30 PM GMT on June 07, 2016","2016","06","07","14","30","UTC","15.0","59.0","1.0","33.8","39","18.0","11.2","-9999.0","-9999.0","340","NNW","-9999.0","-9999.0","1020","30.12","-999","-999","-9999","-9999","-9999.00","-9999.00","Clear","clear","0","0","0","0","0","0","METAR UKKK 071430Z 34005MPS CAVOK 15/01 Q1020 R26/CLRD70 NOSIG"
"6:00 PM EEST on June 07, 2016","2016","06","07","18","00","Europe/Kiev","3:00 PM GMT on June 07, 2016","2016","06","07","15","00","UTC","15","59","-0","32","24","10.8","6.7","","","340","NNW","20","12","1020","30.13","-999","-999","-9999","-9999","","","Mostly Cloudy","mostlycloudy","0","0","0","0","0","0","AAXX 07151 33345 42598 73403 10150 21002 30002 40202 58003 85832 555 10025"
"6:00 PM EEST on June 07, 2016","2016","06","07","18","00","Europe/Kiev","3:00 PM GMT on June 07, 2016","2016","06","07","15","00","UTC","15.0","59.0","1.0","33.8","39","14.4","8.9","-9999.0","-9999.0","350","North","-9999.0","-9999.0","1020","30.12","-999","-999","-9999","-9999","-9999.00","-9999.00","Clear","clear","0","0","0","0","0","0","METAR UKKK 071500Z 35004MPS 320V020 CAVOK 15/01 Q1020 R26/CLRD70 NOSIG"
"6:30 PM EEST on June 07, 2016","2016","06","07","18","30","Europe/Kiev","3:30 PM GMT on June 07, 2016","2016","06","07","15","30","UTC","15.0","59.0","1.0","33.8","39","14.4","8.9","-9999.0","-9999.0","350","North","-9999.0","-9999.0","1020","30.12","-999","-999","-9999","-9999","-9999.00","-9999.00","Clear","clear","0","0","0","0","0","0","METAR UKKK 071530Z 35004MPS 320V020 CAVOK 15/01 Q1020 R26/CLRD70 NOSIG"
"7:00 PM EEST on June 07, 2016","2016","06","07","19","00","Europe/Kiev","4:00 PM GMT on June 07, 2016","2016","06","07","16","00","UTC","15.0","59.0","1.0","33.8","39","18.0","11.2","-9999.0","-9999.0","340","NNW","-9999.0","-9999.0","1020","30.12","-999","-999","-9999","-9999","-9999.00","-9999.00","Clear","clear","0","0","0","0","0","0","METAR UKKK 071600Z 34005MPS CAVOK 15/01 Q1020 R26/CLRD70 NOSIG"
"7:30 PM EEST on June 07, 2016","2016","06","07","19","30","Europe/Kiev","4:30 PM GMT on June 07, 2016","2016","06","07","16","30","UTC","15.0","59.0","0.0","32.0","36","10.8","6.7","-9999.0","-9999.0","360","North","-9999.0","-9999.0","1020","30.12","-999","-999","-9999","-9999","-9999.00","-9999.00","Clear","clear","0","0","0","0","0","0","METAR UKKK 071630Z 36003MPS 330V040 CAVOK 15/00 Q1020 R26/CLRD70 NOSIG"
"8:00 PM EEST on June 07, 2016","2016","06","07","20","00","Europe/Kiev","5:00 PM GMT on June 07, 2016","2016","06","07","17","00","UTC","14.0","57.2","1.0","33.8","41","14.4","8.9","-9999.0","-9999.0","330","NNW","-9999.0","-9999.0","1020","30.12","-999","-999","-9999","-9999","-9999.00","-9999.00","Clear","clear","0","0","0","0","0","0","METAR UKKK 071700Z 33004MPS 300V360 CAVOK 14/01 Q1020 R26/CLRD70 NOSIG"
"8:30 PM EEST on June 07, 2016","2016","06","07","20","30","Europe/Kiev","5:30 PM GMT on June 07, 2016","2016","06","07","17","30","UTC","13.0","55.4","1.0","33.8","44","10.8","6.7","-9999.0","-9999.0","340","NNW","-9999.0","-9999.0","1020","30.12","-999","-999","-9999","-9999","-9999.00","-9999.00","Clear","clear","0","0","0","0","0","0","METAR UKKK 071730Z 34003MPS CAVOK 13/01 Q1020 R26/CLRD70 NOSIG"
"9:00 PM EEST on June 07, 2016","2016","06","07","21","00","Europe/Kiev","6:00 PM GMT on June 07, 2016","2016","06","07","18","00","UTC","14","56","1","33","30","3.6","2.2","","","320","NW","20","12","1020","30.14","-999","-999","-9999","-9999","","","Mostly Cloudy","mostlycloudy","0","0","0","0","0","0","AAXX 07181 33345 12598 73201 10135 20008 30004 40205 53002 69902 86542 333 10161 555 10014"
"9:00 PM EEST on June 07, 2016","2016","06","07","21","00","Europe/Kiev","6:00 PM GMT on June 07, 2016","2016","06","07","18","00","UTC","13.0","55.4","1.0","33.8","44","7.2","4.5","-9999.0","-9999.0","330","NNW","-9999.0","-9999.0","1020","30.12","-999","-999","-9999","-9999","-9999.00","-9999.00","Clear","clear","0","0","0","0","0","0","METAR UKKK 071800Z 33002MPS CAVOK 13/01 Q1020 R26/CLRD70 NOSIG"
"9:30 PM EEST on June 07, 2016","2016","06","07","21","30","Europe/Kiev","6:30 PM GMT on June 07, 2016","2016","06","07","18","30","UTC","13.0","55.4","1.0","33.8","44","7.2","4.5","-9999.0","-9999.0","330","NNW","-9999.0","-9999.0","1020","30.12","-999","-999","-9999","-9999","-9999.00","-9999.00","Clear","clear","0","0","0","0","0","0","METAR UKKK 071830Z 33002MPS CAVOK 13/01 Q1020 R26/CLRD70 NOSIG"
"10:00 PM EEST on June 07, 2016","2016","06","07","22","00","Europe/Kiev","7:00 PM GMT on June 07, 2016","2016","06","07","19","00","UTC","12.0","53.6","4.0","39.2","58","7.2","4.5","-9999.0","-9999.0","310","NW","-9999.0","-9999.0","1020","30.12","-999","-999","-9999","-9999","-9999.00","-9999.00","Clear","clear","0","0","0","0","0","0","METAR UKKK 071900Z 31002MPS CAVOK 12/04 Q1020 R26/CLRD70 NOSIG"
"10:30 PM EEST on June 07, 2016","2016","06","07","22","30","Europe/Kiev","7:30 PM GMT on June 07, 2016","2016","06","07","19","30","UTC","11.0","51.8","4.0","39.2","62","3.6","2.2","-9999.0","-9999.0","300","WNW","-9999.0","-9999.0","1020","30.12","-999","-999","-9999","-9999","-9999.00","-9999.00","Clear","clear","0","0","0","0","0","0","METAR UKKK 071930Z 30001MPS CAVOK 11/04 Q1020 R26/CLRD70 NOSIG"
"11:00 PM EEST on June 07, 2016","2016","06","07","23","00","Europe/Kiev","8:00 PM GMT on June 07, 2016","2016","06","07","20","00","UTC","11.0","51.8","4.0","39.2","62","7.2","4.5","-9999.0","-9999.0","270","West","-9999.0","-9999.0","1020","30.12","-999","-999","-9999","-9999","-9999.00","-9999.00","Clear","clear","0","0","0","0","0","0","METAR UKKK 072000Z 27002MPS CAVOK 11/04 Q1020 R26/CLRD70 NOSIG"
"11:30 PM EEST on June 07, 2016","2016","06","07","23","30","Europe/Kiev","8:30 PM GMT on June 07, 2016","2016","06","07","20","30","UTC","11.0","51.8","4.0","39.2","62","7.2","4.5","-9999.0","-9999.0","240","WSW","-9999.0","-9999.0","1020","30.12","-999","-999","-9999","-9999","-9999.00","-9999.00","Clear","clear","0","0","0","0","0","0","METAR UKKK 072030Z 24002MPS CAVOK 11/04 Q1020 R26/CLRD70 NOSIG"
"12:00 AM EEST on June 08, 2016","2016","06","08","00","00","Europe/Kiev","9:00 PM GMT on June 07, 2016","2016","06","07","21","00","UTC","12","54","2","35","37","3.6","2.2","","","300","WNW","20","12","1021","30.15","-999","-999","-9999","-9999","","","Mostly Cloudy","mostlycloudy","0","0","0","0","0","0","AAXX 07211 33345 42598 73001 10123 20018 30006 40208 52002 85570 555 10012"
"12:00 AM EEST on June 08, 2016","2016","06","08","00","00","Europe/Kiev","9:00 PM GMT on June 07, 2016","2016","06","07","21","00","UTC","11.0","51.8","5.0","41.0","67","7.2","4.5","-9999.0","-9999.0","250","WSW","-9999.0","-9999.0","1020","30.12","-999","-999","-9999","-9999","-9999.00","-9999.00","Clear","clear","0","0","0","0","0","0","METAR UKKK 072100Z 25002MPS CAVOK 11/05 Q1020 R26/CLRD70 NOSIG"
"12:30 AM EEST on June 08, 2016","2016","06","08","00","30","Europe/Kiev","9:30 PM GMT on June 07, 2016","2016","06","07","21","30","UTC","11.0","51.8","5.0","41.0","67","7.2","4.5","-9999.0","-9999.0","250","WSW","-9999.0","-9999.0","1020","30.12","-999","-999","-9999","-9999","-9999.00","-9999.00","Clear","clear","0","0","0","0","0","0","METAR UKKK 072130Z 25002MPS CAVOK 11/05 Q1020 R26/CLRD70 NOSIG"
"1:00 AM EEST on June 08, 2016","2016","06","08","01","00","Europe/Kiev","10:00 PM GMT on June 07, 2016","2016","06","07","22","00","UTC","11.0","51.8","5.0","41.0","67","7.2","4.5","-9999.0","-9999.0","250","WSW","-9999.0","-9999.0","1020","30.12","-999","-999","-9999","-9999","-9999.00","-9999.00","Clear","clear","0","0","0","0","0","0","METAR UKKK 072200Z 25002MPS CAVOK 11/05 Q1020 R26/CLRD70 NOSIG"
"1:30 AM EEST on June 08, 2016","2016","06","08","01","30","Europe/Kiev","10:30 PM GMT on June 07, 2016","2016","06","07","22","30","UTC","10.0","50.0","5.0","41.0","71","7.2","4.5","-9999.0","-9999.0","250","WSW","-9999.0","-9999.0","1020","30.12","-999","-999","-9999","-9999","-9999.00","-9999.00","Clear","clear","0","0","0","0","0","0","METAR UKKK 072230Z 25002MPS CAVOK 10/05 Q1020 R26/CLRD70 NOSIG"
"2:00 AM EEST on June 08, 2016","2016","06","08","02","00","Europe/Kiev","11:00 PM GMT on June 07, 2016","2016","06","07","23","00","UTC","11.0","51.8","5.0","41.0","67","7.2","4.5","-9999.0","-9999.0","250","WSW","-9999.0","-9999.0","1020","30.12","-999","-999","-9999","-9999","-9999.00","-9999.00","Clear","clear","0","0","0","0","0","0","METAR UKKK 072300Z 25002MPS CAVOK 11/05 Q1020 R26/CLRD70 NOSIG"
"2:30 AM EEST on June 08, 2016","2016","06","08","02","30","Europe/Kiev","11:30 PM GMT on June 07, 2016","2016","06","07","23","30","UTC","10.0","50.0","5.0","41.0","71","7.2","4.5","-9999.0","-9999.0","250","WSW","-9999.0","-9999.0","1020","30.12","-999","-999","-9999","-9999","-9999.00","-9999.00","Clear","clear","0","0","0","0","0","0","METAR UKKK 072330Z 25002MPS CAVOK 10/05 Q1020 R26/CLRD70 NOSIG"
"3:00 AM EEST on June 08, 2016","2016","06","08","03","00","Europe/Kiev","12:00 AM GMT on June 08, 2016","2016","06","08","00","00","UTC","12","53","3","38","44","3.6","2.2","","","290","WNW","20","12","1020","30.13","-999","-999","-9999","-9999","","","Partly Cloudy","partlycloudy","0","0","0","0","0","0","AAXX 08001 33345 32598 62901 10115 20031 30001 40203 58005 83530 555 10011"
"3:00 AM EEST on June 08, 2016","2016","06","08","03","00","Europe/Kiev","12:00 AM GMT on June 08, 2016","2016","06","08","00","00","UTC","10.0","50.0","5.0","41.0","71","7.2","4.5","-9999.0","-9999.0","240","WSW","-9999.0","-9999.0","1020","30.12","-999","-999","-9999","-9999","-9999.00","-9999.00","Clear","clear","0","0","0","0","0","0","METAR UKKK 080000Z 24002MPS CAVOK 10/05 Q1020 R26/CLRD70 NOSIG"
"3:30 AM EEST on June 08, 2016","2016","06","08","03","30","Europe/Kiev","12:30 AM GMT on June 08, 2016","2016","06","08","00","30","UTC","9.0","48.2","6.0","42.8","82","7.2","4.5","-9999.0","-9999.0","250","WSW","-9999.0","-9999.0","1020","30.12","-999","-999","-9999","-9999","-9999.00","-9999.00","Clear","clear","0","0","0","0","0","0","METAR UKKK 080030Z 25002MPS CAVOK 09/06 Q1020 R26/CLRD70 NOSIG"
"4:00 AM EEST on June 08, 2016","2016","06","08","04","00","Europe/Kiev","1:00 AM GMT on June 08, 2016","2016","06","08","01","00","UTC","8.0","46.4","6.0","42.8","87","7.2","4.5","-9999.0","-9999.0","240","WSW","-9999.0","-9999.0","1020","30.12","6.9","44.4","-9999","-9999","-9999.00","-9999.00","Clear","clear","0","0","0","0","0","0","METAR UKKK 080100Z 24002MPS CAVOK 08/06 Q1020 R26/CLRD70 NOSIG"
"4:30 AM EEST on June 08, 2016","2016","06","08","04","30","Europe/Kiev","1:30 AM GMT on June 08, 2016","2016","06","08","01","30","UTC","8.0","46.4","6.0","42.8","87","7.2","4.5","-9999.0","-9999.0","240","WSW","-9999.0","-9999.0","1020","30.12","6.9","44.4","-9999","-9999","-9999.00","-9999.00","Clear","clear","0","0","0","0","0","0","METAR UKKK 080130Z 24002MPS CAVOK 08/06 Q1020 R26/CLRD70 NOSIG"
"5:00 AM EEST on June 08, 2016","2016","06","08","05","00","Europe/Kiev","2:00 AM GMT on June 08, 2016","2016","06","08","02","00","UTC","9.0","48.2","6.0","42.8","82","7.2","4.5","-9999.0","-9999.0","250","WSW","-9999.0","-9999.0","1020","30.12","-999","-999","-9999","-9999","-9999.00","-9999.00","Clear","clear","0","0","0","0","0","0","METAR UKKK 080200Z 25002MPS CAVOK 09/06 Q1020 R26/CLRD70 NOSIG"
"5:30 AM EEST on June 08, 2016","2016","06","08","05","30","Europe/Kiev","2:30 AM GMT on June 08, 2016","2016","06","08","02","30","UTC","9.0","48.2","5.0","41.0","76","7.2","4.5","-9999.0","-9999.0","250","WSW","-9999.0","-9999.0","1019","30.09","-999","-999","-9999","-9999","-9999.00","-9999.00","Clear","clear","0","0","0","0","0","0","METAR UKKK 080230Z 25002MPS CAVOK 09/05 Q1019 R26/CLRD70 NOSIG"
"6:00 AM EEST on June 08, 2016","2016","06","08","06","00","Europe/Kiev","3:00 AM GMT on June 08, 2016","2016","06","08","03","00","UTC","11","51","4","39","54","7.2","4.5","","","290","WNW","20","12","1020","30.12","-999","-999","-9999","-9999","","","Mostly Cloudy","mostlycloudy","0","0","0","0","0","0","AAXX 08031 33345 42598 72902 10107 20040 39996 40198 57005 85530 555 10011"
"6:00 AM EEST on June 08, 2016","2016","06","08","06","00","Europe/Kiev","3:00 AM GMT on June 08, 2016","2016","06","08","03","00","UTC","10.0","50.0","6.0","42.8","76","10.8","6.7","-9999.0","-9999.0","260","West","-9999.0","-9999.0","1019","30.09","-999","-999","-9999","-9999","-9999.00","-9999.00","Clear","clear","0","0","0","0","0","0","METAR UKKK 080300Z 26003MPS CAVOK 10/06 Q1019 R26/CLRD70 NOSIG"
"6:30 AM EEST on June 08, 2016","2016","06","08","06","30","Europe/Kiev","3:30 AM GMT on June 08, 2016","2016","06","08","03","30","UTC","10.0","50.0","5.0","41.0","71","7.2","4.5","-9999.0","-9999.0","260","West","-9999.0","-9999.0","1019","30.09","-999","-999","-9999","-9999","-9999.00","-9999.00","Clear","clear","0","0","0","0","0","0","METAR UKKK 080330Z 26002MPS CAVOK 10/05 Q1019 R26/CLRD70 NOSIG"
"7:00 AM EEST on June 08, 2016","2016","06","08","07","00","Europe/Kiev","4:00 AM GMT on June 08, 2016","2016","06","08","04","00","UTC","11.0","51.8","5.0","41.0","67","7.2","4.5","-9999.0","-9999.0","310","NW","-9999.0","-9999.0","1020","30.12","-999","-999","-9999","-9999","-9999.00","-9999.00","Clear","clear","0","0","0","0","0","0","METAR UKKK 080400Z 31002MPS 280V360 CAVOK 11/05 Q1020 R26/CLRD70 NOSIG"
"7:30 AM EEST on June 08, 2016","2016","06","08","07","30","Europe/Kiev","4:30 AM GMT on June 08, 2016","2016","06","08","04","30","UTC","11.0","51.8","6.0","42.8","71","10.8","6.7","-9999.0","-9999.0","290","WNW","9.0","5.6","1019","30.09","-999","-999","-9999","-9999","-9999.00","-9999.00","Unknown","unknown","0","0","0","0","0","0","METAR UKKK 080430Z 29003MPS 9000 NSC 11/06 Q1019 R26/CLRD70 NOSIG"
"8:00 AM EEST on June 08, 2016","2016","06","08","08","00","Europe/Kiev","5:00 AM GMT on June 08, 2016","2016","06","08","05","00","UTC","12.0","53.6","6.0","42.8","67","10.8","6.7","-9999.0","-9999.0","280","West","-9999.0","-9999.0","1019","30.09","-999","-999","-9999","-9999","-9999.00","-9999.00","Clear","clear","0","0","0","0","0","0","METAR UKKK 080500Z 28003MPS CAVOK 12/06 Q1019 R26/CLRD70 NOSIG"
"8:30 AM EEST on June 08, 2016","2016","06","08","08","30","Europe/Kiev","5:30 AM GMT on June 08, 2016","2016","06","08","05","30","UTC","13.0","55.4","5.0","41.0","58","10.8","6.7","-9999.0","-9999.0","290","WNW","-9999.0","-9999.0","1019","30.09","-999","-999","-9999","-9999","-9999.00","-9999.00","Clear","clear","0","0","0","0","0","0","METAR UKKK 080530Z 29003MPS 260V320 CAVOK 13/05 Q1019 R26/CLRD70 NOSIG"
"9:00 AM EEST on June 08, 2016","2016","06","08","09","00","Europe/Kiev","6:00 AM GMT on June 08, 2016","2016","06","08","06","00","UTC","14","57","5","42","45","7.2","4.5","","","330","NNW","20","12","1020","30.11","-999","-999","-9999","-9999","","","Mostly Cloudy","mostlycloudy","0","0","0","0","0","0","AAXX 08061 33345 32998 73302 10138 20053 39995 40195 56001 87050 333 20106 555 10021"
"9:00 AM EEST on June 08, 2016","2016","06","08","09","00","Europe/Kiev","6:00 AM GMT on June 08, 2016","2016","06","08","06","00","UTC","14.0","57.2","6.0","42.8","59","7.2","4.5","-9999.0","-9999.0","310","NW","-9999.0","-9999.0","1019","30.09","-999","-999","-9999","-9999","-9999.00","-9999.00","Clear","clear","0","0","0","0","0","0","METAR UKKK 080600Z 31002MPS 250V030 CAVOK 14/06 Q1019 R26/CLRD70 NOSIG"
"9:30 AM EEST on June 08, 2016","2016","06","08","09","30","Europe/Kiev","6:30 AM GMT on June 08, 2016","2016","06","08","06","30","UTC","15.0","59.0","6.0","42.8","55","10.8","6.7","-9999.0","-9999.0","350","North","-9999.0","-9999.0","1019","30.09","-999","-999","-9999","-9999","-9999.00","-9999.00","Clear","clear","0","0","0","0","0","0","METAR UKKK 080630Z 35003MPS CAVOK 15/06 Q1019 R26/CLRD70 NOSIG"
"10:00 AM EEST on June 08, 2016","2016","06","08","10","00","Europe/Kiev","7:00 AM GMT on June 08, 2016","2016","06","08","07","00","UTC","16.0","60.8","6.0","42.8","52","14.4","8.9","-9999.0","-9999.0","360","North","-9999.0","-9999.0","1019","30.09","-999","-999","-9999","-9999","-9999.00","-9999.00","Clear","clear","0","0","0","0","0","0","METAR UKKK 080700Z 36004MPS 320V080 CAVOK 16/06 Q1019 R26/CLRD70 NOSIG"
"10:30 AM EEST on June 08, 2016","2016","06","08","10","30","Europe/Kiev","7:30 AM GMT on June 08, 2016","2016","06","08","07","30","UTC","16.0","60.8","5.0","41.0","48","7.2","4.5","-9999.0","-9999.0","360","North","-9999.0","-9999.0","1019","30.09","-999","-999","-9999","-9999","-9999.00","-9999.00","Clear","clear","0","0","0","0","0","0","METAR UKKK 080730Z 36002MPS CAVOK 16/05 Q1019 R26/CLRD70 NOSIG"
"11:00 AM EEST on June 08, 2016","2016","06","08","11","00","Europe/Kiev","8:00 AM GMT on June 08, 2016","2016","06","08","08","00","UTC","17.0","62.6","5.0","41.0","45","10.8","6.7","-9999.0","-9999.0","10","North","-9999.0","-9999.0","1019","30.09","-999","-999","-9999","-9999","-9999.00","-9999.00","Clear","clear","0","0","0","0","0","0","METAR UKKK 080800Z 01003MPS 320V070 CAVOK 17/05 Q1019 R26/CLRD70 NOSIG"
"11:30 AM EEST on June 08, 2016","2016","06","08","11","30","Europe/Kiev","8:30 AM GMT on June 08, 2016","2016","06","08","08","30","UTC","16.0","60.8","4.0","39.2","45","7.2","4.5","-9999.0","-9999.0","40","NE","-9999.0","-9999.0","1018","30.06","-999","-999","-9999","-9999","-9999.00","-9999.00","Clear","clear","0","0","0","0","0","0","METAR UKKK 080830Z 04002MPS CAVOK 16/04 Q1018 R26/CLRD70 NOSIG"
"12:00 PM EEST on June 08, 2016","2016","06","08","12","00","Europe/Kiev","9:00 AM GMT on June 08, 2016","2016","06","08","09","00","UTC","17","62","4","39","31","7.2","4.5","","","20","NNE","20","12","1018","30.08","-999","-999","-9999","-9999","","","Partly Cloudy","partlycloudy","0","0","0","0","0","0","AAXX 08091 33345 42598 60202 10167 20038 39986 40184 57009 84501 555 10032"
"12:00 PM EEST on June 08, 2016","2016","06","08","12","00","Europe/Kiev","9:00 AM GMT on June 08, 2016","2016","06","08","09","00","UTC","16.0","60.8","3.0","37.4","42","7.2","4.5","-9999.0","-9999.0","310","NW","-9999.0","-9999.0","1018","30.06","-999","-999","-9999","-9999","-9999.00","-9999.00","Clear","clear","0","0","0","0","0","0","METAR UKKK 080900Z 31002MPS CAVOK 16/03 Q1018 R26/CLRD70 NOSIG"
"12:30 PM EEST on June 08, 2016","2016","06","08","12","30","Europe/Kiev","9:30 AM GMT on June 08, 2016","2016","06","08","09","30","UTC","17.0","62.6","4.0","39.2","42","7.2","4.5","-9999.0","-9999.0","330","NNW","-9999.0","-9999.0","1018","30.06","-999","-999","-9999","-9999","-9999.00","-9999.00","Clear","clear","0","0","0","0","0","0","METAR UKKK 080930Z 33002MPS CAVOK 17/04 Q1018 R26/CLRD70 NOSIG"
"1:00 PM EEST on June 08, 2016","2016","06","08","13","00","Europe/Kiev","10:00 AM GMT on June 08, 2016","2016","06","08","10","00","UTC","18.0","64.4","5.0","41.0","42","14.4","8.9","-9999.0","-9999.0","300","WNW","-9999.0","-9999.0","1018","30.06","-999","-999","-9999","-9999","-9999.00","-9999.00","Clear","clear","0","0","0","0","0","0","METAR UKKK 081000Z 30004MPS CAVOK 18/05 Q1018 R26/CLRD70 NOSIG"
"1:30 PM EEST on June 08, 2016","2016","06","08","13","30","Europe/Kiev","10:30 AM GMT on June 08, 2016","2016","06","08","10","30","UTC","17.0","62.6","4.0","39.2","42","14.4","8.9","-9999.0","-9999.0","340","NNW","-9999.0","-9999.0","1018","30.06","-999","-999","-9999","-9999","-9999.00","-9999.00","Clear","clear","0","0","0","0","0","0","METAR UKKK 081030Z 34004MPS 290V020 CAVOK 17/04 Q1018 R26/CLRD70 NOSIG"
"2:00 PM EEST on June 08, 2016","2016","06","08","14","00","Europe/Kiev","11:00 AM GMT on June 08, 2016","2016","06","08","11","00","UTC","18.0","64.4","4.0","39.2","40","7.2","4.5","25.2","15.7","360","North","-9999.0","-9999.0","1017","30.04","-999","-999","-9999","-9999","-9999.00","-9999.00","Clear","clear","0","0","0","0","0","0","METAR UKKK 081100Z 36002G07MPS CAVOK 18/04 Q1017 R26/CLRD70 NOSIG"
"2:30 PM EEST on June 08, 2016","2016","06","08","14","30","Europe/Kiev","11:30 AM GMT on June 08, 2016","2016","06","08","11","30","UTC","18.0","64.4","5.0","41.0","42","10.8","6.7","-9999.0","-9999.0","340","NNW","-9999.0","-9999.0","1017","30.04","-999","-999","-9999","-9999","-9999.00","-9999.00","Clear","clear","0","0","0","0","0","0","METAR UKKK 081130Z 34003MPS 270V020 CAVOK 18/05 Q1017 R26/CLRD70 NOSIG"
"3:00 PM EEST on June 08, 2016","2016","06","08","15","00","Europe/Kiev","12:00 PM GMT on June 08, 2016","2016","06","08","12","00","UTC","19","67","4","38","24","7.2","4.5","","","250","WSW","20","12","1017","30.04","-999","-999","-9999","-9999","","","Partly Cloudy","partlycloudy","0","0","0","0","0","0","AAXX 08121 33345 32598 42502 10192 20036 39974 40170 58012 84500 555 10032"
"3:00 PM EEST on June 08, 2016","2016","06","08","15","00","Europe/Kiev","12:00 PM GMT on June 08, 2016","2016","06","08","12","00","UTC","19.0","66.2","6.0","42.8","43","14.4","8.9","-9999.0","-9999.0","260","West","-9999.0","-9999.0","1017","30.04","-999","-999","-9999","-9999","-9999.00","-9999.00","Clear","clear","0","0","0","0","0","0","METAR UKKK 081200Z 26004MPS 200V300 CAVOK 19/06 Q1017 R26/CLRD70 NOSIG"
"3:30 PM EEST on June 08, 2016","2016","06","08","15","30","Europe/Kiev","12:30 PM GMT on June 08, 2016","2016","06","08","12","30","UTC","19.0","66.2","5.0","41.0","40","10.8","6.7","-9999.0","-9999.0","260","West","-9999.0","-9999.0","1017","30.04","-999","-999","-9999","-9999","-9999.00","-9999.00","Clear","clear","0","0","0","0","0","0","METAR UKKK 081230Z 26003MPS 230V290 CAVOK 19/05 Q1017 R26/CLRD70 NOSIG"
"4:00 PM EEST on June 08, 2016","2016","06","08","16","00","Europe/Kiev","1:00 PM GMT on June 08, 2016","2016","06","08","13","00","UTC","18.0","64.4","4.0","39.2","40","7.2","4.5","-9999.0","-9999.0","250","WSW","-9999.0","-9999.0","1016","30.01","-999","-999","-9999","-9999","-9999.00","-9999.00","Clear","clear","0","0","0","0","0","0","METAR UKKK 081300Z 25002MPS 170V320 CAVOK 18/04 Q1016 R26/CLRD70 NOSIG"
"4:30 PM EEST on June 08, 2016","2016","06","08","16","30","Europe/Kiev","1:30 PM GMT on June 08, 2016","2016","06","08","13","30","UTC","20.0","68.0","5.0","41.0","37","14.4","8.9","-9999.0","-9999.0","330","NNW","-9999.0","-9999.0","1016","30.01","-999","-999","-9999","-9999","-9999.00","-9999.00","Clear","clear","0","0","0","0","0","0","METAR UKKK 081330Z 33004MPS 290V010 CAVOK 20/05 Q1016 R26/CLRD70 NOSIG"
"5:00 PM EEST on June 08, 2016","2016","06","08","17","00","Europe/Kiev","2:00 PM GMT on June 08, 2016","2016","06","08","14","00","UTC","19.0","66.2","5.0","41.0","40","7.2","4.5","-9999.0","-9999.0","260","West","-9999.0","-9999.0","1016","30.01","-999","-999","-9999","-9999","-9999.00","-9999.00","Clear","clear","0","0","0","0","0","0","METAR UKKK 081400Z 26002MPS CAVOK 19/05 Q1016 R26/CLRD70 NOSIG"
"5:30 PM EEST on June 08, 2016","2016","06","08","17","30","Europe/Kiev","2:30 PM GMT on June 08, 2016","2016","06","08","14","30","UTC","20.0","68.0","6.0","42.8","40","14.4","8.9","-9999.0","-9999.0","260","West","-9999.0","-9999.0","1016","30.01","-999","-999","-9999","-9999","-9999.00","-9999.00","Clear","clear","0","0","0","0","0","0","METAR UKKK 081430Z 26004MPS 230V300 CAVOK 20/06 Q1016 R26/CLRD70 NOSIG"
"6:00 PM EEST on June 08, 2016","2016","06","08","18","00","Europe/Kiev","3:00 PM GMT on June 08, 2016","2016","06","08","15","00","UTC","19","66","3","37","23","3.6","2.2","","","30","NNE","20","12","1016","30.00","-999","-999","-9999","-9999","","","Partly Cloudy","partlycloudy","0","0","0","0","0","0","AAXX 08151 33345 42598 50301 10188 20029 39962 40158 57012 84530 555 10025"
"6:00 PM EEST on June 08, 2016","2016","06","08","18","00","Europe/Kiev","3:00 PM GMT on June 08, 2016","2016","06","08","15","00","UTC","20.0","68.0","5.0","41.0","37","10.8","6.7","28.8","17.9","310","NW","-9999.0","-9999.0","1016","30.01","-999","-999","-9999","-9999","-9999.00","-9999.00","Clear","clear","0","0","0","0","0","0","METAR UKKK 081500Z 31003G08MPS 260V360 CAVOK 20/05 Q1016 R26/CLRD70 NOSIG"
"6:30 PM EEST on June 08, 2016","2016","06","08","18","30","Europe/Kiev","3:30 PM GMT on June 08, 2016","2016","06","08","15","30","UTC","19.0","66.2","4.0","39.2","37","14.4","8.9","-9999.0","-9999.0","290","WNW","-9999.0","-9999.0","1016","30.01","-999","-999","-9999","-9999","-9999.00","-9999.00","Clear","clear","0","0","0","0","0","0","METAR UKKK 081530Z 29004MPS CAVOK 19/04 Q1016 R26/CLRD70 NOSIG"
"7:00 PM EEST on June 08, 2016","2016","06","08","19","00","Europe/Kiev","4:00 PM GMT on June 08, 2016","2016","06","08","16","00","UTC","19.0","66.2","5.0","41.0","40","10.8","6.7","-9999.0","-9999.0","280","West","-9999.0","-9999.0","1016","30.01","-999","-999","-9999","-9999","-9999.00","-9999.00","Clear","clear","0","0","0","0","0","0","METAR UKKK 081600Z 28003MPS 260V320 CAVOK 19/05 Q1016 R26/CLRD70 NOSIG"
"7:30 PM EEST on June 08, 2016","2016","06","08","19","30","Europe/Kiev","4:30 PM GMT on June 08, 2016","2016","06","08","16","30","UTC","18.0","64.4","5.0","41.0","42","7.2","4.5","-9999.0","-9999.0","300","WNW","-9999.0","-9999.0","1015","29.98","-999","-999","-9999","-9999","-9999.00","-9999.00","Clear","clear","0","0","0","0","0","0","METAR UKKK 081630Z 30002MPS 270V330 CAVOK 18/05 Q1015 R26/CLRD70 NOSIG"
"8:00 PM EEST on June 08, 2016","2016","06","08","20","00","Europe/Kiev","5:00 PM GMT on June 08, 2016","2016","06","08","17","00","UTC","18.0","64.4","5.0","41.0","42","3.6","2.2","-9999.0","-9999.0","0","Variable","7.0","4.3","1015","29.98","-999","-999","-9999","-9999","-9999.00","-9999.00","Unknown","unknown","0","0","0","0","0","0","METAR UKKK 081700Z VRB01MPS 7000 NSC 18/05 Q1015 R26/CLRD70 NOSIG"
"8:30 PM EEST on June 08, 2016","2016","06","08","20","30","Europe/Kiev","5:30 PM GMT on June 08, 2016","2016","06","08","17","30","UTC","17.0","62.6","7.0","44.6","52","3.6","2.2","-9999.0","-9999.0","240","WSW","9.0","5.6","1015","29.98","-999","-999","-9999","-9999","-9999.00","-9999.00","Unknown","unknown","0","0","0","0","0","0","METAR UKKK 081730Z 24001MPS 9000 NSC 17/07 Q1015 R26/CLRD70 NOSIG"
"9:00 PM EEST on June 08, 2016","2016","06","08","21","00","Europe/Kiev","6:00 PM GMT on June 08, 2016","2016","06","08","18","00","UTC","16","61","6","43","41","3.6","2.2","","","260","West","20","12","1015","29.99","-999","-999","-9999","-9999","","","Scattered Clouds","partlycloudy","0","0","0","0","0","0","AAXX 08181 33345 32998 42601 10159 20063 39956 40154 57006 82031 333 10200 555 10016"
"9:00 PM EEST on June 08, 2016","2016","06","08","21","00","Europe/Kiev","6:00 PM GMT on June 08, 2016","2016","06","08","18","00","UTC","17.0","62.6","6.0","42.8","48","7.2","4.5","-9999.0","-9999.0","230","SW","9.0","5.6","1015","29.98","-999","-999","-9999","-9999","-9999.00","-9999.00","Unknown","unknown","0","0","0","0","0","0","METAR UKKK 081800Z 23002MPS 9000 NSC 17/06 Q1015 R26/CLRD70 NOSIG"
"9:30 PM EEST on June 08, 2016","2016","06","08","21","30","Europe/Kiev","6:30 PM GMT on June 08, 2016","2016","06","08","18","30","UTC","15.0","59.0","6.0","42.8","55","7.2","4.5","-9999.0","-9999.0","240","WSW","-9999.0","-9999.0","1015","29.98","-999","-999","-9999","-9999","-9999.00","-9999.00","Clear","clear","0","0","0","0","0","0","METAR UKKK 081830Z 24002MPS CAVOK 15/06 Q1015 R26/CLRD70 NOSIG"
"10:00 PM EEST on June 08, 2016","2016","06","08","22","00","Europe/Kiev","7:00 PM GMT on June 08, 2016","2016","06","08","19","00","UTC","13.0","55.4","7.0","44.6","67","7.2","4.5","-9999.0","-9999.0","220","SW","-9999.0","-9999.0","1015","29.98","-999","-999","-9999","-9999","-9999.00","-9999.00","Clear","clear","0","0","0","0","0","0","METAR UKKK 081900Z 22002MPS CAVOK 13/07 Q1015 R26/CLRD70 NOSIG"
"10:30 PM EEST on June 08, 2016","2016","06","08","22","30","Europe/Kiev","7:30 PM GMT on June 08, 2016","2016","06","08","19","30","UTC","12.0","53.6","7.0","44.6","72","3.6","2.2","-9999.0","-9999.0","230","SW","9.0","5.6","1015","29.98","-999","-999","-9999","-9999","-9999.00","-9999.00","Unknown","unknown","0","0","0","0","0","0","METAR UKKK 081930Z 23001MPS 9000 NSC 12/07 Q1015 R26/CLRD70 NOSIG"
"11:00 PM EEST on June 08, 2016","2016","06","08","23","00","Europe/Kiev","8:00 PM GMT on June 08, 2016","2016","06","08","20","00","UTC","11.0","51.8","7.0","44.6","76","3.6","2.2","-9999.0","-9999.0","240","WSW","-9999.0","-9999.0","1015","29.98","-999","-999","-9999","-9999","-9999.00","-9999.00","Clear","clear","0","0","0","0","0","0","METAR UKKK 082000Z 24001MPS CAVOK 11/07 Q1015 R26/CLRD70 NOSIG"
"11:30 PM EEST on June 08, 2016","2016","06","08","23","30","Europe/Kiev","8:30 PM GMT on June 08, 2016","2016","06","08","20","30","UTC","10.0","50.0","7.0","44.6","82","7.2","4.5","-9999.0","-9999.0","220","SW","-9999.0","-9999.0","1015","29.98","-999","-999","-9999","-9999","-9999.00","-9999.00","Clear","clear","0","0","0","0","0","0","METAR UKKK 082030Z 22002MPS CAVOK 10/07 Q1015 R26/CLRD70 NOSIG"
"12:00 AM EEST on June 09, 2016","2016","06","09","00","00","Europe/Kiev","9:00 PM GMT on June 08, 2016","2016","06","08","21","00","UTC","14","57","5","41","45","7.2","4.5","","","230","SW","20","12","1015","29.97","-999","-999","-9999","-9999","","","","","0","0","0","0","0","0","AAXX 08211 33345 42998 02302 10141 20052 39950 40149 57006 555 10011"
"12:00 AM EEST on June 09, 2016","2016","06","09","00","00","Europe/Kiev","9:00 PM GMT on June 08, 2016","2016","06","08","21","00","UTC","10.0","50.0","7.0","44.6","82","3.6","2.2","-9999.0","-9999.0","250","WSW","9.0","5.6","1015","29.98","-999","-999","-9999","-9999","-9999.00","-9999.00","Unknown","unknown","0","0","0","0","0","0","METAR UKKK 082100Z 25001MPS 9000 NSC 10/07 Q1015 R26/CLRD70 NOSIG"
"12:30 AM EEST on June 09, 2016","2016","06","09","00","30","Europe/Kiev","9:30 PM GMT on June 08, 2016","2016","06","08","21","30","UTC","10.0","50.0","7.0","44.6","82","7.2","4.5","-9999.0","-9999.0","240","WSW","-9999.0","-9999.0","1015","29.98","-999","-999","-9999","-9999","-9999.00","-9999.00","Clear","clear","0","0","0","0","0","0","METAR UKKK 082130Z 24002MPS CAVOK 10/07 Q1015 R26/CLRD70 NOSIG"
"1:00 AM EEST on June 09, 2016","2016","06","09","01","00","Europe/Kiev","10:00 PM GMT on June 08, 2016","2016","06","08","22","00","UTC","10.0","50.0","7.0","44.6","82","7.2","4.5","-9999.0","-9999.0","240","WSW","8.0","5.0","1015","29.98","-999","-999","-9999","-9999","-9999.00","-9999.00","Unknown","unknown","0","0","0","0","0","0","METAR UKKK 082200Z 24002MPS 8000 NSC 10/07 Q1015 R26/CLRD70 NOSIG"
"1:30 AM EEST on June 09, 2016","2016","06","09","01","30","Europe/Kiev","10:30 PM GMT on June 08, 2016","2016","06","08","22","30","UTC","9.0","48.2","7.0","44.6","87","7.2","4.5","-9999.0","-9999.0","230","SW","-9999.0","-9999.0","1014","29.95","-999","-999","-9999","-9999","-9999.00","-9999.00","Clear","clear","0","0","0","0","0","0","METAR UKKK 082230Z 23002MPS CAVOK 09/07 Q1014 R26/CLRD70 NOSIG"
"2:00 AM EEST on June 09, 2016","2016","06","09","02","00","Europe/Kiev","11:00 PM GMT on June 08, 2016","2016","06","08","23","00","UTC","9.0","48.2","7.0","44.6","87","7.2","4.5","-9999.0","-9999.0","220","SW","-9999.0","-9999.0","1014","29.95","-999","-999","-9999","-9999","-9999.00","-9999.00","Clear","clear","0","0","0","0","0","0","METAR UKKK 082300Z 22002MPS CAVOK 09/07 Q1014 R26/CLRD70 NOSIG"
"2:30 AM EEST on June 09, 2016","2016","06","09","02","30","Europe/Kiev","11:30 PM GMT on June 08, 2016","2016","06","08","23","30","UTC","8.0","46.4","7.0","44.6","93","7.2","4.5","-9999.0","-9999.0","230","SW","-9999.0","-9999.0","1014","29.95","6.9","44.4","-9999","-9999","-9999.00","-9999.00","Clear","clear","0","0","0","0","0","0","METAR UKKK 082330Z 23002MPS CAVOK 08/07 Q1014 R26/CLRD70 NOSIG"
"3:00 AM EEST on June 09, 2016","2016","06","09","03","00","Europe/Kiev","12:00 AM GMT on June 09, 2016","2016","06","09","00","00","UTC","14","57","6","42","47","7.2","4.5","","","270","West","20","12","1014","29.96","-999","-999","-9999","-9999","","","","","0","0","0","0","0","0","AAXX 09001 33345 32998 02702 10137 20057 39946 40145 57004 555 10010"
"3:00 AM EEST on June 09, 2016","2016","06","09","03","00","Europe/Kiev","12:00 AM GMT on June 09, 2016","2016","06","09","00","00","UTC","8.0","46.4","7.0","44.6","93","7.2","4.5","-9999.0","-9999.0","240","WSW","-9999.0","-9999.0","1014","29.95","6.9","44.4","-9999","-9999","-9999.00","-9999.00","Clear","clear","0","0","0","0","0","0","METAR UKKK 090000Z 24002MPS CAVOK 08/07 Q1014 R26/CLRD70 NOSIG"
"3:30 AM EEST on June 09, 2016","2016","06","09","03","30","Europe/Kiev","12:30 AM GMT on June 09, 2016","2016","06","09","00","30","UTC","8.0","46.4","6.0","42.8","87","7.2","4.5","-9999.0","-9999.0","240","WSW","-9999.0","-9999.0","1014","29.95","6.9","44.4","-9999","-9999","-9999.00","-9999.00","Clear","clear","0","0","0","0","0","0","METAR UKKK 090030Z 24002MPS CAVOK 08/06 Q1014 R26/CLRD70 NOSIG"
"4:00 AM EEST on June 09, 2016","2016","06","09","04","00","Europe/Kiev","1:00 AM GMT on June 09, 2016","2016","06","09","01","00","UTC","8.0","46.4","6.0","42.8","87","7.2","4.5","-9999.0","-9999.0","240","WSW","-9999.0","-9999.0","1014","29.95","6.9","44.4","-9999","-9999","-9999.00","-9999.00","Clear","clear","0","0","0","0","0","0","METAR UKKK 090100Z 24002MPS CAVOK 08/06 Q1014 R26/CLRD70 NOSIG"
"4:30 AM EEST on June 09, 2016","2016","06","09","04","30","Europe/Kiev","1:30 AM GMT on June 09, 2016","2016","06","09","01","30","UTC","10.0","50.0","6.0","42.8","76","7.2","4.5","-9999.0","-9999.0","240","WSW","-9999.0","-9999.0","1014","29.95","-999","-999","-9999","-9999","-9999.00","-9999.00","Clear","clear","0","0","0","0","0","0","METAR UKKK 090130Z 24002MPS CAVOK 10/06 Q1014 R26/CLRD70 NOSIG"
"5:00 AM EEST on June 09, 2016","2016","06","09","05","00","Europe/Kiev","2:00 AM GMT on June 09, 2016","2016","06","09","02","00","UTC","10.0","50.0","6.0","42.8","76","7.2","4.5","-9999.0","-9999.0","240","WSW","-9999.0","-9999.0","1014","29.95","-999","-999","-9999","-9999","-9999.00","-9999.00","Clear","clear","0","0","0","0","0","0","METAR UKKK 090200Z 24002MPS CAVOK 10/06 Q1014 R26/CLRD70 NOSIG"
"5:30 AM EEST on June 09, 2016","2016","06","09","05","30","Europe/Kiev","2:30 AM GMT on June 09, 2016","2016","06","09","02","30","UTC","11.0","51.8","6.0","42.8","71","10.8","6.7","-9999.0","-9999.0","240","WSW","-9999.0","-9999.0","1014","29.95","-999","-999","-9999","-9999","-9999.00","-9999.00","Clear","clear","0","0","0","0","0","0","METAR UKKK 090230Z 24003MPS CAVOK 11/06 Q1014 R26/CLRD70 NOSIG"
"6:00 AM EEST on June 09, 2016","2016","06","09","06","00","Europe/Kiev","3:00 AM GMT on June 09, 2016","2016","06","09","03","00","UTC","14","57","5","42","46","14.4","8.9","","","260","West","20","12","1014","29.95","-999","-999","-9999","-9999","","","Scattered Clouds","partlycloudy","0","0","0","0","0","0","AAXX 09031 33345 42998 22604 10139 20054 39942 40141 57004 82030 555 10012"
"6:00 AM EEST on June 09, 2016","2016","06","09","06","00","Europe/Kiev","3:00 AM GMT on June 09, 2016","2016","06","09","03","00","UTC","12.0","53.6","6.0","42.8","67","10.8","6.7","-9999.0","-9999.0","240","WSW","9.0","5.6","1014","29.95","-999","-999","-9999","-9999","-9999.00","-9999.00","Unknown","unknown","0","0","0","0","0","0","METAR UKKK 090300Z 24003MPS 9000 NSC 12/06 Q1014 R26/CLRD70 NOSIG"
"6:30 AM EEST on June 09, 2016","2016","06","09","06","30","Europe/Kiev","3:30 AM GMT on June 09, 2016","2016","06","09","03","30","UTC","12.0","53.6","7.0","44.6","72","10.8","6.7","-9999.0","-9999.0","250","WSW","-9999.0","-9999.0","1014","29.95","-999","-999","-9999","-9999","-9999.00","-9999.00","Clear","clear","0","0","0","0","0","0","METAR UKKK 090330Z 25003MPS CAVOK 12/07 Q1014 R26/CLRD70 NOSIG"
"7:00 AM EEST on June 09, 2016","2016","06","09","07","00","Europe/Kiev","4:00 AM GMT on June 09, 2016","2016","06","09","04","00","UTC","14.0","57.2","7.0","44.6","63","10.8","6.7","-9999.0","-9999.0","250","WSW","-9999.0","-9999.0","1014","29.95","-999","-999","-9999","-9999","-9999.00","-9999.00","Clear","clear","0","0","0","0","0","0","METAR UKKK 090400Z 25003MPS CAVOK 14/07 Q1014 R26/CLRD70 NOSIG"
"7:30 AM EEST on June 09, 2016","2016","06","09","07","30","Europe/Kiev","4:30 AM GMT on June 09, 2016","2016","06","09","04","30","UTC","15.0","59.0","7.0","44.6","59","14.4","8.9","-9999.0","-9999.0","250","WSW","-9999.0","-9999.0","1014","29.95","-999","-999","-9999","-9999","-9999.00","-9999.00","Clear","clear","0","0","0","0","0","0","METAR UKKK 090430Z 25004MPS CAVOK 15/07 Q1014 R26/CLRD70 NOSIG"
"8:00 AM EEST on June 09, 2016","2016","06","09","08","00","Europe/Kiev","5:00 AM GMT on June 09, 2016","2016","06","09","05","00","UTC","15.0","59.0","7.0","44.6","59","18.0","11.2","-9999.0","-9999.0","260","West","-9999.0","-9999.0","1014","29.95","-999","-999","-9999","-9999","-9999.00","-9999.00","Clear","clear","0","0","0","0","0","0","METAR UKKK 090500Z 26005MPS CAVOK 15/07 Q1014 R26/CLRD70 NOSIG"
"8:30 AM EEST on June 09, 2016","2016","06","09","08","30","Europe/Kiev","5:30 AM GMT on June 09, 2016","2016","06","09","05","30","UTC","16.0","60.8","7.0","44.6","55","14.4","8.9","-9999.0","-9999.0","250","WSW","-9999.0","-9999.0","1014","29.95","-999","-999","-9999","-9999","-9999.00","-9999.00","Clear","clear","0","0","0","0","0","0","METAR UKKK 090530Z 25004MPS 210V280 CAVOK 16/07 Q1014 R26/CLRD70 NOSIG"
"9:00 AM EEST on June 09, 2016","2016","06","09","09","00","Europe/Kiev","6:00 AM GMT on June 09, 2016","2016","06","09","06","00","UTC","18","65","7","44","35","10.8","6.7","","","240","WSW","20","12","1013","29.93","-999","-999","-9999","-9999","","","Clear","clear","0","0","0","0","0","0","AAXX 09061 33345 32998 32403 10183 20067 39937 40133 57005 80001 333 20128 555 10029"
"9:00 AM EEST on June 09, 2016","2016","06","09","09","00","Europe/Kiev","6:00 AM GMT on June 09, 2016","2016","06","09","06","00","UTC","17.0","62.6","8.0","46.4","55","14.4","8.9","-9999.0","-9999.0","250","WSW","-9999.0","-9999.0","1013","29.92","-999","-999","-9999","-9999","-9999.00","-9999.00","Clear","clear","0","0","0","0","0","0","METAR UKKK 090600Z 25004MPS 210V280 CAVOK 17/08 Q1013 R26/CLRD70 NOSIG"
"9:30 AM EEST on June 09, 2016","2016","06","09","09","30","Europe/Kiev","6:30 AM GMT on June 09, 2016","2016","06","09","06","30","UTC","18.0","64.4","8.0","46.4","52","14.4","8.9","-9999.0","-9999.0","260","West","-9999.0","-9999.0","1013","29.92","-999","-999","-9999","-9999","-9999.00","-9999.00","Clear","clear","0","0","0","0","0","0","METAR UKKK 090630Z 26004MPS CAVOK 18/08 Q1013 R26/CLRD70 NOSIG"
"10:00 AM EEST on June 09, 2016","2016","06","09","10","00","Europe/Kiev","7:00 AM GMT on June 09, 2016","2016","06","09","07","00","UTC","19.0","66.2","7.0","44.6","46","14.4","8.9","-9999.0","-9999.0","250","WSW","-9999.0","-9999.0","1013","29.92","-999","-999","-9999","-9999","-9999.00","-9999.00","Clear","clear","0","0","0","0","0","0","METAR UKKK 090700Z 25004MPS 210V270 CAVOK 19/07 Q1013 R26/CLRD70 NOSIG"
"10:30 AM EEST on June 09, 2016","2016","06","09","10","30","Europe/Kiev","7:30 AM GMT on June 09, 2016","2016","06","09","07","30","UTC","20.0","68.0","8.0","46.4","46","18.0","11.2","-9999.0","-9999.0","240","WSW","-9999.0","-9999.0","1013","29.92","-999","-999","-9999","-9999","-9999.00","-9999.00","Clear","clear","0","0","0","0","0","0","METAR UKKK 090730Z 24005MPS 210V270 CAVOK 20/08 Q1013 R26/CLRD70 NOSIG"
"11:00 AM EEST on June 09, 2016","2016","06","09","11","00","Europe/Kiev","8:00 AM GMT on June 09, 2016","2016","06","09","08","00","UTC","21.0","69.8","8.0","46.4","43","18.0","11.2","-9999.0","-9999.0","230","SW","-9999.0","-9999.0","1012","29.89","-999","-999","-9999","-9999","-9999.00","-9999.00","Clear","clear","0","0","0","0","0","0","METAR UKKK 090800Z 23005MPS 190V270 CAVOK 21/08 Q1012 R26/CLRD70 NOSIG"
"11:30 AM EEST on June 09, 2016","2016","06","09","11","30","Europe/Kiev","8:30 AM GMT on June 09, 2016","2016","06","09","08","30","UTC","21.0","69.8","7.0","44.6","40","21.6","13.4","-9999.0","-9999.0","250","WSW","-9999.0","-9999.0","1012","29.89","-999","-999","-9999","-9999","-9999.00","-9999.00","Clear","clear","0","0","0","0","0","0","METAR UKKK 090830Z 25006MPS 220V280 CAVOK 21/07 Q1012 R26/CLRD70 NOSIG"
"12:00 PM EEST on June 09, 2016","2016","06","09","12","00","Europe/Kiev","9:00 AM GMT on June 09, 2016","2016","06","09","09","00","UTC","21","70","6","43","26","14.4","8.9","","","230","SW","20","12","1012","29.89","-999","-999","-9999","-9999","","","Partly Cloudy","partlycloudy","0","0","0","0","0","0","AAXX 09091 33345 42698 52304 10213 20061 39928 40122 57009 84101 555 10042"
"12:00 PM EEST on June 09, 2016","2016","06","09","12","00","Europe/Kiev","9:00 AM GMT on June 09, 2016","2016","06","09","09","00","UTC","21.0","69.8","8.0","46.4","43","18.0","11.2","-9999.0","-9999.0","230","SW","-9999.0","-9999.0","1012","29.89","-999","-999","-9999","-9999","-9999.00","-9999.00","Clear","clear","0","0","0","0","0","0","METAR UKKK 090900Z 23005MPS 180V280 CAVOK 21/08 Q1012 R26/CLRD70 NOSIG"
"12:30 PM EEST on June 09, 2016","2016","06","09","12","30","Europe/Kiev","9:30 AM GMT on June 09, 2016","2016","06","09","09","30","UTC","21.0","69.8","7.0","44.6","40","18.0","11.2","-9999.0","-9999.0","260","West","-9999.0","-9999.0","1012","29.89","-999","-999","-9999","-9999","-9999.00","-9999.00","Clear","clear","0","0","0","0","0","0","METAR UKKK 090930Z 26005MPS 190V280 CAVOK 21/07 Q1012 R26/CLRD70 NOSIG"
"1:00 PM EEST on June 09, 2016","2016","06","09","13","00","Europe/Kiev","10:00 AM GMT on June 09, 2016","2016","06","09","10","00","UTC","21.0","69.8","7.0","44.6","40","18.0","11.2","-9999.0","-9999.0","230","SW","9.0","5.6","1012","29.89","-999","-999","-9999","-9999","-9999.00","-9999.00","Unknown","unknown","0","0","0","0","0","0","METAR UKKK 091000Z 23005MPS 190V260 9000 NSC 21/07 Q1012 R26/CLRD70 NOSIG"
"1:30 PM EEST on June 09, 2016","2016","06","09","13","30","Europe/Kiev","10:30 AM GMT on June 09, 2016","2016","06","09","10","30","UTC","21.0","69.8","8.0","46.4","43","18.0","11.2","-9999.0","-9999.0","250","WSW","-9999.0","-9999.0","1012","29.89","-999","-999","-9999","-9999","-9999.00","-9999.00","Clear","clear","0","0","0","0","0","0","METAR UKKK 091030Z 25005MPS CAVOK 21/08 Q1012 R26/CLRD70 NOSIG"
"2:00 PM EEST on June 09, 2016","2016","06","09","14","00","Europe/Kiev","11:00 AM GMT on June 09, 2016","2016","06","09","11","00","UTC","20.0","68.0","6.0","42.8","40","14.4","8.9","-9999.0","-9999.0","250","WSW","-9999.0","-9999.0","1012","29.89","-999","-999","-9999","-9999","-9999.00","-9999.00","Clear","clear","0","0","0","0","0","0","METAR UKKK 091100Z 25004MPS 210V280 CAVOK 20/06 Q1012 R26/CLRD70 NOSIG"
"2:30 PM EEST on June 09, 2016","2016","06","09","14","30","Europe/Kiev","11:30 AM GMT on June 09, 2016","2016","06","09","11","30","UTC","22.0","71.6","7.0","44.6","38","18.0","11.2","-9999.0","-9999.0","240","WSW","-9999.0","-9999.0","1011","29.86","-999","-999","-9999","-9999","-9999.00","-9999.00","Clear","clear","0","0","0","0","0","0","METAR UKKK 091130Z 24005MPS 210V270 CAVOK 22/07 Q1011 R26/CLRD70 NOSIG"
"3:00 PM EEST on June 09, 2016","2016","06","09","15","00","Europe/Kiev","12:00 PM GMT on June 09, 2016","2016","06","09","12","00","UTC","22","72","5","41","22","18.0","11.2","","","230","SW","20","12","1011","29.86","-999","-999","-9999","-9999","","","Mostly Cloudy","mostlycloudy","0","0","0","0","0","0","AAXX 09121 33345 32598 62305 10221 20051 39918 40111 57010 86400 333 86830 555 10039"
"3:00 PM EEST on June 09, 2016","2016","06","09","15","00","Europe/Kiev","12:00 PM GMT on June 09, 2016","2016","06","09","12","00","UTC","22.0","71.6","8.0","46.4","41","21.6","13.4","-9999.0","-9999.0","230","SW","-9999.0","-9999.0","1011","29.86","-999","-999","-9999","-9999","-9999.00","-9999.00","Clear","clear","0","0","0","0","0","0","METAR UKKK 091200Z 23006MPS 190V270 CAVOK 22/08 Q1011 R26/CLRD70 NOSIG"
"3:30 PM EEST on June 09, 2016","2016","06","09","15","30","Europe/Kiev","12:30 PM GMT on June 09, 2016","2016","06","09","12","30","UTC","23.0","73.4","8.0","46.4","38","18.0","11.2","-9999.0","-9999.0","230","SW","-9999.0","-9999.0","1011","29.86","-999","-999","-9999","-9999","-9999.00","-9999.00","Clear","clear","0","0","0","0","0","0","METAR UKKK 091230Z 23005MPS 200V270 CAVOK 23/08 Q1011 R26/CLRD70 NOSIG"
"4:00 PM EEST on June 09, 2016","2016","06","09","16","00","Europe/Kiev","1:00 PM GMT on June 09, 2016","2016","06","09","13","00","UTC","22.0","71.6","6.0","42.8","35","21.6","13.4","-9999.0","-9999.0","230","SW","-9999.0","-9999.0","1011","29.86","-999","-999","-9999","-9999","-9999.00","-9999.00","Clear","clear","0","0","0","0","0","0","METAR UKKK 091300Z 23006MPS 200V260 CAVOK 22/06 Q1011 R26/CLRD70 NOSIG"
"4:30 PM EEST on June 09, 2016","2016","06","09","16","30","Europe/Kiev","1:30 PM GMT on June 09, 2016","2016","06","09","13","30","UTC","23.0","73.4","7.0","44.6","36","18.0","11.2","-9999.0","-9999.0","220","SW","-9999.0","-9999.0","1011","29.86","-999","-999","-9999","-9999","-9999.00","-9999.00","Clear","clear","0","0","0","0","0","0","METAR UKKK 091330Z 22005MPS 180V260 CAVOK 23/07 Q1011 R26/CLRD70 NOSIG"
"5:00 PM EEST on June 09, 2016","2016","06","09","17","00","Europe/Kiev","2:00 PM GMT on June 09, 2016","2016","06","09","14","00","UTC","22.0","71.6","7.0","44.6","38","18.0","11.2","-9999.0","-9999.0","240","WSW","-9999.0","-9999.0","1011","29.86","-999","-999","-9999","-9999","-9999.00","-9999.00","Clear","clear","0","0","0","0","0","0","METAR UKKK 091400Z 24005MPS 210V270 CAVOK 22/07 Q1011 R26/CLRD70 NOSIG"
"5:30 PM EEST on June 09, 2016","2016","06","09","17","30","Europe/Kiev","2:30 PM GMT on June 09, 2016","2016","06","09","14","30","UTC","21.0","69.8","6.0","42.8","38","18.0","11.2","-9999.0","-9999.0","230","SW","-9999.0","-9999.0","1011","29.86","-999","-999","-9999","-9999","-9999.00","-9999.00","Clear","clear","0","0","0","0","0","0","METAR UKKK 091430Z 23005MPS 190V280 CAVOK 21/06 Q1011 R26/CLRD70 NOSIG"
"6:00 PM EEST on June 09, 2016","2016","06","09","18","00","Europe/Kiev","3:00 PM GMT on June 09, 2016","2016","06","09","15","00","UTC","21","70","6","42","25","14.4","8.9","","","210","SSW","20","12","1010","29.83","-999","-999","-9999","-9999","","","Mostly Cloudy","mostlycloudy","0","0","0","0","0","0","AAXX 09151 33345 42698 62104 10213 20055 39909 40102 57009 86200 555 10027"
"6:00 PM EEST on June 09, 2016","2016","06","09","18","00","Europe/Kiev","3:00 PM GMT on June 09, 2016","2016","06","09","15","00","UTC","22.0","71.6","7.0","44.6","38","18.0","11.2","-9999.0","-9999.0","220","SW","-9999.0","-9999.0","1010","29.83","-999","-999","-9999","-9999","-9999.00","-9999.00","Clear","clear","0","0","0","0","0","0","METAR UKKK 091500Z 22005MPS 180V260 CAVOK 22/07 Q1010 R26/CLRD70 NOSIG"
"6:30 PM EEST on June 09, 2016","2016","06","09","18","30","Europe/Kiev","3:30 PM GMT on June 09, 2016","2016","06","09","15","30","UTC","22.0","71.6","6.0","42.8","35","18.0","11.2","-9999.0","-9999.0","220","SW","-9999.0","-9999.0","1010","29.83","-999","-999","-9999","-9999","-9999.00","-9999.00","Clear","clear","0","0","0","0","0","0","METAR UKKK 091530Z 22005MPS 180V250 CAVOK 22/06 Q1010 R26/CLRD70 NOSIG"
"7:00 PM EEST on June 09, 2016","2016","06","09","19","00","Europe/Kiev","4:00 PM GMT on June 09, 2016","2016","06","09","16","00","UTC","21.0","69.8","7.0","44.6","40","18.0","11.2","-9999.0","-9999.0","220","SW","-9999.0","-9999.0","1010","29.83","-999","-999","-9999","-9999","-9999.00","-9999.00","Clear","clear","0","0","0","0","0","0","METAR UKKK 091600Z 22005MPS 180V260 CAVOK 21/07 Q1010 R26/CLRD70 NOSIG"
"7:30 PM EEST on June 09, 2016","2016","06","09","19","30","Europe/Kiev","4:30 PM GMT on June 09, 2016","2016","06","09","16","30","UTC","21.0","69.8","7.0","44.6","40","14.4","8.9","-9999.0","-9999.0","210","SSW","-9999.0","-9999.0","1010","29.83","-999","-999","-9999","-9999","-9999.00","-9999.00","Clear","clear","0","0","0","0","0","0","METAR UKKK 091630Z 21004MPS 180V250 CAVOK 21/07 Q1010 R26/CLRD70 NOSIG"
"8:00 PM EEST on June 09, 2016","2016","06","09","20","00","Europe/Kiev","5:00 PM GMT on June 09, 2016","2016","06","09","17","00","UTC","20.0","68.0","7.0","44.6","43","10.8","6.7","-9999.0","-9999.0","220","SW","-9999.0","-9999.0","1010","29.83","-999","-999","-9999","-9999","-9999.00","-9999.00","Clear","clear","0","0","0","0","0","0","METAR UKKK 091700Z 22003MPS 190V250 CAVOK 20/07 Q1010 R26/CLRD70 NOSIG"
"8:30 PM EEST on June 09, 2016","2016","06","09","20","30","Europe/Kiev","5:30 PM GMT on June 09, 2016","2016","06","09","17","30","UTC","20.0","68.0","7.0","44.6","43","14.4","8.9","-9999.0","-9999.0","200","SSW","-9999.0","-9999.0","1010","29.83","-999","-999","-9999","-9999","-9999.00","-9999.00","Clear","clear","0","0","0","0","0","0","METAR UKKK 091730Z 20004MPS 180V240 CAVOK 20/07 Q1010 R26/CLRD70 NOSIG"
"9:00 PM EEST on June 09, 2016","2016","06","09","21","00","Europe/Kiev","6:00 PM GMT on June 09, 2016","2016","06","09","18","00","UTC","19","65","7","44","36","10.8","6.7","","","200","SSW","20","12","1010","29.84","-999","-999","-9999","-9999","","","Scattered Clouds","partlycloudy","0","0","0","0","0","0","AAXX 09181 33345 32598 52003 10186 20069 39909 40104 54000 82454 333 10229 555 10018"
"9:00 PM EEST on June 09, 2016","2016","06","09","21","00","Europe/Kiev","6:00 PM GMT on June 09, 2016","2016","06","09","18","00","UTC","19.0","66.2","7.0","44.6","46","10.8","6.7","-9999.0","-9999.0","200","SSW","-9999.0","-9999.0","1010","29.83","-999","-999","-9999","-9999","-9999.00","-9999.00","Clear","clear","0","0","0","0","0","0","METAR UKKK 091800Z 20003MPS 170V230 CAVOK 19/07 Q1010 R26/CLRD70 NOSIG"
"9:30 PM EEST on June 09, 2016","2016","06","09","21","30","Europe/Kiev","6:30 PM GMT on June 09, 2016","2016","06","09","18","30","UTC","18.0","64.4","8.0","46.4","52","14.4","8.9","-9999.0","-9999.0","210","SSW","-9999.0","-9999.0","1011","29.86","-999","-999","-9999","-9999","-9999.00","-9999.00","Clear","clear","0","0","0","0","0","0","METAR UKKK 091830Z 21004MPS CAVOK 18/08 Q1011 R26/CLRD70 NOSIG"
"10:00 PM EEST on June 09, 2016","2016","06","09","22","00","Europe/Kiev","7:00 PM GMT on June 09, 2016","2016","06","09","19","00","UTC","18.0","64.4","8.0","46.4","52","14.4","8.9","-9999.0","-9999.0","260","West","-9999.0","-9999.0","1011","29.86","-999","-999","-9999","-9999","-9999.00","-9999.00","Clear","clear","0","0","0","0","0","0","METAR UKKK 091900Z 26004MPS 180V300 CAVOK 18/08 Q1011 R26/CLRD70 NOSIG"
"10:30 PM EEST on June 09, 2016","2016","06","09","22","30","Europe/Kiev","7:30 PM GMT on June 09, 2016","2016","06","09","19","30","UTC","18.0","64.4","9.0","48.2","56","10.8","6.7","-9999.0","-9999.0","260","West","-9999.0","-9999.0","1011","29.86","-999","-999","-9999","-9999","-9999.00","-9999.00","Clear","clear","0","0","0","0","0","0","METAR UKKK 091930Z 26003MPS 220V290 CAVOK 18/09 Q1011 R26/CLRD70 NOSIG"
"11:00 PM EEST on June 09, 2016","2016","06","09","23","00","Europe/Kiev","8:00 PM GMT on June 09, 2016","2016","06","09","20","00","UTC","17.0","62.6","10.0","50.0","63","3.6","2.2","-9999.0","-9999.0","0","Variable","-9999.0","-9999.0","1011","29.86","-999","-999","-9999","-9999","-9999.00","-9999.00","Clear","clear","0","0","0","0","0","0","METAR UKKK 092000Z VRB01MPS CAVOK 17/10 Q1011 R26/CLRD70 NOSIG"
"11:30 PM EEST on June 09, 2016","2016","06","09","23","30","Europe/Kiev","8:30 PM GMT on June 09, 2016","2016","06","09","20","30","UTC","17.0","62.6","8.0","46.4","55","3.6","2.2","-9999.0","-9999.0","0","Variable","-9999.0","-9999.0","1011","29.86","-999","-999","-9999","-9999","-9999.00","-9999.00","Clear","clear","0","0","0","0","0","0","METAR UKKK 092030Z VRB01MPS CAVOK 17/08 Q1011 R26/CLRD70 NOSIG"
"12:00 AM EEST on June 10, 2016","2016","06","10","00","00","Europe/Kiev","9:00 PM GMT on June 09, 2016","2016","06","09","21","00","UTC","17","63","9","48","47","3.6","2.2","","","210","SSW","20","12","1011","29.86","-999","-999","-9999","-9999","","","Overcast","cloudy","0","0","0","0","0","0","AAXX 09211 33345 42998 82101 10171 20088 39916 40112 53007 8007/ 555 10017"
"12:00 AM EEST on June 10, 2016","2016","06","10","00","00","Europe/Kiev","9:00 PM GMT on June 09, 2016","2016","06","09","21","00","UTC","17.0","62.6","8.0","46.4","55","7.2","4.5","-9999.0","-9999.0","200","SSW","-9999.0","-9999.0","1011","29.86","-999","-999","-9999","-9999","-9999.00","-9999.00","Clear","clear","0","0","0","0","0","0","METAR UKKK 092100Z 20002MPS CAVOK 17/08 Q1011 R26/CLRD70 NOSIG"
"12:30 AM EEST on June 10, 2016","2016","06","10","00","30","Europe/Kiev","9:30 PM GMT on June 09, 2016","2016","06","09","21","30","UTC","17.0","62.6","8.0","46.4","55","14.4","8.9","-9999.0","-9999.0","230","SW","-9999.0","-9999.0","1011","29.86","-999","-999","-9999","-9999","-9999.00","-9999.00","Clear","clear","0","0","0","0","0","0","METAR UKKK 092130Z 23004MPS CAVOK 17/08 Q1011 R26/CLRD70 NOSIG"
"1:00 AM EEST on June 10, 2016","2016","06","10","01","00","Europe/Kiev","10:00 PM GMT on June 09, 2016","2016","06","09","22","00","UTC","16.0","60.8","8.0","46.4","59","14.4","8.9","-9999.0","-9999.0","230","SW","-9999.0","-9999.0","1011","29.86","-999","-999","-9999","-9999","-9999.00","-9999.00","Clear","clear","0","0","0","0","0","0","METAR UKKK 092200Z 23004MPS CAVOK 16/08 Q1011 R26/CLRD70 NOSIG"
"1:30 AM EEST on June 10, 2016","2016","06","10","01","30","Europe/Kiev","10:30 PM GMT on June 09, 2016","2016","06","09","22","30","UTC","17.0","62.6","9.0","48.2","59","14.4","8.9","-9999.0","-9999.0","250","WSW","-9999.0","-9999.0","1011","29.86","-999","-999","-9999","-9999","-9999.00","-9999.00","Clear","clear","0","0","0","0","0","0","METAR UKKK 092230Z 25004MPS CAVOK 17/09 Q1011 R26/CLRD70 NOSIG"
"2:00 AM EEST on June 10, 2016","2016","06","10","02","00","Europe/Kiev","11:00 PM GMT on June 09, 2016","2016","06","09","23","00","UTC","16.0","60.8","10.0","50.0","68","10.8","6.7","-9999.0","-9999.0","250","WSW","-9999.0","-9999.0","1011","29.86","-999","-999","-9999","-9999","-9999.00","-9999.00","Clear","clear","0","0","0","0","0","0","METAR UKKK 092300Z 25003MPS CAVOK 16/10 Q1011 R26/CLRD70 NOSIG"
"2:30 AM EEST on June 10, 2016","2016","06","10","02","30","Europe/Kiev","11:30 PM GMT on June 09, 2016","2016","06","09","23","30","UTC","15.0","59.0","11.0","51.8","77","7.2","4.5","-9999.0","-9999.0","250","WSW","-9999.0","-9999.0","1011","29.86","-999","-999","-9999","-9999","-9999.00","-9999.00","Clear","clear","0","0","0","0","0","0","METAR UKKK 092330Z 25002MPS CAVOK 15/11 Q1011 R26/CLRD70 NOSIG"
"3:00 AM EEST on June 10, 2016","2016","06","10","03","00","Europe/Kiev","12:00 AM GMT on June 10, 2016","2016","06","10","00","00","UTC","16","61","10","50","57","0.0","0.0","","","","","20","12","1011","29.86","-999","-999","-9999","-9999","","","Light Rain","rain","0","1","0","0","0","0","AAXX 10001 33345 /1598 80000 10160 20099 39915 40111 58001 72122 8807/ 555 10015 69901"
"3:00 AM EEST on June 10, 2016","2016","06","10","03","00","Europe/Kiev","12:00 AM GMT on June 10, 2016","2016","06","10","00","00","UTC","15.0","59.0","10.0","50.0","72","7.2","4.5","-9999.0","-9999.0","220","SW","-9999.0","-9999.0","1011","29.86","-999","-999","-9999","-9999","-9999.00","-9999.00","Clear","clear","0","0","0","0","0","0","METAR UKKK 100000Z 22002MPS CAVOK 15/10 Q1011 R26/CLRD70 NOSIG"
"3:30 AM EEST on June 10, 2016","2016","06","10","03","30","Europe/Kiev","12:30 AM GMT on June 10, 2016","2016","06","10","00","30","UTC","15.0","59.0","11.0","51.8","77","10.8","6.7","-9999.0","-9999.0","220","SW","-9999.0","-9999.0","1011","29.86","-999","-999","-9999","-9999","-9999.00","-9999.00","Clear","clear","0","0","0","0","0","0","METAR UKKK 100030Z 22003MPS CAVOK 15/11 Q1011 R26/CLRD70 NOSIG"
"4:00 AM EEST on June 10, 2016","2016","06","10","04","00","Europe/Kiev","1:00 AM GMT on June 10, 2016","2016","06","10","01","00","UTC","15.0","59.0","11.0","51.8","77","10.8","6.7","-9999.0","-9999.0","220","SW","-9999.0","-9999.0","1011","29.86","-999","-999","-9999","-9999","-9999.00","-9999.00","Clear","clear","0","0","0","0","0","0","METAR UKKK 100100Z 22003MPS CAVOK 15/11 Q1011 R26/CLRD70 NOSIG"
"4:30 AM EEST on June 10, 2016","2016","06","10","04","30","Europe/Kiev","1:30 AM GMT on June 10, 2016","2016","06","10","01","30","UTC","14.0","57.2","11.0","51.8","82","7.2","4.5","-9999.0","-9999.0","240","WSW","-9999.0","-9999.0","1011","29.86","-999","-999","-9999","-9999","-9999.00","-9999.00","Clear","clear","0","0","0","0","0","0","METAR UKKK 100130Z 24002MPS CAVOK 14/11 Q1011 R26/CLRD70 NOSIG"
"5:00 AM EEST on June 10, 2016","2016","06","10","05","00","Europe/Kiev","2:00 AM GMT on June 10, 2016","2016","06","10","02","00","UTC","13.0","55.4","11.0","51.8","88","7.2","4.5","-9999.0","-9999.0","220","SW","-9999.0","-9999.0","1011","29.86","-999","-999","-9999","-9999","-9999.00","-9999.00","Clear","clear","0","0","0","0","0","0","METAR UKKK 100200Z 22002MPS CAVOK 13/11 Q1011 R26/CLRD70 NOSIG"
"5:30 AM EEST on June 10, 2016","2016","06","10","05","30","Europe/Kiev","2:30 AM GMT on June 10, 2016","2016","06","10","02","30","UTC","13.0","55.4","11.0","51.8","88","7.2","4.5","-9999.0","-9999.0","210","SSW","-9999.0","-9999.0","1010","29.83","-999","-999","-9999","-9999","-9999.00","-9999.00","Clear","clear","0","0","0","0","0","0","METAR UKKK 100230Z 21002MPS CAVOK 13/11 Q1010 R26/CLRD70 NOSIG"
"6:00 AM EEST on June 10, 2016","2016","06","10","06","00","Europe/Kiev","3:00 AM GMT on June 10, 2016","2016","06","10","03","00","UTC","13","56","11","52","82","3.6","2.2","","","220","SW","20","12","1011","29.85","-999","-999","-9999","-9999","","","Partly Cloudy","partlycloudy","0","0","0","0","0","0","AAXX 10031 33345 41998 52201 10134 20111 39909 40107 57006 70262 83081 555 10013"
"6:00 AM EEST on June 10, 2016","2016","06","10","06","00","Europe/Kiev","3:00 AM GMT on June 10, 2016","2016","06","10","03","00","UTC","13.0","55.4","11.0","51.8","88","3.6","2.2","-9999.0","-9999.0","250","WSW","-9999.0","-9999.0","1010","29.83","-999","-999","-9999","-9999","-9999.00","-9999.00","Clear","clear","0","0","0","0","0","0","METAR UKKK 100300Z 25001MPS CAVOK 13/11 Q1010 R26/CLRD70 NOSIG"
"6:30 AM EEST on June 10, 2016","2016","06","10","06","30","Europe/Kiev","3:30 AM GMT on June 10, 2016","2016","06","10","03","30","UTC","15.0","59.0","12.0","53.6","82","7.2","4.5","-9999.0","-9999.0","270","West","-9999.0","-9999.0","1010","29.83","-999","-999","-9999","-9999","-9999.00","-9999.00","Clear","clear","0","0","0","0","0","0","METAR UKKK 100330Z 27002MPS CAVOK 15/12 Q1010 R26/CLRD70 NOSIG"
"7:00 AM EEST on June 10, 2016","2016","06","10","07","00","Europe/Kiev","4:00 AM GMT on June 10, 2016","2016","06","10","04","00","UTC","15.0","59.0","12.0","53.6","82","7.2","4.5","-9999.0","-9999.0","240","WSW","-9999.0","-9999.0","1011","29.86","-999","-999","-9999","-9999","-9999.00","-9999.00","Clear","clear","0","0","0","0","0","0","METAR UKKK 100400Z 24002MPS CAVOK 15/12 Q1011 R26/CLRD70 NOSIG"
"7:30 AM EEST on June 10, 2016","2016","06","10","07","30","Europe/Kiev","4:30 AM GMT on June 10, 2016","2016","06","10","04","30","UTC","16.0","60.8","12.0","53.6","77","10.8","6.7","-9999.0","-9999.0","250","WSW","-9999.0","-9999.0","1011","29.86","-999","-999","-9999","-9999","-9999.00","-9999.00","Clear","clear","0","0","0","0","0","0","METAR UKKK 100430Z 25003MPS CAVOK 16/12 Q1011 R26/CLRD70 NOSIG"
"8:00 AM EEST on June 10, 2016","2016","06","10","08","00","Europe/Kiev","5:00 AM GMT on June 10, 2016","2016","06","10","05","00","UTC","16.0","60.8","12.0","53.6","77","10.8","6.7","-9999.0","-9999.0","280","West","-9999.0","-9999.0","1011","29.86","-999","-999","-9999","-9999","-9999.00","-9999.00","Clear","clear","0","0","0","0","0","0","METAR UKKK 100500Z 28003MPS CAVOK 16/12 Q1011 R26/CLRD70 NOSIG"
"8:30 AM EEST on June 10, 2016","2016","06","10","08","30","Europe/Kiev","5:30 AM GMT on June 10, 2016","2016","06","10","05","30","UTC","17.0","62.6","13.0","55.4","77","7.2","4.5","-9999.0","-9999.0","240","WSW","-9999.0","-9999.0","1011","29.86","-999","-999","-9999","-9999","-9999.00","-9999.00","Clear","clear","0","0","0","0","0","0","METAR UKKK 100530Z 24002MPS 180V310 CAVOK 17/13 Q1011 R26/CLRD70 NOSIG"
"9:00 AM EEST on June 10, 2016","2016","06","10","09","00","Europe/Kiev","6:00 AM GMT on June 10, 2016","2016","06","10","06","00","UTC","18","64","12","54","62","7.2","4.5","","","240","WSW","20","12","1011","29.86","-999","-999","-9999","-9999","","","Partly Cloudy","partlycloudy","0","0","0","0","0","0","AAXX 10061 33345 11598 52402 10175 20123 39914 40110 53005 69902 70262 82131 333 20132 555 10030"
"9:00 AM EEST on June 10, 2016","2016","06","10","09","00","Europe/Kiev","6:00 AM GMT on June 10, 2016","2016","06","10","06","00","UTC","18.0","64.4","13.0","55.4","73","10.8","6.7","-9999.0","-9999.0","220","SW","-9999.0","-9999.0","1011","29.86","-999","-999","-9999","-9999","-9999.00","-9999.00","Clear","clear","0","0","0","0","0","0","METAR UKKK 100600Z 22003MPS 170V280 CAVOK 18/13 Q1011 R26/CLRD70 NOSIG"
"9:30 AM EEST on June 10, 2016","2016","06","10","09","30","Europe/Kiev","6:30 AM GMT on June 10, 2016","2016","06","10","06","30","UTC","18.0","64.4","14.0","57.2","77","7.2","4.5","-9999.0","-9999.0","250","WSW","10.0","6.2","1011","29.86","-999","-999","-9999","-9999","-9999.00","-9999.00","Partly Cloudy","partlycloudy","0","0","0","0","0","0","METAR UKKK 100630Z 25002MPS 170V310 9999 FEW021 18/14 Q1011 R26/CLRD70 NOSIG"
"10:00 AM EEST on June 10, 2016","2016","06","10","10","00","Europe/Kiev","7:00 AM GMT on June 10, 2016","2016","06","10","07","00","UTC","19.0","66.2","13.0","55.4","68","7.2","4.5","-9999.0","-9999.0","240","WSW","10.0","6.2","1011","29.86","-999","-999","-9999","-9999","-9999.00","-9999.00","Partly Cloudy","partlycloudy","0","0","0","0","0","0","METAR UKKK 100700Z 24002MPS 9999 FEW024 19/13 Q1011 R08/CLRD70 NOSIG"
"10:30 AM EEST on June 10, 2016","2016","06","10","10","30","Europe/Kiev","7:30 AM GMT on June 10, 2016","2016","06","10","07","30","UTC","20.0","68.0","13.0","55.4","64","7.2","4.5","-9999.0","-9999.0","250","WSW","-9999.0","-9999.0","1011","29.86","-999","-999","-9999","-9999","-9999.00","-9999.00","Clear","clear","0","0","0","0","0","0","METAR UKKK 100730Z 25002MPS CAVOK 20/13 Q1011 R26/CLRD70 NOSIG"
"11:00 AM EEST on June 10, 2016","2016","06","10","11","00","Europe/Kiev","8:00 AM GMT on June 10, 2016","2016","06","10","08","00","UTC","20.0","68.0","11.0","51.8","56","10.8","6.7","-9999.0","-9999.0","260","West","10.0","6.2","1011","29.86","-999","-999","-9999","-9999","-9999.00","-9999.00","Scattered Clouds","partlycloudy","0","0","0","0","0","0","METAR UKKK 100800Z 26003MPS 230V300 9999 SCT033 20/11 Q1011 R26/CLRD70 NOSIG"
"11:30 AM EEST on June 10, 2016","2016","06","10","11","30","Europe/Kiev","8:30 AM GMT on June 10, 2016","2016","06","10","08","30","UTC","21.0","69.8","12.0","53.6","56","10.8","6.7","-9999.0","-9999.0","220","SW","9.0","5.6","1011","29.86","-999","-999","-9999","-9999","-9999.00","-9999.00","Scattered Clouds","partlycloudy","0","0","0","0","0","0","METAR UKKK 100830Z 22003MPS 180V330 9000 SCT038 21/12 Q1011 R26/CLRD70 NOSIG"
"12:00 PM EEST on June 10, 2016","2016","06","10","12","00","Europe/Kiev","9:00 AM GMT on June 10, 2016","2016","06","10","09","00","UTC","21","69","12","53","47","7.2","4.5","","","210","SSW","20","12","1010","29.84","-999","-999","-9999","-9999","","","Mostly Cloudy","mostlycloudy","0","0","0","0","0","0","AAXX 10091 33345 42598 72102 10208 20117 39910 40103 58004 87200 555 10035"
"12:00 PM EEST on June 10, 2016","2016","06","10","12","00","Europe/Kiev","9:00 AM GMT on June 10, 2016","2016","06","10","09","00","UTC","21.0","69.8","12.0","53.6","56","10.8","6.7","-9999.0","-9999.0","190","South","10.0","6.2","1010","29.83","-999","-999","-9999","-9999","-9999.00","-9999.00","Scattered Clouds","partlycloudy","0","0","0","0","0","0","METAR UKKK 100900Z 19003MPS 150V250 9999 SCT046 21/12 Q1010 R26/CLRD70 NOSIG"
"12:30 PM EEST on June 10, 2016","2016","06","10","12","30","Europe/Kiev","9:30 AM GMT on June 10, 2016","2016","06","10","09","30","UTC","21.0","69.8","11.0","51.8","53","10.8","6.7","-9999.0","-9999.0","240","WSW","10.0","6.2","1010","29.83","-999","-999","-9999","-9999","-9999.00","-9999.00","Scattered Clouds","partlycloudy","0","0","0","0","0","0","METAR UKKK 100930Z 24003MPS 9999 SCT046 21/11 Q1010 R26/CLRD70 NOSIG"
"1:00 PM EEST on June 10, 2016","2016","06","10","13","00","Europe/Kiev","10:00 AM GMT on June 10, 2016","2016","06","10","10","00","UTC","21.0","69.8","11.0","51.8","53","10.8","6.7","-9999.0","-9999.0","200","SSW","10.0","6.2","1010","29.83","-999","-999","-9999","-9999","-9999.00","-9999.00","Scattered Clouds","partlycloudy","0","0","0","0","0","0","METAR UKKK 101000Z 20003MPS 160V260 9999 SCT045 21/11 Q1010 R26/CLRD70 NOSIG"
"1:30 PM EEST on June 10, 2016","2016","06","10","13","30","Europe/Kiev","10:30 AM GMT on June 10, 2016","2016","06","10","10","30","UTC","21.0","69.8","11.0","51.8","53","10.8","6.7","-9999.0","-9999.0","210","SSW","10.0","6.2","1010","29.83","-999","-999","-9999","-9999","-9999.00","-9999.00","Mostly Cloudy","mostlycloudy","0","0","0","0","0","0","METAR UKKK 101030Z 21003MPS 160V250 9999 BKN046 21/11 Q1010 R26/CLRD70 NOSIG"
"2:00 PM EEST on June 10, 2016","2016","06","10","14","00","Europe/Kiev","11:00 AM GMT on June 10, 2016","2016","06","10","11","00","UTC","22.0","71.6","12.0","53.6","53","14.4","8.9","-9999.0","-9999.0","210","SSW","10.0","6.2","1010","29.83","-999","-999","-9999","-9999","-9999.00","-9999.00","Mostly Cloudy","mostlycloudy","0","0","0","0","0","0","METAR UKKK 101100Z 21004MPS 180V260 9999 BKN027 22/12 Q1010 R26/CLRD70 TEMPO VRB10G17MPS 2100 -TSRAGR SQ BKN015CB"
"2:28 PM EEST on June 10, 2016","2016","06","10","14","28","Europe/Kiev","11:28 AM GMT on June 10, 2016","2016","06","10","11","28","UTC","22.0","71.6","12.0","53.6","53","18.0","11.2","-9999.0","-9999.0","210","SSW","10.0","6.2","1009","29.80","-999","-999","-9999","-9999","-9999.00","-9999.00","Thunderstorm","tstorms","0","0","0","0","1","0","SPECI UKKK 101128Z 21005MPS 140V250 9999 TS SCT030CB BKN046 22/12 Q1009 R26/CLRD70 TEMPO VRB10G17MPS 2100 -TSRAGR SQ BKN015CB"
"2:30 PM EEST on June 10, 2016","2016","06","10","14","30","Europe/Kiev","11:30 AM GMT on June 10, 2016","2016","06","10","11","30","UTC","22.0","71.6","12.0","53.6","53","14.4","8.9","-9999.0","-9999.0","210","SSW","10.0","6.2","1009","29.80","-999","-999","-9999","-9999","-9999.00","-9999.00","Thunderstorm","tstorms","0","0","0","0","1","0","METAR UKKK 101130Z 21004MPS 140V250 9999 TS SCT030CB BKN046 22/12 Q1009 R26/CLRD70 TEMPO VRB10G17MPS 2100 -TSRAGR SQ BKN015CB"
"3:00 PM EEST on June 10, 2016","2016","06","10","15","00","Europe/Kiev","12:00 PM GMT on June 10, 2016","2016","06","10","12","00","UTC","22","72","11","52","39","10.8","6.7","","","200","SSW","20","12","1008","29.78","-999","-999","-9999","-9999","","","Mostly Cloudy","mostlycloudy","0","0","0","0","0","0","AAXX 10121 33345 32598 72003 10220 20113 39892 40084 57018 87900 555 10042"
"3:00 PM EEST on June 10, 2016","2016","06","10","15","00","Europe/Kiev","12:00 PM GMT on June 10, 2016","2016","06","10","12","00","UTC","21.0","69.8","11.0","51.8","53","14.4","8.9","-9999.0","-9999.0","210","SSW","10.0","6.2","1009","29.80","-999","-999","-9999","-9999","-9999.00","-9999.00","Thunderstorm","tstorms","0","0","0","0","1","0","METAR UKKK 101200Z 21004MPS 160V260 9999 TS SCT030CB BKN046 21/11 Q1009 R26/CLRD70 TEMPO VRB10G17MPS 2100 -TSRAGR SQ BKN015CB"
"3:30 PM EEST on June 10, 2016","2016","06","10","15","30","Europe/Kiev","12:30 PM GMT on June 10, 2016","2016","06","10","12","30","UTC","22.0","71.6","11.0","51.8","50","14.4","8.9","-9999.0","-9999.0","200","SSW","10.0","6.2","1008","29.77","-999","-999","-9999","-9999","-9999.00","-9999.00","Light Thunderstorms and Rain","tstorms","0","1","0","0","1","0","METAR UKKK 101230Z 20004MPS 140V240 9999 -TSRA SCT030CB BKN046 22/11 Q1008 R26/190060 TEMPO VRB10G17MPS 2100 -TSRAGR SQ BKN015CB"
"4:00 PM EEST on June 10, 2016","2016","06","10","16","00","Europe/Kiev","1:00 PM GMT on June 10, 2016","2016","06","10","13","00","UTC","18.0","64.4","12.0","53.6","68","14.4","8.9","-9999.0","-9999.0","40","NE","10.0","6.2","1008","29.77","-999","-999","-9999","-9999","-9999.00","-9999.00","Light Thunderstorms and Rain","tstorms","0","1","0","0","1","0","METAR UKKK 101300Z 04004MPS 360V070 9999 -TSRA SCT030CB BKN046 18/12 Q1008 R26/190060 TEMPO VRB10G17MPS 2100 -TSRAGR SQ BKN015CB"
"4:21 PM EEST on June 10, 2016","2016","06","10","16","21","Europe/Kiev","1:21 PM GMT on June 10, 2016","2016","06","10","13","21","UTC","19.0","66.2","13.0","55.4","68","10.8","6.7","-9999.0","-9999.0","80","East","10.0","6.2","1008","29.77","-999","-999","-9999","-9999","-9999.00","-9999.00","Scattered Clouds","partlycloudy","0","0","0","0","0","0","SPECI UKKK 101321Z 08003MPS 010V140 9999 SCT030CB 19/13 Q1008 RETS R26/190060 TEMPO VRB10G17MPS 2100 -TSRAGR SQ BKN015CB"
"4:30 PM EEST on June 10, 2016","2016","06","10","16","30","Europe/Kiev","1:30 PM GMT on June 10, 2016","2016","06","10","13","30","UTC","18.0","64.4","13.0","55.4","73","10.8","6.7","-9999.0","-9999.0","100","East","10.0","6.2","1008","29.77","-999","-999","-9999","-9999","-9999.00","-9999.00","Mostly Cloudy","mostlycloudy","0","0","0","0","0","0","METAR UKKK 101330Z 10003MPS 080V150 9999 SCT030CB BKN049 18/13 Q1008 R08/190060 TEMPO VRB10G17MPS 2100 -TSRAGR SQ BKN015CB"
"5:00 PM EEST on June 10, 2016","2016","06","10","17","00","Europe/Kiev","2:00 PM GMT on June 10, 2016","2016","06","10","14","00","UTC","21.0","69.8","11.0","51.8","53","14.4","8.9","-9999.0","-9999.0","180","South","10.0","6.2","1008","29.77","-999","-999","-9999","-9999","-9999.00","-9999.00","Mostly Cloudy","mostlycloudy","0","0","0","0","0","0","METAR UKKK 101400Z 18004MPS 090V250 9999 SCT030CB BKN049 21/11 Q1008 R08/190060 TEMPO VRB10G17MPS 2100 -TSRAGR SQ BKN015CB"
"5:17 PM EEST on June 10, 2016","2016","06","10","17","17","Europe/Kiev","2:17 PM GMT on June 10, 2016","2016","06","10","14","17","UTC","21.0","69.8","11.0","51.8","53","18.0","11.2","46.8","29.1","210","SSW","10.0","6.2","1009","29.80","-999","-999","-9999","-9999","-9999.00","-9999.00","Thunderstorm","tstorms","0","0","0","0","1","0","SPECI UKKK 101417Z 21005G13MPS 170V240 9999 TS BKN030CB BKN050 21/11 Q1009 R26/190060 TEMPO VRB12G20MPS 0400 +TSRAGR SQ BKN005 BKN015CB"
"5:21 PM EEST on June 10, 2016","2016","06","10","17","21","Europe/Kiev","2:21 PM GMT on June 10, 2016","2016","06","10","14","21","UTC","18.0","64.4","12.0","53.6","68","25.2","15.7","57.6","35.8","230","SW","8.0","5.0","1009","29.80","-999","-999","-9999","-9999","-9999.00","-9999.00","Light Thunderstorms and Rain","tstorms","0","1","0","0","1","0","SPECI UKKK 101421Z 23007G16MPS 190V300 8000 -TSRA BKN030CB BKN050 18/12 Q1009 R26/190060 TEMPO VRB12G20MPS 0400 +TSRAGR SQ BKN005 BKN015CB"
"5:23 PM EEST on June 10, 2016","2016","06","10","17","23","Europe/Kiev","2:23 PM GMT on June 10, 2016","2016","06","10","14","23","UTC","16.0","60.8","12.0","53.6","77","32.4","20.1","79.2","49.2","240","WSW","8.0","5.0","1010","29.83","-999","-999","-9999","-9999","-9999.00","-9999.00","Light Thunderstorms and Rain","tstorms","0","1","0","0","1","0","SPECI UKKK 101423Z 24009G22MPS 190V300 8000 -TSRA BKN030CB BKN050 16/12 Q1010 R26/190060 TEMPO VRB17G25MPS 0400 +TSRAGR SQ BKN005 BKN015CB"
"5:30 PM EEST on June 10, 2016","2016","06","10","17","30","Europe/Kiev","2:30 PM GMT on June 10, 2016","2016","06","10","14","30","UTC","14.0","57.2","12.0","53.6","88","50.4","31.3","79.2","49.2","300","WNW","5.0","3.1","1010","29.83","-999","-999","-9999","-9999","-9999.00","-9999.00","Light Thunderstorms and Rain","tstorms","0","1","0","0","1","0","METAR UKKK 101430Z 30014G22MPS 250V330 5000 -TSRA SCT016 BKN026CB 14/12 Q1010 R26/290256 TEMPO VRB17G25MPS 0400 +TSRAGR SQ BKN005 BKN015CB"
"5:44 PM EEST on June 10, 2016","2016","06","10","17","44","Europe/Kiev","2:44 PM GMT on June 10, 2016","2016","06","10","14","44","UTC","14.0","57.2","12.0","53.6","88","25.2","15.7","-9999.0","-9999.0","320","NW","10.0","6.2","1010","29.83","-999","-999","-9999","-9999","-9999.00","-9999.00","Light Thunderstorms and Rain","tstorms","0","1","0","0","1","0","SPECI UKKK 101444Z 32007MPS 9999 -TSRA BKN030CB BKN046 14/12 Q1010 R26/290256 TEMPO VRB17G25MPS 0400 +TSRAGR SQ BKN005 BKN015CB"
"6:00 PM EEST on June 10, 2016","2016","06","10","18","00","Europe/Kiev","3:00 PM GMT on June 10, 2016","2016","06","10","15","00","UTC","15","59","13","55","82","10.8","6.7","","","330","NNW","20","12","1010","29.82","-999","-999","-9999","-9999","","","Thunderstorms and Rain","tstorms","0","1","0","0","1","0","AAXX 10151 33345 41498 83303 10150 20128 39899 40096 53007 79598 889// 333 88916 555 11017"
"6:00 PM EEST on June 10, 2016","2016","06","10","18","00","Europe/Kiev","3:00 PM GMT on June 10, 2016","2016","06","10","15","00","UTC","14.0","57.2","13.0","55.4","94","21.6","13.4","-9999.0","-9999.0","320","NW","6.0","3.7","1010","29.83","-999","-999","-9999","-9999","-9999.00","-9999.00","Light Thunderstorms and Rain","tstorms","0","1","0","0","1","0","METAR UKKK 101500Z 32006MPS 6000 -TSRA BKN023CB BKN046 14/13 Q1010 WS RWY26 R26/290256 TEMPO VRB17G25MPS 0400 +TSRAGR SQ BKN005 BKN015CB"
"6:30 PM EEST on June 10, 2016","2016","06","10","18","30","Europe/Kiev","3:30 PM GMT on June 10, 2016","2016","06","10","15","30","UTC","14.0","57.2","13.0","55.4","94","7.2","4.5","-9999.0","-9999.0","250","WSW","8.0","5.0","1010","29.83","-999","-999","-9999","-9999","-9999.00","-9999.00","Light Thunderstorms and Rain","tstorms","0","1","0","0","1","0","METAR UKKK 101530Z 25002MPS 220V280 8000 -TSRA BKN026CB BKN056 14/13 Q1010 R08/290354 TEMPO VRB17G25MPS 0400 +TSRAGR SQ BKN005 BKN015CB"
"6:40 PM EEST on June 10, 2016","2016","06","10","18","40","Europe/Kiev","3:40 PM GMT on June 10, 2016","2016","06","10","15","40","UTC","14.0","57.2","13.0","55.4","94","0.0","0.0","-9999.0","-9999.0","0","North","5.0","3.1","1009","29.80","-999","-999","-9999","-9999","-9999.00","-9999.00","Light Rain Showers","rain","0","1","0","0","0","0","SPECI UKKK 101540Z 00000MPS 5000 -SHRA BKN026CB BKN056 14/13 Q1009 RETS R08/290354 TEMPO VRB17G25MPS 0400 +TSRAGR SQ BKN005 BKN015CB"
"7:00 PM EEST on June 10, 2016","2016","06","10","19","00","Europe/Kiev","4:00 PM GMT on June 10, 2016","2016","06","10","16","00","UTC","14.0","57.2","14.0","57.2","100","7.2","4.5","-9999.0","-9999.0","130","SE","9.0","5.6","1009","29.80","-999","-999","-9999","-9999","-9999.00","-9999.00","Light Rain Showers","rain","0","1","0","0","0","0","METAR UKKK 101600Z 13002MPS 090V200 9000 -SHRA SCT026CB BKN056 14/14 Q1009 R08/290354 TEMPO VRB17G25MPS 0400 +TSRAGR SQ BKN005 BKN015CB"
"7:30 PM EEST on June 10, 2016","2016","06","10","19","30","Europe/Kiev","4:30 PM GMT on June 10, 2016","2016","06","10","16","30","UTC","15.0","59.0","14.0","57.2","94","7.2","4.5","-9999.0","-9999.0","100","East","10.0","6.2","1009","29.80","-999","-999","-9999","-9999","-9999.00","-9999.00","Scattered Clouds","partlycloudy","0","0","0","0","0","0","METAR UKKK 101630Z 10002MPS 080V180 9999 SCT030CB 15/14 Q1009 R08/290354 TEMPO VRB17G25MPS 0400 +TSRAGR SQ BKN005 BKN015CB"
"8:00 PM EEST on June 10, 2016","2016","06","10","20","00","Europe/Kiev","5:00 PM GMT on June 10, 2016","2016","06","10","17","00","UTC","15.0","59.0","14.0","57.2","94","7.2","4.5","-9999.0","-9999.0","110","ESE","8.0","5.0","1008","29.77","-999","-999","-9999","-9999","-9999.00","-9999.00","Partly Cloudy","partlycloudy","0","0","0","0","0","0","METAR UKKK 101700Z 11002MPS 080V160 8000 FEW030CB 15/14 Q1008 R08/290354 TEMPO VRB17G25MPS 0400 +TSRAGR SQ BKN005 BKN015CB"
"8:30 PM EEST on June 10, 2016","2016","06","10","20","30","Europe/Kiev","5:30 PM GMT on June 10, 2016","2016","06","10","17","30","UTC","15.0","59.0","13.0","55.4","88","7.2","4.5","-9999.0","-9999.0","190","South","10.0","6.2","1009","29.80","-999","-999","-9999","-9999","-9999.00","-9999.00","Partly Cloudy","partlycloudy","0","0","0","0","0","0","METAR UKKK 101730Z 19002MPS 150V230 9999 FEW030CB 15/13 Q1009 R08/290354 TEMPO VRB17G25MPS 0400 +TSRAGR SQ BKN005 BKN015CB"
"9:00 PM EEST on June 10, 2016","2016","06","10","21","00","Europe/Kiev","6:00 PM GMT on June 10, 2016","2016","06","10","18","00","UTC","14","58","13","56","89","10.8","6.7","","","170","South","20","12","1009","29.80","-999","-999","-9999","-9999","","","Partly Cloudy","partlycloudy","0","0","0","0","0","0","AAXX 10181 33345 11598 61703 10142 20131 39892 40089 58007 60062 70298 82960 333 10232 555 11016"
"9:00 PM EEST on June 10, 2016","2016","06","10","21","00","Europe/Kiev","6:00 PM GMT on June 10, 2016","2016","06","10","18","00","UTC","14.0","57.2","14.0","57.2","100","3.6","2.2","-9999.0","-9999.0","0","Variable","10.0","6.2","1009","29.80","-999","-999","-9999","-9999","-9999.00","-9999.00","Partly Cloudy","partlycloudy","0","0","0","0","0","0","METAR UKKK 101800Z VRB01MPS 9999 FEW030CB 14/14 Q1009 R08/290256 NOSIG"
"9:30 PM EEST on June 10, 2016","2016","06","10","21","30","Europe/Kiev","6:30 PM GMT on June 10, 2016","2016","06","10","18","30","UTC","14.0","57.2","13.0","55.4","94","10.8","6.7","-9999.0","-9999.0","180","South","10.0","6.2","1008","29.77","-999","-999","-9999","-9999","-9999.00","-9999.00","Mostly Cloudy","mostlycloudy","0","0","0","0","0","0","METAR UKKK 101830Z 18003MPS 140V250 9999 FEW030CB BKN050 14/13 Q1008 R08/290256 NOSIG"
"10:00 PM EEST on June 10, 2016","2016","06","10","22","00","Europe/Kiev","7:00 PM GMT on June 10, 2016","2016","06","10","19","00","UTC","15.0","59.0","13.0","55.4","88","7.2","4.5","-9999.0","-9999.0","200","SSW","10.0","6.2","1008","29.77","-999","-999","-9999","-9999","-9999.00","-9999.00","Mostly Cloudy","mostlycloudy","0","0","0","0","0","0","METAR UKKK 101900Z 20002MPS 150V250 9999 FEW030CB BKN050 15/13 Q1008 R08/290158 NOSIG"
"10:30 PM EEST on June 10, 2016","2016","06","10","22","30","Europe/Kiev","7:30 PM GMT on June 10, 2016","2016","06","10","19","30","UTC","14.0","57.2","13.0","55.4","94","10.8","6.7","-9999.0","-9999.0","200","SSW","-9999.0","-9999.0","1008","29.77","-999","-999","-9999","-9999","-9999.00","-9999.00","Clear","clear","0","0","0","0","0","0","METAR UKKK 101930Z 20003MPS 120V280 CAVOK 14/13 Q1008 R08/290158 NOSIG"
"11:00 PM EEST on June 10, 2016","2016","06","10","23","00","Europe/Kiev","8:00 PM GMT on June 10, 2016","2016","06","10","20","00","UTC","14.0","57.2","13.0","55.4","94","10.8","6.7","-9999.0","-9999.0","190","South","-9999.0","-9999.0","1008","29.77","-999","-999","-9999","-9999","-9999.00","-9999.00","Clear","clear","0","0","0","0","0","0","METAR UKKK 102000Z 19003MPS 150V280 CAVOK 14/13 Q1008 R08/190060 NOSIG"
"11:30 PM EEST on June 10, 2016","2016","06","10","23","30","Europe/Kiev","8:30 PM GMT on June 10, 2016","2016","06","10","20","30","UTC","14.0","57.2","13.0","55.4","94","7.2","4.5","-9999.0","-9999.0","190","South","-9999.0","-9999.0","1008","29.77","-999","-999","-9999","-9999","-9999.00","-9999.00","Clear","clear","0","0","0","0","0","0","METAR UKKK 102030Z 19002MPS 140V260 CAVOK 14/13 Q1008 R08/190060 NOSIG"
"12:00 AM EEST on June 11, 2016","2016","06","11","00","00","Europe/Kiev","9:00 PM GMT on June 10, 2016","2016","06","10","21","00","UTC","14","57","13","55","92","10.8","6.7","","","190","South","10","6","1008","29.78","-999","-999","-9999","-9999","","","Mostly Cloudy","mostlycloudy","0","0","0","0","0","0","AAXX 10211 33345 42997 71903 10140 20129 39885 40082 57007 87030 555 11014"
"12:00 AM EEST on June 11, 2016","2016","06","11","00","00","Europe/Kiev","9:00 PM GMT on June 10, 2016","2016","06","10","21","00","UTC","14.0","57.2","13.0","55.4","94","7.2","4.5","-9999.0","-9999.0","200","SSW","-9999.0","-9999.0","1008","29.77","-999","-999","-9999","-9999","-9999.00","-9999.00","Clear","clear","0","0","0","0","0","0","METAR UKKK 102100Z 20002MPS 140V270 CAVOK 14/13 Q1008 R08/190060 NOSIG"
"12:30 AM EEST on June 11, 2016","2016","06","11","00","30","Europe/Kiev","9:30 PM GMT on June 10, 2016","2016","06","10","21","30","UTC","14.0","57.2","13.0","55.4","94","7.2","4.5","-9999.0","-9999.0","200","SSW","-9999.0","-9999.0","1008","29.77","-999","-999","-9999","-9999","-9999.00","-9999.00","Clear","clear","0","0","0","0","0","0","METAR UKKK 102130Z 20002MPS 150V250 CAVOK 14/13 Q1008 R08/190060 NOSIG"
"1:00 AM EEST on June 11, 2016","2016","06","11","01","00","Europe/Kiev","10:00 PM GMT on June 10, 2016","2016","06","10","22","00","UTC","14.0","57.2","13.0","55.4","94","7.2","4.5","-9999.0","-9999.0","210","SSW","-9999.0","-9999.0","1007","29.74","-999","-999","-9999","-9999","-9999.00","-9999.00","Clear","clear","0","0","0","0","0","0","METAR UKKK 102200Z 21002MPS CAVOK 14/13 Q1007 R08/190060 NOSIG"
"1:30 AM EEST on June 11, 2016","2016","06","11","01","30","Europe/Kiev","10:30 PM GMT on June 10, 2016","2016","06","10","22","30","UTC","14.0","57.2","13.0","55.4","94","10.8","6.7","-9999.0","-9999.0","210","SSW","-9999.0","-9999.0","1007","29.74","-999","-999","-9999","-9999","-9999.00","-9999.00","Clear","clear","0","0","0","0","0","0","METAR UKKK 102230Z 21003MPS 160V240 CAVOK 14/13 Q1007 R08/190060 NOSIG"
"2:00 AM EEST on June 11, 2016","2016","06","11","02","00","Europe/Kiev","11:00 PM GMT on June 10, 2016","2016","06","10","23","00","UTC","15.0","59.0","13.0","55.4","88","10.8","6.7","-9999.0","-9999.0","210","SSW","-9999.0","-9999.0","1007","29.74","-999","-999","-9999","-9999","-9999.00","-9999.00","Clear","clear","0","0","0","0","0","0","METAR UKKK 102300Z 21003MPS 170V240 CAVOK 15/13 Q1007 R08/190060 NOSIG"
"2:30 AM EEST on June 11, 2016","2016","06","11","02","30","Europe/Kiev","11:30 PM GMT on June 10, 2016","2016","06","10","23","30","UTC","14.0","57.2","13.0","55.4","94","7.2","4.5","-9999.0","-9999.0","200","SSW","-9999.0","-9999.0","1007","29.74","-999","-999","-9999","-9999","-9999.00","-9999.00","Clear","clear","0","0","0","0","0","0","METAR UKKK 102330Z 20002MPS 150V270 CAVOK 14/13 Q1007 R08/190060 NOSIG"
"3:00 AM EEST on June 11, 2016","2016","06","11","03","00","Europe/Kiev","12:00 AM GMT on June 11, 2016","2016","06","11","00","00","UTC","14","57","13","55","91","10.8","6.7","","","210","SSW","10","6","1008","29.76","-999","-999","-9999","-9999","","","Mostly Cloudy","mostlycloudy","0","0","0","0","0","0","AAXX 11001 33345 32997 62103 10139 20128 39879 40076 57006 86030 555 11013"
"3:00 AM EEST on June 11, 2016","2016","06","11","03","00","Europe/Kiev","12:00 AM GMT on June 11, 2016","2016","06","11","00","00","UTC","14.0","57.2","13.0","55.4","94","10.8","6.7","-9999.0","-9999.0","210","SSW","-9999.0","-9999.0","1007","29.74","-999","-999","-9999","-9999","-9999.00","-9999.00","Clear","clear","0","0","0","0","0","0","METAR UKKK 110000Z 21003MPS 160V260 CAVOK 14/13 Q1007 R08/190060 NOSIG"
"3:30 AM EEST on June 11, 2016","2016","06","11","03","30","Europe/Kiev","12:30 AM GMT on June 11, 2016","2016","06","11","00","30","UTC","14.0","57.2","13.0","55.4","94","10.8","6.7","-9999.0","-9999.0","220","SW","-9999.0","-9999.0","1007","29.74","-999","-999","-9999","-9999","-9999.00","-9999.00","Clear","clear","0","0","0","0","0","0","METAR UKKK 110030Z 22003MPS 190V250 CAVOK 14/13 Q1007 R26/190060 NOSIG"
"4:00 AM EEST on June 11, 2016","2016","06","11","04","00","Europe/Kiev","1:00 AM GMT on June 11, 2016","2016","06","11","01","00","UTC","14.0","57.2","13.0","55.4","94","14.4","8.9","-9999.0","-9999.0","220","SW","-9999.0","-9999.0","1007","29.74","-999","-999","-9999","-9999","-9999.00","-9999.00","Clear","clear","0","0","0","0","0","0","METAR UKKK 110100Z 22004MPS 190V250 CAVOK 14/13 Q1007 R26/190060 NOSIG"
"4:30 AM EEST on June 11, 2016","2016","06","11","04","30","Europe/Kiev","1:30 AM GMT on June 11, 2016","2016","06","11","01","30","UTC","14.0","57.2","13.0","55.4","94","10.8","6.7","-9999.0","-9999.0","220","SW","-9999.0","-9999.0","1007","29.74","-999","-999","-9999","-9999","-9999.00","-9999.00","Clear","clear","0","0","0","0","0","0","METAR UKKK 110130Z 22003MPS 200V260 CAVOK 14/13 Q1007 R26/190060 NOSIG"
"5:00 AM EEST on June 11, 2016","2016","06","11","05","00","Europe/Kiev","2:00 AM GMT on June 11, 2016","2016","06","11","02","00","UTC","14.0","57.2","13.0","55.4","94","10.8","6.7","-9999.0","-9999.0","220","SW","-9999.0","-9999.0","1007","29.74","-999","-999","-9999","-9999","-9999.00","-9999.00","Clear","clear","0","0","0","0","0","0","METAR UKKK 110200Z 22003MPS 180V250 CAVOK 14/13 Q1007 R26/190060 NOSIG"
"5:30 AM EEST on June 11, 2016","2016","06","11","05","30","Europe/Kiev","2:30 AM GMT on June 11, 2016","2016","06","11","02","30","UTC","14.0","57.2","13.0","55.4","94","10.8","6.7","-9999.0","-9999.0","220","SW","-9999.0","-9999.0","1007","29.74","-999","-999","-9999","-9999","-9999.00","-9999.00","Clear","clear","0","0","0","0","0","0","METAR UKKK 110230Z 22003MPS 190V250 CAVOK 14/13 Q1007 R26/190060 NOSIG"
"6:00 AM EEST on June 11, 2016","2016","06","11","06","00","Europe/Kiev","3:00 AM GMT on June 11, 2016","2016","06","11","03","00","UTC","14","56","12","54","90","10.8","6.7","","","220","SW","20","12","1007","29.75","-999","-999","-9999","-9999","","","Scattered Clouds","partlycloudy","0","0","0","0","0","0","AAXX 11031 33345 42998 72203 10136 20121 39876 40074 57003 82015 555 11013"
"6:00 AM EEST on June 11, 2016","2016","06","11","06","00","Europe/Kiev","3:00 AM GMT on June 11, 2016","2016","06","11","03","00","UTC","14.0","57.2","13.0","55.4","94","10.8","6.7","-9999.0","-9999.0","220","SW","-9999.0","-9999.0","1007","29.74","-999","-999","-9999","-9999","-9999.00","-9999.00","Clear","clear","0","0","0","0","0","0","METAR UKKK 110300Z 22003MPS 200V260 CAVOK 14/13 Q1007 R26/190060 NOSIG"
"6:30 AM EEST on June 11, 2016","2016","06","11","06","30","Europe/Kiev","3:30 AM GMT on June 11, 2016","2016","06","11","03","30","UTC","14.0","57.2","13.0","55.4","94","10.8","6.7","-9999.0","-9999.0","240","WSW","-9999.0","-9999.0","1007","29.74","-999","-999","-9999","-9999","-9999.00","-9999.00","Clear","clear","0","0","0","0","0","0","METAR UKKK 110330Z 24003MPS 200V280 CAVOK 14/13 Q1007 R26/190060 NOSIG"
"7:00 AM EEST on June 11, 2016","2016","06","11","07","00","Europe/Kiev","4:00 AM GMT on June 11, 2016","2016","06","11","04","00","UTC","14.0","57.2","13.0","55.4","94","14.4","8.9","-9999.0","-9999.0","220","SW","-9999.0","-9999.0","1007","29.74","-999","-999","-9999","-9999","-9999.00","-9999.00","Clear","clear","0","0","0","0","0","0","METAR UKKK 110400Z 22004MPS 190V250 CAVOK 14/13 Q1007 R26/190060 NOSIG"
"7:30 AM EEST on June 11, 2016","2016","06","11","07","30","Europe/Kiev","4:30 AM GMT on June 11, 2016","2016","06","11","04","30","UTC","15.0","59.0","13.0","55.4","88","10.8","6.7","-9999.0","-9999.0","230","SW","-9999.0","-9999.0","1007","29.74","-999","-999","-9999","-9999","-9999.00","-9999.00","Clear","clear","0","0","0","0","0","0","METAR UKKK 110430Z 23003MPS CAVOK 15/13 Q1007 R26/190060 NOSIG"
"8:00 AM EEST on June 11, 2016","2016","06","11","08","00","Europe/Kiev","5:00 AM GMT on June 11, 2016","2016","06","11","05","00","UTC","15.0","59.0","13.0","55.4","88","10.8","6.7","-9999.0","-9999.0","230","SW","-9999.0","-9999.0","1008","29.77","-999","-999","-9999","-9999","-9999.00","-9999.00","Clear","clear","0","0","0","0","0","0","METAR UKKK 110500Z 23003MPS CAVOK 15/13 Q1008 R26/190060 NOSIG"
"8:30 AM EEST on June 11, 2016","2016","06","11","08","30","Europe/Kiev","5:30 AM GMT on June 11, 2016","2016","06","11","05","30","UTC","16.0","60.8","13.0","55.4","82","10.8","6.7","-9999.0","-9999.0","240","WSW","-9999.0","-9999.0","1008","29.77","-999","-999","-9999","-9999","-9999.00","-9999.00","Clear","clear","0","0","0","0","0","0","METAR UKKK 110530Z 24003MPS CAVOK 16/13 Q1008 R26/CLRD70 NOSIG"
"9:00 AM EEST on June 11, 2016","2016","06","11","09","00","Europe/Kiev","6:00 AM GMT on June 11, 2016","2016","06","11","06","00","UTC","16","61","13","55","75","10.8","6.7","","","230","SW","20","12","1008","29.77","-999","-999","-9999","-9999","","","Mostly Cloudy","mostlycloudy","0","0","0","0","0","0","AAXX 11061 33345 32998 72303 10162 20128 39883 40079 53007 87070 333 20134 555 11020"
"9:00 AM EEST on June 11, 2016","2016","06","11","09","00","Europe/Kiev","6:00 AM GMT on June 11, 2016","2016","06","11","06","00","UTC","16.0","60.8","13.0","55.4","82","18.0","11.2","-9999.0","-9999.0","240","WSW","-9999.0","-9999.0","1008","29.77","-999","-999","-9999","-9999","-9999.00","-9999.00","Clear","clear","0","0","0","0","0","0","METAR UKKK 110600Z 24005MPS CAVOK 16/13 Q1008 R26/CLRD70 NOSIG"
"9:30 AM EEST on June 11, 2016","2016","06","11","09","30","Europe/Kiev","6:30 AM GMT on June 11, 2016","2016","06","11","06","30","UTC","16.0","60.8","13.0","55.4","82","14.4","8.9","-9999.0","-9999.0","260","West","10.0","6.2","1008","29.77","-999","-999","-9999","-9999","-9999.00","-9999.00","Light Rain Showers","rain","0","1","0","0","0","0","METAR UKKK 110630Z 26004MPS 9999 -SHRA SCT033CB BKN050 16/13 Q1008 R26/CLRD70 NOSIG"
"10:00 AM EEST on June 11, 2016","2016","06","11","10","00","Europe/Kiev","7:00 AM GMT on June 11, 2016","2016","06","11","07","00","UTC","16.0","60.8","13.0","55.4","82","14.4","8.9","-9999.0","-9999.0","260","West","10.0","6.2","1008","29.77","-999","-999","-9999","-9999","-9999.00","-9999.00","Light Rain Showers","rain","0","1","0","0","0","0","METAR UKKK 110700Z 26004MPS 220V290 9999 -SHRA SCT028CB BKN041 16/13 Q1008 R26/190060 NOSIG"
"10:30 AM EEST on June 11, 2016","2016","06","11","10","30","Europe/Kiev","7:30 AM GMT on June 11, 2016","2016","06","11","07","30","UTC","16.0","60.8","13.0","55.4","82","14.4","8.9","-9999.0","-9999.0","260","West","10.0","6.2","1008","29.77","-999","-999","-9999","-9999","-9999.00","-9999.00","Light Rain Showers","rain","0","1","0","0","0","0","METAR UKKK 110730Z 26004MPS 9999 -SHRA SCT030CB BKN046 16/13 Q1008 R26/190060 NOSIG"
"11:00 AM EEST on June 11, 2016","2016","06","11","11","00","Europe/Kiev","8:00 AM GMT on June 11, 2016","2016","06","11","08","00","UTC","16.0","60.8","14.0","57.2","88","10.8","6.7","-9999.0","-9999.0","240","WSW","10.0","6.2","1008","29.77","-999","-999","-9999","-9999","-9999.00","-9999.00","Mostly Cloudy","mostlycloudy","0","0","0","0","0","0","METAR UKKK 110800Z 24003MPS 9999 FEW026CB BKN048 16/14 Q1008 R26/190060 NOSIG"
"11:30 AM EEST on June 11, 2016","2016","06","11","11","30","Europe/Kiev","8:30 AM GMT on June 11, 2016","2016","06","11","08","30","UTC","18.0","64.4","13.0","55.4","73","14.4","8.9","-9999.0","-9999.0","230","SW","10.0","6.2","1008","29.77","-999","-999","-9999","-9999","-9999.00","-9999.00","Mostly Cloudy","mostlycloudy","0","0","0","0","0","0","METAR UKKK 110830Z 23004MPS 180V260 9999 FEW026CB BKN048 18/13 Q1008 R26/190060 NOSIG"
"12:00 PM EEST on June 11, 2016","2016","06","11","12","00","Europe/Kiev","9:00 AM GMT on June 11, 2016","2016","06","11","09","00","UTC","18","64","13","55","65","10.8","6.7","","","210","SSW","20","12","1008","29.77","-999","-999","-9999","-9999","","","Partly Cloudy","partlycloudy","0","0","0","0","0","0","AAXX 11091 33345 41598 72103 10175 20129 39885 40080 51002 70282 85972 555 11022"
"12:00 PM EEST on June 11, 2016","2016","06","11","12","00","Europe/Kiev","9:00 AM GMT on June 11, 2016","2016","06","11","09","00","UTC","18.0","64.4","12.0","53.6","68","14.4","8.9","-9999.0","-9999.0","230","SW","10.0","6.2","1008","29.77","-999","-999","-9999","-9999","-9999.00","-9999.00","Mostly Cloudy","mostlycloudy","0","0","0","0","0","0","METAR UKKK 110900Z 23004MPS 190V270 9999 FEW026CB BKN048 18/12 Q1008 R26/CLRD70 NOSIG"
"12:30 PM EEST on June 11, 2016","2016","06","11","12","30","Europe/Kiev","9:30 AM GMT on June 11, 2016","2016","06","11","09","30","UTC","19.0","66.2","13.0","55.4","68","18.0","11.2","-9999.0","-9999.0","230","SW","10.0","6.2","1008","29.77","-999","-999","-9999","-9999","-9999.00","-9999.00","Mostly Cloudy","mostlycloudy","0","0","0","0","0","0","METAR UKKK 110930Z 23005MPS 200V270 9999 FEW030CB BKN048 19/13 Q1008 R26/CLRD70 NOSIG"
"1:00 PM EEST on June 11, 2016","2016","06","11","13","00","Europe/Kiev","10:00 AM GMT on June 11, 2016","2016","06","11","10","00","UTC","19.0","66.2","12.0","53.6","64","14.4","8.9","-9999.0","-9999.0","240","WSW","10.0","6.2","1007","29.74","-999","-999","-9999","-9999","-9999.00","-9999.00","Mostly Cloudy","mostlycloudy","0","0","0","0","0","0","METAR UKKK 111000Z 24004MPS 210V300 9999 FEW030CB BKN048 19/12 Q1007 R26/CLRD70 NOSIG"
"1:30 PM EEST on June 11, 2016","2016","06","11","13","30","Europe/Kiev","10:30 AM GMT on June 11, 2016","2016","06","11","10","30","UTC","20.0","68.0","13.0","55.4","64","14.4","8.9","-9999.0","-9999.0","250","WSW","10.0","6.2","1007","29.74","-999","-999","-9999","-9999","-9999.00","-9999.00","Mostly Cloudy","mostlycloudy","0","0","0","0","0","0","METAR UKKK 111030Z 25004MPS 200V290 9999 FEW030CB BKN043 20/13 Q1007 R26/CLRD70 NOSIG"
"2:00 PM EEST on June 11, 2016","2016","06","11","14","00","Europe/Kiev","11:00 AM GMT on June 11, 2016","2016","06","11","11","00","UTC","21.0","69.8","10.0","50.0","49","18.0","11.2","-9999.0","-9999.0","270","West","10.0","6.2","1007","29.74","-999","-999","-9999","-9999","-9999.00","-9999.00","Mostly Cloudy","mostlycloudy","0","0","0","0","0","0","METAR UKKK 111100Z 27005MPS 230V300 9999 SCT030CB BKN046 21/10 Q1007 R26/CLRD70 TEMPO VRB10G17MPS -TSRAGR SCT015CB"
"2:10 PM EEST on June 11, 2016","2016","06","11","14","10","Europe/Kiev","11:10 AM GMT on June 11, 2016","2016","06","11","11","10","UTC","18.0","64.4","9.0","48.2","56","25.2","15.7","50.4","31.3","280","West","10.0","6.2","1007","29.74","-999","-999","-9999","-9999","-9999.00","-9999.00","Light Rain Showers","rain","0","1","0","0","0","0","SPECI UKKK 111110Z 28007G14MPS 240V330 9999 -SHRA SCT030CB BKN046 18/09 Q1007 R26/CLRD70 TEMPO VRB10G17MPS -TSRAGR SCT015CB"
"2:30 PM EEST on June 11, 2016","2016","06","11","14","30","Europe/Kiev","11:30 AM GMT on June 11, 2016","2016","06","11","11","30","UTC","14.0","57.2","11.0","51.8","82","18.0","11.2","-9999.0","-9999.0","280","West","9.0","5.6","1008","29.77","-999","-999","-9999","-9999","-9999.00","-9999.00","Light Rain Showers","rain","0","1","0","0","0","0","METAR UKKK 111130Z 28005MPS 9000 -SHRA SCT023CB BKN046 14/11 Q1008 R26/290354 TEMPO VRB10G17MPS -TSRAGR SCT015CB"
"3:00 PM EEST on June 11, 2016","2016","06","11","15","00","Europe/Kiev","12:00 PM GMT on June 11, 2016","2016","06","11","12","00","UTC","15","60","12","54","76","7.2","4.5","","","260","West","20","12","1008","29.76","-999","-999","-9999","-9999","","","Light Rain Showers","rain","0","1","0","0","0","0","AAXX 11121 33345 /1498 72602 10154 20125 39881 40077 58004 72582 86973 555 11019 60021"
"3:00 PM EEST on June 11, 2016","2016","06","11","15","00","Europe/Kiev","12:00 PM GMT on June 11, 2016","2016","06","11","12","00","UTC","16.0","60.8","12.0","53.6","77","7.2","4.5","-9999.0","-9999.0","260","West","10.0","6.2","1007","29.74","-999","-999","-9999","-9999","-9999.00","-9999.00","Mostly Cloudy","mostlycloudy","0","0","0","0","0","0","METAR UKKK 111200Z 26002MPS 230V290 9999 FEW030CB BKN050 16/12 Q1007 R26/290354 TEMPO VRB12G18MPS -TSRAGR BKN020CB"
"3:30 PM EEST on June 11, 2016","2016","06","11","15","30","Europe/Kiev","12:30 PM GMT on June 11, 2016","2016","06","11","12","30","UTC","18.0","64.4","13.0","55.4","73","14.4","8.9","-9999.0","-9999.0","250","WSW","10.0","6.2","1007","29.74","-999","-999","-9999","-9999","-9999.00","-9999.00","Mostly Cloudy","mostlycloudy","0","0","0","0","0","0","METAR UKKK 111230Z 25004MPS 9999 FEW030CB BKN050 18/13 Q1007 R26/290354 TEMPO VRB12G18MPS -TSRAGR BKN020CB"
"4:00 PM EEST on June 11, 2016","2016","06","11","16","00","Europe/Kiev","1:00 PM GMT on June 11, 2016","2016","06","11","13","00","UTC","20.0","68.0","13.0","55.4","64","18.0","11.2","-9999.0","-9999.0","260","West","-9999.0","-9999.0","1007","29.74","-999","-999","-9999","-9999","-9999.00","-9999.00","Clear","clear","0","0","0","0","0","0","METAR UKKK 111300Z 26005MPS CAVOK 20/13 Q1007 R26/190060 TEMPO VRB12G18MPS -TSRAGR BKN020CB"
"4:30 PM EEST on June 11, 2016","2016","06","11","16","30","Europe/Kiev","1:30 PM GMT on June 11, 2016","2016","06","11","13","30","UTC","21.0","69.8","11.0","51.8","53","21.6","13.4","-9999.0","-9999.0","260","West","-9999.0","-9999.0","1007","29.74","-999","-999","-9999","-9999","-9999.00","-9999.00","Clear","clear","0","0","0","0","0","0","METAR UKKK 111330Z 26006MPS CAVOK 21/11 Q1007 R26/190060 TEMPO VRB12G18MPS -TSRAGR BKN020CB"
"5:00 PM EEST on June 11, 2016","2016","06","11","17","00","Europe/Kiev","2:00 PM GMT on June 11, 2016","2016","06","11","14","00","UTC","20.0","68.0","9.0","48.2","49","21.6","13.4","-9999.0","-9999.0","270","West","-9999.0","-9999.0","1007","29.74","-999","-999","-9999","-9999","-9999.00","-9999.00","Clear","clear","0","0","0","0","0","0","METAR UKKK 111400Z 27006MPS 240V300 CAVOK 20/09 Q1007 R26/CLRD70 NOSIG"
"5:30 PM EEST on June 11, 2016","2016","06","11","17","30","Europe/Kiev","2:30 PM GMT on June 11, 2016","2016","06","11","14","30","UTC","19.0","66.2","10.0","50.0","56","21.6","13.4","-9999.0","-9999.0","260","West","-9999.0","-9999.0","1007","29.74","-999","-999","-9999","-9999","-9999.00","-9999.00","Clear","clear","0","0","0","0","0","0","METAR UKKK 111430Z 26006MPS CAVOK 19/10 Q1007 R26/CLRD70 NOSIG"
"6:00 PM EEST on June 11, 2016","2016","06","11","18","00","Europe/Kiev","3:00 PM GMT on June 11, 2016","2016","06","11","15","00","UTC","19","66","10","50","46","18.0","11.2","","","250","WSW","20","12","1007","29.74","-999","-999","-9999","-9999","","","Partly Cloudy","partlycloudy","0","0","0","0","0","0","AAXX 11151 33345 42598 62505 10191 20100 39876 40070 57005 83972 555 11020"
"6:00 PM EEST on June 11, 2016","2016","06","11","18","00","Europe/Kiev","3:00 PM GMT on June 11, 2016","2016","06","11","15","00","UTC","19.0","66.2","8.0","46.4","49","25.2","15.7","43.2","26.8","270","West","-9999.0","-9999.0","1007","29.74","-999","-999","-9999","-9999","-9999.00","-9999.00","Clear","clear","0","0","0","0","0","0","METAR UKKK 111500Z 27007G12MPS CAVOK 19/08 Q1007 R26/CLRD70 NOSIG"
"6:30 PM EEST on June 11, 2016","2016","06","11","18","30","Europe/Kiev","3:30 PM GMT on June 11, 2016","2016","06","11","15","30","UTC","18.0","64.4","7.0","44.6","49","25.2","15.7","-9999.0","-9999.0","290","WNW","10.0","6.2","1008","29.77","-999","-999","-9999","-9999","-9999.00","-9999.00","Partly Cloudy","partlycloudy","0","0","0","0","0","0","METAR UKKK 111530Z 29007MPS 9999 FEW030CB 18/07 Q1008 R26/CLRD70 NOSIG"
"7:00 PM EEST on June 11, 2016","2016","06","11","19","00","Europe/Kiev","4:00 PM GMT on June 11, 2016","2016","06","11","16","00","UTC","17.0","62.6","8.0","46.4","55","25.2","15.7","-9999.0","-9999.0","280","West","10.0","6.2","1008","29.77","-999","-999","-9999","-9999","-9999.00","-9999.00","Light Rain Showers","rain","0","1","0","0","0","0","METAR UKKK 111600Z 28007MPS 9999 -SHRA FEW030CB BKN100 17/08 Q1008 R26/CLRD70 NOSIG"
"7:30 PM EEST on June 11, 2016","2016","06","11","19","30","Europe/Kiev","4:30 PM GMT on June 11, 2016","2016","06","11","16","30","UTC","17.0","62.6","8.0","46.4","55","25.2","15.7","-9999.0","-9999.0","280","West","-9999.0","-9999.0","1008","29.77","-999","-999","-9999","-9999","-9999.00","-9999.00","Clear","clear","0","0","0","0","0","0","METAR UKKK 111630Z 28007MPS CAVOK 17/08 Q1008 R26/CLRD70 NOSIG"
"8:00 PM EEST on June 11, 2016","2016","06","11","20","00","Europe/Kiev","5:00 PM GMT on June 11, 2016","2016","06","11","17","00","UTC","16.0","60.8","8.0","46.4","59","18.0","11.2","-9999.0","-9999.0","270","West","-9999.0","-9999.0","1008","29.77","-999","-999","-9999","-9999","-9999.00","-9999.00","Clear","clear","0","0","0","0","0","0","METAR UKKK 111700Z 27005MPS CAVOK 16/08 Q1008 R26/CLRD70 NOSIG"
"8:30 PM EEST on June 11, 2016","2016","06","11","20","30","Europe/Kiev","5:30 PM GMT on June 11, 2016","2016","06","11","17","30","UTC","16.0","60.8","8.0","46.4","59","18.0","11.2","-9999.0","-9999.0","270","West","-9999.0","-9999.0","1009","29.80","-999","-999","-9999","-9999","-9999.00","-9999.00","Clear","clear","0","0","0","0","0","0","METAR UKKK 111730Z 27005MPS CAVOK 16/08 Q1009 R26/CLRD70 NOSIG"
"9:00 PM EEST on June 11, 2016","2016","06","11","21","00","Europe/Kiev","6:00 PM GMT on June 11, 2016","2016","06","11","18","00","UTC","16","61","7","45","45","10.8","6.7","","","260","West","20","12","1009","29.80","-999","-999","-9999","-9999","","","Mostly Cloudy","mostlycloudy","0","0","0","0","0","0","AAXX 11181 33345 12598 72603 10163 20073 39894 40090 53018 60022 85540 333 10213 555 11014"
"9:00 PM EEST on June 11, 2016","2016","06","11","21","00","Europe/Kiev","6:00 PM GMT on June 11, 2016","2016","06","11","18","00","UTC","16.0","60.8","8.0","46.4","59","18.0","11.2","-9999.0","-9999.0","260","West","-9999.0","-9999.0","1009","29.80","-999","-999","-9999","-9999","-9999.00","-9999.00","Clear","clear","0","0","0","0","0","0","METAR UKKK 111800Z 26005MPS CAVOK 16/08 Q1009 R26/CLRD70 NOSIG"
"9:30 PM EEST on June 11, 2016","2016","06","11","21","30","Europe/Kiev","6:30 PM GMT on June 11, 2016","2016","06","11","18","30","UTC","16.0","60.8","8.0","46.4","59","14.4","8.9","-9999.0","-9999.0","270","West","-9999.0","-9999.0","1009","29.80","-999","-999","-9999","-9999","-9999.00","-9999.00","Clear","clear","0","0","0","0","0","0","METAR UKKK 111830Z 27004MPS CAVOK 16/08 Q1009 R26/CLRD70 NOSIG"
"10:00 PM EEST on June 11, 2016","2016","06","11","22","00","Europe/Kiev","7:00 PM GMT on June 11, 2016","2016","06","11","19","00","UTC","14.0","57.2","9.0","48.2","72","14.4","8.9","-9999.0","-9999.0","270","West","-9999.0","-9999.0","1010","29.83","-999","-999","-9999","-9999","-9999.00","-9999.00","Clear","clear","0","0","0","0","0","0","METAR UKKK 111900Z 27004MPS CAVOK 14/09 Q1010 R26/CLRD70 NOSIG"
"10:30 PM EEST on June 11, 2016","2016","06","11","22","30","Europe/Kiev","7:30 PM GMT on June 11, 2016","2016","06","11","19","30","UTC","15.0","59.0","8.0","46.4","63","14.4","8.9","-9999.0","-9999.0","300","WNW","-9999.0","-9999.0","1010","29.83","-999","-999","-9999","-9999","-9999.00","-9999.00","Clear","clear","0","0","0","0","0","0","METAR UKKK 111930Z 30004MPS CAVOK 15/08 Q1010 R26/CLRD70 NOSIG"
"11:00 PM EEST on June 11, 2016","2016","06","11","23","00","Europe/Kiev","8:00 PM GMT on June 11, 2016","2016","06","11","20","00","UTC","14.0","57.2","5.0","41.0","55","14.4","8.9","-9999.0","-9999.0","330","NNW","-9999.0","-9999.0","1011","29.86","-999","-999","-9999","-9999","-9999.00","-9999.00","Clear","clear","0","0","0","0","0","0","METAR UKKK 112000Z 33004MPS CAVOK 14/05 Q1011 R26/CLRD70 NOSIG"
"11:30 PM EEST on June 11, 2016","2016","06","11","23","30","Europe/Kiev","8:30 PM GMT on June 11, 2016","2016","06","11","20","30","UTC","13.0","55.4","5.0","41.0","58","10.8","6.7","-9999.0","-9999.0","320","NW","-9999.0","-9999.0","1011","29.86","-999","-999","-9999","-9999","-9999.00","-9999.00","Clear","clear","0","0","0","0","0","0","METAR UKKK 112030Z 32003MPS 260V350 CAVOK 13/05 Q1011 R26/CLRD70 NOSIG"
"12:00 AM EEST on June 12, 2016","2016","06","12","00","00","Europe/Kiev","9:00 PM GMT on June 11, 2016","2016","06","11","21","00","UTC","13","56","5","41","45","7.2","4.5","","","290","WNW","20","12","1012","29.88","-999","-999","-9999","-9999","","","Clear","clear","0","0","0","0","0","0","AAXX 11211 33345 42998 62902 10134 20048 39917 40116 52023 80005 555 11011"
"12:00 AM EEST on June 12, 2016","2016","06","12","00","00","Europe/Kiev","9:00 PM GMT on June 11, 2016","2016","06","11","21","00","UTC","12.0","53.6","5.0","41.0","62","7.2","4.5","-9999.0","-9999.0","300","WNW","-9999.0","-9999.0","1011","29.86","-999","-999","-9999","-9999","-9999.00","-9999.00","Clear","clear","0","0","0","0","0","0","METAR UKKK 112100Z 30002MPS CAVOK 12/05 Q1011 R26/CLRD70 NOSIG"
"12:30 AM EEST on June 12, 2016","2016","06","12","00","30","Europe/Kiev","9:30 PM GMT on June 11, 2016","2016","06","11","21","30","UTC","12.0","53.6","5.0","41.0","62","7.2","4.5","-9999.0","-9999.0","280","West","-9999.0","-9999.0","1011","29.86","-999","-999","-9999","-9999","-9999.00","-9999.00","Clear","clear","0","0","0","0","0","0","METAR UKKK 112130Z 28002MPS CAVOK 12/05 Q1011 R26/CLRD70 NOSIG"
"1:00 AM EEST on June 12, 2016","2016","06","12","01","00","Europe/Kiev","10:00 PM GMT on June 11, 2016","2016","06","11","22","00","UTC","11.0","51.8","6.0","42.8","71","7.2","4.5","-9999.0","-9999.0","250","WSW","-9999.0","-9999.0","1011","29.86","-999","-999","-9999","-9999","-9999.00","-9999.00","Clear","clear","0","0","0","0","0","0","METAR UKKK 112200Z 25002MPS CAVOK 11/06 Q1011 R26/CLRD70 NOSIG"
"1:30 AM EEST on June 12, 2016","2016","06","12","01","30","Europe/Kiev","10:30 PM GMT on June 11, 2016","2016","06","11","22","30","UTC","10.0","50.0","6.0","42.8","76","7.2","4.5","-9999.0","-9999.0","250","WSW","-9999.0","-9999.0","1011","29.86","-999","-999","-9999","-9999","-9999.00","-9999.00","Clear","clear","0","0","0","0","0","0","METAR UKKK 112230Z 25002MPS CAVOK 10/06 Q1011 R26/CLRD70 NOSIG"
"2:00 AM EEST on June 12, 2016","2016","06","12","02","00","Europe/Kiev","11:00 PM GMT on June 11, 2016","2016","06","11","23","00","UTC","10.0","50.0","6.0","42.8","76","7.2","4.5","-9999.0","-9999.0","220","SW","-9999.0","-9999.0","1012","29.89","-999","-999","-9999","-9999","-9999.00","-9999.00","Clear","clear","0","0","0","0","0","0","METAR UKKK 112300Z 22002MPS CAVOK 10/06 Q1012 R26/CLRD70 NOSIG"
"2:30 AM EEST on June 12, 2016","2016","06","12","02","30","Europe/Kiev","11:30 PM GMT on June 11, 2016","2016","06","11","23","30","UTC","9.0","48.2","6.0","42.8","82","7.2","4.5","-9999.0","-9999.0","230","SW","-9999.0","-9999.0","1012","29.89","-999","-999","-9999","-9999","-9999.00","-9999.00","Clear","clear","0","0","0","0","0","0","METAR UKKK 112330Z 23002MPS CAVOK 09/06 Q1012 R26/CLRD70 NOSIG"
"3:00 AM EEST on June 12, 2016","2016","06","12","03","00","Europe/Kiev","12:00 AM GMT on June 12, 2016","2016","06","12","00","00","UTC","11","51","5","41","59","3.6","2.2","","","260","West","20","12","1012","29.90","-999","-999","-9999","-9999","","","Clear","clear","0","0","0","0","0","0","AAXX 12001 33345 32998 22601 10108 20049 39923 40124 51006 80004 555 11009"
"3:00 AM EEST on June 12, 2016","2016","06","12","03","00","Europe/Kiev","12:00 AM GMT on June 12, 2016","2016","06","12","00","00","UTC","7.0","44.6","6.0","42.8","93","7.2","4.5","-9999.0","-9999.0","240","WSW","-9999.0","-9999.0","1012","29.89","5.7","42.3","-9999","-9999","-9999.00","-9999.00","Clear","clear","0","0","0","0","0","0","METAR UKKK 120000Z 24002MPS CAVOK 07/06 Q1012 R26/CLRD70 NOSIG"
"3:30 AM EEST on June 12, 2016","2016","06","12","03","30","Europe/Kiev","12:30 AM GMT on June 12, 2016","2016","06","12","00","30","UTC","8.0","46.4","6.0","42.8","87","7.2","4.5","-9999.0","-9999.0","250","WSW","-9999.0","-9999.0","1012","29.89","6.9","44.4","-9999","-9999","-9999.00","-9999.00","Clear","clear","0","0","0","0","0","0","METAR UKKK 120030Z 25002MPS CAVOK 08/06 Q1012 R26/CLRD70 NOSIG"
"4:00 AM EEST on June 12, 2016","2016","06","12","04","00","Europe/Kiev","1:00 AM GMT on June 12, 2016","2016","06","12","01","00","UTC","8.0","46.4","6.0","42.8","87","7.2","4.5","-9999.0","-9999.0","250","WSW","-9999.0","-9999.0","1012","29.89","6.9","44.4","-9999","-9999","-9999.00","-9999.00","Clear","clear","0","0","0","0","0","0","METAR UKKK 120100Z 25002MPS CAVOK 08/06 Q1012 R26/CLRD70 NOSIG"
"4:30 AM EEST on June 12, 2016","2016","06","12","04","30","Europe/Kiev","1:30 AM GMT on June 12, 2016","2016","06","12","01","30","UTC","7.0","44.6","6.0","42.8","93","7.2","4.5","-9999.0","-9999.0","270","West","-9999.0","-9999.0","1012","29.89","5.7","42.3","-9999","-9999","-9999.00","-9999.00","Clear","clear","0","0","0","0","0","0","METAR UKKK 120130Z 27002MPS CAVOK 07/06 Q1012 R26/CLRD70 NOSIG"
"5:00 AM EEST on June 12, 2016","2016","06","12","05","00","Europe/Kiev","2:00 AM GMT on June 12, 2016","2016","06","12","02","00","UTC","8.0","46.4","6.0","42.8","87","7.2","4.5","-9999.0","-9999.0","270","West","-9999.0","-9999.0","1012","29.89","6.9","44.4","-9999","-9999","-9999.00","-9999.00","Clear","clear","0","0","0","0","0","0","METAR UKKK 120200Z 27002MPS CAVOK 08/06 Q1012 R26/CLRD70 NOSIG"
"5:30 AM EEST on June 12, 2016","2016","06","12","05","30","Europe/Kiev","2:30 AM GMT on June 12, 2016","2016","06","12","02","30","UTC","9.0","48.2","6.0","42.8","82","10.8","6.7","-9999.0","-9999.0","260","West","-9999.0","-9999.0","1013","29.92","-999","-999","-9999","-9999","-9999.00","-9999.00","Clear","clear","0","0","0","0","0","0","METAR UKKK 120230Z 26003MPS CAVOK 09/06 Q1013 R26/CLRD70 NOSIG"
"6:00 AM EEST on June 12, 2016","2016","06","12","06","00","Europe/Kiev","3:00 AM GMT on June 12, 2016","2016","06","12","03","00","UTC","10","51","5","41","60","7.2","4.5","","","290","WNW","20","12","1013","29.93","-999","-999","-9999","-9999","","","Clear","clear","0","0","0","0","0","0","AAXX 12031 33345 42998 42902 10104 20051 39933 40134 52010 80005 555 11008"
"6:00 AM EEST on June 12, 2016","2016","06","12","06","00","Europe/Kiev","3:00 AM GMT on June 12, 2016","2016","06","12","03","00","UTC","9.0","48.2","7.0","44.6","87","7.2","4.5","-9999.0","-9999.0","270","West","-9999.0","-9999.0","1013","29.92","-999","-999","-9999","-9999","-9999.00","-9999.00","Clear","clear","0","0","0","0","0","0","METAR UKKK 120300Z 27002MPS CAVOK 09/07 Q1013 R26/CLRD70 NOSIG"
"6:30 AM EEST on June 12, 2016","2016","06","12","06","30","Europe/Kiev","3:30 AM GMT on June 12, 2016","2016","06","12","03","30","UTC","11.0","51.8","7.0","44.6","76","10.8","6.7","-9999.0","-9999.0","260","West","-9999.0","-9999.0","1013","29.92","-999","-999","-9999","-9999","-9999.00","-9999.00","Clear","clear","0","0","0","0","0","0","METAR UKKK 120330Z 26003MPS CAVOK 11/07 Q1013 R26/CLRD70 NOSIG"
"7:00 AM EEST on June 12, 2016","2016","06","12","07","00","Europe/Kiev","4:00 AM GMT on June 12, 2016","2016","06","12","04","00","UTC","11.0","51.8","7.0","44.6","76","7.2","4.5","-9999.0","-9999.0","260","West","-9999.0","-9999.0","1013","29.92","-999","-999","-9999","-9999","-9999.00","-9999.00","Clear","clear","0","0","0","0","0","0","METAR UKKK 120400Z 26002MPS 240V300 CAVOK 11/07 Q1013 R26/CLRD70 NOSIG"
"7:30 AM EEST on June 12, 2016","2016","06","12","07","30","Europe/Kiev","4:30 AM GMT on June 12, 2016","2016","06","12","04","30","UTC","12.0","53.6","7.0","44.6","72","7.2","4.5","-9999.0","-9999.0","270","West","-9999.0","-9999.0","1013","29.92","-999","-999","-9999","-9999","-9999.00","-9999.00","Clear","clear","0","0","0","0","0","0","METAR UKKK 120430Z 27002MPS CAVOK 12/07 Q1013 R26/CLRD70 NOSIG"
"8:00 AM EEST on June 12, 2016","2016","06","12","08","00","Europe/Kiev","5:00 AM GMT on June 12, 2016","2016","06","12","05","00","UTC","13.0","55.4","7.0","44.6","67","10.8","6.7","-9999.0","-9999.0","300","WNW","-9999.0","-9999.0","1013","29.92","-999","-999","-9999","-9999","-9999.00","-9999.00","Clear","clear","0","0","0","0","0","0","METAR UKKK 120500Z 30003MPS CAVOK 13/07 Q1013 R26/CLRD70 NOSIG"
"8:30 AM EEST on June 12, 2016","2016","06","12","08","30","Europe/Kiev","5:30 AM GMT on June 12, 2016","2016","06","12","05","30","UTC","14.0","57.2","7.0","44.6","63","10.8","6.7","-9999.0","-9999.0","290","WNW","-9999.0","-9999.0","1013","29.92","-999","-999","-9999","-9999","-9999.00","-9999.00","Clear","clear","0","0","0","0","0","0","METAR UKKK 120530Z 29003MPS CAVOK 14/07 Q1013 R26/CLRD70 NOSIG"
"9:00 AM EEST on June 12, 2016","2016","06","12","09","00","Europe/Kiev","6:00 AM GMT on June 12, 2016","2016","06","12","06","00","UTC","15","59","6","42","42","10.8","6.7","","","270","West","20","12","1014","29.94","-999","-999","-9999","-9999","","","Clear","clear","0","0","0","0","0","0","AAXX 12061 33345 32998 52703 10150 20056 39939 40137 52006 80005 333 20098 555 11023"
"9:00 AM EEST on June 12, 2016","2016","06","12","09","00","Europe/Kiev","6:00 AM GMT on June 12, 2016","2016","06","12","06","00","UTC","14.0","57.2","7.0","44.6","63","10.8","6.7","-9999.0","-9999.0","290","WNW","-9999.0","-9999.0","1013","29.92","-999","-999","-9999","-9999","-9999.00","-9999.00","Clear","clear","0","0","0","0","0","0","METAR UKKK 120600Z 29003MPS 230V350 CAVOK 14/07 Q1013 R26/CLRD70 NOSIG"
"9:30 AM EEST on June 12, 2016","2016","06","12","09","30","Europe/Kiev","6:30 AM GMT on June 12, 2016","2016","06","12","06","30","UTC","15.0","59.0","7.0","44.6","59","10.8","6.7","-9999.0","-9999.0","280","West","-9999.0","-9999.0","1013","29.92","-999","-999","-9999","-9999","-9999.00","-9999.00","Clear","clear","0","0","0","0","0","0","METAR UKKK 120630Z 28003MPS 250V350 CAVOK 15/07 Q1013 R26/CLRD70 NOSIG"
"10:00 AM EEST on June 12, 2016","2016","06","12","10","00","Europe/Kiev","7:00 AM GMT on June 12, 2016","2016","06","12","07","00","UTC","16.0","60.8","7.0","44.6","55","14.4","8.9","-9999.0","-9999.0","280","West","-9999.0","-9999.0","1013","29.92","-999","-999","-9999","-9999","-9999.00","-9999.00","Clear","clear","0","0","0","0","0","0","METAR UKKK 120700Z 28004MPS 220V310 CAVOK 16/07 Q1013 R26/CLRD70 NOSIG"
"10:30 AM EEST on June 12, 2016","2016","06","12","10","30","Europe/Kiev","7:30 AM GMT on June 12, 2016","2016","06","12","07","30","UTC","16.0","60.8","6.0","42.8","52","14.4","8.9","-9999.0","-9999.0","260","West","10.0","6.2","1013","29.92","-999","-999","-9999","-9999","-9999.00","-9999.00","Partly Cloudy","partlycloudy","0","0","0","0","0","0","METAR UKKK 120730Z 26004MPS 9999 FEW048 16/06 Q1013 R26/CLRD70 NOSIG"
"11:00 AM EEST on June 12, 2016","2016","06","12","11","00","Europe/Kiev","8:00 AM GMT on June 12, 2016","2016","06","12","08","00","UTC","17.0","62.6","6.0","42.8","48","18.0","11.2","-9999.0","-9999.0","270","West","10.0","6.2","1013","29.92","-999","-999","-9999","-9999","-9999.00","-9999.00","Partly Cloudy","partlycloudy","0","0","0","0","0","0","METAR UKKK 120800Z 27005MPS 240V300 9999 FEW048 17/06 Q1013 R26/CLRD70 NOSIG"
"11:30 AM EEST on June 12, 2016","2016","06","12","11","30","Europe/Kiev","8:30 AM GMT on June 12, 2016","2016","06","12","08","30","UTC","17.0","62.6","5.0","41.0","45","18.0","11.2","-9999.0","-9999.0","280","West","10.0","6.2","1013","29.92","-999","-999","-9999","-9999","-9999.00","-9999.00","Partly Cloudy","partlycloudy","0","0","0","0","0","0","METAR UKKK 120830Z 28005MPS 240V310 9999 FEW048 17/05 Q1013 R26/CLRD70 NOSIG"
"12:00 PM EEST on June 12, 2016","2016","06","12","12","00","Europe/Kiev","9:00 AM GMT on June 12, 2016","2016","06","12","09","00","UTC","17","63","3","37","27","10.8","6.7","","","270","West","20","12","1013","29.92","-999","-999","-9999","-9999","","","Partly Cloudy","partlycloudy","0","0","0","0","0","0","AAXX 12091 33345 42598 62703 10174 20029 39934 40131 58005 83109 555 11036"
"12:00 PM EEST on June 12, 2016","2016","06","12","12","00","Europe/Kiev","9:00 AM GMT on June 12, 2016","2016","06","12","09","00","UTC","17.0","62.6","6.0","42.8","48","18.0","11.2","-9999.0","-9999.0","280","West","-9999.0","-9999.0","1013","29.92","-999","-999","-9999","-9999","-9999.00","-9999.00","Clear","clear","0","0","0","0","0","0","METAR UKKK 120900Z 28005MPS 240V310 CAVOK 17/06 Q1013 R26/CLRD70 NOSIG"
"12:30 PM EEST on June 12, 2016","2016","06","12","12","30","Europe/Kiev","9:30 AM GMT on June 12, 2016","2016","06","12","09","30","UTC","17.0","62.6","4.0","39.2","42","14.4","8.9","-9999.0","-9999.0","280","West","-9999.0","-9999.0","1013","29.92","-999","-999","-9999","-9999","-9999.00","-9999.00","Clear","clear","0","0","0","0","0","0","METAR UKKK 120930Z 28004MPS CAVOK 17/04 Q1013 R26/CLRD70 NOSIG"
"1:00 PM EEST on June 12, 2016","2016","06","12","13","00","Europe/Kiev","10:00 AM GMT on June 12, 2016","2016","06","12","10","00","UTC","18.0","64.4","6.0","42.8","45","14.4","8.9","-9999.0","-9999.0","250","WSW","-9999.0","-9999.0","1013","29.92","-999","-999","-9999","-9999","-9999.00","-9999.00","Clear","clear","0","0","0","0","0","0","METAR UKKK 121000Z 25004MPS 210V300 CAVOK 18/06 Q1013 R26/CLRD70 NOSIG"
"1:30 PM EEST on June 12, 2016","2016","06","12","13","30","Europe/Kiev","10:30 AM GMT on June 12, 2016","2016","06","12","10","30","UTC","18.0","64.4","6.0","42.8","45","14.4","8.9","-9999.0","-9999.0","260","West","-9999.0","-9999.0","1013","29.92","-999","-999","-9999","-9999","-9999.00","-9999.00","Clear","clear","0","0","0","0","0","0","METAR UKKK 121030Z 26004MPS 210V310 CAVOK 18/06 Q1013 R26/CLRD70 NOSIG"
"2:00 PM EEST on June 12, 2016","2016","06","12","14","00","Europe/Kiev","11:00 AM GMT on June 12, 2016","2016","06","12","11","00","UTC","18.0","64.4","5.0","41.0","42","18.0","11.2","-9999.0","-9999.0","260","West","-9999.0","-9999.0","1012","29.89","-999","-999","-9999","-9999","-9999.00","-9999.00","Clear","clear","0","0","0","0","0","0","METAR UKKK 121100Z 26005MPS 220V300 CAVOK 18/05 Q1012 R26/CLRD70 NOSIG"
"2:30 PM EEST on June 12, 2016","2016","06","12","14","30","Europe/Kiev","11:30 AM GMT on June 12, 2016","2016","06","12","11","30","UTC","19.0","66.2","7.0","44.6","46","14.4","8.9","-9999.0","-9999.0","260","West","-9999.0","-9999.0","1012","29.89","-999","-999","-9999","-9999","-9999.00","-9999.00","Clear","clear","0","0","0","0","0","0","METAR UKKK 121130Z 26004MPS 220V300 CAVOK 19/07 Q1012 R26/CLRD70 NOSIG"
"3:00 PM EEST on June 12, 2016","2016","06","12","15","00","Europe/Kiev","12:00 PM GMT on June 12, 2016","2016","06","12","12","00","UTC","20","67","3","37","22","10.8","6.7","","","260","West","20","12","1012","29.89","-999","-999","-9999","-9999","","","Partly Cloudy","partlycloudy","0","0","0","0","0","0","AAXX 12121 33345 32698 62603 10195 20029 39927 40122 57007 84204 555 10040"
"3:00 PM EEST on June 12, 2016","2016","06","12","15","00","Europe/Kiev","12:00 PM GMT on June 12, 2016","2016","06","12","12","00","UTC","19.0","66.2","6.0","42.8","43","10.8","6.7","-9999.0","-9999.0","290","WNW","-9999.0","-9999.0","1012","29.89","-999","-999","-9999","-9999","-9999.00","-9999.00","Clear","clear","0","0","0","0","0","0","METAR UKKK 121200Z 29003MPS 250V020 CAVOK 19/06 Q1012 R26/CLRD70 NOSIG"
"3:30 PM EEST on June 12, 2016","2016","06","12","15","30","Europe/Kiev","12:30 PM GMT on June 12, 2016","2016","06","12","12","30","UTC","18.0","64.4","5.0","41.0","42","14.4","8.9","-9999.0","-9999.0","280","West","-9999.0","-9999.0","1012","29.89","-999","-999","-9999","-9999","-9999.00","-9999.00","Clear","clear","0","0","0","0","0","0","METAR UKKK 121230Z 28004MPS 230V320 CAVOK 18/05 Q1012 R26/CLRD70 NOSIG"
"4:00 PM EEST on June 12, 2016","2016","06","12","16","00","Europe/Kiev","1:00 PM GMT on June 12, 2016","2016","06","12","13","00","UTC","19.0","66.2","5.0","41.0","40","18.0","11.2","-9999.0","-9999.0","290","WNW","-9999.0","-9999.0","1012","29.89","-999","-999","-9999","-9999","-9999.00","-9999.00","Clear","clear","0","0","0","0","0","0","METAR UKKK 121300Z 29005MPS 250V330 CAVOK 19/05 Q1012 R26/CLRD70 NOSIG"
"4:30 PM EEST on June 12, 2016","2016","06","12","16","30","Europe/Kiev","1:30 PM GMT on June 12, 2016","2016","06","12","13","30","UTC","19.0","66.2","5.0","41.0","40","14.4","8.9","-9999.0","-9999.0","270","West","-9999.0","-9999.0","1012","29.89","-999","-999","-9999","-9999","-9999.00","-9999.00","Clear","clear","0","0","0","0","0","0","METAR UKKK 121330Z 27004MPS 230V320 CAVOK 19/05 Q1012 R26/CLRD70 NOSIG"
"5:00 PM EEST on June 12, 2016","2016","06","12","17","00","Europe/Kiev","2:00 PM GMT on June 12, 2016","2016","06","12","14","00","UTC","19.0","66.2","5.0","41.0","40","18.0","11.2","-9999.0","-9999.0","290","WNW","-9999.0","-9999.0","1012","29.89","-999","-999","-9999","-9999","-9999.00","-9999.00","Clear","clear","0","0","0","0","0","0","METAR UKKK 121400Z 29005MPS 250V310 CAVOK 19/05 Q1012 R26/CLRD70 NOSIG"
"5:30 PM EEST on June 12, 2016","2016","06","12","17","30","Europe/Kiev","2:30 PM GMT on June 12, 2016","2016","06","12","14","30","UTC","20.0","68.0","4.0","39.2","35","14.4","8.9","-9999.0","-9999.0","290","WNW","-9999.0","-9999.0","1011","29.86","-999","-999","-9999","-9999","-9999.00","-9999.00","Clear","clear","0","0","0","0","0","0","METAR UKKK 121430Z 29004MPS CAVOK 20/04 Q1011 R26/CLRD70 NOSIG"
"6:00 PM EEST on June 12, 2016","2016","06","12","18","00","Europe/Kiev","3:00 PM GMT on June 12, 2016","2016","06","12","15","00","UTC","20","67","2","36","20","7.2","4.5","","","260","West","20","12","1011","29.87","-999","-999","-9999","-9999","","","Partly Cloudy","partlycloudy","0","0","0","0","0","0","AAXX 12151 33345 42698 52602 10196 20021 39919 40114 57008 83260 555 10028"
"6:00 PM EEST on June 12, 2016","2016","06","12","18","00","Europe/Kiev","3:00 PM GMT on June 12, 2016","2016","06","12","15","00","UTC","20.0","68.0","5.0","41.0","37","10.8","6.7","-9999.0","-9999.0","280","West","-9999.0","-9999.0","1011","29.86","-999","-999","-9999","-9999","-9999.00","-9999.00","Clear","clear","0","0","0","0","0","0","METAR UKKK 121500Z 28003MPS 230V320 CAVOK 20/05 Q1011 R26/CLRD70 NOSIG"
"6:30 PM EEST on June 12, 2016","2016","06","12","18","30","Europe/Kiev","3:30 PM GMT on June 12, 2016","2016","06","12","15","30","UTC","19.0","66.2","4.0","39.2","37","14.4","8.9","-9999.0","-9999.0","270","West","-9999.0","-9999.0","1011","29.86","-999","-999","-9999","-9999","-9999.00","-9999.00","Clear","clear","0","0","0","0","0","0","METAR UKKK 121530Z 27004MPS 220V280 CAVOK 19/04 Q1011 R26/CLRD70 NOSIG"
"7:00 PM EEST on June 12, 2016","2016","06","12","19","00","Europe/Kiev","4:00 PM GMT on June 12, 2016","2016","06","12","16","00","UTC","19.0","66.2","4.0","39.2","37","10.8","6.7","-9999.0","-9999.0","240","WSW","-9999.0","-9999.0","1011","29.86","-999","-999","-9999","-9999","-9999.00","-9999.00","Clear","clear","0","0","0","0","0","0","METAR UKKK 121600Z 24003MPS 190V300 CAVOK 19/04 Q1011 R26/CLRD70 NOSIG"
"7:30 PM EEST on June 12, 2016","2016","06","12","19","30","Europe/Kiev","4:30 PM GMT on June 12, 2016","2016","06","12","16","30","UTC","18.0","64.4","4.0","39.2","40","14.4","8.9","-9999.0","-9999.0","270","West","-9999.0","-9999.0","1011","29.86","-999","-999","-9999","-9999","-9999.00","-9999.00","Clear","clear","0","0","0","0","0","0","METAR UKKK 121630Z 27004MPS CAVOK 18/04 Q1011 R26/CLRD70 NOSIG"
"8:00 PM EEST on June 12, 2016","2016","06","12","20","00","Europe/Kiev","5:00 PM GMT on June 12, 2016","2016","06","12","17","00","UTC","17.0","62.6","5.0","41.0","45","10.8","6.7","-9999.0","-9999.0","260","West","-9999.0","-9999.0","1011","29.86","-999","-999","-9999","-9999","-9999.00","-9999.00","Clear","clear","0","0","0","0","0","0","METAR UKKK 121700Z 26003MPS CAVOK 17/05 Q1011 R26/CLRD70 NOSIG"
"8:30 PM EEST on June 12, 2016","2016","06","12","20","30","Europe/Kiev","5:30 PM GMT on June 12, 2016","2016","06","12","17","30","UTC","17.0","62.6","5.0","41.0","45","7.2","4.5","-9999.0","-9999.0","250","WSW","-9999.0","-9999.0","1011","29.86","-999","-999","-9999","-9999","-9999.00","-9999.00","Clear","clear","0","0","0","0","0","0","METAR UKKK 121730Z 25002MPS CAVOK 17/05 Q1011 R26/CLRD70 NOSIG"
"9:00 PM EEST on June 12, 2016","2016","06","12","21","00","Europe/Kiev","6:00 PM GMT on June 12, 2016","2016","06","12","18","00","UTC","16","61","6","43","41","3.6","2.2","","","220","SW","20","12","1011","29.87","-999","-999","-9999","-9999","","","Scattered Clouds","partlycloudy","0","0","0","0","0","0","AAXX 12181 33345 32598 62201 10160 20062 39917 40114 56002 82440 333 10203 555 10017"
"9:00 PM EEST on June 12, 2016","2016","06","12","21","00","Europe/Kiev","6:00 PM GMT on June 12, 2016","2016","06","12","18","00","UTC","16.0","60.8","6.0","42.8","52","7.2","4.5","-9999.0","-9999.0","260","West","-9999.0","-9999.0","1011","29.86","-999","-999","-9999","-9999","-9999.00","-9999.00","Clear","clear","0","0","0","0","0","0","METAR UKKK 121800Z 26002MPS CAVOK 16/06 Q1011 R26/CLRD70 NOSIG"
"9:30 PM EEST on June 12, 2016","2016","06","12","21","30","Europe/Kiev","6:30 PM GMT on June 12, 2016","2016","06","12","18","30","UTC","15.0","59.0","6.0","42.8","55","7.2","4.5","-9999.0","-9999.0","220","SW","-9999.0","-9999.0","1011","29.86","-999","-999","-9999","-9999","-9999.00","-9999.00","Clear","clear","0","0","0","0","0","0","METAR UKKK 121830Z 22002MPS CAVOK 15/06 Q1011 R26/CLRD70 NOSIG"
"10:00 PM EEST on June 12, 2016","2016","06","12","22","00","Europe/Kiev","7:00 PM GMT on June 12, 2016","2016","06","12","19","00","UTC","13.0","55.4","7.0","44.6","67","7.2","4.5","-9999.0","-9999.0","220","SW","-9999.0","-9999.0","1011","29.86","-999","-999","-9999","-9999","-9999.00","-9999.00","Clear","clear","0","0","0","0","0","0","METAR UKKK 121900Z 22002MPS CAVOK 13/07 Q1011 R26/CLRD70 NOSIG"
"10:30 PM EEST on June 12, 2016","2016","06","12","22","30","Europe/Kiev","7:30 PM GMT on June 12, 2016","2016","06","12","19","30","UTC","11.0","51.8","8.0","46.4","82","3.6","2.2","-9999.0","-9999.0","250","WSW","-9999.0","-9999.0","1011","29.86","-999","-999","-9999","-9999","-9999.00","-9999.00","Clear","clear","0","0","0","0","0","0","METAR UKKK 121930Z 25001MPS CAVOK 11/08 Q1011 R26/CLRD70 NOSIG"
"11:00 PM EEST on June 12, 2016","2016","06","12","23","00","Europe/Kiev","8:00 PM GMT on June 12, 2016","2016","06","12","20","00","UTC","11.0","51.8","8.0","46.4","82","3.6","2.2","-9999.0","-9999.0","0","Variable","-9999.0","-9999.0","1011","29.86","-999","-999","-9999","-9999","-9999.00","-9999.00","Clear","clear","0","0","0","0","0","0","METAR UKKK 122000Z VRB01MPS CAVOK 11/08 Q1011 R26/CLRD70 NOSIG"
"11:30 PM EEST on June 12, 2016","2016","06","12","23","30","Europe/Kiev","8:30 PM GMT on June 12, 2016","2016","06","12","20","30","UTC","11.0","51.8","7.0","44.6","76","0.0","0.0","-9999.0","-9999.0","0","North","-9999.0","-9999.0","1011","29.86","-999","-999","-9999","-9999","-9999.00","-9999.00","Clear","clear","0","0","0","0","0","0","METAR UKKK 122030Z 00000MPS CAVOK 11/07 Q1011 R08/CLRD70 NOSIG"
"12:00 AM EEST on June 13, 2016","2016","06","13","00","00","Europe/Kiev","9:00 PM GMT on June 12, 2016","2016","06","12","21","00","UTC","13","56","6","42","48","3.6","2.2","","","330","NNW","20","12","1012","29.87","-999","-999","-9999","-9999","","","Partly Cloudy","partlycloudy","0","0","0","0","0","0","AAXX 12211 33345 42998 43301 10133 20055 39916 40115 57001 84030 555 10013"
"12:00 AM EEST on June 13, 2016","2016","06","13","00","00","Europe/Kiev","9:00 PM GMT on June 12, 2016","2016","06","12","21","00","UTC","10.0","50.0","8.0","46.4","87","0.0","0.0","-9999.0","-9999.0","0","North","-9999.0","-9999.0","1011","29.86","-999","-999","-9999","-9999","-9999.00","-9999.00","Clear","clear","0","0","0","0","0","0","METAR UKKK 122100Z 00000MPS CAVOK 10/08 Q1011 R08/CLRD70 NOSIG"
"12:30 AM EEST on June 13, 2016","2016","06","13","00","30","Europe/Kiev","9:30 PM GMT on June 12, 2016","2016","06","12","21","30","UTC","10.0","50.0","8.0","46.4","87","0.0","0.0","-9999.0","-9999.0","0","North","-9999.0","-9999.0","1011","29.86","-999","-999","-9999","-9999","-9999.00","-9999.00","Clear","clear","0","0","0","0","0","0","METAR UKKK 122130Z 00000MPS CAVOK 10/08 Q1011 R08/CLRD70 NOSIG"
"1:00 AM EEST on June 13, 2016","2016","06","13","01","00","Europe/Kiev","10:00 PM GMT on June 12, 2016","2016","06","12","22","00","UTC","9.0","48.2","8.0","46.4","93","0.0","0.0","-9999.0","-9999.0","0","North","-9999.0","-9999.0","1011","29.86","-999","-999","-9999","-9999","-9999.00","-9999.00","Clear","clear","0","0","0","0","0","0","METAR UKKK 122200Z 00000MPS CAVOK 09/08 Q1011 R08/CLRD70 NOSIG"
"1:30 AM EEST on June 13, 2016","2016","06","13","01","30","Europe/Kiev","10:30 PM GMT on June 12, 2016","2016","06","12","22","30","UTC","9.0","48.2","8.0","46.4","93","0.0","0.0","-9999.0","-9999.0","0","North","-9999.0","-9999.0","1011","29.86","-999","-999","-9999","-9999","-9999.00","-9999.00","Clear","clear","0","0","0","0","0","0","METAR UKKK 122230Z 00000MPS CAVOK 09/08 Q1011 R08/CLRD70 NOSIG"
"2:00 AM EEST on June 13, 2016","2016","06","13","02","00","Europe/Kiev","11:00 PM GMT on June 12, 2016","2016","06","12","23","00","UTC","9.0","48.2","7.0","44.6","87","7.2","4.5","-9999.0","-9999.0","250","WSW","-9999.0","-9999.0","1011","29.86","-999","-999","-9999","-9999","-9999.00","-9999.00","Clear","clear","0","0","0","0","0","0","METAR UKKK 122300Z 25002MPS 190V280 CAVOK 09/07 Q1011 R08/CLRD70 NOSIG"
"2:30 AM EEST on June 13, 2016","2016","06","13","02","30","Europe/Kiev","11:30 PM GMT on June 12, 2016","2016","06","12","23","30","UTC","8.0","46.4","7.0","44.6","93","0.0","0.0","-9999.0","-9999.0","0","North","-9999.0","-9999.0","1011","29.86","-999","-999","-9999","-9999","-9999.00","-9999.00","Clear","clear","0","0","0","0","0","0","METAR UKKK 122330Z 00000MPS CAVOK 08/07 Q1011 R08/CLRD70 NOSIG"
"3:00 AM EEST on June 13, 2016","2016","06","13","03","00","Europe/Kiev","12:00 AM GMT on June 13, 2016","2016","06","13","00","00","UTC","11","51","6","43","67","3.6","2.2","","","280","West","20","12","1011","29.87","-999","-999","-9999","-9999","","","","","0","0","0","0","0","0","AAXX 13001 33345 32998 02801 10108 20063 39913 40114 57003 555 10010"
"3:00 AM EEST on June 13, 2016","2016","06","13","03","00","Europe/Kiev","12:00 AM GMT on June 13, 2016","2016","06","13","00","00","UTC","8.0","46.4","7.0","44.6","93","0.0","0.0","-9999.0","-9999.0","0","North","-9999.0","-9999.0","1011","29.86","-999","-999","-9999","-9999","-9999.00","-9999.00","Clear","clear","0","0","0","0","0","0","METAR UKKK 130000Z 00000MPS CAVOK 08/07 Q1011 R08/CLRD70 NOSIG"
"3:30 AM EEST on June 13, 2016","2016","06","13","03","30","Europe/Kiev","12:30 AM GMT on June 13, 2016","2016","06","13","00","30","UTC","8.0","46.4","7.0","44.6","93","0.0","0.0","-9999.0","-9999.0","0","North","-9999.0","-9999.0","1011","29.86","-999","-999","-9999","-9999","-9999.00","-9999.00","Clear","clear","0","0","0","0","0","0","METAR UKKK 130030Z 00000MPS CAVOK 08/07 Q1011 R08/CLRD70 NOSIG"
"4:00 AM EEST on June 13, 2016","2016","06","13","04","00","Europe/Kiev","1:00 AM GMT on June 13, 2016","2016","06","13","01","00","UTC","8.0","46.4","7.0","44.6","93","0.0","0.0","-9999.0","-9999.0","0","North","-9999.0","-9999.0","1011","29.86","-999","-999","-9999","-9999","-9999.00","-9999.00","Clear","clear","0","0","0","0","0","0","METAR UKKK 130100Z 00000MPS CAVOK 08/07 Q1011 R08/CLRD70 NOSIG"
"4:30 AM EEST on June 13, 2016","2016","06","13","04","30","Europe/Kiev","1:30 AM GMT on June 13, 2016","2016","06","13","01","30","UTC","8.0","46.4","7.0","44.6","93","0.0","0.0","-9999.0","-9999.0","0","North","-9999.0","-9999.0","1010","29.83","-999","-999","-9999","-9999","-9999.00","-9999.00","Clear","clear","0","0","0","0","0","0","METAR UKKK 130130Z 00000MPS CAVOK 08/07 Q1010 R08/CLRD70 NOSIG"
"5:00 AM EEST on June 13, 2016","2016","06","13","05","00","Europe/Kiev","2:00 AM GMT on June 13, 2016","2016","06","13","02","00","UTC","7.0","44.6","7.0","44.6","100","0.0","0.0","-9999.0","-9999.0","0","North","-9999.0","-9999.0","1010","29.83","-999","-999","-9999","-9999","-9999.00","-9999.00","Clear","clear","0","0","0","0","0","0","METAR UKKK 130200Z 00000MPS CAVOK 07/07 Q1010 R08/CLRD70 NOSIG"
"5:30 AM EEST on June 13, 2016","2016","06","13","05","30","Europe/Kiev","2:30 AM GMT on June 13, 2016","2016","06","13","02","30","UTC","8.0","46.4","7.0","44.6","93","0.0","0.0","-9999.0","-9999.0","0","North","-9999.0","-9999.0","1010","29.83","-999","-999","-9999","-9999","-9999.00","-9999.00","Clear","clear","0","0","0","0","0","0","METAR UKKK 130230Z 00000MPS CAVOK 08/07 Q1010 R08/CLRD70 NOSIG"
"6:00 AM EEST on June 13, 2016","2016","06","13","06","00","Europe/Kiev","3:00 AM GMT on June 13, 2016","2016","06","13","03","00","UTC","11","52","7","44","68","3.6","2.2","","","350","North","20","12","1011","29.85","-999","-999","-9999","-9999","","","Clear","clear","0","0","0","0","0","0","AAXX 13031 33345 42998 33501 10109 20069 39907 40107 57006 80001 555 10010"
"6:00 AM EEST on June 13, 2016","2016","06","13","06","00","Europe/Kiev","3:00 AM GMT on June 13, 2016","2016","06","13","03","00","UTC","8.0","46.4","8.0","46.4","100","0.0","0.0","-9999.0","-9999.0","0","North","-9999.0","-9999.0","1010","29.83","-999","-999","-9999","-9999","-9999.00","-9999.00","Clear","clear","0","0","0","0","0","0","METAR UKKK 130300Z 00000MPS CAVOK 08/08 Q1010 R08/CLRD70 NOSIG"
"6:30 AM EEST on June 13, 2016","2016","06","13","06","30","Europe/Kiev","3:30 AM GMT on June 13, 2016","2016","06","13","03","30","UTC","12.0","53.6","10.0","50.0","88","0.0","0.0","-9999.0","-9999.0","0","North","-9999.0","-9999.0","1010","29.83","-999","-999","-9999","-9999","-9999.00","-9999.00","Clear","clear","0","0","0","0","0","0","METAR UKKK 130330Z 00000MPS CAVOK 12/10 Q1010 R08/CLRD70 NOSIG"
"7:00 AM EEST on June 13, 2016","2016","06","13","07","00","Europe/Kiev","4:00 AM GMT on June 13, 2016","2016","06","13","04","00","UTC","15.0","59.0","11.0","51.8","77","0.0","0.0","-9999.0","-9999.0","0","North","-9999.0","-9999.0","1010","29.83","-999","-999","-9999","-9999","-9999.00","-9999.00","Clear","clear","0","0","0","0","0","0","METAR UKKK 130400Z 00000MPS CAVOK 15/11 Q1010 R08/CLRD70 NOSIG"
"7:30 AM EEST on June 13, 2016","2016","06","13","07","30","Europe/Kiev","4:30 AM GMT on June 13, 2016","2016","06","13","04","30","UTC","16.0","60.8","9.0","48.2","63","7.2","4.5","-9999.0","-9999.0","90","East","-9999.0","-9999.0","1010","29.83","-999","-999","-9999","-9999","-9999.00","-9999.00","Clear","clear","0","0","0","0","0","0","METAR UKKK 130430Z 09002MPS CAVOK 16/09 Q1010 R08/CLRD70 NOSIG"
"8:00 AM EEST on June 13, 2016","2016","06","13","08","00","Europe/Kiev","5:00 AM GMT on June 13, 2016","2016","06","13","05","00","UTC","17.0","62.6","8.0","46.4","55","14.4","8.9","-9999.0","-9999.0","80","East","-9999.0","-9999.0","1010","29.83","-999","-999","-9999","-9999","-9999.00","-9999.00","Clear","clear","0","0","0","0","0","0","METAR UKKK 130500Z 08004MPS CAVOK 17/08 Q1010 R08/CLRD70 NOSIG"
"8:30 AM EEST on June 13, 2016","2016","06","13","08","30","Europe/Kiev","5:30 AM GMT on June 13, 2016","2016","06","13","05","30","UTC","18.0","64.4","7.0","44.6","49","14.4","8.9","-9999.0","-9999.0","80","East","-9999.0","-9999.0","1010","29.83","-999","-999","-9999","-9999","-9999.00","-9999.00","Clear","clear","0","0","0","0","0","0","METAR UKKK 130530Z 08004MPS CAVOK 18/07 Q1010 R08/CLRD70 NOSIG"
"9:00 AM EEST on June 13, 2016","2016","06","13","09","00","Europe/Kiev","6:00 AM GMT on June 13, 2016","2016","06","13","06","00","UTC","17","63","7","45","41","7.2","4.5","","","70","ENE","20","12","1010","29.83","-999","-999","-9999","-9999","","","Clear","clear","0","0","0","0","0","0","AAXX 13061 33345 32998 30702 10173 20074 39905 40101 57002 80009 333 20107 555 10025"
"9:00 AM EEST on June 13, 2016","2016","06","13","09","00","Europe/Kiev","6:00 AM GMT on June 13, 2016","2016","06","13","06","00","UTC","18.0","64.4","7.0","44.6","49","10.8","6.7","-9999.0","-9999.0","80","East","-9999.0","-9999.0","1010","29.83","-999","-999","-9999","-9999","-9999.00","-9999.00","Clear","clear","0","0","0","0","0","0","METAR UKKK 130600Z 08003MPS CAVOK 18/07 Q1010 R08/CLRD70 NOSIG"
"9:30 AM EEST on June 13, 2016","2016","06","13","09","30","Europe/Kiev","6:30 AM GMT on June 13, 2016","2016","06","13","06","30","UTC","19.0","66.2","8.0","46.4","49","10.8","6.7","-9999.0","-9999.0","100","East","-9999.0","-9999.0","1010","29.83","-999","-999","-9999","-9999","-9999.00","-9999.00","Clear","clear","0","0","0","0","0","0","METAR UKKK 130630Z 10003MPS 040V210 CAVOK 19/08 Q1010 R08/CLRD70 NOSIG"
"10:00 AM EEST on June 13, 2016","2016","06","13","10","00","Europe/Kiev","7:00 AM GMT on June 13, 2016","2016","06","13","07","00","UTC","19.0","66.2","5.0","41.0","40","10.8","6.7","-9999.0","-9999.0","110","ESE","-9999.0","-9999.0","1010","29.83","-999","-999","-9999","-9999","-9999.00","-9999.00","Clear","clear","0","0","0","0","0","0","METAR UKKK 130700Z 11003MPS 050V160 CAVOK 19/05 Q1010 R08/CLRD70 NOSIG"
"10:30 AM EEST on June 13, 2016","2016","06","13","10","30","Europe/Kiev","7:30 AM GMT on June 13, 2016","2016","06","13","07","30","UTC","19.0","66.2","6.0","42.8","43","10.8","6.7","-9999.0","-9999.0","120","ESE","-9999.0","-9999.0","1010","29.83","-999","-999","-9999","-9999","-9999.00","-9999.00","Clear","clear","0","0","0","0","0","0","METAR UKKK 130730Z 12003MPS 060V180 CAVOK 19/06 Q1010 R08/CLRD70 NOSIG"
"11:00 AM EEST on June 13, 2016","2016","06","13","11","00","Europe/Kiev","8:00 AM GMT on June 13, 2016","2016","06","13","08","00","UTC","18.0","64.4","7.0","44.6","49","10.8","6.7","-9999.0","-9999.0","110","ESE","-9999.0","-9999.0","1009","29.80","-999","-999","-9999","-9999","-9999.00","-9999.00","Clear","clear","0","0","0","0","0","0","METAR UKKK 130800Z 11003MPS 060V150 CAVOK 18/07 Q1009 R08/CLRD70 NOSIG"
"11:30 AM EEST on June 13, 2016","2016","06","13","11","30","Europe/Kiev","8:30 AM GMT on June 13, 2016","2016","06","13","08","30","UTC","19.0","66.2","7.0","44.6","46","14.4","8.9","-9999.0","-9999.0","120","ESE","-9999.0","-9999.0","1009","29.80","-999","-999","-9999","-9999","-9999.00","-9999.00","Clear","clear","0","0","0","0","0","0","METAR UKKK 130830Z 12004MPS 080V180 CAVOK 19/07 Q1009 R08/CLRD70 NOSIG"
"12:00 PM EEST on June 13, 2016","2016","06","13","12","00","Europe/Kiev","9:00 AM GMT on June 13, 2016","2016","06","13","09","00","UTC","21","70","7","45","30","10.8","6.7","","","150","SSE","20","12","1009","29.80","-999","-999","-9999","-9999","","","Scattered Clouds","partlycloudy","0","0","0","0","0","0","AAXX 13091 33345 42698 51503 10210 20073 39897 40090 57008 82209 555 10043"
"12:00 PM EEST on June 13, 2016","2016","06","13","12","00","Europe/Kiev","9:00 AM GMT on June 13, 2016","2016","06","13","09","00","UTC","20.0","68.0","8.0","46.4","46","14.4","8.9","-9999.0","-9999.0","120","ESE","-9999.0","-9999.0","1009","29.80","-999","-999","-9999","-9999","-9999.00","-9999.00","Clear","clear","0","0","0","0","0","0","METAR UKKK 130900Z 12004MPS 070V180 CAVOK 20/08 Q1009 R08/CLRD70 NOSIG"
"12:30 PM EEST on June 13, 2016","2016","06","13","12","30","Europe/Kiev","9:30 AM GMT on June 13, 2016","2016","06","13","09","30","UTC","20.0","68.0","7.0","44.6","43","18.0","11.2","-9999.0","-9999.0","90","East","-9999.0","-9999.0","1009","29.80","-999","-999","-9999","-9999","-9999.00","-9999.00","Clear","clear","0","0","0","0","0","0","METAR UKKK 130930Z 09005MPS 060V150 CAVOK 20/07 Q1009 R08/CLRD70 NOSIG"
"1:00 PM EEST on June 13, 2016","2016","06","13","13","00","Europe/Kiev","10:00 AM GMT on June 13, 2016","2016","06","13","10","00","UTC","20.0","68.0","7.0","44.6","43","14.4","8.9","-9999.0","-9999.0","110","ESE","-9999.0","-9999.0","1009","29.80","-999","-999","-9999","-9999","-9999.00","-9999.00","Clear","clear","0","0","0","0","0","0","METAR UKKK 131000Z 11004MPS 070V150 CAVOK 20/07 Q1009 R08/CLRD70 NOSIG"
"1:30 PM EEST on June 13, 2016","2016","06","13","13","30","Europe/Kiev","10:30 AM GMT on June 13, 2016","2016","06","13","10","30","UTC","20.0","68.0","8.0","46.4","46","18.0","11.2","-9999.0","-9999.0","130","SE","9.0","5.6","1009","29.80","-999","-999","-9999","-9999","-9999.00","-9999.00","Unknown","unknown","0","0","0","0","0","0","METAR UKKK 131030Z 13005MPS 090V160 9000 NSC 20/08 Q1009 R08/CLRD70 NOSIG"
"2:00 PM EEST on June 13, 2016","2016","06","13","14","00","Europe/Kiev","11:00 AM GMT on June 13, 2016","2016","06","13","11","00","UTC","20.0","68.0","7.0","44.6","43","18.0","11.2","-9999.0","-9999.0","130","SE","-9999.0","-9999.0","1009","29.80","-999","-999","-9999","-9999","-9999.00","-9999.00","Clear","clear","0","0","0","0","0","0","METAR UKKK 131100Z 13005MPS 080V180 CAVOK 20/07 Q1009 R08/CLRD70 NOSIG"
"2:30 PM EEST on June 13, 2016","2016","06","13","14","30","Europe/Kiev","11:30 AM GMT on June 13, 2016","2016","06","13","11","30","UTC","19.0","66.2","7.0","44.6","46","18.0","11.2","-9999.0","-9999.0","120","ESE","-9999.0","-9999.0","1008","29.77","-999","-999","-9999","-9999","-9999.00","-9999.00","Clear","clear","0","0","0","0","0","0","METAR UKKK 131130Z 12005MPS CAVOK 19/07 Q1008 R08/CLRD70 NOSIG"
"3:00 PM EEST on June 13, 2016","2016","06","13","15","00","Europe/Kiev","12:00 PM GMT on June 13, 2016","2016","06","13","12","00","UTC","20","68","8","46","34","10.8","6.7","","","140","SE","20","12","1008","29.77","-999","-999","-9999","-9999","","","Scattered Clouds","partlycloudy","0","0","0","0","0","0","AAXX 13121 33345 32698 71403 10201 20078 39887 40081 57010 82240 555 10034"
"3:00 PM EEST on June 13, 2016","2016","06","13","15","00","Europe/Kiev","12:00 PM GMT on June 13, 2016","2016","06","13","12","00","UTC","19.0","66.2","8.0","46.4","49","18.0","11.2","-9999.0","-9999.0","110","ESE","-9999.0","-9999.0","1008","29.77","-999","-999","-9999","-9999","-9999.00","-9999.00","Clear","clear","0","0","0","0","0","0","METAR UKKK 131200Z 11005MPS 090V150 CAVOK 19/08 Q1008 R08/CLRD70 NOSIG"
"3:30 PM EEST on June 13, 2016","2016","06","13","15","30","Europe/Kiev","12:30 PM GMT on June 13, 2016","2016","06","13","12","30","UTC","19.0","66.2","8.0","46.4","49","18.0","11.2","-9999.0","-9999.0","120","ESE","-9999.0","-9999.0","1008","29.77","-999","-999","-9999","-9999","-9999.00","-9999.00","Clear","clear","0","0","0","0","0","0","METAR UKKK 131230Z 12005MPS 080V150 CAVOK 19/08 Q1008 R08/CLRD70 NOSIG"
"4:00 PM EEST on June 13, 2016","2016","06","13","16","00","Europe/Kiev","1:00 PM GMT on June 13, 2016","2016","06","13","13","00","UTC","19.0","66.2","8.0","46.4","49","18.0","11.2","-9999.0","-9999.0","130","SE","9.0","5.6","1008","29.77","-999","-999","-9999","-9999","-9999.00","-9999.00","Unknown","unknown","0","0","0","0","0","0","METAR UKKK 131300Z 13005MPS 9000 NSC 19/08 Q1008 R08/CLRD70 NOSIG"
"4:30 PM EEST on June 13, 2016","2016","06","13","16","30","Europe/Kiev","1:30 PM GMT on June 13, 2016","2016","06","13","13","30","UTC","19.0","66.2","8.0","46.4","49","14.4","8.9","-9999.0","-9999.0","130","SE","-9999.0","-9999.0","1008","29.77","-999","-999","-9999","-9999","-9999.00","-9999.00","Clear","clear","0","0","0","0","0","0","METAR UKKK 131330Z 13004MPS 100V180 CAVOK 19/08 Q1008 R08/CLRD70 NOSIG"
"5:00 PM EEST on June 13, 2016","2016","06","13","17","00","Europe/Kiev","2:00 PM GMT on June 13, 2016","2016","06","13","14","00","UTC","18.0","64.4","8.0","46.4","52","14.4","8.9","-9999.0","-9999.0","120","ESE","-9999.0","-9999.0","1007","29.74","-999","-999","-9999","-9999","-9999.00","-9999.00","Clear","clear","0","0","0","0","0","0","METAR UKKK 131400Z 12004MPS 080V160 CAVOK 18/08 Q1007 R08/CLRD70 NOSIG"
"5:30 PM EEST on June 13, 2016","2016","06","13","17","30","Europe/Kiev","2:30 PM GMT on June 13, 2016","2016","06","13","14","30","UTC","18.0","64.4","9.0","48.2","56","14.4","8.9","-9999.0","-9999.0","110","ESE","-9999.0","-9999.0","1007","29.74","-999","-999","-9999","-9999","-9999.00","-9999.00","Clear","clear","0","0","0","0","0","0","METAR UKKK 131430Z 11004MPS 080V150 CAVOK 18/09 Q1007 R08/CLRD70 NOSIG"
"6:00 PM EEST on June 13, 2016","2016","06","13","18","00","Europe/Kiev","3:00 PM GMT on June 13, 2016","2016","06","13","15","00","UTC","18","65","10","50","48","7.2","4.5","","","150","SSE","20","12","1007","29.74","-999","-999","-9999","-9999","","","Partly Cloudy","partlycloudy","0","0","0","0","0","0","AAXX 13151 33345 42698 71502 10185 20101 39877 40071 57010 83540 555 10025"
"6:00 PM EEST on June 13, 2016","2016","06","13","18","00","Europe/Kiev","3:00 PM GMT on June 13, 2016","2016","06","13","15","00","UTC","18.0","64.4","9.0","48.2","56","14.4","8.9","-9999.0","-9999.0","100","East","-9999.0","-9999.0","1007","29.74","-999","-999","-9999","-9999","-9999.00","-9999.00","Clear","clear","0","0","0","0","0","0","METAR UKKK 131500Z 10004MPS CAVOK 18/09 Q1007 R08/CLRD70 NOSIG"
"6:30 PM EEST on June 13, 2016","2016","06","13","18","30","Europe/Kiev","3:30 PM GMT on June 13, 2016","2016","06","13","15","30","UTC","18.0","64.4","11.0","51.8","64","10.8","6.7","-9999.0","-9999.0","120","ESE","-9999.0","-9999.0","1007","29.74","-999","-999","-9999","-9999","-9999.00","-9999.00","Clear","clear","0","0","0","0","0","0","METAR UKKK 131530Z 12003MPS CAVOK 18/11 Q1007 R08/CLRD70 NOSIG"
"7:00 PM EEST on June 13, 2016","2016","06","13","19","00","Europe/Kiev","4:00 PM GMT on June 13, 2016","2016","06","13","16","00","UTC","17.0","62.6","12.0","53.6","72","10.8","6.7","-9999.0","-9999.0","140","SE","-9999.0","-9999.0","1007","29.74","-999","-999","-9999","-9999","-9999.00","-9999.00","Clear","clear","0","0","0","0","0","0","METAR UKKK 131600Z 14003MPS 110V170 CAVOK 17/12 Q1007 R08/CLRD70 NOSIG"
"7:30 PM EEST on June 13, 2016","2016","06","13","19","30","Europe/Kiev","4:30 PM GMT on June 13, 2016","2016","06","13","16","30","UTC","16.0","60.8","12.0","53.6","77","10.8","6.7","-9999.0","-9999.0","150","SSE","-9999.0","-9999.0","1007","29.74","-999","-999","-9999","-9999","-9999.00","-9999.00","Clear","clear","0","0","0","0","0","0","METAR UKKK 131630Z 15003MPS 120V200 CAVOK 16/12 Q1007 R08/CLRD70 NOSIG"
"8:00 PM EEST on June 13, 2016","2016","06","13","20","00","Europe/Kiev","5:00 PM GMT on June 13, 2016","2016","06","13","17","00","UTC","16.0","60.8","12.0","53.6","77","14.4","8.9","-9999.0","-9999.0","130","SE","-9999.0","-9999.0","1007","29.74","-999","-999","-9999","-9999","-9999.00","-9999.00","Clear","clear","0","0","0","0","0","0","METAR UKKK 131700Z 13004MPS 100V170 CAVOK 16/12 Q1007 R08/CLRD70 NOSIG"
"8:30 PM EEST on June 13, 2016","2016","06","13","20","30","Europe/Kiev","5:30 PM GMT on June 13, 2016","2016","06","13","17","30","UTC","15.0","59.0","12.0","53.6","82","14.4","8.9","-9999.0","-9999.0","110","ESE","-9999.0","-9999.0","1007","29.74","-999","-999","-9999","-9999","-9999.00","-9999.00","Clear","clear","0","0","0","0","0","0","METAR UKKK 131730Z 11004MPS 070V130 CAVOK 15/12 Q1007 R08/CLRD70 NOSIG"
"9:00 PM EEST on June 13, 2016","2016","06","13","21","00","Europe/Kiev","6:00 PM GMT on June 13, 2016","2016","06","13","18","00","UTC","15","59","12","53","75","7.2","4.5","","","100","East","20","12","1007","29.74","-999","-999","-9999","-9999","","","Mostly Cloudy","mostlycloudy","0","0","0","0","0","0","AAXX 13181 33345 32998 71002 10152 20117 39873 40069 58004 87030 333 10213 555 10017"
"9:00 PM EEST on June 13, 2016","2016","06","13","21","00","Europe/Kiev","6:00 PM GMT on June 13, 2016","2016","06","13","18","00","UTC","15.0","59.0","11.0","51.8","77","14.4","8.9","-9999.0","-9999.0","100","East","10.0","6.2","1007","29.74","-999","-999","-9999","-9999","-9999.00","-9999.00","Mostly Cloudy","mostlycloudy","0","0","0","0","0","0","METAR UKKK 131800Z 10004MPS 9999 BKN040 15/11 Q1007 R08/CLRD70 NOSIG"
"9:30 PM EEST on June 13, 2016","2016","06","13","21","30","Europe/Kiev","6:30 PM GMT on June 13, 2016","2016","06","13","18","30","UTC","15.0","59.0","11.0","51.8","77","10.8","6.7","-9999.0","-9999.0","100","East","10.0","6.2","1007","29.74","-999","-999","-9999","-9999","-9999.00","-9999.00","Mostly Cloudy","mostlycloudy","0","0","0","0","0","0","METAR UKKK 131830Z 10003MPS 9999 BKN040 15/11 Q1007 R08/CLRD70 NOSIG"
"10:00 PM EEST on June 13, 2016","2016","06","13","22","00","Europe/Kiev","7:00 PM GMT on June 13, 2016","2016","06","13","19","00","UTC","15.0","59.0","11.0","51.8","77","10.8","6.7","-9999.0","-9999.0","100","East","10.0","6.2","1007","29.74","-999","-999","-9999","-9999","-9999.00","-9999.00","Mostly Cloudy","mostlycloudy","0","0","0","0","0","0","METAR UKKK 131900Z 10003MPS 9999 BKN040 15/11 Q1007 R08/CLRD70 NOSIG"
"10:30 PM EEST on June 13, 2016","2016","06","13","22","30","Europe/Kiev","7:30 PM GMT on June 13, 2016","2016","06","13","19","30","UTC","15.0","59.0","10.0","50.0","72","14.4","8.9","-9999.0","-9999.0","90","East","10.0","6.2","1007","29.74","-999","-999","-9999","-9999","-9999.00","-9999.00","Mostly Cloudy","mostlycloudy","0","0","0","0","0","0","METAR UKKK 131930Z 09004MPS 9999 BKN036 15/10 Q1007 R08/CLRD70 NOSIG"
"11:00 PM EEST on June 13, 2016","2016","06","13","23","00","Europe/Kiev","8:00 PM GMT on June 13, 2016","2016","06","13","20","00","UTC","14.0","57.2","11.0","51.8","82","10.8","6.7","-9999.0","-9999.0","90","East","-9999.0","-9999.0","1007","29.74","-999","-999","-9999","-9999","-9999.00","-9999.00","Clear","clear","0","0","0","0","0","0","METAR UKKK 132000Z 09003MPS CAVOK 14/11 Q1007 R08/CLRD70 NOSIG"
"11:30 PM EEST on June 13, 2016","2016","06","13","23","30","Europe/Kiev","8:30 PM GMT on June 13, 2016","2016","06","13","20","30","UTC","15.0","59.0","12.0","53.6","82","18.0","11.2","-9999.0","-9999.0","90","East","10.0","6.2","1006","29.71","-999","-999","-9999","-9999","-9999.00","-9999.00","Mostly Cloudy","mostlycloudy","0","0","0","0","0","0","METAR UKKK 132030Z 09005MPS 9999 BKN014 15/12 Q1006 R08/CLRD70 NOSIG"
"12:00 AM EEST on June 14, 2016","2016","06","14","00","00","Europe/Kiev","9:00 PM GMT on June 13, 2016","2016","06","13","21","00","UTC","15","59","12","54","77","7.2","4.5","","","90","East","20","12","1006","29.73","-999","-999","-9999","-9999","","","Mostly Cloudy","mostlycloudy","0","0","0","0","0","0","AAXX 13211 33345 42998 60902 10150 20121 39869 40065 57004 86030 555 10016"
"12:00 AM EEST on June 14, 2016","2016","06","14","00","00","Europe/Kiev","9:00 PM GMT on June 13, 2016","2016","06","13","21","00","UTC","15.0","59.0","12.0","53.6","82","18.0","11.2","-9999.0","-9999.0","90","East","10.0","6.2","1006","29.71","-999","-999","-9999","-9999","-9999.00","-9999.00","Mostly Cloudy","mostlycloudy","0","0","0","0","0","0","METAR UKKK 132100Z 09005MPS 9999 BKN013 15/12 Q1006 R08/CLRD70 NOSIG"
"12:30 AM EEST on June 14, 2016","2016","06","14","00","30","Europe/Kiev","9:30 PM GMT on June 13, 2016","2016","06","13","21","30","UTC","15.0","59.0","13.0","55.4","88","14.4","8.9","-9999.0","-9999.0","100","East","10.0","6.2","1006","29.71","-999","-999","-9999","-9999","-9999.00","-9999.00","Mostly Cloudy","mostlycloudy","0","0","0","0","0","0","METAR UKKK 132130Z 10004MPS 9999 BKN012 BKN029 15/13 Q1006 R08/CLRD70 NOSIG"
"1:00 AM EEST on June 14, 2016","2016","06","14","01","00","Europe/Kiev","10:00 PM GMT on June 13, 2016","2016","06","13","22","00","UTC","15.0","59.0","13.0","55.4","88","14.4","8.9","-9999.0","-9999.0","90","East","10.0","6.2","1006","29.71","-999","-999","-9999","-9999","-9999.00","-9999.00","Overcast","cloudy","0","0","0","0","0","0","METAR UKKK 132200Z 09004MPS 9999 OVC010 15/13 Q1006 R08/CLRD70 NOSIG"
"1:30 AM EEST on June 14, 2016","2016","06","14","01","30","Europe/Kiev","10:30 PM GMT on June 13, 2016","2016","06","13","22","30","UTC","15.0","59.0","13.0","55.4","88","14.4","8.9","-9999.0","-9999.0","90","East","9.0","5.6","1006","29.71","-999","-999","-9999","-9999","-9999.00","-9999.00","Overcast","cloudy","0","0","0","0","0","0","METAR UKKK 132230Z 09004MPS 9000 OVC010 15/13 Q1006 R08/CLRD70 NOSIG"
"2:00 AM EEST on June 14, 2016","2016","06","14","02","00","Europe/Kiev","11:00 PM GMT on June 13, 2016","2016","06","13","23","00","UTC","15.0","59.0","13.0","55.4","88","14.4","8.9","-9999.0","-9999.0","80","East","10.0","6.2","1005","29.68","-999","-999","-9999","-9999","-9999.00","-9999.00","Overcast","cloudy","0","0","0","0","0","0","METAR UKKK 132300Z 08004MPS 9999 OVC010 15/13 Q1005 R08/CLRD70 NOSIG"
"2:30 AM EEST on June 14, 2016","2016","06","14","02","30","Europe/Kiev","11:30 PM GMT on June 13, 2016","2016","06","13","23","30","UTC","15.0","59.0","13.0","55.4","88","14.4","8.9","-9999.0","-9999.0","70","ENE","10.0","6.2","1005","29.68","-999","-999","-9999","-9999","-9999.00","-9999.00","Overcast","cloudy","0","0","0","0","0","0","METAR UKKK 132330Z 07004MPS 9999 OVC010 15/13 Q1005 R08/CLRD70 NOSIG"
"3:00 AM EEST on June 14, 2016","2016","06","14","03","00","Europe/Kiev","12:00 AM GMT on June 14, 2016","2016","06","14","00","00","UTC","15","59","12","54","80","7.2","4.5","","","80","East","20","12","1005","29.69","-999","-999","-9999","-9999","","","Overcast","cloudy","0","0","0","0","0","0","AAXX 14001 33345 32998 80802 10149 20125 39857 40053 57012 8807/ 555 10016"
"3:00 AM EEST on June 14, 2016","2016","06","14","03","00","Europe/Kiev","12:00 AM GMT on June 14, 2016","2016","06","14","00","00","UTC","15.0","59.0","13.0","55.4","88","14.4","8.9","-9999.0","-9999.0","70","ENE","10.0","6.2","1005","29.68","-999","-999","-9999","-9999","-9999.00","-9999.00","Overcast","cloudy","0","0","0","0","0","0","METAR UKKK 140000Z 07004MPS 9999 OVC009 15/13 Q1005 R08/CLRD70 NOSIG"
"3:30 AM EEST on June 14, 2016","2016","06","14","03","30","Europe/Kiev","12:30 AM GMT on June 14, 2016","2016","06","14","00","30","UTC","15.0","59.0","13.0","55.4","88","10.8","6.7","-9999.0","-9999.0","70","ENE","10.0","6.2","1005","29.68","-999","-999","-9999","-9999","-9999.00","-9999.00","Overcast","cloudy","0","0","0","0","0","0","METAR UKKK 140030Z 07003MPS 9999 OVC008 15/13 Q1005 R08/CLRD70 NOSIG"
"4:00 AM EEST on June 14, 2016","2016","06","14","04","00","Europe/Kiev","1:00 AM GMT on June 14, 2016","2016","06","14","01","00","UTC","15.0","59.0","14.0","57.2","94","10.8","6.7","-9999.0","-9999.0","70","ENE","10.0","6.2","1005","29.68","-999","-999","-9999","-9999","-9999.00","-9999.00","Overcast","cloudy","0","0","0","0","0","0","METAR UKKK 140100Z 07003MPS 9999 OVC006 15/14 Q1005 R08/CLRD70 TEMPO BKN005"
"4:30 AM EEST on June 14, 2016","2016","06","14","04","30","Europe/Kiev","1:30 AM GMT on June 14, 2016","2016","06","14","01","30","UTC","15.0","59.0","14.0","57.2","94","14.4","8.9","-9999.0","-9999.0","70","ENE","7.0","4.3","1005","29.68","-999","-999","-9999","-9999","-9999.00","-9999.00","Overcast","cloudy","0","0","0","0","0","0","METAR UKKK 140130Z 07004MPS 7000 OVC006 15/14 Q1005 R08/CLRD70 TEMPO BKN005"
"4:49 AM EEST on June 14, 2016","2016","06","14","04","49","Europe/Kiev","1:49 AM GMT on June 14, 2016","2016","06","14","01","49","UTC","15.0","59.0","14.0","57.2","94","14.4","8.9","-9999.0","-9999.0","70","ENE","-9999.0","-9999.0","1004","29.65","-999","-999","-9999","-9999","-9999.00","-9999.00","Overcast","cloudy","0","0","0","0","0","0","SPECI UKKK 140149Z 07004MPS 4800 BR OVC004 15/14 Q1004 R08/CLRD70 TEMPO BKN003"
"5:00 AM EEST on June 14, 2016","2016","06","14","05","00","Europe/Kiev","2:00 AM GMT on June 14, 2016","2016","06","14","02","00","UTC","15.0","59.0","14.0","57.2","94","14.4","8.9","-9999.0","-9999.0","70","ENE","-9999.0","-9999.0","1004","29.65","-999","-999","-9999","-9999","-9999.00","-9999.00","Overcast","cloudy","0","0","0","0","0","0","METAR UKKK 140200Z 07004MPS 4700 BR OVC003 15/14 Q1004 R08/CLRD70 TEMPO BKN003"
"5:30 AM EEST on June 14, 2016","2016","06","14","05","30","Europe/Kiev","2:30 AM GMT on June 14, 2016","2016","06","14","02","30","UTC","15.0","59.0","14.0","57.2","94","10.8","6.7","-9999.0","-9999.0","70","ENE","1.8","1.1","1004","29.65","-999","-999","-9999","-9999","-9999.00","-9999.00","Overcast","cloudy","0","0","0","0","0","0","METAR UKKK 140230Z 07003MPS 1800 BR OVC002 15/14 Q1004 R08/CLRD70 TEMPO 1000 BR"
"6:00 AM EEST on June 14, 2016","2016","06","14","06","00","Europe/Kiev","3:00 AM GMT on June 14, 2016","2016","06","14","03","00","UTC","15","58","14","57","94","3.6","2.2","","","50","NE","4","2","1005","29.67","-999","-999","-9999","-9999","","","Mist","hazy","0","0","0","0","0","0","AAXX 14031 33345 41496 80501 10146 20137 39851 40047 56006 71022 886// 333 88711 555 10015"
"6:00 AM EEST on June 14, 2016","2016","06","14","06","00","Europe/Kiev","3:00 AM GMT on June 14, 2016","2016","06","14","03","00","UTC","15.0","59.0","15.0","59.0","100","14.4","8.9","-9999.0","-9999.0","70","ENE","1.9","1.2","1004","29.65","-999","-999","-9999","-9999","-9999.00","-9999.00","Overcast","cloudy","0","0","0","0","0","0","METAR UKKK 140300Z 07004MPS 1900 BR OVC002 15/15 Q1004 R08/CLRD70 TEMPO 1000 BR"
"6:30 AM EEST on June 14, 2016","2016","06","14","06","30","Europe/Kiev","3:30 AM GMT on June 14, 2016","2016","06","14","03","30","UTC","15.0","59.0","15.0","59.0","100","10.8","6.7","-9999.0","-9999.0","70","ENE","1.4","0.9","1004","29.65","-999","-999","-9999","-9999","-9999.00","-9999.00","Light Drizzle","rain","0","0","0","0","0","0","METAR UKKK 140330Z 07003MPS 1400 R08/P2000D -DZ BR OVC002 15/15 Q1004 R08/CLRD70 TEMPO 0800 FG VV001"
"6:36 AM EEST on June 14, 2016","2016","06","14","06","36","Europe/Kiev","3:36 AM GMT on June 14, 2016","2016","06","14","03","36","UTC","15.0","59.0","15.0","59.0","100","10.8","6.7","-9999.0","-9999.0","70","ENE","1.3","0.8","1004","29.65","-999","-999","-9999","-9999","-9999.00","-9999.00","Overcast","cloudy","0","0","0","0","0","0","SPECI UKKK 140336Z 07003MPS 1300 R08/P2000D BR OVC001 15/15 Q1004 R08/CLRD70 TEMPO 0800 FG VV001"
"7:00 AM EEST on June 14, 2016","2016","06","14","07","00","Europe/Kiev","4:00 AM GMT on June 14, 2016","2016","06","14","04","00","UTC","15.0","59.0","15.0","59.0","100","14.4","8.9","-9999.0","-9999.0","70","ENE","1.6","1.0","1004","29.65","-999","-999","-9999","-9999","-9999.00","-9999.00","Overcast","cloudy","0","0","0","0","0","0","METAR UKKK 140400Z 07004MPS 1600 BR OVC001 15/15 Q1004 R08/CLRD70 TEMPO 0800 FG VV001"
"7:30 AM EEST on June 14, 2016","2016","06","14","07","30","Europe/Kiev","4:30 AM GMT on June 14, 2016","2016","06","14","04","30","UTC","15.0","59.0","15.0","59.0","100","14.4","8.9","-9999.0","-9999.0","90","East","1.4","0.9","1004","29.65","-999","-999","-9999","-9999","-9999.00","-9999.00","Light Drizzle","rain","0","0","0","0","0","0","METAR UKKK 140430Z 09004MPS 1400 R08/1900D -DZ BR OVC001 15/15 Q1004 R08/190060 TEMPO 0800 FG VV001"
"8:00 AM EEST on June 14, 2016","2016","06","14","08","00","Europe/Kiev","5:00 AM GMT on June 14, 2016","2016","06","14","05","00","UTC","15.0","59.0","15.0","59.0","100","10.8","6.7","-9999.0","-9999.0","90","East","1.3","0.8","1005","29.68","-999","-999","-9999","-9999","-9999.00","-9999.00","Light Drizzle","rain","0","0","0","0","0","0","METAR UKKK 140500Z 09003MPS 1300 R08/1500VP2000U -DZ BR OVC001 15/15 Q1005 R08/190060 TEMPO 0800 FG VV001"
"8:30 AM EEST on June 14, 2016","2016","06","14","08","30","Europe/Kiev","5:30 AM GMT on June 14, 2016","2016","06","14","05","30","UTC","16.0","60.8","16.0","60.8","100","10.8","6.7","-9999.0","-9999.0","90","East","0.6","0.4","1005","29.68","-999","-999","-9999","-9999","-9999.00","-9999.00","Light Drizzle","rain","0","0","0","0","0","0","METAR UKKK 140530Z 09003MPS 0600 R08/P2000D -DZ PRFG OVC002 16/16 Q1005 R08/290058 TEMPO 0800 FG VV001"
"8:39 AM EEST on June 14, 2016","2016","06","14","08","39","Europe/Kiev","5:39 AM GMT on June 14, 2016","2016","06","14","05","39","UTC","16.0","60.8","16.0","60.8","100","10.8","6.7","-9999.0","-9999.0","100","East","0.4","0.3","1005","29.68","-999","-999","-9999","-9999","-9999.00","-9999.00","Light Drizzle","rain","0","0","0","0","0","0","SPECI UKKK 140539Z 10003MPS 0450 R08/1000V1700D -DZ PRFG OVC001 16/16 Q1005 R08/290058 TEMPO 0400 -SHRA FG BKN001 SCT020CB"
"9:00 AM EEST on June 14, 2016","2016","06","14","09","00","Europe/Kiev","6:00 AM GMT on June 14, 2016","2016","06","14","06","00","UTC","16","61","16","60","95","3.6","2.2","","","90","East","0.5","0","1005","29.67","-999","-999","-9999","-9999","","","Heavy Fog","fog","1","0","0","0","0","0","AAXX 14061 33345 11/93 90901 10160 20155 39851 40046 54000 69912 74754 333 20146 555 11017"
"9:00 AM EEST on June 14, 2016","2016","06","14","09","00","Europe/Kiev","6:00 AM GMT on June 14, 2016","2016","06","14","06","00","UTC","16.0","60.8","16.0","60.8","100","7.2","4.5","-9999.0","-9999.0","90","East","0.3","0.2","1004","29.65","-999","-999","-9999","-9999","-9999.00","-9999.00","Light Drizzle","rain","1","0","0","0","0","0","METAR UKKK 140600Z 09002MPS 060V130 0300 R08/0600N -DZ FG OVC002 16/16 Q1004 R08/290058 TEMPO 0400 -SHRA FG BKN001 SCT020CB"
"9:30 AM EEST on June 14, 2016","2016","06","14","09","30","Europe/Kiev","6:30 AM GMT on June 14, 2016","2016","06","14","06","30","UTC","16.0","60.8","16.0","60.8","100","14.4","8.9","-9999.0","-9999.0","90","East","0.6","0.4","1004","29.65","-999","-999","-9999","-9999","-9999.00","-9999.00","Light Drizzle","rain","1","0","0","0","0","0","METAR UKKK 140630Z 09004MPS 0600 R08/0800U -DZ FG OVC002 16/16 Q1004 R08/290058 NOSIG"
"9:34 AM EEST on June 14, 2016","2016","06","14","09","34","Europe/Kiev","6:34 AM GMT on June 14, 2016","2016","06","14","06","34","UTC","17.0","62.6","17.0","62.6","100","10.8","6.7","-9999.0","-9999.0","100","East","0.9","0.6","1004","29.65","-999","-999","-9999","-9999","-9999.00","-9999.00","Light Drizzle","rain","0","0","0","0","0","0","SPECI UKKK 140634Z 10003MPS 0900 R08/1000U -DZ PRFG OVC001 17/17 Q1004 R08/290058 NOSIG"
"10:00 AM EEST on June 14, 2016","2016","06","14","10","00","Europe/Kiev","7:00 AM GMT on June 14, 2016","2016","06","14","07","00","UTC","16.0","60.8","16.0","60.8","100","10.8","6.7","-9999.0","-9999.0","110","ESE","1.7","1.1","1004","29.65","-999","-999","-9999","-9999","-9999.00","-9999.00","Overcast","cloudy","0","0","0","0","0","0","METAR UKKK 140700Z 11003MPS 080V150 1700 BR OVC003 16/16 Q1004 R08/290058 TEMPO 1000 BR BKN001"
"10:30 AM EEST on June 14, 2016","2016","06","14","10","30","Europe/Kiev","7:30 AM GMT on June 14, 2016","2016","06","14","07","30","UTC","17.0","62.6","17.0","62.6","100","10.8","6.7","-9999.0","-9999.0","110","ESE","3.5","2.2","1004","29.65","-999","-999","-9999","-9999","-9999.00","-9999.00","Overcast","cloudy","0","0","0","0","0","0","METAR UKKK 140730Z 11003MPS 070V150 3500 BR OVC005 17/17 Q1004 R08/290058 TEMPO BKN002"
"11:00 AM EEST on June 14, 2016","2016","06","14","11","00","Europe/Kiev","8:00 AM GMT on June 14, 2016","2016","06","14","08","00","UTC","18.0","64.4","17.0","62.6","94","10.8","6.7","-9999.0","-9999.0","100","East","6.0","3.7","1004","29.65","-999","-999","-9999","-9999","-9999.00","-9999.00","Overcast","cloudy","0","0","0","0","0","0","METAR UKKK 140800Z 10003MPS 070V130 6000 OVC009 18/17 Q1004 R08/190060 NOSIG"
"11:30 AM EEST on June 14, 2016","2016","06","14","11","30","Europe/Kiev","8:30 AM GMT on June 14, 2016","2016","06","14","08","30","UTC","19.0","66.2","17.0","62.6","88","14.4","8.9","-9999.0","-9999.0","90","East","8.0","5.0","1004","29.65","-999","-999","-9999","-9999","-9999.00","-9999.00","Overcast","cloudy","0","0","0","0","0","0","METAR UKKK 140830Z 09004MPS 060V130 8000 BKN010 OVC026 19/17 Q1004 R08/190060 NOSIG"
"12:00 PM EEST on June 14, 2016","2016","06","14","12","00","Europe/Kiev","9:00 AM GMT on June 14, 2016","2016","06","14","09","00","UTC","20","68","16","61","73","7.2","4.5","","","120","ESE","20","12","1004","29.64","-999","-999","-9999","-9999","","","Partly Cloudy","partlycloudy","0","0","0","0","0","0","AAXX 14091 33345 41498 71202 10202 20162 39845 40037 58006 70254 87900 333 87917 555 11029"
"12:00 PM EEST on June 14, 2016","2016","06","14","12","00","Europe/Kiev","9:00 AM GMT on June 14, 2016","2016","06","14","09","00","UTC","20.0","68.0","17.0","62.6","83","14.4","8.9","-9999.0","-9999.0","100","East","10.0","6.2","1004","29.65","-999","-999","-9999","-9999","-9999.00","-9999.00","Overcast","cloudy","0","0","0","0","0","0","METAR UKKK 140900Z 10004MPS 070V150 9999 BKN013 OVC040 20/17 Q1004 R08/190060 NOSIG"
"12:30 PM EEST on June 14, 2016","2016","06","14","12","30","Europe/Kiev","9:30 AM GMT on June 14, 2016","2016","06","14","09","30","UTC","20.0","68.0","17.0","62.6","83","14.4","8.9","-9999.0","-9999.0","120","ESE","10.0","6.2","1004","29.65","-999","-999","-9999","-9999","-9999.00","-9999.00","Mostly Cloudy","mostlycloudy","0","0","0","0","0","0","METAR UKKK 140930Z 12004MPS 9999 BKN030 20/17 Q1004 R08/190060 NOSIG"
"1:00 PM EEST on June 14, 2016","2016","06","14","13","00","Europe/Kiev","10:00 AM GMT on June 14, 2016","2016","06","14","10","00","UTC","21.0","69.8","17.0","62.6","78","14.4","8.9","-9999.0","-9999.0","80","East","10.0","6.2","1004","29.65","-999","-999","-9999","-9999","-9999.00","-9999.00","Mostly Cloudy","mostlycloudy","0","0","0","0","0","0","METAR UKKK 141000Z 08004MPS 060V120 9999 BKN022 21/17 Q1004 R08/190060 NOSIG"
"1:30 PM EEST on June 14, 2016","2016","06","14","13","30","Europe/Kiev","10:30 AM GMT on June 14, 2016","2016","06","14","10","30","UTC","22.0","71.6","16.0","60.8","69","14.4","8.9","-9999.0","-9999.0","110","ESE","10.0","6.2","1004","29.65","-999","-999","-9999","-9999","-9999.00","-9999.00","Mostly Cloudy","mostlycloudy","0","0","0","0","0","0","METAR UKKK 141030Z 11004MPS 9999 BKN028 22/16 Q1004 R08/CLRD70 NOSIG"
"2:00 PM EEST on June 14, 2016","2016","06","14","14","00","Europe/Kiev","11:00 AM GMT on June 14, 2016","2016","06","14","11","00","UTC","22.0","71.6","16.0","60.8","69","14.4","8.9","-9999.0","-9999.0","100","East","10.0","6.2","1003","29.62","-999","-999","-9999","-9999","-9999.00","-9999.00","Mostly Cloudy","mostlycloudy","0","0","0","0","0","0","METAR UKKK 141100Z 10004MPS 9999 SCT035 BKN100 22/16 Q1003 R08/CLRD70 NOSIG"
"2:30 PM EEST on June 14, 2016","2016","06","14","14","30","Europe/Kiev","11:30 AM GMT on June 14, 2016","2016","06","14","11","30","UTC","22.0","71.6","16.0","60.8","69","18.0","11.2","-9999.0","-9999.0","110","ESE","10.0","6.2","1003","29.62","-999","-999","-9999","-9999","-9999.00","-9999.00","Mostly Cloudy","mostlycloudy","0","0","0","0","0","0","METAR UKKK 141130Z 11005MPS 9999 SCT028 BKN093 22/16 Q1003 R08/CLRD70 NOSIG"
"3:00 PM EEST on June 14, 2016","2016","06","14","15","00","Europe/Kiev","12:00 PM GMT on June 14, 2016","2016","06","14","12","00","UTC","23","74","16","61","56","10.8","6.7","","","140","SE","20","12","1003","29.61","-999","-999","-9999","-9999","","","Partly Cloudy","partlycloudy","0","0","0","0","0","0","AAXX 14121 33345 /1598 61403 10231 20163 39836 40026 57009 70254 82530 555 10033 69901"
"3:00 PM EEST on June 14, 2016","2016","06","14","15","00","Europe/Kiev","12:00 PM GMT on June 14, 2016","2016","06","14","12","00","UTC","22.0","71.6","17.0","62.6","73","18.0","11.2","-9999.0","-9999.0","100","East","10.0","6.2","1003","29.62","-999","-999","-9999","-9999","-9999.00","-9999.00","Mostly Cloudy","mostlycloudy","0","0","0","0","0","0","METAR UKKK 141200Z 10005MPS 9999 SCT030 BKN093 22/17 Q1003 R08/CLRD70 NOSIG"
"3:30 PM EEST on June 14, 2016","2016","06","14","15","30","Europe/Kiev","12:30 PM GMT on June 14, 2016","2016","06","14","12","30","UTC","23.0","73.4","17.0","62.6","69","18.0","11.2","-9999.0","-9999.0","110","ESE","10.0","6.2","1003","29.62","-999","-999","-9999","-9999","-9999.00","-9999.00","Mostly Cloudy","mostlycloudy","0","0","0","0","0","0","METAR UKKK 141230Z 11005MPS 070V140 9999 SCT030 BKN100 23/17 Q1003 R08/CLRD70 NOSIG"
"4:00 PM EEST on June 14, 2016","2016","06","14","16","00","Europe/Kiev","1:00 PM GMT on June 14, 2016","2016","06","14","13","00","UTC","24.0","75.2","17.0","62.6","65","14.4","8.9","-9999.0","-9999.0","130","SE","10.0","6.2","1003","29.62","-999","-999","-9999","-9999","-9999.00","-9999.00","Mostly Cloudy","mostlycloudy","0","0","0","0","0","0","METAR UKKK 141300Z 13004MPS 100V170 9999 SCT033 BKN100 24/17 Q1003 R08/CLRD70 NOSIG"
"4:30 PM EEST on June 14, 2016","2016","06","14","16","30","Europe/Kiev","1:30 PM GMT on June 14, 2016","2016","06","14","13","30","UTC","23.0","73.4","16.0","60.8","65","18.0","11.2","-9999.0","-9999.0","100","East","10.0","6.2","1002","29.59","-999","-999","-9999","-9999","-9999.00","-9999.00","Mostly Cloudy","mostlycloudy","0","0","0","0","0","0","METAR UKKK 141330Z 10005MPS 070V140 9999 SCT034 BKN100 23/16 Q1002 R08/CLRD70 NOSIG"
"5:00 PM EEST on June 14, 2016","2016","06","14","17","00","Europe/Kiev","2:00 PM GMT on June 14, 2016","2016","06","14","14","00","UTC","23.0","73.4","16.0","60.8","65","14.4","8.9","-9999.0","-9999.0","110","ESE","10.0","6.2","1002","29.59","-999","-999","-9999","-9999","-9999.00","-9999.00","Mostly Cloudy","mostlycloudy","0","0","0","0","0","0","METAR UKKK 141400Z 11004MPS 9999 SCT040 BKN100 23/16 Q1002 R08/CLRD70 NOSIG"
"5:30 PM EEST on June 14, 2016","2016","06","14","17","30","Europe/Kiev","2:30 PM GMT on June 14, 2016","2016","06","14","14","30","UTC","23.0","73.4","16.0","60.8","65","18.0","11.2","-9999.0","-9999.0","110","ESE","10.0","6.2","1002","29.59","-999","-999","-9999","-9999","-9999.00","-9999.00","Mostly Cloudy","mostlycloudy","0","0","0","0","0","0","METAR UKKK 141430Z 11005MPS 9999 SCT039 BKN100 23/16 Q1002 R08/CLRD70 NOSIG"
"6:00 PM EEST on June 14, 2016","2016","06","14","18","00","Europe/Kiev","3:00 PM GMT on June 14, 2016","2016","06","14","15","00","UTC","23","74","14","58","46","7.2","4.5","","","140","SE","20","12","1002","29.58","-999","-999","-9999","-9999","","","Partly Cloudy","partlycloudy","0","0","0","0","0","0","AAXX 14151 33345 42598 61402 10233 20142 39825 40015 57011 84530 555 10029"
"6:00 PM EEST on June 14, 2016","2016","06","14","18","00","Europe/Kiev","3:00 PM GMT on June 14, 2016","2016","06","14","15","00","UTC","23.0","73.4","16.0","60.8","65","14.4","8.9","-9999.0","-9999.0","120","ESE","10.0","6.2","1002","29.59","-999","-999","-9999","-9999","-9999.00","-9999.00","Mostly Cloudy","mostlycloudy","0","0","0","0","0","0","METAR UKKK 141500Z 12004MPS 080V160 9999 SCT044 BKN100 23/16 Q1002 R08/CLRD70 NOSIG"
"6:30 PM EEST on June 14, 2016","2016","06","14","18","30","Europe/Kiev","3:30 PM GMT on June 14, 2016","2016","06","14","15","30","UTC","23.0","73.4","15.0","59.0","61","18.0","11.2","-9999.0","-9999.0","110","ESE","10.0","6.2","1002","29.59","-999","-999","-9999","-9999","-9999.00","-9999.00","Mostly Cloudy","mostlycloudy","0","0","0","0","0","0","METAR UKKK 141530Z 11005MPS 9999 SCT048 BKN100 23/15 Q1002 R08/CLRD70 NOSIG"
"7:00 PM EEST on June 14, 2016","2016","06","14","19","00","Europe/Kiev","4:00 PM GMT on June 14, 2016","2016","06","14","16","00","UTC","23.0","73.4","16.0","60.8","65","10.8","6.7","-9999.0","-9999.0","110","ESE","10.0","6.2","1002","29.59","-999","-999","-9999","-9999","-9999.00","-9999.00","Mostly Cloudy","mostlycloudy","0","0","0","0","0","0","METAR UKKK 141600Z 11003MPS 9999 FEW033CB BKN100 23/16 Q1002 R08/CLRD70 TEMPO VRB10G16MPS -TSRA BKN020CB"
"7:30 PM EEST on June 14, 2016","2016","06","14","19","30","Europe/Kiev","4:30 PM GMT on June 14, 2016","2016","06","14","16","30","UTC","22.0","71.6","16.0","60.8","69","10.8","6.7","-9999.0","-9999.0","120","ESE","9.0","5.6","1002","29.59","-999","-999","-9999","-9999","-9999.00","-9999.00","Mostly Cloudy","mostlycloudy","0","0","0","0","0","0","METAR UKKK 141630Z 12003MPS 9000 SCT030CB BKN049 22/16 Q1002 R08/CLRD70 TEMPO VRB10G16MPS -TSRA BKN020CB"
"8:00 PM EEST on June 14, 2016","2016","06","14","20","00","Europe/Kiev","5:00 PM GMT on June 14, 2016","2016","06","14","17","00","UTC","21.0","69.8","17.0","62.6","78","14.4","8.9","-9999.0","-9999.0","120","ESE","9.0","5.6","1002","29.59","-999","-999","-9999","-9999","-9999.00","-9999.00","Light Rain Showers","rain","0","1","0","0","0","0","METAR UKKK 141700Z 12004MPS 9000 -SHRA SCT028CB BKN050 21/17 Q1002 R08/CLRD70 TEMPO VRB10G16MPS -TSRA BKN020CB"
"8:30 PM EEST on June 14, 2016","2016","06","14","20","30","Europe/Kiev","5:30 PM GMT on June 14, 2016","2016","06","14","17","30","UTC","20.0","68.0","18.0","64.4","88","10.8","6.7","-9999.0","-9999.0","120","ESE","9.0","5.6","1002","29.59","-999","-999","-9999","-9999","-9999.00","-9999.00","Mostly Cloudy","mostlycloudy","0","0","0","0","0","0","METAR UKKK 141730Z 12003MPS 9000 FEW033CB BKN100 20/18 Q1002 R08/290256 TEMPO VRB10G16MPS -TSRA BKN020CB"
"9:00 PM EEST on June 14, 2016","2016","06","14","21","00","Europe/Kiev","6:00 PM GMT on June 14, 2016","2016","06","14","18","00","UTC","19","67","17","62","80","0.0","0.0","","","","","20","12","1002","29.58","-999","-999","-9999","-9999","","","Light Rain Showers","rain","0","1","0","0","0","0","AAXX 14181 33345 11998 60000 10194 20168 39825 40017 54000 60022 72582 86030 333 10246 555 11020"
"9:00 PM EEST on June 14, 2016","2016","06","14","21","00","Europe/Kiev","6:00 PM GMT on June 14, 2016","2016","06","14","18","00","UTC","19.0","66.2","17.0","62.6","88","7.2","4.5","-9999.0","-9999.0","100","East","10.0","6.2","1002","29.59","-999","-999","-9999","-9999","-9999.00","-9999.00","Scattered Clouds","partlycloudy","0","0","0","0","0","0","METAR UKKK 141800Z 10002MPS 9999 FEW033CB SCT100 19/17 Q1002 R08/290256 NOSIG"
"9:30 PM EEST on June 14, 2016","2016","06","14","21","30","Europe/Kiev","6:30 PM GMT on June 14, 2016","2016","06","14","18","30","UTC","18.0","64.4","18.0","64.4","100","10.8","6.7","-9999.0","-9999.0","100","East","9.0","5.6","1002","29.59","-999","-999","-9999","-9999","-9999.00","-9999.00","Unknown","unknown","0","0","0","0","0","0","METAR UKKK 141830Z 10003MPS 9000 NSC 18/18 Q1002 R08/290256 NOSIG"
"10:00 PM EEST on June 14, 2016","2016","06","14","22","00","Europe/Kiev","7:00 PM GMT on June 14, 2016","2016","06","14","19","00","UTC","20.0","68.0","17.0","62.6","83","14.4","8.9","-9999.0","-9999.0","100","East","-9999.0","-9999.0","1002","29.59","-999","-999","-9999","-9999","-9999.00","-9999.00","Clear","clear","0","0","0","0","0","0","METAR UKKK 141900Z 10004MPS CAVOK 20/17 Q1002 R08/290256 NOSIG"
"10:30 PM EEST on June 14, 2016","2016","06","14","22","30","Europe/Kiev","7:30 PM GMT on June 14, 2016","2016","06","14","19","30","UTC","20.0","68.0","17.0","62.6","83","14.4","8.9","-9999.0","-9999.0","110","ESE","-9999.0","-9999.0","1002","29.59","-999","-999","-9999","-9999","-9999.00","-9999.00","Clear","clear","0","0","0","0","0","0","METAR UKKK 141930Z 11004MPS CAVOK 20/17 Q1002 R08/290158 NOSIG"
"11:00 PM EEST on June 14, 2016","2016","06","14","23","00","Europe/Kiev","8:00 PM GMT on June 14, 2016","2016","06","14","20","00","UTC","20.0","68.0","17.0","62.6","83","10.8","6.7","-9999.0","-9999.0","100","East","-9999.0","-9999.0","1001","29.56","-999","-999","-9999","-9999","-9999.00","-9999.00","Clear","clear","0","0","0","0","0","0","METAR UKKK 142000Z 10003MPS CAVOK 20/17 Q1001 R08/290158 NOSIG"
"11:30 PM EEST on June 14, 2016","2016","06","14","23","30","Europe/Kiev","8:30 PM GMT on June 14, 2016","2016","06","14","20","30","UTC","20.0","68.0","17.0","62.6","83","14.4","8.9","-9999.0","-9999.0","110","ESE","-9999.0","-9999.0","1002","29.59","-999","-999","-9999","-9999","-9999.00","-9999.00","Clear","clear","0","0","0","0","0","0","METAR UKKK 142030Z 11004MPS CAVOK 20/17 Q1002 R08/290158 NOSIG"
"11:57 PM EEST on June 14, 2016","2016","06","14","23","57","Europe/Kiev","8:57 PM GMT on June 14, 2016","2016","06","14","20","57","UTC","20.0","68.0","17.0","62.6","83","10.8","6.7","-9999.0","-9999.0","120","ESE","10.0","6.2","1002","29.59","-999","-999","-9999","-9999","-9999.00","-9999.00","Mostly Cloudy","mostlycloudy","0","0","0","0","1","0","SPECI UKKK 142057Z 12003MPS 100V160 9999 VCTS SCT030CB BKN080 20/17 Q1002 R08/290058 TEMPO VRB10G17MPS 1000 TSRA BKN005 BKN020CB"
"12:00 AM EEST on June 15, 2016","2016","06","15","00","00","Europe/Kiev","9:00 PM GMT on June 14, 2016","2016","06","14","21","00","UTC","18","65","16","61","83","7.2","4.5","","","190","South","20","12","1002","29.60","-999","-999","-9999","-9999","","","Mostly Cloudy","mostlycloudy","0","0","0","0","0","0","AAXX 14211 33345 42598 61902 10184 20162 39830 40023 53005 86900 555 11019"
"12:00 AM EEST on June 15, 2016","2016","06","15","00","00","Europe/Kiev","9:00 PM GMT on June 14, 2016","2016","06","14","21","00","UTC","20.0","68.0","17.0","62.6","83","14.4","8.9","-9999.0","-9999.0","130","SE","10.0","6.2","1002","29.59","-999","-999","-9999","-9999","-9999.00","-9999.00","Thunderstorm","tstorms","0","0","0","0","1","0","METAR UKKK 142100Z 13004MPS 100V200 9999 TS BKN032CB BKN080 20/17 Q1002 R08/290058 TEMPO VRB10G17MPS 1000 TSRA BKN005 BKN020CB"
"12:30 AM EEST on June 15, 2016","2016","06","15","00","30","Europe/Kiev","9:30 PM GMT on June 14, 2016","2016","06","14","21","30","UTC","18.0","64.4","15.0","59.0","83","14.4","8.9","-9999.0","-9999.0","170","South","9.0","5.6","1002","29.59","-999","-999","-9999","-9999","-9999.00","-9999.00","Light Thunderstorms and Rain","tstorms","0","1","0","0","1","0","METAR UKKK 142130Z 17004MPS 120V220 9000 -TSRA BKN030CB BKN070 18/15 Q1002 R08/290354 TEMPO VRB10G17MPS 1000 TSRA BKN005 BKN020CB"
"12:44 AM EEST on June 15, 2016","2016","06","15","00","44","Europe/Kiev","9:44 PM GMT on June 14, 2016","2016","06","14","21","44","UTC","17.0","62.6","15.0","59.0","88","10.8","6.7","-9999.0","-9999.0","130","SE","10.0","6.2","1002","29.59","-999","-999","-9999","-9999","-9999.00","-9999.00","Light Rain Showers","rain","0","1","0","0","1","0","SPECI UKKK 142144Z 13003MPS 9999 VCTS -SHRA BKN030CB BKN070 17/15 Q1002 RETS R08/290354 TEMPO VRB10G17MPS 1000 TSRA BKN005 BKN020CB"
"1:00 AM EEST on June 15, 2016","2016","06","15","01","00","Europe/Kiev","10:00 PM GMT on June 14, 2016","2016","06","14","22","00","UTC","17.0","62.6","15.0","59.0","88","10.8","6.7","-9999.0","-9999.0","140","SE","10.0","6.2","1001","29.56","-999","-999","-9999","-9999","-9999.00","-9999.00","Light Rain Showers","rain","0","1","0","0","0","0","METAR UKKK 142200Z 14003MPS 110V170 9999 -SHRA SCT032CB BKN100 17/15 Q1001 R08/290354 TEMPO VRB10G17MPS 1000 TSRA BKN005 BKN020CB"
"1:30 AM EEST on June 15, 2016","2016","06","15","01","30","Europe/Kiev","10:30 PM GMT on June 14, 2016","2016","06","14","22","30","UTC","18.0","64.4","16.0","60.8","88","14.4","8.9","-9999.0","-9999.0","130","SE","10.0","6.2","1002","29.59","-999","-999","-9999","-9999","-9999.00","-9999.00","Light Rain Showers","rain","0","1","0","0","0","0","METAR UKKK 142230Z 13004MPS 9999 -SHRA SCT032CB BKN100 18/16 Q1002 R08/290354 TEMPO VRB10G17MPS 1000 TSRA BKN005 BKN020CB"
"2:00 AM EEST on June 15, 2016","2016","06","15","02","00","Europe/Kiev","11:00 PM GMT on June 14, 2016","2016","06","14","23","00","UTC","17.0","62.6","16.0","60.8","94","7.2","4.5","-9999.0","-9999.0","130","SE","10.0","6.2","1001","29.56","-999","-999","-9999","-9999","-9999.00","-9999.00","Light Rain Showers","rain","0","1","0","0","0","0","METAR UKKK 142300Z 13002MPS 090V150 9999 -SHRA SCT032CB BKN100 17/16 Q1001 R08/290354 TEMPO VRB10G17MPS 1000 TSRA BKN005 BKN020CB"
"2:30 AM EEST on June 15, 2016","2016","06","15","02","30","Europe/Kiev","11:30 PM GMT on June 14, 2016","2016","06","14","23","30","UTC","17.0","62.6","16.0","60.8","94","10.8","6.7","-9999.0","-9999.0","120","ESE","10.0","6.2","1001","29.56","-999","-999","-9999","-9999","-9999.00","-9999.00","Mostly Cloudy","mostlycloudy","0","0","0","0","0","0","METAR UKKK 142330Z 12003MPS 9999 FEW033CB BKN100 17/16 Q1001 R08/290354 TEMPO VRB10G17MPS 1000 TSRA BKN005 BKN020CB"
"3:00 AM EEST on June 15, 2016","2016","06","15","03","00","Europe/Kiev","12:00 AM GMT on June 15, 2016","2016","06","15","00","00","UTC","17","63","16","60","89","0.0","0.0","","","","","10","6","1002","29.58","-999","-999","-9999","-9999","","","Partly Cloudy","partlycloudy","0","0","0","0","0","0","AAXX 15001 33345 /1597 60000 10171 20158 39821 40015 58009 70298 86500 555 11017 69901"
"3:00 AM EEST on June 15, 2016","2016","06","15","03","00","Europe/Kiev","12:00 AM GMT on June 15, 2016","2016","06","15","00","00","UTC","18.0","64.4","17.0","62.6","94","10.8","6.7","-9999.0","-9999.0","120","ESE","-9999.0","-9999.0","1001","29.56","-999","-999","-9999","-9999","-9999.00","-9999.00","Clear","clear","0","0","0","0","0","0","METAR UKKK 150000Z 12003MPS 090V150 CAVOK 18/17 Q1001 R08/290354 NOSIG"
"3:30 AM EEST on June 15, 2016","2016","06","15","03","30","Europe/Kiev","12:30 AM GMT on June 15, 2016","2016","06","15","00","30","UTC","18.0","64.4","17.0","62.6","94","10.8","6.7","-9999.0","-9999.0","120","ESE","-9999.0","-9999.0","1001","29.56","-999","-999","-9999","-9999","-9999.00","-9999.00","Clear","clear","0","0","0","0","0","0","METAR UKKK 150030Z 12003MPS CAVOK 18/17 Q1001 R08/290158 NOSIG"
"4:00 AM EEST on June 15, 2016","2016","06","15","04","00","Europe/Kiev","1:00 AM GMT on June 15, 2016","2016","06","15","01","00","UTC","17.0","62.6","17.0","62.6","100","7.2","4.5","-9999.0","-9999.0","120","ESE","9.0","5.6","1001","29.56","-999","-999","-9999","-9999","-9999.00","-9999.00","Unknown","unknown","0","0","0","0","0","0","METAR UKKK 150100Z 12002MPS 9000 NSC 17/17 Q1001 R08/290158 NOSIG"
"4:30 AM EEST on June 15, 2016","2016","06","15","04","30","Europe/Kiev","1:30 AM GMT on June 15, 2016","2016","06","15","01","30","UTC","17.0","62.6","17.0","62.6","100","7.2","4.5","-9999.0","-9999.0","110","ESE","8.0","5.0","1001","29.56","-999","-999","-9999","-9999","-9999.00","-9999.00","Unknown","unknown","0","0","0","0","0","0","METAR UKKK 150130Z 11002MPS 8000 NSC 17/17 Q1001 R08/290158 NOSIG"
"5:00 AM EEST on June 15, 2016","2016","06","15","05","00","Europe/Kiev","2:00 AM GMT on June 15, 2016","2016","06","15","02","00","UTC","17.0","62.6","17.0","62.6","100","10.8","6.7","-9999.0","-9999.0","120","ESE","8.0","5.0","1001","29.56","-999","-999","-9999","-9999","-9999.00","-9999.00","Unknown","unknown","0","0","0","0","0","0","METAR UKKK 150200Z 12003MPS 8000 NSC 17/17 Q1001 R08/290158 TEMPO 0400 FG VV001"
"5:30 AM EEST on June 15, 2016","2016","06","15","05","30","Europe/Kiev","2:30 AM GMT on June 15, 2016","2016","06","15","02","30","UTC","17.0","62.6","17.0","62.6","100","7.2","4.5","-9999.0","-9999.0","100","East","7.0","4.3","1001","29.56","-999","-999","-9999","-9999","-9999.00","-9999.00","Unknown","unknown","0","0","0","0","0","0","METAR UKKK 150230Z 10002MPS 7000 NSC 17/17 Q1001 R08/290158 TEMPO 0400 FG VV001"
"6:00 AM EEST on June 15, 2016","2016","06","15","06","00","Europe/Kiev","3:00 AM GMT on June 15, 2016","2016","06","15","03","00","UTC","17","62","16","60","92","3.6","2.2","","","140","SE","4","2","1001","29.57","-999","-999","-9999","-9999","","","Mist","hazy","0","0","0","0","0","0","AAXX 15031 33345 41596 71401 10167 20157 39820 40014 57001 71022 86530 555 11017"
"6:00 AM EEST on June 15, 2016","2016","06","15","06","00","Europe/Kiev","3:00 AM GMT on June 15, 2016","2016","06","15","03","00","UTC","17.0","62.6","17.0","62.6","100","10.8","6.7","-9999.0","-9999.0","110","ESE","7.0","4.3","1001","29.56","-999","-999","-9999","-9999","-9999.00","-9999.00","Mostly Cloudy","mostlycloudy","0","0","0","0","0","0","METAR UKKK 150300Z 11003MPS 7000 SCT004 BKN100 17/17 Q1001 R08/290158 TEMPO 0400 FG VV001"
"6:30 AM EEST on June 15, 2016","2016","06","15","06","30","Europe/Kiev","3:30 AM GMT on June 15, 2016","2016","06","15","03","30","UTC","18.0","64.4","17.0","62.6","94","7.2","4.5","-9999.0","-9999.0","130","SE","9.0","5.6","1001","29.56","-999","-999","-9999","-9999","-9999.00","-9999.00","Mostly Cloudy","mostlycloudy","0","0","0","0","0","0","METAR UKKK 150330Z 13002MPS 100V190 9000 SCT005 BKN100 18/17 Q1001 R08/290158 TEMPO 0400 FG VV001"
"7:00 AM EEST on June 15, 2016","2016","06","15","07","00","Europe/Kiev","4:00 AM GMT on June 15, 2016","2016","06","15","04","00","UTC","18.0","64.4","17.0","62.6","94","7.2","4.5","-9999.0","-9999.0","100","East","6.0","3.7","1001","29.56","-999","-999","-9999","-9999","-9999.00","-9999.00","Unknown","unknown","0","0","0","0","0","0","METAR UKKK 150400Z 10002MPS 080V140 6000 NSC 18/17 Q1001 R08/290158 TEMPO 2000 BR BKN003"
"7:30 AM EEST on June 15, 2016","2016","06","15","07","30","Europe/Kiev","4:30 AM GMT on June 15, 2016","2016","06","15","04","30","UTC","18.0","64.4","17.0","62.6","94","10.8","6.7","-9999.0","-9999.0","100","East","7.0","4.3","1001","29.56","-999","-999","-9999","-9999","-9999.00","-9999.00","Mostly Cloudy","mostlycloudy","0","0","0","0","0","0","METAR UKKK 150430Z 10003MPS 7000 FEW005 SCT033CB BKN073 18/17 Q1001 R08/290158 TEMPO 2000 BR BKN003"
"8:00 AM EEST on June 15, 2016","2016","06","15","08","00","Europe/Kiev","5:00 AM GMT on June 15, 2016","2016","06","15","05","00","UTC","18.0","64.4","17.0","62.6","94","14.4","8.9","-9999.0","-9999.0","100","East","10.0","6.2","1002","29.59","-999","-999","-9999","-9999","-9999.00","-9999.00","Mostly Cloudy","mostlycloudy","0","0","0","0","0","0","METAR UKKK 150500Z 10004MPS 9999 SCT008 BKN073 18/17 Q1002 R08/290158 TEMPO 2000 BR BKN003"
"8:30 AM EEST on June 15, 2016","2016","06","15","08","30","Europe/Kiev","5:30 AM GMT on June 15, 2016","2016","06","15","05","30","UTC","18.0","64.4","17.0","62.6","94","14.4","8.9","-9999.0","-9999.0","110","ESE","10.0","6.2","1002","29.59","-999","-999","-9999","-9999","-9999.00","-9999.00","Mostly Cloudy","mostlycloudy","0","0","0","0","0","0","METAR UKKK 150530Z 11004MPS 9999 SCT009 BKN073 18/17 Q1002 R08/290158 TEMPO 2000 BR BKN003"
"9:00 AM EEST on June 15, 2016","2016","06","15","09","00","Europe/Kiev","6:00 AM GMT on June 15, 2016","2016","06","15","06","00","UTC","18","65","16","61","81","3.6","2.2","","","140","SE","10","6","1002","29.60","-999","-999","-9999","-9999","","","Mostly Cloudy","mostlycloudy","0","0","0","0","0","0","AAXX 15061 33345 12497 71401 10181 20159 39828 40021 53008 69902 87900 333 20163 87917 555 11021"
"9:00 AM EEST on June 15, 2016","2016","06","15","09","00","Europe/Kiev","6:00 AM GMT on June 15, 2016","2016","06","15","06","00","UTC","18.0","64.4","17.0","62.6","94","10.8","6.7","-9999.0","-9999.0","110","ESE","10.0","6.2","1002","29.59","-999","-999","-9999","-9999","-9999.00","-9999.00","Mostly Cloudy","mostlycloudy","0","0","0","0","0","0","METAR UKKK 150600Z 11003MPS 090V150 9999 FEW009 BKN072 18/17 Q1002 R08/CLRD70 TEMPO 2000 BR BKN003"
"9:30 AM EEST on June 15, 2016","2016","06","15","09","30","Europe/Kiev","6:30 AM GMT on June 15, 2016","2016","06","15","06","30","UTC","18.0","64.4","17.0","62.6","94","7.2","4.5","-9999.0","-9999.0","130","SE","10.0","6.2","1002","29.59","-999","-999","-9999","-9999","-9999.00","-9999.00","Overcast","cloudy","0","0","0","0","0","0","METAR UKKK 150630Z 13002MPS 080V180 9999 FEW016CB OVC068 18/17 Q1002 R08/CLRD70 NOSIG"
"10:00 AM EEST on June 15, 2016","2016","06","15","10","00","Europe/Kiev","7:00 AM GMT on June 15, 2016","2016","06","15","07","00","UTC","18.0","64.4","17.0","62.6","94","10.8","6.7","-9999.0","-9999.0","130","SE","7.0","4.3","1002","29.59","-999","-999","-9999","-9999","-9999.00","-9999.00","Light Rain Showers","rain","0","1","0","0","0","0","METAR UKKK 150700Z 13003MPS 100V160 7000 -SHRA SCT020CB OVC062 18/17 Q1002 R08/CLRD70 NOSIG"
"10:30 AM EEST on June 15, 2016","2016","06","15","10","30","Europe/Kiev","7:30 AM GMT on June 15, 2016","2016","06","15","07","30","UTC","18.0","64.4","17.0","62.6","94","7.2","4.5","-9999.0","-9999.0","110","ESE","9.0","5.6","1002","29.59","-999","-999","-9999","-9999","-9999.00","-9999.00","Light Rain Showers","rain","0","1","0","0","0","0","METAR UKKK 150730Z 11002MPS 080V160 9000 -SHRA SCT026CB OVC050 18/17 Q1002 R08/290158 NOSIG"
"11:00 AM EEST on June 15, 2016","2016","06","15","11","00","Europe/Kiev","8:00 AM GMT on June 15, 2016","2016","06","15","08","00","UTC","18.0","64.4","17.0","62.6","94","3.6","2.2","-9999.0","-9999.0","90","East","-9999.0","-9999.0","1002","29.59","-999","-999","-9999","-9999","-9999.00","-9999.00","Light Rain Showers","rain","0","1","0","0","0","0","METAR UKKK 150800Z 09001MPS 3700 -SHRA SCT030CB OVC046 18/17 Q1002 R08/290158 NOSIG"
"11:30 AM EEST on June 15, 2016","2016","06","15","11","30","Europe/Kiev","8:30 AM GMT on June 15, 2016","2016","06","15","08","30","UTC","18.0","64.4","17.0","62.6","94","7.2","4.5","-9999.0","-9999.0","110","ESE","8.0","5.0","1002","29.59","-999","-999","-9999","-9999","-9999.00","-9999.00","Light Rain Showers","rain","0","1","0","0","0","0","METAR UKKK 150830Z 11002MPS 8000 -SHRA SCT030CB OVC046 18/17 Q1002 R08/290158 TEMPO VRB11G18MPS 2100 -TSRAGR BKN015CB"
"12:00 PM EEST on June 15, 2016","2016","06","15","12","00","Europe/Kiev","9:00 AM GMT on June 15, 2016","2016","06","15","09","00","UTC","18","65","17","62","89","3.6","2.2","","","160","SSE","10","6","1002","29.60","-999","-999","-9999","-9999","","","Light Rain","rain","0","1","0","0","0","0","AAXX 15091 33345 41497 81601 10185 20169 39831 40024 52003 76086 887// 333 88716 555 11023"
"12:00 PM EEST on June 15, 2016","2016","06","15","12","00","Europe/Kiev","9:00 AM GMT on June 15, 2016","2016","06","15","09","00","UTC","19.0","66.2","18.0","64.4","94","7.2","4.5","-9999.0","-9999.0","110","ESE","8.0","5.0","1002","29.59","-999","-999","-9999","-9999","-9999.00","-9999.00","Light Rain Showers","rain","0","1","0","0","0","0","METAR UKKK 150900Z 11002MPS 080V160 8000 -SHRA SCT033CB BKN047 19/18 Q1002 R08/290158 TEMPO VRB11G18MPS 2100 -TSRAGR BKN015CB"
"12:30 PM EEST on June 15, 2016","2016","06","15","12","30","Europe/Kiev","9:30 AM GMT on June 15, 2016","2016","06","15","09","30","UTC","19.0","66.2","17.0","62.6","88","7.2","4.5","-9999.0","-9999.0","120","ESE","10.0","6.2","1002","29.59","-999","-999","-9999","-9999","-9999.00","-9999.00","Mostly Cloudy","mostlycloudy","0","0","0","0","0","0","METAR UKKK 150930Z 12002MPS 090V150 9999 SCT033CB BKN054 19/17 Q1002 R08/290158 TEMPO VRB11G18MPS 2100 -TSRAGR BKN015CB"
"1:00 PM EEST on June 15, 2016","2016","06","15","13","00","Europe/Kiev","10:00 AM GMT on June 15, 2016","2016","06","15","10","00","UTC","19.0","66.2","17.0","62.6","88","10.8","6.7","-9999.0","-9999.0","110","ESE","9.0","5.6","1002","29.59","-999","-999","-9999","-9999","-9999.00","-9999.00","Light Rain Showers","rain","0","1","0","0","0","0","METAR UKKK 151000Z 11003MPS 9000 -SHRA SCT033CB OVC073 19/17 Q1002 R08/290158 TEMPO VRB11G18MPS 2100 -TSRAGR BKN015CB"
"1:30 PM EEST on June 15, 2016","2016","06","15","13","30","Europe/Kiev","10:30 AM GMT on June 15, 2016","2016","06","15","10","30","UTC","21.0","69.8","18.0","64.4","83","10.8","6.7","-9999.0","-9999.0","110","ESE","10.0","6.2","1002","29.59","-999","-999","-9999","-9999","-9999.00","-9999.00","Mostly Cloudy","mostlycloudy","0","0","0","0","0","0","METAR UKKK 151030Z 11003MPS 070V140 9999 FEW030CB BKN069 21/18 Q1002 R08/290158 TEMPO VRB11G18MPS 2100 -TSRAGR BKN015CB"
"2:00 PM EEST on June 15, 2016","2016","06","15","14","00","Europe/Kiev","11:00 AM GMT on June 15, 2016","2016","06","15","11","00","UTC","21.0","69.8","16.0","60.8","73","14.4","8.9","-9999.0","-9999.0","130","SE","10.0","6.2","1002","29.59","-999","-999","-9999","-9999","-9999.00","-9999.00","Mostly Cloudy","mostlycloudy","0","0","0","0","0","0","METAR UKKK 151100Z 13004MPS 080V160 9999 FEW021CB BKN070 21/16 Q1002 R08/CLRD70 TEMPO VRB11G18MPS 2100 -TSRAGR BKN015CB"
"2:30 PM EEST on June 15, 2016","2016","06","15","14","30","Europe/Kiev","11:30 AM GMT on June 15, 2016","2016","06","15","11","30","UTC","21.0","69.8","17.0","62.6","78","14.4","8.9","-9999.0","-9999.0","130","SE","10.0","6.2","1002","29.59","-999","-999","-9999","-9999","-9999.00","-9999.00","Mostly Cloudy","mostlycloudy","0","0","0","0","0","0","METAR UKKK 151130Z 13004MPS 090V190 9999 FEW021CB BKN070 21/17 Q1002 R08/CLRD70 TEMPO VRB11G18MPS 2100 -TSRAGR BKN015CB"
"3:00 PM EEST on June 15, 2016","2016","06","15","15","00","Europe/Kiev","12:00 PM GMT on June 15, 2016","2016","06","15","12","00","UTC","21","70","16","62","68","7.2","4.5","","","150","SSE","20","12","1002","29.59","-999","-999","-9999","-9999","","","Partly Cloudy","partlycloudy","0","0","0","0","0","0","AAXX 15121 33345 /1598 71502 10211 20165 39827 40018 58004 70286 86580 555 11030 69951"
"3:00 PM EEST on June 15, 2016","2016","06","15","15","00","Europe/Kiev","12:00 PM GMT on June 15, 2016","2016","06","15","12","00","UTC","22.0","71.6","18.0","64.4","78","10.8","6.7","-9999.0","-9999.0","120","ESE","10.0","6.2","1002","29.59","-999","-999","-9999","-9999","-9999.00","-9999.00","Mostly Cloudy","mostlycloudy","0","0","0","0","0","0","METAR UKKK 151200Z 12003MPS 080V170 9999 FEW023CB BKN076 22/18 Q1002 R08/CLRD70 TEMPO VRB11G18MPS 2100 -TSRAGR BKN015CB"
"3:30 PM EEST on June 15, 2016","2016","06","15","15","30","Europe/Kiev","12:30 PM GMT on June 15, 2016","2016","06","15","12","30","UTC","21.0","69.8","17.0","62.6","78","10.8","6.7","-9999.0","-9999.0","100","East","10.0","6.2","1002","29.59","-999","-999","-9999","-9999","-9999.00","-9999.00","Mostly Cloudy","mostlycloudy","0","0","0","0","0","0","METAR UKKK 151230Z 10003MPS 060V150 9999 FEW023CB BKN076 21/17 Q1002 R08/CLRD70 TEMPO VRB11G18MPS 2100 -TSRAGR BKN015CB"
"4:00 PM EEST on June 15, 2016","2016","06","15","16","00","Europe/Kiev","1:00 PM GMT on June 15, 2016","2016","06","15","13","00","UTC","21.0","69.8","16.0","60.8","73","14.4","8.9","-9999.0","-9999.0","130","SE","10.0","6.2","1002","29.59","-999","-999","-9999","-9999","-9999.00","-9999.00","Mostly Cloudy","mostlycloudy","0","0","0","0","0","0","METAR UKKK 151300Z 13004MPS 110V170 9999 SCT025CB BKN049 21/16 Q1002 R08/CLRD70 TEMPO VRB11G18MPS 2100 -TSRAGR BKN015CB"
"4:30 PM EEST on June 15, 2016","2016","06","15","16","30","Europe/Kiev","1:30 PM GMT on June 15, 2016","2016","06","15","13","30","UTC","21.0","69.8","17.0","62.6","78","10.8","6.7","-9999.0","-9999.0","140","SE","10.0","6.2","1002","29.59","-999","-999","-9999","-9999","-9999.00","-9999.00","Mostly Cloudy","mostlycloudy","0","0","0","0","0","0","METAR UKKK 151330Z 14003MPS 080V180 9999 SCT025CB BKN059 21/17 Q1002 R08/CLRD70 TEMPO VRB11G18MPS 2100 -TSRAGR BKN015CB"
"5:00 PM EEST on June 15, 2016","2016","06","15","17","00","Europe/Kiev","2:00 PM GMT on June 15, 2016","2016","06","15","14","00","UTC","21.0","69.8","16.0","60.8","73","10.8","6.7","-9999.0","-9999.0","120","ESE","10.0","6.2","1002","29.59","-999","-999","-9999","-9999","-9999.00","-9999.00","Mostly Cloudy","mostlycloudy","0","0","0","0","0","0","METAR UKKK 151400Z 12003MPS 090V150 9999 SCT029CB BKN046 21/16 Q1002 R08/CLRD70 TEMPO VRB11G18MPS 2100 -TSRAGR BKN015CB"
"5:30 PM EEST on June 15, 2016","2016","06","15","17","30","Europe/Kiev","2:30 PM GMT on June 15, 2016","2016","06","15","14","30","UTC","21.0","69.8","17.0","62.6","78","10.8","6.7","-9999.0","-9999.0","110","ESE","10.0","6.2","1001","29.56","-999","-999","-9999","-9999","-9999.00","-9999.00","Mostly Cloudy","mostlycloudy","0","0","0","0","0","0","METAR UKKK 151430Z 11003MPS 9999 SCT030CB BKN100 21/17 Q1001 R08/CLRD70 TEMPO VRB11G18MPS 2100 -TSRAGR BKN015CB"
"6:00 PM EEST on June 15, 2016","2016","06","15","18","00","Europe/Kiev","3:00 PM GMT on June 15, 2016","2016","06","15","15","00","UTC","22","72","16","62","62","7.2","4.5","","","140","SE","20","12","1001","29.57","-999","-999","-9999","-9999","","","Mostly Cloudy","mostlycloudy","0","0","0","0","0","0","AAXX 15151 33345 42598 71402 10221 20164 39824 40014 57003 87900 555 10029"
"6:00 PM EEST on June 15, 2016","2016","06","15","18","00","Europe/Kiev","3:00 PM GMT on June 15, 2016","2016","06","15","15","00","UTC","21.0","69.8","17.0","62.6","78","3.6","2.2","-9999.0","-9999.0","0","Variable","10.0","6.2","1002","29.59","-999","-999","-9999","-9999","-9999.00","-9999.00","Mostly Cloudy","mostlycloudy","0","0","0","0","0","0","METAR UKKK 151500Z VRB01MPS 9999 FEW024CB BKN100 21/17 Q1002 R08/CLRD70 TEMPO VRB11G18MPS 2100 -TSRAGR BKN015CB"
"6:30 PM EEST on June 15, 2016","2016","06","15","18","30","Europe/Kiev","3:30 PM GMT on June 15, 2016","2016","06","15","15","30","UTC","21.0","69.8","17.0","62.6","78","7.2","4.5","-9999.0","-9999.0","140","SE","10.0","6.2","1002","29.59","-999","-999","-9999","-9999","-9999.00","-9999.00","Mostly Cloudy","mostlycloudy","0","0","0","0","0","0","METAR UKKK 151530Z 14002MPS 090V190 9999 FEW024CB BKN100 21/17 Q1002 R08/CLRD70 TEMPO VRB11G18MPS 2100 -TSRAGR BKN015CB"
"7:00 PM EEST on June 15, 2016","2016","06","15","19","00","Europe/Kiev","4:00 PM GMT on June 15, 2016","2016","06","15","16","00","UTC","20.0","68.0","16.0","60.8","78","10.8","6.7","-9999.0","-9999.0","160","SSE","10.0","6.2","1002","29.59","-999","-999","-9999","-9999","-9999.00","-9999.00","Mostly Cloudy","mostlycloudy","0","0","0","0","0","0","METAR UKKK 151600Z 16003MPS 120V200 9999 FEW026CB BKN073 20/16 Q1002 R08/CLRD70 TEMPO VRB11G18MPS 2100 -TSRAGR BKN015CB"
"7:30 PM EEST on June 15, 2016","2016","06","15","19","30","Europe/Kiev","4:30 PM GMT on June 15, 2016","2016","06","15","16","30","UTC","20.0","68.0","17.0","62.6","83","0.0","0.0","-9999.0","-9999.0","0","North","10.0","6.2","1002","29.59","-999","-999","-9999","-9999","-9999.00","-9999.00","Mostly Cloudy","mostlycloudy","0","0","0","0","0","0","METAR UKKK 151630Z 00000MPS 9999 SCT026CB BKN073 20/17 Q1002 R08/CLRD70 TEMPO VRB11G18MPS 2100 -TSRAGR BKN015CB"
"8:00 PM EEST on June 15, 2016","2016","06","15","20","00","Europe/Kiev","5:00 PM GMT on June 15, 2016","2016","06","15","17","00","UTC","19.0","66.2","17.0","62.6","88","0.0","0.0","-9999.0","-9999.0","0","North","10.0","6.2","1002","29.59","-999","-999","-9999","-9999","-9999.00","-9999.00","Mostly Cloudy","mostlycloudy","0","0","0","0","0","0","METAR UKKK 151700Z 00000MPS 9999 FEW030CB BKN090 19/17 Q1002 R08/CLRD70 TEMPO VRB11G18MPS 2100 -TSRAGR BKN015CB"
"8:30 PM EEST on June 15, 2016","2016","06","15","20","30","Europe/Kiev","5:30 PM GMT on June 15, 2016","2016","06","15","17","30","UTC","18.0","64.4","17.0","62.6","94","0.0","0.0","-9999.0","-9999.0","0","North","-9999.0","-9999.0","1002","29.59","-999","-999","-9999","-9999","-9999.00","-9999.00","Clear","clear","0","0","0","0","0","0","METAR UKKK 151730Z 00000MPS CAVOK 18/17 Q1002 R08/CLRD70 TEMPO VRB11G18MPS 2100 -TSRAGR BKN015CB"
"9:00 PM EEST on June 15, 2016","2016","06","15","21","00","Europe/Kiev","6:00 PM GMT on June 15, 2016","2016","06","15","18","00","UTC","19","66","17","63","87","0.0","0.0","","","","","20","12","1002","29.60","-999","-999","-9999","-9999","","","Partly Cloudy","partlycloudy","0","0","0","0","0","0","AAXX 15181 33345 11998 50000 10188 20172 39829 40022 53005 60022 70282 85060 333 10227 555 11019"
"9:00 PM EEST on June 15, 2016","2016","06","15","21","00","Europe/Kiev","6:00 PM GMT on June 15, 2016","2016","06","15","18","00","UTC","17.0","62.6","17.0","62.6","100","0.0","0.0","-9999.0","-9999.0","0","North","8.0","5.0","1002","29.59","-999","-999","-9999","-9999","-9999.00","-9999.00","Unknown","unknown","0","0","0","0","0","0","METAR UKKK 151800Z 00000MPS 8000 NSC 17/17 Q1002 R08/CLRD70 NOSIG"
"9:30 PM EEST on June 15, 2016","2016","06","15","21","30","Europe/Kiev","6:30 PM GMT on June 15, 2016","2016","06","15","18","30","UTC","16.0","60.8","16.0","60.8","100","0.0","0.0","-9999.0","-9999.0","0","North","6.0","3.7","1003","29.62","-999","-999","-9999","-9999","-9999.00","-9999.00","Unknown","unknown","0","0","0","0","0","0","METAR UKKK 151830Z 00000MPS 6000 NSC 16/16 Q1003 R08/CLRD70 TEMPO 2000 BR"
"10:00 PM EEST on June 15, 2016","2016","06","15","22","00","Europe/Kiev","7:00 PM GMT on June 15, 2016","2016","06","15","19","00","UTC","16.0","60.8","16.0","60.8","100","3.6","2.2","-9999.0","-9999.0","100","East","6.0","3.7","1003","29.62","-999","-999","-9999","-9999","-9999.00","-9999.00","Unknown","unknown","0","0","0","0","0","0","METAR UKKK 151900Z 10001MPS 6000 NSC 16/16 Q1003 R08/CLRD70 TEMPO 2000 BR"
"10:30 PM EEST on June 15, 2016","2016","06","15","22","30","Europe/Kiev","7:30 PM GMT on June 15, 2016","2016","06","15","19","30","UTC","16.0","60.8","16.0","60.8","100","0.0","0.0","-9999.0","-9999.0","0","North","-9999.0","-9999.0","1002","29.59","-999","-999","-9999","-9999","-9999.00","-9999.00","Clear","clear","0","0","0","0","0","0","METAR UKKK 151930Z 00000MPS 3400 BR SKC 16/16 Q1002 R08/CLRD70 TEMPO 2000 BR"
"11:00 PM EEST on June 15, 2016","2016","06","15","23","00","Europe/Kiev","8:00 PM GMT on June 15, 2016","2016","06","15","20","00","UTC","16.0","60.8","15.0","59.0","94","0.0","0.0","-9999.0","-9999.0","0","North","7.0","4.3","1003","29.62","-999","-999","-9999","-9999","-9999.00","-9999.00","Clear","clear","0","0","0","0","0","0","METAR UKKK 152000Z 00000MPS 7000 SKC 16/15 Q1003 R08/CLRD70 TEMPO 0800 FG"
"11:30 PM EEST on June 15, 2016","2016","06","15","23","30","Europe/Kiev","8:30 PM GMT on June 15, 2016","2016","06","15","20","30","UTC","15.0","59.0","15.0","59.0","100","3.6","2.2","-9999.0","-9999.0","180","South","-9999.0","-9999.0","1003","29.62","-999","-999","-9999","-9999","-9999.00","-9999.00","Mist","hazy","0","0","0","0","0","0","METAR UKKK 152030Z 18001MPS 4100 BR NSC 15/15 Q1003 R08/CLRD70 TEMPO 0800 FG"
"11:44 PM EEST on June 15, 2016","2016","06","15","23","44","Europe/Kiev","8:44 PM GMT on June 15, 2016","2016","06","15","20","44","UTC","15.0","59.0","15.0","59.0","100","0.0","0.0","-9999.0","-9999.0","0","North","1.3","0.8","1003","29.62","-999","-999","-9999","-9999","-9999.00","-9999.00","Mist","hazy","0","0","0","0","0","0","SPECI UKKK 152044Z 00000MPS 1300 R08/1700VP2000D BR NSC 15/15 Q1003 R08/CLRD70 TEMPO 0800 FG"
"11:47 PM EEST on June 15, 2016","2016","06","15","23","47","Europe/Kiev","8:47 PM GMT on June 15, 2016","2016","06","15","20","47","UTC","15.0","59.0","15.0","59.0","100","0.0","0.0","-9999.0","-9999.0","0","North","-9999.0","-9999.0","1003","29.62","-999","-999","-9999","-9999","-9999.00","-9999.00","Unknown","unknown","0","0","0","0","0","0","SPECI UKKK 152047Z 00000MPS 0750 R08/1300VP2000D PRFG NSC 15/15 Q1003 R08/CLRD70 TEMPO 0400 FG"
"12:00 AM EEST on June 16, 2016","2016","06","16","00","00","Europe/Kiev","9:00 PM GMT on June 15, 2016","2016","06","15","21","00","UTC","16","61","15","59","92","0.0","0.0","","","","","10","6","1003","29.63","-999","-999","-9999","-9999","","","Partly Cloudy","partlycloudy","0","0","0","0","0","0","AAXX 15211 33345 42997 40000 10161 20152 39838 40033 52009 84030 555 11016"
"12:00 AM EEST on June 16, 2016","2016","06","16","00","00","Europe/Kiev","9:00 PM GMT on June 15, 2016","2016","06","15","21","00","UTC","15.0","59.0","15.0","59.0","100","0.0","0.0","-9999.0","-9999.0","0","North","1.5","0.9","1003","29.62","-999","-999","-9999","-9999","-9999.00","-9999.00","Mist","hazy","0","0","0","0","0","0","METAR UKKK 152100Z 00000MPS 1500 BR NSC 15/15 Q1003 R08/CLRD70 TEMPO 0400 FG"
"12:01 AM EEST on June 16, 2016","2016","06","16","00","01","Europe/Kiev","9:01 PM GMT on June 15, 2016","2016","06","15","21","01","UTC","15.0","59.0","15.0","59.0","100","0.0","0.0","-9999.0","-9999.0","0","North","1.4","0.9","1003","29.62","-999","-999","-9999","-9999","-9999.00","-9999.00","Mist","hazy","0","0","0","0","0","0","SPECI UKKK 152101Z 00000MPS 1400 R08/1800VP2000D BR NSC 15/15 Q1003 R08/CLRD70 TEMPO 0400 FG"
"12:30 AM EEST on June 16, 2016","2016","06","16","00","30","Europe/Kiev","9:30 PM GMT on June 15, 2016","2016","06","15","21","30","UTC","15.0","59.0","15.0","59.0","100","3.6","2.2","-9999.0","-9999.0","60","ENE","-9999.0","-9999.0","1003","29.62","-999","-999","-9999","-9999","-9999.00","-9999.00","Mist","hazy","0","0","0","0","0","0","METAR UKKK 152130Z 06001MPS 4400 BR NSC 15/15 Q1003 R08/CLRD70 TEMPO 0400 FG"
"1:00 AM EEST on June 16, 2016","2016","06","16","01","00","Europe/Kiev","10:00 PM GMT on June 15, 2016","2016","06","15","22","00","UTC","15.0","59.0","15.0","59.0","100","0.0","0.0","-9999.0","-9999.0","0","North","6.0","3.7","1004","29.65","-999","-999","-9999","-9999","-9999.00","-9999.00","Unknown","unknown","0","0","0","0","0","0","METAR UKKK 152200Z 00000MPS 6000 NSC 15/15 Q1004 R08/CLRD70 TEMPO 0400 FG"
"1:30 AM EEST on June 16, 2016","2016","06","16","01","30","Europe/Kiev","10:30 PM GMT on June 15, 2016","2016","06","15","22","30","UTC","16.0","60.8","16.0","60.8","100","3.6","2.2","-9999.0","-9999.0","240","WSW","9.0","5.6","1003","29.62","-999","-999","-9999","-9999","-9999.00","-9999.00","Unknown","unknown","0","0","0","0","0","0","METAR UKKK 152230Z 24001MPS 9000 NSC 16/16 Q1003 R08/CLRD70 TEMPO 0400 FG"
"2:00 AM EEST on June 16, 2016","2016","06","16","02","00","Europe/Kiev","11:00 PM GMT on June 15, 2016","2016","06","15","23","00","UTC","16.0","60.8","16.0","60.8","100","0.0","0.0","-9999.0","-9999.0","0","North","8.0","5.0","1003","29.62","-999","-999","-9999","-9999","-9999.00","-9999.00","Unknown","unknown","0","0","0","0","0","0","METAR UKKK 152300Z 00000MPS 8000 NSC 16/16 Q1003 R08/CLRD70 TEMPO 1000 BR"
"2:30 AM EEST on June 16, 2016","2016","06","16","02","30","Europe/Kiev","11:30 PM GMT on June 15, 2016","2016","06","15","23","30","UTC","15.0","59.0","15.0","59.0","100","0.0","0.0","-9999.0","-9999.0","0","North","9.0","5.6","1004","29.65","-999","-999","-9999","-9999","-9999.00","-9999.00","Unknown","unknown","0","0","0","0","0","0","METAR UKKK 152330Z 00000MPS 9000 NSC 15/15 Q1004 R08/CLRD70 NOSIG"
"3:00 AM EEST on June 16, 2016","2016","06","16","03","00","Europe/Kiev","12:00 AM GMT on June 16, 2016","2016","06","16","00","00","UTC","17","62","16","60","93","0.0","0.0","","","","","4","2","1004","29.65","-999","-999","-9999","-9999","","","Mist","hazy","0","0","0","0","0","0","AAXX 16001 33345 31996 60000 10166 20158 39845 40040 52007 71011 86030 555 11016"
"3:00 AM EEST on June 16, 2016","2016","06","16","03","00","Europe/Kiev","12:00 AM GMT on June 16, 2016","2016","06","16","00","00","UTC","16.0","60.8","15.0","59.0","94","0.0","0.0","-9999.0","-9999.0","0","North","9.0","5.6","1004","29.65","-999","-999","-9999","-9999","-9999.00","-9999.00","Unknown","unknown","0","0","0","0","0","0","METAR UKKK 160000Z 00000MPS 9000 NSC 16/15 Q1004 R08/CLRD70 NOSIG"
"3:30 AM EEST on June 16, 2016","2016","06","16","03","30","Europe/Kiev","12:30 AM GMT on June 16, 2016","2016","06","16","00","30","UTC","16.0","60.8","15.0","59.0","94","0.0","0.0","-9999.0","-9999.0","0","North","9.0","5.6","1004","29.65","-999","-999","-9999","-9999","-9999.00","-9999.00","Unknown","unknown","0","0","0","0","0","0","METAR UKKK 160030Z 00000MPS 9000 NSC 16/15 Q1004 R08/CLRD70 NOSIG"
"4:00 AM EEST on June 16, 2016","2016","06","16","04","00","Europe/Kiev","1:00 AM GMT on June 16, 2016","2016","06","16","01","00","UTC","15.0","59.0","15.0","59.0","100","0.0","0.0","-9999.0","-9999.0","0","North","6.0","3.7","1004","29.65","-999","-999","-9999","-9999","-9999.00","-9999.00","Unknown","unknown","0","0","0","0","0","0","METAR UKKK 160100Z 00000MPS 6000 NSC 15/15 Q1004 R08/CLRD70 NOSIG"
"4:30 AM EEST on June 16, 2016","2016","06","16","04","30","Europe/Kiev","1:30 AM GMT on June 16, 2016","2016","06","16","01","30","UTC","15.0","59.0","15.0","59.0","100","0.0","0.0","-9999.0","-9999.0","0","North","1.4","0.9","1004","29.65","-999","-999","-9999","-9999","-9999.00","-9999.00","Mist","hazy","0","0","0","0","0","0","METAR UKKK 160130Z 00000MPS 1400 R08/P2000N BR NSC 15/15 Q1004 R08/CLRD70 TEMPO 0400 FG"
"4:37 AM EEST on June 16, 2016","2016","06","16","04","37","Europe/Kiev","1:37 AM GMT on June 16, 2016","2016","06","16","01","37","UTC","14.0","57.2","14.0","57.2","100","0.0","0.0","-9999.0","-9999.0","0","North","-9999.0","-9999.0","1004","29.65","-999","-999","-9999","-9999","-9999.00","-9999.00","Unknown","unknown","0","0","0","0","0","0","SPECI UKKK 160137Z 00000MPS 0750 R08/1900VP2000U PRFG NSC 14/14 Q1004 R08/CLRD70 TEMPO 0400 FG"
"4:51 AM EEST on June 16, 2016","2016","06","16","04","51","Europe/Kiev","1:51 AM GMT on June 16, 2016","2016","06","16","01","51","UTC","14.0","57.2","14.0","57.2","100","0.0","0.0","-9999.0","-9999.0","0","North","0.3","0.2","1005","29.68","-999","-999","-9999","-9999","-9999.00","-9999.00","Unknown","unknown","0","0","0","0","0","0","SPECI UKKK 160151Z 00000MPS 0300 R08/0550VP2000D PRFG NSC 14/14 Q1005 R08/CLRD70 TEMPO 0400 FG"
"5:00 AM EEST on June 16, 2016","2016","06","16","05","00","Europe/Kiev","2:00 AM GMT on June 16, 2016","2016","06","16","02","00","UTC","14.0","57.2","14.0","57.2","100","0.0","0.0","-9999.0","-9999.0","0","North","0.9","0.6","1005","29.68","-999","-999","-9999","-9999","-9999.00","-9999.00","Unknown","unknown","0","0","0","0","0","0","METAR UKKK 160200Z 00000MPS 0900 R08/0550V1900U PRFG NSC 14/14 Q1005 R08/CLRD70 TEMPO 0400 FG"
"5:11 AM EEST on June 16, 2016","2016","06","16","05","11","Europe/Kiev","2:11 AM GMT on June 16, 2016","2016","06","16","02","11","UTC","15.0","59.0","15.0","59.0","100","0.0","0.0","-9999.0","-9999.0","0","North","2.4","1.5","1005","29.68","-999","-999","-9999","-9999","-9999.00","-9999.00","Mist","hazy","0","0","0","0","0","0","SPECI UKKK 160211Z 00000MPS 2400 BR NSC 15/15 Q1005 R08/CLRD70 TEMPO 0700 FG"
"5:30 AM EEST on June 16, 2016","2016","06","16","05","30","Europe/Kiev","2:30 AM GMT on June 16, 2016","2016","06","16","02","30","UTC","15.0","59.0","15.0","59.0","100","0.0","0.0","-9999.0","-9999.0","0","North","2.9","1.8","1005","29.68","-999","-999","-9999","-9999","-9999.00","-9999.00","Mist","hazy","0","0","0","0","0","0","METAR UKKK 160230Z 00000MPS 2900 BR NSC 15/15 Q1005 R08/CLRD70 TEMPO 1800 BR"
"6:00 AM EEST on June 16, 2016","2016","06","16","06","00","Europe/Kiev","3:00 AM GMT on June 16, 2016","2016","06","16","03","00","UTC","16","61","15","60","93","3.6","2.2","","","280","West","4","2","1005","29.69","-999","-999","-9999","-9999","","","Mist","hazy","0","0","0","0","0","0","AAXX 16031 33345 41996 62801 10160 20153 39858 40053 52013 71022 86030 555 11017"
"6:00 AM EEST on June 16, 2016","2016","06","16","06","00","Europe/Kiev","3:00 AM GMT on June 16, 2016","2016","06","16","03","00","UTC","16.0","60.8","16.0","60.8","100","7.2","4.5","-9999.0","-9999.0","250","WSW","5.0","3.1","1005","29.68","-999","-999","-9999","-9999","-9999.00","-9999.00","Mist","hazy","0","0","0","0","0","0","METAR UKKK 160300Z 25002MPS 5000 BR NSC 16/16 Q1005 R26/CLRD70 TEMPO 2000 BR"
"6:30 AM EEST on June 16, 2016","2016","06","16","06","30","Europe/Kiev","3:30 AM GMT on June 16, 2016","2016","06","16","03","30","UTC","17.0","62.6","17.0","62.6","100","7.2","4.5","-9999.0","-9999.0","250","WSW","5.0","3.1","1006","29.71","-999","-999","-9999","-9999","-9999.00","-9999.00","Mist","hazy","0","0","0","0","0","0","METAR UKKK 160330Z 25002MPS 5000 BR NSC 17/17 Q1006 R26/CLRD70 TEMPO 2000 BR"
"7:00 AM EEST on June 16, 2016","2016","06","16","07","00","Europe/Kiev","4:00 AM GMT on June 16, 2016","2016","06","16","04","00","UTC","18.0","64.4","17.0","62.6","94","7.2","4.5","-9999.0","-9999.0","270","West","9.0","5.6","1006","29.71","-999","-999","-9999","-9999","-9999.00","-9999.00","Unknown","unknown","0","0","0","0","0","0","METAR UKKK 160400Z 27002MPS 9000 NSC 18/17 Q1006 R26/CLRD70 TEMPO 2000 BR"
"7:30 AM EEST on June 16, 2016","2016","06","16","07","30","Europe/Kiev","4:30 AM GMT on June 16, 2016","2016","06","16","04","30","UTC","19.0","66.2","17.0","62.6","88","10.8","6.7","-9999.0","-9999.0","260","West","-9999.0","-9999.0","1006","29.71","-999","-999","-9999","-9999","-9999.00","-9999.00","Clear","clear","0","0","0","0","0","0","METAR UKKK 160430Z 26003MPS CAVOK 19/17 Q1006 R26/CLRD70 TEMPO 2000 BR"
"8:00 AM EEST on June 16, 2016","2016","06","16","08","00","Europe/Kiev","5:00 AM GMT on June 16, 2016","2016","06","16","05","00","UTC","19.0","66.2","17.0","62.6","88","10.8","6.7","-9999.0","-9999.0","270","West","-9999.0","-9999.0","1006","29.71","-999","-999","-9999","-9999","-9999.00","-9999.00","Clear","clear","0","0","0","0","0","0","METAR UKKK 160500Z 27003MPS CAVOK 19/17 Q1006 R26/CLRD70 TEMPO 2000 BR"
"8:30 AM EEST on June 16, 2016","2016","06","16","08","30","Europe/Kiev","5:30 AM GMT on June 16, 2016","2016","06","16","05","30","UTC","20.0","68.0","17.0","62.6","83","10.8","6.7","-9999.0","-9999.0","270","West","-9999.0","-9999.0","1007","29.74","-999","-999","-9999","-9999","-9999.00","-9999.00","Clear","clear","0","0","0","0","0","0","METAR UKKK 160530Z 27003MPS 240V310 CAVOK 20/17 Q1007 R26/CLRD70 TEMPO 2000 BR"
"9:00 AM EEST on June 16, 2016","2016","06","16","09","00","Europe/Kiev","6:00 AM GMT on June 16, 2016","2016","06","16","06","00","UTC","20","69","16","61","69","10.8","6.7","","","280","West","20","12","1007","29.73","-999","-999","-9999","-9999","","","Clear","clear","0","0","0","0","0","0","AAXX 16061 33345 32998 32803 10203 20162 39873 40066 52015 80009 333 20158 555 11026"
"9:00 AM EEST on June 16, 2016","2016","06","16","09","00","Europe/Kiev","6:00 AM GMT on June 16, 2016","2016","06","16","06","00","UTC","21.0","69.8","17.0","62.6","78","10.8","6.7","-9999.0","-9999.0","290","WNW","10.0","6.2","1007","29.74","-999","-999","-9999","-9999","-9999.00","-9999.00","Scattered Clouds","partlycloudy","0","0","0","0","0","0","METAR UKKK 160600Z 29003MPS 250V330 9999 SCT031 21/17 Q1007 R26/CLRD70 NOSIG"
"9:30 AM EEST on June 16, 2016","2016","06","16","09","30","Europe/Kiev","6:30 AM GMT on June 16, 2016","2016","06","16","06","30","UTC","21.0","69.8","17.0","62.6","78","14.4","8.9","-9999.0","-9999.0","280","West","10.0","6.2","1007","29.74","-999","-999","-9999","-9999","-9999.00","-9999.00","Scattered Clouds","partlycloudy","0","0","0","0","0","0","METAR UKKK 160630Z 28004MPS 9999 SCT031 21/17 Q1007 R26/CLRD70 NOSIG"
"10:00 AM EEST on June 16, 2016","2016","06","16","10","00","Europe/Kiev","7:00 AM GMT on June 16, 2016","2016","06","16","07","00","UTC","21.0","69.8","16.0","60.8","73","10.8","6.7","-9999.0","-9999.0","280","West","10.0","6.2","1007","29.74","-999","-999","-9999","-9999","-9999.00","-9999.00","Scattered Clouds","partlycloudy","0","0","0","0","0","0","METAR UKKK 160700Z 28003MPS 250V320 9999 SCT031 21/16 Q1007 R26/CLRD70 NOSIG"
"10:30 AM EEST on June 16, 2016","2016","06","16","10","30","Europe/Kiev","7:30 AM GMT on June 16, 2016","2016","06","16","07","30","UTC","22.0","71.6","17.0","62.6","73","14.4","8.9","-9999.0","-9999.0","270","West","10.0","6.2","1008","29.77","-999","-999","-9999","-9999","-9999.00","-9999.00","Mostly Cloudy","mostlycloudy","0","0","0","0","0","0","METAR UKKK 160730Z 27004MPS 240V300 9999 BKN028 22/17 Q1008 R26/CLRD70 NOSIG"
"11:00 AM EEST on June 16, 2016","2016","06","16","11","00","Europe/Kiev","8:00 AM GMT on June 16, 2016","2016","06","16","08","00","UTC","22.0","71.6","15.0","59.0","64","14.4","8.9","-9999.0","-9999.0","270","West","10.0","6.2","1008","29.77","-999","-999","-9999","-9999","-9999.00","-9999.00","Mostly Cloudy","mostlycloudy","0","0","0","0","0","0","METAR UKKK 160800Z 27004MPS 9999 BKN028 22/15 Q1008 R26/CLRD70 NOSIG"
"11:30 AM EEST on June 16, 2016","2016","06","16","11","30","Europe/Kiev","8:30 AM GMT on June 16, 2016","2016","06","16","08","30","UTC","23.0","73.4","16.0","60.8","65","18.0","11.2","-9999.0","-9999.0","280","West","10.0","6.2","1008","29.77","-999","-999","-9999","-9999","-9999.00","-9999.00","Mostly Cloudy","mostlycloudy","0","0","0","0","0","0","METAR UKKK 160830Z 28005MPS 9999 BKN031 23/16 Q1008 R26/CLRD70 NOSIG"
"12:00 PM EEST on June 16, 2016","2016","06","16","12","00","Europe/Kiev","9:00 AM GMT on June 16, 2016","2016","06","16","09","00","UTC","23","73","14","58","49","10.8","6.7","","","270","West","20","12","1008","29.77","-999","-999","-9999","-9999","","","Mostly Cloudy","mostlycloudy","0","0","0","0","0","0","AAXX 16091 33345 42698 52703 10230 20144 39889 40080 52016 85200 555 11039"
"12:00 PM EEST on June 16, 2016","2016","06","16","12","00","Europe/Kiev","9:00 AM GMT on June 16, 2016","2016","06","16","09","00","UTC","23.0","73.4","16.0","60.8","65","18.0","11.2","-9999.0","-9999.0","260","West","10.0","6.2","1008","29.77","-999","-999","-9999","-9999","-9999.00","-9999.00","Scattered Clouds","partlycloudy","0","0","0","0","0","0","METAR UKKK 160900Z 26005MPS 230V290 9999 SCT033 23/16 Q1008 R26/CLRD70 NOSIG"
"12:30 PM EEST on June 16, 2016","2016","06","16","12","30","Europe/Kiev","9:30 AM GMT on June 16, 2016","2016","06","16","09","30","UTC","24.0","75.2","16.0","60.8","61","18.0","11.2","-9999.0","-9999.0","270","West","10.0","6.2","1008","29.77","-999","-999","-9999","-9999","-9999.00","-9999.00","Scattered Clouds","partlycloudy","0","0","0","0","0","0","METAR UKKK 160930Z 27005MPS 240V300 9999 SCT043 24/16 Q1008 R26/CLRD70 NOSIG"
"1:00 PM EEST on June 16, 2016","2016","06","16","13","00","Europe/Kiev","10:00 AM GMT on June 16, 2016","2016","06","16","10","00","UTC","24.0","75.2","16.0","60.8","61","18.0","11.2","-9999.0","-9999.0","260","West","10.0","6.2","1008","29.77","-999","-999","-9999","-9999","-9999.00","-9999.00","Scattered Clouds","partlycloudy","0","0","0","0","0","0","METAR UKKK 161000Z 26005MPS 210V290 9999 SCT043 24/16 Q1008 R26/CLRD70 NOSIG"
"1:30 PM EEST on June 16, 2016","2016","06","16","13","30","Europe/Kiev","10:30 AM GMT on June 16, 2016","2016","06","16","10","30","UTC","24.0","75.2","15.0","59.0","57","18.0","11.2","-9999.0","-9999.0","270","West","10.0","6.2","1009","29.80","-999","-999","-9999","-9999","-9999.00","-9999.00","Scattered Clouds","partlycloudy","0","0","0","0","0","0","METAR UKKK 161030Z 27005MPS 240V310 9999 SCT043 24/15 Q1009 R26/CLRD70 NOSIG"
"2:00 PM EEST on June 16, 2016","2016","06","16","14","00","Europe/Kiev","11:00 AM GMT on June 16, 2016","2016","06","16","11","00","UTC","24.0","75.2","15.0","59.0","57","18.0","11.2","-9999.0","-9999.0","260","West","10.0","6.2","1009","29.80","-999","-999","-9999","-9999","-9999.00","-9999.00","Scattered Clouds","partlycloudy","0","0","0","0","0","0","METAR UKKK 161100Z 26005MPS 240V310 9999 SCT043 24/15 Q1009 R26/CLRD70 NOSIG"
"2:30 PM EEST on June 16, 2016","2016","06","16","14","30","Europe/Kiev","11:30 AM GMT on June 16, 2016","2016","06","16","11","30","UTC","25.0","77.0","16.0","60.8","57","18.0","11.2","-9999.0","-9999.0","260","West","10.0","6.2","1009","29.80","-999","-999","-9999","-9999","-9999.00","-9999.00","Scattered Clouds","partlycloudy","0","0","0","0","0","0","METAR UKKK 161130Z 26005MPS 240V300 9999 SCT043 25/16 Q1009 R26/CLRD70 NOSIG"
"3:00 PM EEST on June 16, 2016","2016","06","16","15","00","Europe/Kiev","12:00 PM GMT on June 16, 2016","2016","06","16","12","00","UTC","26","78","14","58","40","14.4","8.9","","","240","WSW","20","12","1008","29.78","-999","-999","-9999","-9999","","","Mostly Cloudy","mostlycloudy","0","0","0","0","0","0","AAXX 16121 33345 32598 72404 10257 20144 39895 40085 52006 86205 555 10043"
"3:00 PM EEST on June 16, 2016","2016","06","16","15","00","Europe/Kiev","12:00 PM GMT on June 16, 2016","2016","06","16","12","00","UTC","25.0","77.0","15.0","59.0","54","14.4","8.9","-9999.0","-9999.0","260","West","10.0","6.2","1009","29.80","-999","-999","-9999","-9999","-9999.00","-9999.00","Scattered Clouds","partlycloudy","0","0","0","0","0","0","METAR UKKK 161200Z 26004MPS 230V300 9999 SCT043 25/15 Q1009 R26/CLRD70 NOSIG"
"3:30 PM EEST on June 16, 2016","2016","06","16","15","30","Europe/Kiev","12:30 PM GMT on June 16, 2016","2016","06","16","12","30","UTC","24.0","75.2","15.0","59.0","57","18.0","11.2","-9999.0","-9999.0","260","West","-9999.0","-9999.0","1009","29.80","-999","-999","-9999","-9999","-9999.00","-9999.00","Clear","clear","0","0","0","0","0","0","METAR UKKK 161230Z 26005MPS CAVOK 24/15 Q1009 R26/CLRD70 NOSIG"
"4:00 PM EEST on June 16, 2016","2016","06","16","16","00","Europe/Kiev","1:00 PM GMT on June 16, 2016","2016","06","16","13","00","UTC","25.0","77.0","15.0","59.0","54","18.0","11.2","-9999.0","-9999.0","260","West","10.0","6.2","1009","29.80","-999","-999","-9999","-9999","-9999.00","-9999.00","Scattered Clouds","partlycloudy","0","0","0","0","0","0","METAR UKKK 161300Z 26005MPS 9999 FEW030CB SCT046 25/15 Q1009 R26/CLRD70 NOSIG"
"4:22 PM EEST on June 16, 2016","2016","06","16","16","22","Europe/Kiev","1:22 PM GMT on June 16, 2016","2016","06","16","13","22","UTC","23.0","73.4","16.0","60.8","65","18.0","11.2","-9999.0","-9999.0","260","West","10.0","6.2","1010","29.83","-999","-999","-9999","-9999","-9999.00","-9999.00","Thunderstorm","tstorms","0","0","0","0","1","0","SPECI UKKK 161322Z 26005MPS 9999 TS SCT027CB BKN046 23/16 Q1010 R26/CLRD70 TEMPO VRB10G18MPS 1000 TSRAGR SQ BKN020CB"
"4:30 PM EEST on June 16, 2016","2016","06","16","16","30","Europe/Kiev","1:30 PM GMT on June 16, 2016","2016","06","16","13","30","UTC","23.0","73.4","17.0","62.6","69","18.0","11.2","-9999.0","-9999.0","260","West","9.0","5.6","1010","29.83","-999","-999","-9999","-9999","-9999.00","-9999.00","Light Thunderstorms and Rain","tstorms","0","1","0","0","1","0","METAR UKKK 161330Z 26005MPS 230V290 9000 -TSRA SCT027CB BKN040 23/17 Q1010 R26/CLRD70 TEMPO VRB10G18MPS 1000 TSRAGR SQ BKN020CB"
"5:00 PM EEST on June 16, 2016","2016","06","16","17","00","Europe/Kiev","2:00 PM GMT on June 16, 2016","2016","06","16","14","00","UTC","25.0","77.0","17.0","62.6","61","7.2","4.5","-9999.0","-9999.0","230","SW","10.0","6.2","1010","29.83","-999","-999","-9999","-9999","-9999.00","-9999.00","Mostly Cloudy","mostlycloudy","0","0","0","0","0","0","METAR UKKK 161400Z 23002MPS 160V280 9999 SCT027CB BKN040 25/17 Q1010 RETS R08/190060 TEMPO VRB10G18MPS 1000 TSRAGR SQ BKN020CB"
"5:30 PM EEST on June 16, 2016","2016","06","16","17","30","Europe/Kiev","2:30 PM GMT on June 16, 2016","2016","06","16","14","30","UTC","25.0","77.0","15.0","59.0","54","14.4","8.9","-9999.0","-9999.0","260","West","10.0","6.2","1010","29.83","-999","-999","-9999","-9999","-9999.00","-9999.00","Mostly Cloudy","mostlycloudy","0","0","0","0","0","0","METAR UKKK 161430Z 26004MPS 200V290 9999 FEW027CB BKN040 25/15 Q1010 R26/CLRD70 TEMPO VRB10G18MPS 1000 TSRAGR SQ BKN020CB"
"6:00 PM EEST on June 16, 2016","2016","06","16","18","00","Europe/Kiev","3:00 PM GMT on June 16, 2016","2016","06","16","15","00","UTC","26","78","15","60","43","10.8","6.7","","","240","WSW","20","12","1010","29.82","-999","-999","-9999","-9999","","","Partly Cloudy","partlycloudy","0","0","0","0","0","0","AAXX 16151 33345 41698 62403 10255 20153 39908 40098 52013 70298 83363 555 10035"
"6:00 PM EEST on June 16, 2016","2016","06","16","18","00","Europe/Kiev","3:00 PM GMT on June 16, 2016","2016","06","16","15","00","UTC","25.0","77.0","16.0","60.8","57","14.4","8.9","-9999.0","-9999.0","270","West","9.0","5.6","1010","29.83","-999","-999","-9999","-9999","-9999.00","-9999.00","Unknown","unknown","0","0","0","0","0","0","METAR UKKK 161500Z 27004MPS 230V300 9000 NSC 25/16 Q1010 R26/CLRD70 NOSIG"
"6:30 PM EEST on June 16, 2016","2016","06","16","18","30","Europe/Kiev","3:30 PM GMT on June 16, 2016","2016","06","16","15","30","UTC","25.0","77.0","17.0","62.6","61","14.4","8.9","-9999.0","-9999.0","250","WSW","-9999.0","-9999.0","1011","29.86","-999","-999","-9999","-9999","-9999.00","-9999.00","Clear","clear","0","0","0","0","0","0","METAR UKKK 161530Z 25004MPS 220V280 CAVOK 25/17 Q1011 R26/CLRD70 NOSIG"
"7:00 PM EEST on June 16, 2016","2016","06","16","19","00","Europe/Kiev","4:00 PM GMT on June 16, 2016","2016","06","16","16","00","UTC","24.0","75.2","16.0","60.8","61","10.8","6.7","-9999.0","-9999.0","250","WSW","10.0","6.2","1011","29.86","-999","-999","-9999","-9999","-9999.00","-9999.00","Scattered Clouds","partlycloudy","0","0","0","0","0","0","METAR UKKK 161600Z 25003MPS 9999 FEW030CB SCT100 24/16 Q1011 R26/CLRD70 TEMPO VRB10G18MPS -TSRAGR SQ BKN020CB"
"7:30 PM EEST on June 16, 2016","2016","06","16","19","30","Europe/Kiev","4:30 PM GMT on June 16, 2016","2016","06","16","16","30","UTC","23.0","73.4","17.0","62.6","69","14.4","8.9","36.0","22.4","300","WNW","10.0","6.2","1011","29.86","-999","-999","-9999","-9999","-9999.00","-9999.00","Light Rain Showers","rain","0","1","0","0","0","0","METAR UKKK 161630Z 30004G10MPS 9999 -SHRA SCT030CB BKN100 23/17 Q1011 R26/190060 TEMPO VRB10G18MPS -TSRAGR SQ BKN020CB"
"8:00 PM EEST on June 16, 2016","2016","06","16","20","00","Europe/Kiev","5:00 PM GMT on June 16, 2016","2016","06","16","17","00","UTC","20.0","68.0","19.0","66.2","94","3.6","2.2","-9999.0","-9999.0","0","Variable","10.0","6.2","1011","29.86","-999","-999","-9999","-9999","-9999.00","-9999.00","Mostly Cloudy","mostlycloudy","0","0","0","0","0","0","METAR UKKK 161700Z VRB01MPS 9999 SCT030CB BKN096 20/19 Q1011 R26/290058 TEMPO VRB10G18MPS -TSRAGR SQ BKN020CB"
"8:30 PM EEST on June 16, 2016","2016","06","16","20","30","Europe/Kiev","5:30 PM GMT on June 16, 2016","2016","06","16","17","30","UTC","21.0","69.8","18.0","64.4","83","7.2","4.5","-9999.0","-9999.0","190","South","10.0","6.2","1012","29.89","-999","-999","-9999","-9999","-9999.00","-9999.00","Mostly Cloudy","mostlycloudy","0","0","0","0","0","0","METAR UKKK 161730Z 19002MPS 9999 FEW031CB BKN086 21/18 Q1012 R26/290058 NOSIG"
"9:00 PM EEST on June 16, 2016","2016","06","16","21","00","Europe/Kiev","6:00 PM GMT on June 16, 2016","2016","06","16","18","00","UTC","20","67","18","64","86","10.8","6.7","","","210","SSW","20","12","1012","29.88","-999","-999","-9999","-9999","","","Light Rain Showers","rain","0","1","0","0","0","0","AAXX 16181 33345 11698 32103 10196 20177 39924 40118 52016 60012 72598 82360 333 10264 555 11021"
"9:00 PM EEST on June 16, 2016","2016","06","16","21","00","Europe/Kiev","6:00 PM GMT on June 16, 2016","2016","06","16","18","00","UTC","21.0","69.8","18.0","64.4","83","10.8","6.7","-9999.0","-9999.0","210","SSW","-9999.0","-9999.0","1012","29.89","-999","-999","-9999","-9999","-9999.00","-9999.00","Clear","clear","0","0","0","0","0","0","METAR UKKK 161800Z 21003MPS CAVOK 21/18 Q1012 R26/290058 NOSIG"
"9:30 PM EEST on June 16, 2016","2016","06","16","21","30","Europe/Kiev","6:30 PM GMT on June 16, 2016","2016","06","16","18","30","UTC","20.0","68.0","17.0","62.6","83","10.8","6.7","-9999.0","-9999.0","210","SSW","-9999.0","-9999.0","1012","29.89","-999","-999","-9999","-9999","-9999.00","-9999.00","Clear","clear","0","0","0","0","0","0","METAR UKKK 161830Z 21003MPS CAVOK 20/17 Q1012 R26/290058 NOSIG"
"10:00 PM EEST on June 16, 2016","2016","06","16","22","00","Europe/Kiev","7:00 PM GMT on June 16, 2016","2016","06","16","19","00","UTC","18.0","64.4","17.0","62.6","94","7.2","4.5","-9999.0","-9999.0","230","SW","-9999.0","-9999.0","1013","29.92","-999","-999","-9999","-9999","-9999.00","-9999.00","Clear","clear","0","0","0","0","0","0","METAR UKKK 161900Z 23002MPS 200V290 CAVOK 18/17 Q1013 R26/190060 NOSIG"
"10:30 PM EEST on June 16, 2016","2016","06","16","22","30","Europe/Kiev","7:30 PM GMT on June 16, 2016","2016","06","16","19","30","UTC","18.0","64.4","17.0","62.6","94","7.2","4.5","-9999.0","-9999.0","260","West","-9999.0","-9999.0","1013","29.92","-999","-999","-9999","-9999","-9999.00","-9999.00","Clear","clear","0","0","0","0","0","0","METAR UKKK 161930Z 26002MPS 220V300 CAVOK 18/17 Q1013 R26/190060 NOSIG"
"11:00 PM EEST on June 16, 2016","2016","06","16","23","00","Europe/Kiev","8:00 PM GMT on June 16, 2016","2016","06","16","20","00","UTC","17.0","62.6","17.0","62.6","100","3.6","2.2","-9999.0","-9999.0","220","SW","-9999.0","-9999.0","1013","29.92","-999","-999","-9999","-9999","-9999.00","-9999.00","Clear","clear","0","0","0","0","0","0","METAR UKKK 162000Z 22001MPS CAVOK 17/17 Q1013 R26/190060 NOSIG"
"11:30 PM EEST on June 16, 2016","2016","06","16","23","30","Europe/Kiev","8:30 PM GMT on June 16, 2016","2016","06","16","20","30","UTC","17.0","62.6","17.0","62.6","100","7.2","4.5","-9999.0","-9999.0","250","WSW","2.9","1.8","1013","29.92","-999","-999","-9999","-9999","-9999.00","-9999.00","Shallow Fog","fog","1","0","0","0","0","0","METAR UKKK 162030Z 25002MPS 2900 MIFG SKC 17/17 Q1013 R26/190060 NOSIG"
"12:00 AM EEST on June 17, 2016","2016","06","17","00","00","Europe/Kiev","9:00 PM GMT on June 16, 2016","2016","06","16","21","00","UTC","19","67","16","62","77","0.0","0.0","","","","","20","12","1014","29.93","-999","-999","-9999","-9999","","","","","0","0","0","0","0","0","AAXX 16211 33345 42998 00000 10192 20164 39940 40135 52016 555 11017"
"12:00 AM EEST on June 17, 2016","2016","06","17","00","00","Europe/Kiev","9:00 PM GMT on June 16, 2016","2016","06","16","21","00","UTC","17.0","62.6","17.0","62.6","100","7.2","4.5","-9999.0","-9999.0","250","WSW","9.0","5.6","1014","29.95","-999","-999","-9999","-9999","-9999.00","-9999.00","Shallow Fog","fog","1","0","0","0","0","0","METAR UKKK 162100Z 25002MPS 9000 MIFG SKC 17/17 Q1014 R26/190060 NOSIG"
"12:30 AM EEST on June 17, 2016","2016","06","17","00","30","Europe/Kiev","9:30 PM GMT on June 16, 2016","2016","06","16","21","30","UTC","16.0","60.8","16.0","60.8","100","7.2","4.5","-9999.0","-9999.0","260","West","6.0","3.7","1014","29.95","-999","-999","-9999","-9999","-9999.00","-9999.00","Shallow Fog","fog","1","0","0","0","0","0","METAR UKKK 162130Z 26002MPS 6000 MIFG SKC 16/16 Q1014 R26/190060 NOSIG"
"1:00 AM EEST on June 17, 2016","2016","06","17","01","00","Europe/Kiev","10:00 PM GMT on June 16, 2016","2016","06","16","22","00","UTC","15.0","59.0","15.0","59.0","100","3.6","2.2","-9999.0","-9999.0","220","SW","8.0","5.0","1014","29.95","-999","-999","-9999","-9999","-9999.00","-9999.00","Shallow Fog","fog","1","0","0","0","0","0","METAR UKKK 162200Z 22001MPS 8000 MIFG SKC 15/15 Q1014 R26/190060 NOSIG"
"1:30 AM EEST on June 17, 2016","2016","06","17","01","30","Europe/Kiev","10:30 PM GMT on June 16, 2016","2016","06","16","22","30","UTC","16.0","60.8","16.0","60.8","100","3.6","2.2","-9999.0","-9999.0","230","SW","7.0","4.3","1014","29.95","-999","-999","-9999","-9999","-9999.00","-9999.00","Shallow Fog","fog","1","0","0","0","0","0","METAR UKKK 162230Z 23001MPS 7000 MIFG SKC 16/16 Q1014 R26/190060 NOSIG"
"2:00 AM EEST on June 17, 2016","2016","06","17","02","00","Europe/Kiev","11:00 PM GMT on June 16, 2016","2016","06","16","23","00","UTC","15.0","59.0","15.0","59.0","100","7.2","4.5","-9999.0","-9999.0","240","WSW","7.0","4.3","1014","29.95","-999","-999","-9999","-9999","-9999.00","-9999.00","Shallow Fog","fog","1","0","0","0","0","0","METAR UKKK 162300Z 24002MPS 7000 MIFG SKC 15/15 Q1014 R26/190060 NOSIG"
"2:30 AM EEST on June 17, 2016","2016","06","17","02","30","Europe/Kiev","11:30 PM GMT on June 16, 2016","2016","06","16","23","30","UTC","15.0","59.0","15.0","59.0","100","7.2","4.5","-9999.0","-9999.0","240","WSW","7.0","4.3","1015","29.98","-999","-999","-9999","-9999","-9999.00","-9999.00","Shallow Fog","fog","1","0","0","0","0","0","METAR UKKK 162330Z 24002MPS 7000 MIFG SKC 15/15 Q1015 R26/190060 NOSIG"
"3:00 AM EEST on June 17, 2016","2016","06","17","03","00","Europe/Kiev","12:00 AM GMT on June 17, 2016","2016","06","17","00","00","UTC","18","65","15","59","74","7.2","4.5","","","280","West","10","6","1015","29.97","-999","-999","-9999","-9999","","","Clear","clear","0","0","0","0","0","0","AAXX 17001 33345 32997 52802 10182 20148 39951 40147 52011 80005 555 11016"
"3:00 AM EEST on June 17, 2016","2016","06","17","03","00","Europe/Kiev","12:00 AM GMT on June 17, 2016","2016","06","17","00","00","UTC","15.0","59.0","15.0","59.0","100","7.2","4.5","-9999.0","-9999.0","240","WSW","1.3","0.8","1015","29.98","-999","-999","-9999","-9999","-9999.00","-9999.00","Shallow Fog","fog","1","0","0","0","0","0","METAR UKKK 170000Z 24002MPS 1300 R26/P2000N MIFG BR SKC 15/15 Q1015 R26/190060 TEMPO 0400 FG"
"3:30 AM EEST on June 17, 2016","2016","06","17","03","30","Europe/Kiev","12:30 AM GMT on June 17, 2016","2016","06","17","00","30","UTC","14.0","57.2","14.0","57.2","100","7.2","4.5","-9999.0","-9999.0","260","West","7.0","4.3","1015","29.98","-999","-999","-9999","-9999","-9999.00","-9999.00","Shallow Fog","fog","1","0","0","0","0","0","METAR UKKK 170030Z 26002MPS 7000 MIFG SKC 14/14 Q1015 R26/190060 TEMPO 0400 FG"
"3:54 AM EEST on June 17, 2016","2016","06","17","03","54","Europe/Kiev","12:54 AM GMT on June 17, 2016","2016","06","17","00","54","UTC","14.0","57.2","14.0","57.2","100","3.6","2.2","-9999.0","-9999.0","250","WSW","1.1","0.7","1015","29.98","-999","-999","-9999","-9999","-9999.00","-9999.00","Shallow Fog","fog","1","0","0","0","0","0","SPECI UKKK 170054Z 25001MPS 1100 R26/P2000N MIFG BR SKC 14/14 Q1015 R26/CLRD70 TEMPO 0400 FG"
"4:00 AM EEST on June 17, 2016","2016","06","17","04","00","Europe/Kiev","1:00 AM GMT on June 17, 2016","2016","06","17","01","00","UTC","14.0","57.2","14.0","57.2","100","7.2","4.5","-9999.0","-9999.0","250","WSW","2.0","1.2","1015","29.98","-999","-999","-9999","-9999","-9999.00","-9999.00","Shallow Fog","fog","1","0","0","0","0","0","METAR UKKK 170100Z 25002MPS 2000 MIFG BR SKC 14/14 Q1015 R26/CLRD70 TEMPO 0400 FG"
"4:30 AM EEST on June 17, 2016","2016","06","17","04","30","Europe/Kiev","1:30 AM GMT on June 17, 2016","2016","06","17","01","30","UTC","14.0","57.2","14.0","57.2","100","3.6","2.2","-9999.0","-9999.0","240","WSW","2.6","1.6","1015","29.98","-999","-999","-9999","-9999","-9999.00","-9999.00","Shallow Fog","fog","1","0","0","0","0","0","METAR UKKK 170130Z 24001MPS 2600 MIFG BR SKC 14/14 Q1015 R26/CLRD70 TEMPO 0400 FG"
"4:47 AM EEST on June 17, 2016","2016","06","17","04","47","Europe/Kiev","1:47 AM GMT on June 17, 2016","2016","06","17","01","47","UTC","13.0","55.4","13.0","55.4","100","7.2","4.5","-9999.0","-9999.0","260","West","0.6","0.4","1015","29.98","-999","-999","-9999","-9999","-9999.00","-9999.00","Unknown","unknown","0","0","0","0","0","0","SPECI UKKK 170147Z 26002MPS 0600 R26/P2000N PRFG NSC 13/13 Q1015 R26/CLRD70 TEMPO 0400 FG"
"5:00 AM EEST on June 17, 2016","2016","06","17","05","00","Europe/Kiev","2:00 AM GMT on June 17, 2016","2016","06","17","02","00","UTC","14.0","57.2","14.0","57.2","100","7.2","4.5","-9999.0","-9999.0","260","West","-9999.0","-9999.0","1015","29.98","-999","-999","-9999","-9999","-9999.00","-9999.00","Mist","hazy","0","0","0","0","0","0","METAR UKKK 170200Z 26002MPS 3600 BR NSC 14/14 Q1015 R26/CLRD70 TEMPO 0400 FG"
"5:03 AM EEST on June 17, 2016","2016","06","17","05","03","Europe/Kiev","2:03 AM GMT on June 17, 2016","2016","06","17","02","03","UTC","13.0","55.4","13.0","55.4","100","7.2","4.5","-9999.0","-9999.0","250","WSW","1.4","0.9","1015","29.98","-999","-999","-9999","-9999","-9999.00","-9999.00","Mist","hazy","0","0","0","0","0","0","SPECI UKKK 170203Z 25002MPS 1400 R26/P2000N BR NSC 13/13 Q1015 R26/CLRD70 TEMPO 0400 FG"
"5:08 AM EEST on June 17, 2016","2016","06","17","05","08","Europe/Kiev","2:08 AM GMT on June 17, 2016","2016","06","17","02","08","UTC","13.0","55.4","13.0","55.4","100","7.2","4.5","-9999.0","-9999.0","250","WSW","-9999.0","-9999.0","1015","29.98","-999","-999","-9999","-9999","-9999.00","-9999.00","Unknown","unknown","0","0","0","0","0","0","SPECI UKKK 170208Z 25002MPS 0650 R26/P2000N PRFG NSC 13/13 Q1015 R26/CLRD70 TEMPO 0400 FG"
"5:30 AM EEST on June 17, 2016","2016","06","17","05","30","Europe/Kiev","2:30 AM GMT on June 17, 2016","2016","06","17","02","30","UTC","14.0","57.2","14.0","57.2","100","3.6","2.2","-9999.0","-9999.0","250","WSW","6.0","3.7","1015","29.98","-999","-999","-9999","-9999","-9999.00","-9999.00","Unknown","unknown","0","0","0","0","0","0","METAR UKKK 170230Z 25001MPS 6000 NSC 14/14 Q1015 R26/CLRD70 TEMPO 0400 FG"
"6:00 AM EEST on June 17, 2016","2016","06","17","06","00","Europe/Kiev","3:00 AM GMT on June 17, 2016","2016","06","17","03","00","UTC","17","62","15","59","85","0.0","0.0","","","","","10","6","1015","29.99","-999","-999","-9999","-9999","","","Clear","clear","0","0","0","0","0","0","AAXX 17031 33345 42997 20000 10169 20148 39957 40154 52006 80001 555 11015"
"6:00 AM EEST on June 17, 2016","2016","06","17","06","00","Europe/Kiev","3:00 AM GMT on June 17, 2016","2016","06","17","03","00","UTC","16.0","60.8","16.0","60.8","100","0.0","0.0","-9999.0","-9999.0","0","North","9.0","5.6","1015","29.98","-999","-999","-9999","-9999","-9999.00","-9999.00","Unknown","unknown","0","0","0","0","0","0","METAR UKKK 170300Z 00000MPS 9000 NSC 16/16 Q1015 R26/CLRD70 TEMPO 0400 FG"
"6:30 AM EEST on June 17, 2016","2016","06","17","06","30","Europe/Kiev","3:30 AM GMT on June 17, 2016","2016","06","17","03","30","UTC","18.0","64.4","17.0","62.6","94","0.0","0.0","-9999.0","-9999.0","0","North","-9999.0","-9999.0","1015","29.98","-999","-999","-9999","-9999","-9999.00","-9999.00","Clear","clear","0","0","0","0","0","0","METAR UKKK 170330Z 00000MPS CAVOK 18/17 Q1015 R26/CLRD70 NOSIG"
"7:00 AM EEST on June 17, 2016","2016","06","17","07","00","Europe/Kiev","4:00 AM GMT on June 17, 2016","2016","06","17","04","00","UTC","19.0","66.2","17.0","62.6","88","0.0","0.0","-9999.0","-9999.0","0","North","-9999.0","-9999.0","1016","30.01","-999","-999","-9999","-9999","-9999.00","-9999.00","Clear","clear","0","0","0","0","0","0","METAR UKKK 170400Z 00000MPS CAVOK 19/17 Q1016 R26/CLRD70 NOSIG"
"7:30 AM EEST on June 17, 2016","2016","06","17","07","30","Europe/Kiev","4:30 AM GMT on June 17, 2016","2016","06","17","04","30","UTC","21.0","69.8","18.0","64.4","83","7.2","4.5","-9999.0","-9999.0","230","SW","-9999.0","-9999.0","1016","30.01","-999","-999","-9999","-9999","-9999.00","-9999.00","Clear","clear","0","0","0","0","0","0","METAR UKKK 170430Z 23002MPS 190V260 CAVOK 21/18 Q1016 R26/CLRD70 NOSIG"
"8:00 AM EEST on June 17, 2016","2016","06","17","08","00","Europe/Kiev","5:00 AM GMT on June 17, 2016","2016","06","17","05","00","UTC","22.0","71.6","17.0","62.6","73","7.2","4.5","-9999.0","-9999.0","200","SSW","-9999.0","-9999.0","1016","30.01","-999","-999","-9999","-9999","-9999.00","-9999.00","Clear","clear","0","0","0","0","0","0","METAR UKKK 170500Z 20002MPS 160V250 CAVOK 22/17 Q1016 R26/CLRD70 NOSIG"
"8:30 AM EEST on June 17, 2016","2016","06","17","08","30","Europe/Kiev","5:30 AM GMT on June 17, 2016","2016","06","17","05","30","UTC","23.0","73.4","16.0","60.8","65","7.2","4.5","-9999.0","-9999.0","200","SSW","-9999.0","-9999.0","1016","30.01","-999","-999","-9999","-9999","-9999.00","-9999.00","Clear","clear","0","0","0","0","0","0","METAR UKKK 170530Z 20002MPS 140V240 CAVOK 23/16 Q1016 R26/CLRD70 NOSIG"
"9:00 AM EEST on June 17, 2016","2016","06","17","09","00","Europe/Kiev","6:00 AM GMT on June 17, 2016","2016","06","17","06","00","UTC","23","73","18","64","66","7.2","4.5","","","160","SSE","20","12","1016","30.00","-999","-999","-9999","-9999","","","Clear","clear","0","0","0","0","0","0","AAXX 17061 33345 32998 31602 10230 20177 39964 40157 52007 80004 333 20161 555 11029"
"9:00 AM EEST on June 17, 2016","2016","06","17","09","00","Europe/Kiev","6:00 AM GMT on June 17, 2016","2016","06","17","06","00","UTC","24.0","75.2","17.0","62.6","65","10.8","6.7","-9999.0","-9999.0","190","South","-9999.0","-9999.0","1016","30.01","-999","-999","-9999","-9999","-9999.00","-9999.00","Clear","clear","0","0","0","0","0","0","METAR UKKK 170600Z 19003MPS CAVOK 24/17 Q1016 R26/CLRD70 NOSIG"
"9:30 AM EEST on June 17, 2016","2016","06","17","09","30","Europe/Kiev","6:30 AM GMT on June 17, 2016","2016","06","17","06","30","UTC","24.0","75.2","16.0","60.8","61","10.8","6.7","-9999.0","-9999.0","170","South","-9999.0","-9999.0","1016","30.01","-999","-999","-9999","-9999","-9999.00","-9999.00","Clear","clear","0","0","0","0","0","0","METAR UKKK 170630Z 17003MPS 120V210 CAVOK 24/16 Q1016 R26/CLRD70 NOSIG"
"10:00 AM EEST on June 17, 2016","2016","06","17","10","00","Europe/Kiev","7:00 AM GMT on June 17, 2016","2016","06","17","07","00","UTC","24.0","75.2","16.0","60.8","61","10.8","6.7","-9999.0","-9999.0","180","South","-9999.0","-9999.0","1016","30.01","-999","-999","-9999","-9999","-9999.00","-9999.00","Clear","clear","0","0","0","0","0","0","METAR UKKK 170700Z 18003MPS 130V230 CAVOK 24/16 Q1016 R26/CLRD70 NOSIG"
"10:30 AM EEST on June 17, 2016","2016","06","17","10","30","Europe/Kiev","7:30 AM GMT on June 17, 2016","2016","06","17","07","30","UTC","25.0","77.0","17.0","62.6","61","14.4","8.9","-9999.0","-9999.0","180","South","-9999.0","-9999.0","1016","30.01","-999","-999","-9999","-9999","-9999.00","-9999.00","Clear","clear","0","0","0","0","0","0","METAR UKKK 170730Z 18004MPS 150V220 CAVOK 25/17 Q1016 R26/CLRD70 NOSIG"
"11:00 AM EEST on June 17, 2016","2016","06","17","11","00","Europe/Kiev","8:00 AM GMT on June 17, 2016","2016","06","17","08","00","UTC","25.0","77.0","16.0","60.8","57","18.0","11.2","-9999.0","-9999.0","170","South","-9999.0","-9999.0","1016","30.01","-999","-999","-9999","-9999","-9999.00","-9999.00","Clear","clear","0","0","0","0","0","0","METAR UKKK 170800Z 17005MPS 140V200 CAVOK 25/16 Q1016 R26/CLRD70 NOSIG"
"11:30 AM EEST on June 17, 2016","2016","06","17","11","30","Europe/Kiev","8:30 AM GMT on June 17, 2016","2016","06","17","08","30","UTC","26.0","78.8","15.0","59.0","51","18.0","11.2","-9999.0","-9999.0","170","South","-9999.0","-9999.0","1016","30.01","-999","-999","-9999","-9999","-9999.00","-9999.00","Clear","clear","0","0","0","0","0","0","METAR UKKK 170830Z 17005MPS 140V210 CAVOK 26/15 Q1016 R26/CLRD70 NOSIG"
"12:00 PM EEST on June 17, 2016","2016","06","17","12","00","Europe/Kiev","9:00 AM GMT on June 17, 2016","2016","06","17","09","00","UTC","27","80","16","60","41","14.4","8.9","","","180","South","20","12","1015","29.97","-999","-999","-9999","-9999","","","","","0","0","0","0","0","0","AAXX 17091 33345 42998 01804 10267 20158 39959 40149 58005 555 10039"
"12:00 PM EEST on June 17, 2016","2016","06","17","12","00","Europe/Kiev","9:00 AM GMT on June 17, 2016","2016","06","17","09","00","UTC","26.0","78.8","15.0","59.0","51","14.4","8.9","-9999.0","-9999.0","170","South","-9999.0","-9999.0","1015","29.98","-999","-999","-9999","-9999","-9999.00","-9999.00","Clear","clear","0","0","0","0","0","0","METAR UKKK 170900Z 17004MPS 120V230 CAVOK 26/15 Q1015 R26/CLRD70 NOSIG"
"12:30 PM EEST on June 17, 2016","2016","06","17","12","30","Europe/Kiev","9:30 AM GMT on June 17, 2016","2016","06","17","09","30","UTC","27.0","80.6","15.0","59.0","48","14.4","8.9","-9999.0","-9999.0","180","South","-9999.0","-9999.0","1015","29.98","-999","-999","27.3","81.1","-9999.00","-9999.00","Clear","clear","0","0","0","0","0","0","METAR UKKK 170930Z 18004MPS 140V210 CAVOK 27/15 Q1015 R26/CLRD70 NOSIG"
"1:00 PM EEST on June 17, 2016","2016","06","17","13","00","Europe/Kiev","10:00 AM GMT on June 17, 2016","2016","06","17","10","00","UTC","27.0","80.6","15.0","59.0","48","18.0","11.2","-9999.0","-9999.0","170","South","-9999.0","-9999.0","1015","29.98","-999","-999","27.3","81.1","-9999.00","-9999.00","Clear","clear","0","0","0","0","0","0","METAR UKKK 171000Z 17005MPS 140V220 CAVOK 27/15 Q1015 R26/CLRD70 NOSIG"
"1:30 PM EEST on June 17, 2016","2016","06","17","13","30","Europe/Kiev","10:30 AM GMT on June 17, 2016","2016","06","17","10","30","UTC","28.0","82.4","15.0","59.0","45","14.4","8.9","-9999.0","-9999.0","170","South","-9999.0","-9999.0","1015","29.98","-999","-999","28.0","82.5","-9999.00","-9999.00","Clear","clear","0","0","0","0","0","0","METAR UKKK 171030Z 17004MPS 140V210 CAVOK 28/15 Q1015 R26/CLRD70 NOSIG"
"2:00 PM EEST on June 17, 2016","2016","06","17","14","00","Europe/Kiev","11:00 AM GMT on June 17, 2016","2016","06","17","11","00","UTC","28.0","82.4","16.0","60.8","48","18.0","11.2","-9999.0","-9999.0","170","South","-9999.0","-9999.0","1015","29.98","-999","-999","28.3","82.9","-9999.00","-9999.00","Clear","clear","0","0","0","0","0","0","METAR UKKK 171100Z 17005MPS 120V210 CAVOK 28/16 Q1015 R26/CLRD70 NOSIG"
"2:30 PM EEST on June 17, 2016","2016","06","17","14","30","Europe/Kiev","11:30 AM GMT on June 17, 2016","2016","06","17","11","30","UTC","28.0","82.4","15.0","59.0","45","18.0","11.2","-9999.0","-9999.0","180","South","-9999.0","-9999.0","1014","29.95","-999","-999","28.0","82.5","-9999.00","-9999.00","Clear","clear","0","0","0","0","0","0","METAR UKKK 171130Z 18005MPS 160V220 CAVOK 28/15 Q1014 R26/CLRD70 NOSIG"
"3:00 PM EEST on June 17, 2016","2016","06","17","15","00","Europe/Kiev","12:00 PM GMT on June 17, 2016","2016","06","17","12","00","UTC","28","83","15","58","33","18.0","11.2","","","180","South","20","12","1014","29.94","-999","-999","-9999","-9999","","","Clear","clear","0","0","0","0","0","0","AAXX 17121 33345 32998 21805 10281 20146 39947 40136 57012 80001 555 10042"
"3:00 PM EEST on June 17, 2016","2016","06","17","15","00","Europe/Kiev","12:00 PM GMT on June 17, 2016","2016","06","17","12","00","UTC","28.0","82.4","16.0","60.8","48","18.0","11.2","-9999.0","-9999.0","180","South","-9999.0","-9999.0","1014","29.95","-999","-999","28.3","82.9","-9999.00","-9999.00","Clear","clear","0","0","0","0","0","0","METAR UKKK 171200Z 18005MPS 140V220 CAVOK 28/16 Q1014 R26/CLRD70 TEMPO 18010G16MPS"
"3:30 PM EEST on June 17, 2016","2016","06","17","15","30","Europe/Kiev","12:30 PM GMT on June 17, 2016","2016","06","17","12","30","UTC","28.0","82.4","16.0","60.8","48","18.0","11.2","36.0","22.4","180","South","-9999.0","-9999.0","1014","29.95","-999","-999","28.3","82.9","-9999.00","-9999.00","Clear","clear","0","0","0","0","0","0","METAR UKKK 171230Z 18005G10MPS 130V220 CAVOK 28/16 Q1014 R26/CLRD70 TEMPO 18010G16MPS"
"4:00 PM EEST on June 17, 2016","2016","06","17","16","00","Europe/Kiev","1:00 PM GMT on June 17, 2016","2016","06","17","13","00","UTC","28.0","82.4","16.0","60.8","48","18.0","11.2","-9999.0","-9999.0","170","South","-9999.0","-9999.0","1014","29.95","-999","-999","28.3","82.9","-9999.00","-9999.00","Clear","clear","0","0","0","0","0","0","METAR UKKK 171300Z 17005MPS 140V210 CAVOK 28/16 Q1014 R26/CLRD70 TEMPO 18010G16MPS"
"4:30 PM EEST on June 17, 2016","2016","06","17","16","30","Europe/Kiev","1:30 PM GMT on June 17, 2016","2016","06","17","13","30","UTC","28.0","82.4","16.0","60.8","48","21.6","13.4","-9999.0","-9999.0","180","South","-9999.0","-9999.0","1013","29.92","-999","-999","28.3","82.9","-9999.00","-9999.00","Clear","clear","0","0","0","0","0","0","METAR UKKK 171330Z 18006MPS 150V210 CAVOK 28/16 Q1013 R26/CLRD70 TEMPO 18010G16MPS"
"5:00 PM EEST on June 17, 2016","2016","06","17","17","00","Europe/Kiev","2:00 PM GMT on June 17, 2016","2016","06","17","14","00","UTC","28.0","82.4","16.0","60.8","48","21.6","13.4","-9999.0","-9999.0","170","South","-9999.0","-9999.0","1013","29.92","-999","-999","28.3","82.9","-9999.00","-9999.00","Clear","clear","0","0","0","0","0","0","METAR UKKK 171400Z 17006MPS 120V230 CAVOK 28/16 Q1013 R08/CLRD70 TEMPO 18010G16MPS"
"5:30 PM EEST on June 17, 2016","2016","06","17","17","30","Europe/Kiev","2:30 PM GMT on June 17, 2016","2016","06","17","14","30","UTC","28.0","82.4","16.0","60.8","48","18.0","11.2","36.0","22.4","160","SSE","-9999.0","-9999.0","1013","29.92","-999","-999","28.3","82.9","-9999.00","-9999.00","Clear","clear","0","0","0","0","0","0","METAR UKKK 171430Z 16005G10MPS 120V230 CAVOK 28/16 Q1013 R08/CLRD70 TEMPO 18010G16MPS"
"6:00 PM EEST on June 17, 2016","2016","06","17","18","00","Europe/Kiev","3:00 PM GMT on June 17, 2016","2016","06","17","15","00","UTC","28","82","15","60","36","18.0","11.2","","","190","South","20","12","1012","29.88","-999","-999","-9999","-9999","","","","","0","0","0","0","0","0","AAXX 17151 33345 42998 01905 10278 20154 39929 40118 57018 555 10034"
"6:00 PM EEST on June 17, 2016","2016","06","17","18","00","Europe/Kiev","3:00 PM GMT on June 17, 2016","2016","06","17","15","00","UTC","28.0","82.4","16.0","60.8","48","14.4","8.9","-9999.0","-9999.0","170","South","-9999.0","-9999.0","1012","29.89","-999","-999","28.3","82.9","-9999.00","-9999.00","Clear","clear","0","0","0","0","0","0","METAR UKKK 171500Z 17004MPS 120V220 CAVOK 28/16 Q1012 R08/CLRD70 TEMPO 18010G16MPS"
"6:30 PM EEST on June 17, 2016","2016","06","17","18","30","Europe/Kiev","3:30 PM GMT on June 17, 2016","2016","06","17","15","30","UTC","27.0","80.6","17.0","62.6","54","18.0","11.2","43.2","26.8","160","SSE","-9999.0","-9999.0","1012","29.89","-999","-999","27.7","81.8","-9999.00","-9999.00","Clear","clear","0","0","0","0","0","0","METAR UKKK 171530Z 16005G12MPS 130V210 CAVOK 27/17 Q1012 R08/CLRD70 TEMPO 18010G16MPS"
"7:00 PM EEST on June 17, 2016","2016","06","17","19","00","Europe/Kiev","4:00 PM GMT on June 17, 2016","2016","06","17","16","00","UTC","27.0","80.6","17.0","62.6","54","14.4","8.9","-9999.0","-9999.0","170","South","-9999.0","-9999.0","1012","29.89","-999","-999","27.7","81.8","-9999.00","-9999.00","Clear","clear","0","0","0","0","0","0","METAR UKKK 171600Z 17004MPS 110V220 CAVOK 27/17 Q1012 R08/CLRD70 TEMPO 18010G16MPS"
"7:30 PM EEST on June 17, 2016","2016","06","17","19","30","Europe/Kiev","4:30 PM GMT on June 17, 2016","2016","06","17","16","30","UTC","27.0","80.6","18.0","64.4","58","14.4","8.9","-9999.0","-9999.0","160","SSE","-9999.0","-9999.0","1012","29.89","-999","-999","27.9","82.3","-9999.00","-9999.00","Clear","clear","0","0","0","0","0","0","METAR UKKK 171630Z 16004MPS 110V210 CAVOK 27/18 Q1012 R08/CLRD70 TEMPO 18010G16MPS"
"8:00 PM EEST on June 17, 2016","2016","06","17","20","00","Europe/Kiev","5:00 PM GMT on June 17, 2016","2016","06","17","17","00","UTC","26.0","78.8","18.0","64.4","61","10.8","6.7","-9999.0","-9999.0","160","SSE","-9999.0","-9999.0","1013","29.92","-999","-999","-9999","-9999","-9999.00","-9999.00","Clear","clear","0","0","0","0","0","0","METAR UKKK 171700Z 16003MPS 110V220 CAVOK 26/18 Q1013 R08/CLRD70 TEMPO 18010G16MPS"
"8:30 PM EEST on June 17, 2016","2016","06","17","20","30","Europe/Kiev","5:30 PM GMT on June 17, 2016","2016","06","17","17","30","UTC","26.0","78.8","18.0","64.4","61","10.8","6.7","-9999.0","-9999.0","160","SSE","-9999.0","-9999.0","1013","29.92","-999","-999","-9999","-9999","-9999.00","-9999.00","Clear","clear","0","0","0","0","0","0","METAR UKKK 171730Z 16003MPS 110V230 CAVOK 26/18 Q1013 R08/CLRD70 NOSIG"
"9:00 PM EEST on June 17, 2016","2016","06","17","21","00","Europe/Kiev","6:00 PM GMT on June 17, 2016","2016","06","17","18","00","UTC","26","78","16","62","48","10.8","6.7","","","170","South","20","12","1012","29.90","-999","-999","-9999","-9999","","","","","0","0","0","0","0","0","AAXX 17181 33345 32998 01703 10257 20165 39935 40125 53006 333 10284 555 10025"
"9:00 PM EEST on June 17, 2016","2016","06","17","21","00","Europe/Kiev","6:00 PM GMT on June 17, 2016","2016","06","17","18","00","UTC","25.0","77.0","18.0","64.4","65","10.8","6.7","-9999.0","-9999.0","150","SSE","-9999.0","-9999.0","1013","29.92","-999","-999","-9999","-9999","-9999.00","-9999.00","Clear","clear","0","0","0","0","0","0","METAR UKKK 171800Z 15003MPS 110V220 CAVOK 25/18 Q1013 R08/CLRD70 NOSIG"
"9:30 PM EEST on June 17, 2016","2016","06","17","21","30","Europe/Kiev","6:30 PM GMT on June 17, 2016","2016","06","17","18","30","UTC","25.0","77.0","18.0","64.4","65","10.8","6.7","-9999.0","-9999.0","140","SE","-9999.0","-9999.0","1013","29.92","-999","-999","-9999","-9999","-9999.00","-9999.00","Clear","clear","0","0","0","0","0","0","METAR UKKK 171830Z 14003MPS 100V190 CAVOK 25/18 Q1013 R08/CLRD70 NOSIG"
"10:00 PM EEST on June 17, 2016","2016","06","17","22","00","Europe/Kiev","7:00 PM GMT on June 17, 2016","2016","06","17","19","00","UTC","24.0","75.2","18.0","64.4","69","10.8","6.7","-9999.0","-9999.0","140","SE","-9999.0","-9999.0","1012","29.89","-999","-999","-9999","-9999","-9999.00","-9999.00","Clear","clear","0","0","0","0","0","0","METAR UKKK 171900Z 14003MPS 120V180 CAVOK 24/18 Q1012 R08/CLRD70 NOSIG"
"10:30 PM EEST on June 17, 2016","2016","06","17","22","30","Europe/Kiev","7:30 PM GMT on June 17, 2016","2016","06","17","19","30","UTC","24.0","75.2","18.0","64.4","69","14.4","8.9","-9999.0","-9999.0","140","SE","-9999.0","-9999.0","1013","29.92","-999","-999","-9999","-9999","-9999.00","-9999.00","Clear","clear","0","0","0","0","0","0","METAR UKKK 171930Z 14004MPS 110V170 CAVOK 24/18 Q1013 R08/CLRD70 NOSIG"
"11:00 PM EEST on June 17, 2016","2016","06","17","23","00","Europe/Kiev","8:00 PM GMT on June 17, 2016","2016","06","17","20","00","UTC","24.0","75.2","18.0","64.4","69","14.4","8.9","-9999.0","-9999.0","140","SE","-9999.0","-9999.0","1013","29.92","-999","-999","-9999","-9999","-9999.00","-9999.00","Clear","clear","0","0","0","0","0","0","METAR UKKK 172000Z 14004MPS 110V200 CAVOK 24/18 Q1013 R08/CLRD70 NOSIG"
"11:30 PM EEST on June 17, 2016","2016","06","17","23","30","Europe/Kiev","8:30 PM GMT on June 17, 2016","2016","06","17","20","30","UTC","23.0","73.4","18.0","64.4","73","10.8","6.7","-9999.0","-9999.0","150","SSE","-9999.0","-9999.0","1013","29.92","-999","-999","-9999","-9999","-9999.00","-9999.00","Clear","clear","0","0","0","0","0","0","METAR UKKK 172030Z 15003MPS 110V190 CAVOK 23/18 Q1013 R08/CLRD70 NOSIG"
"12:00 AM EEST on June 18, 2016","2016","06","18","00","00","Europe/Kiev","9:00 PM GMT on June 17, 2016","2016","06","17","21","00","UTC","23","73","17","63","62","14.4","8.9","","","160","SSE","20","12","1012","29.90","-999","-999","-9999","-9999","","","","","0","0","0","0","0","0","AAXX 17211 33345 42998 01604 10228 20170 39931 40123 58004 555 10021"
"12:00 AM EEST on June 18, 2016","2016","06","18","00","00","Europe/Kiev","9:00 PM GMT on June 17, 2016","2016","06","17","21","00","UTC","23.0","73.4","18.0","64.4","73","10.8","6.7","-9999.0","-9999.0","160","SSE","-9999.0","-9999.0","1013","29.92","-999","-999","-9999","-9999","-9999.00","-9999.00","Clear","clear","0","0","0","0","0","0","METAR UKKK 172100Z 16003MPS 110V250 CAVOK 23/18 Q1013 R08/CLRD70 NOSIG"
"12:30 AM EEST on June 18, 2016","2016","06","18","00","30","Europe/Kiev","9:30 PM GMT on June 17, 2016","2016","06","17","21","30","UTC","23.0","73.4","18.0","64.4","73","10.8","6.7","-9999.0","-9999.0","170","South","-9999.0","-9999.0","1012","29.89","-999","-999","-9999","-9999","-9999.00","-9999.00","Clear","clear","0","0","0","0","0","0","METAR UKKK 172130Z 17003MPS 120V220 CAVOK 23/18 Q1012 R08/CLRD70 NOSIG"
"1:00 AM EEST on June 18, 2016","2016","06","18","01","00","Europe/Kiev","10:00 PM GMT on June 17, 2016","2016","06","17","22","00","UTC","22.0","71.6","18.0","64.4","78","10.8","6.7","-9999.0","-9999.0","170","South","-9999.0","-9999.0","1012","29.89","-999","-999","-9999","-9999","-9999.00","-9999.00","Clear","clear","0","0","0","0","0","0","METAR UKKK 172200Z 17003MPS 120V240 CAVOK 22/18 Q1012 R08/CLRD70 NOSIG"
"1:30 AM EEST on June 18, 2016","2016","06","18","01","30","Europe/Kiev","10:30 PM GMT on June 17, 2016","2016","06","17","22","30","UTC","22.0","71.6","18.0","64.4","78","10.8","6.7","-9999.0","-9999.0","170","South","-9999.0","-9999.0","1013","29.92","-999","-999","-9999","-9999","-9999.00","-9999.00","Clear","clear","0","0","0","0","0","0","METAR UKKK 172230Z 17003MPS 110V230 CAVOK 22/18 Q1013 R08/CLRD70 NOSIG"
"2:00 AM EEST on June 18, 2016","2016","06","18","02","00","Europe/Kiev","11:00 PM GMT on June 17, 2016","2016","06","17","23","00","UTC","22.0","71.6","18.0","64.4","78","10.8","6.7","-9999.0","-9999.0","170","South","-9999.0","-9999.0","1013","29.92","-999","-999","-9999","-9999","-9999.00","-9999.00","Clear","clear","0","0","0","0","0","0","METAR UKKK 172300Z 17003MPS 110V240 CAVOK 22/18 Q1013 R08/CLRD70 NOSIG"
"2:30 AM EEST on June 18, 2016","2016","06","18","02","30","Europe/Kiev","11:30 PM GMT on June 17, 2016","2016","06","17","23","30","UTC","21.0","69.8","17.0","62.6","78","7.2","4.5","-9999.0","-9999.0","180","South","-9999.0","-9999.0","1013","29.92","-999","-999","-9999","-9999","-9999.00","-9999.00","Clear","clear","0","0","0","0","0","0","METAR UKKK 172330Z 18002MPS 110V240 CAVOK 21/17 Q1013 R08/CLRD70 NOSIG"
"3:00 AM EEST on June 18, 2016","2016","06","18","03","00","Europe/Kiev","12:00 AM GMT on June 18, 2016","2016","06","18","00","00","UTC","21","69","16","62","71","10.8","6.7","","","170","South","20","12","1013","29.91","-999","-999","-9999","-9999","","","","","0","0","0","0","0","0","AAXX 18001 33345 32998 01703 10207 20164 39933 40127 53002 555 10020"
"3:00 AM EEST on June 18, 2016","2016","06","18","03","00","Europe/Kiev","12:00 AM GMT on June 18, 2016","2016","06","18","00","00","UTC","21.0","69.8","17.0","62.6","78","7.2","4.5","-9999.0","-9999.0","170","South","-9999.0","-9999.0","1013","29.92","-999","-999","-9999","-9999","-9999.00","-9999.00","Clear","clear","0","0","0","0","0","0","METAR UKKK 180000Z 17002MPS 090V250 CAVOK 21/17 Q1013 R08/CLRD70 NOSIG"
"3:30 AM EEST on June 18, 2016","2016","06","18","03","30","Europe/Kiev","12:30 AM GMT on June 18, 2016","2016","06","18","00","30","UTC","20.0","68.0","17.0","62.6","83","7.2","4.5","-9999.0","-9999.0","210","SSW","-9999.0","-9999.0","1013","29.92","-999","-999","-9999","-9999","-9999.00","-9999.00","Clear","clear","0","0","0","0","0","0","METAR UKKK 180030Z 21002MPS 160V260 CAVOK 20/17 Q1013 R08/CLRD70 NOSIG"
"4:00 AM EEST on June 18, 2016","2016","06","18","04","00","Europe/Kiev","1:00 AM GMT on June 18, 2016","2016","06","18","01","00","UTC","20.0","68.0","17.0","62.6","83","7.2","4.5","-9999.0","-9999.0","190","South","-9999.0","-9999.0","1013","29.92","-999","-999","-9999","-9999","-9999.00","-9999.00","Clear","clear","0","0","0","0","0","0","METAR UKKK 180100Z 19002MPS 130V250 CAVOK 20/17 Q1013 R26/CLRD70 NOSIG"
"4:30 AM EEST on June 18, 2016","2016","06","18","04","30","Europe/Kiev","1:30 AM GMT on June 18, 2016","2016","06","18","01","30","UTC","20.0","68.0","17.0","62.6","83","7.2","4.5","-9999.0","-9999.0","210","SSW","-9999.0","-9999.0","1013","29.92","-999","-999","-9999","-9999","-9999.00","-9999.00","Clear","clear","0","0","0","0","0","0","METAR UKKK 180130Z 21002MPS 180V240 CAVOK 20/17 Q1013 R26/CLRD70 NOSIG"
"5:00 AM EEST on June 18, 2016","2016","06","18","05","00","Europe/Kiev","2:00 AM GMT on June 18, 2016","2016","06","18","02","00","UTC","19.0","66.2","17.0","62.6","88","7.2","4.5","-9999.0","-9999.0","200","SSW","-9999.0","-9999.0","1014","29.95","-999","-999","-9999","-9999","-9999.00","-9999.00","Clear","clear","0","0","0","0","0","0","METAR UKKK 180200Z 20002MPS 170V240 CAVOK 19/17 Q1014 R26/CLRD70 NOSIG"
"5:30 AM EEST on June 18, 2016","2016","06","18","05","30","Europe/Kiev","2:30 AM GMT on June 18, 2016","2016","06","18","02","30","UTC","19.0","66.2","17.0","62.6","88","3.6","2.2","-9999.0","-9999.0","0","Variable","-9999.0","-9999.0","1013","29.92","-999","-999","-9999","-9999","-9999.00","-9999.00","Clear","clear","0","0","0","0","0","0","METAR UKKK 180230Z VRB01MPS CAVOK 19/17 Q1013 R26/CLRD70 NOSIG"
"6:00 AM EEST on June 18, 2016","2016","06","18","06","00","Europe/Kiev","3:00 AM GMT on June 18, 2016","2016","06","18","03","00","UTC","19","66","16","61","80","10.8","6.7","","","170","South","20","12","1014","29.94","-999","-999","-9999","-9999","","","Scattered Clouds","partlycloudy","0","0","0","0","0","0","AAXX 18031 33345 42998 21703 10188 20163 39943 40138 52010 82030 555 10019"
"6:00 AM EEST on June 18, 2016","2016","06","18","06","00","Europe/Kiev","3:00 AM GMT on June 18, 2016","2016","06","18","03","00","UTC","20.0","68.0","17.0","62.6","83","7.2","4.5","-9999.0","-9999.0","160","SSE","-9999.0","-9999.0","1014","29.95","-999","-999","-9999","-9999","-9999.00","-9999.00","Clear","clear","0","0","0","0","0","0","METAR UKKK 180300Z 16002MPS 130V200 CAVOK 20/17 Q1014 R26/CLRD70 NOSIG"
"6:30 AM EEST on June 18, 2016","2016","06","18","06","30","Europe/Kiev","3:30 AM GMT on June 18, 2016","2016","06","18","03","30","UTC","20.0","68.0","18.0","64.4","88","7.2","4.5","-9999.0","-9999.0","210","SSW","-9999.0","-9999.0","1014","29.95","-999","-999","-9999","-9999","-9999.00","-9999.00","Clear","clear","0","0","0","0","0","0","METAR UKKK 180330Z 21002MPS 160V250 CAVOK 20/18 Q1014 R26/CLRD70 NOSIG"
"7:00 AM EEST on June 18, 2016","2016","06","18","07","00","Europe/Kiev","4:00 AM GMT on June 18, 2016","2016","06","18","04","00","UTC","21.0","69.8","18.0","64.4","83","7.2","4.5","-9999.0","-9999.0","240","WSW","-9999.0","-9999.0","1014","29.95","-999","-999","-9999","-9999","-9999.00","-9999.00","Clear","clear","0","0","0","0","0","0","METAR UKKK 180400Z 24002MPS 190V270 CAVOK 21/18 Q1014 R26/CLRD70 NOSIG"
"7:30 AM EEST on June 18, 2016","2016","06","18","07","30","Europe/Kiev","4:30 AM GMT on June 18, 2016","2016","06","18","04","30","UTC","21.0","69.8","19.0","66.2","88","7.2","4.5","-9999.0","-9999.0","240","WSW","-9999.0","-9999.0","1015","29.98","-999","-999","-9999","-9999","-9999.00","-9999.00","Clear","clear","0","0","0","0","0","0","METAR UKKK 180430Z 24002MPS CAVOK 21/19 Q1015 R26/CLRD70 NOSIG"
"8:00 AM EEST on June 18, 2016","2016","06","18","08","00","Europe/Kiev","5:00 AM GMT on June 18, 2016","2016","06","18","05","00","UTC","22.0","71.6","19.0","66.2","83","7.2","4.5","-9999.0","-9999.0","300","WNW","10.0","6.2","1014","29.95","-999","-999","-9999","-9999","-9999.00","-9999.00","Light Rain Showers","rain","0","1","0","0","0","0","METAR UKKK 180500Z 30002MPS 260V340 9999 -SHRA SCT030CB BKN040 22/19 Q1014 R26/CLRD70 NOSIG"
"8:30 AM EEST on June 18, 2016","2016","06","18","08","30","Europe/Kiev","5:30 AM GMT on June 18, 2016","2016","06","18","05","30","UTC","21.0","69.8","19.0","66.2","88","7.2","4.5","-9999.0","-9999.0","280","West","9.0","5.6","1015","29.98","-999","-999","-9999","-9999","-9999.00","-9999.00","Light Rain Showers","rain","0","1","0","0","0","0","METAR UKKK 180530Z 28002MPS 230V330 9000 -SHRA SCT027CB BKN040 21/19 Q1015 R26/290058 TEMPO 30008G13MPS -TSRA SCT025CB"
"9:00 AM EEST on June 18, 2016","2016","06","18","09","00","Europe/Kiev","6:00 AM GMT on June 18, 2016","2016","06","18","06","00","UTC","22","72","19","65","74","3.6","2.2","","","260","West","20","12","1014","29.96","-999","-999","-9999","-9999","","","Mostly Cloudy","mostlycloudy","0","0","0","0","0","0","AAXX 18061 33345 32498 72601 10221 20186 39952 40145 52009 87900 333 20187 87918 555 10025"
"9:00 AM EEST on June 18, 2016","2016","06","18","09","00","Europe/Kiev","6:00 AM GMT on June 18, 2016","2016","06","18","06","00","UTC","22.0","71.6","20.0","68.0","88","3.6","2.2","21.6","13.4","0","Variable","10.0","6.2","1015","29.98","-999","-999","-9999","-9999","-9999.00","-9999.00","Mostly Cloudy","mostlycloudy","0","0","0","0","0","0","METAR UKKK 180600Z VRB01G06MPS 9999 FEW027CB BKN100 22/20 Q1015 R26/290058 TEMPO 30008G13MPS -TSRA SCT025CB"
"9:30 AM EEST on June 18, 2016","2016","06","18","09","30","Europe/Kiev","6:30 AM GMT on June 18, 2016","2016","06","18","06","30","UTC","24.0","75.2","20.0","68.0","78","0.0","0.0","-9999.0","-9999.0","0","North","-9999.0","-9999.0","1014","29.95","-999","-999","-9999","-9999","-9999.00","-9999.00","Clear","clear","0","0","0","0","0","0","METAR UKKK 180630Z 00000MPS CAVOK 24/20 Q1014 R26/290058 TEMPO 30008G13MPS -TSRA SCT025CB"
"10:00 AM EEST on June 18, 2016","2016","06","18","10","00","Europe/Kiev","7:00 AM GMT on June 18, 2016","2016","06","18","07","00","UTC","24.0","75.2","19.0","66.2","73","3.6","2.2","-9999.0","-9999.0","0","Variable","-9999.0","-9999.0","1015","29.98","-999","-999","-9999","-9999","-9999.00","-9999.00","Clear","clear","0","0","0","0","0","0","METAR UKKK 180700Z VRB01MPS CAVOK 24/19 Q1015 R26/290058 TEMPO -TSRA SCT025CB"
"10:30 AM EEST on June 18, 2016","2016","06","18","10","30","Europe/Kiev","7:30 AM GMT on June 18, 2016","2016","06","18","07","30","UTC","25.0","77.0","19.0","66.2","69","7.2","4.5","-9999.0","-9999.0","330","NNW","-9999.0","-9999.0","1015","29.98","-999","-999","-9999","-9999","-9999.00","-9999.00","Clear","clear","0","0","0","0","0","0","METAR UKKK 180730Z 33002MPS 290V030 CAVOK 25/19 Q1015 R26/290058 TEMPO -TSRA SCT025CB"
"11:00 AM EEST on June 18, 2016","2016","06","18","11","00","Europe/Kiev","8:00 AM GMT on June 18, 2016","2016","06","18","08","00","UTC","24.0","75.2","20.0","68.0","78","10.8","6.7","-9999.0","-9999.0","290","WNW","-9999.0","-9999.0","1016","30.01","-999","-999","-9999","-9999","-9999.00","-9999.00","Clear","clear","0","0","0","0","0","0","METAR UKKK 180800Z 29003MPS 250V320 CAVOK 24/20 Q1016 R26/290058 NOSIG"
"11:30 AM EEST on June 18, 2016","2016","06","18","11","30","Europe/Kiev","8:30 AM GMT on June 18, 2016","2016","06","18","08","30","UTC","24.0","75.2","19.0","66.2","73","10.8","6.7","-9999.0","-9999.0","280","West","-9999.0","-9999.0","1016","30.01","-999","-999","-9999","-9999","-9999.00","-9999.00","Clear","clear","0","0","0","0","0","0","METAR UKKK 180830Z 28003MPS CAVOK 24/19 Q1016 R26/290058 NOSIG"
"12:00 PM EEST on June 18, 2016","2016","06","18","12","00","Europe/Kiev","9:00 AM GMT on June 18, 2016","2016","06","18","09","00","UTC","24","76","19","66","64","7.2","4.5","","","260","West","20","12","1016","30.02","-999","-999","-9999","-9999","","","Light Rain Showers","rain","0","1","0","0","0","0","AAXX 18091 33345 41498 82602 10245 20190 39973 40165 53021 78082 889// 333 88915 555 10028"
"12:00 PM EEST on June 18, 2016","2016","06","18","12","00","Europe/Kiev","9:00 AM GMT on June 18, 2016","2016","06","18","09","00","UTC","24.0","75.2","19.0","66.2","73","14.4","8.9","-9999.0","-9999.0","270","West","-9999.0","-9999.0","1017","30.04","-999","-999","-9999","-9999","-9999.00","-9999.00","Clear","clear","0","0","0","0","0","0","METAR UKKK 180900Z 27004MPS 230V300 CAVOK 24/19 Q1017 R26/290058 NOSIG"
"12:30 PM EEST on June 18, 2016","2016","06","18","12","30","Europe/Kiev","9:30 AM GMT on June 18, 2016","2016","06","18","09","30","UTC","23.0","73.4","19.0","66.2","78","14.4","8.9","-9999.0","-9999.0","260","West","10.0","6.2","1017","30.04","-999","-999","-9999","-9999","-9999.00","-9999.00","Light Rain Showers","rain","0","1","0","0","0","0","METAR UKKK 180930Z 26004MPS 220V280 9999 -SHRA SCT030CB BKN060 23/19 Q1017 R26/CLRD70 TEMPO VRB11G18MPS 1000 TSRAGR SQ BKN004 BKN020CB"
"1:00 PM EEST on June 18, 2016","2016","06","18","13","00","Europe/Kiev","10:00 AM GMT on June 18, 2016","2016","06","18","10","00","UTC","22.0","71.6","20.0","68.0","88","7.2","4.5","-9999.0","-9999.0","220","SW","10.0","6.2","1018","30.06","-999","-999","-9999","-9999","-9999.00","-9999.00","Light Rain Showers","rain","0","1","0","0","0","0","METAR UKKK 181000Z 22002MPS 9999 -SHRA SCT030CB BKN060 22/20 Q1018 R26/290158 TEMPO VRB11G18MPS 1000 TSRAGR SQ BKN004 BKN020CB"
"1:30 PM EEST on June 18, 2016","2016","06","18","13","30","Europe/Kiev","10:30 AM GMT on June 18, 2016","2016","06","18","10","30","UTC","21.0","69.8","20.0","68.0","94","3.6","2.2","-9999.0","-9999.0","0","Variable","9.0","5.6","1016","30.01","-999","-999","-9999","-9999","-9999.00","-9999.00","Light Rain Showers","rain","0","1","0","0","0","0","METAR UKKK 181030Z VRB01MPS 9000 -SHRA SCT026CB BKN052 21/20 Q1016 R26/290158 TEMPO VRB11G18MPS 1000 TSRAGR SQ BKN004 BKN020CB"
"2:00 PM EEST on June 18, 2016","2016","06","18","14","00","Europe/Kiev","11:00 AM GMT on June 18, 2016","2016","06","18","11","00","UTC","23.0","73.4","20.0","68.0","83","3.6","2.2","-9999.0","-9999.0","0","Variable","-9999.0","-9999.0","1016","30.01","-999","-999","-9999","-9999","-9999.00","-9999.00","Clear","clear","0","0","0","0","0","0","METAR UKKK 181100Z VRB01MPS CAVOK 23/20 Q1016 R26/290256 TEMPO VRB11G18MPS 1000 TSRAGR SQ BKN004 BKN020CB"
"2:30 PM EEST on June 18, 2016","2016","06","18","14","30","Europe/Kiev","11:30 AM GMT on June 18, 2016","2016","06","18","11","30","UTC","24.0","75.2","19.0","66.2","73","7.2","4.5","-9999.0","-9999.0","280","West","-9999.0","-9999.0","1016","30.01","-999","-999","-9999","-9999","-9999.00","-9999.00","Clear","clear","0","0","0","0","0","0","METAR UKKK 181130Z 28002MPS 240V300 CAVOK 24/19 Q1016 R26/290256 TEMPO VRB11G18MPS 1000 TSRAGR SQ BKN004 BKN020CB"
"3:00 PM EEST on June 18, 2016","2016","06","18","15","00","Europe/Kiev","12:00 PM GMT on June 18, 2016","2016","06","18","12","00","UTC","24","75","18","64","61","3.6","2.2","","","310","NW","20","12","1016","30.00","-999","-999","-9999","-9999","","","Partly Cloudy","partlycloudy","0","0","0","0","0","0","AAXX 18121 33345 /1598 83101 10238 20179 39966 40158 58007 70282 8357/ 555 11027 60011"
"3:00 PM EEST on June 18, 2016","2016","06","18","15","00","Europe/Kiev","12:00 PM GMT on June 18, 2016","2016","06","18","12","00","UTC","24.0","75.2","19.0","66.2","73","7.2","4.5","-9999.0","-9999.0","270","West","-9999.0","-9999.0","1016","30.01","-999","-999","-9999","-9999","-9999.00","-9999.00","Clear","clear","0","0","0","0","0","0","METAR UKKK 181200Z 27002MPS 240V300 CAVOK 24/19 Q1016 R26/290158 NOSIG"
"3:30 PM EEST on June 18, 2016","2016","06","18","15","30","Europe/Kiev","12:30 PM GMT on June 18, 2016","2016","06","18","12","30","UTC","25.0","77.0","18.0","64.4","65","10.8","6.7","-9999.0","-9999.0","260","West","-9999.0","-9999.0","1016","30.01","-999","-999","-9999","-9999","-9999.00","-9999.00","Clear","clear","0","0","0","0","0","0","METAR UKKK 181230Z 26003MPS 230V290 CAVOK 25/18 Q1016 R26/290158 NOSIG"
"4:00 PM EEST on June 18, 2016","2016","06","18","16","00","Europe/Kiev","1:00 PM GMT on June 18, 2016","2016","06","18","13","00","UTC","26.0","78.8","18.0","64.4","61","10.8","6.7","-9999.0","-9999.0","270","West","-9999.0","-9999.0","1016","30.01","-999","-999","-9999","-9999","-9999.00","-9999.00","Clear","clear","0","0","0","0","0","0","METAR UKKK 181300Z 27003MPS 240V320 CAVOK 26/18 Q1016 R26/290158 NOSIG"
"4:30 PM EEST on June 18, 2016","2016","06","18","16","30","Europe/Kiev","1:30 PM GMT on June 18, 2016","2016","06","18","13","30","UTC","26.0","78.8","18.0","64.4","61","10.8","6.7","-9999.0","-9999.0","270","West","-9999.0","-9999.0","1016","30.01","-999","-999","-9999","-9999","-9999.00","-9999.00","Clear","clear","0","0","0","0","0","0","METAR UKKK 181330Z 27003MPS 220V300 CAVOK 26/18 Q1016 R26/290158 NOSIG"
"5:00 PM EEST on June 18, 2016","2016","06","18","17","00","Europe/Kiev","2:00 PM GMT on June 18, 2016","2016","06","18","14","00","UTC","26.0","78.8","18.0","64.4","61","10.8","6.7","-9999.0","-9999.0","280","West","-9999.0","-9999.0","1016","30.01","-999","-999","-9999","-9999","-9999.00","-9999.00","Clear","clear","0","0","0","0","0","0","METAR UKKK 181400Z 28003MPS 230V300 CAVOK 26/18 Q1016 R26/CLRD70 NOSIG"
"5:30 PM EEST on June 18, 2016","2016","06","18","17","30","Europe/Kiev","2:30 PM GMT on June 18, 2016","2016","06","18","14","30","UTC","26.0","78.8","18.0","64.4","61","10.8","6.7","-9999.0","-9999.0","250","WSW","-9999.0","-9999.0","1016","30.01","-999","-999","-9999","-9999","-9999.00","-9999.00","Clear","clear","0","0","0","0","0","0","METAR UKKK 181430Z 25003MPS 220V280 CAVOK 26/18 Q1016 R26/CLRD70 NOSIG"
"6:00 PM EEST on June 18, 2016","2016","06","18","18","00","Europe/Kiev","3:00 PM GMT on June 18, 2016","2016","06","18","15","00","UTC","26","78","17","63","51","10.8","6.7","","","260","West","20","12","1016","30.00","-999","-999","-9999","-9999","","","Scattered Clouds","partlycloudy","0","0","0","0","0","0","AAXX 18151 33345 42698 32603 10256 20173 39967 40158 53001 82101 555 10030"
"6:00 PM EEST on June 18, 2016","2016","06","18","18","00","Europe/Kiev","3:00 PM GMT on June 18, 2016","2016","06","18","15","00","UTC","26.0","78.8","19.0","66.2","65","14.4","8.9","-9999.0","-9999.0","270","West","-9999.0","-9999.0","1016","30.01","-999","-999","-9999","-9999","-9999.00","-9999.00","Clear","clear","0","0","0","0","0","0","METAR UKKK 181500Z 27004MPS CAVOK 26/19 Q1016 R26/CLRD70 TEMPO VRB12G19MPS 0500 +TSRAGR SQ BKN003 BKN015CB"
"6:30 PM EEST on June 18, 2016","2016","06","18","18","30","Europe/Kiev","3:30 PM GMT on June 18, 2016","2016","06","18","15","30","UTC","26.0","78.8","18.0","64.4","61","10.8","6.7","-9999.0","-9999.0","260","West","-9999.0","-9999.0","1016","30.01","-999","-999","-9999","-9999","-9999.00","-9999.00","Clear","clear","0","0","0","0","0","0","METAR UKKK 181530Z 26003MPS CAVOK 26/18 Q1016 R26/CLRD70 TEMPO VRB12G19MPS 0500 +TSRAGR SQ BKN003 BKN015CB"
"7:00 PM EEST on June 18, 2016","2016","06","18","19","00","Europe/Kiev","4:00 PM GMT on June 18, 2016","2016","06","18","16","00","UTC","26.0","78.8","18.0","64.4","61","7.2","4.5","-9999.0","-9999.0","250","WSW","-9999.0","-9999.0","1016","30.01","-999","-999","-9999","-9999","-9999.00","-9999.00","Clear","clear","0","0","0","0","0","0","METAR UKKK 181600Z 25002MPS 210V270 CAVOK 26/18 Q1016 R26/CLRD70 NOSIG"
"7:30 PM EEST on June 18, 2016","2016","06","18","19","30","Europe/Kiev","4:30 PM GMT on June 18, 2016","2016","06","18","16","30","UTC","26.0","78.8","18.0","64.4","61","7.2","4.5","-9999.0","-9999.0","220","SW","-9999.0","-9999.0","1016","30.01","-999","-999","-9999","-9999","-9999.00","-9999.00","Clear","clear","0","0","0","0","0","0","METAR UKKK 181630Z 22002MPS CAVOK 26/18 Q1016 R26/CLRD70 NOSIG"
"8:00 PM EEST on June 18, 2016","2016","06","18","20","00","Europe/Kiev","5:00 PM GMT on June 18, 2016","2016","06","18","17","00","UTC","25.0","77.0","18.0","64.4","65","7.2","4.5","-9999.0","-9999.0","220","SW","-9999.0","-9999.0","1016","30.01","-999","-999","-9999","-9999","-9999.00","-9999.00","Clear","clear","0","0","0","0","0","0","METAR UKKK 181700Z 22002MPS CAVOK 25/18 Q1016 R26/CLRD70 NOSIG"
"8:30 PM EEST on June 18, 2016","2016","06","18","20","30","Europe/Kiev","5:30 PM GMT on June 18, 2016","2016","06","18","17","30","UTC","24.0","75.2","18.0","64.4","69","7.2","4.5","-9999.0","-9999.0","220","SW","-9999.0","-9999.0","1016","30.01","-999","-999","-9999","-9999","-9999.00","-9999.00","Clear","clear","0","0","0","0","0","0","METAR UKKK 181730Z 22002MPS CAVOK 24/18 Q1016 R26/CLRD70 NOSIG"
"9:00 PM EEST on June 18, 2016","2016","06","18","21","00","Europe/Kiev","6:00 PM GMT on June 18, 2016","2016","06","18","18","00","UTC","23","74","19","65","68","7.2","4.5","","","190","South","20","12","1016","30.01","-999","-999","-9999","-9999","","","Clear","clear","0","0","0","0","0","0","AAXX 18181 33345 12998 61902 10233 20186 39969 40161 52002 60012 80001 333 10263 555 10023"
"9:00 PM EEST on June 18, 2016","2016","06","18","21","00","Europe/Kiev","6:00 PM GMT on June 18, 2016","2016","06","18","18","00","UTC","23.0","73.4","19.0","66.2","78","7.2","4.5","-9999.0","-9999.0","210","SSW","-9999.0","-9999.0","1016","30.01","-999","-999","-9999","-9999","-9999.00","-9999.00","Clear","clear","0","0","0","0","0","0","METAR UKKK 181800Z 21002MPS CAVOK 23/19 Q1016 R26/CLRD70 NOSIG"
"9:30 PM EEST on June 18, 2016","2016","06","18","21","30","Europe/Kiev","6:30 PM GMT on June 18, 2016","2016","06","18","18","30","UTC","21.0","69.8","19.0","66.2","88","0.0","0.0","-9999.0","-9999.0","0","North","-9999.0","-9999.0","1017","30.04","-999","-999","-9999","-9999","-9999.00","-9999.00","Clear","clear","0","0","0","0","0","0","METAR UKKK 181830Z 00000MPS CAVOK 21/19 Q1017 R26/CLRD70 NOSIG"
"10:00 PM EEST on June 18, 2016","2016","06","18","22","00","Europe/Kiev","7:00 PM GMT on June 18, 2016","2016","06","18","19","00","UTC","22.0","71.6","18.0","64.4","78","0.0","0.0","-9999.0","-9999.0","0","North","9.0","5.6","1017","30.04","-999","-999","-9999","-9999","-9999.00","-9999.00","Unknown","unknown","0","0","0","0","0","0","METAR UKKK 181900Z 00000MPS 9000 NSC 22/18 Q1017 R26/CLRD70 NOSIG"
"10:30 PM EEST on June 18, 2016","2016","06","18","22","30","Europe/Kiev","7:30 PM GMT on June 18, 2016","2016","06","18","19","30","UTC","20.0","68.0","18.0","64.4","88","0.0","0.0","-9999.0","-9999.0","0","North","9.0","5.6","1017","30.04","-999","-999","-9999","-9999","-9999.00","-9999.00","Unknown","unknown","0","0","0","0","0","0","METAR UKKK 181930Z 00000MPS 9000 NSC 20/18 Q1017 R26/CLRD70 NOSIG"
"11:00 PM EEST on June 18, 2016","2016","06","18","23","00","Europe/Kiev","8:00 PM GMT on June 18, 2016","2016","06","18","20","00","UTC","21.0","69.8","19.0","66.2","88","7.2","4.5","-9999.0","-9999.0","210","SSW","9.0","5.6","1017","30.04","-999","-999","-9999","-9999","-9999.00","-9999.00","Scattered Clouds","partlycloudy","0","0","0","0","0","0","METAR UKKK 182000Z 21002MPS 9000 SCT047 21/19 Q1017 R26/CLRD70 NOSIG"
"11:30 PM EEST on June 18, 2016","2016","06","18","23","30","Europe/Kiev","8:30 PM GMT on June 18, 2016","2016","06","18","20","30","UTC","20.0","68.0","19.0","66.2","94","3.6","2.2","-9999.0","-9999.0","270","West","10.0","6.2","1017","30.04","-999","-999","-9999","-9999","-9999.00","-9999.00","Scattered Clouds","partlycloudy","0","0","0","0","0","0","METAR UKKK 182030Z 27001MPS 9999 SCT047 20/19 Q1017 R08/CLRD70 NOSIG"
"12:00 AM EEST on June 19, 2016","2016","06","19","00","00","Europe/Kiev","9:00 PM GMT on June 18, 2016","2016","06","18","21","00","UTC","22","71","19","67","82","3.6","2.2","","","310","NW","20","12","1017","30.03","-999","-999","-9999","-9999","","","Clear","clear","0","0","0","0","0","0","AAXX 18211 33345 42998 63101 10215 20193 39973 40167 52004 80005 555 10020"
"12:00 AM EEST on June 19, 2016","2016","06","19","00","00","Europe/Kiev","9:00 PM GMT on June 18, 2016","2016","06","18","21","00","UTC","20.0","68.0","19.0","66.2","94","0.0","0.0","-9999.0","-9999.0","0","North","-9999.0","-9999.0","1017","30.04","-999","-999","-9999","-9999","-9999.00","-9999.00","Clear","clear","0","0","0","0","0","0","METAR UKKK 182100Z 00000MPS CAVOK 20/19 Q1017 R08/CLRD70 NOSIG"
"12:30 AM EEST on June 19, 2016","2016","06","19","00","30","Europe/Kiev","9:30 PM GMT on June 18, 2016","2016","06","18","21","30","UTC","20.0","68.0","19.0","66.2","94","3.6","2.2","-9999.0","-9999.0","0","Variable","9.0","5.6","1016","30.01","-999","-999","-9999","-9999","-9999.00","-9999.00","Unknown","unknown","0","0","0","0","0","0","METAR UKKK 182130Z VRB01MPS 9000 NSC 20/19 Q1016 R08/CLRD70 NOSIG"
"1:00 AM EEST on June 19, 2016","2016","06","19","01","00","Europe/Kiev","10:00 PM GMT on June 18, 2016","2016","06","18","22","00","UTC","20.0","68.0","18.0","64.4","88","3.6","2.2","-9999.0","-9999.0","0","Variable","-9999.0","-9999.0","1016","30.01","-999","-999","-9999","-9999","-9999.00","-9999.00","Clear","clear","0","0","0","0","0","0","METAR UKKK 182200Z VRB01MPS CAVOK 20/18 Q1016 R08/CLRD70 NOSIG"
"1:30 AM EEST on June 19, 2016","2016","06","19","01","30","Europe/Kiev","10:30 PM GMT on June 18, 2016","2016","06","18","22","30","UTC","20.0","68.0","19.0","66.2","94","3.6","2.2","-9999.0","-9999.0","180","South","-9999.0","-9999.0","1017","30.04","-999","-999","-9999","-9999","-9999.00","-9999.00","Clear","clear","0","0","0","0","0","0","METAR UKKK 182230Z 18001MPS CAVOK 20/19 Q1017 R08/CLRD70 NOSIG"
"2:00 AM EEST on June 19, 2016","2016","06","19","02","00","Europe/Kiev","11:00 PM GMT on June 18, 2016","2016","06","18","23","00","UTC","19.0","66.2","18.0","64.4","94","0.0","0.0","-9999.0","-9999.0","0","North","-9999.0","-9999.0","1016","30.01","-999","-999","-9999","-9999","-9999.00","-9999.00","Clear","clear","0","0","0","0","0","0","METAR UKKK 182300Z 00000MPS CAVOK 19/18 Q1016 R08/CLRD70 NOSIG"
"2:30 AM EEST on June 19, 2016","2016","06","19","02","30","Europe/Kiev","11:30 PM GMT on June 18, 2016","2016","06","18","23","30","UTC","19.0","66.2","18.0","64.4","94","0.0","0.0","-9999.0","-9999.0","0","North","-9999.0","-9999.0","1017","30.04","-999","-999","-9999","-9999","-9999.00","-9999.00","Clear","clear","0","0","0","0","0","0","METAR UKKK 182330Z 00000MPS CAVOK 19/18 Q1017 R08/CLRD70 NOSIG"
"3:00 AM EEST on June 19, 2016","2016","06","19","03","00","Europe/Kiev","12:00 AM GMT on June 19, 2016","2016","06","19","00","00","UTC","20","69","18","65","84","3.6","2.2","","","320","NW","4","2","1016","30.01","-999","-999","-9999","-9999","","","Mist","hazy","0","0","0","0","0","0","AAXX 19001 33345 31996 83201 10203 20185 39967 40161 58006 71022 8807/ 555 11020"
"3:00 AM EEST on June 19, 2016","2016","06","19","03","00","Europe/Kiev","12:00 AM GMT on June 19, 2016","2016","06","19","00","00","UTC","19.0","66.2","18.0","64.4","94","0.0","0.0","-9999.0","-9999.0","0","North","-9999.0","-9999.0","1016","30.01","-999","-999","-9999","-9999","-9999.00","-9999.00","Clear","clear","0","0","0","0","0","0","METAR UKKK 190000Z 00000MPS CAVOK 19/18 Q1016 R08/CLRD70 NOSIG"
"3:30 AM EEST on June 19, 2016","2016","06","19","03","30","Europe/Kiev","12:30 AM GMT on June 19, 2016","2016","06","19","00","30","UTC","19.0","66.2","18.0","64.4","94","3.6","2.2","-9999.0","-9999.0","0","Variable","-9999.0","-9999.0","1017","30.04","-999","-999","-9999","-9999","-9999.00","-9999.00","Clear","clear","0","0","0","0","0","0","METAR UKKK 190030Z VRB01MPS CAVOK 19/18 Q1017 R08/CLRD70 NOSIG"
"4:00 AM EEST on June 19, 2016","2016","06","19","04","00","Europe/Kiev","1:00 AM GMT on June 19, 2016","2016","06","19","01","00","UTC","19.0","66.2","19.0","66.2","100","0.0","0.0","-9999.0","-9999.0","0","North","9.0","5.6","1017","30.04","-999","-999","-9999","-9999","-9999.00","-9999.00","Light Rain","rain","0","1","0","0","0","0","METAR UKKK 190100Z 00000MPS 9000 -RA OVC046 19/19 Q1017 R08/CLRD70 NOSIG"
"4:30 AM EEST on June 19, 2016","2016","06","19","04","30","Europe/Kiev","1:30 AM GMT on June 19, 2016","2016","06","19","01","30","UTC","20.0","68.0","19.0","66.2","94","7.2","4.5","-9999.0","-9999.0","90","East","9.0","5.6","1017","30.04","-999","-999","-9999","-9999","-9999.00","-9999.00","Light Rain","rain","0","1","0","0","0","0","METAR UKKK 190130Z 09002MPS 9000 -RA OVC046 20/19 Q1017 R08/290158 TEMPO 0700 FG BKN001"
"5:00 AM EEST on June 19, 2016","2016","06","19","05","00","Europe/Kiev","2:00 AM GMT on June 19, 2016","2016","06","19","02","00","UTC","20.0","68.0","19.0","66.2","94","3.6","2.2","-9999.0","-9999.0","0","Variable","6.0","3.7","1017","30.04","-999","-999","-9999","-9999","-9999.00","-9999.00","Unknown","unknown","0","0","0","0","0","0","METAR UKKK 190200Z VRB01MPS 6000 NSC 20/19 Q1017 R08/290158 TEMPO 0700 FG BKN001"
"5:30 AM EEST on June 19, 2016","2016","06","19","05","30","Europe/Kiev","2:30 AM GMT on June 19, 2016","2016","06","19","02","30","UTC","19.0","66.2","19.0","66.2","100","0.0","0.0","-9999.0","-9999.0","0","North","5.0","3.1","1016","30.01","-999","-999","-9999","-9999","-9999.00","-9999.00","Mostly Cloudy","mostlycloudy","0","0","0","0","0","0","METAR UKKK 190230Z 00000MPS 5000 BR SCT039 BKN100 19/19 Q1016 R08/290158 TEMPO 0700 FG BKN001"
"6:00 AM EEST on June 19, 2016","2016","06","19","06","00","Europe/Kiev","3:00 AM GMT on June 19, 2016","2016","06","19","03","00","UTC","20","68","19","67","94","7.2","4.5","","","290","WNW","4","2","1017","30.03","-999","-999","-9999","-9999","","","Mist","hazy","0","0","0","0","0","0","AAXX 19031 33345 41496 82902 10200 20192 39974 40169 53007 71022 886// 333 88711 555 11020"
"6:00 AM EEST on June 19, 2016","2016","06","19","06","00","Europe/Kiev","3:00 AM GMT on June 19, 2016","2016","06","19","03","00","UTC","20.0","68.0","20.0","68.0","100","3.6","2.2","-9999.0","-9999.0","0","Variable","8.0","5.0","1017","30.04","-999","-999","-9999","-9999","-9999.00","-9999.00","Mostly Cloudy","mostlycloudy","0","0","0","0","0","0","METAR UKKK 190300Z VRB01MPS 8000 SCT007 BKN100 20/20 Q1017 R08/290158 NOSIG"
"6:30 AM EEST on June 19, 2016","2016","06","19","06","30","Europe/Kiev","3:30 AM GMT on June 19, 2016","2016","06","19","03","30","UTC","20.0","68.0","20.0","68.0","100","7.2","4.5","-9999.0","-9999.0","260","West","7.0","4.3","1017","30.04","-999","-999","-9999","-9999","-9999.00","-9999.00","Mostly Cloudy","mostlycloudy","0","0","0","0","0","0","METAR UKKK 190330Z 26002MPS 210V280 7000 SCT007 BKN100 20/20 Q1017 R26/290058 NOSIG"
"7:00 AM EEST on June 19, 2016","2016","06","19","07","00","Europe/Kiev","4:00 AM GMT on June 19, 2016","2016","06","19","04","00","UTC","21.0","69.8","20.0","68.0","94","7.2","4.5","-9999.0","-9999.0","260","West","10.0","6.2","1018","30.06","-999","-999","-9999","-9999","-9999.00","-9999.00","Mostly Cloudy","mostlycloudy","0","0","0","0","0","0","METAR UKKK 190400Z 26002MPS 9999 SCT007 BKN100 21/20 Q1018 R26/290058 NOSIG"
"7:30 AM EEST on June 19, 2016","2016","06","19","07","30","Europe/Kiev","4:30 AM GMT on June 19, 2016","2016","06","19","04","30","UTC","21.0","69.8","20.0","68.0","94","7.2","4.5","-9999.0","-9999.0","260","West","10.0","6.2","1018","30.06","-999","-999","-9999","-9999","-9999.00","-9999.00","Mostly Cloudy","mostlycloudy","0","0","0","0","0","0","METAR UKKK 190430Z 26002MPS 9999 SCT007 BKN100 21/20 Q1018 R26/CLRD70 NOSIG"
"8:00 AM EEST on June 19, 2016","2016","06","19","08","00","Europe/Kiev","5:00 AM GMT on June 19, 2016","2016","06","19","05","00","UTC","21.0","69.8","20.0","68.0","94","7.2","4.5","-9999.0","-9999.0","250","WSW","-9999.0","-9999.0","1018","30.06","-999","-999","-9999","-9999","-9999.00","-9999.00","Clear","clear","0","0","0","0","0","0","METAR UKKK 190500Z 25002MPS CAVOK 21/20 Q1018 R26/CLRD70 NOSIG"
"8:30 AM EEST on June 19, 2016","2016","06","19","08","30","Europe/Kiev","5:30 AM GMT on June 19, 2016","2016","06","19","05","30","UTC","22.0","71.6","20.0","68.0","88","7.2","4.5","-9999.0","-9999.0","240","WSW","-9999.0","-9999.0","1018","30.06","-999","-999","-9999","-9999","-9999.00","-9999.00","Clear","clear","0","0","0","0","0","0","METAR UKKK 190530Z 24002MPS 200V280 CAVOK 22/20 Q1018 R26/CLRD70 NOSIG"
"9:00 AM EEST on June 19, 2016","2016","06","19","09","00","Europe/Kiev","6:00 AM GMT on June 19, 2016","2016","06","19","06","00","UTC","22","72","20","67","80","7.2","4.5","","","250","WSW","20","12","1018","30.07","-999","-999","-9999","-9999","","","Partly Cloudy","partlycloudy","0","0","0","0","0","0","AAXX 19061 33345 11998 72502 10225 20195 39988 40181 52014 69912 70262 87040 333 20195 555 10027"
"9:00 AM EEST on June 19, 2016","2016","06","19","09","00","Europe/Kiev","6:00 AM GMT on June 19, 2016","2016","06","19","06","00","UTC","23.0","73.4","20.0","68.0","83","7.2","4.5","-9999.0","-9999.0","230","SW","-9999.0","-9999.0","1018","30.06","-999","-999","-9999","-9999","-9999.00","-9999.00","Clear","clear","0","0","0","0","0","0","METAR UKKK 190600Z 23002MPS 200V260 CAVOK 23/20 Q1018 R26/CLRD70 NOSIG"
"9:30 AM EEST on June 19, 2016","2016","06","19","09","30","Europe/Kiev","6:30 AM GMT on June 19, 2016","2016","06","19","06","30","UTC","23.0","73.4","20.0","68.0","83","7.2","4.5","-9999.0","-9999.0","260","West","10.0","6.2","1019","30.09","-999","-999","-9999","-9999","-9999.00","-9999.00","Mostly Cloudy","mostlycloudy","0","0","0","0","0","0","METAR UKKK 190630Z 26002MPS 220V280 9999 FEW015 BKN100 23/20 Q1019 R26/CLRD70 NOSIG"
"10:00 AM EEST on June 19, 2016","2016","06","19","10","00","Europe/Kiev","7:00 AM GMT on June 19, 2016","2016","06","19","07","00","UTC","24.0","75.2","19.0","66.2","73","10.8","6.7","-9999.0","-9999.0","260","West","-9999.0","-9999.0","1019","30.09","-999","-999","-9999","-9999","-9999.00","-9999.00","Clear","clear","0","0","0","0","0","0","METAR UKKK 190700Z 26003MPS CAVOK 24/19 Q1019 R26/CLRD70 NOSIG"
"10:30 AM EEST on June 19, 2016","2016","06","19","10","30","Europe/Kiev","7:30 AM GMT on June 19, 2016","2016","06","19","07","30","UTC","25.0","77.0","20.0","68.0","74","7.2","4.5","-9999.0","-9999.0","230","SW","-9999.0","-9999.0","1019","30.09","-999","-999","-9999","-9999","-9999.00","-9999.00","Clear","clear","0","0","0","0","0","0","METAR UKKK 190730Z 23002MPS 190V270 CAVOK 25/20 Q1019 R26/CLRD70 NOSIG"
"11:00 AM EEST on June 19, 2016","2016","06","19","11","00","Europe/Kiev","8:00 AM GMT on June 19, 2016","2016","06","19","08","00","UTC","25.0","77.0","18.0","64.4","65","3.6","2.2","-9999.0","-9999.0","0","Variable","10.0","6.2","1019","30.09","-999","-999","-9999","-9999","-9999.00","-9999.00","Scattered Clouds","partlycloudy","0","0","0","0","0","0","METAR UKKK 190800Z VRB01MPS 9999 FEW030 SCT050 25/18 Q1019 R26/CLRD70 NOSIG"
"11:30 AM EEST on June 19, 2016","2016","06","19","11","30","Europe/Kiev","8:30 AM GMT on June 19, 2016","2016","06","19","08","30","UTC","26.0","78.8","18.0","64.4","61","7.2","4.5","-9999.0","-9999.0","130","SE","10.0","6.2","1019","30.09","-999","-999","-9999","-9999","-9999.00","-9999.00","Scattered Clouds","partlycloudy","0","0","0","0","0","0","METAR UKKK 190830Z 13002MPS 070V240 9999 SCT033 26/18 Q1019 R26/CLRD70 NOSIG"
"12:00 PM EEST on June 19, 2016","2016","06","19","12","00","Europe/Kiev","9:00 AM GMT on June 19, 2016","2016","06","19","09","00","UTC","26","79","17","62","46","3.6","2.2","","","80","East","20","12","1019","30.09","-999","-999","-9999","-9999","","","Mostly Cloudy","mostlycloudy","0","0","0","0","0","0","AAXX 19091 33345 42598 60801 10262 20167 39997 40188 52009 86901 555 10040"
"12:00 PM EEST on June 19, 2016","2016","06","19","12","00","Europe/Kiev","9:00 AM GMT on June 19, 2016","2016","06","19","09","00","UTC","25.0","77.0","17.0","62.6","61","3.6","2.2","-9999.0","-9999.0","0","Variable","10.0","6.2","1019","30.09","-999","-999","-9999","-9999","-9999.00","-9999.00","Mostly Cloudy","mostlycloudy","0","0","0","0","0","0","METAR UKKK 190900Z VRB01MPS 9999 BKN039 25/17 Q1019 R08/CLRD70 NOSIG"
"12:30 PM EEST on June 19, 2016","2016","06","19","12","30","Europe/Kiev","9:30 AM GMT on June 19, 2016","2016","06","19","09","30","UTC","26.0","78.8","16.0","60.8","54","0.0","0.0","-9999.0","-9999.0","0","North","10.0","6.2","1019","30.09","-999","-999","-9999","-9999","-9999.00","-9999.00","Mostly Cloudy","mostlycloudy","0","0","0","0","0","0","METAR UKKK 190930Z 00000MPS 9999 BKN047 26/16 Q1019 R08/CLRD70 NOSIG"
"1:00 PM EEST on June 19, 2016","2016","06","19","13","00","Europe/Kiev","10:00 AM GMT on June 19, 2016","2016","06","19","10","00","UTC","26.0","78.8","17.0","62.6","57","7.2","4.5","-9999.0","-9999.0","100","East","10.0","6.2","1020","30.12","-999","-999","-9999","-9999","-9999.00","-9999.00","Mostly Cloudy","mostlycloudy","0","0","0","0","0","0","METAR UKKK 191000Z 10002MPS 040V170 9999 BKN049 26/17 Q1020 R08/CLRD70 NOSIG"
"1:30 PM EEST on June 19, 2016","2016","06","19","13","30","Europe/Kiev","10:30 AM GMT on June 19, 2016","2016","06","19","10","30","UTC","27.0","80.6","15.0","59.0","48","7.2","4.5","-9999.0","-9999.0","110","ESE","-9999.0","-9999.0","1020","30.12","-999","-999","27.3","81.1","-9999.00","-9999.00","Clear","clear","0","0","0","0","0","0","METAR UKKK 191030Z 11002MPS 070V140 CAVOK 27/15 Q1020 R08/CLRD70 NOSIG"
"2:00 PM EEST on June 19, 2016","2016","06","19","14","00","Europe/Kiev","11:00 AM GMT on June 19, 2016","2016","06","19","11","00","UTC","28.0","82.4","15.0","59.0","45","7.2","4.5","-9999.0","-9999.0","70","ENE","10.0","6.2","1020","30.12","-999","-999","28.0","82.5","-9999.00","-9999.00","Mostly Cloudy","mostlycloudy","0","0","0","0","0","0","METAR UKKK 191100Z 07002MPS 9999 SCT048 BKN100 28/15 Q1020 R08/CLRD70 NOSIG"
"2:30 PM EEST on June 19, 2016","2016","06","19","14","30","Europe/Kiev","11:30 AM GMT on June 19, 2016","2016","06","19","11","30","UTC","26.0","78.8","18.0","64.4","61","14.4","8.9","-9999.0","-9999.0","100","East","9.0","5.6","1020","30.12","-999","-999","-9999","-9999","-9999.00","-9999.00","Mostly Cloudy","mostlycloudy","0","0","0","0","0","0","METAR UKKK 191130Z 10004MPS 070V130 9000 SCT046 BKN100 26/18 Q1020 R08/CLRD70 NOSIG"
"3:00 PM EEST on June 19, 2016","2016","06","19","15","00","Europe/Kiev","12:00 PM GMT on June 19, 2016","2016","06","19","12","00","UTC","26","80","16","61","42","3.6","2.2","","","60","ENE","20","12","1019","30.11","-999","-999","-9999","-9999","","","Mostly Cloudy","mostlycloudy","0","0","0","0","0","0","AAXX 19121 33345 32598 70601 10265 20161 30003 40194 52006 87900 555 10037"
"3:00 PM EEST on June 19, 2016","2016","06","19","15","00","Europe/Kiev","12:00 PM GMT on June 19, 2016","2016","06","19","12","00","UTC","26.0","78.8","17.0","62.6","57","14.4","8.9","-9999.0","-9999.0","90","East","-9999.0","-9999.0","1020","30.12","-999","-999","-9999","-9999","-9999.00","-9999.00","Clear","clear","0","0","0","0","0","0","METAR UKKK 191200Z 09004MPS CAVOK 26/17 Q1020 R08/CLRD70 NOSIG"
"3:30 PM EEST on June 19, 2016","2016","06","19","15","30","Europe/Kiev","12:30 PM GMT on June 19, 2016","2016","06","19","12","30","UTC","26.0","78.8","17.0","62.6","57","14.4","8.9","-9999.0","-9999.0","80","East","-9999.0","-9999.0","1020","30.12","-999","-999","-9999","-9999","-9999.00","-9999.00","Clear","clear","0","0","0","0","0","0","METAR UKKK 191230Z 08004MPS 050V120 CAVOK 26/17 Q1020 R08/CLRD70 NOSIG"
"4:00 PM EEST on June 19, 2016","2016","06","19","16","00","Europe/Kiev","1:00 PM GMT on June 19, 2016","2016","06","19","13","00","UTC","28.0","82.4","16.0","60.8","48","14.4","8.9","-9999.0","-9999.0","90","East","-9999.0","-9999.0","1020","30.12","-999","-999","28.3","82.9","-9999.00","-9999.00","Clear","clear","0","0","0","0","0","0","METAR UKKK 191300Z 09004MPS CAVOK 28/16 Q1020 R08/CLRD70 NOSIG"
"4:30 PM EEST on June 19, 2016","2016","06","19","16","30","Europe/Kiev","1:30 PM GMT on June 19, 2016","2016","06","19","13","30","UTC","27.0","80.6","15.0","59.0","48","10.8","6.7","-9999.0","-9999.0","100","East","-9999.0","-9999.0","1020","30.12","-999","-999","27.3","81.1","-9999.00","-9999.00","Clear","clear","0","0","0","0","0","0","METAR UKKK 191330Z 10003MPS 070V140 CAVOK 27/15 Q1020 R08/CLRD70 NOSIG"
"5:00 PM EEST on June 19, 2016","2016","06","19","17","00","Europe/Kiev","2:00 PM GMT on June 19, 2016","2016","06","19","14","00","UTC","27.0","80.6","15.0","59.0","48","10.8","6.7","-9999.0","-9999.0","120","ESE","-9999.0","-9999.0","1020","30.12","-999","-999","27.3","81.1","-9999.00","-9999.00","Clear","clear","0","0","0","0","0","0","METAR UKKK 191400Z 12003MPS 080V160 CAVOK 27/15 Q1020 R08/CLRD70 NOSIG"
"5:30 PM EEST on June 19, 2016","2016","06","19","17","30","Europe/Kiev","2:30 PM GMT on June 19, 2016","2016","06","19","14","30","UTC","27.0","80.6","16.0","60.8","51","7.2","4.5","-9999.0","-9999.0","140","SE","10.0","6.2","1020","30.12","-999","-999","27.5","81.5","-9999.00","-9999.00","Scattered Clouds","partlycloudy","0","0","0","0","0","0","METAR UKKK 191430Z 14002MPS 100V230 9999 FEW030CB SCT100 27/16 Q1020 R08/CLRD70 NOSIG"
"6:00 PM EEST on June 19, 2016","2016","06","19","18","00","Europe/Kiev","3:00 PM GMT on June 19, 2016","2016","06","19","15","00","UTC","26","79","15","59","41","7.2","4.5","","","180","South","20","12","1020","30.13","-999","-999","-9999","-9999","","","Scattered Clouds","partlycloudy","0","0","0","0","0","0","AAXX 19151 33345 42698 61802 10259 20152 30009 40201 52006 82460 555 10029"
"6:00 PM EEST on June 19, 2016","2016","06","19","18","00","Europe/Kiev","3:00 PM GMT on June 19, 2016","2016","06","19","15","00","UTC","26.0","78.8","15.0","59.0","51","7.2","4.5","-9999.0","-9999.0","140","SE","10.0","6.2","1021","30.15","-999","-999","-9999","-9999","-9999.00","-9999.00","Mostly Cloudy","mostlycloudy","0","0","0","0","0","0","METAR UKKK 191500Z 14002MPS 110V170 9999 SCT030CB BKN090 26/15 Q1021 R08/CLRD70 TEMPO VRB12G18MPS 2100 -TSRAGR SQ BKN020CB"
"6:30 PM EEST on June 19, 2016","2016","06","19","18","30","Europe/Kiev","3:30 PM GMT on June 19, 2016","2016","06","19","15","30","UTC","26.0","78.8","18.0","64.4","61","3.6","2.2","-9999.0","-9999.0","0","Variable","10.0","6.2","1020","30.12","-999","-999","-9999","-9999","-9999.00","-9999.00","Mostly Cloudy","mostlycloudy","0","0","0","0","0","0","METAR UKKK 191530Z VRB01MPS 9999 SCT030CB BKN090 26/18 Q1020 R08/CLRD70 TEMPO VRB12G18MPS 2100 -TSRAGR SQ BKN020CB"
"7:00 PM EEST on June 19, 2016","2016","06","19","19","00","Europe/Kiev","4:00 PM GMT on June 19, 2016","2016","06","19","16","00","UTC","27.0","80.6","15.0","59.0","48","10.8","6.7","-9999.0","-9999.0","120","ESE","10.0","6.2","1020","30.12","-999","-999","27.3","81.1","-9999.00","-9999.00","Mostly Cloudy","mostlycloudy","0","0","0","0","0","0","METAR UKKK 191600Z 12003MPS 090V200 9999 FEW030CB BKN100 27/15 Q1020 R08/CLRD70 TEMPO VRB12G18MPS 2100 -TSRAGR SQ BKN020CB"
"7:30 PM EEST on June 19, 2016","2016","06","19","19","30","Europe/Kiev","4:30 PM GMT on June 19, 2016","2016","06","19","16","30","UTC","26.0","78.8","15.0","59.0","51","10.8","6.7","-9999.0","-9999.0","110","ESE","-9999.0","-9999.0","1021","30.15","-999","-999","-9999","-9999","-9999.00","-9999.00","Clear","clear","0","0","0","0","0","0","METAR UKKK 191630Z 11003MPS CAVOK 26/15 Q1021 R08/CLRD70 NOSIG"
"8:00 PM EEST on June 19, 2016","2016","06","19","20","00","Europe/Kiev","5:00 PM GMT on June 19, 2016","2016","06","19","17","00","UTC","25.0","77.0","15.0","59.0","54","10.8","6.7","-9999.0","-9999.0","100","East","-9999.0","-9999.0","1021","30.15","-999","-999","-9999","-9999","-9999.00","-9999.00","Clear","clear","0","0","0","0","0","0","METAR UKKK 191700Z 10003MPS CAVOK 25/15 Q1021 R08/CLRD70 NOSIG"
"8:30 PM EEST on June 19, 2016","2016","06","19","20","30","Europe/Kiev","5:30 PM GMT on June 19, 2016","2016","06","19","17","30","UTC","25.0","77.0","15.0","59.0","54","10.8","6.7","-9999.0","-9999.0","110","ESE","-9999.0","-9999.0","1021","30.15","-999","-999","-9999","-9999","-9999.00","-9999.00","Clear","clear","0","0","0","0","0","0","METAR UKKK 191730Z 11003MPS CAVOK 25/15 Q1021 R08/CLRD70 NOSIG"
"9:00 PM EEST on June 19, 2016","2016","06","19","21","00","Europe/Kiev","6:00 PM GMT on June 19, 2016","2016","06","19","18","00","UTC","24","75","14","57","44","3.6","2.2","","","100","East","20","12","1020","30.14","-999","-999","-9999","-9999","","","Clear","clear","0","0","0","0","0","0","AAXX 19181 33345 32998 21001 10240 20140 30012 40205 52003 80004 333 10277 555 10023"
"9:00 PM EEST on June 19, 2016","2016","06","19","21","00","Europe/Kiev","6:00 PM GMT on June 19, 2016","2016","06","19","18","00","UTC","24.0","75.2","15.0","59.0","57","10.8","6.7","-9999.0","-9999.0","100","East","-9999.0","-9999.0","1021","30.15","-999","-999","-9999","-9999","-9999.00","-9999.00","Clear","clear","0","0","0","0","0","0","METAR UKKK 191800Z 10003MPS CAVOK 24/15 Q1021 R08/CLRD70 NOSIG"
"9:30 PM EEST on June 19, 2016","2016","06","19","21","30","Europe/Kiev","6:30 PM GMT on June 19, 2016","2016","06","19","18","30","UTC","23.0","73.4","15.0","59.0","61","10.8","6.7","-9999.0","-9999.0","110","ESE","-9999.0","-9999.0","1021","30.15","-999","-999","-9999","-9999","-9999.00","-9999.00","Clear","clear","0","0","0","0","0","0","METAR UKKK 191830Z 11003MPS CAVOK 23/15 Q1021 R08/CLRD70 NOSIG"
"10:00 PM EEST on June 19, 2016","2016","06","19","22","00","Europe/Kiev","7:00 PM GMT on June 19, 2016","2016","06","19","19","00","UTC","23.0","73.4","15.0","59.0","61","10.8","6.7","-9999.0","-9999.0","100","East","-9999.0","-9999.0","1021","30.15","-999","-999","-9999","-9999","-9999.00","-9999.00","Clear","clear","0","0","0","0","0","0","METAR UKKK 191900Z 10003MPS CAVOK 23/15 Q1021 R08/CLRD70 NOSIG"
"10:30 PM EEST on June 19, 2016","2016","06","19","22","30","Europe/Kiev","7:30 PM GMT on June 19, 2016","2016","06","19","19","30","UTC","22.0","71.6","16.0","60.8","69","10.8","6.7","-9999.0","-9999.0","110","ESE","-9999.0","-9999.0","1021","30.15","-999","-999","-9999","-9999","-9999.00","-9999.00","Clear","clear","0","0","0","0","0","0","METAR UKKK 191930Z 11003MPS CAVOK 22/16 Q1021 R08/CLRD70 NOSIG"
"11:00 PM EEST on June 19, 2016","2016","06","19","23","00","Europe/Kiev","8:00 PM GMT on June 19, 2016","2016","06","19","20","00","UTC","21.0","69.8","16.0","60.8","73","10.8","6.7","-9999.0","-9999.0","90","East","-9999.0","-9999.0","1021","30.15","-999","-999","-9999","-9999","-9999.00","-9999.00","Clear","clear","0","0","0","0","0","0","METAR UKKK 192000Z 09003MPS CAVOK 21/16 Q1021 R08/CLRD70 NOSIG"
"11:30 PM EEST on June 19, 2016","2016","06","19","23","30","Europe/Kiev","8:30 PM GMT on June 19, 2016","2016","06","19","20","30","UTC","22.0","71.6","16.0","60.8","69","10.8","6.7","-9999.0","-9999.0","120","ESE","-9999.0","-9999.0","1022","30.18","-999","-999","-9999","-9999","-9999.00","-9999.00","Clear","clear","0","0","0","0","0","0","METAR UKKK 192030Z 12003MPS CAVOK 22/16 Q1022 R08/CLRD70 NOSIG"
"12:00 AM EEST on June 20, 2016","2016","06","20","00","00","Europe/Kiev","9:00 PM GMT on June 19, 2016","2016","06","19","21","00","UTC","21","70","16","60","64","3.6","2.2","","","110","ESE","20","12","1022","30.17","-999","-999","-9999","-9999","","","","","0","0","0","0","0","0","AAXX 19211 33345 42998 01101 10210 20158 30021 40216 52009 555 10019"
"12:00 AM EEST on June 20, 2016","2016","06","20","00","00","Europe/Kiev","9:00 PM GMT on June 19, 2016","2016","06","19","21","00","UTC","21.0","69.8","16.0","60.8","73","10.8","6.7","-9999.0","-9999.0","100","East","9.0","5.6","1022","30.18","-999","-999","-9999","-9999","-9999.00","-9999.00","Unknown","unknown","0","0","0","0","0","0","METAR UKKK 192100Z 10003MPS 9000 NSC 21/16 Q1022 R08/CLRD70 NOSIG"
"12:30 AM EEST on June 20, 2016","2016","06","20","00","30","Europe/Kiev","9:30 PM GMT on June 19, 2016","2016","06","19","21","30","UTC","21.0","69.8","16.0","60.8","73","10.8","6.7","-9999.0","-9999.0","100","East","-9999.0","-9999.0","1022","30.18","-999","-999","-9999","-9999","-9999.00","-9999.00","Clear","clear","0","0","0","0","0","0","METAR UKKK 192130Z 10003MPS CAVOK 21/16 Q1022 R08/CLRD70 NOSIG"
"1:00 AM EEST on June 20, 2016","2016","06","20","01","00","Europe/Kiev","10:00 PM GMT on June 19, 2016","2016","06","19","22","00","UTC","20.0","68.0","16.0","60.8","78","10.8","6.7","-9999.0","-9999.0","100","East","-9999.0","-9999.0","1022","30.18","-999","-999","-9999","-9999","-9999.00","-9999.00","Clear","clear","0","0","0","0","0","0","METAR UKKK 192200Z 10003MPS CAVOK 20/16 Q1022 R08/CLRD70 NOSIG"
"1:30 AM EEST on June 20, 2016","2016","06","20","01","30","Europe/Kiev","10:30 PM GMT on June 19, 2016","2016","06","19","22","30","UTC","20.0","68.0","16.0","60.8","78","10.8","6.7","-9999.0","-9999.0","100","East","-9999.0","-9999.0","1021","30.15","-999","-999","-9999","-9999","-9999.00","-9999.00","Clear","clear","0","0","0","0","0","0","METAR UKKK 192230Z 10003MPS CAVOK 20/16 Q1021 R08/CLRD70 NOSIG"
"2:00 AM EEST on June 20, 2016","2016","06","20","02","00","Europe/Kiev","11:00 PM GMT on June 19, 2016","2016","06","19","23","00","UTC","19.0","66.2","16.0","60.8","83","7.2","4.5","-9999.0","-9999.0","100","East","-9999.0","-9999.0","1022","30.18","-999","-999","-9999","-9999","-9999.00","-9999.00","Clear","clear","0","0","0","0","0","0","METAR UKKK 192300Z 10002MPS CAVOK 19/16 Q1022 R08/CLRD70 NOSIG"
"2:30 AM EEST on June 20, 2016","2016","06","20","02","30","Europe/Kiev","11:30 PM GMT on June 19, 2016","2016","06","19","23","30","UTC","20.0","68.0","15.0","59.0","73","10.8","6.7","-9999.0","-9999.0","100","East","-9999.0","-9999.0","1022","30.18","-999","-999","-9999","-9999","-9999.00","-9999.00","Clear","clear","0","0","0","0","0","0","METAR UKKK 192330Z 10003MPS CAVOK 20/15 Q1022 R08/CLRD70 NOSIG"
"3:00 AM EEST on June 20, 2016","2016","06","20","03","00","Europe/Kiev","12:00 AM GMT on June 20, 2016","2016","06","20","00","00","UTC","19","66","15","59","72","3.6","2.2","","","130","SE","20","12","1022","30.19","-999","-999","-9999","-9999","","","","","0","0","0","0","0","0","AAXX 20001 33345 32998 01301 10188 20150 30024 40221 51003 555 10017"
"3:00 AM EEST on June 20, 2016","2016","06","20","03","00","Europe/Kiev","12:00 AM GMT on June 20, 2016","2016","06","20","00","00","UTC","20.0","68.0","16.0","60.8","78","10.8","6.7","-9999.0","-9999.0","110","ESE","-9999.0","-9999.0","1022","30.18","-999","-999","-9999","-9999","-9999.00","-9999.00","Clear","clear","0","0","0","0","0","0","METAR UKKK 200000Z 11003MPS CAVOK 20/16 Q1022 R08/CLRD70 NOSIG"
"3:30 AM EEST on June 20, 2016","2016","06","20","03","30","Europe/Kiev","12:30 AM GMT on June 20, 2016","2016","06","20","00","30","UTC","20.0","68.0","15.0","59.0","73","10.8","6.7","-9999.0","-9999.0","120","ESE","-9999.0","-9999.0","1022","30.18","-999","-999","-9999","-9999","-9999.00","-9999.00","Clear","clear","0","0","0","0","0","0","METAR UKKK 200030Z 12003MPS CAVOK 20/15 Q1022 R08/CLRD70 NOSIG"
"4:00 AM EEST on June 20, 2016","2016","06","20","04","00","Europe/Kiev","1:00 AM GMT on June 20, 2016","2016","06","20","01","00","UTC","20.0","68.0","16.0","60.8","78","10.8","6.7","-9999.0","-9999.0","110","ESE","-9999.0","-9999.0","1022","30.18","-999","-999","-9999","-9999","-9999.00","-9999.00","Clear","clear","0","0","0","0","0","0","METAR UKKK 200100Z 11003MPS CAVOK 20/16 Q1022 R08/CLRD70 NOSIG"
"4:30 AM EEST on June 20, 2016","2016","06","20","04","30","Europe/Kiev","1:30 AM GMT on June 20, 2016","2016","06","20","01","30","UTC","20.0","68.0","16.0","60.8","78","10.8","6.7","-9999.0","-9999.0","130","SE","-9999.0","-9999.0","1023","30.21","-999","-999","-9999","-9999","-9999.00","-9999.00","Clear","clear","0","0","0","0","0","0","METAR UKKK 200130Z 13003MPS 090V170 CAVOK 20/16 Q1023 R08/CLRD70 NOSIG"
"5:00 AM EEST on June 20, 2016","2016","06","20","05","00","Europe/Kiev","2:00 AM GMT on June 20, 2016","2016","06","20","02","00","UTC","20.0","68.0","16.0","60.8","78","7.2","4.5","-9999.0","-9999.0","140","SE","-9999.0","-9999.0","1024","30.24","-999","-999","-9999","-9999","-9999.00","-9999.00","Clear","clear","0","0","0","0","0","0","METAR UKKK 200200Z 14002MPS 100V170 CAVOK 20/16 Q1024 R08/CLRD70 NOSIG"
"5:30 AM EEST on June 20, 2016","2016","06","20","05","30","Europe/Kiev","2:30 AM GMT on June 20, 2016","2016","06","20","02","30","UTC","21.0","69.8","17.0","62.6","78","10.8","6.7","-9999.0","-9999.0","130","SE","-9999.0","-9999.0","1023","30.21","-999","-999","-9999","-9999","-9999.00","-9999.00","Clear","clear","0","0","0","0","0","0","METAR UKKK 200230Z 13003MPS 100V160 CAVOK 21/17 Q1023 R08/CLRD70 NOSIG"
"6:00 AM EEST on June 20, 2016","2016","06","20","06","00","Europe/Kiev","3:00 AM GMT on June 20, 2016","2016","06","20","03","00","UTC","19","67","16","60","73","3.6","2.2","","","120","ESE","20","12","1023","30.21","-999","-999","-9999","-9999","","","Overcast","cloudy","0","0","0","0","0","0","AAXX 20031 33345 42498 81201 10193 20158 30032 40228 52008 886// 333 88714 555 10019"
"6:00 AM EEST on June 20, 2016","2016","06","20","06","00","Europe/Kiev","3:00 AM GMT on June 20, 2016","2016","06","20","03","00","UTC","20.0","68.0","17.0","62.6","83","10.8","6.7","-9999.0","-9999.0","90","East","-9999.0","-9999.0","1023","30.21","-999","-999","-9999","-9999","-9999.00","-9999.00","Clear","clear","0","0","0","0","0","0","METAR UKKK 200300Z 09003MPS CAVOK 20/17 Q1023 R08/CLRD70 NOSIG"
"6:30 AM EEST on June 20, 2016","2016","06","20","06","30","Europe/Kiev","3:30 AM GMT on June 20, 2016","2016","06","20","03","30","UTC","20.0","68.0","18.0","64.4","88","18.0","11.2","-9999.0","-9999.0","70","ENE","10.0","6.2","1021","30.15","-999","-999","-9999","-9999","-9999.00","-9999.00","Light Rain","rain","0","1","0","0","0","0","METAR UKKK 200330Z 07005MPS 9999 -RA BKN040 BKN100 20/18 Q1021 R08/CLRD70 NOSIG"
"7:00 AM EEST on June 20, 2016","2016","06","20","07","00","Europe/Kiev","4:00 AM GMT on June 20, 2016","2016","06","20","04","00","UTC","21.0","69.8","18.0","64.4","83","10.8","6.7","-9999.0","-9999.0","90","East","-9999.0","-9999.0","1022","30.18","-999","-999","-9999","-9999","-9999.00","-9999.00","Clear","clear","0","0","0","0","0","0","METAR UKKK 200400Z 09003MPS CAVOK 21/18 Q1022 R08/CLRD70 NOSIG"
"7:30 AM EEST on June 20, 2016","2016","06","20","07","30","Europe/Kiev","4:30 AM GMT on June 20, 2016","2016","06","20","04","30","UTC","22.0","71.6","16.0","60.8","69","14.4","8.9","-9999.0","-9999.0","110","ESE","-9999.0","-9999.0","1022","30.18","-999","-999","-9999","-9999","-9999.00","-9999.00","Clear","clear","0","0","0","0","0","0","METAR UKKK 200430Z 11004MPS 080V140 CAVOK 22/16 Q1022 R08/CLRD70 NOSIG"
"8:00 AM EEST on June 20, 2016","2016","06","20","08","00","Europe/Kiev","5:00 AM GMT on June 20, 2016","2016","06","20","05","00","UTC","23.0","73.4","16.0","60.8","65","21.6","13.4","-9999.0","-9999.0","110","ESE","-9999.0","-9999.0","1022","30.18","-999","-999","-9999","-9999","-9999.00","-9999.00","Clear","clear","0","0","0","0","0","0","METAR UKKK 200500Z 11006MPS CAVOK 23/16 Q1022 R08/CLRD70 NOSIG"
"8:30 AM EEST on June 20, 2016","2016","06","20","08","30","Europe/Kiev","5:30 AM GMT on June 20, 2016","2016","06","20","05","30","UTC","23.0","73.4","16.0","60.8","65","18.0","11.2","-9999.0","-9999.0","120","ESE","-9999.0","-9999.0","1022","30.18","-999","-999","-9999","-9999","-9999.00","-9999.00","Clear","clear","0","0","0","0","0","0","METAR UKKK 200530Z 12005MPS 090V150 CAVOK 23/16 Q1022 R08/CLRD70 NOSIG"
"9:00 AM EEST on June 20, 2016","2016","06","20","09","00","Europe/Kiev","6:00 AM GMT on June 20, 2016","2016","06","20","06","00","UTC","24","74","17","62","58","10.8","6.7","","","150","SSE","20","12","1022","30.19","-999","-999","-9999","-9999","","","Clear","clear","0","0","0","0","0","0","AAXX 20061 33345 32998 61503 10236 20168 30029 40222 58003 80005 333 20183 555 10032"
"9:00 AM EEST on June 20, 2016","2016","06","20","09","00","Europe/Kiev","6:00 AM GMT on June 20, 2016","2016","06","20","06","00","UTC","23.0","73.4","16.0","60.8","65","21.6","13.4","39.6","24.6","120","ESE","-9999.0","-9999.0","1022","30.18","-999","-999","-9999","-9999","-9999.00","-9999.00","Clear","clear","0","0","0","0","0","0","METAR UKKK 200600Z 12006G11MPS 090V160 CAVOK 23/16 Q1022 R08/CLRD70 NOSIG"
"9:30 AM EEST on June 20, 2016","2016","06","20","09","30","Europe/Kiev","6:30 AM GMT on June 20, 2016","2016","06","20","06","30","UTC","23.0","73.4","16.0","60.8","65","14.4","8.9","-9999.0","-9999.0","130","SE","-9999.0","-9999.0","1023","30.21","-999","-999","-9999","-9999","-9999.00","-9999.00","Clear","clear","0","0","0","0","0","0","METAR UKKK 200630Z 13004MPS 090V180 CAVOK 23/16 Q1023 R08/CLRD70 NOSIG"
"10:00 AM EEST on June 20, 2016","2016","06","20","10","00","Europe/Kiev","7:00 AM GMT on June 20, 2016","2016","06","20","07","00","UTC","24.0","75.2","16.0","60.8","61","18.0","11.2","-9999.0","-9999.0","120","ESE","-9999.0","-9999.0","1023","30.21","-999","-999","-9999","-9999","-9999.00","-9999.00","Clear","clear","0","0","0","0","0","0","METAR UKKK 200700Z 12005MPS 100V170 CAVOK 24/16 Q1023 R08/CLRD70 NOSIG"
"10:30 AM EEST on June 20, 2016","2016","06","20","10","30","Europe/Kiev","7:30 AM GMT on June 20, 2016","2016","06","20","07","30","UTC","25.0","77.0","16.0","60.8","57","18.0","11.2","-9999.0","-9999.0","130","SE","-9999.0","-9999.0","1023","30.21","-999","-999","-9999","-9999","-9999.00","-9999.00","Clear","clear","0","0","0","0","0","0","METAR UKKK 200730Z 13005MPS 100V160 CAVOK 25/16 Q1023 R08/CLRD70 NOSIG"
"11:00 AM EEST on June 20, 2016","2016","06","20","11","00","Europe/Kiev","8:00 AM GMT on June 20, 2016","2016","06","20","08","00","UTC","25.0","77.0","16.0","60.8","57","21.6","13.4","-9999.0","-9999.0","120","ESE","-9999.0","-9999.0","1023","30.21","-999","-999","-9999","-9999","-9999.00","-9999.00","Clear","clear","0","0","0","0","0","0","METAR UKKK 200800Z 12006MPS 080V150 CAVOK 25/16 Q1023 R08/CLRD70 NOSIG"
"11:30 AM EEST on June 20, 2016","2016","06","20","11","30","Europe/Kiev","8:30 AM GMT on June 20, 2016","2016","06","20","08","30","UTC","26.0","78.8","15.0","59.0","51","18.0","11.2","-9999.0","-9999.0","120","ESE","-9999.0","-9999.0","1023","30.21","-999","-999","-9999","-9999","-9999.00","-9999.00","Clear","clear","0","0","0","0","0","0","METAR UKKK 200830Z 12005MPS 090V170 CAVOK 26/15 Q1023 R08/CLRD70 NOSIG"
"12:00 PM EEST on June 20, 2016","2016","06","20","12","00","Europe/Kiev","9:00 AM GMT on June 20, 2016","2016","06","20","09","00","UTC","26","80","15","60","40","10.8","6.7","","","160","SSE","20","12","1023","30.21","-999","-999","-9999","-9999","","","Clear","clear","0","0","0","0","0","0","AAXX 20091 33345 42998 61603 10264 20154 30038 40230 53009 80006 555 10045"
"12:00 PM EEST on June 20, 2016","2016","06","20","12","00","Europe/Kiev","9:00 AM GMT on June 20, 2016","2016","06","20","09","00","UTC","26.0","78.8","15.0","59.0","51","18.0","11.2","36.0","22.4","130","SE","-9999.0","-9999.0","1024","30.24","-999","-999","-9999","-9999","-9999.00","-9999.00","Clear","clear","0","0","0","0","0","0","METAR UKKK 200900Z 13005G10MPS 090V180 CAVOK 26/15 Q1024 R08/CLRD70 NOSIG"
"12:30 PM EEST on June 20, 2016","2016","06","20","12","30","Europe/Kiev","9:30 AM GMT on June 20, 2016","2016","06","20","09","30","UTC","27.0","80.6","15.0","59.0","48","21.6","13.4","-9999.0","-9999.0","120","ESE","-9999.0","-9999.0","1023","30.21","-999","-999","27.3","81.1","-9999.00","-9999.00","Clear","clear","0","0","0","0","0","0","METAR UKKK 200930Z 12006MPS 090V150 CAVOK 27/15 Q1023 R08/CLRD70 NOSIG"
"1:00 PM EEST on June 20, 2016","2016","06","20","13","00","Europe/Kiev","10:00 AM GMT on June 20, 2016","2016","06","20","10","00","UTC","27.0","80.6","15.0","59.0","48","14.4","8.9","-9999.0","-9999.0","120","ESE","-9999.0","-9999.0","1023","30.21","-999","-999","27.3","81.1","-9999.00","-9999.00","Clear","clear","0","0","0","0","0","0","METAR UKKK 201000Z 12004MPS 060V170 CAVOK 27/15 Q1023 R08/CLRD70 NOSIG"
"1:30 PM EEST on June 20, 2016","2016","06","20","13","30","Europe/Kiev","10:30 AM GMT on June 20, 2016","2016","06","20","10","30","UTC","27.0","80.6","17.0","62.6","54","14.4","8.9","-9999.0","-9999.0","120","ESE","-9999.0","-9999.0","1023","30.21","-999","-999","27.7","81.8","-9999.00","-9999.00","Clear","clear","0","0","0","0","0","0","METAR UKKK 201030Z 12004MPS 090V160 CAVOK 27/17 Q1023 R08/CLRD70 NOSIG"
"2:00 PM EEST on June 20, 2016","2016","06","20","14","00","Europe/Kiev","11:00 AM GMT on June 20, 2016","2016","06","20","11","00","UTC","28.0","82.4","18.0","64.4","54","10.8","6.7","-9999.0","-9999.0","140","SE","-9999.0","-9999.0","1023","30.21","-999","-999","28.8","83.9","-9999.00","-9999.00","Clear","clear","0","0","0","0","0","0","METAR UKKK 201100Z 14003MPS 080V210 CAVOK 28/18 Q1023 R08/CLRD70 NOSIG"
"2:30 PM EEST on June 20, 2016","2016","06","20","14","30","Europe/Kiev","11:30 AM GMT on June 20, 2016","2016","06","20","11","30","UTC","28.0","82.4","18.0","64.4","54","14.4","8.9","-9999.0","-9999.0","140","SE","-9999.0","-9999.0","1023","30.21","-999","-999","28.8","83.9","-9999.00","-9999.00","Clear","clear","0","0","0","0","0","0","METAR UKKK 201130Z 14004MPS 100V220 CAVOK 28/18 Q1023 R08/CLRD70 NOSIG"
"3:00 PM EEST on June 20, 2016","2016","06","20","15","00","Europe/Kiev","12:00 PM GMT on June 20, 2016","2016","06","20","12","00","UTC","28","82","18","65","46","10.8","6.7","","","160","SSE","20","12","1022","30.19","-999","-999","-9999","-9999","","","Scattered Clouds","partlycloudy","0","0","0","0","0","0","AAXX 20121 33345 32698 61603 10279 20182 30032 40223 58006 82805 555 10047"
"3:00 PM EEST on June 20, 2016","2016","06","20","15","00","Europe/Kiev","12:00 PM GMT on June 20, 2016","2016","06","20","12","00","UTC","28.0","82.4","19.0","66.2","58","18.0","11.2","-9999.0","-9999.0","140","SE","10.0","6.2","1023","30.21","-999","-999","29.2","84.6","-9999.00","-9999.00","Mostly Cloudy","mostlycloudy","0","0","0","0","0","0","METAR UKKK 201200Z 14005MPS 110V180 9999 FEW041 BKN200 28/19 Q1023 R08/CLRD70 NOSIG"
"3:30 PM EEST on June 20, 2016","2016","06","20","15","30","Europe/Kiev","12:30 PM GMT on June 20, 2016","2016","06","20","12","30","UTC","28.0","82.4","20.0","68.0","62","14.4","8.9","-9999.0","-9999.0","160","SSE","10.0","6.2","1022","30.18","-999","-999","29.7","85.4","-9999.00","-9999.00","Mostly Cloudy","mostlycloudy","0","0","0","0","0","0","METAR UKKK 201230Z 16004MPS 100V230 9999 FEW041 BKN200 28/20 Q1022 R08/CLRD70 NOSIG"
"4:00 PM EEST on June 20, 2016","2016","06","20","16","00","Europe/Kiev","1:00 PM GMT on June 20, 2016","2016","06","20","13","00","UTC","28.0","82.4","20.0","68.0","62","14.4","8.9","-9999.0","-9999.0","160","SSE","-9999.0","-9999.0","1022","30.18","-999","-999","29.7","85.4","-9999.00","-9999.00","Clear","clear","0","0","0","0","0","0","METAR UKKK 201300Z 16004MPS 120V220 CAVOK 28/20 Q1022 R08/CLRD70 NOSIG"
"4:30 PM EEST on June 20, 2016","2016","06","20","16","30","Europe/Kiev","1:30 PM GMT on June 20, 2016","2016","06","20","13","30","UTC","29.0","84.2","20.0","68.0","58","14.4","8.9","-9999.0","-9999.0","170","South","10.0","6.2","1022","30.18","-999","-999","30.7","87.3","-9999.00","-9999.00","Mostly Cloudy","mostlycloudy","0","0","0","0","0","0","METAR UKKK 201330Z 17004MPS 110V250 9999 FEW037 BKN200 29/20 Q1022 R08/CLRD70 NOSIG"
"5:00 PM EEST on June 20, 2016","2016","06","20","17","00","Europe/Kiev","2:00 PM GMT on June 20, 2016","2016","06","20","14","00","UTC","29.0","84.2","20.0","68.0","58","14.4","8.9","-9999.0","-9999.0","150","SSE","10.0","6.2","1022","30.18","-999","-999","30.7","87.3","-9999.00","-9999.00","Mostly Cloudy","mostlycloudy","0","0","0","0","0","0","METAR UKKK 201400Z 15004MPS 090V220 9999 FEW039 BKN200 29/20 Q1022 R08/CLRD70 NOSIG"
"5:30 PM EEST on June 20, 2016","2016","06","20","17","30","Europe/Kiev","2:30 PM GMT on June 20, 2016","2016","06","20","14","30","UTC","28.0","82.4","20.0","68.0","62","14.4","8.9","-9999.0","-9999.0","150","SSE","10.0","6.2","1022","30.18","-999","-999","29.7","85.4","-9999.00","-9999.00","Mostly Cloudy","mostlycloudy","0","0","0","0","0","0","METAR UKKK 201430Z 15004MPS 130V190 9999 FEW038 BKN200 28/20 Q1022 R08/CLRD70 NOSIG"
"6:00 PM EEST on June 20, 2016","2016","06","20","18","00","Europe/Kiev","3:00 PM GMT on June 20, 2016","2016","06","20","15","00","UTC","28","82","19","67","51","14.4","8.9","","","180","South","20","12","1022","30.17","-999","-999","-9999","-9999","","","Partly Cloudy","partlycloudy","0","0","0","0","0","0","AAXX 20151 33345 42598 71804 10280 20194 30026 40216 57006 83909 555 10038"
"6:00 PM EEST on June 20, 2016","2016","06","20","18","00","Europe/Kiev","3:00 PM GMT on June 20, 2016","2016","06","20","15","00","UTC","28.0","82.4","20.0","68.0","62","14.4","8.9","-9999.0","-9999.0","170","South","10.0","6.2","1022","30.18","-999","-999","29.7","85.4","-9999.00","-9999.00","Mostly Cloudy","mostlycloudy","0","0","0","0","0","0","METAR UKKK 201500Z 17004MPS 120V210 9999 FEW038 BKN200 28/20 Q1022 R08/CLRD70 NOSIG"
"6:30 PM EEST on June 20, 2016","2016","06","20","18","30","Europe/Kiev","3:30 PM GMT on June 20, 2016","2016","06","20","15","30","UTC","28.0","82.4","20.0","68.0","62","10.8","6.7","-9999.0","-9999.0","180","South","10.0","6.2","1022","30.18","-999","-999","29.7","85.4","-9999.00","-9999.00","Mostly Cloudy","mostlycloudy","0","0","0","0","0","0","METAR UKKK 201530Z 18003MPS 140V240 9999 FEW038 BKN200 28/20 Q1022 R08/CLRD70 NOSIG"
"7:00 PM EEST on June 20, 2016","2016","06","20","19","00","Europe/Kiev","4:00 PM GMT on June 20, 2016","2016","06","20","16","00","UTC","28.0","82.4","20.0","68.0","62","10.8","6.7","-9999.0","-9999.0","170","South","-9999.0","-9999.0","1022","30.18","-999","-999","29.7","85.4","-9999.00","-9999.00","Clear","clear","0","0","0","0","0","0","METAR UKKK 201600Z 17003MPS 140V230 CAVOK 28/20 Q1022 R08/CLRD70 NOSIG"
"7:30 PM EEST on June 20, 2016","2016","06","20","19","30","Europe/Kiev","4:30 PM GMT on June 20, 2016","2016","06","20","16","30","UTC","27.0","80.6","20.0","68.0","65","7.2","4.5","-9999.0","-9999.0","170","South","-9999.0","-9999.0","1022","30.18","-999","-999","28.5","83.2","-9999.00","-9999.00","Clear","clear","0","0","0","0","0","0","METAR UKKK 201630Z 17002MPS 110V220 CAVOK 27/20 Q1022 R08/CLRD70 NOSIG"
"8:00 PM EEST on June 20, 2016","2016","06","20","20","00","Europe/Kiev","5:00 PM GMT on June 20, 2016","2016","06","20","17","00","UTC","27.0","80.6","20.0","68.0","65","7.2","4.5","-9999.0","-9999.0","220","SW","-9999.0","-9999.0","1024","30.24","-999","-999","28.5","83.2","-9999.00","-9999.00","Clear","clear","0","0","0","0","0","0","METAR UKKK 201700Z 22002MPS 180V250 CAVOK 27/20 Q1024 R08/CLRD70 NOSIG"
"8:30 PM EEST on June 20, 2016","2016","06","20","20","30","Europe/Kiev","5:30 PM GMT on June 20, 2016","2016","06","20","17","30","UTC","26.0","78.8","21.0","69.8","74","7.2","4.5","-9999.0","-9999.0","170","South","-9999.0","-9999.0","1023","30.21","-999","-999","-9999","-9999","-9999.00","-9999.00","Clear","clear","0","0","0","0","0","0","METAR UKKK 201730Z 17002MPS 110V210 CAVOK 26/21 Q1023 R08/CLRD70 NOSIG"
"9:00 PM EEST on June 20, 2016","2016","06","20","21","00","Europe/Kiev","6:00 PM GMT on June 20, 2016","2016","06","20","18","00","UTC","26","78","20","68","64","3.6","2.2","","","160","SSE","20","12","1023","30.21","-999","-999","-9999","-9999","","","Mostly Cloudy","mostlycloudy","0","0","0","0","0","0","AAXX 20181 33345 32998 71601 10257 20200 30036 40228 53010 85072 333 10287 555 10027"
"9:00 PM EEST on June 20, 2016","2016","06","20","21","00","Europe/Kiev","6:00 PM GMT on June 20, 2016","2016","06","20","18","00","UTC","26.0","78.8","21.0","69.8","74","7.2","4.5","-9999.0","-9999.0","160","SSE","-9999.0","-9999.0","1023","30.21","-999","-999","-9999","-9999","-9999.00","-9999.00","Clear","clear","0","0","0","0","0","0","METAR UKKK 201800Z 16002MPS 130V200 CAVOK 26/21 Q1023 R08/CLRD70 NOSIG"
"9:30 PM EEST on June 20, 2016","2016","06","20","21","30","Europe/Kiev","6:30 PM GMT on June 20, 2016","2016","06","20","18","30","UTC","25.0","77.0","21.0","69.8","78","7.2","4.5","-9999.0","-9999.0","140","SE","-9999.0","-9999.0","1023","30.21","-999","-999","-9999","-9999","-9999.00","-9999.00","Clear","clear","0","0","0","0","0","0","METAR UKKK 201830Z 14002MPS 110V180 CAVOK 25/21 Q1023 R08/CLRD70 NOSIG"
"10:00 PM EEST on June 20, 2016","2016","06","20","22","00","Europe/Kiev","7:00 PM GMT on June 20, 2016","2016","06","20","19","00","UTC","25.0","77.0","21.0","69.8","78","7.2","4.5","-9999.0","-9999.0","160","SSE","-9999.0","-9999.0","1023","30.21","-999","-999","-9999","-9999","-9999.00","-9999.00","Clear","clear","0","0","0","0","0","0","METAR UKKK 201900Z 16002MPS 120V200 CAVOK 25/21 Q1023 R08/CLRD70 NOSIG"
"10:30 PM EEST on June 20, 2016","2016","06","20","22","30","Europe/Kiev","7:30 PM GMT on June 20, 2016","2016","06","20","19","30","UTC","25.0","77.0","21.0","69.8","78","10.8","6.7","-9999.0","-9999.0","130","SE","-9999.0","-9999.0","1023","30.21","-999","-999","-9999","-9999","-9999.00","-9999.00","Clear","clear","0","0","0","0","0","0","METAR UKKK 201930Z 13003MPS CAVOK 25/21 Q1023 R08/CLRD70 NOSIG"
"11:00 PM EEST on June 20, 2016","2016","06","20","23","00","Europe/Kiev","8:00 PM GMT on June 20, 2016","2016","06","20","20","00","UTC","24.0","75.2","21.0","69.8","83","10.8","6.7","-9999.0","-9999.0","140","SE","-9999.0","-9999.0","1022","30.18","-999","-999","-9999","-9999","-9999.00","-9999.00","Clear","clear","0","0","0","0","0","0","METAR UKKK 202000Z 14003MPS 110V170 CAVOK 24/21 Q1022 R08/CLRD70 NOSIG"
"11:30 PM EEST on June 20, 2016","2016","06","20","23","30","Europe/Kiev","8:30 PM GMT on June 20, 2016","2016","06","20","20","30","UTC","24.0","75.2","21.0","69.8","83","10.8","6.7","-9999.0","-9999.0","150","SSE","-9999.0","-9999.0","1022","30.18","-999","-999","-9999","-9999","-9999.00","-9999.00","Clear","clear","0","0","0","0","0","0","METAR UKKK 202030Z 15003MPS 110V200 CAVOK 24/21 Q1022 R08/CLRD70 NOSIG"
"12:00 AM EEST on June 21, 2016","2016","06","21","00","00","Europe/Kiev","9:00 PM GMT on June 20, 2016","2016","06","20","21","00","UTC","23","73","20","68","80","10.8","6.7","","","160","SSE","20","12","1022","30.18","-999","-999","-9999","-9999","","","Clear","clear","0","0","0","0","0","0","AAXX 20211 33345 42998 41603 10226 20201 30024 40218 58012 80005 555 10022"
"12:00 AM EEST on June 21, 2016","2016","06","21","00","00","Europe/Kiev","9:00 PM GMT on June 20, 2016","2016","06","20","21","00","UTC","24.0","75.2","21.0","69.8","83","14.4","8.9","-9999.0","-9999.0","140","SE","-9999.0","-9999.0","1022","30.18","-999","-999","-9999","-9999","-9999.00","-9999.00","Clear","clear","0","0","0","0","0","0","METAR UKKK 202100Z 14004MPS 110V180 CAVOK 24/21 Q1022 R08/CLRD70 NOSIG"
"12:30 AM EEST on June 21, 2016","2016","06","21","00","30","Europe/Kiev","9:30 PM GMT on June 20, 2016","2016","06","20","21","30","UTC","24.0","75.2","20.0","68.0","78","10.8","6.7","-9999.0","-9999.0","150","SSE","-9999.0","-9999.0","1022","30.18","-999","-999","-9999","-9999","-9999.00","-9999.00","Clear","clear","0","0","0","0","0","0","METAR UKKK 202130Z 15003MPS 100V220 CAVOK 24/20 Q1022 R08/CLRD70 NOSIG"
"1:00 AM EEST on June 21, 2016","2016","06","21","01","00","Europe/Kiev","10:00 PM GMT on June 20, 2016","2016","06","20","22","00","UTC","23.0","73.4","20.0","68.0","83","7.2","4.5","-9999.0","-9999.0","160","SSE","-9999.0","-9999.0","1022","30.18","-999","-999","-9999","-9999","-9999.00","-9999.00","Clear","clear","0","0","0","0","0","0","METAR UKKK 202200Z 16002MPS 110V230 CAVOK 23/20 Q1022 R08/CLRD70 NOSIG"
"1:30 AM EEST on June 21, 2016","2016","06","21","01","30","Europe/Kiev","10:30 PM GMT on June 20, 2016","2016","06","20","22","30","UTC","23.0","73.4","20.0","68.0","83","3.6","2.2","-9999.0","-9999.0","0","Variable","-9999.0","-9999.0","1023","30.21","-999","-999","-9999","-9999","-9999.00","-9999.00","Clear","clear","0","0","0","0","0","0","METAR UKKK 202230Z VRB01MPS CAVOK 23/20 Q1023 R08/CLRD70 NOSIG"
"2:00 AM EEST on June 21, 2016","2016","06","21","02","00","Europe/Kiev","11:00 PM GMT on June 20, 2016","2016","06","20","23","00","UTC","22.0","71.6","20.0","68.0","88","7.2","4.5","-9999.0","-9999.0","160","SSE","-9999.0","-9999.0","1023","30.21","-999","-999","-9999","-9999","-9999.00","-9999.00","Clear","clear","0","0","0","0","0","0","METAR UKKK 202300Z 16002MPS 130V200 CAVOK 22/20 Q1023 R08/CLRD70 NOSIG"
"2:30 AM EEST on June 21, 2016","2016","06","21","02","30","Europe/Kiev","11:30 PM GMT on June 20, 2016","2016","06","20","23","30","UTC","22.0","71.6","20.0","68.0","88","3.6","2.2","-9999.0","-9999.0","0","Variable","-9999.0","-9999.0","1023","30.21","-999","-999","-9999","-9999","-9999.00","-9999.00","Clear","clear","0","0","0","0","0","0","METAR UKKK 202330Z VRB01MPS CAVOK 22/20 Q1023 R08/CLRD70 NOSIG"
"3:00 AM EEST on June 21, 2016","2016","06","21","03","00","Europe/Kiev","12:00 AM GMT on June 21, 2016","2016","06","21","00","00","UTC","21","70","19","66","83","0.0","0.0","","","","","20","12","1023","30.22","-999","-999","-9999","-9999","","","Clear","clear","0","0","0","0","0","0","AAXX 21001 33345 32998 60000 10209 20188 30038 40233 53014 80005 555 10021"
"3:00 AM EEST on June 21, 2016","2016","06","21","03","00","Europe/Kiev","12:00 AM GMT on June 21, 2016","2016","06","21","00","00","UTC","22.0","71.6","20.0","68.0","88","7.2","4.5","-9999.0","-9999.0","120","ESE","-9999.0","-9999.0","1023","30.21","-999","-999","-9999","-9999","-9999.00","-9999.00","Clear","clear","0","0","0","0","0","0","METAR UKKK 210000Z 12002MPS CAVOK 22/20 Q1023 R08/CLRD70 NOSIG"
"3:30 AM EEST on June 21, 2016","2016","06","21","03","30","Europe/Kiev","12:30 AM GMT on June 21, 2016","2016","06","21","00","30","UTC","22.0","71.6","20.0","68.0","88","7.2","4.5","-9999.0","-9999.0","120","ESE","-9999.0","-9999.0","1023","30.21","-999","-999","-9999","-9999","-9999.00","-9999.00","Clear","clear","0","0","0","0","0","0","METAR UKKK 210030Z 12002MPS CAVOK 22/20 Q1023 R08/CLRD70 NOSIG"
"4:00 AM EEST on June 21, 2016","2016","06","21","04","00","Europe/Kiev","1:00 AM GMT on June 21, 2016","2016","06","21","01","00","UTC","22.0","71.6","20.0","68.0","88","7.2","4.5","-9999.0","-9999.0","120","ESE","-9999.0","-9999.0","1024","30.24","-999","-999","-9999","-9999","-9999.00","-9999.00","Clear","clear","0","0","0","0","0","0","METAR UKKK 210100Z 12002MPS 070V150 CAVOK 22/20 Q1024 R08/CLRD70 NOSIG"
"4:30 AM EEST on June 21, 2016","2016","06","21","04","30","Europe/Kiev","1:30 AM GMT on June 21, 2016","2016","06","21","01","30","UTC","20.0","68.0","19.0","66.2","94","7.2","4.5","-9999.0","-9999.0","80","East","-9999.0","-9999.0","1024","30.24","-999","-999","-9999","-9999","-9999.00","-9999.00","Clear","clear","0","0","0","0","0","0","METAR UKKK 210130Z 08002MPS CAVOK 20/19 Q1024 R08/CLRD70 NOSIG"
"5:00 AM EEST on June 21, 2016","2016","06","21","05","00","Europe/Kiev","2:00 AM GMT on June 21, 2016","2016","06","21","02","00","UTC","20.0","68.0","20.0","68.0","100","7.2","4.5","-9999.0","-9999.0","100","East","6.0","3.7","1024","30.24","-999","-999","-9999","-9999","-9999.00","-9999.00","Unknown","unknown","0","0","0","0","0","0","METAR UKKK 210200Z 10002MPS 6000 NSC 20/20 Q1024 R08/CLRD70 NOSIG"
"5:30 AM EEST on June 21, 2016","2016","06","21","05","30","Europe/Kiev","2:30 AM GMT on June 21, 2016","2016","06","21","02","30","UTC","20.0","68.0","19.0","66.2","94","3.6","2.2","-9999.0","-9999.0","100","East","-9999.0","-9999.0","1024","30.24","-999","-999","-9999","-9999","-9999.00","-9999.00","Clear","clear","0","0","0","0","0","0","METAR UKKK 210230Z 10001MPS CAVOK 20/19 Q1024 R08/CLRD70 NOSIG"
"6:00 AM EEST on June 21, 2016","2016","06","21","06","00","Europe/Kiev","3:00 AM GMT on June 21, 2016","2016","06","21","03","00","UTC","20","68","19","66","93","7.2","4.5","","","170","South","4","2","1024","30.25","-999","-999","-9999","-9999","","","Mist","hazy","0","0","0","0","0","0","AAXX 21031 33345 41996 61702 10201 20191 30048 40244 52010 71022 80006 555 10020"
"6:00 AM EEST on June 21, 2016","2016","06","21","06","00","Europe/Kiev","3:00 AM GMT on June 21, 2016","2016","06","21","03","00","UTC","21.0","69.8","20.0","68.0","94","7.2","4.5","-9999.0","-9999.0","130","SE","-9999.0","-9999.0","1024","30.24","-999","-999","-9999","-9999","-9999.00","-9999.00","Clear","clear","0","0","0","0","0","0","METAR UKKK 210300Z 13002MPS 090V160 CAVOK 21/20 Q1024 R08/CLRD70 NOSIG"
"6:30 AM EEST on June 21, 2016","2016","06","21","06","30","Europe/Kiev","3:30 AM GMT on June 21, 2016","2016","06","21","03","30","UTC","23.0","73.4","20.0","68.0","83","10.8","6.7","-9999.0","-9999.0","110","ESE","-9999.0","-9999.0","1024","30.24","-999","-999","-9999","-9999","-9999.00","-9999.00","Clear","clear","0","0","0","0","0","0","METAR UKKK 210330Z 11003MPS CAVOK 23/20 Q1024 R08/CLRD70 NOSIG"
"7:00 AM EEST on June 21, 2016","2016","06","21","07","00","Europe/Kiev","4:00 AM GMT on June 21, 2016","2016","06","21","04","00","UTC","23.0","73.4","20.0","68.0","83","10.8","6.7","-9999.0","-9999.0","130","SE","-9999.0","-9999.0","1024","30.24","-999","-999","-9999","-9999","-9999.00","-9999.00","Clear","clear","0","0","0","0","0","0","METAR UKKK 210400Z 13003MPS 100V160 CAVOK 23/20 Q1024 R08/CLRD70 NOSIG"
"7:30 AM EEST on June 21, 2016","2016","06","21","07","30","Europe/Kiev","4:30 AM GMT on June 21, 2016","2016","06","21","04","30","UTC","23.0","73.4","20.0","68.0","83","7.2","4.5","-9999.0","-9999.0","140","SE","-9999.0","-9999.0","1024","30.24","-999","-999","-9999","-9999","-9999.00","-9999.00","Clear","clear","0","0","0","0","0","0","METAR UKKK 210430Z 14002MPS 100V220 CAVOK 23/20 Q1024 R08/CLRD70 NOSIG"
"8:00 AM EEST on June 21, 2016","2016","06","21","08","00","Europe/Kiev","5:00 AM GMT on June 21, 2016","2016","06","21","05","00","UTC","24.0","75.2","20.0","68.0","78","7.2","4.5","-9999.0","-9999.0","140","SE","-9999.0","-9999.0","1024","30.24","-999","-999","-9999","-9999","-9999.00","-9999.00","Clear","clear","0","0","0","0","0","0","METAR UKKK 210500Z 14002MPS 060V200 CAVOK 24/20 Q1024 R08/CLRD70 NOSIG"
"8:30 AM EEST on June 21, 2016","2016","06","21","08","30","Europe/Kiev","5:30 AM GMT on June 21, 2016","2016","06","21","05","30","UTC","25.0","77.0","21.0","69.8","78","10.8","6.7","-9999.0","-9999.0","180","South","-9999.0","-9999.0","1024","30.24","-999","-999","-9999","-9999","-9999.00","-9999.00","Clear","clear","0","0","0","0","0","0","METAR UKKK 210530Z 18003MPS 120V230 CAVOK 25/21 Q1024 R08/CLRD70 NOSIG"
"9:00 AM EEST on June 21, 2016","2016","06","21","09","00","Europe/Kiev","6:00 AM GMT on June 21, 2016","2016","06","21","06","00","UTC","25","77","21","70","72","7.2","4.5","","","190","South","10","6","1023","30.22","-999","-999","-9999","-9999","","","Clear","clear","0","0","0","0","0","0","AAXX 21061 33345 32997 31902 10250 20209 30042 40234 58006 80005 333 20197 555 10036"
"9:00 AM EEST on June 21, 2016","2016","06","21","09","00","Europe/Kiev","6:00 AM GMT on June 21, 2016","2016","06","21","06","00","UTC","26.0","78.8","21.0","69.8","74","7.2","4.5","-9999.0","-9999.0","180","South","-9999.0","-9999.0","1024","30.24","-999","-999","-9999","-9999","-9999.00","-9999.00","Clear","clear","0","0","0","0","0","0","METAR UKKK 210600Z 18002MPS 090V250 CAVOK 26/21 Q1024 R08/CLRD70 NOSIG"
"9:30 AM EEST on June 21, 2016","2016","06","21","09","30","Europe/Kiev","6:30 AM GMT on June 21, 2016","2016","06","21","06","30","UTC","27.0","80.6","21.0","69.8","70","14.4","8.9","-9999.0","-9999.0","150","SSE","-9999.0","-9999.0","1023","30.21","-999","-999","28.9","83.9","-9999.00","-9999.00","Clear","clear","0","0","0","0","0","0","METAR UKKK 210630Z 15004MPS 110V210 CAVOK 27/21 Q1023 R08/CLRD70 NOSIG"
"10:00 AM EEST on June 21, 2016","2016","06","21","10","00","Europe/Kiev","7:00 AM GMT on June 21, 2016","2016","06","21","07","00","UTC","27.0","80.6","21.0","69.8","70","14.4","8.9","-9999.0","-9999.0","160","SSE","-9999.0","-9999.0","1023","30.21","-999","-999","28.9","83.9","-9999.00","-9999.00","Clear","clear","0","0","0","0","0","0","METAR UKKK 210700Z 16004MPS 120V230 CAVOK 27/21 Q1023 R08/CLRD70 NOSIG"
"10:30 AM EEST on June 21, 2016","2016","06","21","10","30","Europe/Kiev","7:30 AM GMT on June 21, 2016","2016","06","21","07","30","UTC","28.0","82.4","21.0","69.8","66","10.8","6.7","-9999.0","-9999.0","170","South","-9999.0","-9999.0","1023","30.21","-999","-999","30.2","86.3","-9999.00","-9999.00","Clear","clear","0","0","0","0","0","0","METAR UKKK 210730Z 17003MPS 130V230 CAVOK 28/21 Q1023 R08/CLRD70 NOSIG"
"11:00 AM EEST on June 21, 2016","2016","06","21","11","00","Europe/Kiev","8:00 AM GMT on June 21, 2016","2016","06","21","08","00","UTC","29.0","84.2","21.0","69.8","62","14.4","8.9","-9999.0","-9999.0","190","South","-9999.0","-9999.0","1024","30.24","-999","-999","31.3","88.4","-9999.00","-9999.00","Clear","clear","0","0","0","0","0","0","METAR UKKK 210800Z 19004MPS 130V250 CAVOK 29/21 Q1024 R08/CLRD70 NOSIG"
"11:30 AM EEST on June 21, 2016","2016","06","21","11","30","Europe/Kiev","8:30 AM GMT on June 21, 2016","2016","06","21","08","30","UTC","29.0","84.2","21.0","69.8","62","10.8","6.7","-9999.0","-9999.0","190","South","-9999.0","-9999.0","1024","30.24","-999","-999","31.3","88.4","-9999.00","-9999.00","Clear","clear","0","0","0","0","0","0","METAR UKKK 210830Z 19003MPS 130V250 CAVOK 29/21 Q1024 R08/CLRD70 NOSIG"
"12:00 PM EEST on June 21, 2016","2016","06","21","12","00","Europe/Kiev","9:00 AM GMT on June 21, 2016","2016","06","21","09","00","UTC","30","85","20","68","48","14.4","8.9","","","190","South","20","12","1023","30.20","-999","-999","-9999","-9999","","","","","0","0","0","0","0","0","AAXX 21091 33345 42998 01904 10297 20202 30038 40227 57004 555 10047"
"12:00 PM EEST on June 21, 2016","2016","06","21","12","00","Europe/Kiev","9:00 AM GMT on June 21, 2016","2016","06","21","09","00","UTC","30.0","86.0","21.0","69.8","58","18.0","11.2","-9999.0","-9999.0","190","South","-9999.0","-9999.0","1023","30.21","-999","-999","32.4","90.4","-9999.00","-9999.00","Clear","clear","0","0","0","0","0","0","METAR UKKK 210900Z 19005MPS 150V220 CAVOK 30/21 Q1023 R26/CLRD70 NOSIG"
"12:30 PM EEST on June 21, 2016","2016","06","21","12","30","Europe/Kiev","9:30 AM GMT on June 21, 2016","2016","06","21","09","30","UTC","31.0","87.8","21.0","69.8","55","14.4","8.9","-9999.0","-9999.0","190","South","-9999.0","-9999.0","1024","30.24","-999","-999","33.7","92.6","-9999.00","-9999.00","Clear","clear","0","0","0","0","0","0","METAR UKKK 210930Z 19004MPS 150V250 CAVOK 31/21 Q1024 R26/CLRD70 NOSIG"
"1:00 PM EEST on June 21, 2016","2016","06","21","13","00","Europe/Kiev","10:00 AM GMT on June 21, 2016","2016","06","21","10","00","UTC","31.0","87.8","21.0","69.8","55","14.4","8.9","-9999.0","-9999.0","220","SW","-9999.0","-9999.0","1024","30.24","-999","-999","33.7","92.6","-9999.00","-9999.00","Clear","clear","0","0","0","0","0","0","METAR UKKK 211000Z 22004MPS 180V260 CAVOK 31/21 Q1024 R26/CLRD70 NOSIG"
"1:30 PM EEST on June 21, 2016","2016","06","21","13","30","Europe/Kiev","10:30 AM GMT on June 21, 2016","2016","06","21","10","30","UTC","31.0","87.8","20.0","68.0","52","18.0","11.2","-9999.0","-9999.0","200","SSW","10.0","6.2","1024","30.24","-999","-999","33.0","91.4","-9999.00","-9999.00","Mostly Cloudy","mostlycloudy","0","0","0","0","0","0","METAR UKKK 211030Z 20005MPS 170V240 9999 SCT046 BKN200 31/20 Q1024 R26/CLRD70 NOSIG"
"2:00 PM EEST on June 21, 2016","2016","06","21","14","00","Europe/Kiev","11:00 AM GMT on June 21, 2016","2016","06","21","11","00","UTC","31.0","87.8","21.0","69.8","55","18.0","11.2","-9999.0","-9999.0","200","SSW","10.0","6.2","1023","30.21","-999","-999","33.7","92.6","-9999.00","-9999.00","Mostly Cloudy","mostlycloudy","0","0","0","0","0","0","METAR UKKK 211100Z 20005MPS 160V260 9999 SCT046 BKN200 31/21 Q1023 R26/CLRD70 NOSIG"
"2:30 PM EEST on June 21, 2016","2016","06","21","14","30","Europe/Kiev","11:30 AM GMT on June 21, 2016","2016","06","21","11","30","UTC","31.0","87.8","21.0","69.8","55","14.4","8.9","-9999.0","-9999.0","230","SW","10.0","6.2","1023","30.21","-999","-999","33.7","92.6","-9999.00","-9999.00","Mostly Cloudy","mostlycloudy","0","0","0","0","0","0","METAR UKKK 211130Z 23004MPS 200V270 9999 SCT046 BKN200 31/21 Q1023 R26/CLRD70 NOSIG"
"3:00 PM EEST on June 21, 2016","2016","06","21","15","00","Europe/Kiev","12:00 PM GMT on June 21, 2016","2016","06","21","12","00","UTC","31","89","21","70","45","14.4","8.9","","","200","SSW","20","12","1022","30.19","-999","-999","-9999","-9999","","","Scattered Clouds","partlycloudy","0","0","0","0","0","0","AAXX 21121 33345 32698 22004 10314 20213 30034 40222 57004 82100 555 10049"
"3:00 PM EEST on June 21, 2016","2016","06","21","15","00","Europe/Kiev","12:00 PM GMT on June 21, 2016","2016","06","21","12","00","UTC","32.0","89.6","21.0","69.8","52","14.4","8.9","-9999.0","-9999.0","210","SSW","10.0","6.2","1023","30.21","-999","-999","34.9","94.7","-9999.00","-9999.00","Mostly Cloudy","mostlycloudy","0","0","0","0","0","0","METAR UKKK 211200Z 21004MPS 160V260 9999 SCT046 BKN200 32/21 Q1023 R26/CLRD70 NOSIG"
"3:30 PM EEST on June 21, 2016","2016","06","21","15","30","Europe/Kiev","12:30 PM GMT on June 21, 2016","2016","06","21","12","30","UTC","31.0","87.8","20.0","68.0","52","18.0","11.2","-9999.0","-9999.0","230","SW","10.0","6.2","1023","30.21","-999","-999","33.0","91.4","-9999.00","-9999.00","Mostly Cloudy","mostlycloudy","0","0","0","0","0","0","METAR UKKK 211230Z 23005MPS 210V280 9999 SCT046 BKN200 31/20 Q1023 R26/CLRD70 NOSIG"
"4:00 PM EEST on June 21, 2016","2016","06","21","16","00","Europe/Kiev","1:00 PM GMT on June 21, 2016","2016","06","21","13","00","UTC","31.0","87.8","21.0","69.8","55","14.4","8.9","-9999.0","-9999.0","220","SW","-9999.0","-9999.0","1023","30.21","-999","-999","33.7","92.6","-9999.00","-9999.00","Clear","clear","0","0","0","0","0","0","METAR UKKK 211300Z 22004MPS 170V250 CAVOK 31/21 Q1023 R26/CLRD70 NOSIG"
"4:30 PM EEST on June 21, 2016","2016","06","21","16","30","Europe/Kiev","1:30 PM GMT on June 21, 2016","2016","06","21","13","30","UTC","32.0","89.6","21.0","69.8","52","10.8","6.7","-9999.0","-9999.0","210","SSW","10.0","6.2","1023","30.21","-999","-999","34.9","94.7","-9999.00","-9999.00","Mostly Cloudy","mostlycloudy","0","0","0","0","0","0","METAR UKKK 211330Z 21003MPS 170V260 9999 SCT043 BKN200 32/21 Q1023 R26/CLRD70 NOSIG"
"5:00 PM EEST on June 21, 2016","2016","06","21","17","00","Europe/Kiev","2:00 PM GMT on June 21, 2016","2016","06","21","14","00","UTC","32.0","89.6","21.0","69.8","52","14.4","8.9","-9999.0","-9999.0","200","SSW","10.0","6.2","1023","30.21","-999","-999","34.9","94.7","-9999.00","-9999.00","Mostly Cloudy","mostlycloudy","0","0","0","0","0","0","METAR UKKK 211400Z 20004MPS 160V230 9999 SCT043 BKN200 32/21 Q1023 R26/CLRD70 NOSIG"
"5:30 PM EEST on June 21, 2016","2016","06","21","17","30","Europe/Kiev","2:30 PM GMT on June 21, 2016","2016","06","21","14","30","UTC","31.0","87.8","21.0","69.8","55","14.4","8.9","-9999.0","-9999.0","210","SSW","-9999.0","-9999.0","1023","30.21","-999","-999","33.7","92.6","-9999.00","-9999.00","Clear","clear","0","0","0","0","0","0","METAR UKKK 211430Z 21004MPS 170V250 CAVOK 31/21 Q1023 R26/CLRD70 NOSIG"
"6:00 PM EEST on June 21, 2016","2016","06","21","18","00","Europe/Kiev","3:00 PM GMT on June 21, 2016","2016","06","21","15","00","UTC","31","88","21","69","44","10.8","6.7","","","210","SSW","20","12","1022","30.18","-999","-999","-9999","-9999","","","Scattered Clouds","partlycloudy","0","0","0","0","0","0","AAXX 21151 33345 42698 22103 10309 20207 30030 40218 57004 82100 555 10041"
"6:00 PM EEST on June 21, 2016","2016","06","21","18","00","Europe/Kiev","3:00 PM GMT on June 21, 2016","2016","06","21","15","00","UTC","31.0","87.8","21.0","69.8","55","14.4","8.9","-9999.0","-9999.0","230","SW","-9999.0","-9999.0","1023","30.21","-999","-999","33.7","92.6","-9999.00","-9999.00","Clear","clear","0","0","0","0","0","0","METAR UKKK 211500Z 23004MPS 180V270 CAVOK 31/21 Q1023 R26/CLRD70 NOSIG"
"6:30 PM EEST on June 21, 2016","2016","06","21","18","30","Europe/Kiev","3:30 PM GMT on June 21, 2016","2016","06","21","15","30","UTC","30.0","86.0","21.0","69.8","58","14.4","8.9","-9999.0","-9999.0","240","WSW","-9999.0","-9999.0","1023","30.21","-999","-999","32.4","90.4","-9999.00","-9999.00","Clear","clear","0","0","0","0","0","0","METAR UKKK 211530Z 24004MPS 200V260 CAVOK 30/21 Q1023 R26/CLRD70 NOSIG"
"7:00 PM EEST on June 21, 2016","2016","06","21","19","00","Europe/Kiev","4:00 PM GMT on June 21, 2016","2016","06","21","16","00","UTC","31.0","87.8","21.0","69.8","55","10.8","6.7","-9999.0","-9999.0","220","SW","-9999.0","-9999.0","1023","30.21","-999","-999","33.7","92.6","-9999.00","-9999.00","Clear","clear","0","0","0","0","0","0","METAR UKKK 211600Z 22003MPS 190V250 CAVOK 31/21 Q1023 R26/CLRD70 NOSIG"
"7:30 PM EEST on June 21, 2016","2016","06","21","19","30","Europe/Kiev","4:30 PM GMT on June 21, 2016","2016","06","21","16","30","UTC","30.0","86.0","21.0","69.8","58","7.2","4.5","-9999.0","-9999.0","220","SW","-9999.0","-9999.0","1022","30.18","-999","-999","32.4","90.4","-9999.00","-9999.00","Clear","clear","0","0","0","0","0","0","METAR UKKK 211630Z 22002MPS 190V260 CAVOK 30/21 Q1022 R26/CLRD70 NOSIG"
"8:00 PM EEST on June 21, 2016","2016","06","21","20","00","Europe/Kiev","5:00 PM GMT on June 21, 2016","2016","06","21","17","00","UTC","29.0","84.2","21.0","69.8","62","7.2","4.5","-9999.0","-9999.0","230","SW","9.0","5.6","1022","30.18","-999","-999","31.3","88.4","-9999.00","-9999.00","Unknown","unknown","0","0","0","0","0","0","METAR UKKK 211700Z 23002MPS 9000 NSC 29/21 Q1022 R26/CLRD70 NOSIG"
"8:30 PM EEST on June 21, 2016","2016","06","21","20","30","Europe/Kiev","5:30 PM GMT on June 21, 2016","2016","06","21","17","30","UTC","27.0","80.6","18.0","64.4","58","7.2","4.5","-9999.0","-9999.0","230","SW","-9999.0","-9999.0","1023","30.21","-999","-999","27.9","82.3","-9999.00","-9999.00","Clear","clear","0","0","0","0","0","0","METAR UKKK 211730Z 23002MPS 190V340 CAVOK 27/18 Q1023 R26/CLRD70 NOSIG"
"9:00 PM EEST on June 21, 2016","2016","06","21","21","00","Europe/Kiev","6:00 PM GMT on June 21, 2016","2016","06","21","18","00","UTC","28","82","20","67","52","7.2","4.5","","","0","North","20","12","1022","30.18","-999","-999","-9999","-9999","","","Scattered Clouds","partlycloudy","0","0","0","0","0","0","AAXX 21181 33345 32698 33602 10278 20195 30028 40218 57002 82100 333 10317 555 10028"
"9:00 PM EEST on June 21, 2016","2016","06","21","21","00","Europe/Kiev","6:00 PM GMT on June 21, 2016","2016","06","21","18","00","UTC","26.0","78.8","17.0","62.6","57","7.2","4.5","-9999.0","-9999.0","30","NNE","-9999.0","-9999.0","1022","30.18","-999","-999","-9999","-9999","-9999.00","-9999.00","Clear","clear","0","0","0","0","0","0","METAR UKKK 211800Z 03002MPS 360V060 CAVOK 26/17 Q1022 R26/CLRD70 NOSIG"
"9:30 PM EEST on June 21, 2016","2016","06","21","21","30","Europe/Kiev","6:30 PM GMT on June 21, 2016","2016","06","21","18","30","UTC","25.0","77.0","18.0","64.4","65","7.2","4.5","-9999.0","-9999.0","120","ESE","-9999.0","-9999.0","1022","30.18","-999","-999","-9999","-9999","-9999.00","-9999.00","Clear","clear","0","0","0","0","0","0","METAR UKKK 211830Z 12002MPS CAVOK 25/18 Q1022 R08/CLRD70 NOSIG"
"10:00 PM EEST on June 21, 2016","2016","06","21","22","00","Europe/Kiev","7:00 PM GMT on June 21, 2016","2016","06","21","19","00","UTC","25.0","77.0","18.0","64.4","65","7.2","4.5","-9999.0","-9999.0","340","NNW","-9999.0","-9999.0","1023","30.21","-999","-999","-9999","-9999","-9999.00","-9999.00","Clear","clear","0","0","0","0","0","0","METAR UKKK 211900Z 34002MPS 320V020 CAVOK 25/18 Q1023 R08/CLRD70 NOSIG"
"10:30 PM EEST on June 21, 2016","2016","06","21","22","30","Europe/Kiev","7:30 PM GMT on June 21, 2016","2016","06","21","19","30","UTC","24.0","75.2","18.0","64.4","69","0.0","0.0","-9999.0","-9999.0","0","North","-9999.0","-9999.0","1023","30.21","-999","-999","-9999","-9999","-9999.00","-9999.00","Clear","clear","0","0","0","0","0","0","METAR UKKK 211930Z 00000MPS CAVOK 24/18 Q1023 R08/CLRD70 NOSIG"
"11:00 PM EEST on June 21, 2016","2016","06","21","23","00","Europe/Kiev","8:00 PM GMT on June 21, 2016","2016","06","21","20","00","UTC","23.0","73.4","19.0","66.2","78","0.0","0.0","-9999.0","-9999.0","0","North","6.0","3.7","1023","30.21","-999","-999","-9999","-9999","-9999.00","-9999.00","Unknown","unknown","0","0","0","0","0","0","METAR UKKK 212000Z 00000MPS 6000 NSC 23/19 Q1023 R08/CLRD70 NOSIG"
"11:30 PM EEST on June 21, 2016","2016","06","21","23","30","Europe/Kiev","8:30 PM GMT on June 21, 2016","2016","06","21","20","30","UTC","23.0","73.4","19.0","66.2","78","0.0","0.0","-9999.0","-9999.0","0","North","7.0","4.3","1023","30.21","-999","-999","-9999","-9999","-9999.00","-9999.00","Unknown","unknown","0","0","0","0","0","0","METAR UKKK 212030Z 00000MPS 7000 NSC 23/19 Q1023 R08/CLRD70 NOSIG"
"12:00 AM EEST on June 22, 2016","2016","06","22","00","00","Europe/Kiev","9:00 PM GMT on June 21, 2016","2016","06","21","21","00","UTC","24","75","18","65","64","0.0","0.0","","","","","20","12","1023","30.20","-999","-999","-9999","-9999","","","Clear","clear","0","0","0","0","0","0","AAXX 21211 33345 42998 20000 10239 20184 30034 40227 53006 80001 555 10024"
"12:00 AM EEST on June 22, 2016","2016","06","22","00","00","Europe/Kiev","9:00 PM GMT on June 21, 2016","2016","06","21","21","00","UTC","22.0","71.6","19.0","66.2","83","0.0","0.0","-9999.0","-9999.0","0","North","9.0","5.6","1023","30.21","-999","-999","-9999","-9999","-9999.00","-9999.00","Unknown","unknown","0","0","0","0","0","0","METAR UKKK 212100Z 00000MPS 9000 NSC 22/19 Q1023 R08/CLRD70 NOSIG"
"12:30 AM EEST on June 22, 2016","2016","06","22","00","30","Europe/Kiev","9:30 PM GMT on June 21, 2016","2016","06","21","21","30","UTC","23.0","73.4","19.0","66.2","78","3.6","2.2","-9999.0","-9999.0","260","West","10.0","6.2","1023","30.21","-999","-999","-9999","-9999","-9999.00","-9999.00","Unknown","unknown","0","0","0","0","0","0","METAR UKKK 212130Z 26001MPS 9999 NSC 23/19 Q1023 R08/CLRD70 NOSIG"
"1:00 AM EEST on June 22, 2016","2016","06","22","01","00","Europe/Kiev","10:00 PM GMT on June 21, 2016","2016","06","21","22","00","UTC","24.0","75.2","19.0","66.2","73","3.6","2.2","-9999.0","-9999.0","0","Variable","8.0","5.0","1023","30.21","-999","-999","-9999","-9999","-9999.00","-9999.00","Unknown","unknown","0","0","0","0","0","0","METAR UKKK 212200Z VRB01MPS 8000 NSC 24/19 Q1023 R26/CLRD70 NOSIG"
"1:30 AM EEST on June 22, 2016","2016","06","22","01","30","Europe/Kiev","10:30 PM GMT on June 21, 2016","2016","06","21","22","30","UTC","23.0","73.4","19.0","66.2","78","7.2","4.5","-9999.0","-9999.0","80","East","-9999.0","-9999.0","1023","30.21","-999","-999","-9999","-9999","-9999.00","-9999.00","Clear","clear","0","0","0","0","0","0","METAR UKKK 212230Z 08002MPS 050V110 CAVOK 23/19 Q1023 R26/CLRD70 NOSIG"
"2:00 AM EEST on June 22, 2016","2016","06","22","02","00","Europe/Kiev","11:00 PM GMT on June 21, 2016","2016","06","21","23","00","UTC","23.0","73.4","19.0","66.2","78","3.6","2.2","-9999.0","-9999.0","100","East","-9999.0","-9999.0","1023","30.21","-999","-999","-9999","-9999","-9999.00","-9999.00","Clear","clear","0","0","0","0","0","0","METAR UKKK 212300Z 10001MPS CAVOK 23/19 Q1023 R26/CLRD70 NOSIG"
"2:30 AM EEST on June 22, 2016","2016","06","22","02","30","Europe/Kiev","11:30 PM GMT on June 21, 2016","2016","06","21","23","30","UTC","22.0","71.6","19.0","66.2","83","7.2","4.5","-9999.0","-9999.0","70","ENE","-9999.0","-9999.0","1023","30.21","-999","-999","-9999","-9999","-9999.00","-9999.00","Clear","clear","0","0","0","0","0","0","METAR UKKK 212330Z 07002MPS CAVOK 22/19 Q1023 R08/CLRD70 NOSIG"
"3:00 AM EEST on June 22, 2016","2016","06","22","03","00","Europe/Kiev","12:00 AM GMT on June 22, 2016","2016","06","22","00","00","UTC","23","73","18","65","70","3.6","2.2","","","60","ENE","20","12","1023","30.20","-999","-999","-9999","-9999","","","Scattered Clouds","partlycloudy","0","0","0","0","0","0","AAXX 22001 33345 32998 20601 10228 20185 30033 40227 58001 82030 555 10023"
"3:00 AM EEST on June 22, 2016","2016","06","22","03","00","Europe/Kiev","12:00 AM GMT on June 22, 2016","2016","06","22","00","00","UTC","22.0","71.6","19.0","66.2","83","7.2","4.5","-9999.0","-9999.0","90","East","-9999.0","-9999.0","1023","30.21","-999","-999","-9999","-9999","-9999.00","-9999.00","Clear","clear","0","0","0","0","0","0","METAR UKKK 220000Z 09002MPS CAVOK 22/19 Q1023 R08/CLRD70 NOSIG"
"3:30 AM EEST on June 22, 2016","2016","06","22","03","30","Europe/Kiev","12:30 AM GMT on June 22, 2016","2016","06","22","00","30","UTC","22.0","71.6","19.0","66.2","83","7.2","4.5","-9999.0","-9999.0","80","East","-9999.0","-9999.0","1023","30.21","-999","-999","-9999","-9999","-9999.00","-9999.00","Clear","clear","0","0","0","0","0","0","METAR UKKK 220030Z 08002MPS CAVOK 22/19 Q1023 R08/CLRD70 NOSIG"
"4:00 AM EEST on June 22, 2016","2016","06","22","04","00","Europe/Kiev","1:00 AM GMT on June 22, 2016","2016","06","22","01","00","UTC","21.0","69.8","19.0","66.2","88","3.6","2.2","-9999.0","-9999.0","80","East","-9999.0","-9999.0","1023","30.21","-999","-999","-9999","-9999","-9999.00","-9999.00","Clear","clear","0","0","0","0","0","0","METAR UKKK 220100Z 08001MPS CAVOK 21/19 Q1023 R08/CLRD70 NOSIG"
"4:30 AM EEST on June 22, 2016","2016","06","22","04","30","Europe/Kiev","1:30 AM GMT on June 22, 2016","2016","06","22","01","30","UTC","21.0","69.8","19.0","66.2","88","7.2","4.5","-9999.0","-9999.0","110","ESE","-9999.0","-9999.0","1023","30.21","-999","-999","-9999","-9999","-9999.00","-9999.00","Clear","clear","0","0","0","0","0","0","METAR UKKK 220130Z 11002MPS CAVOK 21/19 Q1023 R08/CLRD70 NOSIG"
"5:00 AM EEST on June 22, 2016","2016","06","22","05","00","Europe/Kiev","2:00 AM GMT on June 22, 2016","2016","06","22","02","00","UTC","21.0","69.8","20.0","68.0","94","0.0","0.0","-9999.0","-9999.0","0","North","9.0","5.6","1023","30.21","-999","-999","-9999","-9999","-9999.00","-9999.00","Unknown","unknown","0","0","0","0","0","0","METAR UKKK 220200Z 00000MPS 9000 NSC 21/20 Q1023 R08/CLRD70 NOSIG"
"5:30 AM EEST on June 22, 2016","2016","06","22","05","30","Europe/Kiev","2:30 AM GMT on June 22, 2016","2016","06","22","02","30","UTC","23.0","73.4","20.0","68.0","83","7.2","4.5","-9999.0","-9999.0","330","NNW","-9999.0","-9999.0","1023","30.21","-999","-999","-9999","-9999","-9999.00","-9999.00","Clear","clear","0","0","0","0","0","0","METAR UKKK 220230Z 33002MPS CAVOK 23/20 Q1023 R08/CLRD70 NOSIG"
"6:00 AM EEST on June 22, 2016","2016","06","22","06","00","Europe/Kiev","3:00 AM GMT on June 22, 2016","2016","06","22","03","00","UTC","22","72","19","66","76","3.6","2.2","","","340","NNW","20","12","1023","30.20","-999","-999","-9999","-9999","","","Scattered Clouds","partlycloudy","0","0","0","0","0","0","AAXX 22031 33345 42698 43401 10225 20189 30032 40226 57001 82130 555 10023"
"6:00 AM EEST on June 22, 2016","2016","06","22","06","00","Europe/Kiev","3:00 AM GMT on June 22, 2016","2016","06","22","03","00","UTC","23.0","73.4","20.0","68.0","83","3.6","2.2","-9999.0","-9999.0","0","Variable","-9999.0","-9999.0","1023","30.21","-999","-999","-9999","-9999","-9999.00","-9999.00","Clear","clear","0","0","0","0","0","0","METAR UKKK 220300Z VRB01MPS CAVOK 23/20 Q1023 R08/CLRD70 NOSIG"
"6:30 AM EEST on June 22, 2016","2016","06","22","06","30","Europe/Kiev","3:30 AM GMT on June 22, 2016","2016","06","22","03","30","UTC","23.0","73.4","21.0","69.8","88","7.2","4.5","-9999.0","-9999.0","70","ENE","-9999.0","-9999.0","1023","30.21","-999","-999","-9999","-9999","-9999.00","-9999.00","Clear","clear","0","0","0","0","0","0","METAR UKKK 220330Z 07002MPS CAVOK 23/21 Q1023 R08/CLRD70 NOSIG"
"7:00 AM EEST on June 22, 2016","2016","06","22","07","00","Europe/Kiev","4:00 AM GMT on June 22, 2016","2016","06","22","04","00","UTC","24.0","75.2","20.0","68.0","78","10.8","6.7","-9999.0","-9999.0","30","NNE","-9999.0","-9999.0","1023","30.21","-999","-999","-9999","-9999","-9999.00","-9999.00","Clear","clear","0","0","0","0","0","0","METAR UKKK 220400Z 03003MPS CAVOK 24/20 Q1023 R08/CLRD70 NOSIG"
"7:30 AM EEST on June 22, 2016","2016","06","22","07","30","Europe/Kiev","4:30 AM GMT on June 22, 2016","2016","06","22","04","30","UTC","25.0","77.0","20.0","68.0","74","10.8","6.7","-9999.0","-9999.0","30","NNE","10.0","6.2","1024","30.24","-999","-999","-9999","-9999","-9999.00","-9999.00","Mostly Cloudy","mostlycloudy","0","0","0","0","0","0","METAR UKKK 220430Z 03003MPS 9999 SCT045 BKN200 25/20 Q1024 R08/CLRD70 NOSIG"
"8:00 AM EEST on June 22, 2016","2016","06","22","08","00","Europe/Kiev","5:00 AM GMT on June 22, 2016","2016","06","22","05","00","UTC","24.0","75.2","18.0","64.4","69","18.0","11.2","-9999.0","-9999.0","30","NNE","10.0","6.2","1024","30.24","-999","-999","-9999","-9999","-9999.00","-9999.00","Mostly Cloudy","mostlycloudy","0","0","0","0","0","0","METAR UKKK 220500Z 03005MPS 9999 BKN044 24/18 Q1024 R08/CLRD70 NOSIG"
"8:30 AM EEST on June 22, 2016","2016","06","22","08","30","Europe/Kiev","5:30 AM GMT on June 22, 2016","2016","06","22","05","30","UTC","25.0","77.0","18.0","64.4","65","14.4","8.9","-9999.0","-9999.0","60","ENE","-9999.0","-9999.0","1023","30.21","-999","-999","-9999","-9999","-9999.00","-9999.00","Clear","clear","0","0","0","0","0","0","METAR UKKK 220530Z 06004MPS CAVOK 25/18 Q1023 R08/CLRD70 NOSIG"
"9:00 AM EEST on June 22, 2016","2016","06","22","09","00","Europe/Kiev","6:00 AM GMT on June 22, 2016","2016","06","22","06","00","UTC","26","78","18","65","56","3.6","2.2","","","60","ENE","20","12","1023","30.20","-999","-999","-9999","-9999","","","Scattered Clouds","partlycloudy","0","0","0","0","0","0","AAXX 22061 33345 32998 40601 10255 20184 30035 40227 53003 82031 333 20216 555 10037"
"9:00 AM EEST on June 22, 2016","2016","06","22","09","00","Europe/Kiev","6:00 AM GMT on June 22, 2016","2016","06","22","06","00","UTC","26.0","78.8","19.0","66.2","65","10.8","6.7","-9999.0","-9999.0","60","ENE","-9999.0","-9999.0","1023","30.21","-999","-999","-9999","-9999","-9999.00","-9999.00","Clear","clear","0","0","0","0","0","0","METAR UKKK 220600Z 06003MPS CAVOK 26/19 Q1023 R08/CLRD70 NOSIG"
"9:30 AM EEST on June 22, 2016","2016","06","22","09","30","Europe/Kiev","6:30 AM GMT on June 22, 2016","2016","06","22","06","30","UTC","26.0","78.8","19.0","66.2","65","14.4","8.9","-9999.0","-9999.0","10","North","10.0","6.2","1024","30.24","-999","-999","-9999","-9999","-9999.00","-9999.00","Mostly Cloudy","mostlycloudy","0","0","0","0","0","0","METAR UKKK 220630Z 01004MPS 340V050 9999 SCT043 BKN200 26/19 Q1024 R08/CLRD70 NOSIG"
"10:00 AM EEST on June 22, 2016","2016","06","22","10","00","Europe/Kiev","7:00 AM GMT on June 22, 2016","2016","06","22","07","00","UTC","26.0","78.8","18.0","64.4","61","18.0","11.2","-9999.0","-9999.0","30","NNE","10.0","6.2","1024","30.24","-999","-999","-9999","-9999","-9999.00","-9999.00","Mostly Cloudy","mostlycloudy","0","0","0","0","0","0","METAR UKKK 220700Z 03005MPS 360V060 9999 SCT043 BKN200 26/18 Q1024 R08/CLRD70 NOSIG"
"10:30 AM EEST on June 22, 2016","2016","06","22","10","30","Europe/Kiev","7:30 AM GMT on June 22, 2016","2016","06","22","07","30","UTC","25.0","77.0","19.0","66.2","69","21.6","13.4","-9999.0","-9999.0","30","NNE","10.0","6.2","1024","30.24","-999","-999","-9999","-9999","-9999.00","-9999.00","Mostly Cloudy","mostlycloudy","0","0","0","0","0","0","METAR UKKK 220730Z 03006MPS 9999 BKN043 25/19 Q1024 R08/CLRD70 NOSIG"
"11:00 AM EEST on June 22, 2016","2016","06","22","11","00","Europe/Kiev","8:00 AM GMT on June 22, 2016","2016","06","22","08","00","UTC","25.0","77.0","18.0","64.4","65","21.6","13.4","-9999.0","-9999.0","40","NE","-9999.0","-9999.0","1024","30.24","-999","-999","-9999","-9999","-9999.00","-9999.00","Clear","clear","0","0","0","0","0","0","METAR UKKK 220800Z 04006MPS CAVOK 25/18 Q1024 R08/CLRD70 NOSIG"
"11:30 AM EEST on June 22, 2016","2016","06","22","11","30","Europe/Kiev","8:30 AM GMT on June 22, 2016","2016","06","22","08","30","UTC","25.0","77.0","19.0","66.2","69","18.0","11.2","-9999.0","-9999.0","50","NE","-9999.0","-9999.0","1024","30.24","-999","-999","-9999","-9999","-9999.00","-9999.00","Clear","clear","0","0","0","0","0","0","METAR UKKK 220830Z 05005MPS CAVOK 25/19 Q1024 R08/CLRD70 NOSIG"
"12:00 PM EEST on June 22, 2016","2016","06","22","12","00","Europe/Kiev","9:00 AM GMT on June 22, 2016","2016","06","22","09","00","UTC","25","78","19","66","57","10.8","6.7","","","40","NE","20","12","1024","30.23","-999","-999","-9999","-9999","","","Mostly Cloudy","mostlycloudy","0","0","0","0","0","0","AAXX 22091 33345 42998 70403 10254 20187 30045 40237 52010 86075 555 10034"
"12:00 PM EEST on June 22, 2016","2016","06","22","12","00","Europe/Kiev","9:00 AM GMT on June 22, 2016","2016","06","22","09","00","UTC","25.0","77.0","18.0","64.4","65","18.0","11.2","-9999.0","-9999.0","30","NNE","-9999.0","-9999.0","1024","30.24","-999","-999","-9999","-9999","-9999.00","-9999.00","Clear","clear","0","0","0","0","0","0","METAR UKKK 220900Z 03005MPS 360V060 CAVOK 25/18 Q1024 R08/CLRD70 NOSIG"
"12:30 PM EEST on June 22, 2016","2016","06","22","12","30","Europe/Kiev","9:30 AM GMT on June 22, 2016","2016","06","22","09","30","UTC","26.0","78.8","18.0","64.4","61","18.0","11.2","-9999.0","-9999.0","20","NNE","-9999.0","-9999.0","1025","30.27","-999","-999","-9999","-9999","-9999.00","-9999.00","Clear","clear","0","0","0","0","0","0","METAR UKKK 220930Z 02005MPS CAVOK 26/18 Q1025 R08/CLRD70 NOSIG"
"1:00 PM EEST on June 22, 2016","2016","06","22","13","00","Europe/Kiev","10:00 AM GMT on June 22, 2016","2016","06","22","10","00","UTC","26.0","78.8","18.0","64.4","61","18.0","11.2","-9999.0","-9999.0","60","ENE","-9999.0","-9999.0","1024","30.24","-999","-999","-9999","-9999","-9999.00","-9999.00","Clear","clear","0","0","0","0","0","0","METAR UKKK 221000Z 06005MPS CAVOK 26/18 Q1024 R08/CLRD70 NOSIG"
"1:30 PM EEST on June 22, 2016","2016","06","22","13","30","Europe/Kiev","10:30 AM GMT on June 22, 2016","2016","06","22","10","30","UTC","26.0","78.8","18.0","64.4","61","18.0","11.2","-9999.0","-9999.0","50","NE","10.0","6.2","1024","30.24","-999","-999","-9999","-9999","-9999.00","-9999.00","Mostly Cloudy","mostlycloudy","0","0","0","0","0","0","METAR UKKK 221030Z 05005MPS 9999 SCT043 BKN200 26/18 Q1024 R08/CLRD70 NOSIG"
"2:00 PM EEST on June 22, 2016","2016","06","22","14","00","Europe/Kiev","11:00 AM GMT on June 22, 2016","2016","06","22","11","00","UTC","26.0","78.8","18.0","64.4","61","18.0","11.2","-9999.0","-9999.0","30","NNE","10.0","6.2","1024","30.24","-999","-999","-9999","-9999","-9999.00","-9999.00","Mostly Cloudy","mostlycloudy","0","0","0","0","0","0","METAR UKKK 221100Z 03005MPS 9999 BKN043 26/18 Q1024 R08/CLRD70 NOSIG"
"2:30 PM EEST on June 22, 2016","2016","06","22","14","30","Europe/Kiev","11:30 AM GMT on June 22, 2016","2016","06","22","11","30","UTC","27.0","80.6","19.0","66.2","61","18.0","11.2","-9999.0","-9999.0","50","NE","-9999.0","-9999.0","1024","30.24","-999","-999","28.2","82.7","-9999.00","-9999.00","Clear","clear","0","0","0","0","0","0","METAR UKKK 221130Z 05005MPS 360V090 CAVOK 27/19 Q1024 R08/CLRD70 NOSIG"
"3:00 PM EEST on June 22, 2016","2016","06","22","15","00","Europe/Kiev","12:00 PM GMT on June 22, 2016","2016","06","22","12","00","UTC","26","80","19","66","53","7.2","4.5","","","70","ENE","20","12","1024","30.23","-999","-999","-9999","-9999","","","Mostly Cloudy","mostlycloudy","0","0","0","0","0","0","AAXX 22121 33345 32998 60702 10265 20187 30045 40237 54000 86070 555 10035"
"3:00 PM EEST on June 22, 2016","2016","06","22","15","00","Europe/Kiev","12:00 PM GMT on June 22, 2016","2016","06","22","12","00","UTC","27.0","80.6","19.0","66.2","61","14.4","8.9","-9999.0","-9999.0","80","East","-9999.0","-9999.0","1024","30.24","-999","-999","28.2","82.7","-9999.00","-9999.00","Clear","clear","0","0","0","0","0","0","METAR UKKK 221200Z 08004MPS CAVOK 27/19 Q1024 R08/CLRD70 NOSIG"
"3:30 PM EEST on June 22, 2016","2016","06","22","15","30","Europe/Kiev","12:30 PM GMT on June 22, 2016","2016","06","22","12","30","UTC","27.0","80.6","19.0","66.2","61","14.4","8.9","-9999.0","-9999.0","60","ENE","-9999.0","-9999.0","1024","30.24","-999","-999","28.2","82.7","-9999.00","-9999.00","Clear","clear","0","0","0","0","0","0","METAR UKKK 221230Z 06004MPS 030V100 CAVOK 27/19 Q1024 R08/CLRD70 NOSIG"
"4:00 PM EEST on June 22, 2016","2016","06","22","16","00","Europe/Kiev","1:00 PM GMT on June 22, 2016","2016","06","22","13","00","UTC","28.0","82.4","19.0","66.2","58","14.4","8.9","-9999.0","-9999.0","50","NE","-9999.0","-9999.0","1024","30.24","-999","-999","29.2","84.6","-9999.00","-9999.00","Clear","clear","0","0","0","0","0","0","METAR UKKK 221300Z 05004MPS 010V100 CAVOK 28/19 Q1024 R08/CLRD70 NOSIG"
"4:30 PM EEST on June 22, 2016","2016","06","22","16","30","Europe/Kiev","1:30 PM GMT on June 22, 2016","2016","06","22","13","30","UTC","28.0","82.4","19.0","66.2","58","10.8","6.7","-9999.0","-9999.0","60","ENE","-9999.0","-9999.0","1024","30.24","-999","-999","29.2","84.6","-9999.00","-9999.00","Clear","clear","0","0","0","0","0","0","METAR UKKK 221330Z 06003MPS 010V100 CAVOK 28/19 Q1024 R08/CLRD70 NOSIG"
"5:00 PM EEST on June 22, 2016","2016","06","22","17","00","Europe/Kiev","2:00 PM GMT on June 22, 2016","2016","06","22","14","00","UTC","28.0","82.4","20.0","68.0","62","10.8","6.7","-9999.0","-9999.0","70","ENE","-9999.0","-9999.0","1024","30.24","-999","-999","29.7","85.4","-9999.00","-9999.00","Clear","clear","0","0","0","0","0","0","METAR UKKK 221400Z 07003MPS 040V110 CAVOK 28/20 Q1024 R08/CLRD70 NOSIG"
"5:30 PM EEST on June 22, 2016","2016","06","22","17","30","Europe/Kiev","2:30 PM GMT on June 22, 2016","2016","06","22","14","30","UTC","28.0","82.4","19.0","66.2","58","14.4","8.9","-9999.0","-9999.0","60","ENE","-9999.0","-9999.0","1024","30.24","-999","-999","29.2","84.6","-9999.00","-9999.00","Clear","clear","0","0","0","0","0","0","METAR UKKK 221430Z 06004MPS CAVOK 28/19 Q1024 R08/CLRD70 NOSIG"
"6:00 PM EEST on June 22, 2016","2016","06","22","18","00","Europe/Kiev","3:00 PM GMT on June 22, 2016","2016","06","22","15","00","UTC","28","82","18","65","46","10.8","6.7","","","30","NNE","20","12","1023","30.21","-999","-999","-9999","-9999","","","Clear","clear","0","0","0","0","0","0","AAXX 22151 33345 42998 20303 10280 20181 30038 40229 58007 80001 555 10037"
"6:00 PM EEST on June 22, 2016","2016","06","22","18","00","Europe/Kiev","3:00 PM GMT on June 22, 2016","2016","06","22","15","00","UTC","28.0","82.4","19.0","66.2","58","14.4","8.9","-9999.0","-9999.0","50","NE","-9999.0","-9999.0","1024","30.24","-999","-999","29.2","84.6","-9999.00","-9999.00","Clear","clear","0","0","0","0","0","0","METAR UKKK 221500Z 05004MPS 010V080 CAVOK 28/19 Q1024 R08/CLRD70 NOSIG"
"6:30 PM EEST on June 22, 2016","2016","06","22","18","30","Europe/Kiev","3:30 PM GMT on June 22, 2016","2016","06","22","15","30","UTC","28.0","82.4","19.0","66.2","58","14.4","8.9","-9999.0","-9999.0","30","NNE","-9999.0","-9999.0","1023","30.21","-999","-999","29.2","84.6","-9999.00","-9999.00","Clear","clear","0","0","0","0","0","0","METAR UKKK 221530Z 03004MPS 360V060 CAVOK 28/19 Q1023 R08/CLRD70 NOSIG"
"7:00 PM EEST on June 22, 2016","2016","06","22","19","00","Europe/Kiev","4:00 PM GMT on June 22, 2016","2016","06","22","16","00","UTC","27.0","80.6","18.0","64.4","58","18.0","11.2","-9999.0","-9999.0","20","NNE","-9999.0","-9999.0","1024","30.24","-999","-999","27.9","82.3","-9999.00","-9999.00","Clear","clear","0","0","0","0","0","0","METAR UKKK 221600Z 02005MPS CAVOK 27/18 Q1024 R08/CLRD70 NOSIG"
"7:30 PM EEST on June 22, 2016","2016","06","22","19","30","Europe/Kiev","4:30 PM GMT on June 22, 2016","2016","06","22","16","30","UTC","26.0","78.8","18.0","64.4","61","21.6","13.4","-9999.0","-9999.0","30","NNE","-9999.0","-9999.0","1024","30.24","-999","-999","-9999","-9999","-9999.00","-9999.00","Clear","clear","0","0","0","0","0","0","METAR UKKK 221630Z 03006MPS CAVOK 26/18 Q1024 R08/CLRD70 NOSIG"
"8:00 PM EEST on June 22, 2016","2016","06","22","20","00","Europe/Kiev","5:00 PM GMT on June 22, 2016","2016","06","22","17","00","UTC","26.0","78.8","18.0","64.4","61","14.4","8.9","-9999.0","-9999.0","30","NNE","10.0","6.2","1024","30.24","-999","-999","-9999","-9999","-9999.00","-9999.00","Mostly Cloudy","mostlycloudy","0","0","0","0","0","0","METAR UKKK 221700Z 03004MPS 9999 SCT046 BKN200 26/18 Q1024 R08/CLRD70 NOSIG"
"8:30 PM EEST on June 22, 2016","2016","06","22","20","30","Europe/Kiev","5:30 PM GMT on June 22, 2016","2016","06","22","17","30","UTC","25.0","77.0","17.0","62.6","61","14.4","8.9","-9999.0","-9999.0","40","NE","-9999.0","-9999.0","1024","30.24","-999","-999","-9999","-9999","-9999.00","-9999.00","Clear","clear","0","0","0","0","0","0","METAR UKKK 221730Z 04004MPS CAVOK 25/17 Q1024 R08/CLRD70 NOSIG"
"9:00 PM EEST on June 22, 2016","2016","06","22","21","00","Europe/Kiev","6:00 PM GMT on June 22, 2016","2016","06","22","18","00","UTC","25","77","17","62","51","7.2","4.5","","","50","NE","20","12","1024","30.24","-999","-999","-9999","-9999","","","Mostly Cloudy","mostlycloudy","0","0","0","0","0","0","AAXX 22181 33345 32998 60502 10251 20167 30047 40240 53009 86040 333 10282 555 10025"
"9:00 PM EEST on June 22, 2016","2016","06","22","21","00","Europe/Kiev","6:00 PM GMT on June 22, 2016","2016","06","22","18","00","UTC","25.0","77.0","17.0","62.6","61","14.4","8.9","-9999.0","-9999.0","50","NE","-9999.0","-9999.0","1025","30.27","-999","-999","-9999","-9999","-9999.00","-9999.00","Clear","clear","0","0","0","0","0","0","METAR UKKK 221800Z 05004MPS CAVOK 25/17 Q1025 R08/CLRD70 NOSIG"
"9:30 PM EEST on June 22, 2016","2016","06","22","21","30","Europe/Kiev","6:30 PM GMT on June 22, 2016","2016","06","22","18","30","UTC","25.0","77.0","18.0","64.4","65","18.0","11.2","-9999.0","-9999.0","50","NE","-9999.0","-9999.0","1025","30.27","-999","-999","-9999","-9999","-9999.00","-9999.00","Clear","clear","0","0","0","0","0","0","METAR UKKK 221830Z 05005MPS CAVOK 25/18 Q1025 R08/CLRD70 NOSIG"
"10:00 PM EEST on June 22, 2016","2016","06","22","22","00","Europe/Kiev","7:00 PM GMT on June 22, 2016","2016","06","22","19","00","UTC","24.0","75.2","18.0","64.4","69","14.4","8.9","-9999.0","-9999.0","70","ENE","-9999.0","-9999.0","1025","30.27","-999","-999","-9999","-9999","-9999.00","-9999.00","Clear","clear","0","0","0","0","0","0","METAR UKKK 221900Z 07004MPS CAVOK 24/18 Q1025 R08/CLRD70 NOSIG"
"10:30 PM EEST on June 22, 2016","2016","06","22","22","30","Europe/Kiev","7:30 PM GMT on June 22, 2016","2016","06","22","19","30","UTC","23.0","73.4","18.0","64.4","73","10.8","6.7","-9999.0","-9999.0","60","ENE","-9999.0","-9999.0","1025","30.27","-999","-999","-9999","-9999","-9999.00","-9999.00","Clear","clear","0","0","0","0","0","0","METAR UKKK 221930Z 06003MPS CAVOK 23/18 Q1025 R08/CLRD70 NOSIG"
"11:00 PM EEST on June 22, 2016","2016","06","22","23","00","Europe/Kiev","8:00 PM GMT on June 22, 2016","2016","06","22","20","00","UTC","23.0","73.4","18.0","64.4","73","10.8","6.7","-9999.0","-9999.0","50","NE","-9999.0","-9999.0","1025","30.27","-999","-999","-9999","-9999","-9999.00","-9999.00","Clear","clear","0","0","0","0","0","0","METAR UKKK 222000Z 05003MPS CAVOK 23/18 Q1025 R08/CLRD70 NOSIG"
"11:30 PM EEST on June 22, 2016","2016","06","22","23","30","Europe/Kiev","8:30 PM GMT on June 22, 2016","2016","06","22","20","30","UTC","22.0","71.6","18.0","64.4","78","7.2","4.5","-9999.0","-9999.0","70","ENE","-9999.0","-9999.0","1025","30.27","-999","-999","-9999","-9999","-9999.00","-9999.00","Clear","clear","0","0","0","0","0","0","METAR UKKK 222030Z 07002MPS CAVOK 22/18 Q1025 R08/CLRD70 NOSIG"
"12:00 AM EEST on June 23, 2016","2016","06","23","00","00","Europe/Kiev","9:00 PM GMT on June 22, 2016","2016","06","22","21","00","UTC","23","73","16","61","57","3.6","2.2","","","40","NE","20","12","1025","30.27","-999","-999","-9999","-9999","","","Mostly Cloudy","mostlycloudy","0","0","0","0","0","0","AAXX 22211 33345 42998 70401 10226 20160 30055 40250 52008 87040 555 10022"
"12:00 AM EEST on June 23, 2016","2016","06","23","00","00","Europe/Kiev","9:00 PM GMT on June 22, 2016","2016","06","22","21","00","UTC","22.0","71.6","18.0","64.4","78","3.6","2.2","-9999.0","-9999.0","90","East","-9999.0","-9999.0","1025","30.27","-999","-999","-9999","-9999","-9999.00","-9999.00","Clear","clear","0","0","0","0","0","0","METAR UKKK 222100Z 09001MPS CAVOK 22/18 Q1025 R08/CLRD70 NOSIG"
"12:30 AM EEST on June 23, 2016","2016","06","23","00","30","Europe/Kiev","9:30 PM GMT on June 22, 2016","2016","06","22","21","30","UTC","21.0","69.8","18.0","64.4","83","3.6","2.2","-9999.0","-9999.0","60","ENE","-9999.0","-9999.0","1025","30.27","-999","-999","-9999","-9999","-9999.00","-9999.00","Clear","clear","0","0","0","0","0","0","METAR UKKK 222130Z 06001MPS CAVOK 21/18 Q1025 R08/CLRD70 NOSIG"
"1:00 AM EEST on June 23, 2016","2016","06","23","01","00","Europe/Kiev","10:00 PM GMT on June 22, 2016","2016","06","22","22","00","UTC","20.0","68.0","17.0","62.6","83","7.2","4.5","-9999.0","-9999.0","40","NE","-9999.0","-9999.0","1025","30.27","-999","-999","-9999","-9999","-9999.00","-9999.00","Clear","clear","0","0","0","0","0","0","METAR UKKK 222200Z 04002MPS CAVOK 20/17 Q1025 R08/CLRD70 NOSIG"
"1:30 AM EEST on June 23, 2016","2016","06","23","01","30","Europe/Kiev","10:30 PM GMT on June 22, 2016","2016","06","22","22","30","UTC","20.0","68.0","17.0","62.6","83","7.2","4.5","-9999.0","-9999.0","80","East","-9999.0","-9999.0","1025","30.27","-999","-999","-9999","-9999","-9999.00","-9999.00","Clear","clear","0","0","0","0","0","0","METAR UKKK 222230Z 08002MPS 050V110 CAVOK 20/17 Q1025 R08/CLRD70 NOSIG"
"2:00 AM EEST on June 23, 2016","2016","06","23","02","00","Europe/Kiev","11:00 PM GMT on June 22, 2016","2016","06","22","23","00","UTC","19.0","66.2","17.0","62.6","88","7.2","4.5","-9999.0","-9999.0","80","East","-9999.0","-9999.0","1025","30.27","-999","-999","-9999","-9999","-9999.00","-9999.00","Clear","clear","0","0","0","0","0","0","METAR UKKK 222300Z 08002MPS CAVOK 19/17 Q1025 R08/CLRD70 NOSIG"
"2:30 AM EEST on June 23, 2016","2016","06","23","02","30","Europe/Kiev","11:30 PM GMT on June 22, 2016","2016","06","22","23","30","UTC","19.0","66.2","17.0","62.6","88","7.2","4.5","-9999.0","-9999.0","110","ESE","-9999.0","-9999.0","1026","30.30","-999","-999","-9999","-9999","-9999.00","-9999.00","Clear","clear","0","0","0","0","0","0","METAR UKKK 222330Z 11002MPS CAVOK 19/17 Q1026 R08/CLRD70 NOSIG"
"3:00 AM EEST on June 23, 2016","2016","06","23","03","00","Europe/Kiev","12:00 AM GMT on June 23, 2016","2016","06","23","00","00","UTC","21","70","17","63","73","3.6","2.2","","","50","NE","20","12","1025","30.28","-999","-999","-9999","-9999","","","Mostly Cloudy","mostlycloudy","0","0","0","0","0","0","AAXX 23001 33345 32998 70501 10213 20174 30058 40254 51003 87030 555 10020"
"3:00 AM EEST on June 23, 2016","2016","06","23","03","00","Europe/Kiev","12:00 AM GMT on June 23, 2016","2016","06","23","00","00","UTC","20.0","68.0","18.0","64.4","88","7.2","4.5","-9999.0","-9999.0","40","NE","-9999.0","-9999.0","1026","30.30","-999","-999","-9999","-9999","-9999.00","-9999.00","Clear","clear","0","0","0","0","0","0","METAR UKKK 230000Z 04002MPS CAVOK 20/18 Q1026 R08/CLRD70 NOSIG"
"3:30 AM EEST on June 23, 2016","2016","06","23","03","30","Europe/Kiev","12:30 AM GMT on June 23, 2016","2016","06","23","00","30","UTC","20.0","68.0","18.0","64.4","88","10.8","6.7","-9999.0","-9999.0","80","East","-9999.0","-9999.0","1025","30.27","-999","-999","-9999","-9999","-9999.00","-9999.00","Clear","clear","0","0","0","0","0","0","METAR UKKK 230030Z 08003MPS 050V110 CAVOK 20/18 Q1025 R08/CLRD70 NOSIG"
"4:00 AM EEST on June 23, 2016","2016","06","23","04","00","Europe/Kiev","1:00 AM GMT on June 23, 2016","2016","06","23","01","00","UTC","19.0","66.2","17.0","62.6","88","7.2","4.5","-9999.0","-9999.0","70","ENE","-9999.0","-9999.0","1025","30.27","-999","-999","-9999","-9999","-9999.00","-9999.00","Clear","clear","0","0","0","0","0","0","METAR UKKK 230100Z 07002MPS CAVOK 19/17 Q1025 R08/CLRD70 NOSIG"
"4:30 AM EEST on June 23, 2016","2016","06","23","04","30","Europe/Kiev","1:30 AM GMT on June 23, 2016","2016","06","23","01","30","UTC","19.0","66.2","17.0","62.6","88","7.2","4.5","-9999.0","-9999.0","80","East","-9999.0","-9999.0","1026","30.30","-999","-999","-9999","-9999","-9999.00","-9999.00","Clear","clear","0","0","0","0","0","0","METAR UKKK 230130Z 08002MPS CAVOK 19/17 Q1026 R08/CLRD70 NOSIG"
"5:00 AM EEST on June 23, 2016","2016","06","23","05","00","Europe/Kiev","2:00 AM GMT on June 23, 2016","2016","06","23","02","00","UTC","19.0","66.2","17.0","62.6","88","3.6","2.2","-9999.0","-9999.0","70","ENE","-9999.0","-9999.0","1026","30.30","-999","-999","-9999","-9999","-9999.00","-9999.00","Clear","clear","0","0","0","0","0","0","METAR UKKK 230200Z 07001MPS CAVOK 19/17 Q1026 R08/CLRD70 NOSIG"
"5:30 AM EEST on June 23, 2016","2016","06","23","05","30","Europe/Kiev","2:30 AM GMT on June 23, 2016","2016","06","23","02","30","UTC","19.0","66.2","18.0","64.4","94","3.6","2.2","-9999.0","-9999.0","0","Variable","-9999.0","-9999.0","1026","30.30","-999","-999","-9999","-9999","-9999.00","-9999.00","Clear","clear","0","0","0","0","0","0","METAR UKKK 230230Z VRB01MPS CAVOK 19/18 Q1026 R08/CLRD70 NOSIG"
"6:00 AM EEST on June 23, 2016","2016","06","23","06","00","Europe/Kiev","3:00 AM GMT on June 23, 2016","2016","06","23","03","00","UTC","20","69","17","63","77","0.0","0.0","","","","","20","12","1026","30.30","-999","-999","-9999","-9999","","","Scattered Clouds","partlycloudy","0","0","0","0","0","0","AAXX 23031 33345 42998 30000 10203 20174 30063 40259 52005 82049 555 10020"
"6:00 AM EEST on June 23, 2016","2016","06","23","06","00","Europe/Kiev","3:00 AM GMT on June 23, 2016","2016","06","23","03","00","UTC","19.0","66.2","18.0","64.4","94","0.0","0.0","-9999.0","-9999.0","0","North","-9999.0","-9999.0","1026","30.30","-999","-999","-9999","-9999","-9999.00","-9999.00","Clear","clear","0","0","0","0","0","0","METAR UKKK 230300Z 00000MPS CAVOK 19/18 Q1026 R08/CLRD70 NOSIG"
"6:30 AM EEST on June 23, 2016","2016","06","23","06","30","Europe/Kiev","3:30 AM GMT on June 23, 2016","2016","06","23","03","30","UTC","21.0","69.8","19.0","66.2","88","3.6","2.2","-9999.0","-9999.0","0","Variable","-9999.0","-9999.0","1026","30.30","-999","-999","-9999","-9999","-9999.00","-9999.00","Clear","clear","0","0","0","0","0","0","METAR UKKK 230330Z VRB01MPS CAVOK 21/19 Q1026 R08/CLRD70 NOSIG"
"7:00 AM EEST on June 23, 2016","2016","06","23","07","00","Europe/Kiev","4:00 AM GMT on June 23, 2016","2016","06","23","04","00","UTC","23.0","73.4","18.0","64.4","73","7.2","4.5","-9999.0","-9999.0","60","ENE","-9999.0","-9999.0","1026","30.30","-999","-999","-9999","-9999","-9999.00","-9999.00","Clear","clear","0","0","0","0","0","0","METAR UKKK 230400Z 06002MPS CAVOK 23/18 Q1026 R08/CLRD70 NOSIG"
"7:30 AM EEST on June 23, 2016","2016","06","23","07","30","Europe/Kiev","4:30 AM GMT on June 23, 2016","2016","06","23","04","30","UTC","23.0","73.4","18.0","64.4","73","10.8","6.7","-9999.0","-9999.0","50","NE","-9999.0","-9999.0","1025","30.27","-999","-999","-9999","-9999","-9999.00","-9999.00","Clear","clear","0","0","0","0","0","0","METAR UKKK 230430Z 05003MPS CAVOK 23/18 Q1025 R08/CLRD70 NOSIG"
"8:00 AM EEST on June 23, 2016","2016","06","23","08","00","Europe/Kiev","5:00 AM GMT on June 23, 2016","2016","06","23","05","00","UTC","24.0","75.2","17.0","62.6","65","10.8","6.7","-9999.0","-9999.0","60","ENE","-9999.0","-9999.0","1026","30.30","-999","-999","-9999","-9999","-9999.00","-9999.00","Clear","clear","0","0","0","0","0","0","METAR UKKK 230500Z 06003MPS CAVOK 24/17 Q1026 R08/CLRD70 NOSIG"
"8:30 AM EEST on June 23, 2016","2016","06","23","08","30","Europe/Kiev","5:30 AM GMT on June 23, 2016","2016","06","23","05","30","UTC","25.0","77.0","17.0","62.6","61","14.4","8.9","-9999.0","-9999.0","40","NE","-9999.0","-9999.0","1026","30.30","-999","-999","-9999","-9999","-9999.00","-9999.00","Clear","clear","0","0","0","0","0","0","METAR UKKK 230530Z 04004MPS CAVOK 25/17 Q1026 R08/CLRD70 NOSIG"
"9:00 AM EEST on June 23, 2016","2016","06","23","09","00","Europe/Kiev","6:00 AM GMT on June 23, 2016","2016","06","23","06","00","UTC","25","77","17","62","51","7.2","4.5","","","50","NE","20","12","1026","30.29","-999","-999","-9999","-9999","","","Scattered Clouds","partlycloudy","0","0","0","0","0","0","AAXX 23061 33345 32998 30502 10250 20169 30063 40256 54000 82039 333 20197 555 10035"
"9:00 AM EEST on June 23, 2016","2016","06","23","09","00","Europe/Kiev","6:00 AM GMT on June 23, 2016","2016","06","23","06","00","UTC","25.0","77.0","18.0","64.4","65","14.4","8.9","-9999.0","-9999.0","70","ENE","-9999.0","-9999.0","1026","30.30","-999","-999","-9999","-9999","-9999.00","-9999.00","Clear","clear","0","0","0","0","0","0","METAR UKKK 230600Z 07004MPS 040V100 CAVOK 25/18 Q1026 R08/CLRD70 NOSIG"
"9:30 AM EEST on June 23, 2016","2016","06","23","09","30","Europe/Kiev","6:30 AM GMT on June 23, 2016","2016","06","23","06","30","UTC","26.0","78.8","16.0","60.8","54","18.0","11.2","-9999.0","-9999.0","40","NE","-9999.0","-9999.0","1026","30.30","-999","-999","-9999","-9999","-9999.00","-9999.00","Clear","clear","0","0","0","0","0","0","METAR UKKK 230630Z 04005MPS 010V070 CAVOK 26/16 Q1026 R08/CLRD70 NOSIG"
"10:00 AM EEST on June 23, 2016","2016","06","23","10","00","Europe/Kiev","7:00 AM GMT on June 23, 2016","2016","06","23","07","00","UTC","26.0","78.8","17.0","62.6","57","14.4","8.9","-9999.0","-9999.0","40","NE","-9999.0","-9999.0","1026","30.30","-999","-999","-9999","-9999","-9999.00","-9999.00","Clear","clear","0","0","0","0","0","0","METAR UKKK 230700Z 04004MPS CAVOK 26/17 Q1026 R08/CLRD70 NOSIG"
"10:30 AM EEST on June 23, 2016","2016","06","23","10","30","Europe/Kiev","7:30 AM GMT on June 23, 2016","2016","06","23","07","30","UTC","26.0","78.8","18.0","64.4","61","7.2","4.5","-9999.0","-9999.0","60","ENE","-9999.0","-9999.0","1026","30.30","-999","-999","-9999","-9999","-9999.00","-9999.00","Clear","clear","0","0","0","0","0","0","METAR UKKK 230730Z 06002MPS 360V100 CAVOK 26/18 Q1026 R08/CLRD70 NOSIG"
"11:00 AM EEST on June 23, 2016","2016","06","23","11","00","Europe/Kiev","8:00 AM GMT on June 23, 2016","2016","06","23","08","00","UTC","27.0","80.6","16.0","60.8","51","10.8","6.7","-9999.0","-9999.0","30","NNE","-9999.0","-9999.0","1026","30.30","-999","-999","27.5","81.5","-9999.00","-9999.00","Clear","clear","0","0","0","0","0","0","METAR UKKK 230800Z 03003MPS 350V080 CAVOK 27/16 Q1026 R08/CLRD70 NOSIG"
"11:30 AM EEST on June 23, 2016","2016","06","23","11","30","Europe/Kiev","8:30 AM GMT on June 23, 2016","2016","06","23","08","30","UTC","28.0","82.4","17.0","62.6","51","14.4","8.9","-9999.0","-9999.0","20","NNE","-9999.0","-9999.0","1026","30.30","-999","-999","28.5","83.4","-9999.00","-9999.00","Clear","clear","0","0","0","0","0","0","METAR UKKK 230830Z 02004MPS 340V060 CAVOK 28/17 Q1026 R08/CLRD70 NOSIG"
"12:00 PM EEST on June 23, 2016","2016","06","23","12","00","Europe/Kiev","9:00 AM GMT on June 23, 2016","2016","06","23","09","00","UTC","28","82","16","61","39","10.8","6.7","","","10","North","20","12","1025","30.27","-999","-999","-9999","-9999","","","Scattered Clouds","partlycloudy","0","0","0","0","0","0","AAXX 23091 33345 42598 30103 10278 20162 30059 40250 58004 82801 555 10043"
"12:00 PM EEST on June 23, 2016","2016","06","23","12","00","Europe/Kiev","9:00 AM GMT on June 23, 2016","2016","06","23","09","00","UTC","28.0","82.4","16.0","60.8","48","10.8","6.7","-9999.0","-9999.0","50","NE","-9999.0","-9999.0","1026","30.30","-999","-999","28.3","82.9","-9999.00","-9999.00","Clear","clear","0","0","0","0","0","0","METAR UKKK 230900Z 05003MPS 360V090 CAVOK 28/16 Q1026 R08/CLRD70 NOSIG"
"12:30 PM EEST on June 23, 2016","2016","06","23","12","30","Europe/Kiev","9:30 AM GMT on June 23, 2016","2016","06","23","09","30","UTC","28.0","82.4","17.0","62.6","51","14.4","8.9","-9999.0","-9999.0","50","NE","-9999.0","-9999.0","1026","30.30","-999","-999","28.5","83.4","-9999.00","-9999.00","Clear","clear","0","0","0","0","0","0","METAR UKKK 230930Z 05004MPS 360V100 CAVOK 28/17 Q1026 R08/CLRD70 NOSIG"
"1:00 PM EEST on June 23, 2016","2016","06","23","13","00","Europe/Kiev","10:00 AM GMT on June 23, 2016","2016","06","23","10","00","UTC","28.0","82.4","17.0","62.6","51","10.8","6.7","-9999.0","-9999.0","40","NE","-9999.0","-9999.0","1026","30.30","-999","-999","28.5","83.4","-9999.00","-9999.00","Clear","clear","0","0","0","0","0","0","METAR UKKK 231000Z 04003MPS 350V100 CAVOK 28/17 Q1026 R08/CLRD70 NOSIG"
"1:30 PM EEST on June 23, 2016","2016","06","23","13","30","Europe/Kiev","10:30 AM GMT on June 23, 2016","2016","06","23","10","30","UTC","29.0","84.2","17.0","62.6","48","14.4","8.9","-9999.0","-9999.0","50","NE","-9999.0","-9999.0","1025","30.27","-999","-999","29.4","85.0","-9999.00","-9999.00","Clear","clear","0","0","0","0","0","0","METAR UKKK 231030Z 05004MPS CAVOK 29/17 Q1025 R08/CLRD70 NOSIG"
"2:00 PM EEST on June 23, 2016","2016","06","23","14","00","Europe/Kiev","11:00 AM GMT on June 23, 2016","2016","06","23","11","00","UTC","29.0","84.2","17.0","62.6","48","14.4","8.9","-9999.0","-9999.0","70","ENE","-9999.0","-9999.0","1025","30.27","-999","-999","29.4","85.0","-9999.00","-9999.00","Clear","clear","0","0","0","0","0","0","METAR UKKK 231100Z 07004MPS CAVOK 29/17 Q1025 R08/CLRD70 NOSIG"
"2:30 PM EEST on June 23, 2016","2016","06","23","14","30","Europe/Kiev","11:30 AM GMT on June 23, 2016","2016","06","23","11","30","UTC","29.0","84.2","15.0","59.0","42","18.0","11.2","-9999.0","-9999.0","40","NE","-9999.0","-9999.0","1025","30.27","-999","-999","28.8","83.8","-9999.00","-9999.00","Clear","clear","0","0","0","0","0","0","METAR UKKK 231130Z 04005MPS 010V080 CAVOK 29/15 Q1025 R08/CLRD70 NOSIG"
"3:00 PM EEST on June 23, 2016","2016","06","23","15","00","Europe/Kiev","12:00 PM GMT on June 23, 2016","2016","06","23","12","00","UTC","29","84","13","55","27","10.8","6.7","","","20","NNE","20","12","1024","30.25","-999","-999","-9999","-9999","","","Scattered Clouds","partlycloudy","0","0","0","0","0","0","AAXX 23121 33345 32698 30203 10289 20128 30050 40241 57009 82802 555 10051"
"3:00 PM EEST on June 23, 2016","2016","06","23","15","00","Europe/Kiev","12:00 PM GMT on June 23, 2016","2016","06","23","12","00","UTC","29.0","84.2","14.0","57.2","40","14.4","8.9","-9999.0","-9999.0","60","ENE","-9999.0","-9999.0","1025","30.27","-999","-999","28.6","83.5","-9999.00","-9999.00","Clear","clear","0","0","0","0","0","0","METAR UKKK 231200Z 06004MPS CAVOK 29/14 Q1025 R08/CLRD70 NOSIG"
"3:30 PM EEST on June 23, 2016","2016","06","23","15","30","Europe/Kiev","12:30 PM GMT on June 23, 2016","2016","06","23","12","30","UTC","29.0","84.2","13.0","55.4","37","18.0","11.2","-9999.0","-9999.0","50","NE","-9999.0","-9999.0","1024","30.24","-999","-999","28.4","83.0","-9999.00","-9999.00","Clear","clear","0","0","0","0","0","0","METAR UKKK 231230Z 05005MPS CAVOK 29/13 Q1024 R08/CLRD70 NOSIG"
"4:00 PM EEST on June 23, 2016","2016","06","23","16","00","Europe/Kiev","1:00 PM GMT on June 23, 2016","2016","06","23","13","00","UTC","30.0","86.0","13.0","55.4","35","18.0","11.2","-9999.0","-9999.0","10","North","-9999.0","-9999.0","1024","30.24","-999","-999","29.2","84.5","-9999.00","-9999.00","Clear","clear","0","0","0","0","0","0","METAR UKKK 231300Z 01005MPS 330V030 CAVOK 30/13 Q1024 R08/CLRD70 NOSIG"
"4:30 PM EEST on June 23, 2016","2016","06","23","16","30","Europe/Kiev","1:30 PM GMT on June 23, 2016","2016","06","23","13","30","UTC","30.0","86.0","14.0","57.2","37","14.4","8.9","-9999.0","-9999.0","360","North","-9999.0","-9999.0","1024","30.24","-999","-999","29.4","84.9","-9999.00","-9999.00","Clear","clear","0","0","0","0","0","0","METAR UKKK 231330Z 36004MPS 330V030 CAVOK 30/14 Q1024 R08/CLRD70 NOSIG"
"5:00 PM EEST on June 23, 2016","2016","06","23","17","00","Europe/Kiev","2:00 PM GMT on June 23, 2016","2016","06","23","14","00","UTC","29.0","84.2","15.0","59.0","42","14.4","8.9","-9999.0","-9999.0","10","North","-9999.0","-9999.0","1024","30.24","-999","-999","28.8","83.8","-9999.00","-9999.00","Clear","clear","0","0","0","0","0","0","METAR UKKK 231400Z 01004MPS 340V040 CAVOK 29/15 Q1024 R08/CLRD70 NOSIG"
"5:30 PM EEST on June 23, 2016","2016","06","23","17","30","Europe/Kiev","2:30 PM GMT on June 23, 2016","2016","06","23","14","30","UTC","29.0","84.2","15.0","59.0","42","14.4","8.9","-9999.0","-9999.0","40","NE","-9999.0","-9999.0","1024","30.24","-999","-999","28.8","83.8","-9999.00","-9999.00","Clear","clear","0","0","0","0","0","0","METAR UKKK 231430Z 04004MPS 350V060 CAVOK 29/15 Q1024 R08/CLRD70 NOSIG"
"6:00 PM EEST on June 23, 2016","2016","06","23","18","00","Europe/Kiev","3:00 PM GMT on June 23, 2016","2016","06","23","15","00","UTC","29","84","13","56","27","10.8","6.7","","","0","North","20","12","1023","30.22","-999","-999","-9999","-9999","","","Scattered Clouds","partlycloudy","0","0","0","0","0","0","AAXX 23151 33345 42698 53603 10288 20131 30040 40231 57010 82809 555 10041"
"6:00 PM EEST on June 23, 2016","2016","06","23","18","00","Europe/Kiev","3:00 PM GMT on June 23, 2016","2016","06","23","15","00","UTC","29.0","84.2","14.0","57.2","40","14.4","8.9","-9999.0","-9999.0","20","NNE","-9999.0","-9999.0","1024","30.24","-999","-999","28.6","83.5","-9999.00","-9999.00","Clear","clear","0","0","0","0","0","0","METAR UKKK 231500Z 02004MPS 330V070 CAVOK 29/14 Q1024 R08/CLRD70 NOSIG"
"6:30 PM EEST on June 23, 2016","2016","06","23","18","30","Europe/Kiev","3:30 PM GMT on June 23, 2016","2016","06","23","15","30","UTC","29.0","84.2","15.0","59.0","42","14.4","8.9","-9999.0","-9999.0","360","North","-9999.0","-9999.0","1024","30.24","-999","-999","28.8","83.8","-9999.00","-9999.00","Clear","clear","0","0","0","0","0","0","METAR UKKK 231530Z 36004MPS 330V030 CAVOK 29/15 Q1024 R08/CLRD70 NOSIG"
"7:00 PM EEST on June 23, 2016","2016","06","23","19","00","Europe/Kiev","4:00 PM GMT on June 23, 2016","2016","06","23","16","00","UTC","28.0","82.4","15.0","59.0","45","18.0","11.2","-9999.0","-9999.0","350","North","-9999.0","-9999.0","1024","30.24","-999","-999","28.0","82.5","-9999.00","-9999.00","Clear","clear","0","0","0","0","0","0","METAR UKKK 231600Z 35005MPS CAVOK 28/15 Q1024 R08/CLRD70 NOSIG"
"7:30 PM EEST on June 23, 2016","2016","06","23","19","30","Europe/Kiev","4:30 PM GMT on June 23, 2016","2016","06","23","16","30","UTC","28.0","82.4","15.0","59.0","45","18.0","11.2","-9999.0","-9999.0","20","NNE","-9999.0","-9999.0","1024","30.24","-999","-999","28.0","82.5","-9999.00","-9999.00","Clear","clear","0","0","0","0","0","0","METAR UKKK 231630Z 02005MPS CAVOK 28/15 Q1024 R08/CLRD70 NOSIG"
"8:00 PM EEST on June 23, 2016","2016","06","23","20","00","Europe/Kiev","5:00 PM GMT on June 23, 2016","2016","06","23","17","00","UTC","27.0","80.6","15.0","59.0","48","18.0","11.2","-9999.0","-9999.0","10","North","9.0","5.6","1024","30.24","-999","-999","27.3","81.1","-9999.00","-9999.00","Unknown","unknown","0","0","0","0","0","0","METAR UKKK 231700Z 01005MPS 9000 NSC 27/15 Q1024 R08/CLRD70 NOSIG"
"8:30 PM EEST on June 23, 2016","2016","06","23","20","30","Europe/Kiev","5:30 PM GMT on June 23, 2016","2016","06","23","17","30","UTC","26.0","78.8","15.0","59.0","51","14.4","8.9","-9999.0","-9999.0","10","North","-9999.0","-9999.0","1024","30.24","-999","-999","-9999","-9999","-9999.00","-9999.00","Clear","clear","0","0","0","0","0","0","METAR UKKK 231730Z 01004MPS CAVOK 26/15 Q1024 R08/CLRD70 NOSIG"
"9:00 PM EEST on June 23, 2016","2016","06","23","21","00","Europe/Kiev","6:00 PM GMT on June 23, 2016","2016","06","23","18","00","UTC","26","78","14","58","40","7.2","4.5","","","30","NNE","20","12","1024","30.23","-999","-999","-9999","-9999","","","Scattered Clouds","partlycloudy","0","0","0","0","0","0","AAXX 23181 33345 32998 20302 10257 20145 30044 40237 53004 82040 333 10294 555 10027"
"9:00 PM EEST on June 23, 2016","2016","06","23","21","00","Europe/Kiev","6:00 PM GMT on June 23, 2016","2016","06","23","18","00","UTC","25.0","77.0","15.0","59.0","54","14.4","8.9","-9999.0","-9999.0","20","NNE","-9999.0","-9999.0","1024","30.24","-999","-999","-9999","-9999","-9999.00","-9999.00","Clear","clear","0","0","0","0","0","0","METAR UKKK 231800Z 02004MPS CAVOK 25/15 Q1024 R08/CLRD70 NOSIG"
"9:30 PM EEST on June 23, 2016","2016","06","23","21","30","Europe/Kiev","6:30 PM GMT on June 23, 2016","2016","06","23","18","30","UTC","25.0","77.0","16.0","60.8","57","14.4","8.9","-9999.0","-9999.0","30","NNE","-9999.0","-9999.0","1024","30.24","-999","-999","-9999","-9999","-9999.00","-9999.00","Clear","clear","0","0","0","0","0","0","METAR UKKK 231830Z 03004MPS CAVOK 25/16 Q1024 R08/CLRD70 NOSIG"
"10:00 PM EEST on June 23, 2016","2016","06","23","22","00","Europe/Kiev","7:00 PM GMT on June 23, 2016","2016","06","23","19","00","UTC","24.0","75.2","16.0","60.8","61","10.8","6.7","-9999.0","-9999.0","60","ENE","-9999.0","-9999.0","1024","30.24","-999","-999","-9999","-9999","-9999.00","-9999.00","Clear","clear","0","0","0","0","0","0","METAR UKKK 231900Z 06003MPS CAVOK 24/16 Q1024 R08/CLRD70 NOSIG"
"10:30 PM EEST on June 23, 2016","2016","06","23","22","30","Europe/Kiev","7:30 PM GMT on June 23, 2016","2016","06","23","19","30","UTC","22.0","71.6","16.0","60.8","69","10.8","6.7","-9999.0","-9999.0","80","East","-9999.0","-9999.0","1024","30.24","-999","-999","-9999","-9999","-9999.00","-9999.00","Clear","clear","0","0","0","0","0","0","METAR UKKK 231930Z 08003MPS CAVOK 22/16 Q1024 R08/CLRD70 NOSIG"
"11:00 PM EEST on June 23, 2016","2016","06","23","23","00","Europe/Kiev","8:00 PM GMT on June 23, 2016","2016","06","23","20","00","UTC","22.0","71.6","16.0","60.8","69","7.2","4.5","-9999.0","-9999.0","70","ENE","8.0","5.0","1025","30.27","-999","-999","-9999","-9999","-9999.00","-9999.00","Clear","clear","0","0","0","0","0","0","METAR UKKK 232000Z 07002MPS 8000 SKC 22/16 Q1025 R08/CLRD70 NOSIG"
"11:30 PM EEST on June 23, 2016","2016","06","23","23","30","Europe/Kiev","8:30 PM GMT on June 23, 2016","2016","06","23","20","30","UTC","21.0","69.8","16.0","60.8","73","7.2","4.5","-9999.0","-9999.0","80","East","-9999.0","-9999.0","1025","30.27","-999","-999","-9999","-9999","-9999.00","-9999.00","Clear","clear","0","0","0","0","0","0","METAR UKKK 232030Z 08002MPS CAVOK 21/16 Q1025 R08/CLRD70 NOSIG"
"12:00 AM EEST on June 24, 2016","2016","06","24","00","00","Europe/Kiev","9:00 PM GMT on June 23, 2016","2016","06","23","21","00","UTC","23","73","15","58","50","7.2","4.5","","","60","ENE","20","12","1024","30.26","-999","-999","-9999","-9999","","","","","0","0","0","0","0","0","AAXX 23211 33345 42998 00602 10229 20146 30050 40245 52006 555 10022"
"12:00 AM EEST on June 24, 2016","2016","06","24","00","00","Europe/Kiev","9:00 PM GMT on June 23, 2016","2016","06","23","21","00","UTC","21.0","69.8","16.0","60.8","73","7.2","4.5","-9999.0","-9999.0","90","East","9.0","5.6","1025","30.27","-999","-999","-9999","-9999","-9999.00","-9999.00","Clear","clear","0","0","0","0","0","0","METAR UKKK 232100Z 09002MPS 9000 SKC 21/16 Q1025 R08/CLRD70 NOSIG"
"12:30 AM EEST on June 24, 2016","2016","06","24","00","30","Europe/Kiev","9:30 PM GMT on June 23, 2016","2016","06","23","21","30","UTC","21.0","69.8","16.0","60.8","73","7.2","4.5","-9999.0","-9999.0","80","East","-9999.0","-9999.0","1025","30.27","-999","-999","-9999","-9999","-9999.00","-9999.00","Clear","clear","0","0","0","0","0","0","METAR UKKK 232130Z 08002MPS CAVOK 21/16 Q1025 R08/CLRD70 NOSIG"
"1:00 AM EEST on June 24, 2016","2016","06","24","01","00","Europe/Kiev","10:00 PM GMT on June 23, 2016","2016","06","23","22","00","UTC","20.0","68.0","15.0","59.0","73","3.6","2.2","-9999.0","-9999.0","60","ENE","-9999.0","-9999.0","1025","30.27","-999","-999","-9999","-9999","-9999.00","-9999.00","Clear","clear","0","0","0","0","0","0","METAR UKKK 232200Z 06001MPS CAVOK 20/15 Q1025 R08/CLRD70 NOSIG"
"1:30 AM EEST on June 24, 2016","2016","06","24","01","30","Europe/Kiev","10:30 PM GMT on June 23, 2016","2016","06","23","22","30","UTC","19.0","66.2","15.0","59.0","78","0.0","0.0","-9999.0","-9999.0","0","North","9.0","5.6","1025","30.27","-999","-999","-9999","-9999","-9999.00","-9999.00","Clear","clear","0","0","0","0","0","0","METAR UKKK 232230Z 00000MPS 9000 SKC 19/15 Q1025 R08/CLRD70 NOSIG"
"2:00 AM EEST on June 24, 2016","2016","06","24","02","00","Europe/Kiev","11:00 PM GMT on June 23, 2016","2016","06","23","23","00","UTC","18.0","64.4","16.0","60.8","88","0.0","0.0","-9999.0","-9999.0","0","North","9.0","5.6","1025","30.27","-999","-999","-9999","-9999","-9999.00","-9999.00","Clear","clear","0","0","0","0","0","0","METAR UKKK 232300Z 00000MPS 9000 SKC 18/16 Q1025 R08/CLRD70 NOSIG"
"2:30 AM EEST on June 24, 2016","2016","06","24","02","30","Europe/Kiev","11:30 PM GMT on June 23, 2016","2016","06","23","23","30","UTC","18.0","64.4","16.0","60.8","88","0.0","0.0","-9999.0","-9999.0","0","North","9.0","5.6","1025","30.27","-999","-999","-9999","-9999","-9999.00","-9999.00","Clear","clear","0","0","0","0","0","0","METAR UKKK 232330Z 00000MPS 9000 SKC 18/16 Q1025 R08/CLRD70 NOSIG"
"3:00 AM EEST on June 24, 2016","2016","06","24","03","00","Europe/Kiev","12:00 AM GMT on June 24, 2016","2016","06","24","00","00","UTC","20","68","15","59","65","0.0","0.0","","","","","20","12","1025","30.26","-999","-999","-9999","-9999","","","Clear","clear","0","0","0","0","0","0","AAXX 24001 33345 32998 30000 10198 20150 30049 40246 58001 80004 555 10019"
"3:00 AM EEST on June 24, 2016","2016","06","24","03","00","Europe/Kiev","12:00 AM GMT on June 24, 2016","2016","06","24","00","00","UTC","17.0","62.6","15.0","59.0","88","0.0","0.0","-9999.0","-9999.0","0","North","-9999.0","-9999.0","1025","30.27","-999","-999","-9999","-9999","-9999.00","-9999.00","Clear","clear","0","0","0","0","0","0","METAR UKKK 240000Z 00000MPS CAVOK 17/15 Q1025 R08/CLRD70 NOSIG"
"3:30 AM EEST on June 24, 2016","2016","06","24","03","30","Europe/Kiev","12:30 AM GMT on June 24, 2016","2016","06","24","00","30","UTC","17.0","62.6","16.0","60.8","94","0.0","0.0","-9999.0","-9999.0","0","North","-9999.0","-9999.0","1025","30.27","-999","-999","-9999","-9999","-9999.00","-9999.00","Clear","clear","0","0","0","0","0","0","METAR UKKK 240030Z 00000MPS CAVOK 17/16 Q1025 R08/CLRD70 NOSIG"
"4:00 AM EEST on June 24, 2016","2016","06","24","04","00","Europe/Kiev","1:00 AM GMT on June 24, 2016","2016","06","24","01","00","UTC","17.0","62.6","15.0","59.0","88","0.0","0.0","-9999.0","-9999.0","0","North","-9999.0","-9999.0","1024","30.24","-999","-999","-9999","-9999","-9999.00","-9999.00","Clear","clear","0","0","0","0","0","0","METAR UKKK 240100Z 00000MPS CAVOK 17/15 Q1024 R08/CLRD70 NOSIG"
"4:30 AM EEST on June 24, 2016","2016","06","24","04","30","Europe/Kiev","1:30 AM GMT on June 24, 2016","2016","06","24","01","30","UTC","18.0","64.4","14.0","57.2","77","7.2","4.5","-9999.0","-9999.0","90","East","-9999.0","-9999.0","1024","30.24","-999","-999","-9999","-9999","-9999.00","-9999.00","Clear","clear","0","0","0","0","0","0","METAR UKKK 240130Z 09002MPS CAVOK 18/14 Q1024 R08/CLRD70 NOSIG"
"5:00 AM EEST on June 24, 2016","2016","06","24","05","00","Europe/Kiev","2:00 AM GMT on June 24, 2016","2016","06","24","02","00","UTC","17.0","62.6","15.0","59.0","88","0.0","0.0","-9999.0","-9999.0","0","North","9.0","5.6","1024","30.24","-999","-999","-9999","-9999","-9999.00","-9999.00","Unknown","unknown","0","0","0","0","0","0","METAR UKKK 240200Z 00000MPS 9000 NSC 17/15 Q1024 R08/CLRD70 NOSIG"
"5:30 AM EEST on June 24, 2016","2016","06","24","05","30","Europe/Kiev","2:30 AM GMT on June 24, 2016","2016","06","24","02","30","UTC","18.0","64.4","16.0","60.8","88","7.2","4.5","-9999.0","-9999.0","80","East","-9999.0","-9999.0","1024","30.24","-999","-999","-9999","-9999","-9999.00","-9999.00","Clear","clear","0","0","0","0","0","0","METAR UKKK 240230Z 08002MPS CAVOK 18/16 Q1024 R08/CLRD70 NOSIG"
"6:00 AM EEST on June 24, 2016","2016","06","24","06","00","Europe/Kiev","3:00 AM GMT on June 24, 2016","2016","06","24","03","00","UTC","20","68","15","60","68","0.0","0.0","","","","","20","12","1024","30.25","-999","-999","-9999","-9999","","","Scattered Clouds","partlycloudy","0","0","0","0","0","0","AAXX 24031 33345 42598 60000 10200 20154 30045 40241 57004 82535 555 10020"
"6:00 AM EEST on June 24, 2016","2016","06","24","06","00","Europe/Kiev","3:00 AM GMT on June 24, 2016","2016","06","24","03","00","UTC","19.0","66.2","17.0","62.6","88","0.0","0.0","-9999.0","-9999.0","0","North","-9999.0","-9999.0","1024","30.24","-999","-999","-9999","-9999","-9999.00","-9999.00","Clear","clear","0","0","0","0","0","0","METAR UKKK 240300Z 00000MPS CAVOK 19/17 Q1024 R08/CLRD70 NOSIG"
"6:30 AM EEST on June 24, 2016","2016","06","24","06","30","Europe/Kiev","3:30 AM GMT on June 24, 2016","2016","06","24","03","30","UTC","21.0","69.8","17.0","62.6","78","3.6","2.2","-9999.0","-9999.0","0","Variable","-9999.0","-9999.0","1024","30.24","-999","-999","-9999","-9999","-9999.00","-9999.00","Clear","clear","0","0","0","0","0","0","METAR UKKK 240330Z VRB01MPS CAVOK 21/17 Q1024 R08/CLRD70 NOSIG"
"7:00 AM EEST on June 24, 2016","2016","06","24","07","00","Europe/Kiev","4:00 AM GMT on June 24, 2016","2016","06","24","04","00","UTC","21.0","69.8","16.0","60.8","73","7.2","4.5","-9999.0","-9999.0","100","East","-9999.0","-9999.0","1024","30.24","-999","-999","-9999","-9999","-9999.00","-9999.00","Clear","clear","0","0","0","0","0","0","METAR UKKK 240400Z 10002MPS CAVOK 21/16 Q1024 R08/CLRD70 NOSIG"
"7:30 AM EEST on June 24, 2016","2016","06","24","07","30","Europe/Kiev","4:30 AM GMT on June 24, 2016","2016","06","24","04","30","UTC","21.0","69.8","16.0","60.8","73","10.8","6.7","-9999.0","-9999.0","100","East","-9999.0","-9999.0","1024","30.24","-999","-999","-9999","-9999","-9999.00","-9999.00","Clear","clear","0","0","0","0","0","0","METAR UKKK 240430Z 10003MPS CAVOK 21/16 Q1024 R08/CLRD70 NOSIG"
"8:00 AM EEST on June 24, 2016","2016","06","24","08","00","Europe/Kiev","5:00 AM GMT on June 24, 2016","2016","06","24","05","00","UTC","23.0","73.4","15.0","59.0","61","10.8","6.7","-9999.0","-9999.0","90","East","-9999.0","-9999.0","1024","30.24","-999","-999","-9999","-9999","-9999.00","-9999.00","Clear","clear","0","0","0","0","0","0","METAR UKKK 240500Z 09003MPS CAVOK 23/15 Q1024 R08/CLRD70 NOSIG"
"8:30 AM EEST on June 24, 2016","2016","06","24","08","30","Europe/Kiev","5:30 AM GMT on June 24, 2016","2016","06","24","05","30","UTC","24.0","75.2","15.0","59.0","57","10.8","6.7","-9999.0","-9999.0","110","ESE","-9999.0","-9999.0","1024","30.24","-999","-999","-9999","-9999","-9999.00","-9999.00","Clear","clear","0","0","0","0","0","0","METAR UKKK 240530Z 11003MPS 080V150 CAVOK 24/15 Q1024 R08/CLRD70 NOSIG"
"9:00 AM EEST on June 24, 2016","2016","06","24","09","00","Europe/Kiev","6:00 AM GMT on June 24, 2016","2016","06","24","06","00","UTC","25","76","16","61","50","3.6","2.2","","","80","East","20","12","1024","30.23","-999","-999","-9999","-9999","","","Scattered Clouds","partlycloudy","0","0","0","0","0","0","AAXX 24061 33345 32998 20801 10246 20161 30042 40235 57003 82010 333 20194 555 10036"
"9:00 AM EEST on June 24, 2016","2016","06","24","09","00","Europe/Kiev","6:00 AM GMT on June 24, 2016","2016","06","24","06","00","UTC","25.0","77.0","16.0","60.8","57","7.2","4.5","-9999.0","-9999.0","80","East","-9999.0","-9999.0","1024","30.24","-999","-999","-9999","-9999","-9999.00","-9999.00","Clear","clear","0","0","0","0","0","0","METAR UKKK 240600Z 08002MPS 040V180 CAVOK 25/16 Q1024 R08/CLRD70 NOSIG"
"9:30 AM EEST on June 24, 2016","2016","06","24","09","30","Europe/Kiev","6:30 AM GMT on June 24, 2016","2016","06","24","06","30","UTC","25.0","77.0","16.0","60.8","57","10.8","6.7","-9999.0","-9999.0","90","East","-9999.0","-9999.0","1024","30.24","-999","-999","-9999","-9999","-9999.00","-9999.00","Clear","clear","0","0","0","0","0","0","METAR UKKK 240630Z 09003MPS 060V120 CAVOK 25/16 Q1024 R08/CLRD70 NOSIG"
"10:00 AM EEST on June 24, 2016","2016","06","24","10","00","Europe/Kiev","7:00 AM GMT on June 24, 2016","2016","06","24","07","00","UTC","26.0","78.8","16.0","60.8","54","7.2","4.5","-9999.0","-9999.0","110","ESE","-9999.0","-9999.0","1024","30.24","-999","-999","-9999","-9999","-9999.00","-9999.00","Clear","clear","0","0","0","0","0","0","METAR UKKK 240700Z 11002MPS 060V160 CAVOK 26/16 Q1024 R08/CLRD70 NOSIG"
"10:30 AM EEST on June 24, 2016","2016","06","24","10","30","Europe/Kiev","7:30 AM GMT on June 24, 2016","2016","06","24","07","30","UTC","27.0","80.6","16.0","60.8","51","7.2","4.5","-9999.0","-9999.0","100","East","-9999.0","-9999.0","1024","30.24","-999","-999","27.5","81.5","-9999.00","-9999.00","Clear","clear","0","0","0","0","0","0","METAR UKKK 240730Z 10002MPS CAVOK 27/16 Q1024 R08/CLRD70 NOSIG"
"11:00 AM EEST on June 24, 2016","2016","06","24","11","00","Europe/Kiev","8:00 AM GMT on June 24, 2016","2016","06","24","08","00","UTC","27.0","80.6","14.0","57.2","45","10.8","6.7","-9999.0","-9999.0","100","East","-9999.0","-9999.0","1024","30.24","-999","-999","27.1","80.8","-9999.00","-9999.00","Clear","clear","0","0","0","0","0","0","METAR UKKK 240800Z 10003MPS 040V180 CAVOK 27/14 Q1024 R08/CLRD70 NOSIG"
"11:30 AM EEST on June 24, 2016","2016","06","24","11","30","Europe/Kiev","8:30 AM GMT on June 24, 2016","2016","06","24","08","30","UTC","28.0","82.4","15.0","59.0","45","7.2","4.5","-9999.0","-9999.0","110","ESE","-9999.0","-9999.0","1024","30.24","-999","-999","28.0","82.5","-9999.00","-9999.00","Clear","clear","0","0","0","0","0","0","METAR UKKK 240830Z 11002MPS 050V180 CAVOK 28/15 Q1024 R08/CLRD70 NOSIG"
"12:00 PM EEST on June 24, 2016","2016","06","24","12","00","Europe/Kiev","9:00 AM GMT on June 24, 2016","2016","06","24","09","00","UTC","27","81","12","54","29","7.2","4.5","","","80","East","20","12","1024","30.23","-999","-999","-9999","-9999","","","Partly Cloudy","partlycloudy","0","0","0","0","0","0","AAXX 24091 33345 42598 30802 10271 20125 30043 40235 53001 83500 555 10052"
"12:00 PM EEST on June 24, 2016","2016","06","24","12","00","Europe/Kiev","9:00 AM GMT on June 24, 2016","2016","06","24","09","00","UTC","27.0","80.6","14.0","57.2","45","10.8","6.7","-9999.0","-9999.0","40","NE","-9999.0","-9999.0","1024","30.24","-999","-999","27.1","80.8","-9999.00","-9999.00","Clear","clear","0","0","0","0","0","0","METAR UKKK 240900Z 04003MPS 330V120 CAVOK 27/14 Q1024 R08/CLRD70 NOSIG"
"12:30 PM EEST on June 24, 2016","2016","06","24","12","30","Europe/Kiev","9:30 AM GMT on June 24, 2016","2016","06","24","09","30","UTC","27.0","80.6","14.0","57.2","45","14.4","8.9","-9999.0","-9999.0","80","East","-9999.0","-9999.0","1024","30.24","-999","-999","27.1","80.8","-9999.00","-9999.00","Clear","clear","0","0","0","0","0","0","METAR UKKK 240930Z 08004MPS CAVOK 27/14 Q1024 R08/CLRD70 NOSIG"
"1:00 PM EEST on June 24, 2016","2016","06","24","13","00","Europe/Kiev","10:00 AM GMT on June 24, 2016","2016","06","24","10","00","UTC","28.0","82.4","15.0","59.0","45","7.2","4.5","-9999.0","-9999.0","100","East","-9999.0","-9999.0","1024","30.24","-999","-999","28.0","82.5","-9999.00","-9999.00","Clear","clear","0","0","0","0","0","0","METAR UKKK 241000Z 10002MPS 050V140 CAVOK 28/15 Q1024 R08/CLRD70 NOSIG"
"1:30 PM EEST on June 24, 2016","2016","06","24","13","30","Europe/Kiev","10:30 AM GMT on June 24, 2016","2016","06","24","10","30","UTC","27.0","80.6","15.0","59.0","48","10.8","6.7","-9999.0","-9999.0","110","ESE","-9999.0","-9999.0","1024","30.24","-999","-999","27.3","81.1","-9999.00","-9999.00","Clear","clear","0","0","0","0","0","0","METAR UKKK 241030Z 11003MPS 070V150 CAVOK 27/15 Q1024 R08/CLRD70 NOSIG"
"2:00 PM EEST on June 24, 2016","2016","06","24","14","00","Europe/Kiev","11:00 AM GMT on June 24, 2016","2016","06","24","11","00","UTC","28.0","82.4","14.0","57.2","42","10.8","6.7","-9999.0","-9999.0","70","ENE","-9999.0","-9999.0","1023","30.21","-999","-999","27.8","82.0","-9999.00","-9999.00","Clear","clear","0","0","0","0","0","0","METAR UKKK 241100Z 07003MPS 330V140 CAVOK 28/14 Q1023 R08/CLRD70 NOSIG"
"2:30 PM EEST on June 24, 2016","2016","06","24","14","30","Europe/Kiev","11:30 AM GMT on June 24, 2016","2016","06","24","11","30","UTC","26.0","78.8","15.0","59.0","51","10.8","6.7","-9999.0","-9999.0","100","East","-9999.0","-9999.0","1023","30.21","-999","-999","-9999","-9999","-9999.00","-9999.00","Clear","clear","0","0","0","0","0","0","METAR UKKK 241130Z 10003MPS 040V140 CAVOK 26/15 Q1023 R08/CLRD70 NOSIG"
"3:00 PM EEST on June 24, 2016","2016","06","24","15","00","Europe/Kiev","12:00 PM GMT on June 24, 2016","2016","06","24","12","00","UTC","28","82","13","56","30","7.2","4.5","","","60","ENE","20","12","1022","30.19","-999","-999","-9999","-9999","","","Partly Cloudy","partlycloudy","0","0","0","0","0","0","AAXX 24121 33345 32598 30602 10275 20131 30033 40224 58010 83500 555 10050"
"3:00 PM EEST on June 24, 2016","2016","06","24","15","00","Europe/Kiev","12:00 PM GMT on June 24, 2016","2016","06","24","12","00","UTC","27.0","80.6","14.0","57.2","45","14.4","8.9","-9999.0","-9999.0","40","NE","-9999.0","-9999.0","1023","30.21","-999","-999","27.1","80.8","-9999.00","-9999.00","Clear","clear","0","0","0","0","0","0","METAR UKKK 241200Z 04004MPS 010V100 CAVOK 27/14 Q1023 R08/CLRD70 NOSIG"
"3:30 PM EEST on June 24, 2016","2016","06","24","15","30","Europe/Kiev","12:30 PM GMT on June 24, 2016","2016","06","24","12","30","UTC","29.0","84.2","13.0","55.4","37","10.8","6.7","-9999.0","-9999.0","40","NE","-9999.0","-9999.0","1023","30.21","-999","-999","28.4","83.0","-9999.00","-9999.00","Clear","clear","0","0","0","0","0","0","METAR UKKK 241230Z 04003MPS 330V090 CAVOK 29/13 Q1023 R08/CLRD70 NOSIG"
"4:00 PM EEST on June 24, 2016","2016","06","24","16","00","Europe/Kiev","1:00 PM GMT on June 24, 2016","2016","06","24","13","00","UTC","29.0","84.2","14.0","57.2","40","14.4","8.9","-9999.0","-9999.0","20","NNE","-9999.0","-9999.0","1022","30.18","-999","-999","28.6","83.5","-9999.00","-9999.00","Clear","clear","0","0","0","0","0","0","METAR UKKK 241300Z 02004MPS 350V080 CAVOK 29/14 Q1022 R08/CLRD70 NOSIG"
"4:30 PM EEST on June 24, 2016","2016","06","24","16","30","Europe/Kiev","1:30 PM GMT on June 24, 2016","2016","06","24","13","30","UTC","28.0","82.4","14.0","57.2","42","10.8","6.7","-9999.0","-9999.0","70","ENE","-9999.0","-9999.0","1022","30.18","-999","-999","27.8","82.0","-9999.00","-9999.00","Clear","clear","0","0","0","0","0","0","METAR UKKK 241330Z 07003MPS 030V110 CAVOK 28/14 Q1022 R08/CLRD70 NOSIG"
"5:00 PM EEST on June 24, 2016","2016","06","24","17","00","Europe/Kiev","2:00 PM GMT on June 24, 2016","2016","06","24","14","00","UTC","29.0","84.2","15.0","59.0","42","7.2","4.5","-9999.0","-9999.0","60","ENE","-9999.0","-9999.0","1022","30.18","-999","-999","28.8","83.8","-9999.00","-9999.00","Clear","clear","0","0","0","0","0","0","METAR UKKK 241400Z 06002MPS CAVOK 29/15 Q1022 R08/CLRD70 NOSIG"
"5:30 PM EEST on June 24, 2016","2016","06","24","17","30","Europe/Kiev","2:30 PM GMT on June 24, 2016","2016","06","24","14","30","UTC","28.0","82.4","14.0","57.2","42","10.8","6.7","-9999.0","-9999.0","60","ENE","-9999.0","-9999.0","1022","30.18","-999","-999","27.8","82.0","-9999.00","-9999.00","Clear","clear","0","0","0","0","0","0","METAR UKKK 241430Z 06003MPS 010V100 CAVOK 28/14 Q1022 R08/CLRD70 NOSIG"
"6:00 PM EEST on June 24, 2016","2016","06","24","18","00","Europe/Kiev","3:00 PM GMT on June 24, 2016","2016","06","24","15","00","UTC","28","82","13","55","28","7.2","4.5","","","80","East","20","12","1021","30.16","-999","-999","-9999","-9999","","","Partly Cloudy","partlycloudy","0","0","0","0","0","0","AAXX 24151 33345 42598 30802 10276 20126 30021 40212 57012 83800 555 10041"
"6:00 PM EEST on June 24, 2016","2016","06","24","18","00","Europe/Kiev","3:00 PM GMT on June 24, 2016","2016","06","24","15","00","UTC","28.0","82.4","15.0","59.0","45","7.2","4.5","-9999.0","-9999.0","110","ESE","-9999.0","-9999.0","1022","30.18","-999","-999","28.0","82.5","-9999.00","-9999.00","Clear","clear","0","0","0","0","0","0","METAR UKKK 241500Z 11002MPS CAVOK 28/15 Q1022 R08/CLRD70 NOSIG"
"6:30 PM EEST on June 24, 2016","2016","06","24","18","30","Europe/Kiev","3:30 PM GMT on June 24, 2016","2016","06","24","15","30","UTC","27.0","80.6","14.0","57.2","45","10.8","6.7","-9999.0","-9999.0","80","East","-9999.0","-9999.0","1022","30.18","-999","-999","27.1","80.8","-9999.00","-9999.00","Clear","clear","0","0","0","0","0","0","METAR UKKK 241530Z 08003MPS CAVOK 27/14 Q1022 R08/CLRD70 NOSIG"
"7:00 PM EEST on June 24, 2016","2016","06","24","19","00","Europe/Kiev","4:00 PM GMT on June 24, 2016","2016","06","24","16","00","UTC","27.0","80.6","15.0","59.0","48","10.8","6.7","-9999.0","-9999.0","100","East","-9999.0","-9999.0","1022","30.18","-999","-999","27.3","81.1","-9999.00","-9999.00","Clear","clear","0","0","0","0","0","0","METAR UKKK 241600Z 10003MPS 080V150 CAVOK 27/15 Q1022 R08/CLRD70 NOSIG"
"7:30 PM EEST on June 24, 2016","2016","06","24","19","30","Europe/Kiev","4:30 PM GMT on June 24, 2016","2016","06","24","16","30","UTC","26.0","78.8","15.0","59.0","51","10.8","6.7","-9999.0","-9999.0","100","East","9.0","5.6","1022","30.18","-999","-999","-9999","-9999","-9999.00","-9999.00","Unknown","unknown","0","0","0","0","0","0","METAR UKKK 241630Z 10003MPS 9000 NSC 26/15 Q1022 R08/CLRD70 NOSIG"
"8:00 PM EEST on June 24, 2016","2016","06","24","20","00","Europe/Kiev","5:00 PM GMT on June 24, 2016","2016","06","24","17","00","UTC","26.0","78.8","15.0","59.0","51","7.2","4.5","-9999.0","-9999.0","120","ESE","-9999.0","-9999.0","1022","30.18","-999","-999","-9999","-9999","-9999.00","-9999.00","Clear","clear","0","0","0","0","0","0","METAR UKKK 241700Z 12002MPS 090V150 CAVOK 26/15 Q1022 R08/CLRD70 NOSIG"
"8:30 PM EEST on June 24, 2016","2016","06","24","20","30","Europe/Kiev","5:30 PM GMT on June 24, 2016","2016","06","24","17","30","UTC","25.0","77.0","15.0","59.0","54","7.2","4.5","-9999.0","-9999.0","120","ESE","-9999.0","-9999.0","1022","30.18","-999","-999","-9999","-9999","-9999.00","-9999.00","Clear","clear","0","0","0","0","0","0","METAR UKKK 241730Z 12002MPS 090V150 CAVOK 25/15 Q1022 R08/CLRD70 NOSIG"
"9:00 PM EEST on June 24, 2016","2016","06","24","21","00","Europe/Kiev","6:00 PM GMT on June 24, 2016","2016","06","24","18","00","UTC","25","77","13","55","36","7.2","4.5","","","70","ENE","20","12","1021","30.17","-999","-999","-9999","-9999","","","","","0","0","0","0","0","0","AAXX 24181 33345 32998 00702 10249 20128 30021 40214 54000 333 10284 555 10026"
"9:00 PM EEST on June 24, 2016","2016","06","24","21","00","Europe/Kiev","6:00 PM GMT on June 24, 2016","2016","06","24","18","00","UTC","24.0","75.2","15.0","59.0","57","7.2","4.5","-9999.0","-9999.0","110","ESE","-9999.0","-9999.0","1022","30.18","-999","-999","-9999","-9999","-9999.00","-9999.00","Clear","clear","0","0","0","0","0","0","METAR UKKK 241800Z 11002MPS CAVOK 24/15 Q1022 R08/CLRD70 NOSIG"
"9:30 PM EEST on June 24, 2016","2016","06","24","21","30","Europe/Kiev","6:30 PM GMT on June 24, 2016","2016","06","24","18","30","UTC","23.0","73.4","14.0","57.2","57","7.2","4.5","-9999.0","-9999.0","100","East","8.0","5.0","1022","30.18","-999","-999","-9999","-9999","-9999.00","-9999.00","Clear","clear","0","0","0","0","0","0","METAR UKKK 241830Z 10002MPS 8000 SKC 23/14 Q1022 R08/CLRD70 NOSIG"
"10:00 PM EEST on June 24, 2016","2016","06","24","22","00","Europe/Kiev","7:00 PM GMT on June 24, 2016","2016","06","24","19","00","UTC","22.0","71.6","15.0","59.0","64","3.6","2.2","-9999.0","-9999.0","120","ESE","-9999.0","-9999.0","1022","30.18","-999","-999","-9999","-9999","-9999.00","-9999.00","Clear","clear","0","0","0","0","0","0","METAR UKKK 241900Z 12001MPS CAVOK 22/15 Q1022 R08/CLRD70 NOSIG"
"10:30 PM EEST on June 24, 2016","2016","06","24","22","30","Europe/Kiev","7:30 PM GMT on June 24, 2016","2016","06","24","19","30","UTC","22.0","71.6","15.0","59.0","64","10.8","6.7","-9999.0","-9999.0","110","ESE","-9999.0","-9999.0","1022","30.18","-999","-999","-9999","-9999","-9999.00","-9999.00","Clear","clear","0","0","0","0","0","0","METAR UKKK 241930Z 11003MPS CAVOK 22/15 Q1022 R08/CLRD70 NOSIG"
"11:00 PM EEST on June 24, 2016","2016","06","24","23","00","Europe/Kiev","8:00 PM GMT on June 24, 2016","2016","06","24","20","00","UTC","22.0","71.6","15.0","59.0","64","7.2","4.5","-9999.0","-9999.0","120","ESE","-9999.0","-9999.0","1022","30.18","-999","-999","-9999","-9999","-9999.00","-9999.00","Clear","clear","0","0","0","0","0","0","METAR UKKK 242000Z 12002MPS CAVOK 22/15 Q1022 R08/CLRD70 NOSIG"
"11:30 PM EEST on June 24, 2016","2016","06","24","23","30","Europe/Kiev","8:30 PM GMT on June 24, 2016","2016","06","24","20","30","UTC","22.0","71.6","15.0","59.0","64","7.2","4.5","-9999.0","-9999.0","120","ESE","-9999.0","-9999.0","1022","30.18","-999","-999","-9999","-9999","-9999.00","-9999.00","Clear","clear","0","0","0","0","0","0","METAR UKKK 242030Z 12002MPS CAVOK 22/15 Q1022 R08/CLRD70 NOSIG"
"12:00 AM EEST on June 25, 2016","2016","06","25","00","00","Europe/Kiev","9:00 PM GMT on June 24, 2016","2016","06","24","21","00","UTC","21","71","15","58","55","0.0","0.0","","","","","20","12","1022","30.19","-999","-999","-9999","-9999","","","","","0","0","0","0","0","0","AAXX 24211 33345 42998 00000 10214 20146 30029 40224 53008 555 10020"
"12:00 AM EEST on June 25, 2016","2016","06","25","00","00","Europe/Kiev","9:00 PM GMT on June 24, 2016","2016","06","24","21","00","UTC","20.0","68.0","15.0","59.0","73","7.2","4.5","-9999.0","-9999.0","120","ESE","-9999.0","-9999.0","1023","30.21","-999","-999","-9999","-9999","-9999.00","-9999.00","Clear","clear","0","0","0","0","0","0","METAR UKKK 242100Z 12002MPS CAVOK 20/15 Q1023 R08/CLRD70 NOSIG"
"12:30 AM EEST on June 25, 2016","2016","06","25","00","30","Europe/Kiev","9:30 PM GMT on June 24, 2016","2016","06","24","21","30","UTC","19.0","66.2","15.0","59.0","78","0.0","0.0","-9999.0","-9999.0","0","North","-9999.0","-9999.0","1023","30.21","-999","-999","-9999","-9999","-9999.00","-9999.00","Clear","clear","0","0","0","0","0","0","METAR UKKK 242130Z 00000MPS CAVOK 19/15 Q1023 R08/CLRD70 NOSIG"
"1:00 AM EEST on June 25, 2016","2016","06","25","01","00","Europe/Kiev","10:00 PM GMT on June 24, 2016","2016","06","24","22","00","UTC","19.0","66.2","15.0","59.0","78","3.6","2.2","-9999.0","-9999.0","80","East","-9999.0","-9999.0","1023","30.21","-999","-999","-9999","-9999","-9999.00","-9999.00","Clear","clear","0","0","0","0","0","0","METAR UKKK 242200Z 08001MPS CAVOK 19/15 Q1023 R08/CLRD70 NOSIG"
"1:30 AM EEST on June 25, 2016","2016","06","25","01","30","Europe/Kiev","10:30 PM GMT on June 24, 2016","2016","06","24","22","30","UTC","18.0","64.4","15.0","59.0","83","0.0","0.0","-9999.0","-9999.0","0","North","-9999.0","-9999.0","1023","30.21","-999","-999","-9999","-9999","-9999.00","-9999.00","Clear","clear","0","0","0","0","0","0","METAR UKKK 242230Z 00000MPS CAVOK 18/15 Q1023 R08/CLRD70 NOSIG"
"2:00 AM EEST on June 25, 2016","2016","06","25","02","00","Europe/Kiev","11:00 PM GMT on June 24, 2016","2016","06","24","23","00","UTC","19.0","66.2","15.0","59.0","78","3.6","2.2","-9999.0","-9999.0","80","East","-9999.0","-9999.0","1023","30.21","-999","-999","-9999","-9999","-9999.00","-9999.00","Clear","clear","0","0","0","0","0","0","METAR UKKK 242300Z 08001MPS CAVOK 19/15 Q1023 R08/CLRD70 NOSIG"
"2:30 AM EEST on June 25, 2016","2016","06","25","02","30","Europe/Kiev","11:30 PM GMT on June 24, 2016","2016","06","24","23","30","UTC","18.0","64.4","14.0","57.2","77","7.2","4.5","-9999.0","-9999.0","90","East","-9999.0","-9999.0","1023","30.21","-999","-999","-9999","-9999","-9999.00","-9999.00","Clear","clear","0","0","0","0","0","0","METAR UKKK 242330Z 09002MPS CAVOK 18/14 Q1023 R08/CLRD70 NOSIG"
"3:00 AM EEST on June 25, 2016","2016","06","25","03","00","Europe/Kiev","12:00 AM GMT on June 25, 2016","2016","06","25","00","00","UTC","19","66","14","56","63","0.0","0.0","","","","","20","12","1023","30.20","-999","-999","-9999","-9999","","","","","0","0","0","0","0","0","AAXX 25001 33345 32998 00000 10189 20135 30030 40227 52001 555 10018"
"3:00 AM EEST on June 25, 2016","2016","06","25","03","00","Europe/Kiev","12:00 AM GMT on June 25, 2016","2016","06","25","00","00","UTC","16.0","60.8","15.0","59.0","94","3.6","2.2","-9999.0","-9999.0","80","East","-9999.0","-9999.0","1023","30.21","-999","-999","-9999","-9999","-9999.00","-9999.00","Clear","clear","0","0","0","0","0","0","METAR UKKK 250000Z 08001MPS CAVOK 16/15 Q1023 R08/CLRD70 NOSIG"
"3:30 AM EEST on June 25, 2016","2016","06","25","03","30","Europe/Kiev","12:30 AM GMT on June 25, 2016","2016","06","25","00","30","UTC","17.0","62.6","14.0","57.2","82","3.6","2.2","-9999.0","-9999.0","90","East","-9999.0","-9999.0","1023","30.21","-999","-999","-9999","-9999","-9999.00","-9999.00","Clear","clear","0","0","0","0","0","0","METAR UKKK 250030Z 09001MPS CAVOK 17/14 Q1023 R08/CLRD70 NOSIG"
"4:00 AM EEST on June 25, 2016","2016","06","25","04","00","Europe/Kiev","1:00 AM GMT on June 25, 2016","2016","06","25","01","00","UTC","16.0","60.8","14.0","57.2","88","3.6","2.2","-9999.0","-9999.0","90","East","-9999.0","-9999.0","1022","30.18","-999","-999","-9999","-9999","-9999.00","-9999.00","Clear","clear","0","0","0","0","0","0","METAR UKKK 250100Z 09001MPS CAVOK 16/14 Q1022 R08/CLRD70 NOSIG"
"4:30 AM EEST on June 25, 2016","2016","06","25","04","30","Europe/Kiev","1:30 AM GMT on June 25, 2016","2016","06","25","01","30","UTC","16.0","60.8","14.0","57.2","88","7.2","4.5","-9999.0","-9999.0","90","East","-9999.0","-9999.0","1022","30.18","-999","-999","-9999","-9999","-9999.00","-9999.00","Clear","clear","0","0","0","0","0","0","METAR UKKK 250130Z 09002MPS CAVOK 16/14 Q1022 R08/CLRD70 NOSIG"
"5:00 AM EEST on June 25, 2016","2016","06","25","05","00","Europe/Kiev","2:00 AM GMT on June 25, 2016","2016","06","25","02","00","UTC","15.0","59.0","14.0","57.2","94","7.2","4.5","-9999.0","-9999.0","90","East","-9999.0","-9999.0","1022","30.18","-999","-999","-9999","-9999","-9999.00","-9999.00","Clear","clear","0","0","0","0","0","0","METAR UKKK 250200Z 09002MPS CAVOK 15/14 Q1022 R08/CLRD70 NOSIG"
"5:30 AM EEST on June 25, 2016","2016","06","25","05","30","Europe/Kiev","2:30 AM GMT on June 25, 2016","2016","06","25","02","30","UTC","16.0","60.8","15.0","59.0","94","3.6","2.2","-9999.0","-9999.0","90","East","-9999.0","-9999.0","1022","30.18","-999","-999","-9999","-9999","-9999.00","-9999.00","Clear","clear","0","0","0","0","0","0","METAR UKKK 250230Z 09001MPS CAVOK 16/15 Q1022 R08/CLRD70 NOSIG"
"6:00 AM EEST on June 25, 2016","2016","06","25","06","00","Europe/Kiev","3:00 AM GMT on June 25, 2016","2016","06","25","03","00","UTC","18","65","15","58","73","0.0","0.0","","","","","20","12","1022","30.19","-999","-999","-9999","-9999","","","","","0","0","0","0","0","0","AAXX 25031 33345 42998 00000 10184 20146 30027 40224 58003 555 10018"
"6:00 AM EEST on June 25, 2016","2016","06","25","06","00","Europe/Kiev","3:00 AM GMT on June 25, 2016","2016","06","25","03","00","UTC","18.0","64.4","16.0","60.8","88","7.2","4.5","-9999.0","-9999.0","90","East","-9999.0","-9999.0","1022","30.18","-999","-999","-9999","-9999","-9999.00","-9999.00","Clear","clear","0","0","0","0","0","0","METAR UKKK 250300Z 09002MPS CAVOK 18/16 Q1022 R08/CLRD70 NOSIG"
"6:30 AM EEST on June 25, 2016","2016","06","25","06","30","Europe/Kiev","3:30 AM GMT on June 25, 2016","2016","06","25","03","30","UTC","20.0","68.0","17.0","62.6","83","7.2","4.5","-9999.0","-9999.0","90","East","-9999.0","-9999.0","1022","30.18","-999","-999","-9999","-9999","-9999.00","-9999.00","Clear","clear","0","0","0","0","0","0","METAR UKKK 250330Z 09002MPS CAVOK 20/17 Q1022 R08/CLRD70 NOSIG"
"7:00 AM EEST on June 25, 2016","2016","06","25","07","00","Europe/Kiev","4:00 AM GMT on June 25, 2016","2016","06","25","04","00","UTC","22.0","71.6","17.0","62.6","73","7.2","4.5","-9999.0","-9999.0","90","East","-9999.0","-9999.0","1022","30.18","-999","-999","-9999","-9999","-9999.00","-9999.00","Clear","clear","0","0","0","0","0","0","METAR UKKK 250400Z 09002MPS CAVOK 22/17 Q1022 R08/CLRD70 NOSIG"
"7:30 AM EEST on June 25, 2016","2016","06","25","07","30","Europe/Kiev","4:30 AM GMT on June 25, 2016","2016","06","25","04","30","UTC","23.0","73.4","17.0","62.6","69","7.2","4.5","-9999.0","-9999.0","100","East","-9999.0","-9999.0","1022","30.18","-999","-999","-9999","-9999","-9999.00","-9999.00","Clear","clear","0","0","0","0","0","0","METAR UKKK 250430Z 10002MPS CAVOK 23/17 Q1022 R08/CLRD70 NOSIG"
"8:00 AM EEST on June 25, 2016","2016","06","25","08","00","Europe/Kiev","5:00 AM GMT on June 25, 2016","2016","06","25","05","00","UTC","24.0","75.2","17.0","62.6","65","7.2","4.5","-9999.0","-9999.0","100","East","-9999.0","-9999.0","1022","30.18","-999","-999","-9999","-9999","-9999.00","-9999.00","Clear","clear","0","0","0","0","0","0","METAR UKKK 250500Z 10002MPS 060V150 CAVOK 24/17 Q1022 R08/CLRD70 NOSIG"
"8:30 AM EEST on June 25, 2016","2016","06","25","08","30","Europe/Kiev","5:30 AM GMT on June 25, 2016","2016","06","25","05","30","UTC","25.0","77.0","17.0","62.6","61","7.2","4.5","-9999.0","-9999.0","90","East","-9999.0","-9999.0","1022","30.18","-999","-999","-9999","-9999","-9999.00","-9999.00","Clear","clear","0","0","0","0","0","0","METAR UKKK 250530Z 09002MPS CAVOK 25/17 Q1022 R08/CLRD70 NOSIG"
"9:00 AM EEST on June 25, 2016","2016","06","25","09","00","Europe/Kiev","6:00 AM GMT on June 25, 2016","2016","06","25","06","00","UTC","25","76","16","61","51","3.6","2.2","","","120","ESE","20","12","1022","30.19","-999","-999","-9999","-9999","","","","","0","0","0","0","0","0","AAXX 25061 33345 32998 01201 10246 20163 30029 40222 53002 333 20182 555 10038"
"9:00 AM EEST on June 25, 2016","2016","06","25","09","00","Europe/Kiev","6:00 AM GMT on June 25, 2016","2016","06","25","06","00","UTC","25.0","77.0","16.0","60.8","57","10.8","6.7","-9999.0","-9999.0","80","East","-9999.0","-9999.0","1022","30.18","-999","-999","-9999","-9999","-9999.00","-9999.00","Clear","clear","0","0","0","0","0","0","METAR UKKK 250600Z 08003MPS CAVOK 25/16 Q1022 R08/CLRD70 NOSIG"
"9:30 AM EEST on June 25, 2016","2016","06","25","09","30","Europe/Kiev","6:30 AM GMT on June 25, 2016","2016","06","25","06","30","UTC","25.0","77.0","16.0","60.8","57","7.2","4.5","-9999.0","-9999.0","140","SE","-9999.0","-9999.0","1022","30.18","-999","-999","-9999","-9999","-9999.00","-9999.00","Clear","clear","0","0","0","0","0","0","METAR UKKK 250630Z 14002MPS 100V180 CAVOK 25/16 Q1022 R08/CLRD70 NOSIG"
"10:00 AM EEST on June 25, 2016","2016","06","25","10","00","Europe/Kiev","7:00 AM GMT on June 25, 2016","2016","06","25","07","00","UTC","26.0","78.8","15.0","59.0","51","10.8","6.7","-9999.0","-9999.0","110","ESE","-9999.0","-9999.0","1022","30.18","-999","-999","-9999","-9999","-9999.00","-9999.00","Clear","clear","0","0","0","0","0","0","METAR UKKK 250700Z 11003MPS 050V140 CAVOK 26/15 Q1022 R08/CLRD70 NOSIG"
"10:30 AM EEST on June 25, 2016","2016","06","25","10","30","Europe/Kiev","7:30 AM GMT on June 25, 2016","2016","06","25","07","30","UTC","27.0","80.6","16.0","60.8","51","10.8","6.7","-9999.0","-9999.0","100","East","10.0","6.2","1022","30.18","-999","-999","27.5","81.5","-9999.00","-9999.00","Scattered Clouds","partlycloudy","0","0","0","0","0","0","METAR UKKK 250730Z 10003MPS 050V140 9999 SCT045 27/16 Q1022 R08/CLRD70 NOSIG"
"11:00 AM EEST on June 25, 2016","2016","06","25","11","00","Europe/Kiev","8:00 AM GMT on June 25, 2016","2016","06","25","08","00","UTC","26.0","78.8","14.0","57.2","47","10.8","6.7","-9999.0","-9999.0","150","SSE","-9999.0","-9999.0","1022","30.18","-999","-999","-9999","-9999","-9999.00","-9999.00","Clear","clear","0","0","0","0","0","0","METAR UKKK 250800Z 15003MPS 040V190 CAVOK 26/14 Q1022 R08/CLRD70 NOSIG"
"11:30 AM EEST on June 25, 2016","2016","06","25","11","30","Europe/Kiev","8:30 AM GMT on June 25, 2016","2016","06","25","08","30","UTC","27.0","80.6","15.0","59.0","48","10.8","6.7","-9999.0","-9999.0","90","East","-9999.0","-9999.0","1022","30.18","-999","-999","27.3","81.1","-9999.00","-9999.00","Clear","clear","0","0","0","0","0","0","METAR UKKK 250830Z 09003MPS 050V150 CAVOK 27/15 Q1022 R08/CLRD70 NOSIG"
"12:00 PM EEST on June 25, 2016","2016","06","25","12","00","Europe/Kiev","9:00 AM GMT on June 25, 2016","2016","06","25","09","00","UTC","27","81","15","58","36","10.8","6.7","","","170","South","20","12","1022","30.17","-999","-999","-9999","-9999","","","Partly Cloudy","partlycloudy","0","0","0","0","0","0","AAXX 25091 33345 42598 41703 10274 20147 30026 40217 58003 84200 555 10052"
"12:00 PM EEST on June 25, 2016","2016","06","25","12","00","Europe/Kiev","9:00 AM GMT on June 25, 2016","2016","06","25","09","00","UTC","27.0","80.6","14.0","57.2","45","7.2","4.5","-9999.0","-9999.0","180","South","-9999.0","-9999.0","1022","30.18","-999","-999","27.1","80.8","-9999.00","-9999.00","Clear","clear","0","0","0","0","0","0","METAR UKKK 250900Z 18002MPS 130V250 CAVOK 27/14 Q1022 R08/CLRD70 NOSIG"
"12:30 PM EEST on June 25, 2016","2016","06","25","12","30","Europe/Kiev","9:30 AM GMT on June 25, 2016","2016","06","25","09","30","UTC","27.0","80.6","15.0","59.0","48","7.2","4.5","-9999.0","-9999.0","120","ESE","-9999.0","-9999.0","1022","30.18","-999","-999","27.3","81.1","-9999.00","-9999.00","Clear","clear","0","0","0","0","0","0","METAR UKKK 250930Z 12002MPS CAVOK 27/15 Q1022 R08/CLRD70 NOSIG"
"1:00 PM EEST on June 25, 2016","2016","06","25","13","00","Europe/Kiev","10:00 AM GMT on June 25, 2016","2016","06","25","10","00","UTC","28.0","82.4","14.0","57.2","42","7.2","4.5","-9999.0","-9999.0","130","SE","-9999.0","-9999.0","1022","30.18","-999","-999","27.8","82.0","-9999.00","-9999.00","Clear","clear","0","0","0","0","0","0","METAR UKKK 251000Z 13002MPS 080V170 CAVOK 28/14 Q1022 R08/CLRD70 NOSIG"
"1:30 PM EEST on June 25, 2016","2016","06","25","13","30","Europe/Kiev","10:30 AM GMT on June 25, 2016","2016","06","25","10","30","UTC","28.0","82.4","16.0","60.8","48","10.8","6.7","-9999.0","-9999.0","80","East","-9999.0","-9999.0","1022","30.18","-999","-999","28.3","82.9","-9999.00","-9999.00","Clear","clear","0","0","0","0","0","0","METAR UKKK 251030Z 08003MPS 040V120 CAVOK 28/16 Q1022 R08/CLRD70 NOSIG"
"2:00 PM EEST on June 25, 2016","2016","06","25","14","00","Europe/Kiev","11:00 AM GMT on June 25, 2016","2016","06","25","11","00","UTC","28.0","82.4","15.0","59.0","45","7.2","4.5","-9999.0","-9999.0","160","SSE","-9999.0","-9999.0","1022","30.18","-999","-999","28.0","82.5","-9999.00","-9999.00","Clear","clear","0","0","0","0","0","0","METAR UKKK 251100Z 16002MPS CAVOK 28/15 Q1022 R08/CLRD70 NOSIG"
"2:30 PM EEST on June 25, 2016","2016","06","25","14","30","Europe/Kiev","11:30 AM GMT on June 25, 2016","2016","06","25","11","30","UTC","28.0","82.4","16.0","60.8","48","10.8","6.7","-9999.0","-9999.0","60","ENE","-9999.0","-9999.0","1022","30.18","-999","-999","28.3","82.9","-9999.00","-9999.00","Clear","clear","0","0","0","0","0","0","METAR UKKK 251130Z 06003MPS 010V120 CAVOK 28/16 Q1022 R08/CLRD70 NOSIG"
"3:00 PM EEST on June 25, 2016","2016","06","25","15","00","Europe/Kiev","12:00 PM GMT on June 25, 2016","2016","06","25","12","00","UTC","29","84","14","58","31","7.2","4.5","","","130","SE","20","12","1021","30.15","-999","-999","-9999","-9999","","","Partly Cloudy","partlycloudy","0","0","0","0","0","0","AAXX 25121 33345 32698 41302 10287 20145 30019 40209 57007 84200 555 10055"
"3:00 PM EEST on June 25, 2016","2016","06","25","15","00","Europe/Kiev","12:00 PM GMT on June 25, 2016","2016","06","25","12","00","UTC","28.0","82.4","16.0","60.8","48","10.8","6.7","-9999.0","-9999.0","100","East","-9999.0","-9999.0","1022","30.18","-999","-999","28.3","82.9","-9999.00","-9999.00","Clear","clear","0","0","0","0","0","0","METAR UKKK 251200Z 10003MPS 060V140 CAVOK 28/16 Q1022 R08/CLRD70 NOSIG"
"3:30 PM EEST on June 25, 2016","2016","06","25","15","30","Europe/Kiev","12:30 PM GMT on June 25, 2016","2016","06","25","12","30","UTC","29.0","84.2","16.0","60.8","45","7.2","4.5","-9999.0","-9999.0","110","ESE","-9999.0","-9999.0","1021","30.15","-999","-999","29.1","84.4","-9999.00","-9999.00","Clear","clear","0","0","0","0","0","0","METAR UKKK 251230Z 11002MPS CAVOK 29/16 Q1021 R08/CLRD70 NOSIG"
"4:00 PM EEST on June 25, 2016","2016","06","25","16","00","Europe/Kiev","1:00 PM GMT on June 25, 2016","2016","06","25","13","00","UTC","29.0","84.2","16.0","60.8","45","7.2","4.5","-9999.0","-9999.0","150","SSE","-9999.0","-9999.0","1021","30.15","-999","-999","29.1","84.4","-9999.00","-9999.00","Clear","clear","0","0","0","0","0","0","METAR UKKK 251300Z 15002MPS 080V240 CAVOK 29/16 Q1021 R08/CLRD70 NOSIG"
"4:30 PM EEST on June 25, 2016","2016","06","25","16","30","Europe/Kiev","1:30 PM GMT on June 25, 2016","2016","06","25","13","30","UTC","29.0","84.2","16.0","60.8","45","3.6","2.2","-9999.0","-9999.0","0","Variable","-9999.0","-9999.0","1021","30.15","-999","-999","29.1","84.4","-9999.00","-9999.00","Clear","clear","0","0","0","0","0","0","METAR UKKK 251330Z VRB01MPS CAVOK 29/16 Q1021 R08/CLRD70 NOSIG"
"5:00 PM EEST on June 25, 2016","2016","06","25","17","00","Europe/Kiev","2:00 PM GMT on June 25, 2016","2016","06","25","14","00","UTC","29.0","84.2","16.0","60.8","45","7.2","4.5","-9999.0","-9999.0","110","ESE","-9999.0","-9999.0","1021","30.15","-999","-999","29.1","84.4","-9999.00","-9999.00","Clear","clear","0","0","0","0","0","0","METAR UKKK 251400Z 11002MPS 050V160 CAVOK 29/16 Q1021 R08/CLRD70 NOSIG"
"5:30 PM EEST on June 25, 2016","2016","06","25","17","30","Europe/Kiev","2:30 PM GMT on June 25, 2016","2016","06","25","14","30","UTC","29.0","84.2","15.0","59.0","42","7.2","4.5","-9999.0","-9999.0","190","South","-9999.0","-9999.0","1021","30.15","-999","-999","28.8","83.8","-9999.00","-9999.00","Clear","clear","0","0","0","0","0","0","METAR UKKK 251430Z 19002MPS CAVOK 29/15 Q1021 R08/CLRD70 NOSIG"
"6:00 PM EEST on June 25, 2016","2016","06","25","18","00","Europe/Kiev","3:00 PM GMT on June 25, 2016","2016","06","25","15","00","UTC","29","84","14","57","30","7.2","4.5","","","180","South","20","12","1020","30.12","-999","-999","-9999","-9999","","","Scattered Clouds","partlycloudy","0","0","0","0","0","0","AAXX 25151 33345 42598 21802 10288 20140 30008 40198 57011 82400 555 10044"
"6:00 PM EEST on June 25, 2016","2016","06","25","18","00","Europe/Kiev","3:00 PM GMT on June 25, 2016","2016","06","25","15","00","UTC","28.0","82.4","15.0","59.0","45","7.2","4.5","-9999.0","-9999.0","140","SE","-9999.0","-9999.0","1020","30.12","-999","-999","28.0","82.5","-9999.00","-9999.00","Clear","clear","0","0","0","0","0","0","METAR UKKK 251500Z 14002MPS 080V170 CAVOK 28/15 Q1020 R08/CLRD70 NOSIG"
"6:30 PM EEST on June 25, 2016","2016","06","25","18","30","Europe/Kiev","3:30 PM GMT on June 25, 2016","2016","06","25","15","30","UTC","28.0","82.4","16.0","60.8","48","7.2","4.5","-9999.0","-9999.0","120","ESE","-9999.0","-9999.0","1020","30.12","-999","-999","28.3","82.9","-9999.00","-9999.00","Clear","clear","0","0","0","0","0","0","METAR UKKK 251530Z 12002MPS 060V180 CAVOK 28/16 Q1020 R08/CLRD70 NOSIG"
"7:00 PM EEST on June 25, 2016","2016","06","25","19","00","Europe/Kiev","4:00 PM GMT on June 25, 2016","2016","06","25","16","00","UTC","28.0","82.4","15.0","59.0","45","7.2","4.5","-9999.0","-9999.0","120","ESE","-9999.0","-9999.0","1020","30.12","-999","-999","28.0","82.5","-9999.00","-9999.00","Clear","clear","0","0","0","0","0","0","METAR UKKK 251600Z 12002MPS 070V170 CAVOK 28/15 Q1020 R08/CLRD70 NOSIG"
"7:30 PM EEST on June 25, 2016","2016","06","25","19","30","Europe/Kiev","4:30 PM GMT on June 25, 2016","2016","06","25","16","30","UTC","27.0","80.6","15.0","59.0","48","10.8","6.7","-9999.0","-9999.0","130","SE","-9999.0","-9999.0","1020","30.12","-999","-999","27.3","81.1","-9999.00","-9999.00","Clear","clear","0","0","0","0","0","0","METAR UKKK 251630Z 13003MPS 100V170 CAVOK 27/15 Q1020 R08/CLRD70 NOSIG"
"8:00 PM EEST on June 25, 2016","2016","06","25","20","00","Europe/Kiev","5:00 PM GMT on June 25, 2016","2016","06","25","17","00","UTC","27.0","80.6","16.0","60.8","51","7.2","4.5","-9999.0","-9999.0","130","SE","-9999.0","-9999.0","1020","30.12","-999","-999","27.5","81.5","-9999.00","-9999.00","Clear","clear","0","0","0","0","0","0","METAR UKKK 251700Z 13002MPS 110V170 CAVOK 27/16 Q1020 R08/CLRD70 NOSIG"
"8:30 PM EEST on June 25, 2016","2016","06","25","20","30","Europe/Kiev","5:30 PM GMT on June 25, 2016","2016","06","25","17","30","UTC","26.0","78.8","16.0","60.8","54","3.6","2.2","-9999.0","-9999.0","0","Variable","-9999.0","-9999.0","1020","30.12","-999","-999","-9999","-9999","-9999.00","-9999.00","Clear","clear","0","0","0","0","0","0","METAR UKKK 251730Z VRB01MPS CAVOK 26/16 Q1020 R08/CLRD70 NOSIG"
"9:00 PM EEST on June 25, 2016","2016","06","25","21","00","Europe/Kiev","6:00 PM GMT on June 25, 2016","2016","06","25","18","00","UTC","25","77","16","60","46","3.6","2.2","","","180","South","20","12","1019","30.10","-999","-999","-9999","-9999","","","","","0","0","0","0","0","0","AAXX 25181 33345 32998 01801 10251 20156 30001 40193 57007 333 10294 555 10026"
"9:00 PM EEST on June 25, 2016","2016","06","25","21","00","Europe/Kiev","6:00 PM GMT on June 25, 2016","2016","06","25","18","00","UTC","25.0","77.0","16.0","60.8","57","7.2","4.5","-9999.0","-9999.0","130","SE","-9999.0","-9999.0","1020","30.12","-999","-999","-9999","-9999","-9999.00","-9999.00","Clear","clear","0","0","0","0","0","0","METAR UKKK 251800Z 13002MPS CAVOK 25/16 Q1020 R08/CLRD70 NOSIG"
"9:30 PM EEST on June 25, 2016","2016","06","25","21","30","Europe/Kiev","6:30 PM GMT on June 25, 2016","2016","06","25","18","30","UTC","23.0","73.4","16.0","60.8","65","7.2","4.5","-9999.0","-9999.0","130","SE","-9999.0","-9999.0","1020","30.12","-999","-999","-9999","-9999","-9999.00","-9999.00","Clear","clear","0","0","0","0","0","0","METAR UKKK 251830Z 13002MPS CAVOK 23/16 Q1020 R08/CLRD70 NOSIG"
"10:00 PM EEST on June 25, 2016","2016","06","25","22","00","Europe/Kiev","7:00 PM GMT on June 25, 2016","2016","06","25","19","00","UTC","23.0","73.4","17.0","62.6","69","7.2","4.5","-9999.0","-9999.0","140","SE","-9999.0","-9999.0","1020","30.12","-999","-999","-9999","-9999","-9999.00","-9999.00","Clear","clear","0","0","0","0","0","0","METAR UKKK 251900Z 14002MPS CAVOK 23/17 Q1020 R08/CLRD70 NOSIG"
"10:30 PM EEST on June 25, 2016","2016","06","25","22","30","Europe/Kiev","7:30 PM GMT on June 25, 2016","2016","06","25","19","30","UTC","23.0","73.4","16.0","60.8","65","7.2","4.5","-9999.0","-9999.0","140","SE","-9999.0","-9999.0","1020","30.12","-999","-999","-9999","-9999","-9999.00","-9999.00","Clear","clear","0","0","0","0","0","0","METAR UKKK 251930Z 14002MPS CAVOK 23/16 Q1020 R08/CLRD70 NOSIG"
"11:00 PM EEST on June 25, 2016","2016","06","25","23","00","Europe/Kiev","8:00 PM GMT on June 25, 2016","2016","06","25","20","00","UTC","23.0","73.4","17.0","62.6","69","7.2","4.5","-9999.0","-9999.0","140","SE","-9999.0","-9999.0","1020","30.12","-999","-999","-9999","-9999","-9999.00","-9999.00","Clear","clear","0","0","0","0","0","0","METAR UKKK 252000Z 14002MPS CAVOK 23/17 Q1020 R08/CLRD70 NOSIG"
"11:30 PM EEST on June 25, 2016","2016","06","25","23","30","Europe/Kiev","8:30 PM GMT on June 25, 2016","2016","06","25","20","30","UTC","22.0","71.6","16.0","60.8","69","7.2","4.5","-9999.0","-9999.0","140","SE","-9999.0","-9999.0","1020","30.12","-999","-999","-9999","-9999","-9999.00","-9999.00","Clear","clear","0","0","0","0","0","0","METAR UKKK 252030Z 14002MPS CAVOK 22/16 Q1020 R08/CLRD70 NOSIG"
"12:00 AM EEST on June 26, 2016","2016","06","26","00","00","Europe/Kiev","9:00 PM GMT on June 25, 2016","2016","06","25","21","00","UTC","22","71","17","63","68","7.2","4.5","","","160","SSE","20","12","1019","30.11","-999","-999","-9999","-9999","","","","","0","0","0","0","0","0","AAXX 25211 33345 42998 01602 10218 20171 30000 40194 56001 555 10021"
"12:00 AM EEST on June 26, 2016","2016","06","26","00","00","Europe/Kiev","9:00 PM GMT on June 25, 2016","2016","06","25","21","00","UTC","22.0","71.6","16.0","60.8","69","7.2","4.5","-9999.0","-9999.0","140","SE","-9999.0","-9999.0","1020","30.12","-999","-999","-9999","-9999","-9999.00","-9999.00","Clear","clear","0","0","0","0","0","0","METAR UKKK 252100Z 14002MPS CAVOK 22/16 Q1020 R08/CLRD70 NOSIG"
"12:30 AM EEST on June 26, 2016","2016","06","26","00","30","Europe/Kiev","9:30 PM GMT on June 25, 2016","2016","06","25","21","30","UTC","22.0","71.6","16.0","60.8","69","7.2","4.5","-9999.0","-9999.0","140","SE","-9999.0","-9999.0","1020","30.12","-999","-999","-9999","-9999","-9999.00","-9999.00","Clear","clear","0","0","0","0","0","0","METAR UKKK 252130Z 14002MPS CAVOK 22/16 Q1020 R08/CLRD70 NOSIG"
"1:00 AM EEST on June 26, 2016","2016","06","26","01","00","Europe/Kiev","10:00 PM GMT on June 25, 2016","2016","06","25","22","00","UTC","22.0","71.6","17.0","62.6","73","7.2","4.5","-9999.0","-9999.0","130","SE","-9999.0","-9999.0","1020","30.12","-999","-999","-9999","-9999","-9999.00","-9999.00","Clear","clear","0","0","0","0","0","0","METAR UKKK 252200Z 13002MPS CAVOK 22/17 Q1020 R08/CLRD70 NOSIG"
"1:30 AM EEST on June 26, 2016","2016","06","26","01","30","Europe/Kiev","10:30 PM GMT on June 25, 2016","2016","06","25","22","30","UTC","21.0","69.8","17.0","62.6","78","7.2","4.5","-9999.0","-9999.0","130","SE","-9999.0","-9999.0","1020","30.12","-999","-999","-9999","-9999","-9999.00","-9999.00","Clear","clear","0","0","0","0","0","0","METAR UKKK 252230Z 13002MPS CAVOK 21/17 Q1020 R08/CLRD70 NOSIG"
"2:00 AM EEST on June 26, 2016","2016","06","26","02","00","Europe/Kiev","11:00 PM GMT on June 25, 2016","2016","06","25","23","00","UTC","21.0","69.8","17.0","62.6","78","7.2","4.5","-9999.0","-9999.0","140","SE","-9999.0","-9999.0","1020","30.12","-999","-999","-9999","-9999","-9999.00","-9999.00","Clear","clear","0","0","0","0","0","0","METAR UKKK 252300Z 14002MPS 100V170 CAVOK 21/17 Q1020 R08/CLRD70 NOSIG"
"2:30 AM EEST on June 26, 2016","2016","06","26","02","30","Europe/Kiev","11:30 PM GMT on June 25, 2016","2016","06","25","23","30","UTC","19.0","66.2","16.0","60.8","83","3.6","2.2","-9999.0","-9999.0","0","Variable","-9999.0","-9999.0","1020","30.12","-999","-999","-9999","-9999","-9999.00","-9999.00","Clear","clear","0","0","0","0","0","0","METAR UKKK 252330Z VRB01MPS CAVOK 19/16 Q1020 R08/CLRD70 NOSIG"
"3:00 AM EEST on June 26, 2016","2016","06","26","03","00","Europe/Kiev","12:00 AM GMT on June 26, 2016","2016","06","26","00","00","UTC","20","68","17","63","79","0.0","0.0","","","","","20","12","1020","30.13","-999","-999","-9999","-9999","","","","","0","0","0","0","0","0","AAXX 26001 33345 32998 00000 10200 20172 30006 40201 53006 555 10019"
"3:00 AM EEST on June 26, 2016","2016","06","26","03","00","Europe/Kiev","12:00 AM GMT on June 26, 2016","2016","06","26","00","00","UTC","18.0","64.4","16.0","60.8","88","3.6","2.2","-9999.0","-9999.0","120","ESE","-9999.0","-9999.0","1020","30.12","-999","-999","-9999","-9999","-9999.00","-9999.00","Clear","clear","0","0","0","0","0","0","METAR UKKK 260000Z 12001MPS CAVOK 18/16 Q1020 R08/CLRD70 NOSIG"
"3:30 AM EEST on June 26, 2016","2016","06","26","03","30","Europe/Kiev","12:30 AM GMT on June 26, 2016","2016","06","26","00","30","UTC","19.0","66.2","17.0","62.6","88","0.0","0.0","-9999.0","-9999.0","0","North","-9999.0","-9999.0","1020","30.12","-999","-999","-9999","-9999","-9999.00","-9999.00","Clear","clear","0","0","0","0","0","0","METAR UKKK 260030Z 00000MPS CAVOK 19/17 Q1020 R08/CLRD70 NOSIG"
"4:00 AM EEST on June 26, 2016","2016","06","26","04","00","Europe/Kiev","1:00 AM GMT on June 26, 2016","2016","06","26","01","00","UTC","18.0","64.4","16.0","60.8","88","0.0","0.0","-9999.0","-9999.0","0","North","-9999.0","-9999.0","1020","30.12","-999","-999","-9999","-9999","-9999.00","-9999.00","Clear","clear","0","0","0","0","0","0","METAR UKKK 260100Z 00000MPS CAVOK 18/16 Q1020 R08/CLRD70 NOSIG"
"4:30 AM EEST on June 26, 2016","2016","06","26","04","30","Europe/Kiev","1:30 AM GMT on June 26, 2016","2016","06","26","01","30","UTC","18.0","64.4","17.0","62.6","94","0.0","0.0","-9999.0","-9999.0","0","North","-9999.0","-9999.0","1020","30.12","-999","-999","-9999","-9999","-9999.00","-9999.00","Clear","clear","0","0","0","0","0","0","METAR UKKK 260130Z 00000MPS CAVOK 18/17 Q1020 R08/CLRD70 NOSIG"
"5:00 AM EEST on June 26, 2016","2016","06","26","05","00","Europe/Kiev","2:00 AM GMT on June 26, 2016","2016","06","26","02","00","UTC","19.0","66.2","17.0","62.6","88","0.0","0.0","-9999.0","-9999.0","0","North","-9999.0","-9999.0","1020","30.12","-999","-999","-9999","-9999","-9999.00","-9999.00","Clear","clear","0","0","0","0","0","0","METAR UKKK 260200Z 00000MPS CAVOK 19/17 Q1020 R08/CLRD70 NOSIG"
"5:30 AM EEST on June 26, 2016","2016","06","26","05","30","Europe/Kiev","2:30 AM GMT on June 26, 2016","2016","06","26","02","30","UTC","19.0","66.2","17.0","62.6","88","0.0","0.0","-9999.0","-9999.0","0","North","-9999.0","-9999.0","1020","30.12","-999","-999","-9999","-9999","-9999.00","-9999.00","Clear","clear","0","0","0","0","0","0","METAR UKKK 260230Z 00000MPS CAVOK 19/17 Q1020 R08/CLRD70 NOSIG"
"6:00 AM EEST on June 26, 2016","2016","06","26","06","00","Europe/Kiev","3:00 AM GMT on June 26, 2016","2016","06","26","03","00","UTC","20","67","18","65","89","0.0","0.0","","","","","10","6","1020","30.13","-999","-999","-9999","-9999","","","","","0","0","0","0","0","0","AAXX 26031 33345 42997 00000 10196 20181 30007 40203 52001 555 10020"
"6:00 AM EEST on June 26, 2016","2016","06","26","06","00","Europe/Kiev","3:00 AM GMT on June 26, 2016","2016","06","26","03","00","UTC","20.0","68.0","18.0","64.4","88","7.2","4.5","-9999.0","-9999.0","80","East","-9999.0","-9999.0","1020","30.12","-999","-999","-9999","-9999","-9999.00","-9999.00","Clear","clear","0","0","0","0","0","0","METAR UKKK 260300Z 08002MPS CAVOK 20/18 Q1020 R08/CLRD70 NOSIG"
"6:30 AM EEST on June 26, 2016","2016","06","26","06","30","Europe/Kiev","3:30 AM GMT on June 26, 2016","2016","06","26","03","30","UTC","22.0","71.6","19.0","66.2","83","7.2","4.5","-9999.0","-9999.0","80","East","-9999.0","-9999.0","1020","30.12","-999","-999","-9999","-9999","-9999.00","-9999.00","Clear","clear","0","0","0","0","0","0","METAR UKKK 260330Z 08002MPS CAVOK 22/19 Q1020 R08/CLRD70 NOSIG"
"7:00 AM EEST on June 26, 2016","2016","06","26","07","00","Europe/Kiev","4:00 AM GMT on June 26, 2016","2016","06","26","04","00","UTC","24.0","75.2","19.0","66.2","73","3.6","2.2","-9999.0","-9999.0","0","Variable","-9999.0","-9999.0","1020","30.12","-999","-999","-9999","-9999","-9999.00","-9999.00","Clear","clear","0","0","0","0","0","0","METAR UKKK 260400Z VRB01MPS CAVOK 24/19 Q1020 R08/CLRD70 NOSIG"
"7:30 AM EEST on June 26, 2016","2016","06","26","07","30","Europe/Kiev","4:30 AM GMT on June 26, 2016","2016","06","26","04","30","UTC","24.0","75.2","19.0","66.2","73","7.2","4.5","-9999.0","-9999.0","140","SE","-9999.0","-9999.0","1020","30.12","-999","-999","-9999","-9999","-9999.00","-9999.00","Clear","clear","0","0","0","0","0","0","METAR UKKK 260430Z 14002MPS 080V200 CAVOK 24/19 Q1020 R08/CLRD70 NOSIG"
"8:00 AM EEST on June 26, 2016","2016","06","26","08","00","Europe/Kiev","5:00 AM GMT on June 26, 2016","2016","06","26","05","00","UTC","25.0","77.0","18.0","64.4","65","7.2","4.5","-9999.0","-9999.0","170","South","-9999.0","-9999.0","1020","30.12","-999","-999","-9999","-9999","-9999.00","-9999.00","Clear","clear","0","0","0","0","0","0","METAR UKKK 260500Z 17002MPS 120V230 CAVOK 25/18 Q1020 R08/CLRD70 NOSIG"
"8:30 AM EEST on June 26, 2016","2016","06","26","08","30","Europe/Kiev","5:30 AM GMT on June 26, 2016","2016","06","26","05","30","UTC","25.0","77.0","18.0","64.4","65","7.2","4.5","-9999.0","-9999.0","160","SSE","-9999.0","-9999.0","1020","30.12","-999","-999","-9999","-9999","-9999.00","-9999.00","Clear","clear","0","0","0","0","0","0","METAR UKKK 260530Z 16002MPS 120V220 CAVOK 25/18 Q1020 R08/CLRD70 NOSIG"
"9:00 AM EEST on June 26, 2016","2016","06","26","09","00","Europe/Kiev","6:00 AM GMT on June 26, 2016","2016","06","26","06","00","UTC","25","77","19","66","60","7.2","4.5","","","190","South","20","12","1020","30.11","-999","-999","-9999","-9999","","","","","0","0","0","0","0","0","AAXX 26061 33345 32998 01902 10252 20188 30004 40196 58003 333 20192 555 10038"
"9:00 AM EEST on June 26, 2016","2016","06","26","09","00","Europe/Kiev","6:00 AM GMT on June 26, 2016","2016","06","26","06","00","UTC","26.0","78.8","18.0","64.4","61","7.2","4.5","-9999.0","-9999.0","180","South","-9999.0","-9999.0","1020","30.12","-999","-999","-9999","-9999","-9999.00","-9999.00","Clear","clear","0","0","0","0","0","0","METAR UKKK 260600Z 18002MPS 130V220 CAVOK 26/18 Q1020 R08/CLRD70 NOSIG"
"9:30 AM EEST on June 26, 2016","2016","06","26","09","30","Europe/Kiev","6:30 AM GMT on June 26, 2016","2016","06","26","06","30","UTC","27.0","80.6","18.0","64.4","58","10.8","6.7","-9999.0","-9999.0","160","SSE","-9999.0","-9999.0","1020","30.12","-999","-999","27.9","82.3","-9999.00","-9999.00","Clear","clear","0","0","0","0","0","0","METAR UKKK 260630Z 16003MPS 120V230 CAVOK 27/18 Q1020 R08/CLRD70 NOSIG"
"10:00 AM EEST on June 26, 2016","2016","06","26","10","00","Europe/Kiev","7:00 AM GMT on June 26, 2016","2016","06","26","07","00","UTC","27.0","80.6","18.0","64.4","58","7.2","4.5","-9999.0","-9999.0","190","South","-9999.0","-9999.0","1020","30.12","-999","-999","27.9","82.3","-9999.00","-9999.00","Clear","clear","0","0","0","0","0","0","METAR UKKK 260700Z 19002MPS 120V250 CAVOK 27/18 Q1020 R08/CLRD70 NOSIG"
"10:30 AM EEST on June 26, 2016","2016","06","26","10","30","Europe/Kiev","7:30 AM GMT on June 26, 2016","2016","06","26","07","30","UTC","28.0","82.4","18.0","64.4","54","10.8","6.7","-9999.0","-9999.0","160","SSE","-9999.0","-9999.0","1020","30.12","-999","-999","28.8","83.9","-9999.00","-9999.00","Clear","clear","0","0","0","0","0","0","METAR UKKK 260730Z 16003MPS 110V220 CAVOK 28/18 Q1020 R08/CLRD70 NOSIG"
"11:00 AM EEST on June 26, 2016","2016","06","26","11","00","Europe/Kiev","8:00 AM GMT on June 26, 2016","2016","06","26","08","00","UTC","28.0","82.4","17.0","62.6","51","10.8","6.7","-9999.0","-9999.0","190","South","-9999.0","-9999.0","1020","30.12","-999","-999","28.5","83.4","-9999.00","-9999.00","Clear","clear","0","0","0","0","0","0","METAR UKKK 260800Z 19003MPS 110V280 CAVOK 28/17 Q1020 R08/CLRD70 NOSIG"
"11:30 AM EEST on June 26, 2016","2016","06","26","11","30","Europe/Kiev","8:30 AM GMT on June 26, 2016","2016","06","26","08","30","UTC","27.0","80.6","18.0","64.4","58","7.2","4.5","-9999.0","-9999.0","150","SSE","-9999.0","-9999.0","1019","30.09","-999","-999","27.9","82.3","-9999.00","-9999.00","Clear","clear","0","0","0","0","0","0","METAR UKKK 260830Z 15002MPS 100V230 CAVOK 27/18 Q1019 R08/CLRD70 NOSIG"
"12:00 PM EEST on June 26, 2016","2016","06","26","12","00","Europe/Kiev","9:00 AM GMT on June 26, 2016","2016","06","26","09","00","UTC","27","81","14","58","35","10.8","6.7","","","160","SSE","20","12","1019","30.09","-999","-999","-9999","-9999","","","Mostly Cloudy","mostlycloudy","0","0","0","0","0","0","AAXX 26091 33345 42698 51603 10274 20143 39996 40187 57008 85200 555 10043"
"12:00 PM EEST on June 26, 2016","2016","06","26","12","00","Europe/Kiev","9:00 AM GMT on June 26, 2016","2016","06","26","09","00","UTC","28.0","82.4","17.0","62.6","51","14.4","8.9","-9999.0","-9999.0","120","ESE","-9999.0","-9999.0","1019","30.09","-999","-999","28.5","83.4","-9999.00","-9999.00","Clear","clear","0","0","0","0","0","0","METAR UKKK 260900Z 12004MPS 090V180 CAVOK 28/17 Q1019 R08/CLRD70 NOSIG"
"12:30 PM EEST on June 26, 2016","2016","06","26","12","30","Europe/Kiev","9:30 AM GMT on June 26, 2016","2016","06","26","09","30","UTC","29.0","84.2","17.0","62.6","48","10.8","6.7","-9999.0","-9999.0","120","ESE","-9999.0","-9999.0","1019","30.09","-999","-999","29.4","85.0","-9999.00","-9999.00","Clear","clear","0","0","0","0","0","0","METAR UKKK 260930Z 12003MPS 070V180 CAVOK 29/17 Q1019 R08/CLRD70 NOSIG"
"1:00 PM EEST on June 26, 2016","2016","06","26","13","00","Europe/Kiev","10:00 AM GMT on June 26, 2016","2016","06","26","10","00","UTC","29.0","84.2","17.0","62.6","48","10.8","6.7","-9999.0","-9999.0","140","SE","-9999.0","-9999.0","1019","30.09","-999","-999","29.4","85.0","-9999.00","-9999.00","Clear","clear","0","0","0","0","0","0","METAR UKKK 261000Z 14003MPS 080V190 CAVOK 29/17 Q1019 R08/CLRD70 NOSIG"
"1:30 PM EEST on June 26, 2016","2016","06","26","13","30","Europe/Kiev","10:30 AM GMT on June 26, 2016","2016","06","26","10","30","UTC","29.0","84.2","17.0","62.6","48","10.8","6.7","-9999.0","-9999.0","120","ESE","-9999.0","-9999.0","1019","30.09","-999","-999","29.4","85.0","-9999.00","-9999.00","Clear","clear","0","0","0","0","0","0","METAR UKKK 261030Z 12003MPS 080V180 CAVOK 29/17 Q1019 R08/CLRD70 NOSIG"
"2:00 PM EEST on June 26, 2016","2016","06","26","14","00","Europe/Kiev","11:00 AM GMT on June 26, 2016","2016","06","26","11","00","UTC","29.0","84.2","17.0","62.6","48","7.2","4.5","-9999.0","-9999.0","140","SE","-9999.0","-9999.0","1018","30.06","-999","-999","29.4","85.0","-9999.00","-9999.00","Clear","clear","0","0","0","0","0","0","METAR UKKK 261100Z 14002MPS 090V210 CAVOK 29/17 Q1018 R08/CLRD70 NOSIG"
"2:30 PM EEST on June 26, 2016","2016","06","26","14","30","Europe/Kiev","11:30 AM GMT on June 26, 2016","2016","06","26","11","30","UTC","29.0","84.2","16.0","60.8","45","10.8","6.7","-9999.0","-9999.0","150","SSE","-9999.0","-9999.0","1018","30.06","-999","-999","29.1","84.4","-9999.00","-9999.00","Clear","clear","0","0","0","0","0","0","METAR UKKK 261130Z 15003MPS 110V200 CAVOK 29/16 Q1018 R08/CLRD70 NOSIG"
"3:00 PM EEST on June 26, 2016","2016","06","26","15","00","Europe/Kiev","12:00 PM GMT on June 26, 2016","2016","06","26","12","00","UTC","30","87","15","60","30","10.8","6.7","","","160","SSE","20","12","1017","30.04","-999","-999","-9999","-9999","","","Partly Cloudy","partlycloudy","0","0","0","0","0","0","AAXX 26121 33345 32698 31603 10303 20154 39983 40171 57013 83200 555 10054"
"3:00 PM EEST on June 26, 2016","2016","06","26","15","00","Europe/Kiev","12:00 PM GMT on June 26, 2016","2016","06","26","12","00","UTC","28.0","82.4","16.0","60.8","48","10.8","6.7","-9999.0","-9999.0","130","SE","-9999.0","-9999.0","1018","30.06","-999","-999","28.3","82.9","-9999.00","-9999.00","Clear","clear","0","0","0","0","0","0","METAR UKKK 261200Z 13003MPS 100V160 CAVOK 28/16 Q1018 R08/CLRD70 NOSIG"
"3:30 PM EEST on June 26, 2016","2016","06","26","15","30","Europe/Kiev","12:30 PM GMT on June 26, 2016","2016","06","26","12","30","UTC","29.0","84.2","17.0","62.6","48","10.8","6.7","-9999.0","-9999.0","130","SE","-9999.0","-9999.0","1018","30.06","-999","-999","29.4","85.0","-9999.00","-9999.00","Clear","clear","0","0","0","0","0","0","METAR UKKK 261230Z 13003MPS 090V190 CAVOK 29/17 Q1018 R08/CLRD70 NOSIG"
"4:00 PM EEST on June 26, 2016","2016","06","26","16","00","Europe/Kiev","1:00 PM GMT on June 26, 2016","2016","06","26","13","00","UTC","30.0","86.0","17.0","62.6","45","14.4","8.9","-9999.0","-9999.0","110","ESE","-9999.0","-9999.0","1017","30.04","-999","-999","30.3","86.6","-9999.00","-9999.00","Clear","clear","0","0","0","0","0","0","METAR UKKK 261300Z 11004MPS 080V140 CAVOK 30/17 Q1017 R08/CLRD70 NOSIG"
"4:30 PM EEST on June 26, 2016","2016","06","26","16","30","Europe/Kiev","1:30 PM GMT on June 26, 2016","2016","06","26","13","30","UTC","30.0","86.0","16.0","60.8","43","10.8","6.7","-9999.0","-9999.0","130","SE","-9999.0","-9999.0","1017","30.04","-999","-999","30.1","86.1","-9999.00","-9999.00","Clear","clear","0","0","0","0","0","0","METAR UKKK 261330Z 13003MPS 060V190 CAVOK 30/16 Q1017 R08/CLRD70 NOSIG"
"5:00 PM EEST on June 26, 2016","2016","06","26","17","00","Europe/Kiev","2:00 PM GMT on June 26, 2016","2016","06","26","14","00","UTC","30.0","86.0","16.0","60.8","43","10.8","6.7","-9999.0","-9999.0","140","SE","-9999.0","-9999.0","1017","30.04","-999","-999","30.1","86.1","-9999.00","-9999.00","Clear","clear","0","0","0","0","0","0","METAR UKKK 261400Z 14003MPS 090V190 CAVOK 30/16 Q1017 R08/CLRD70 NOSIG"
"5:30 PM EEST on June 26, 2016","2016","06","26","17","30","Europe/Kiev","2:30 PM GMT on June 26, 2016","2016","06","26","14","30","UTC","30.0","86.0","16.0","60.8","43","10.8","6.7","-9999.0","-9999.0","200","SSW","-9999.0","-9999.0","1017","30.04","-999","-999","30.1","86.1","-9999.00","-9999.00","Clear","clear","0","0","0","0","0","0","METAR UKKK 261430Z 20003MPS 160V250 CAVOK 30/16 Q1017 R08/CLRD70 NOSIG"
"6:00 PM EEST on June 26, 2016","2016","06","26","18","00","Europe/Kiev","3:00 PM GMT on June 26, 2016","2016","06","26","15","00","UTC","29","85","15","59","32","7.2","4.5","","","150","SSE","20","12","1016","30.00","-999","-999","-9999","-9999","","","Scattered Clouds","partlycloudy","0","0","0","0","0","0","AAXX 26151 33345 42698 21502 10292 20152 39969 40158 57014 82200 555 10043"
"6:00 PM EEST on June 26, 2016","2016","06","26","18","00","Europe/Kiev","3:00 PM GMT on June 26, 2016","2016","06","26","15","00","UTC","30.0","86.0","15.0","59.0","40","10.8","6.7","-9999.0","-9999.0","190","South","-9999.0","-9999.0","1016","30.01","-999","-999","29.7","85.4","-9999.00","-9999.00","Clear","clear","0","0","0","0","0","0","METAR UKKK 261500Z 19003MPS 130V240 CAVOK 30/15 Q1016 R08/CLRD70 NOSIG"
"6:30 PM EEST on June 26, 2016","2016","06","26","18","30","Europe/Kiev","3:30 PM GMT on June 26, 2016","2016","06","26","15","30","UTC","29.0","84.2","15.0","59.0","42","10.8","6.7","-9999.0","-9999.0","160","SSE","-9999.0","-9999.0","1016","30.01","-999","-999","28.8","83.8","-9999.00","-9999.00","Clear","clear","0","0","0","0","0","0","METAR UKKK 261530Z 16003MPS CAVOK 29/15 Q1016 R08/CLRD70 NOSIG"
"7:00 PM EEST on June 26, 2016","2016","06","26","19","00","Europe/Kiev","4:00 PM GMT on June 26, 2016","2016","06","26","16","00","UTC","29.0","84.2","16.0","60.8","45","10.8","6.7","-9999.0","-9999.0","150","SSE","-9999.0","-9999.0","1016","30.01","-999","-999","29.1","84.4","-9999.00","-9999.00","Clear","clear","0","0","0","0","0","0","METAR UKKK 261600Z 15003MPS 100V190 CAVOK 29/16 Q1016 R08/CLRD70 NOSIG"
"7:30 PM EEST on June 26, 2016","2016","06","26","19","30","Europe/Kiev","4:30 PM GMT on June 26, 2016","2016","06","26","16","30","UTC","28.0","82.4","16.0","60.8","48","7.2","4.5","-9999.0","-9999.0","160","SSE","-9999.0","-9999.0","1016","30.01","-999","-999","28.3","82.9","-9999.00","-9999.00","Clear","clear","0","0","0","0","0","0","METAR UKKK 261630Z 16002MPS 120V210 CAVOK 28/16 Q1016 R08/CLRD70 NOSIG"
"8:00 PM EEST on June 26, 2016","2016","06","26","20","00","Europe/Kiev","5:00 PM GMT on June 26, 2016","2016","06","26","17","00","UTC","28.0","82.4","16.0","60.8","48","7.2","4.5","-9999.0","-9999.0","170","South","-9999.0","-9999.0","1016","30.01","-999","-999","28.3","82.9","-9999.00","-9999.00","Clear","clear","0","0","0","0","0","0","METAR UKKK 261700Z 17002MPS 120V220 CAVOK 28/16 Q1016 R08/CLRD70 NOSIG"
"8:30 PM EEST on June 26, 2016","2016","06","26","20","30","Europe/Kiev","5:30 PM GMT on June 26, 2016","2016","06","26","17","30","UTC","27.0","80.6","17.0","62.6","54","3.6","2.2","-9999.0","-9999.0","0","Variable","-9999.0","-9999.0","1015","29.98","-999","-999","27.7","81.8","-9999.00","-9999.00","Clear","clear","0","0","0","0","0","0","METAR UKKK 261730Z VRB01MPS CAVOK 27/17 Q1015 R08/CLRD70 NOSIG"
"9:00 PM EEST on June 26, 2016","2016","06","26","21","00","Europe/Kiev","6:00 PM GMT on June 26, 2016","2016","06","26","18","00","UTC","26","78","17","63","51","7.2","4.5","","","160","SSE","20","12","1015","29.97","-999","-999","-9999","-9999","","","","","0","0","0","0","0","0","AAXX 26181 33345 32998 01602 10257 20174 39958 40149 57011 333 10305 555 10027"
"9:00 PM EEST on June 26, 2016","2016","06","26","21","00","Europe/Kiev","6:00 PM GMT on June 26, 2016","2016","06","26","18","00","UTC","26.0","78.8","17.0","62.6","57","7.2","4.5","-9999.0","-9999.0","140","SE","8.0","5.0","1015","29.98","-999","-999","-9999","-9999","-9999.00","-9999.00","Clear","clear","0","0","0","0","0","0","METAR UKKK 261800Z 14002MPS 8000 SKC 26/17 Q1015 R08/CLRD70 NOSIG"
"9:30 PM EEST on June 26, 2016","2016","06","26","21","30","Europe/Kiev","6:30 PM GMT on June 26, 2016","2016","06","26","18","30","UTC","25.0","77.0","17.0","62.6","61","7.2","4.5","-9999.0","-9999.0","150","SSE","-9999.0","-9999.0","1015","29.98","-999","-999","-9999","-9999","-9999.00","-9999.00","Clear","clear","0","0","0","0","0","0","METAR UKKK 261830Z 15002MPS 120V200 CAVOK 25/17 Q1015 R08/CLRD70 NOSIG"
"10:00 PM EEST on June 26, 2016","2016","06","26","22","00","Europe/Kiev","7:00 PM GMT on June 26, 2016","2016","06","26","19","00","UTC","24.0","75.2","17.0","62.6","65","7.2","4.5","-9999.0","-9999.0","130","SE","-9999.0","-9999.0","1016","30.01","-999","-999","-9999","-9999","-9999.00","-9999.00","Clear","clear","0","0","0","0","0","0","METAR UKKK 261900Z 13002MPS CAVOK 24/17 Q1016 R08/CLRD70 NOSIG"
"10:30 PM EEST on June 26, 2016","2016","06","26","22","30","Europe/Kiev","7:30 PM GMT on June 26, 2016","2016","06","26","19","30","UTC","24.0","75.2","18.0","64.4","69","7.2","4.5","-9999.0","-9999.0","150","SSE","-9999.0","-9999.0","1016","30.01","-999","-999","-9999","-9999","-9999.00","-9999.00","Clear","clear","0","0","0","0","0","0","METAR UKKK 261930Z 15002MPS 120V190 CAVOK 24/18 Q1016 R08/CLRD70 NOSIG"
"11:00 PM EEST on June 26, 2016","2016","06","26","23","00","Europe/Kiev","8:00 PM GMT on June 26, 2016","2016","06","26","20","00","UTC","24.0","75.2","17.0","62.6","65","7.2","4.5","-9999.0","-9999.0","160","SSE","-9999.0","-9999.0","1016","30.01","-999","-999","-9999","-9999","-9999.00","-9999.00","Clear","clear","0","0","0","0","0","0","METAR UKKK 262000Z 16002MPS 130V190 CAVOK 24/17 Q1016 R08/CLRD70 NOSIG"
"11:30 PM EEST on June 26, 2016","2016","06","26","23","30","Europe/Kiev","8:30 PM GMT on June 26, 2016","2016","06","26","20","30","UTC","23.0","73.4","17.0","62.6","69","3.6","2.2","-9999.0","-9999.0","0","Variable","-9999.0","-9999.0","1016","30.01","-999","-999","-9999","-9999","-9999.00","-9999.00","Clear","clear","0","0","0","0","0","0","METAR UKKK 262030Z VRB01MPS CAVOK 23/17 Q1016 R08/CLRD70 NOSIG"
"12:00 AM EEST on June 27, 2016","2016","06","27","00","00","Europe/Kiev","9:00 PM GMT on June 26, 2016","2016","06","26","21","00","UTC","22","72","16","60","57","7.2","4.5","","","170","South","20","12","1016","30.00","-999","-999","-9999","-9999","","","","","0","0","0","0","0","0","AAXX 26211 33345 42998 01702 10222 20156 39965 40158 53007 555 10022"
"12:00 AM EEST on June 27, 2016","2016","06","27","00","00","Europe/Kiev","9:00 PM GMT on June 26, 2016","2016","06","26","21","00","UTC","22.0","71.6","17.0","62.6","73","0.0","0.0","-9999.0","-9999.0","0","North","-9999.0","-9999.0","1016","30.01","-999","-999","-9999","-9999","-9999.00","-9999.00","Clear","clear","0","0","0","0","0","0","METAR UKKK 262100Z 00000MPS CAVOK 22/17 Q1016 R08/CLRD70 NOSIG"
"12:30 AM EEST on June 27, 2016","2016","06","27","00","30","Europe/Kiev","9:30 PM GMT on June 26, 2016","2016","06","26","21","30","UTC","20.0","68.0","16.0","60.8","78","0.0","0.0","-9999.0","-9999.0","0","North","-9999.0","-9999.0","1016","30.01","-999","-999","-9999","-9999","-9999.00","-9999.00","Clear","clear","0","0","0","0","0","0","METAR UKKK 262130Z 00000MPS CAVOK 20/16 Q1016 R08/CLRD70 NOSIG"
"1:00 AM EEST on June 27, 2016","2016","06","27","01","00","Europe/Kiev","10:00 PM GMT on June 26, 2016","2016","06","26","22","00","UTC","21.0","69.8","16.0","60.8","73","3.6","2.2","-9999.0","-9999.0","90","East","-9999.0","-9999.0","1016","30.01","-999","-999","-9999","-9999","-9999.00","-9999.00","Clear","clear","0","0","0","0","0","0","METAR UKKK 262200Z 09001MPS CAVOK 21/16 Q1016 R08/CLRD70 NOSIG"
"1:30 AM EEST on June 27, 2016","2016","06","27","01","30","Europe/Kiev","10:30 PM GMT on June 26, 2016","2016","06","26","22","30","UTC","21.0","69.8","16.0","60.8","73","3.6","2.2","-9999.0","-9999.0","0","Variable","-9999.0","-9999.0","1016","30.01","-999","-999","-9999","-9999","-9999.00","-9999.00","Clear","clear","0","0","0","0","0","0","METAR UKKK 262230Z VRB01MPS CAVOK 21/16 Q1016 R08/CLRD70 NOSIG"
"2:00 AM EEST on June 27, 2016","2016","06","27","02","00","Europe/Kiev","11:00 PM GMT on June 26, 2016","2016","06","26","23","00","UTC","19.0","66.2","16.0","60.8","83","0.0","0.0","-9999.0","-9999.0","0","North","-9999.0","-9999.0","1016","30.01","-999","-999","-9999","-9999","-9999.00","-9999.00","Clear","clear","0","0","0","0","0","0","METAR UKKK 262300Z 00000MPS CAVOK 19/16 Q1016 R08/CLRD70 NOSIG"
"2:30 AM EEST on June 27, 2016","2016","06","27","02","30","Europe/Kiev","11:30 PM GMT on June 26, 2016","2016","06","26","23","30","UTC","19.0","66.2","16.0","60.8","83","0.0","0.0","-9999.0","-9999.0","0","North","-9999.0","-9999.0","1015","29.98","-999","-999","-9999","-9999","-9999.00","-9999.00","Clear","clear","0","0","0","0","0","0","METAR UKKK 262330Z 00000MPS CAVOK 19/16 Q1015 R08/CLRD70 NOSIG"
"3:00 AM EEST on June 27, 2016","2016","06","27","03","00","Europe/Kiev","12:00 AM GMT on June 27, 2016","2016","06","27","00","00","UTC","20","68","16","60","68","3.6","2.2","","","170","South","20","12","1015","29.98","-999","-999","-9999","-9999","","","","","0","0","0","0","0","0","AAXX 27001 33345 32998 01701 10200 20155 39955 40150 58010 555 10020"
"3:00 AM EEST on June 27, 2016","2016","06","27","03","00","Europe/Kiev","12:00 AM GMT on June 27, 2016","2016","06","27","00","00","UTC","19.0","66.2","16.0","60.8","83","0.0","0.0","-9999.0","-9999.0","0","North","-9999.0","-9999.0","1015","29.98","-999","-999","-9999","-9999","-9999.00","-9999.00","Clear","clear","0","0","0","0","0","0","METAR UKKK 270000Z 00000MPS CAVOK 19/16 Q1015 R08/CLRD70 NOSIG"
"3:30 AM EEST on June 27, 2016","2016","06","27","03","30","Europe/Kiev","12:30 AM GMT on June 27, 2016","2016","06","27","00","30","UTC","18.0","64.4","16.0","60.8","88","3.6","2.2","-9999.0","-9999.0","70","ENE","-9999.0","-9999.0","1015","29.98","-999","-999","-9999","-9999","-9999.00","-9999.00","Clear","clear","0","0","0","0","0","0","METAR UKKK 270030Z 07001MPS CAVOK 18/16 Q1015 R08/CLRD70 NOSIG"
"4:00 AM EEST on June 27, 2016","2016","06","27","04","00","Europe/Kiev","1:00 AM GMT on June 27, 2016","2016","06","27","01","00","UTC","18.0","64.4","16.0","60.8","88","0.0","0.0","-9999.0","-9999.0","0","North","-9999.0","-9999.0","1014","29.95","-999","-999","-9999","-9999","-9999.00","-9999.00","Clear","clear","0","0","0","0","0","0","METAR UKKK 270100Z 00000MPS CAVOK 18/16 Q1014 R08/CLRD70 NOSIG"
"4:30 AM EEST on June 27, 2016","2016","06","27","04","30","Europe/Kiev","1:30 AM GMT on June 27, 2016","2016","06","27","01","30","UTC","18.0","64.4","16.0","60.8","88","0.0","0.0","-9999.0","-9999.0","0","North","-9999.0","-9999.0","1014","29.95","-999","-999","-9999","-9999","-9999.00","-9999.00","Clear","clear","0","0","0","0","0","0","METAR UKKK 270130Z 00000MPS CAVOK 18/16 Q1014 R08/CLRD70 NOSIG"
"5:00 AM EEST on June 27, 2016","2016","06","27","05","00","Europe/Kiev","2:00 AM GMT on June 27, 2016","2016","06","27","02","00","UTC","18.0","64.4","16.0","60.8","88","0.0","0.0","-9999.0","-9999.0","0","North","-9999.0","-9999.0","1014","29.95","-999","-999","-9999","-9999","-9999.00","-9999.00","Clear","clear","0","0","0","0","0","0","METAR UKKK 270200Z 00000MPS CAVOK 18/16 Q1014 R08/CLRD70 NOSIG"
"5:30 AM EEST on June 27, 2016","2016","06","27","05","30","Europe/Kiev","2:30 AM GMT on June 27, 2016","2016","06","27","02","30","UTC","18.0","64.4","16.0","60.8","88","3.6","2.2","-9999.0","-9999.0","0","Variable","-9999.0","-9999.0","1015","29.98","-999","-999","-9999","-9999","-9999.00","-9999.00","Clear","clear","0","0","0","0","0","0","METAR UKKK 270230Z VRB01MPS CAVOK 18/16 Q1015 R08/CLRD70 NOSIG"
"6:00 AM EEST on June 27, 2016","2016","06","27","06","00","Europe/Kiev","3:00 AM GMT on June 27, 2016","2016","06","27","03","00","UTC","21","69","16","60","66","7.2","4.5","","","220","SW","20","12","1014","29.96","-999","-999","-9999","-9999","","","","","0","0","0","0","0","0","AAXX 27031 33345 42998 02202 10208 20156 39949 40143 57006 555 10020"
"6:00 AM EEST on June 27, 2016","2016","06","27","06","00","Europe/Kiev","3:00 AM GMT on June 27, 2016","2016","06","27","03","00","UTC","20.0","68.0","17.0","62.6","83","0.0","0.0","-9999.0","-9999.0","0","North","-9999.0","-9999.0","1014","29.95","-999","-999","-9999","-9999","-9999.00","-9999.00","Clear","clear","0","0","0","0","0","0","METAR UKKK 270300Z 00000MPS CAVOK 20/17 Q1014 R08/CLRD70 NOSIG"
"6:30 AM EEST on June 27, 2016","2016","06","27","06","30","Europe/Kiev","3:30 AM GMT on June 27, 2016","2016","06","27","03","30","UTC","22.0","71.6","18.0","64.4","78","0.0","0.0","-9999.0","-9999.0","0","North","-9999.0","-9999.0","1014","29.95","-999","-999","-9999","-9999","-9999.00","-9999.00","Clear","clear","0","0","0","0","0","0","METAR UKKK 270330Z 00000MPS CAVOK 22/18 Q1014 R08/CLRD70 NOSIG"
"7:00 AM EEST on June 27, 2016","2016","06","27","07","00","Europe/Kiev","4:00 AM GMT on June 27, 2016","2016","06","27","04","00","UTC","23.0","73.4","18.0","64.4","73","0.0","0.0","-9999.0","-9999.0","0","North","-9999.0","-9999.0","1014","29.95","-999","-999","-9999","-9999","-9999.00","-9999.00","Clear","clear","0","0","0","0","0","0","METAR UKKK 270400Z 00000MPS CAVOK 23/18 Q1014 R08/CLRD70 NOSIG"
"7:30 AM EEST on June 27, 2016","2016","06","27","07","30","Europe/Kiev","4:30 AM GMT on June 27, 2016","2016","06","27","04","30","UTC","24.0","75.2","18.0","64.4","69","0.0","0.0","-9999.0","-9999.0","0","North","-9999.0","-9999.0","1014","29.95","-999","-999","-9999","-9999","-9999.00","-9999.00","Clear","clear","0","0","0","0","0","0","METAR UKKK 270430Z 00000MPS CAVOK 24/18 Q1014 R08/CLRD70 NOSIG"
"8:00 AM EEST on June 27, 2016","2016","06","27","08","00","Europe/Kiev","5:00 AM GMT on June 27, 2016","2016","06","27","05","00","UTC","25.0","77.0","18.0","64.4","65","7.2","4.5","-9999.0","-9999.0","230","SW","-9999.0","-9999.0","1014","29.95","-999","-999","-9999","-9999","-9999.00","-9999.00","Clear","clear","0","0","0","0","0","0","METAR UKKK 270500Z 23002MPS 190V270 CAVOK 25/18 Q1014 R08/CLRD70 NOSIG"
"8:30 AM EEST on June 27, 2016","2016","06","27","08","30","Europe/Kiev","5:30 AM GMT on June 27, 2016","2016","06","27","05","30","UTC","26.0","78.8","18.0","64.4","61","10.8","6.7","-9999.0","-9999.0","240","WSW","-9999.0","-9999.0","1014","29.95","-999","-999","-9999","-9999","-9999.00","-9999.00","Clear","clear","0","0","0","0","0","0","METAR UKKK 270530Z 24003MPS 210V270 CAVOK 26/18 Q1014 R26/CLRD70 NOSIG"
"9:00 AM EEST on June 27, 2016","2016","06","27","09","00","Europe/Kiev","6:00 AM GMT on June 27, 2016","2016","06","27","06","00","UTC","27","80","18","64","49","7.2","4.5","","","230","SW","20","12","1013","29.93","-999","-999","-9999","-9999","","","","","0","0","0","0","0","0","AAXX 27061 33345 32998 02302 10268 20178 39943 40133 57006 333 20194 555 10040"
"9:00 AM EEST on June 27, 2016","2016","06","27","09","00","Europe/Kiev","6:00 AM GMT on June 27, 2016","2016","06","27","06","00","UTC","27.0","80.6","18.0","64.4","58","10.8","6.7","-9999.0","-9999.0","260","West","-9999.0","-9999.0","1014","29.95","-999","-999","27.9","82.3","-9999.00","-9999.00","Clear","clear","0","0","0","0","0","0","METAR UKKK 270600Z 26003MPS CAVOK 27/18 Q1014 R26/CLRD70 NOSIG"
"9:30 AM EEST on June 27, 2016","2016","06","27","09","30","Europe/Kiev","6:30 AM GMT on June 27, 2016","2016","06","27","06","30","UTC","27.0","80.6","18.0","64.4","58","7.2","4.5","-9999.0","-9999.0","240","WSW","-9999.0","-9999.0","1014","29.95","-999","-999","27.9","82.3","-9999.00","-9999.00","Clear","clear","0","0","0","0","0","0","METAR UKKK 270630Z 24002MPS 180V290 CAVOK 27/18 Q1014 R26/CLRD70 NOSIG"
"10:00 AM EEST on June 27, 2016","2016","06","27","10","00","Europe/Kiev","7:00 AM GMT on June 27, 2016","2016","06","27","07","00","UTC","28.0","82.4","19.0","66.2","58","7.2","4.5","-9999.0","-9999.0","250","WSW","-9999.0","-9999.0","1014","29.95","-999","-999","29.2","84.6","-9999.00","-9999.00","Clear","clear","0","0","0","0","0","0","METAR UKKK 270700Z 25002MPS 170V290 CAVOK 28/19 Q1014 R26/CLRD70 NOSIG"
"10:30 AM EEST on June 27, 2016","2016","06","27","10","30","Europe/Kiev","7:30 AM GMT on June 27, 2016","2016","06","27","07","30","UTC","28.0","82.4","17.0","62.6","51","3.6","2.2","-9999.0","-9999.0","0","Variable","-9999.0","-9999.0","1013","29.92","-999","-999","28.5","83.4","-9999.00","-9999.00","Clear","clear","0","0","0","0","0","0","METAR UKKK 270730Z VRB01MPS CAVOK 28/17 Q1013 R26/CLRD70 NOSIG"
"11:00 AM EEST on June 27, 2016","2016","06","27","11","00","Europe/Kiev","8:00 AM GMT on June 27, 2016","2016","06","27","08","00","UTC","29.0","84.2","18.0","64.4","51","3.6","2.2","-9999.0","-9999.0","0","Variable","-9999.0","-9999.0","1013","29.92","-999","-999","29.8","85.6","-9999.00","-9999.00","Clear","clear","0","0","0","0","0","0","METAR UKKK 270800Z VRB01MPS CAVOK 29/18 Q1013 R26/CLRD70 NOSIG"
"11:30 AM EEST on June 27, 2016","2016","06","27","11","30","Europe/Kiev","8:30 AM GMT on June 27, 2016","2016","06","27","08","30","UTC","28.0","82.4","17.0","62.6","51","3.6","2.2","-9999.0","-9999.0","0","Variable","-9999.0","-9999.0","1013","29.92","-999","-999","28.5","83.4","-9999.00","-9999.00","Clear","clear","0","0","0","0","0","0","METAR UKKK 270830Z VRB01MPS CAVOK 28/17 Q1013 R26/CLRD70 NOSIG"
"12:00 PM EEST on June 27, 2016","2016","06","27","12","00","Europe/Kiev","9:00 AM GMT on June 27, 2016","2016","06","27","09","00","UTC","29","85","16","61","34","3.6","2.2","","","140","SE","20","12","1012","29.89","-999","-999","-9999","-9999","","","Partly Cloudy","partlycloudy","0","0","0","0","0","0","AAXX 27091 33345 42598 61401 10294 20159 39933 40121 57010 84902 555 10055"
"12:00 PM EEST on June 27, 2016","2016","06","27","12","00","Europe/Kiev","9:00 AM GMT on June 27, 2016","2016","06","27","09","00","UTC","29.0","84.2","16.0","60.8","45","7.2","4.5","-9999.0","-9999.0","150","SSE","-9999.0","-9999.0","1013","29.92","-999","-999","29.1","84.4","-9999.00","-9999.00","Clear","clear","0","0","0","0","0","0","METAR UKKK 270900Z 15002MPS 100V210 CAVOK 29/16 Q1013 R26/CLRD70 NOSIG"
"12:30 PM EEST on June 27, 2016","2016","06","27","12","30","Europe/Kiev","9:30 AM GMT on June 27, 2016","2016","06","27","09","30","UTC","30.0","86.0","16.0","60.8","43","7.2","4.5","-9999.0","-9999.0","210","SSW","-9999.0","-9999.0","1013","29.92","-999","-999","30.1","86.1","-9999.00","-9999.00","Clear","clear","0","0","0","0","0","0","METAR UKKK 270930Z 21002MPS CAVOK 30/16 Q1013 R26/CLRD70 NOSIG"
"1:00 PM EEST on June 27, 2016","2016","06","27","13","00","Europe/Kiev","10:00 AM GMT on June 27, 2016","2016","06","27","10","00","UTC","30.0","86.0","18.0","64.4","48","7.2","4.5","-9999.0","-9999.0","280","West","-9999.0","-9999.0","1012","29.89","-999","-999","30.7","87.3","-9999.00","-9999.00","Clear","clear","0","0","0","0","0","0","METAR UKKK 271000Z 28002MPS 210V360 CAVOK 30/18 Q1012 R26/CLRD70 NOSIG"
"1:30 PM EEST on June 27, 2016","2016","06","27","13","30","Europe/Kiev","10:30 AM GMT on June 27, 2016","2016","06","27","10","30","UTC","30.0","86.0","17.0","62.6","45","10.8","6.7","-9999.0","-9999.0","230","SW","-9999.0","-9999.0","1012","29.89","-999","-999","30.3","86.6","-9999.00","-9999.00","Clear","clear","0","0","0","0","0","0","METAR UKKK 271030Z 23003MPS 160V280 CAVOK 30/17 Q1012 R26/CLRD70 NOSIG"
"2:00 PM EEST on June 27, 2016","2016","06","27","14","00","Europe/Kiev","11:00 AM GMT on June 27, 2016","2016","06","27","11","00","UTC","30.0","86.0","17.0","62.6","45","10.8","6.7","-9999.0","-9999.0","270","West","-9999.0","-9999.0","1012","29.89","-999","-999","30.3","86.6","-9999.00","-9999.00","Clear","clear","0","0","0","0","0","0","METAR UKKK 271100Z 27003MPS 180V310 CAVOK 30/17 Q1012 R26/CLRD70 NOSIG"
"2:30 PM EEST on June 27, 2016","2016","06","27","14","30","Europe/Kiev","11:30 AM GMT on June 27, 2016","2016","06","27","11","30","UTC","31.0","87.8","17.0","62.6","43","3.6","2.2","-9999.0","-9999.0","0","Variable","-9999.0","-9999.0","1012","29.89","-999","-999","31.4","88.5","-9999.00","-9999.00","Clear","clear","0","0","0","0","0","0","METAR UKKK 271130Z VRB01MPS CAVOK 31/17 Q1012 R26/CLRD70 NOSIG"
"3:00 PM EEST on June 27, 2016","2016","06","27","15","00","Europe/Kiev","12:00 PM GMT on June 27, 2016","2016","06","27","12","00","UTC","31","88","16","60","29","3.6","2.2","","","250","WSW","20","12","1011","29.85","-999","-999","-9999","-9999","","","Mostly Cloudy","mostlycloudy","0","0","0","0","0","0","AAXX 27121 33345 32598 72501 10310 20158 39921 40108 57012 85905 555 10054"
"3:00 PM EEST on June 27, 2016","2016","06","27","15","00","Europe/Kiev","12:00 PM GMT on June 27, 2016","2016","06","27","12","00","UTC","30.0","86.0","15.0","59.0","40","7.2","4.5","-9999.0","-9999.0","20","NNE","-9999.0","-9999.0","1012","29.89","-999","-999","29.7","85.4","-9999.00","-9999.00","Clear","clear","0","0","0","0","0","0","METAR UKKK 271200Z 02002MPS 290V060 CAVOK 30/15 Q1012 R26/CLRD70 NOSIG"
"3:30 PM EEST on June 27, 2016","2016","06","27","15","30","Europe/Kiev","12:30 PM GMT on June 27, 2016","2016","06","27","12","30","UTC","31.0","87.8","17.0","62.6","43","3.6","2.2","-9999.0","-9999.0","0","Variable","-9999.0","-9999.0","1011","29.86","-999","-999","31.4","88.5","-9999.00","-9999.00","Clear","clear","0","0","0","0","0","0","METAR UKKK 271230Z VRB01MPS CAVOK 31/17 Q1011 R26/CLRD70 NOSIG"
"4:00 PM EEST on June 27, 2016","2016","06","27","16","00","Europe/Kiev","1:00 PM GMT on June 27, 2016","2016","06","27","13","00","UTC","31.0","87.8","16.0","60.8","40","7.2","4.5","-9999.0","-9999.0","130","SE","-9999.0","-9999.0","1011","29.86","-999","-999","30.9","87.6","-9999.00","-9999.00","Clear","clear","0","0","0","0","0","0","METAR UKKK 271300Z 13002MPS CAVOK 31/16 Q1011 R08/CLRD70 NOSIG"
"4:30 PM EEST on June 27, 2016","2016","06","27","16","30","Europe/Kiev","1:30 PM GMT on June 27, 2016","2016","06","27","13","30","UTC","31.0","87.8","17.0","62.6","43","10.8","6.7","-9999.0","-9999.0","90","East","-9999.0","-9999.0","1011","29.86","-999","-999","31.4","88.5","-9999.00","-9999.00","Clear","clear","0","0","0","0","0","0","METAR UKKK 271330Z 09003MPS 050V130 CAVOK 31/17 Q1011 R08/CLRD70 NOSIG"
"5:00 PM EEST on June 27, 2016","2016","06","27","17","00","Europe/Kiev","2:00 PM GMT on June 27, 2016","2016","06","27","14","00","UTC","30.0","86.0","17.0","62.6","45","7.2","4.5","-9999.0","-9999.0","210","SSW","-9999.0","-9999.0","1010","29.83","-999","-999","30.3","86.6","-9999.00","-9999.00","Clear","clear","0","0","0","0","0","0","METAR UKKK 271400Z 21002MPS 120V260 CAVOK 30/17 Q1010 R08/CLRD70 NOSIG"
"5:30 PM EEST on June 27, 2016","2016","06","27","17","30","Europe/Kiev","2:30 PM GMT on June 27, 2016","2016","06","27","14","30","UTC","30.0","86.0","18.0","64.4","48","0.0","0.0","-9999.0","-9999.0","0","North","-9999.0","-9999.0","1010","29.83","-999","-999","30.7","87.3","-9999.00","-9999.00","Clear","clear","0","0","0","0","0","0","METAR UKKK 271430Z 00000MPS CAVOK 30/18 Q1010 R08/CLRD70 NOSIG"
"6:00 PM EEST on June 27, 2016","2016","06","27","18","00","Europe/Kiev","3:00 PM GMT on June 27, 2016","2016","06","27","15","00","UTC","28","83","18","65","44","7.2","4.5","","","170","South","20","12","1009","29.81","-999","-999","-9999","-9999","","","Mostly Cloudy","mostlycloudy","0","0","0","0","0","0","AAXX 27151 33345 42598 61702 10285 20182 39904 40092 57017 85985 555 10035"
"6:00 PM EEST on June 27, 2016","2016","06","27","18","00","Europe/Kiev","3:00 PM GMT on June 27, 2016","2016","06","27","15","00","UTC","30.0","86.0","17.0","62.6","45","7.2","4.5","-9999.0","-9999.0","210","SSW","-9999.0","-9999.0","1010","29.83","-999","-999","30.3","86.6","-9999.00","-9999.00","Clear","clear","0","0","0","0","0","0","METAR UKKK 271500Z 21002MPS 150V300 CAVOK 30/17 Q1010 R08/CLRD70 NOSIG"
"6:30 PM EEST on June 27, 2016","2016","06","27","18","30","Europe/Kiev","3:30 PM GMT on June 27, 2016","2016","06","27","15","30","UTC","30.0","86.0","16.0","60.8","43","10.8","6.7","-9999.0","-9999.0","210","SSW","-9999.0","-9999.0","1010","29.83","-999","-999","30.1","86.1","-9999.00","-9999.00","Clear","clear","0","0","0","0","0","0","METAR UKKK 271530Z 21003MPS 170V250 CAVOK 30/16 Q1010 R08/CLRD70 NOSIG"
"7:00 PM EEST on June 27, 2016","2016","06","27","19","00","Europe/Kiev","4:00 PM GMT on June 27, 2016","2016","06","27","16","00","UTC","30.0","86.0","17.0","62.6","45","7.2","4.5","-9999.0","-9999.0","190","South","-9999.0","-9999.0","1010","29.83","-999","-999","30.3","86.6","-9999.00","-9999.00","Clear","clear","0","0","0","0","0","0","METAR UKKK 271600Z 19002MPS 140V240 CAVOK 30/17 Q1010 R08/CLRD70 NOSIG"
"7:30 PM EEST on June 27, 2016","2016","06","27","19","30","Europe/Kiev","4:30 PM GMT on June 27, 2016","2016","06","27","16","30","UTC","29.0","84.2","17.0","62.6","48","7.2","4.5","-9999.0","-9999.0","180","South","-9999.0","-9999.0","1010","29.83","-999","-999","29.4","85.0","-9999.00","-9999.00","Clear","clear","0","0","0","0","0","0","METAR UKKK 271630Z 18002MPS 130V230 CAVOK 29/17 Q1010 R08/CLRD70 NOSIG"
"8:00 PM EEST on June 27, 2016","2016","06","27","20","00","Europe/Kiev","5:00 PM GMT on June 27, 2016","2016","06","27","17","00","UTC","29.0","84.2","17.0","62.6","48","7.2","4.5","-9999.0","-9999.0","190","South","-9999.0","-9999.0","1010","29.83","-999","-999","29.4","85.0","-9999.00","-9999.00","Clear","clear","0","0","0","0","0","0","METAR UKKK 271700Z 19002MPS 150V220 CAVOK 29/17 Q1010 R08/CLRD70 NOSIG"
"8:30 PM EEST on June 27, 2016","2016","06","27","20","30","Europe/Kiev","5:30 PM GMT on June 27, 2016","2016","06","27","17","30","UTC","28.0","82.4","17.0","62.6","51","3.6","2.2","-9999.0","-9999.0","0","Variable","-9999.0","-9999.0","1010","29.83","-999","-999","28.5","83.4","-9999.00","-9999.00","Clear","clear","0","0","0","0","0","0","METAR UKKK 271730Z VRB01MPS CAVOK 28/17 Q1010 R08/CLRD70 NOSIG"
"9:00 PM EEST on June 27, 2016","2016","06","27","21","00","Europe/Kiev","6:00 PM GMT on June 27, 2016","2016","06","27","18","00","UTC","26","80","17","63","47","7.2","4.5","","","230","SW","20","12","1009","29.80","-999","-999","-9999","-9999","","","Clear","clear","0","0","0","0","0","0","AAXX 27181 33345 32998 32302 10264 20174 39900 40089 56004 80005 333 10311 555 10027"
"9:00 PM EEST on June 27, 2016","2016","06","27","21","00","Europe/Kiev","6:00 PM GMT on June 27, 2016","2016","06","27","18","00","UTC","26.0","78.8","18.0","64.4","61","3.6","2.2","-9999.0","-9999.0","200","SSW","-9999.0","-9999.0","1009","29.80","-999","-999","-9999","-9999","-9999.00","-9999.00","Clear","clear","0","0","0","0","0","0","METAR UKKK 271800Z 20001MPS CAVOK 26/18 Q1009 R08/CLRD70 NOSIG"
"9:30 PM EEST on June 27, 2016","2016","06","27","21","30","Europe/Kiev","6:30 PM GMT on June 27, 2016","2016","06","27","18","30","UTC","25.0","77.0","18.0","64.4","65","3.6","2.2","-9999.0","-9999.0","220","SW","8.0","5.0","1010","29.83","-999","-999","-9999","-9999","-9999.00","-9999.00","Unknown","unknown","0","0","0","0","0","0","METAR UKKK 271830Z 22001MPS 8000 NSC 25/18 Q1010 R08/CLRD70 NOSIG"
"10:00 PM EEST on June 27, 2016","2016","06","27","22","00","Europe/Kiev","7:00 PM GMT on June 27, 2016","2016","06","27","19","00","UTC","24.0","75.2","17.0","62.6","65","3.6","2.2","-9999.0","-9999.0","200","SSW","6.0","3.7","1010","29.83","-999","-999","-9999","-9999","-9999.00","-9999.00","Unknown","unknown","0","0","0","0","0","0","METAR UKKK 271900Z 20001MPS 6000 NSC 24/17 Q1010 R08/CLRD70 NOSIG"
"10:30 PM EEST on June 27, 2016","2016","06","27","22","30","Europe/Kiev","7:30 PM GMT on June 27, 2016","2016","06","27","19","30","UTC","22.0","71.6","17.0","62.6","73","0.0","0.0","-9999.0","-9999.0","0","North","9.0","5.6","1010","29.83","-999","-999","-9999","-9999","-9999.00","-9999.00","Unknown","unknown","0","0","0","0","0","0","METAR UKKK 271930Z 00000MPS 9000 NSC 22/17 Q1010 R08/CLRD70 NOSIG"
"11:00 PM EEST on June 27, 2016","2016","06","27","23","00","Europe/Kiev","8:00 PM GMT on June 27, 2016","2016","06","27","20","00","UTC","22.0","71.6","17.0","62.6","73","0.0","0.0","-9999.0","-9999.0","0","North","9.0","5.6","1010","29.83","-999","-999","-9999","-9999","-9999.00","-9999.00","Unknown","unknown","0","0","0","0","0","0","METAR UKKK 272000Z 00000MPS 9000 NSC 22/17 Q1010 R08/CLRD70 NOSIG"
"11:30 PM EEST on June 27, 2016","2016","06","27","23","30","Europe/Kiev","8:30 PM GMT on June 27, 2016","2016","06","27","20","30","UTC","22.0","71.6","17.0","62.6","73","0.0","0.0","-9999.0","-9999.0","0","North","-9999.0","-9999.0","1009","29.80","-999","-999","-9999","-9999","-9999.00","-9999.00","Clear","clear","0","0","0","0","0","0","METAR UKKK 272030Z 00000MPS CAVOK 22/17 Q1009 R08/CLRD70 NOSIG"
"12:00 AM EEST on June 28, 2016","2016","06","28","00","00","Europe/Kiev","9:00 PM GMT on June 27, 2016","2016","06","27","21","00","UTC","24","76","16","60","49","3.6","2.2","","","280","West","20","12","1009","29.80","-999","-999","-9999","-9999","","","Partly Cloudy","partlycloudy","0","0","0","0","0","0","AAXX 27211 33345 42998 52801 10244 20157 39899 40090 56001 83084 555 10023"
"12:00 AM EEST on June 28, 2016","2016","06","28","00","00","Europe/Kiev","9:00 PM GMT on June 27, 2016","2016","06","27","21","00","UTC","22.0","71.6","18.0","64.4","78","0.0","0.0","-9999.0","-9999.0","0","North","-9999.0","-9999.0","1009","29.80","-999","-999","-9999","-9999","-9999.00","-9999.00","Clear","clear","0","0","0","0","0","0","METAR UKKK 272100Z 00000MPS CAVOK 22/18 Q1009 R08/CLRD70 NOSIG"
"12:30 AM EEST on June 28, 2016","2016","06","28","00","30","Europe/Kiev","9:30 PM GMT on June 27, 2016","2016","06","27","21","30","UTC","21.0","69.8","17.0","62.6","78","7.2","4.5","-9999.0","-9999.0","300","WNW","-9999.0","-9999.0","1009","29.80","-999","-999","-9999","-9999","-9999.00","-9999.00","Clear","clear","0","0","0","0","0","0","METAR UKKK 272130Z 30002MPS 270V340 CAVOK 21/17 Q1009 R26/CLRD70 NOSIG"
"1:00 AM EEST on June 28, 2016","2016","06","28","01","00","Europe/Kiev","10:00 PM GMT on June 27, 2016","2016","06","27","22","00","UTC","21.0","69.8","18.0","64.4","83","7.2","4.5","-9999.0","-9999.0","220","SW","-9999.0","-9999.0","1009","29.80","-999","-999","-9999","-9999","-9999.00","-9999.00","Clear","clear","0","0","0","0","0","0","METAR UKKK 272200Z 22002MPS CAVOK 21/18 Q1009 R26/CLRD70 NOSIG"
"1:30 AM EEST on June 28, 2016","2016","06","28","01","30","Europe/Kiev","10:30 PM GMT on June 27, 2016","2016","06","27","22","30","UTC","20.0","68.0","17.0","62.6","83","7.2","4.5","-9999.0","-9999.0","280","West","-9999.0","-9999.0","1009","29.80","-999","-999","-9999","-9999","-9999.00","-9999.00","Clear","clear","0","0","0","0","0","0","METAR UKKK 272230Z 28002MPS CAVOK 20/17 Q1009 R26/CLRD70 NOSIG"
"2:00 AM EEST on June 28, 2016","2016","06","28","02","00","Europe/Kiev","11:00 PM GMT on June 27, 2016","2016","06","27","23","00","UTC","21.0","69.8","17.0","62.6","78","3.6","2.2","-9999.0","-9999.0","280","West","-9999.0","-9999.0","1009","29.80","-999","-999","-9999","-9999","-9999.00","-9999.00","Clear","clear","0","0","0","0","0","0","METAR UKKK 272300Z 28001MPS CAVOK 21/17 Q1009 R26/CLRD70 NOSIG"
"2:30 AM EEST on June 28, 2016","2016","06","28","02","30","Europe/Kiev","11:30 PM GMT on June 27, 2016","2016","06","27","23","30","UTC","21.0","69.8","17.0","62.6","78","3.6","2.2","-9999.0","-9999.0","0","Variable","-9999.0","-9999.0","1009","29.80","-999","-999","-9999","-9999","-9999.00","-9999.00","Clear","clear","0","0","0","0","0","0","METAR UKKK 272330Z VRB01MPS CAVOK 21/17 Q1009 R26/CLRD70 NOSIG"
"3:00 AM EEST on June 28, 2016","2016","06","28","03","00","Europe/Kiev","12:00 AM GMT on June 28, 2016","2016","06","28","00","00","UTC","23","73","17","62","60","3.6","2.2","","","330","NNW","20","12","1009","29.79","-999","-999","-9999","-9999","","","Clear","clear","0","0","0","0","0","0","AAXX 28001 33345 32998 33301 10227 20167 39896 40087 57003 80004 555 10021"
"3:00 AM EEST on June 28, 2016","2016","06","28","03","00","Europe/Kiev","12:00 AM GMT on June 28, 2016","2016","06","28","00","00","UTC","22.0","71.6","17.0","62.6","73","3.6","2.2","-9999.0","-9999.0","0","Variable","-9999.0","-9999.0","1009","29.80","-999","-999","-9999","-9999","-9999.00","-9999.00","Clear","clear","0","0","0","0","0","0","METAR UKKK 280000Z VRB01MPS CAVOK 22/17 Q1009 R26/CLRD70 NOSIG"
"3:30 AM EEST on June 28, 2016","2016","06","28","03","30","Europe/Kiev","12:30 AM GMT on June 28, 2016","2016","06","28","00","30","UTC","23.0","73.4","17.0","62.6","69","10.8","6.7","-9999.0","-9999.0","320","NW","-9999.0","-9999.0","1009","29.80","-999","-999","-9999","-9999","-9999.00","-9999.00","Clear","clear","0","0","0","0","0","0","METAR UKKK 280030Z 32003MPS 290V350 CAVOK 23/17 Q1009 R26/CLRD70 NOSIG"
"4:00 AM EEST on June 28, 2016","2016","06","28","04","00","Europe/Kiev","1:00 AM GMT on June 28, 2016","2016","06","28","01","00","UTC","22.0","71.6","18.0","64.4","78","18.0","11.2","-9999.0","-9999.0","330","NNW","-9999.0","-9999.0","1009","29.80","-999","-999","-9999","-9999","-9999.00","-9999.00","Clear","clear","0","0","0","0","0","0","METAR UKKK 280100Z 33005MPS CAVOK 22/18 Q1009 R26/CLRD70 NOSIG"
"4:30 AM EEST on June 28, 2016","2016","06","28","04","30","Europe/Kiev","1:30 AM GMT on June 28, 2016","2016","06","28","01","30","UTC","21.0","69.8","18.0","64.4","83","10.8","6.7","-9999.0","-9999.0","350","North","-9999.0","-9999.0","1009","29.80","-999","-999","-9999","-9999","-9999.00","-9999.00","Clear","clear","0","0","0","0","0","0","METAR UKKK 280130Z 35003MPS 310V010 CAVOK 21/18 Q1009 R26/CLRD70 NOSIG"
"5:00 AM EEST on June 28, 2016","2016","06","28","05","00","Europe/Kiev","2:00 AM GMT on June 28, 2016","2016","06","28","02","00","UTC","21.0","69.8","18.0","64.4","83","3.6","2.2","-9999.0","-9999.0","0","Variable","-9999.0","-9999.0","1009","29.80","-999","-999","-9999","-9999","-9999.00","-9999.00","Clear","clear","0","0","0","0","0","0","METAR UKKK 280200Z VRB01MPS CAVOK 21/18 Q1009 R26/CLRD70 NOSIG"
"5:30 AM EEST on June 28, 2016","2016","06","28","05","30","Europe/Kiev","2:30 AM GMT on June 28, 2016","2016","06","28","02","30","UTC","20.0","68.0","18.0","64.4","88","7.2","4.5","-9999.0","-9999.0","250","WSW","-9999.0","-9999.0","1009","29.80","-999","-999","-9999","-9999","-9999.00","-9999.00","Clear","clear","0","0","0","0","0","0","METAR UKKK 280230Z 25002MPS CAVOK 20/18 Q1009 R26/CLRD70 NOSIG"
"6:00 AM EEST on June 28, 2016","2016","06","28","06","00","Europe/Kiev","3:00 AM GMT on June 28, 2016","2016","06","28","03","00","UTC","22","71","18","64","73","10.8","6.7","","","350","North","20","12","1008","29.78","-999","-999","-9999","-9999","","","Scattered Clouds","partlycloudy","0","0","0","0","0","0","AAXX 28031 33345 42998 43503 10216 20179 39893 40085 57003 82045 555 10021"
"6:00 AM EEST on June 28, 2016","2016","06","28","06","00","Europe/Kiev","3:00 AM GMT on June 28, 2016","2016","06","28","03","00","UTC","22.0","71.6","18.0","64.4","78","7.2","4.5","-9999.0","-9999.0","40","NE","-9999.0","-9999.0","1009","29.80","-999","-999","-9999","-9999","-9999.00","-9999.00","Clear","clear","0","0","0","0","0","0","METAR UKKK 280300Z 04002MPS 350V090 CAVOK 22/18 Q1009 R26/CLRD70 NOSIG"
"6:30 AM EEST on June 28, 2016","2016","06","28","06","30","Europe/Kiev","3:30 AM GMT on June 28, 2016","2016","06","28","03","30","UTC","22.0","71.6","19.0","66.2","83","7.2","4.5","-9999.0","-9999.0","10","North","9.0","5.6","1009","29.80","-999","-999","-9999","-9999","-9999.00","-9999.00","Unknown","unknown","0","0","0","0","0","0","METAR UKKK 280330Z 01002MPS 280V070 9000 NSC 22/19 Q1009 R26/CLRD70 NOSIG"
"7:00 AM EEST on June 28, 2016","2016","06","28","07","00","Europe/Kiev","4:00 AM GMT on June 28, 2016","2016","06","28","04","00","UTC","23.0","73.4","19.0","66.2","78","10.8","6.7","-9999.0","-9999.0","30","NNE","-9999.0","-9999.0","1009","29.80","-999","-999","-9999","-9999","-9999.00","-9999.00","Clear","clear","0","0","0","0","0","0","METAR UKKK 280400Z 03003MPS 350V060 CAVOK 23/19 Q1009 R26/CLRD70 NOSIG"
"7:30 AM EEST on June 28, 2016","2016","06","28","07","30","Europe/Kiev","4:30 AM GMT on June 28, 2016","2016","06","28","04","30","UTC","23.0","73.4","20.0","68.0","83","10.8","6.7","-9999.0","-9999.0","30","NNE","-9999.0","-9999.0","1009","29.80","-999","-999","-9999","-9999","-9999.00","-9999.00","Clear","clear","0","0","0","0","0","0","METAR UKKK 280430Z 03003MPS CAVOK 23/20 Q1009 R26/CLRD70 NOSIG"
"8:00 AM EEST on June 28, 2016","2016","06","28","08","00","Europe/Kiev","5:00 AM GMT on June 28, 2016","2016","06","28","05","00","UTC","24.0","75.2","20.0","68.0","78","10.8","6.7","-9999.0","-9999.0","10","North","-9999.0","-9999.0","1009","29.80","-999","-999","-9999","-9999","-9999.00","-9999.00","Clear","clear","0","0","0","0","0","0","METAR UKKK 280500Z 01003MPS 340V050 CAVOK 24/20 Q1009 R26/CLRD70 NOSIG"
"8:30 AM EEST on June 28, 2016","2016","06","28","08","30","Europe/Kiev","5:30 AM GMT on June 28, 2016","2016","06","28","05","30","UTC","25.0","77.0","20.0","68.0","74","14.4","8.9","-9999.0","-9999.0","20","NNE","-9999.0","-9999.0","1009","29.80","-999","-999","-9999","-9999","-9999.00","-9999.00","Clear","clear","0","0","0","0","0","0","METAR UKKK 280530Z 02004MPS CAVOK 25/20 Q1009 R26/CLRD70 NOSIG"
"9:00 AM EEST on June 28, 2016","2016","06","28","09","00","Europe/Kiev","6:00 AM GMT on June 28, 2016","2016","06","28","06","00","UTC","25","77","20","68","68","10.8","6.7","","","0","North","20","12","1008","29.78","-999","-999","-9999","-9999","","","Clear","clear","0","0","0","0","0","0","AAXX 28061 33345 32998 63603 10249 20202 39895 40085 53002 80005 333 20213 555 10039"
"9:00 AM EEST on June 28, 2016","2016","06","28","09","00","Europe/Kiev","6:00 AM GMT on June 28, 2016","2016","06","28","06","00","UTC","25.0","77.0","20.0","68.0","74","10.8","6.7","-9999.0","-9999.0","360","North","-9999.0","-9999.0","1009","29.80","-999","-999","-9999","-9999","-9999.00","-9999.00","Clear","clear","0","0","0","0","0","0","METAR UKKK 280600Z 36003MPS 330V040 CAVOK 25/20 Q1009 R26/CLRD70 NOSIG"
"9:30 AM EEST on June 28, 2016","2016","06","28","09","30","Europe/Kiev","6:30 AM GMT on June 28, 2016","2016","06","28","06","30","UTC","26.0","78.8","20.0","68.0","69","14.4","8.9","-9999.0","-9999.0","340","NNW","-9999.0","-9999.0","1009","29.80","-999","-999","-9999","-9999","-9999.00","-9999.00","Clear","clear","0","0","0","0","0","0","METAR UKKK 280630Z 34004MPS 310V010 CAVOK 26/20 Q1009 R26/CLRD70 NOSIG"
"10:00 AM EEST on June 28, 2016","2016","06","28","10","00","Europe/Kiev","7:00 AM GMT on June 28, 2016","2016","06","28","07","00","UTC","26.0","78.8","20.0","68.0","69","10.8","6.7","-9999.0","-9999.0","20","NNE","-9999.0","-9999.0","1009","29.80","-999","-999","-9999","-9999","-9999.00","-9999.00","Clear","clear","0","0","0","0","0","0","METAR UKKK 280700Z 02003MPS 330V050 CAVOK 26/20 Q1009 R26/CLRD70 NOSIG"
"10:30 AM EEST on June 28, 2016","2016","06","28","10","30","Europe/Kiev","7:30 AM GMT on June 28, 2016","2016","06","28","07","30","UTC","27.0","80.6","20.0","68.0","65","10.8","6.7","-9999.0","-9999.0","360","North","-9999.0","-9999.0","1009","29.80","-999","-999","28.5","83.2","-9999.00","-9999.00","Clear","clear","0","0","0","0","0","0","METAR UKKK 280730Z 36003MPS 320V050 CAVOK 27/20 Q1009 R26/CLRD70 NOSIG"
"11:00 AM EEST on June 28, 2016","2016","06","28","11","00","Europe/Kiev","8:00 AM GMT on June 28, 2016","2016","06","28","08","00","UTC","27.0","80.6","19.0","66.2","61","14.4","8.9","-9999.0","-9999.0","30","NNE","-9999.0","-9999.0","1009","29.80","-999","-999","28.2","82.7","-9999.00","-9999.00","Clear","clear","0","0","0","0","0","0","METAR UKKK 280800Z 03004MPS 330V060 CAVOK 27/19 Q1009 R08/CLRD70 NOSIG"
"11:30 AM EEST on June 28, 2016","2016","06","28","11","30","Europe/Kiev","8:30 AM GMT on June 28, 2016","2016","06","28","08","30","UTC","28.0","82.4","20.0","68.0","62","18.0","11.2","-9999.0","-9999.0","20","NNE","-9999.0","-9999.0","1009","29.80","-999","-999","29.7","85.4","-9999.00","-9999.00","Clear","clear","0","0","0","0","0","0","METAR UKKK 280830Z 02005MPS CAVOK 28/20 Q1009 R08/CLRD70 NOSIG"
"12:00 PM EEST on June 28, 2016","2016","06","28","12","00","Europe/Kiev","9:00 AM GMT on June 28, 2016","2016","06","28","09","00","UTC","28","82","18","65","48","14.4","8.9","","","0","North","20","12","1008","29.78","-999","-999","-9999","-9999","","","Scattered Clouds","partlycloudy","0","0","0","0","0","0","AAXX 28091 33345 42598 53604 10278 20185 39894 40082 58001 81204 555 10052"
"12:00 PM EEST on June 28, 2016","2016","06","28","12","00","Europe/Kiev","9:00 AM GMT on June 28, 2016","2016","06","28","09","00","UTC","29.0","84.2","20.0","68.0","58","10.8","6.7","-9999.0","-9999.0","50","NE","-9999.0","-9999.0","1009","29.80","-999","-999","30.7","87.3","-9999.00","-9999.00","Clear","clear","0","0","0","0","0","0","METAR UKKK 280900Z 05003MPS 360V110 CAVOK 29/20 Q1009 R08/CLRD70 NOSIG"
"12:30 PM EEST on June 28, 2016","2016","06","28","12","30","Europe/Kiev","9:30 AM GMT on June 28, 2016","2016","06","28","09","30","UTC","29.0","84.2","19.0","66.2","55","14.4","8.9","-9999.0","-9999.0","20","NNE","-9999.0","-9999.0","1009","29.80","-999","-999","30.3","86.6","-9999.00","-9999.00","Clear","clear","0","0","0","0","0","0","METAR UKKK 280930Z 02004MPS 270V080 CAVOK 29/19 Q1009 R08/CLRD70 NOSIG"
"1:00 PM EEST on June 28, 2016","2016","06","28","13","00","Europe/Kiev","10:00 AM GMT on June 28, 2016","2016","06","28","10","00","UTC","29.0","84.2","19.0","66.2","55","18.0","11.2","-9999.0","-9999.0","30","NNE","10.0","6.2","1009","29.80","-999","-999","30.3","86.6","-9999.00","-9999.00","Scattered Clouds","partlycloudy","0","0","0","0","0","0","METAR UKKK 281000Z 03005MPS 360V060 9999 FEW030CB SCT050 29/19 Q1009 R08/CLRD70 TEMPO VRB10G18MPS 2100 -TSRAGR BKN015CB"
"1:20 PM EEST on June 28, 2016","2016","06","28","13","20","Europe/Kiev","10:20 AM GMT on June 28, 2016","2016","06","28","10","20","UTC","29.0","84.2","18.0","64.4","51","14.4","8.9","-9999.0","-9999.0","10","North","10.0","6.2","1008","29.77","-999","-999","29.8","85.6","-9999.00","-9999.00","Thunderstorm","tstorms","0","0","0","0","1","0","SPECI UKKK 281020Z 01004MPS 350V050 9999 TS SCT030CB BKN100 29/18 Q1008 R08/CLRD70 TEMPO VRB10G18MPS 2100 -TSRAGR BKN015CB"
"1:30 PM EEST on June 28, 2016","2016","06","28","13","30","Europe/Kiev","10:30 AM GMT on June 28, 2016","2016","06","28","10","30","UTC","28.0","82.4","18.0","64.4","54","14.4","8.9","-9999.0","-9999.0","20","NNE","10.0","6.2","1008","29.77","-999","-999","28.8","83.9","-9999.00","-9999.00","Thunderstorm","tstorms","0","0","0","0","1","0","METAR UKKK 281030Z 02004MPS 340V080 9999 TS SCT030CB BKN100 28/18 Q1008 R26/CLRD70 TEMPO VRB10G18MPS 2100 -TSRAGR BKN015CB"
"2:00 PM EEST on June 28, 2016","2016","06","28","14","00","Europe/Kiev","11:00 AM GMT on June 28, 2016","2016","06","28","11","00","UTC","28.0","82.4","19.0","66.2","58","18.0","11.2","-9999.0","-9999.0","10","North","10.0","6.2","1008","29.77","-999","-999","29.2","84.6","-9999.00","-9999.00","Thunderstorm","tstorms","0","0","0","0","1","0","METAR UKKK 281100Z 01005MPS 340V040 9999 TS SCT029CB BKN100 28/19 Q1008 R26/CLRD70 TEMPO VRB10G18MPS 2100 -TSRAGR BKN015CB"
"2:10 PM EEST on June 28, 2016","2016","06","28","14","10","Europe/Kiev","11:10 AM GMT on June 28, 2016","2016","06","28","11","10","UTC","28.0","82.4","19.0","66.2","58","14.4","8.9","-9999.0","-9999.0","30","NNE","10.0","6.2","1008","29.77","-999","-999","29.2","84.6","-9999.00","-9999.00","Mostly Cloudy","mostlycloudy","0","0","0","0","0","0","SPECI UKKK 281110Z 03004MPS 360V060 9999 FEW030CB BKN100 28/19 Q1008 RETS R26/CLRD70 TEMPO VRB10G18MPS 2100 -TSRAGR BKN015CB"
"2:30 PM EEST on June 28, 2016","2016","06","28","14","30","Europe/Kiev","11:30 AM GMT on June 28, 2016","2016","06","28","11","30","UTC","28.0","82.4","18.0","64.4","54","18.0","11.2","-9999.0","-9999.0","30","NNE","10.0","6.2","1008","29.77","-999","-999","28.8","83.9","-9999.00","-9999.00","Mostly Cloudy","mostlycloudy","0","0","0","0","0","0","METAR UKKK 281130Z 03005MPS 360V060 9999 FEW030CB BKN100 28/18 Q1008 R08/CLRD70 TEMPO VRB10G18MPS 2100 -TSRAGR BKN015CB"
"3:00 PM EEST on June 28, 2016","2016","06","28","15","00","Europe/Kiev","12:00 PM GMT on June 28, 2016","2016","06","28","12","00","UTC","29","85","17","62","36","14.4","8.9","","","20","NNE","20","12","1007","29.74","-999","-999","-9999","-9999","","","Thunderstorm","tstorms","0","0","0","0","1","0","AAXX 28121 33345 31598 60204 10293 20166 39882 40069 57012 71792 86303 555 10058"
"3:00 PM EEST on June 28, 2016","2016","06","28","15","00","Europe/Kiev","12:00 PM GMT on June 28, 2016","2016","06","28","12","00","UTC","30.0","86.0","19.0","66.2","51","18.0","11.2","-9999.0","-9999.0","20","NNE","10.0","6.2","1008","29.77","-999","-999","31.2","88.2","-9999.00","-9999.00","Mostly Cloudy","mostlycloudy","0","0","0","0","0","0","METAR UKKK 281200Z 02005MPS 9999 FEW031CB BKN100 30/19 Q1008 R08/CLRD70 TEMPO VRB10G18MPS 1400 TSRAGR BKN015CB"
"3:30 PM EEST on June 28, 2016","2016","06","28","15","30","Europe/Kiev","12:30 PM GMT on June 28, 2016","2016","06","28","12","30","UTC","29.0","84.2","19.0","66.2","55","25.2","15.7","-9999.0","-9999.0","20","NNE","10.0","6.2","1008","29.77","-999","-999","30.3","86.6","-9999.00","-9999.00","Mostly Cloudy","mostlycloudy","0","0","0","0","0","0","METAR UKKK 281230Z 02007MPS 350V050 9999 SCT030CB BKN100 29/19 Q1008 R08/CLRD70 TEMPO VRB10G18MPS 1400 TSRAGR BKN015CB"
"4:00 PM EEST on June 28, 2016","2016","06","28","16","00","Europe/Kiev","1:00 PM GMT on June 28, 2016","2016","06","28","13","00","UTC","29.0","84.2","19.0","66.2","55","21.6","13.4","-9999.0","-9999.0","30","NNE","10.0","6.2","1007","29.74","-999","-999","30.3","86.6","-9999.00","-9999.00","Mostly Cloudy","mostlycloudy","0","0","0","0","0","0","METAR UKKK 281300Z 03006MPS 9999 SCT030CB BKN100 29/19 Q1007 R08/CLRD70 TEMPO VRB10G18MPS 1400 TSRAGR BKN015CB"
"4:30 PM EEST on June 28, 2016","2016","06","28","16","30","Europe/Kiev","1:30 PM GMT on June 28, 2016","2016","06","28","13","30","UTC","27.0","80.6","19.0","66.2","61","18.0","11.2","-9999.0","-9999.0","40","NE","10.0","6.2","1008","29.77","-999","-999","28.2","82.7","-9999.00","-9999.00","Mostly Cloudy","mostlycloudy","0","0","0","0","0","0","METAR UKKK 281330Z 04005MPS 9999 SCT030CB BKN100 27/19 Q1008 R08/CLRD70 TEMPO VRB10G18MPS 1400 TSRAGR BKN015CB"
"5:00 PM EEST on June 28, 2016","2016","06","28","17","00","Europe/Kiev","2:00 PM GMT on June 28, 2016","2016","06","28","14","00","UTC","27.0","80.6","19.0","66.2","61","14.4","8.9","-9999.0","-9999.0","10","North","-9999.0","-9999.0","1008","29.77","-999","-999","28.2","82.7","-9999.00","-9999.00","Clear","clear","0","0","0","0","0","0","METAR UKKK 281400Z 01004MPS CAVOK 27/19 Q1008 R08/CLRD70 TEMPO VRB10G18MPS 1400 TSRAGR BKN015CB"
"5:30 PM EEST on June 28, 2016","2016","06","28","17","30","Europe/Kiev","2:30 PM GMT on June 28, 2016","2016","06","28","14","30","UTC","26.0","78.8","19.0","66.2","65","14.4","8.9","-9999.0","-9999.0","340","NNW","-9999.0","-9999.0","1008","29.77","-999","-999","-9999","-9999","-9999.00","-9999.00","Clear","clear","0","0","0","0","0","0","METAR UKKK 281430Z 34004MPS 320V020 CAVOK 26/19 Q1008 R08/CLRD70 TEMPO VRB10G18MPS 1400 TSRAGR BKN015CB"
"6:00 PM EEST on June 28, 2016","2016","06","28","18","00","Europe/Kiev","3:00 PM GMT on June 28, 2016","2016","06","28","15","00","UTC","27","80","18","65","51","10.8","6.7","","","10","North","20","12","1007","29.74","-999","-999","-9999","-9999","","","Partly Cloudy","partlycloudy","0","0","0","0","0","0","AAXX 28151 33345 41598 60103 10266 20183 39882 40071 54000 70292 82365 555 10032"
"6:00 PM EEST on June 28, 2016","2016","06","28","18","00","Europe/Kiev","3:00 PM GMT on June 28, 2016","2016","06","28","15","00","UTC","26.0","78.8","20.0","68.0","69","14.4","8.9","-9999.0","-9999.0","340","NNW","-9999.0","-9999.0","1008","29.77","-999","-999","-9999","-9999","-9999.00","-9999.00","Clear","clear","0","0","0","0","0","0","METAR UKKK 281500Z 34004MPS 310V030 CAVOK 26/20 Q1008 R26/CLRD70 TEMPO VRB10G18MPS 1400 TSRAGR BKN015CB"
"6:30 PM EEST on June 28, 2016","2016","06","28","18","30","Europe/Kiev","3:30 PM GMT on June 28, 2016","2016","06","28","15","30","UTC","26.0","78.8","20.0","68.0","69","14.4","8.9","-9999.0","-9999.0","360","North","-9999.0","-9999.0","1008","29.77","-999","-999","-9999","-9999","-9999.00","-9999.00","Clear","clear","0","0","0","0","0","0","METAR UKKK 281530Z 36004MPS 330V030 CAVOK 26/20 Q1008 R26/CLRD70 TEMPO VRB10G18MPS 1400 TSRAGR BKN015CB"
"7:00 PM EEST on June 28, 2016","2016","06","28","19","00","Europe/Kiev","4:00 PM GMT on June 28, 2016","2016","06","28","16","00","UTC","26.0","78.8","19.0","66.2","65","18.0","11.2","-9999.0","-9999.0","20","NNE","-9999.0","-9999.0","1008","29.77","-999","-999","-9999","-9999","-9999.00","-9999.00","Clear","clear","0","0","0","0","0","0","METAR UKKK 281600Z 02005MPS 340V050 CAVOK 26/19 Q1008 R26/CLRD70 TEMPO VRB10G18MPS 1400 TSRAGR BKN015CB"
"7:30 PM EEST on June 28, 2016","2016","06","28","19","30","Europe/Kiev","4:30 PM GMT on June 28, 2016","2016","06","28","16","30","UTC","26.0","78.8","19.0","66.2","65","21.6","13.4","-9999.0","-9999.0","10","North","-9999.0","-9999.0","1008","29.77","-999","-999","-9999","-9999","-9999.00","-9999.00","Clear","clear","0","0","0","0","0","0","METAR UKKK 281630Z 01006MPS CAVOK 26/19 Q1008 R08/CLRD70 TEMPO VRB10G18MPS 1400 TSRAGR BKN015CB"
"8:00 PM EEST on June 28, 2016","2016","06","28","20","00","Europe/Kiev","5:00 PM GMT on June 28, 2016","2016","06","28","17","00","UTC","25.0","77.0","19.0","66.2","69","25.2","15.7","-9999.0","-9999.0","20","NNE","9.0","5.6","1008","29.77","-999","-999","-9999","-9999","-9999.00","-9999.00","Unknown","unknown","0","0","0","0","0","0","METAR UKKK 281700Z 02007MPS 9000 NSC 25/19 Q1008 R08/CLRD70 TEMPO VRB10G18MPS 1400 TSRAGR BKN015CB"
"8:30 PM EEST on June 28, 2016","2016","06","28","20","30","Europe/Kiev","5:30 PM GMT on June 28, 2016","2016","06","28","17","30","UTC","25.0","77.0","19.0","66.2","69","25.2","15.7","-9999.0","-9999.0","20","NNE","10.0","6.2","1009","29.80","-999","-999","-9999","-9999","-9999.00","-9999.00","Mostly Cloudy","mostlycloudy","0","0","0","0","0","0","METAR UKKK 281730Z 02007MPS 9999 FEW040 BKN200 25/19 Q1009 R08/CLRD70 TEMPO VRB10G18MPS 1400 TSRAGR BKN015CB"
"9:00 PM EEST on June 28, 2016","2016","06","28","21","00","Europe/Kiev","6:00 PM GMT on June 28, 2016","2016","06","28","18","00","UTC","25","77","19","66","60","10.8","6.7","","","10","North","20","12","1008","29.78","-999","-999","-9999","-9999","","","Partly Cloudy","partlycloudy","0","0","0","0","0","0","AAXX 28181 33345 31698 70103 10248 20187 39893 40083 53011 70292 82405 333 10298 555 10026"
"9:00 PM EEST on June 28, 2016","2016","06","28","21","00","Europe/Kiev","6:00 PM GMT on June 28, 2016","2016","06","28","18","00","UTC","25.0","77.0","19.0","66.2","69","21.6","13.4","-9999.0","-9999.0","10","North","10.0","6.2","1009","29.80","-999","-999","-9999","-9999","-9999.00","-9999.00","Mostly Cloudy","mostlycloudy","0","0","0","0","0","0","METAR UKKK 281800Z 01006MPS 9999 SCT040 BKN200 25/19 Q1009 R08/CLRD70 TEMPO VRB10G18MPS 1400 TSRAGR BKN015CB"
"9:30 PM EEST on June 28, 2016","2016","06","28","21","30","Europe/Kiev","6:30 PM GMT on June 28, 2016","2016","06","28","18","30","UTC","24.0","75.2","19.0","66.2","73","21.6","13.4","-9999.0","-9999.0","10","North","10.0","6.2","1009","29.80","-999","-999","-9999","-9999","-9999.00","-9999.00","Mostly Cloudy","mostlycloudy","0","0","0","0","0","0","METAR UKKK 281830Z 01006MPS 9999 SCT040 BKN200 24/19 Q1009 R08/CLRD70 NOSIG"
"10:00 PM EEST on June 28, 2016","2016","06","28","22","00","Europe/Kiev","7:00 PM GMT on June 28, 2016","2016","06","28","19","00","UTC","24.0","75.2","19.0","66.2","73","18.0","11.2","-9999.0","-9999.0","360","North","10.0","6.2","1009","29.80","-999","-999","-9999","-9999","-9999.00","-9999.00","Mostly Cloudy","mostlycloudy","0","0","0","0","0","0","METAR UKKK 281900Z 36005MPS 9999 SCT043 BKN200 24/19 Q1009 R08/CLRD70 NOSIG"
"10:30 PM EEST on June 28, 2016","2016","06","28","22","30","Europe/Kiev","7:30 PM GMT on June 28, 2016","2016","06","28","19","30","UTC","24.0","75.2","19.0","66.2","73","18.0","11.2","-9999.0","-9999.0","360","North","10.0","6.2","1009","29.80","-999","-999","-9999","-9999","-9999.00","-9999.00","Mostly Cloudy","mostlycloudy","0","0","0","0","0","0","METAR UKKK 281930Z 36005MPS 9999 FEW033CB BKN080 24/19 Q1009 R08/CLRD70 NOSIG"
"11:00 PM EEST on June 28, 2016","2016","06","28","23","00","Europe/Kiev","8:00 PM GMT on June 28, 2016","2016","06","28","20","00","UTC","23.0","73.4","19.0","66.2","78","14.4","8.9","-9999.0","-9999.0","10","North","10.0","6.2","1009","29.80","-999","-999","-9999","-9999","-9999.00","-9999.00","Mostly Cloudy","mostlycloudy","0","0","0","0","0","0","METAR UKKK 282000Z 01004MPS 9999 SCT033CB BKN080 23/19 Q1009 R08/CLRD70 TEMPO 2000 TSRA SCT025CB"
"11:18 PM EEST on June 28, 2016","2016","06","28","23","18","Europe/Kiev","8:18 PM GMT on June 28, 2016","2016","06","28","20","18","UTC","23.0","73.4","19.0","66.2","78","18.0","11.2","-9999.0","-9999.0","10","North","10.0","6.2","1009","29.80","-999","-999","-9999","-9999","-9999.00","-9999.00","Mostly Cloudy","mostlycloudy","0","0","0","0","1","0","SPECI UKKK 282018Z 01005MPS 9999 VCTS SCT033CB BKN080 23/19 Q1009 R08/CLRD70 TEMPO 2000 TSRA SCT025CB"
"11:30 PM EEST on June 28, 2016","2016","06","28","23","30","Europe/Kiev","8:30 PM GMT on June 28, 2016","2016","06","28","20","30","UTC","24.0","75.2","19.0","66.2","73","10.8","6.7","-9999.0","-9999.0","20","NNE","10.0","6.2","1010","29.83","-999","-999","-9999","-9999","-9999.00","-9999.00","Mostly Cloudy","mostlycloudy","0","0","0","0","1","0","METAR UKKK 282030Z 02003MPS 350V050 9999 VCTS SCT033CB BKN080 24/19 Q1010 R08/CLRD70 TEMPO 2000 TSRA SCT025CB"
"12:00 AM EEST on June 29, 2016","2016","06","29","00","00","Europe/Kiev","9:00 PM GMT on June 28, 2016","2016","06","28","21","00","UTC","21","70","15","60","61","18.0","11.2","","","220","SW","20","12","1010","29.83","-999","-999","-9999","-9999","","","Overcast","cloudy","0","0","0","0","0","0","AAXX 28211 33345 41598 82205 10210 20153 39906 40099 52013 71322 8537/ 333 85926 555 10023"
"12:00 AM EEST on June 29, 2016","2016","06","29","00","00","Europe/Kiev","9:00 PM GMT on June 28, 2016","2016","06","28","21","00","UTC","20.0","68.0","16.0","60.8","78","18.0","11.2","-9999.0","-9999.0","190","South","10.0","6.2","1010","29.83","-999","-999","-9999","-9999","-9999.00","-9999.00","Mostly Cloudy","mostlycloudy","0","0","0","0","1","0","METAR UKKK 282100Z 19005MPS 130V240 9999 VCTS SCT025CB BKN080 20/16 Q1010 R08/CLRD70 TEMPO 2000 TSRA SCT025CB"
"12:30 AM EEST on June 29, 2016","2016","06","29","00","30","Europe/Kiev","9:30 PM GMT on June 28, 2016","2016","06","28","21","30","UTC","19.0","66.2","17.0","62.6","88","7.2","4.5","-9999.0","-9999.0","230","SW","9.0","5.6","1011","29.86","-999","-999","-9999","-9999","-9999.00","-9999.00","Light Rain Showers","rain","0","1","0","0","1","0","METAR UKKK 282130Z 23002MPS 130V280 9000 VCTS -SHRA SCT033CB BKN063 19/17 Q1011 WS RWY08 R08/CLRD70 TEMPO 2000 TSRA SCT025CB"
"12:33 AM EEST on June 29, 2016","2016","06","29","00","33","Europe/Kiev","9:33 PM GMT on June 28, 2016","2016","06","28","21","33","UTC","19.0","66.2","17.0","62.6","88","10.8","6.7","-9999.0","-9999.0","220","SW","1.0","0.6","1011","29.86","-999","-999","-9999","-9999","-9999.00","-9999.00","Rain Showers","rain","0","1","0","0","1","0","SPECI UKKK 282133Z 22003MPS 130V280 1000 R08/P2000D VCTS SHRA BKN011CB BKN063 19/17 Q1011 WS RWY08 R08/CLRD70 TEMPO 2000 TSRA SCT025CB"
"12:35 AM EEST on June 29, 2016","2016","06","29","00","35","Europe/Kiev","9:35 PM GMT on June 28, 2016","2016","06","28","21","35","UTC","18.0","64.4","17.0","62.6","94","7.2","4.5","-9999.0","-9999.0","210","SSW","0.7","0.4","1011","29.86","-999","-999","-9999","-9999","-9999.00","-9999.00","Heavy Rain Showers","rain","0","1","0","0","1","0","SPECI UKKK 282135Z 21002MPS 130V270 0700 R08/P2000D VCTS +SHRA BKN023CB BKN063 18/17 Q1011 WS RWY08 R08/CLRD70 TEMPO 2000 TSRA SCT025CB"
"12:53 AM EEST on June 29, 2016","2016","06","29","00","53","Europe/Kiev","9:53 PM GMT on June 28, 2016","2016","06","28","21","53","UTC","17.0","62.6","17.0","62.6","100","14.4","8.9","-9999.0","-9999.0","250","WSW","3.5","2.2","1010","29.83","-999","-999","-9999","-9999","-9999.00","-9999.00","Light Rain Showers","rain","0","1","0","0","1","0","SPECI UKKK 282153Z 25004MPS 3500 VCTS -SHRA BKN023CB BKN063 17/17 Q1010 RESHRA WS RWY08 R08/290354 TEMPO VRB10G16MPS 0500 +TSRA BKN020CB"
"1:00 AM EEST on June 29, 2016","2016","06","29","01","00","Europe/Kiev","10:00 PM GMT on June 28, 2016","2016","06","28","22","00","UTC","17.0","62.6","17.0","62.6","100","14.4","8.9","-9999.0","-9999.0","250","WSW","6.0","3.7","1010","29.83","-999","-999","-9999","-9999","-9999.00","-9999.00","Light Rain Showers","rain","0","1","0","0","0","0","METAR UKKK 282200Z 25004MPS 220V280 6000 -SHRA SCT030CB BKN063 17/17 Q1010 R08/290354 TEMPO VRB10G16MPS 2000 TSRA BKN020CB"
"1:30 AM EEST on June 29, 2016","2016","06","29","01","30","Europe/Kiev","10:30 PM GMT on June 28, 2016","2016","06","28","22","30","UTC","18.0","64.4","17.0","62.6","94","14.4","8.9","-9999.0","-9999.0","280","West","10.0","6.2","1010","29.83","-999","-999","-9999","-9999","-9999.00","-9999.00","Mostly Cloudy","mostlycloudy","0","0","0","0","0","0","METAR UKKK 282230Z 28004MPS 9999 FEW030CB BKN063 18/17 Q1010 R08/290058 TEMPO VRB10G16MPS 2000 TSRA BKN020CB"
"2:00 AM EEST on June 29, 2016","2016","06","29","02","00","Europe/Kiev","11:00 PM GMT on June 28, 2016","2016","06","28","23","00","UTC","18.0","64.4","17.0","62.6","94","18.0","11.2","-9999.0","-9999.0","290","WNW","10.0","6.2","1010","29.83","-999","-999","-9999","-9999","-9999.00","-9999.00","Mostly Cloudy","mostlycloudy","0","0","0","0","0","0","METAR UKKK 282300Z 29005MPS 9999 FEW033CB BKN063 18/17 Q1010 R08/290058 TEMPO VRB10G16MPS 2000 TSRA BKN020CB"
"2:30 AM EEST on June 29, 2016","2016","06","29","02","30","Europe/Kiev","11:30 PM GMT on June 28, 2016","2016","06","28","23","30","UTC","19.0","66.2","18.0","64.4","94","14.4","8.9","-9999.0","-9999.0","310","NW","10.0","6.2","1010","29.83","-999","-999","-9999","-9999","-9999.00","-9999.00","Mostly Cloudy","mostlycloudy","0","0","0","0","0","0","METAR UKKK 282330Z 31004MPS 9999 FEW025CB BKN052 19/18 Q1010 R08/290058 TEMPO VRB10G16MPS 2000 TSRA BKN020CB"
"3:00 AM EEST on June 29, 2016","2016","06","29","03","00","Europe/Kiev","12:00 AM GMT on June 29, 2016","2016","06","29","00","00","UTC","20","67","17","62","79","7.2","4.5","","","320","NW","20","12","1010","29.82","-999","-999","-9999","-9999","","","Partly Cloudy","partlycloudy","0","0","0","0","0","0","AAXX 29001 33345 31698 73202 10197 20167 39904 40098 58002 70292 82505 555 10021"
"3:00 AM EEST on June 29, 2016","2016","06","29","03","00","Europe/Kiev","12:00 AM GMT on June 29, 2016","2016","06","29","00","00","UTC","19.0","66.2","17.0","62.6","88","10.8","6.7","-9999.0","-9999.0","310","NW","-9999.0","-9999.0","1010","29.83","-999","-999","-9999","-9999","-9999.00","-9999.00","Clear","clear","0","0","0","0","0","0","METAR UKKK 290000Z 31003MPS CAVOK 19/17 Q1010 R08/290058 NOSIG"
"3:30 AM EEST on June 29, 2016","2016","06","29","03","30","Europe/Kiev","12:30 AM GMT on June 29, 2016","2016","06","29","00","30","UTC","19.0","66.2","18.0","64.4","94","10.8","6.7","-9999.0","-9999.0","320","NW","-9999.0","-9999.0","1010","29.83","-999","-999","-9999","-9999","-9999.00","-9999.00","Clear","clear","0","0","0","0","0","0","METAR UKKK 290030Z 32003MPS CAVOK 19/18 Q1010 R08/290058 NOSIG"
"4:00 AM EEST on June 29, 2016","2016","06","29","04","00","Europe/Kiev","1:00 AM GMT on June 29, 2016","2016","06","29","01","00","UTC","20.0","68.0","18.0","64.4","88","10.8","6.7","-9999.0","-9999.0","330","NNW","10.0","6.2","1010","29.83","-999","-999","-9999","-9999","-9999.00","-9999.00","Mostly Cloudy","mostlycloudy","0","0","0","0","0","0","METAR UKKK 290100Z 33003MPS 9999 BKN021 20/18 Q1010 R08/290058 NOSIG"
"4:30 AM EEST on June 29, 2016","2016","06","29","04","30","Europe/Kiev","1:30 AM GMT on June 29, 2016","2016","06","29","01","30","UTC","20.0","68.0","18.0","64.4","88","10.8","6.7","-9999.0","-9999.0","340","NNW","10.0","6.2","1010","29.83","-999","-999","-9999","-9999","-9999.00","-9999.00","Mostly Cloudy","mostlycloudy","0","0","0","0","0","0","METAR UKKK 290130Z 34003MPS 9999 BKN021 20/18 Q1010 R08/290058 NOSIG"
"5:00 AM EEST on June 29, 2016","2016","06","29","05","00","Europe/Kiev","2:00 AM GMT on June 29, 2016","2016","06","29","02","00","UTC","20.0","68.0","18.0","64.4","88","10.8","6.7","-9999.0","-9999.0","350","North","10.0","6.2","1010","29.83","-999","-999","-9999","-9999","-9999.00","-9999.00","Mostly Cloudy","mostlycloudy","0","0","0","0","0","0","METAR UKKK 290200Z 35003MPS 9999 SCT017 BKN100 20/18 Q1010 R08/290058 NOSIG"
"5:30 AM EEST on June 29, 2016","2016","06","29","05","30","Europe/Kiev","2:30 AM GMT on June 29, 2016","2016","06","29","02","30","UTC","20.0","68.0","18.0","64.4","88","14.4","8.9","-9999.0","-9999.0","330","NNW","-9999.0","-9999.0","1010","29.83","-999","-999","-9999","-9999","-9999.00","-9999.00","Clear","clear","0","0","0","0","0","0","METAR UKKK 290230Z 33004MPS CAVOK 20/18 Q1010 R26/290058 NOSIG"
"6:00 AM EEST on June 29, 2016","2016","06","29","06","00","Europe/Kiev","3:00 AM GMT on June 29, 2016","2016","06","29","03","00","UTC","21","69","18","65","82","7.2","4.5","","","0","North","10","6","1010","29.82","-999","-999","-9999","-9999","","","Mostly Cloudy","mostlycloudy","0","0","0","0","0","0","AAXX 29031 33345 42497 63602 10206 20182 39904 40097 54000 86600 333 86712 555 10022"
"6:00 AM EEST on June 29, 2016","2016","06","29","06","00","Europe/Kiev","3:00 AM GMT on June 29, 2016","2016","06","29","03","00","UTC","20.0","68.0","18.0","64.4","88","7.2","4.5","-9999.0","-9999.0","340","NNW","10.0","6.2","1010","29.83","-999","-999","-9999","-9999","-9999.00","-9999.00","Mostly Cloudy","mostlycloudy","0","0","0","0","0","0","METAR UKKK 290300Z 34002MPS 290V040 9999 SCT025 BKN100 20/18 Q1010 R26/190060 NOSIG"
"6:30 AM EEST on June 29, 2016","2016","06","29","06","30","Europe/Kiev","3:30 AM GMT on June 29, 2016","2016","06","29","03","30","UTC","20.0","68.0","19.0","66.2","94","10.8","6.7","-9999.0","-9999.0","10","North","10.0","6.2","1010","29.83","-999","-999","-9999","-9999","-9999.00","-9999.00","Mostly Cloudy","mostlycloudy","0","0","0","0","0","0","METAR UKKK 290330Z 01003MPS 340V050 9999 SCT009 BKN200 20/19 Q1010 R26/190060 NOSIG"
"7:00 AM EEST on June 29, 2016","2016","06","29","07","00","Europe/Kiev","4:00 AM GMT on June 29, 2016","2016","06","29","04","00","UTC","20.0","68.0","19.0","66.2","94","14.4","8.9","-9999.0","-9999.0","360","North","10.0","6.2","1010","29.83","-999","-999","-9999","-9999","-9999.00","-9999.00","Mostly Cloudy","mostlycloudy","0","0","0","0","0","0","METAR UKKK 290400Z 36004MPS 9999 SCT012 BKN200 20/19 Q1010 R26/190060 NOSIG"
"7:30 AM EEST on June 29, 2016","2016","06","29","07","30","Europe/Kiev","4:30 AM GMT on June 29, 2016","2016","06","29","04","30","UTC","21.0","69.8","19.0","66.2","88","10.8","6.7","-9999.0","-9999.0","20","NNE","10.0","6.2","1010","29.83","-999","-999","-9999","-9999","-9999.00","-9999.00","Mostly Cloudy","mostlycloudy","0","0","0","0","0","0","METAR UKKK 290430Z 02003MPS 350V050 9999 SCT011 BKN200 21/19 Q1010 R26/190060 NOSIG"
"8:00 AM EEST on June 29, 2016","2016","06","29","08","00","Europe/Kiev","5:00 AM GMT on June 29, 2016","2016","06","29","05","00","UTC","21.0","69.8","19.0","66.2","88","14.4","8.9","-9999.0","-9999.0","10","North","10.0","6.2","1010","29.83","-999","-999","-9999","-9999","-9999.00","-9999.00","Mostly Cloudy","mostlycloudy","0","0","0","0","0","0","METAR UKKK 290500Z 01004MPS 9999 SCT011 BKN200 21/19 Q1010 R26/190060 NOSIG"
"8:30 AM EEST on June 29, 2016","2016","06","29","08","30","Europe/Kiev","5:30 AM GMT on June 29, 2016","2016","06","29","05","30","UTC","21.0","69.8","19.0","66.2","88","10.8","6.7","-9999.0","-9999.0","350","North","10.0","6.2","1010","29.83","-999","-999","-9999","-9999","-9999.00","-9999.00","Mostly Cloudy","mostlycloudy","0","0","0","0","0","0","METAR UKKK 290530Z 35003MPS 320V030 9999 BKN011 21/19 Q1010 R26/190060 NOSIG"
"9:00 AM EEST on June 29, 2016","2016","06","29","09","00","Europe/Kiev","6:00 AM GMT on June 29, 2016","2016","06","29","06","00","UTC","21","70","18","65","78","10.8","6.7","","","340","NNW","20","12","1010","29.82","-999","-999","-9999","-9999","","","Mostly Cloudy","mostlycloudy","0","0","0","0","0","0","AAXX 29061 33345 32598 63403 10213 20181 39906 40098 52002 86500 333 20188 86620 555 10029"
"9:00 AM EEST on June 29, 2016","2016","06","29","09","00","Europe/Kiev","6:00 AM GMT on June 29, 2016","2016","06","29","06","00","UTC","21.0","69.8","19.0","66.2","88","14.4","8.9","-9999.0","-9999.0","10","North","10.0","6.2","1010","29.83","-999","-999","-9999","-9999","-9999.00","-9999.00","Mostly Cloudy","mostlycloudy","0","0","0","0","0","0","METAR UKKK 290600Z 01004MPS 9999 BKN011 21/19 Q1010 R26/CLRD70 NOSIG"
"9:30 AM EEST on June 29, 2016","2016","06","29","09","30","Europe/Kiev","6:30 AM GMT on June 29, 2016","2016","06","29","06","30","UTC","21.0","69.8","18.0","64.4","83","14.4","8.9","-9999.0","-9999.0","340","NNW","10.0","6.2","1010","29.83","-999","-999","-9999","-9999","-9999.00","-9999.00","Mostly Cloudy","mostlycloudy","0","0","0","0","0","0","METAR UKKK 290630Z 34004MPS 310V020 9999 BKN013 21/18 Q1010 R26/CLRD70 NOSIG"
"10:00 AM EEST on June 29, 2016","2016","06","29","10","00","Europe/Kiev","7:00 AM GMT on June 29, 2016","2016","06","29","07","00","UTC","23.0","73.4","19.0","66.2","78","14.4","8.9","-9999.0","-9999.0","350","North","10.0","6.2","1010","29.83","-999","-999","-9999","-9999","-9999.00","-9999.00","Mostly Cloudy","mostlycloudy","0","0","0","0","0","0","METAR UKKK 290700Z 35004MPS 320V040 9999 BKN015 23/19 Q1010 R26/CLRD70 NOSIG"
"10:30 AM EEST on June 29, 2016","2016","06","29","10","30","Europe/Kiev","7:30 AM GMT on June 29, 2016","2016","06","29","07","30","UTC","23.0","73.4","19.0","66.2","78","18.0","11.2","-9999.0","-9999.0","360","North","10.0","6.2","1010","29.83","-999","-999","-9999","-9999","-9999.00","-9999.00","Mostly Cloudy","mostlycloudy","0","0","0","0","0","0","METAR UKKK 290730Z 36005MPS 340V050 9999 BKN019 23/19 Q1010 R26/CLRD70 NOSIG"
"11:00 AM EEST on June 29, 2016","2016","06","29","11","00","Europe/Kiev","8:00 AM GMT on June 29, 2016","2016","06","29","08","00","UTC","23.0","73.4","19.0","66.2","78","18.0","11.2","-9999.0","-9999.0","20","NNE","10.0","6.2","1011","29.86","-999","-999","-9999","-9999","-9999.00","-9999.00","Mostly Cloudy","mostlycloudy","0","0","0","0","0","0","METAR UKKK 290800Z 02005MPS 9999 SCT019 BKN036 23/19 Q1011 R08/CLRD70 NOSIG"
"11:30 AM EEST on June 29, 2016","2016","06","29","11","30","Europe/Kiev","8:30 AM GMT on June 29, 2016","2016","06","29","08","30","UTC","24.0","75.2","19.0","66.2","73","14.4","8.9","-9999.0","-9999.0","360","North","10.0","6.2","1011","29.86","-999","-999","-9999","-9999","-9999.00","-9999.00","Mostly Cloudy","mostlycloudy","0","0","0","0","0","0","METAR UKKK 290830Z 36004MPS 9999 SCT019 BKN036 24/19 Q1011 R08/CLRD70 NOSIG"
"12:00 PM EEST on June 29, 2016","2016","06","29","12","00","Europe/Kiev","9:00 AM GMT on June 29, 2016","2016","06","29","09","00","UTC","24","75","18","65","63","14.4","8.9","","","10","North","20","12","1010","29.84","-999","-999","-9999","-9999","","","Scattered Clouds","partlycloudy","0","0","0","0","0","0","AAXX 29091 33345 42598 60104 10237 20183 39913 40104 52007 82530 555 10044"
"12:00 PM EEST on June 29, 2016","2016","06","29","12","00","Europe/Kiev","9:00 AM GMT on June 29, 2016","2016","06","29","09","00","UTC","24.0","75.2","19.0","66.2","73","14.4","8.9","-9999.0","-9999.0","10","North","10.0","6.2","1011","29.86","-999","-999","-9999","-9999","-9999.00","-9999.00","Mostly Cloudy","mostlycloudy","0","0","0","0","0","0","METAR UKKK 290900Z 01004MPS 340V040 9999 SCT020 BKN034 24/19 Q1011 R08/CLRD70 NOSIG"
"12:30 PM EEST on June 29, 2016","2016","06","29","12","30","Europe/Kiev","9:30 AM GMT on June 29, 2016","2016","06","29","09","30","UTC","25.0","77.0","19.0","66.2","69","18.0","11.2","-9999.0","-9999.0","10","North","10.0","6.2","1011","29.86","-999","-999","-9999","-9999","-9999.00","-9999.00","Mostly Cloudy","mostlycloudy","0","0","0","0","0","0","METAR UKKK 290930Z 01005MPS 9999 SCT020 BKN034 25/19 Q1011 R08/CLRD70 NOSIG"
"1:00 PM EEST on June 29, 2016","2016","06","29","13","00","Europe/Kiev","10:00 AM GMT on June 29, 2016","2016","06","29","10","00","UTC","25.0","77.0","19.0","66.2","69","18.0","11.2","-9999.0","-9999.0","20","NNE","10.0","6.2","1011","29.86","-999","-999","-9999","-9999","-9999.00","-9999.00","Mostly Cloudy","mostlycloudy","0","0","0","0","0","0","METAR UKKK 291000Z 02005MPS 330V060 9999 BKN026 25/19 Q1011 R08/CLRD70 NOSIG"
"1:30 PM EEST on June 29, 2016","2016","06","29","13","30","Europe/Kiev","10:30 AM GMT on June 29, 2016","2016","06","29","10","30","UTC","25.0","77.0","18.0","64.4","65","18.0","11.2","-9999.0","-9999.0","10","North","10.0","6.2","1011","29.86","-999","-999","-9999","-9999","-9999.00","-9999.00","Mostly Cloudy","mostlycloudy","0","0","0","0","0","0","METAR UKKK 291030Z 01005MPS 9999 BKN028 25/18 Q1011 R08/CLRD70 NOSIG"
"2:00 PM EEST on June 29, 2016","2016","06","29","14","00","Europe/Kiev","11:00 AM GMT on June 29, 2016","2016","06","29","11","00","UTC","25.0","77.0","19.0","66.2","69","14.4","8.9","-9999.0","-9999.0","350","North","10.0","6.2","1011","29.86","-999","-999","-9999","-9999","-9999.00","-9999.00","Mostly Cloudy","mostlycloudy","0","0","0","0","0","0","METAR UKKK 291100Z 35004MPS 9999 BKN049 25/19 Q1011 R08/CLRD70 NOSIG"
"2:30 PM EEST on June 29, 2016","2016","06","29","14","30","Europe/Kiev","11:30 AM GMT on June 29, 2016","2016","06","29","11","30","UTC","25.0","77.0","18.0","64.4","65","14.4","8.9","-9999.0","-9999.0","330","NNW","-9999.0","-9999.0","1011","29.86","-999","-999","-9999","-9999","-9999.00","-9999.00","Clear","clear","0","0","0","0","0","0","METAR UKKK 291130Z 33004MPS 300V360 CAVOK 25/18 Q1011 R08/CLRD70 NOSIG"
"3:00 PM EEST on June 29, 2016","2016","06","29","15","00","Europe/Kiev","12:00 PM GMT on June 29, 2016","2016","06","29","12","00","UTC","26","79","18","65","53","14.4","8.9","","","20","NNE","20","12","1010","29.83","-999","-999","-9999","-9999","","","Partly Cloudy","partlycloudy","0","0","0","0","0","0","AAXX 29121 33345 32598 60204 10262 20182 39910 40099 58003 84501 555 10051"
"3:00 PM EEST on June 29, 2016","2016","06","29","15","00","Europe/Kiev","12:00 PM GMT on June 29, 2016","2016","06","29","12","00","UTC","25.0","77.0","17.0","62.6","61","18.0","11.2","-9999.0","-9999.0","350","North","-9999.0","-9999.0","1011","29.86","-999","-999","-9999","-9999","-9999.00","-9999.00","Clear","clear","0","0","0","0","0","0","METAR UKKK 291200Z 35005MPS 310V020 CAVOK 25/17 Q1011 R08/CLRD70 NOSIG"
"3:30 PM EEST on June 29, 2016","2016","06","29","15","30","Europe/Kiev","12:30 PM GMT on June 29, 2016","2016","06","29","12","30","UTC","26.0","78.8","19.0","66.2","65","18.0","11.2","-9999.0","-9999.0","340","NNW","-9999.0","-9999.0","1010","29.83","-999","-999","-9999","-9999","-9999.00","-9999.00","Clear","clear","0","0","0","0","0","0","METAR UKKK 291230Z 34005MPS CAVOK 26/19 Q1010 R08/CLRD70 NOSIG"
"4:00 PM EEST on June 29, 2016","2016","06","29","16","00","Europe/Kiev","1:00 PM GMT on June 29, 2016","2016","06","29","13","00","UTC","26.0","78.8","19.0","66.2","65","18.0","11.2","-9999.0","-9999.0","360","North","-9999.0","-9999.0","1010","29.83","-999","-999","-9999","-9999","-9999.00","-9999.00","Clear","clear","0","0","0","0","0","0","METAR UKKK 291300Z 36005MPS CAVOK 26/19 Q1010 R08/CLRD70 NOSIG"
"4:30 PM EEST on June 29, 2016","2016","06","29","16","30","Europe/Kiev","1:30 PM GMT on June 29, 2016","2016","06","29","13","30","UTC","27.0","80.6","18.0","64.4","58","18.0","11.2","-9999.0","-9999.0","350","North","-9999.0","-9999.0","1010","29.83","-999","-999","27.9","82.3","-9999.00","-9999.00","Clear","clear","0","0","0","0","0","0","METAR UKKK 291330Z 35005MPS 300V050 CAVOK 27/18 Q1010 R08/CLRD70 NOSIG"
"5:00 PM EEST on June 29, 2016","2016","06","29","17","00","Europe/Kiev","2:00 PM GMT on June 29, 2016","2016","06","29","14","00","UTC","27.0","80.6","18.0","64.4","58","18.0","11.2","-9999.0","-9999.0","350","North","-9999.0","-9999.0","1010","29.83","-999","-999","27.9","82.3","-9999.00","-9999.00","Clear","clear","0","0","0","0","0","0","METAR UKKK 291400Z 35005MPS CAVOK 27/18 Q1010 R08/CLRD70 NOSIG"
"5:30 PM EEST on June 29, 2016","2016","06","29","17","30","Europe/Kiev","2:30 PM GMT on June 29, 2016","2016","06","29","14","30","UTC","27.0","80.6","18.0","64.4","58","18.0","11.2","-9999.0","-9999.0","360","North","-9999.0","-9999.0","1010","29.83","-999","-999","27.9","82.3","-9999.00","-9999.00","Clear","clear","0","0","0","0","0","0","METAR UKKK 291430Z 36005MPS 310V050 CAVOK 27/18 Q1010 R08/CLRD70 NOSIG"
"6:00 PM EEST on June 29, 2016","2016","06","29","18","00","Europe/Kiev","3:00 PM GMT on June 29, 2016","2016","06","29","15","00","UTC","26","80","16","60","41","14.4","8.9","","","20","NNE","20","12","1009","29.81","-999","-999","-9999","-9999","","","Scattered Clouds","partlycloudy","0","0","0","0","0","0","AAXX 29151 33345 42598 40204 10264 20158 39904 40093 57006 82501 555 10041"
"6:00 PM EEST on June 29, 2016","2016","06","29","18","00","Europe/Kiev","3:00 PM GMT on June 29, 2016","2016","06","29","15","00","UTC","27.0","80.6","17.0","62.6","54","18.0","11.2","-9999.0","-9999.0","20","NNE","10.0","6.2","1010","29.83","-999","-999","27.7","81.8","-9999.00","-9999.00","Mostly Cloudy","mostlycloudy","0","0","0","0","0","0","METAR UKKK 291500Z 02005MPS 9999 FEW042 BKN200 27/17 Q1010 R08/CLRD70 NOSIG"
"6:30 PM EEST on June 29, 2016","2016","06","29","18","30","Europe/Kiev","3:30 PM GMT on June 29, 2016","2016","06","29","15","30","UTC","27.0","80.6","18.0","64.4","58","18.0","11.2","-9999.0","-9999.0","350","North","10.0","6.2","1010","29.83","-999","-999","27.9","82.3","-9999.00","-9999.00","Mostly Cloudy","mostlycloudy","0","0","0","0","0","0","METAR UKKK 291530Z 35005MPS 9999 FEW042 BKN200 27/18 Q1010 R08/CLRD70 NOSIG"
"7:00 PM EEST on June 29, 2016","2016","06","29","19","00","Europe/Kiev","4:00 PM GMT on June 29, 2016","2016","06","29","16","00","UTC","26.0","78.8","19.0","66.2","65","18.0","11.2","-9999.0","-9999.0","10","North","-9999.0","-9999.0","1010","29.83","-999","-999","-9999","-9999","-9999.00","-9999.00","Clear","clear","0","0","0","0","0","0","METAR UKKK 291600Z 01005MPS CAVOK 26/19 Q1010 R08/CLRD70 NOSIG"
"7:30 PM EEST on June 29, 2016","2016","06","29","19","30","Europe/Kiev","4:30 PM GMT on June 29, 2016","2016","06","29","16","30","UTC","25.0","77.0","19.0","66.2","69","18.0","11.2","-9999.0","-9999.0","20","NNE","9.0","5.6","1010","29.83","-999","-999","-9999","-9999","-9999.00","-9999.00","Unknown","unknown","0","0","0","0","0","0","METAR UKKK 291630Z 02005MPS 9000 NSC 25/19 Q1010 R08/CLRD70 NOSIG"
"8:00 PM EEST on June 29, 2016","2016","06","29","20","00","Europe/Kiev","5:00 PM GMT on June 29, 2016","2016","06","29","17","00","UTC","25.0","77.0","19.0","66.2","69","14.4","8.9","-9999.0","-9999.0","360","North","-9999.0","-9999.0","1011","29.86","-999","-999","-9999","-9999","-9999.00","-9999.00","Clear","clear","0","0","0","0","0","0","METAR UKKK 291700Z 36004MPS CAVOK 25/19 Q1011 R08/CLRD70 NOSIG"
"8:30 PM EEST on June 29, 2016","2016","06","29","20","30","Europe/Kiev","5:30 PM GMT on June 29, 2016","2016","06","29","17","30","UTC","24.0","75.2","18.0","64.4","69","10.8","6.7","-9999.0","-9999.0","10","North","-9999.0","-9999.0","1011","29.86","-999","-999","-9999","-9999","-9999.00","-9999.00","Clear","clear","0","0","0","0","0","0","METAR UKKK 291730Z 01003MPS CAVOK 24/18 Q1011 R08/CLRD70 NOSIG"
"9:00 PM EEST on June 29, 2016","2016","06","29","21","00","Europe/Kiev","6:00 PM GMT on June 29, 2016","2016","06","29","18","00","UTC","25","77","18","64","54","10.8","6.7","","","10","North","20","12","1010","29.84","-999","-999","-9999","-9999","","","Scattered Clouds","partlycloudy","0","0","0","0","0","0","AAXX 29181 33345 32598 30103 10250 20175 39914 40104 53010 82501 333 10267 555 10026"
"9:00 PM EEST on June 29, 2016","2016","06","29","21","00","Europe/Kiev","6:00 PM GMT on June 29, 2016","2016","06","29","18","00","UTC","24.0","75.2","19.0","66.2","73","18.0","11.2","-9999.0","-9999.0","10","North","-9999.0","-9999.0","1011","29.86","-999","-999","-9999","-9999","-9999.00","-9999.00","Clear","clear","0","0","0","0","0","0","METAR UKKK 291800Z 01005MPS CAVOK 24/19 Q1011 R08/CLRD70 NOSIG"
"9:30 PM EEST on June 29, 2016","2016","06","29","21","30","Europe/Kiev","6:30 PM GMT on June 29, 2016","2016","06","29","18","30","UTC","24.0","75.2","19.0","66.2","73","14.4","8.9","-9999.0","-9999.0","10","North","-9999.0","-9999.0","1011","29.86","-999","-999","-9999","-9999","-9999.00","-9999.00","Clear","clear","0","0","0","0","0","0","METAR UKKK 291830Z 01004MPS CAVOK 24/19 Q1011 R08/CLRD70 NOSIG"
"10:00 PM EEST on June 29, 2016","2016","06","29","22","00","Europe/Kiev","7:00 PM GMT on June 29, 2016","2016","06","29","19","00","UTC","24.0","75.2","18.0","64.4","69","14.4","8.9","-9999.0","-9999.0","350","North","10.0","6.2","1012","29.89","-999","-999","-9999","-9999","-9999.00","-9999.00","Scattered Clouds","partlycloudy","0","0","0","0","0","0","METAR UKKK 291900Z 35004MPS 290V010 9999 SCT034 24/18 Q1012 R08/CLRD70 NOSIG"
"10:30 PM EEST on June 29, 2016","2016","06","29","22","30","Europe/Kiev","7:30 PM GMT on June 29, 2016","2016","06","29","19","30","UTC","23.0","73.4","18.0","64.4","73","14.4","8.9","-9999.0","-9999.0","350","North","10.0","6.2","1012","29.89","-999","-999","-9999","-9999","-9999.00","-9999.00","Scattered Clouds","partlycloudy","0","0","0","0","0","0","METAR UKKK 291930Z 35004MPS 9999 SCT034 23/18 Q1012 R08/CLRD70 NOSIG"
"11:00 PM EEST on June 29, 2016","2016","06","29","23","00","Europe/Kiev","8:00 PM GMT on June 29, 2016","2016","06","29","20","00","UTC","23.0","73.4","18.0","64.4","73","14.4","8.9","-9999.0","-9999.0","350","North","-9999.0","-9999.0","1011","29.86","-999","-999","-9999","-9999","-9999.00","-9999.00","Clear","clear","0","0","0","0","0","0","METAR UKKK 292000Z 35004MPS CAVOK 23/18 Q1011 R26/CLRD70 NOSIG"
"11:30 PM EEST on June 29, 2016","2016","06","29","23","30","Europe/Kiev","8:30 PM GMT on June 29, 2016","2016","06","29","20","30","UTC","23.0","73.4","18.0","64.4","73","14.4","8.9","-9999.0","-9999.0","350","North","-9999.0","-9999.0","1012","29.89","-999","-999","-9999","-9999","-9999.00","-9999.00","Clear","clear","0","0","0","0","0","0","METAR UKKK 292030Z 35004MPS 320V020 CAVOK 23/18 Q1012 R26/CLRD70 NOSIG"
"12:00 AM EEST on June 30, 2016","2016","06","30","00","00","Europe/Kiev","9:00 PM GMT on June 29, 2016","2016","06","29","21","00","UTC","23","73","17","63","64","10.8","6.7","","","340","NNW","20","12","1011","29.85","-999","-999","-9999","-9999","","","","","0","0","0","0","0","0","AAXX 29211 33345 42998 03403 10230 20174 39916 40108 52002 555 10022"
"12:00 AM EEST on June 30, 2016","2016","06","30","00","00","Europe/Kiev","9:00 PM GMT on June 29, 2016","2016","06","29","21","00","UTC","22.0","71.6","18.0","64.4","78","10.8","6.7","-9999.0","-9999.0","340","NNW","-9999.0","-9999.0","1011","29.86","-999","-999","-9999","-9999","-9999.00","-9999.00","Clear","clear","0","0","0","0","0","0","METAR UKKK 292100Z 34003MPS CAVOK 22/18 Q1011 R26/CLRD70 NOSIG"
"12:30 AM EEST on June 30, 2016","2016","06","30","00","30","Europe/Kiev","9:30 PM GMT on June 29, 2016","2016","06","29","21","30","UTC","22.0","71.6","18.0","64.4","78","14.4","8.9","-9999.0","-9999.0","330","NNW","-9999.0","-9999.0","1011","29.86","-999","-999","-9999","-9999","-9999.00","-9999.00","Clear","clear","0","0","0","0","0","0","METAR UKKK 292130Z 33004MPS CAVOK 22/18 Q1011 R26/CLRD70 NOSIG"
"1:00 AM EEST on June 30, 2016","2016","06","30","01","00","Europe/Kiev","10:00 PM GMT on June 29, 2016","2016","06","29","22","00","UTC","22.0","71.6","18.0","64.4","78","14.4","8.9","-9999.0","-9999.0","330","NNW","-9999.0","-9999.0","1011","29.86","-999","-999","-9999","-9999","-9999.00","-9999.00","Clear","clear","0","0","0","0","0","0","METAR UKKK 292200Z 33004MPS CAVOK 22/18 Q1011 R26/CLRD70 NOSIG"
"1:30 AM EEST on June 30, 2016","2016","06","30","01","30","Europe/Kiev","10:30 PM GMT on June 29, 2016","2016","06","29","22","30","UTC","22.0","71.6","18.0","64.4","78","14.4","8.9","-9999.0","-9999.0","340","NNW","-9999.0","-9999.0","1011","29.86","-999","-999","-9999","-9999","-9999.00","-9999.00","Clear","clear","0","0","0","0","0","0","METAR UKKK 292230Z 34004MPS 320V020 CAVOK 22/18 Q1011 R26/CLRD70 NOSIG"
"2:00 AM EEST on June 30, 2016","2016","06","30","02","00","Europe/Kiev","11:00 PM GMT on June 29, 2016","2016","06","29","23","00","UTC","21.0","69.8","18.0","64.4","83","10.8","6.7","-9999.0","-9999.0","340","NNW","-9999.0","-9999.0","1011","29.86","-999","-999","-9999","-9999","-9999.00","-9999.00","Clear","clear","0","0","0","0","0","0","METAR UKKK 292300Z 34003MPS CAVOK 21/18 Q1011 R26/CLRD70 NOSIG"
"2:30 AM EEST on June 30, 2016","2016","06","30","02","30","Europe/Kiev","11:30 PM GMT on June 29, 2016","2016","06","29","23","30","UTC","21.0","69.8","18.0","64.4","83","10.8","6.7","-9999.0","-9999.0","330","NNW","-9999.0","-9999.0","1011","29.86","-999","-999","-9999","-9999","-9999.00","-9999.00","Clear","clear","0","0","0","0","0","0","METAR UKKK 292330Z 33003MPS CAVOK 21/18 Q1011 R26/CLRD70 NOSIG"
"3:00 AM EEST on June 30, 2016","2016","06","30","03","00","Europe/Kiev","12:00 AM GMT on June 30, 2016","2016","06","30","00","00","UTC","22","71","17","63","68","7.2","4.5","","","340","NNW","20","12","1011","29.86","-999","-999","-9999","-9999","","","","","0","0","0","0","0","0","AAXX 30001 33345 32998 03402 10215 20171 39919 40112 52003 555 10020"
"3:00 AM EEST on June 30, 2016","2016","06","30","03","00","Europe/Kiev","12:00 AM GMT on June 30, 2016","2016","06","30","00","00","UTC","20.0","68.0","18.0","64.4","88","7.2","4.5","-9999.0","-9999.0","340","NNW","-9999.0","-9999.0","1012","29.89","-999","-999","-9999","-9999","-9999.00","-9999.00","Clear","clear","0","0","0","0","0","0","METAR UKKK 300000Z 34002MPS CAVOK 20/18 Q1012 R26/CLRD70 NOSIG"
"3:30 AM EEST on June 30, 2016","2016","06","30","03","30","Europe/Kiev","12:30 AM GMT on June 30, 2016","2016","06","30","00","30","UTC","20.0","68.0","18.0","64.4","88","14.4","8.9","-9999.0","-9999.0","320","NW","-9999.0","-9999.0","1012","29.89","-999","-999","-9999","-9999","-9999.00","-9999.00","Clear","clear","0","0","0","0","0","0","METAR UKKK 300030Z 32004MPS CAVOK 20/18 Q1012 R26/CLRD70 NOSIG"
"4:00 AM EEST on June 30, 2016","2016","06","30","04","00","Europe/Kiev","1:00 AM GMT on June 30, 2016","2016","06","30","01","00","UTC","20.0","68.0","18.0","64.4","88","10.8","6.7","-9999.0","-9999.0","350","North","-9999.0","-9999.0","1012","29.89","-999","-999","-9999","-9999","-9999.00","-9999.00","Clear","clear","0","0","0","0","0","0","METAR UKKK 300100Z 35003MPS CAVOK 20/18 Q1012 R26/CLRD70 NOSIG"
"4:30 AM EEST on June 30, 2016","2016","06","30","04","30","Europe/Kiev","1:30 AM GMT on June 30, 2016","2016","06","30","01","30","UTC","20.0","68.0","18.0","64.4","88","10.8","6.7","-9999.0","-9999.0","360","North","-9999.0","-9999.0","1012","29.89","-999","-999","-9999","-9999","-9999.00","-9999.00","Clear","clear","0","0","0","0","0","0","METAR UKKK 300130Z 36003MPS 310V040 CAVOK 20/18 Q1012 R26/CLRD70 NOSIG"
"5:00 AM EEST on June 30, 2016","2016","06","30","05","00","Europe/Kiev","2:00 AM GMT on June 30, 2016","2016","06","30","02","00","UTC","20.0","68.0","18.0","64.4","88","10.8","6.7","-9999.0","-9999.0","350","North","-9999.0","-9999.0","1012","29.89","-999","-999","-9999","-9999","-9999.00","-9999.00","Clear","clear","0","0","0","0","0","0","METAR UKKK 300200Z 35003MPS 330V030 CAVOK 20/18 Q1012 R26/CLRD70 NOSIG"
"5:30 AM EEST on June 30, 2016","2016","06","30","05","30","Europe/Kiev","2:30 AM GMT on June 30, 2016","2016","06","30","02","30","UTC","19.0","66.2","18.0","64.4","94","7.2","4.5","-9999.0","-9999.0","340","NNW","-9999.0","-9999.0","1012","29.89","-999","-999","-9999","-9999","-9999.00","-9999.00","Clear","clear","0","0","0","0","0","0","METAR UKKK 300230Z 34002MPS 300V020 CAVOK 19/18 Q1012 R26/CLRD70 NOSIG"
"6:00 AM EEST on June 30, 2016","2016","06","30","06","00","Europe/Kiev","3:00 AM GMT on June 30, 2016","2016","06","30","03","00","UTC","20","69","18","65","82","7.2","4.5","","","330","NNW","20","12","1012","29.89","-999","-999","-9999","-9999","","","","","0","0","0","0","0","0","AAXX 30031 33345 42998 03302 10204 20182 39927 40120 52008 555 10021"
"6:00 AM EEST on June 30, 2016","2016","06","30","06","00","Europe/Kiev","3:00 AM GMT on June 30, 2016","2016","06","30","03","00","UTC","20.0","68.0","18.0","64.4","88","10.8","6.7","-9999.0","-9999.0","340","NNW","10.0","6.2","1012","29.89","-999","-999","-9999","-9999","-9999.00","-9999.00","Scattered Clouds","partlycloudy","0","0","0","0","0","0","METAR UKKK 300300Z 34003MPS 310V020 9999 SCT010 20/18 Q1012 R26/CLRD70 NOSIG"
"6:30 AM EEST on June 30, 2016","2016","06","30","06","30","Europe/Kiev","3:30 AM GMT on June 30, 2016","2016","06","30","03","30","UTC","20.0","68.0","19.0","66.2","94","10.8","6.7","-9999.0","-9999.0","350","North","10.0","6.2","1012","29.89","-999","-999","-9999","-9999","-9999.00","-9999.00","Scattered Clouds","partlycloudy","0","0","0","0","0","0","METAR UKKK 300330Z 35003MPS 9999 SCT010 20/19 Q1012 R26/CLRD70 NOSIG"
"7:00 AM EEST on June 30, 2016","2016","06","30","07","00","Europe/Kiev","4:00 AM GMT on June 30, 2016","2016","06","30","04","00","UTC","20.0","68.0","19.0","66.2","94","10.8","6.7","-9999.0","-9999.0","360","North","10.0","6.2","1012","29.89","-999","-999","-9999","-9999","-9999.00","-9999.00","Mostly Cloudy","mostlycloudy","0","0","0","0","0","0","METAR UKKK 300400Z 36003MPS 330V030 9999 BKN008 20/19 Q1012 R26/CLRD70 NOSIG"
"7:30 AM EEST on June 30, 2016","2016","06","30","07","30","Europe/Kiev","4:30 AM GMT on June 30, 2016","2016","06","30","04","30","UTC","21.0","69.8","19.0","66.2","88","14.4","8.9","-9999.0","-9999.0","360","North","10.0","6.2","1012","29.89","-999","-999","-9999","-9999","-9999.00","-9999.00","Scattered Clouds","partlycloudy","0","0","0","0","0","0","METAR UKKK 300430Z 36004MPS 330V030 9999 SCT009 21/19 Q1012 R26/CLRD70 NOSIG"
"8:00 AM EEST on June 30, 2016","2016","06","30","08","00","Europe/Kiev","5:00 AM GMT on June 30, 2016","2016","06","30","05","00","UTC","22.0","71.6","19.0","66.2","83","14.4","8.9","-9999.0","-9999.0","10","North","10.0","6.2","1013","29.92","-999","-999","-9999","-9999","-9999.00","-9999.00","Scattered Clouds","partlycloudy","0","0","0","0","0","0","METAR UKKK 300500Z 01004MPS 9999 SCT009 22/19 Q1013 R26/CLRD70 NOSIG"
"8:30 AM EEST on June 30, 2016","2016","06","30","08","30","Europe/Kiev","5:30 AM GMT on June 30, 2016","2016","06","30","05","30","UTC","23.0","73.4","20.0","68.0","83","14.4","8.9","-9999.0","-9999.0","360","North","10.0","6.2","1013","29.92","-999","-999","-9999","-9999","-9999.00","-9999.00","Scattered Clouds","partlycloudy","0","0","0","0","0","0","METAR UKKK 300530Z 36004MPS 330V040 9999 FEW014 SCT200 23/20 Q1013 R26/CLRD70 NOSIG"
"9:00 AM EEST on June 30, 2016","2016","06","30","09","00","Europe/Kiev","6:00 AM GMT on June 30, 2016","2016","06","30","06","00","UTC","24","75","19","66","67","10.8","6.7","","","10","North","20","12","1012","29.90","-999","-999","-9999","-9999","","","Scattered Clouds","partlycloudy","0","0","0","0","0","0","AAXX 30061 33345 32698 20103 10237 20190 39932 40123 52005 82100 333 20202 555 10037"
"9:00 AM EEST on June 30, 2016","2016","06","30","09","00","Europe/Kiev","6:00 AM GMT on June 30, 2016","2016","06","30","06","00","UTC","24.0","75.2","19.0","66.2","73","14.4","8.9","-9999.0","-9999.0","10","North","10.0","6.2","1013","29.92","-999","-999","-9999","-9999","-9999.00","-9999.00","Scattered Clouds","partlycloudy","0","0","0","0","0","0","METAR UKKK 300600Z 01004MPS 340V050 9999 FEW019 SCT200 24/19 Q1013 R26/CLRD70 NOSIG"
"9:30 AM EEST on June 30, 2016","2016","06","30","09","30","Europe/Kiev","6:30 AM GMT on June 30, 2016","2016","06","30","06","30","UTC","25.0","77.0","20.0","68.0","74","14.4","8.9","-9999.0","-9999.0","360","North","10.0","6.2","1013","29.92","-999","-999","-9999","-9999","-9999.00","-9999.00","Scattered Clouds","partlycloudy","0","0","0","0","0","0","METAR UKKK 300630Z 36004MPS 340V040 9999 SCT020 25/20 Q1013 R26/CLRD70 NOSIG"
"10:00 AM EEST on June 30, 2016","2016","06","30","10","00","Europe/Kiev","7:00 AM GMT on June 30, 2016","2016","06","30","07","00","UTC","26.0","78.8","20.0","68.0","69","18.0","11.2","-9999.0","-9999.0","360","North","10.0","6.2","1013","29.92","-999","-999","-9999","-9999","-9999.00","-9999.00","Mostly Cloudy","mostlycloudy","0","0","0","0","0","0","METAR UKKK 300700Z 36005MPS 330V040 9999 BKN024 26/20 Q1013 R26/CLRD70 NOSIG"
"10:30 AM EEST on June 30, 2016","2016","06","30","10","30","Europe/Kiev","7:30 AM GMT on June 30, 2016","2016","06","30","07","30","UTC","26.0","78.8","19.0","66.2","65","18.0","11.2","-9999.0","-9999.0","10","North","10.0","6.2","1013","29.92","-999","-999","-9999","-9999","-9999.00","-9999.00","Mostly Cloudy","mostlycloudy","0","0","0","0","0","0","METAR UKKK 300730Z 01005MPS 9999 BKN027 26/19 Q1013 R26/CLRD70 NOSIG"
"11:00 AM EEST on June 30, 2016","2016","06","30","11","00","Europe/Kiev","8:00 AM GMT on June 30, 2016","2016","06","30","08","00","UTC","26.0","78.8","19.0","66.2","65","18.0","11.2","-9999.0","-9999.0","10","North","10.0","6.2","1013","29.92","-999","-999","-9999","-9999","-9999.00","-9999.00","Mostly Cloudy","mostlycloudy","0","0","0","0","0","0","METAR UKKK 300800Z 01005MPS 9999 BKN029 26/19 Q1013 R08/CLRD70 NOSIG"
"11:30 AM EEST on June 30, 2016","2016","06","30","11","30","Europe/Kiev","8:30 AM GMT on June 30, 2016","2016","06","30","08","30","UTC","26.0","78.8","18.0","64.4","61","21.6","13.4","-9999.0","-9999.0","20","NNE","10.0","6.2","1014","29.95","-999","-999","-9999","-9999","-9999.00","-9999.00","Mostly Cloudy","mostlycloudy","0","0","0","0","0","0","METAR UKKK 300830Z 02006MPS 9999 BKN032 26/18 Q1014 R08/CLRD70 NOSIG"
"12:00 PM EEST on June 30, 2016","2016","06","30","12","00","Europe/Kiev","9:00 AM GMT on June 30, 2016","2016","06","30","09","00","UTC","27","80","18","65","52","18.0","11.2","","","20","NNE","20","12","1013","29.91","-999","-999","-9999","-9999","","","Mostly Cloudy","mostlycloudy","0","0","0","0","0","0","AAXX 30091 33345 42598 60205 10266 20185 39939 40129 52007 85902 555 10051"
"12:00 PM EEST on June 30, 2016","2016","06","30","12","00","Europe/Kiev","9:00 AM GMT on June 30, 2016","2016","06","30","09","00","UTC","26.0","78.8","18.0","64.4","61","18.0","11.2","-9999.0","-9999.0","20","NNE","10.0","6.2","1014","29.95","-999","-999","-9999","-9999","-9999.00","-9999.00","Mostly Cloudy","mostlycloudy","0","0","0","0","0","0","METAR UKKK 300900Z 02005MPS 340V050 9999 BKN038 26/18 Q1014 R08/CLRD70 NOSIG"
"12:30 PM EEST on June 30, 2016","2016","06","30","12","30","Europe/Kiev","9:30 AM GMT on June 30, 2016","2016","06","30","09","30","UTC","27.0","80.6","19.0","66.2","61","21.6","13.4","-9999.0","-9999.0","20","NNE","10.0","6.2","1013","29.92","-999","-999","28.2","82.7","-9999.00","-9999.00","Mostly Cloudy","mostlycloudy","0","0","0","0","0","0","METAR UKKK 300930Z 02006MPS 340V060 9999 BKN038 27/19 Q1013 R08/CLRD70 NOSIG"
"1:00 PM EEST on June 30, 2016","2016","06","30","13","00","Europe/Kiev","10:00 AM GMT on June 30, 2016","2016","06","30","10","00","UTC","28.0","82.4","19.0","66.2","58","21.6","13.4","-9999.0","-9999.0","30","NNE","10.0","6.2","1014","29.95","-999","-999","29.2","84.6","-9999.00","-9999.00","Mostly Cloudy","mostlycloudy","0","0","0","0","0","0","METAR UKKK 301000Z 03006MPS 360V060 9999 BKN037 28/19 Q1014 R08/CLRD70 NOSIG"
"1:30 PM EEST on June 30, 2016","2016","06","30","13","30","Europe/Kiev","10:30 AM GMT on June 30, 2016","2016","06","30","10","30","UTC","28.0","82.4","18.0","64.4","54","21.6","13.4","-9999.0","-9999.0","10","North","10.0","6.2","1013","29.92","-999","-999","28.8","83.9","-9999.00","-9999.00","Mostly Cloudy","mostlycloudy","0","0","0","0","0","0","METAR UKKK 301030Z 01006MPS 320V030 9999 BKN041 28/18 Q1013 R08/CLRD70 NOSIG"
"2:00 PM EEST on June 30, 2016","2016","06","30","14","00","Europe/Kiev","11:00 AM GMT on June 30, 2016","2016","06","30","11","00","UTC","28.0","82.4","18.0","64.4","54","18.0","11.2","-9999.0","-9999.0","20","NNE","10.0","6.2","1013","29.92","-999","-999","28.8","83.9","-9999.00","-9999.00","Mostly Cloudy","mostlycloudy","0","0","0","0","0","0","METAR UKKK 301100Z 02005MPS 340V070 9999 SCT033TCU BKN050 28/18 Q1013 R08/CLRD70 NOSIG"
"2:30 PM EEST on June 30, 2016","2016","06","30","14","30","Europe/Kiev","11:30 AM GMT on June 30, 2016","2016","06","30","11","30","UTC","28.0","82.4","18.0","64.4","54","18.0","11.2","-9999.0","-9999.0","10","North","10.0","6.2","1013","29.92","-999","-999","28.8","83.9","-9999.00","-9999.00","Mostly Cloudy","mostlycloudy","0","0","0","0","0","0","METAR UKKK 301130Z 01005MPS 340V050 9999 SCT036TCU BKN050 28/18 Q1013 R08/CLRD70 NOSIG"
"3:00 PM EEST on June 30, 2016","2016","06","30","15","00","Europe/Kiev","12:00 PM GMT on June 30, 2016","2016","06","30","12","00","UTC","28","82","17","63","42","18.0","11.2","","","20","NNE","20","12","1012","29.90","-999","-999","-9999","-9999","","","Partly Cloudy","partlycloudy","0","0","0","0","0","0","AAXX 30121 33345 32598 40205 10278 20170 39934 40123 58005 83802 555 10051"
"3:00 PM EEST on June 30, 2016","2016","06","30","15","00","Europe/Kiev","12:00 PM GMT on June 30, 2016","2016","06","30","12","00","UTC","29.0","84.2","18.0","64.4","51","18.0","11.2","-9999.0","-9999.0","360","North","10.0","6.2","1013","29.92","-999","-999","29.8","85.6","-9999.00","-9999.00","Mostly Cloudy","mostlycloudy","0","0","0","0","0","0","METAR UKKK 301200Z 36005MPS 320V040 9999 FEW036TCU BKN050 29/18 Q1013 R08/CLRD70 NOSIG"
"3:30 PM EEST on June 30, 2016","2016","06","30","15","30","Europe/Kiev","12:30 PM GMT on June 30, 2016","2016","06","30","12","30","UTC","29.0","84.2","18.0","64.4","51","21.6","13.4","-9999.0","-9999.0","350","North","10.0","6.2","1013","29.92","-999","-999","29.8","85.6","-9999.00","-9999.00","Mostly Cloudy","mostlycloudy","0","0","0","0","0","0","METAR UKKK 301230Z 35006MPS 290V050 9999 FEW036TCU BKN052 29/18 Q1013 R08/CLRD70 NOSIG"
"4:00 PM EEST on June 30, 2016","2016","06","30","16","00","Europe/Kiev","1:00 PM GMT on June 30, 2016","2016","06","30","13","00","UTC","29.0","84.2","17.0","62.6","48","21.6","13.4","-9999.0","-9999.0","350","North","10.0","6.2","1013","29.92","-999","-999","29.4","85.0","-9999.00","-9999.00","Mostly Cloudy","mostlycloudy","0","0","0","0","0","0","METAR UKKK 301300Z 35006MPS 310V020 9999 FEW035TCU BKN052 29/17 Q1013 R08/CLRD70 NOSIG"
"4:30 PM EEST on June 30, 2016","2016","06","30","16","30","Europe/Kiev","1:30 PM GMT on June 30, 2016","2016","06","30","13","30","UTC","29.0","84.2","17.0","62.6","48","21.6","13.4","-9999.0","-9999.0","360","North","10.0","6.2","1013","29.92","-999","-999","29.4","85.0","-9999.00","-9999.00","Scattered Clouds","partlycloudy","0","0","0","0","0","0","METAR UKKK 301330Z 36006MPS 330V040 9999 FEW030CB SCT053 29/17 Q1013 R08/CLRD70 NOSIG"
"5:00 PM EEST on June 30, 2016","2016","06","30","17","00","Europe/Kiev","2:00 PM GMT on June 30, 2016","2016","06","30","14","00","UTC","29.0","84.2","17.0","62.6","48","21.6","13.4","-9999.0","-9999.0","360","North","10.0","6.2","1013","29.92","-999","-999","29.4","85.0","-9999.00","-9999.00","Scattered Clouds","partlycloudy","0","0","0","0","0","0","METAR UKKK 301400Z 36006MPS 330V030 9999 FEW030CB SCT053 29/17 Q1013 R08/CLRD70 NOSIG"
"5:30 PM EEST on June 30, 2016","2016","06","30","17","30","Europe/Kiev","2:30 PM GMT on June 30, 2016","2016","06","30","14","30","UTC","29.0","84.2","16.0","60.8","45","21.6","13.4","-9999.0","-9999.0","10","North","10.0","6.2","1013","29.92","-999","-999","29.1","84.4","-9999.00","-9999.00","Scattered Clouds","partlycloudy","0","0","0","0","0","0","METAR UKKK 301430Z 01006MPS 330V040 9999 FEW031CB SCT053 29/16 Q1013 R08/CLRD70 NOSIG"
"6:00 PM EEST on June 30, 2016","2016","06","30","18","00","Europe/Kiev","3:00 PM GMT on June 30, 2016","2016","06","30","15","00","UTC","28","82","16","61","39","14.4","8.9","","","10","North","20","12","1012","29.89","-999","-999","-9999","-9999","","","Partly Cloudy","partlycloudy","0","0","0","0","0","0","AAXX 30151 33345 42598 50104 10278 20162 39932 40121 56002 83905 555 10037"
"6:00 PM EEST on June 30, 2016","2016","06","30","18","00","Europe/Kiev","3:00 PM GMT on June 30, 2016","2016","06","30","15","00","UTC","29.0","84.2","17.0","62.6","48","21.6","13.4","-9999.0","-9999.0","10","North","10.0","6.2","1013","29.92","-999","-999","29.4","85.0","-9999.00","-9999.00","Scattered Clouds","partlycloudy","0","0","0","0","0","0","METAR UKKK 301500Z 01006MPS 9999 FEW031CB SCT059 29/17 Q1013 R08/CLRD70 NOSIG"
"6:30 PM EEST on June 30, 2016","2016","06","30","18","30","Europe/Kiev","3:30 PM GMT on June 30, 2016","2016","06","30","15","30","UTC","29.0","84.2","16.0","60.8","45","21.6","13.4","-9999.0","-9999.0","350","North","10.0","6.2","1013","29.92","-999","-999","29.1","84.4","-9999.00","-9999.00","Scattered Clouds","partlycloudy","0","0","0","0","0","0","METAR UKKK 301530Z 35006MPS 9999 FEW030CB SCT052 29/16 Q1013 R08/CLRD70 NOSIG"
"7:00 PM EEST on June 30, 2016","2016","06","30","19","00","Europe/Kiev","4:00 PM GMT on June 30, 2016","2016","06","30","16","00","UTC","28.0","82.4","16.0","60.8","48","25.2","15.7","-9999.0","-9999.0","10","North","-9999.0","-9999.0","1013","29.92","-999","-999","28.3","82.9","-9999.00","-9999.00","Clear","clear","0","0","0","0","0","0","METAR UKKK 301600Z 01007MPS CAVOK 28/16 Q1013 R08/CLRD70 NOSIG"
"7:30 PM EEST on June 30, 2016","2016","06","30","19","30","Europe/Kiev","4:30 PM GMT on June 30, 2016","2016","06","30","16","30","UTC","28.0","82.4","17.0","62.6","51","21.6","13.4","-9999.0","-9999.0","10","North","-9999.0","-9999.0","1013","29.92","-999","-999","28.5","83.4","-9999.00","-9999.00","Clear","clear","0","0","0","0","0","0","METAR UKKK 301630Z 01006MPS CAVOK 28/17 Q1013 R08/CLRD70 NOSIG"
"8:00 PM EEST on June 30, 2016","2016","06","30","20","00","Europe/Kiev","5:00 PM GMT on June 30, 2016","2016","06","30","17","00","UTC","27.0","80.6","17.0","62.6","54","18.0","11.2","-9999.0","-9999.0","40","NE","-9999.0","-9999.0","1014","29.95","-999","-999","27.7","81.8","-9999.00","-9999.00","Clear","clear","0","0","0","0","0","0","METAR UKKK 301700Z 04005MPS CAVOK 27/17 Q1014 R08/CLRD70 NOSIG"
"8:30 PM EEST on June 30, 2016","2016","06","30","20","30","Europe/Kiev","5:30 PM GMT on June 30, 2016","2016","06","30","17","30","UTC","26.0","78.8","17.0","62.6","57","14.4","8.9","-9999.0","-9999.0","40","NE","10.0","6.2","1014","29.95","-999","-999","-9999","-9999","-9999.00","-9999.00","Scattered Clouds","partlycloudy","0","0","0","0","0","0","METAR UKKK 301730Z 04004MPS 9999 FEW033CB SCT055 26/17 Q1014 R08/CLRD70 NOSIG"
"9:00 PM EEST on June 30, 2016","2016","06","30","21","00","Europe/Kiev","6:00 PM GMT on June 30, 2016","2016","06","30","18","00","UTC","26","79","18","65","53","7.2","4.5","","","70","ENE","20","12","1013","29.93","-999","-999","-9999","-9999","","","Partly Cloudy","partlycloudy","0","0","0","0","0","0","AAXX 30181 33345 32598 50702 10259 20182 39944 40134 53012 83975 333 10289 555 10028"
"9:00 PM EEST on June 30, 2016","2016","06","30","21","00","Europe/Kiev","6:00 PM GMT on June 30, 2016","2016","06","30","18","00","UTC","26.0","78.8","17.0","62.6","57","10.8","6.7","-9999.0","-9999.0","40","NE","10.0","6.2","1014","29.95","-999","-999","-9999","-9999","-9999.00","-9999.00","Scattered Clouds","partlycloudy","0","0","0","0","0","0","METAR UKKK 301800Z 04003MPS 9999 FEW033CB SCT055 26/17 Q1014 R08/CLRD70 NOSIG"
"9:30 PM EEST on June 30, 2016","2016","06","30","21","30","Europe/Kiev","6:30 PM GMT on June 30, 2016","2016","06","30","18","30","UTC","24.0","75.2","18.0","64.4","69","7.2","4.5","-9999.0","-9999.0","80","East","1.3","0.8","1014","29.95","-999","-999","-9999","-9999","-9999.00","-9999.00","Smoke","hazy","0","0","0","0","0","0","METAR UKKK 301830Z 08002MPS 1300 R08/1000VP2000D FU NSC 24/18 Q1014 R08/CLRD70 TEMPO 1000 FU"
"9:42 PM EEST on June 30, 2016","2016","06","30","21","42","Europe/Kiev","6:42 PM GMT on June 30, 2016","2016","06","30","18","42","UTC","24.0","75.2","18.0","64.4","69","7.2","4.5","-9999.0","-9999.0","90","East","5.0","3.1","1014","29.95","-999","-999","-9999","-9999","-9999.00","-9999.00","Smoke","hazy","0","0","0","0","0","0","SPECI UKKK 301842Z 09002MPS 5000 FU NSC 24/18 Q1014 R08/CLRD70 TEMPO 1000 FU"
"10:00 PM EEST on June 30, 2016","2016","06","30","22","00","Europe/Kiev","7:00 PM GMT on June 30, 2016","2016","06","30","19","00","UTC","23.0","73.4","18.0","64.4","73","3.6","2.2","-9999.0","-9999.0","90","East","9.0","5.6","1014","29.95","-999","-999","-9999","-9999","-9999.00","-9999.00","Unknown","unknown","0","0","0","0","0","0","METAR UKKK 301900Z 09001MPS 9000 NSC 23/18 Q1014 R08/CLRD70 TEMPO 1000 FU"
"10:30 PM EEST on June 30, 2016","2016","06","30","22","30","Europe/Kiev","7:30 PM GMT on June 30, 2016","2016","06","30","19","30","UTC","23.0","73.4","19.0","66.2","78","0.0","0.0","-9999.0","-9999.0","0","North","-9999.0","-9999.0","1015","29.98","-999","-999","-9999","-9999","-9999.00","-9999.00","Clear","clear","0","0","0","0","0","0","METAR UKKK 301930Z 00000MPS CAVOK 23/19 Q1015 R08/CLRD70 NOSIG"
"11:00 PM EEST on June 30, 2016","2016","06","30","23","00","Europe/Kiev","8:00 PM GMT on June 30, 2016","2016","06","30","20","00","UTC","21.0","69.8","19.0","66.2","88","0.0","0.0","-9999.0","-9999.0","0","North","-9999.0","-9999.0","1015","29.98","-999","-999","-9999","-9999","-9999.00","-9999.00","Clear","clear","0","0","0","0","0","0","METAR UKKK 302000Z 00000MPS CAVOK 21/19 Q1015 R08/CLRD70 NOSIG"
"11:30 PM EEST on June 30, 2016","2016","06","30","23","30","Europe/Kiev","8:30 PM GMT on June 30, 2016","2016","06","30","20","30","UTC","21.0","69.8","19.0","66.2","88","0.0","0.0","-9999.0","-9999.0","0","North","-9999.0","-9999.0","1015","29.98","-999","-999","-9999","-9999","-9999.00","-9999.00","Clear","clear","0","0","0","0","0","0","METAR UKKK 302030Z 00000MPS CAVOK 21/19 Q1015 R08/CLRD70 NOSIG"
